{"type":"Topology","objects":{"a1":{"type":"GeometryCollection","geometries":[{"type":"Polygon","arcs":[[0]],"id":"AGO-1885","properties":{"adm1_code":"AGO-1885","iso_3166_2":"AO-CAB","name":"Cabinda","admin":"Angola","adm0_a3":"AGO","type_en":"Province"}},{"type":"Polygon","arcs":[[1,2,3,4,5]],"id":"AGO-1888","properties":{"adm1_code":"AGO-1888","iso_3166_2":"AO-CCU","name":"Cuando Cubango","admin":"Angola","adm0_a3":"AGO","type_en":"Province"}},{"type":"Polygon","arcs":[[6,-6,7,8]],"id":"AGO-1892","properties":{"adm1_code":"AGO-1892","iso_3166_2":"AO-MOX","name":"Moxico","admin":"Angola","adm0_a3":"AGO","type_en":"Province"}},{"type":"Polygon","arcs":[[9,10,11,12]],"id":"AGO-1893","properties":{"adm1_code":"AGO-1893","iso_3166_2":"AO-NAM","name":"Namibe","admin":"Angola","adm0_a3":"AGO","type_en":"Province"}},{"type":"Polygon","arcs":[[-3,13,-12,14]],"id":"AGO-1889","properties":{"adm1_code":"AGO-1889","iso_3166_2":"AO-CNN","name":"Cunene","admin":"Angola","adm0_a3":"AGO","type_en":"Province"}},{"type":"Polygon","arcs":[[15,16,17]],"id":"AGO-1882","properties":{"adm1_code":"AGO-1882","iso_3166_2":"AO-ZAI","name":"Zaire","admin":"Angola","adm0_a3":"AGO","type_en":"Province"}},{"type":"Polygon","arcs":[[18,19,20,-16,21]],"id":"AGO-1881","properties":{"adm1_code":"AGO-1881","iso_3166_2":"AO-UIG","name":"Uíge","admin":"Angola","adm0_a3":"AGO","type_en":"Province"}},{"type":"Polygon","arcs":[[22,23,24]],"id":"AGO-1874","properties":{"adm1_code":"AGO-1874","iso_3166_2":"AO-LNO","name":"Lunda Norte","admin":"Angola","adm0_a3":"AGO","type_en":"Province"}},{"type":"Polygon","arcs":[[25,-25,26,27,28,29,-19]],"id":"AGO-1876","properties":{"adm1_code":"AGO-1876","iso_3166_2":"AO-MAL","name":"Malanje","admin":"Angola","adm0_a3":"AGO","type_en":"Province"}},{"type":"Polygon","arcs":[[30,-9,31,-27,-24]],"id":"AGO-1875","properties":{"adm1_code":"AGO-1875","iso_3166_2":"AO-LSU","name":"Lunda Sul","admin":"Angola","adm0_a3":"AGO","type_en":"Province"}},{"type":"Polygon","arcs":[[-29,32,33,34,35,36,37]],"id":"AGO-1879","properties":{"adm1_code":"AGO-1879","iso_3166_2":"AO-CUS","name":"Cuanza Sul","admin":"Angola","adm0_a3":"AGO","type_en":"Province"}},{"type":"Polygon","arcs":[[-10,38,-35,39,40]],"id":"AGO-1887","properties":{"adm1_code":"AGO-1887","iso_3166_2":"AO-BGU","name":"Benguela","admin":"Angola","adm0_a3":"AGO","type_en":"Province"}},{"type":"Polygon","arcs":[[-17,-21,41,-37,42,43,44]],"id":"AGO-1877","properties":{"adm1_code":"AGO-1877","iso_3166_2":"AO-BGO","name":"Bengo","admin":"Angola","adm0_a3":"AGO","type_en":"Province"}},{"type":"Polygon","arcs":[[-44,45]],"id":"AGO-1880","properties":{"adm1_code":"AGO-1880","iso_3166_2":"AO-LUA","name":"Luanda","admin":"Angola","adm0_a3":"AGO","type_en":"Province"}},{"type":"Polygon","arcs":[[-5,46,47,-33,-28,-32,-8]],"id":"AGO-1886","properties":{"adm1_code":"AGO-1886","iso_3166_2":"AO-BIE","name":"Bié","admin":"Angola","adm0_a3":"AGO","type_en":"Province"}},{"type":"Polygon","arcs":[[-20,-30,-38,-42]],"id":"AGO-1878","properties":{"adm1_code":"AGO-1878","iso_3166_2":"AO-CNO","name":"Cuanza Norte","admin":"Angola","adm0_a3":"AGO","type_en":"Province"}},{"type":"Polygon","arcs":[[-4,-15,-11,-41,48,-47]],"id":"AGO-1891","properties":{"adm1_code":"AGO-1891","iso_3166_2":"AO-HUI","name":"Huíla","admin":"Angola","adm0_a3":"AGO","type_en":"Province"}},{"type":"Polygon","arcs":[[-34,-48,-49,-40]],"id":"AGO-1890","properties":{"adm1_code":"AGO-1890","iso_3166_2":"AO-HUA","name":"Huambo","admin":"Angola","adm0_a3":"AGO","type_en":"Province"}}]}},"arcs":[[[10865,98272],[-358,-301],[-1600,-339],[-1263,-1473],[-506,-84],[-231,-471],[-1158,-411],[42,-313],[652,-471],[-168,-4130],[-1327,12],[-1095,-289],[-505,1062],[674,1014],[-800,1823],[-63,351],[-822,1014],[758,-169],[127,459],[-990,-97],[969,785],[463,1062],[379,-265],[800,278],[358,1074],[1874,399],[1411,1207],[590,-12],[400,-568],[1010,-966],[379,-181]],[[83132,13680],[780,-2137],[589,-1026],[695,-495],[779,-61],[674,-603],[863,-1172],[1516,-1026],[379,-736],[969,-677],[990,-338],[610,-821],[843,-531],[252,-471],[674,48],[737,-483],[0,-289],[-4001,-689],[-5348,-905],[-6886,-1135],[-1326,604],[-1874,-266],[-1453,-471],[-569,278],[-1390,60],[-1031,664],[-822,290],[-2463,-302],[-653,242],[-1284,0],[-990,144],[-2043,-120],[-2021,422],[-1221,-145],[-1074,169],[-1032,375],[-2190,2077],[-316,543],[-3664,12],[-5854,0]],[[44977,4709],[21,1232],[-379,1605],[0,1703],[611,1557],[505,544],[358,869],[-252,2306],[-21,930],[-716,869],[-1032,1642],[-674,447],[-253,519],[-610,206],[-421,495],[-653,374],[-800,1026]],[[40661,21033],[-442,616],[-274,797],[0,688],[-716,1232],[-548,604],[0,1461],[-336,1171],[273,893],[-189,1002]],[[38429,29497],[1368,73],[527,169],[1011,-338],[989,181],[485,-555],[252,-665],[1537,-917],[548,-157],[442,1231],[906,834],[1474,289],[1052,676],[232,351],[21,1147],[674,145],[484,748]],[[50431,32709],[2148,-1002],[948,-85],[1789,-627],[1411,-1051],[421,-688],[190,-1316],[758,-1183],[990,72],[1137,-121],[168,809],[337,193],[1579,-314],[906,49],[695,-701],[568,-1062],[1958,-1715],[464,-217],[863,-821],[1495,-592],[1179,-72],[2148,266],[990,-326],[1010,0],[1938,-1884],[358,84],[421,-821],[926,-446],[358,-1002],[463,-254],[1159,-1847],[715,-61],[1159,-1678],[1052,-616]],[[85786,54431],[105,-954],[-1285,-809],[653,-1654],[295,-1171],[484,422],[1053,423],[548,628],[1537,-447],[821,326],[1495,-362],[1495,217],[1432,712],[990,85],[1179,-302],[1558,-169],[758,604],[337,543],[295,-809],[-127,-966],[211,-121],[-21,-1050],[400,-894],[-421,-470],[0,-471],[-400,-689],[231,-1593],[-168,-351],[-63,-2306],[463,-603],[105,-785],[-821,-1292],[-526,-1666],[1095,-1558],[-6296,0],[-6065,0],[-4022,0],[0,-5083],[0,-5977],[0,-4419],[21,-3949],[0,-3791]],[[50431,32709],[-42,1304],[1053,894],[-295,893],[147,471],[906,906],[-126,736],[1179,978],[168,556],[758,833],[148,591],[695,604],[1558,845],[126,616],[674,519],[484,688],[-84,834],[842,917],[42,507],[801,351],[273,917],[737,568]],[[60475,48237],[737,386],[969,-60],[1811,1147],[737,-375],[1032,399],[715,-362],[316,289],[1116,-120],[569,507],[1579,-592],[295,97],[779,-471],[1979,-749],[1285,-205],[1053,0],[0,386],[905,314],[716,737],[2064,724],[842,-24],[842,350],[0,483],[-337,338],[148,966],[589,544],[-42,410],[442,942],[2043,121],[737,169],[821,-266],[569,109]],[[6464,32745],[653,242],[2485,-531],[1474,627],[1516,-301],[0,-749],[758,-1159],[1495,-181]],[[14845,30693],[484,-809],[-337,-918],[169,-893],[505,-532],[127,-1183],[-421,-664],[-316,-1087],[-400,-386],[-2001,-1147],[-231,-362],[42,-652],[-253,-520],[337,-482],[-505,-508],[652,-326],[127,-326],[800,-36],[189,-773],[864,-748],[42,-1485],[316,-640],[-632,-1280],[-105,-725],[231,-676],[-379,-459]],[[14150,13076],[-526,-531],[-1516,-797],[-211,-277],[379,-496],[-821,-929],[63,-387],[1221,-1159],[316,-712]],[[13055,7788],[-631,-121],[-822,254],[-1221,-193],[-1032,-387],[-568,-543],[-1474,-592],[-653,-374],[-779,96],[-1769,-12],[-1179,616],[-1242,-290],[-864,-483],[-568,-48],[-63,1606],[252,1666],[253,181],[0,2222],[-337,2777],[211,592],[-569,881],[126,737],[758,36],[400,350],[127,519],[674,423],[294,942],[232,1883],[379,447],[463,1606],[379,881],[527,604],[-63,398],[273,1389],[274,543],[84,1196],[-231,603],[126,701],[590,1111],[105,458],[695,169],[84,1751],[168,362]],[[44977,4709],[-7622,0],[-6338,0],[-4064,0],[-6802,0],[-1095,-254],[-1158,109],[-463,519],[-1537,749],[-1411,833],[-210,724],[-1222,399]],[[14150,13076],[1095,-869],[990,314],[1284,1232],[948,-314],[863,640],[1095,301],[1011,508],[1200,1062],[1516,-48],[2001,-507],[652,-809],[1053,24],[632,785],[674,1207],[1053,1437],[652,640],[1369,628],[1011,96],[463,-120],[1390,-12],[1390,169],[1158,1219],[1137,435],[1874,-61]],[[24531,89144],[737,-1111],[400,-1207],[548,-495],[-1453,-2004],[-611,-302],[-1453,-181],[-884,-580],[-590,36],[-505,-277],[-463,-725],[-1516,-507],[-843,-567],[-1179,-145],[463,-954],[569,-628],[-484,-1135],[737,-990],[-295,-374],[-590,-133],[-231,-483]],[[16888,76382],[-674,-350],[-1874,-495],[-843,289],[-1263,-302],[-1221,-410]],[[11013,75114],[-1243,2620],[-231,737],[-506,507],[-126,1907],[-147,435],[-885,978],[-695,580],[-1326,1968],[-506,1038],[-926,1304],[358,181],[1390,206],[1221,483],[779,-157],[1495,507],[484,579],[927,73],[674,265],[1284,-253],[316,253],[2106,-72],[2463,181],[632,-229],[948,60],[842,-193],[2716,-109],[1474,181]],[[43503,78157],[-947,-568],[-105,-567],[-632,-507],[-884,362],[-1243,1618],[-484,48],[-1264,-459],[-547,-338],[-505,-664],[-506,-326],[-905,-157],[-400,-519],[526,-1582],[63,-700],[-337,-1051],[-337,-314],[-1052,-398],[-969,0]],[[32975,72035],[-21,676],[-653,797],[-737,-24],[-695,-290],[-968,181],[-106,701],[-1031,-25],[-716,-241],[-84,-652],[315,-254],[-294,-941],[-590,-556],[-800,-121],[-758,290],[-843,-893],[-1263,-12]],[[23731,70671],[-168,1207],[568,1051],[63,1195],[-589,374],[-1137,-217],[-695,96],[-1053,544],[-1327,1304],[-2505,157]],[[24531,89144],[5496,85],[5391,72],[1747,36],[779,-314],[822,73],[673,-278],[64,-1002],[989,-942],[-42,-1750],[84,-1039],[295,-1014],[527,-882],[758,-446],[379,-918],[-379,-519],[147,-882],[421,-676],[821,-591]],[[47062,73037],[737,-169],[695,217],[611,-96],[926,253],[653,-422],[926,-24],[42,555],[611,242],[1432,-121],[1242,133],[85,483],[1789,0],[295,-507],[4717,0],[-190,990],[358,1002],[-168,1147],[547,-48],[737,736],[-315,1207],[105,1184],[379,628],[-105,483],[3579,0],[2674,0],[316,627],[2274,13],[-715,-1667],[-22,-1050],[4507,12],[5748,0],[463,-628],[148,-736],[-63,-846],[-211,-446],[-463,-1184],[-148,-893],[64,-628],[315,-193],[422,-749],[252,-1014],[253,-374]],[[82564,71154],[-948,-664],[-1158,-254],[-821,-616],[-1032,-229],[-1347,96],[-1874,-362],[-716,-362],[-822,-640],[-673,-833],[-485,-918],[-2169,-857],[-484,-857],[-1453,-592],[-1600,-1256],[-274,-1654],[-758,-1087],[-547,-301],[-1137,-254],[-737,-435],[-759,-108],[-1031,-640],[-590,-157],[-1263,-785],[-1811,-386],[-821,-628],[-1306,-411],[-1305,0]],[[54643,55964],[-801,24],[-1410,1002],[-169,363],[674,1219],[-211,326],[-4232,1437],[-548,60],[-442,713],[-652,217],[-780,700],[-84,532],[-526,917],[-21,375],[526,362],[1221,507],[274,737],[-126,1291],[168,761],[-42,1703],[-484,1110],[400,713],[-190,447],[-126,1557]],[[43503,78157],[569,-338],[-147,-363],[547,-821],[569,-289],[21,-544],[421,-628],[632,-434],[126,-532],[821,-724],[0,-447]],[[54643,55964],[673,-821],[801,-495],[-274,-821],[168,-809],[990,-1147]],[[57001,51871],[-105,-761],[337,-760],[-127,-471],[506,-845],[-2022,-483],[-1474,-930],[-1221,84],[-1748,-205],[-316,278],[-737,-12],[-210,797],[-548,-1063],[-1347,-1111],[-506,-133],[-674,290],[-189,906],[274,1352],[-927,1377],[379,652],[-568,784],[0,375],[-780,640],[-442,-61],[-547,350],[-548,-120],[-1663,616],[-821,-133],[-1432,1098],[21,326]],[[39566,54708],[-948,1027],[-400,652],[-905,700],[21,592],[337,217],[-569,1763],[-610,410],[-569,737],[-1200,181],[-948,-121],[-737,133],[-400,-483],[-1937,-48],[-1264,-205],[-1305,157],[-758,531]],[[27374,60951],[379,543],[-295,894],[442,495],[-442,772],[906,121],[442,773],[695,97],[947,434],[316,-133],[884,194],[43,1062],[189,930],[463,1171],[-863,869],[526,1015],[1095,446],[-126,1401]],[[82564,71154],[232,-1232],[-464,-2065],[-189,-471],[-169,-1811],[0,-1340],[-379,-869],[316,-689],[169,-953],[1179,-1401],[1305,-906],[400,-1219],[-42,-242],[885,-1738],[-316,-990],[295,-797]],[[60475,48237],[379,1195],[-294,471],[-885,229],[-947,761],[-1727,978]],[[39566,54708],[-442,-724],[-1895,-1183],[-822,-1039],[-442,-205],[-1326,157],[-443,254],[-631,-1546],[-716,-869],[21,-507],[-316,-725]],[[32554,48321],[-211,-169],[-1453,-278],[-1137,-386],[-421,-761],[400,-748],[-252,-1292],[-716,-399],[-1327,-398],[-379,-350],[-400,-809]],[[26658,42731],[-611,507],[-737,338],[-1010,-60],[-485,132],[-1242,1630],[-842,109],[-1453,-1147],[-1074,918],[-211,640],[-2295,289]],[[16698,46087],[-126,1172],[126,1823],[211,326],[210,1340],[21,966],[-168,507],[-716,954],[253,652],[-148,350],[-1179,1232],[-526,374],[-422,1304]],[[14234,57087],[274,278],[1664,-990],[842,-230],[842,49],[716,-206],[969,676],[568,230],[1474,-362],[695,-616],[548,-217],[463,531],[42,652],[-358,302],[21,688],[-253,833],[316,797],[-105,1111]],[[22952,60613],[1432,72],[905,338],[632,-48],[147,338],[1306,-362]],[[6464,32745],[-168,918],[990,724],[189,640],[842,471],[1495,1546],[-42,1207],[1938,1582],[694,133],[801,-73],[779,628],[379,1002],[589,290],[506,604],[526,1256],[84,507],[400,652],[232,1255]],[[26658,42731],[-42,-906],[421,-1364],[-1306,-580],[-821,-664],[42,-724],[316,-894],[485,-773],[147,-845],[-126,-434],[400,-737],[1200,-857]],[[27374,33953],[-169,-531],[-884,-351],[-547,37],[-1095,-785],[-1116,-242],[-969,363],[-547,-508],[-801,-1304],[-421,-132],[-2674,350],[-926,-145],[-1517,253],[-863,-265]],[[23731,70671],[-2295,72],[-927,-579],[169,-568],[400,-386],[295,-725],[-42,-495],[-695,-567],[-1285,-363],[-295,-446],[464,-350],[-548,-713],[611,-362],[421,-882],[-421,-639],[-527,-1268],[632,-749],[632,24],[358,-410],[1032,-49],[1031,-700],[211,97]],[[14234,57087],[-484,869],[-926,1135],[84,664],[-1032,1305],[190,688],[-422,1086],[-231,1003]],[[11413,63837],[337,144],[505,785],[484,302],[1432,85],[169,1316],[547,760],[548,230],[-169,1038],[-2000,833]],[[13266,69330],[-232,834],[337,169],[-126,881],[-737,1063],[-716,1497],[-779,1340]],[[11413,63837],[-169,120],[-1010,1606],[737,990],[273,37],[737,1026],[653,435],[716,0],[211,652],[-295,627]],[[38429,29497],[42,1208],[442,2173],[-42,1413]],[[38871,34291],[84,1497],[-147,652],[-127,2294],[-1095,556],[-505,700],[527,700],[63,773],[-337,749],[1158,929],[800,1328],[-21,447],[-779,676],[-105,447],[-1243,1063],[-168,785],[-1937,398],[-1222,-278],[-1263,314]],[[27374,33953],[379,-85],[1263,181],[421,-664],[106,-881],[947,-326],[127,-797],[842,241],[1074,773],[1369,1316],[673,290],[611,-350],[505,48],[885,713],[1747,-194],[548,73]]],"bbox":[11.735603924989732,-18.03070090012892,24.061686649699737,-4.400787677354856],"transform":{"scale":[0.00012326205986769873,0.00013630049523269297],"translate":[11.735603924989732,-18.03070090012892]}}