{"type":"Topology","objects":{"a1":{"type":"GeometryCollection","geometries":[{"type":"Polygon","arcs":[[0,1,2,3,4,5]],"id":"ALB-1526","properties":{"adm1_code":"ALB-1526","iso_3166_2":"AL-09","name":"Dibër","admin":"Albania","adm0_a3":"ALB","type_en":"County"}},{"type":"Polygon","arcs":[[-5,6,7,8]],"id":"ALB-1502","properties":{"adm1_code":"ALB-1502","iso_3166_2":"AL-07","name":"Kukës","admin":"Albania","adm0_a3":"ALB","type_en":"County"}},{"type":"Polygon","arcs":[[9,10,11,12]],"id":"ALB-1521","properties":{"adm1_code":"ALB-1521","iso_3166_2":"AL-06","name":"Korçë","admin":"Albania","adm0_a3":"ALB","type_en":"County"}},{"type":"Polygon","arcs":[[-13,13,14,15,-1,16]],"id":"ALB-1524","properties":{"adm1_code":"ALB-1524","iso_3166_2":"AL-03","name":"Elbasan","admin":"Albania","adm0_a3":"ALB","type_en":"County"}},{"type":"Polygon","arcs":[[-11,17,18,19,20]],"id":"ALB-1525","properties":{"adm1_code":"ALB-1525","iso_3166_2":"AL-05","name":"Gjirokastër","admin":"Albania","adm0_a3":"ALB","type_en":"County"}},{"type":"Polygon","arcs":[[21,22,-19]],"id":"ALB-1504","properties":{"adm1_code":"ALB-1504","iso_3166_2":"AL-12","name":"Vlorë","admin":"Albania","adm0_a3":"ALB","type_en":"County"}},{"type":"Polygon","arcs":[[-8,23,24]],"id":"ALB-1498","properties":{"adm1_code":"ALB-1498","iso_3166_2":"AL-10","name":"Shkodër","admin":"Albania","adm0_a3":"ALB","type_en":"County"}},{"type":"Polygon","arcs":[[-15,25,-20,-23,26,27]],"id":"ALB-1495","properties":{"adm1_code":"ALB-1495","iso_3166_2":"AL-04","name":"Fier","admin":"Albania","adm0_a3":"ALB","type_en":"County"}},{"type":"Polygon","arcs":[[-2,-16,-28,28,29]],"id":"ALB-1529","properties":{"adm1_code":"ALB-1529","iso_3166_2":"AL-11","name":"Tiranë","admin":"Albania","adm0_a3":"ALB","type_en":"County"}},{"type":"Polygon","arcs":[[-3,-30,30,31]],"id":"ALB-1494","properties":{"adm1_code":"ALB-1494","iso_3166_2":"AL-02","name":"Durrës","admin":"Albania","adm0_a3":"ALB","type_en":"County"}},{"type":"Polygon","arcs":[[-4,-32,32,-24,-7]],"id":"ALB-1528","properties":{"adm1_code":"ALB-1528","iso_3166_2":"AL-08","name":"Lezhë","admin":"Albania","adm0_a3":"ALB","type_en":"County"}},{"type":"Polygon","arcs":[[-12,-21,-26,-14]],"id":"ALB-1523","properties":{"adm1_code":"ALB-1523","iso_3166_2":"AL-01","name":"Berat","admin":"Albania","adm0_a3":"ALB","type_en":"County"}}]}},"arcs":[[[68047,56129],[-1628,2254],[-8727,-495],[-3403,-989]],[[54289,56899],[-7248,1979],[-3254,-385],[-7989,3958]],[[35798,62451],[-4289,1869]],[[31509,64320],[-1332,4728],[12130,-220],[7397,2034],[-2219,2144],[5177,2419]],[[52662,75425],[6361,-165],[4882,-1594],[7692,-55]],[[71597,73611],[592,-1484],[-2811,-2199],[1923,-4893],[-5177,-1264],[2219,-2694],[3254,-2199],[-3550,-2749]],[[52662,75425],[3403,3189],[-3107,1154]],[[52958,79768],[-3106,2529],[4437,2969],[-11390,2144],[-11686,330],[-2367,4892],[2219,1870]],[[31065,94502],[13461,2583],[5030,-1759],[5473,-5882],[4882,0],[7988,-2694],[4438,-5442],[2662,-4233],[-1775,-2474],[-1627,-990]],[[74851,48268],[3255,-330],[591,-550],[2219,-4123],[3551,-1429],[3994,1044],[5917,-549],[1479,-1925],[-148,-3793],[4290,-3243],[-1035,-2694],[-6213,-3299],[-4734,165],[-3402,-1759],[-1628,-3463],[-7100,-7587]],[[75887,14733],[-5030,2529],[-3698,5607],[-1035,3849]],[[66124,26718],[-1480,3023],[-7100,6542]],[[57544,36283],[6952,880],[3107,1539],[-3994,3024],[1331,3298],[6805,1375],[3106,1869]],[[57544,36283],[-3994,-385],[-11982,3794],[295,1484],[-8579,-165]],[[33284,41011],[-3698,1100],[591,3298],[-8136,1869]],[[22041,47278],[4290,2199],[12870,2419],[3698,2034],[4734,605],[6656,2364]],[[68047,56129],[1035,-2364],[1036,-1319],[4733,-4178]],[[75887,14733],[-10355,-604],[-6509,-4838],[4290,-2804],[-5325,-990]],[[57988,5497],[-5474,4453],[-9319,3739],[-5769,494],[-7397,7697],[-2958,1704],[1035,2529]],[[28106,26113],[7249,3518]],[[35355,29631],[13905,-1814],[5769,-3353],[11095,2254]],[[57988,5497],[-148,-2583],[-5622,-2914],[-11390,1759],[-1035,2144],[1923,2914],[-6213,2254],[1035,1374],[-3994,3244],[-5917,1154],[-15680,4288],[-5326,2749],[5326,1759],[148,3519],[-3403,1264],[-6509,5387]],[[1183,33809],[6065,-384],[17160,-3849],[3698,-3463]],[[52958,79768],[-7100,-2199],[-4734,-2748],[-2959,-165],[-2958,3133],[-6065,-769],[-4142,-1705],[-9172,1430],[-1775,-3409]],[[14053,73336],[-5473,1100],[-3994,-550],[-1036,3628],[1332,4838],[-4882,3079],[13313,8686],[7989,5882],[5177,-1484],[148,-3189],[4438,-824]],[[33284,41011],[-7693,-1869],[1332,-3189],[4142,-2144],[1183,-2803],[3107,-1375]],[[1183,33809],[2663,1375],[3550,5827],[6361,2584],[-4438,2144]],[[9319,45739],[8580,1979],[4142,-440]],[[9319,45739],[1184,5937],[2810,2419]],[[13313,54095],[3995,-550],[3106,2144],[-1183,4618],[6656,-1264],[8876,2034],[1035,1374]],[[13313,54095],[-4881,1814],[-1036,2309],[8136,6652]],[[15532,64870],[7397,-824],[8580,274]],[[15532,64870],[2811,1649],[-1923,4618],[-2367,2199]]],"bbox":[19.28335051657885,39.640519706689645,21.03791609289047,42.63409760480917],"transform":{"scale":[0.000017545831221428414,0.00002993607834197868],"translate":[19.28335051657885,39.640519706689645]}}