{"type":"Topology","objects":{"a1":{"type":"GeometryCollection","geometries":[{"type":"Polygon","arcs":[[0,1,2,3]],"id":"ARM-1670","properties":{"adm1_code":"ARM-1670","iso_3166_2":"AM-TV","name":"Tavush","admin":"Armenia","adm0_a3":"ARM","type_en":"Province"}},{"type":"Polygon","arcs":[[4,-3,5,6,7]],"id":"ARM-1674","properties":{"adm1_code":"ARM-1674","iso_3166_2":"AM-LO","name":"Lori","admin":"Armenia","adm0_a3":"ARM","type_en":"Province"}},{"type":"Polygon","arcs":[[-8,8,9]],"id":"ARM-1555","properties":{"adm1_code":"ARM-1555","iso_3166_2":"AM-SH","name":"Shirak","admin":"Armenia","adm0_a3":"ARM","type_en":"Province"}},{"type":"Polygon","arcs":[[-1,10,11,12,13]],"id":"ARM-1672","properties":{"adm1_code":"ARM-1672","iso_3166_2":"AM-GR","name":"Gegharkunik","admin":"Armenia","adm0_a3":"ARM","type_en":"Province"}},{"type":"Polygon","arcs":[[-12,14,15,16,17]],"id":"ARM-1733","properties":{"adm1_code":"ARM-1733","iso_3166_2":"AM-VD","name":"Vayots Dzor","admin":"Armenia","adm0_a3":"ARM","type_en":"Province"}},{"type":"Polygon","arcs":[[18,-16]],"id":"ARM-1732","properties":{"adm1_code":"ARM-1732","iso_3166_2":"AM-SU","name":"Syunik","admin":"Armenia","adm0_a3":"ARM","type_en":"Province"}},{"type":"Polygon","arcs":[[-13,-18,19,20,21,22]],"id":"ARM-1671","properties":{"adm1_code":"ARM-1671","iso_3166_2":"AM-AR","name":"Ararat","admin":"Armenia","adm0_a3":"ARM","type_en":"Province"}},{"type":"Polygon","arcs":[[-7,23,24,25,26,-9]],"id":"ARM-1553","properties":{"adm1_code":"ARM-1553","iso_3166_2":"AM-AG","name":"Aragatsotn","admin":"Armenia","adm0_a3":"ARM","type_en":"Province"}},{"type":"Polygon","arcs":[[-21,27,-26,28]],"id":"ARM-1554","properties":{"adm1_code":"ARM-1554","iso_3166_2":"AM-AV","name":"Armavir","admin":"Armenia","adm0_a3":"ARM","type_en":"Province"}},{"type":"Polygon","arcs":[[-2,-14,-23,29,-24,-6]],"id":"ARM-1673","properties":{"adm1_code":"ARM-1673","iso_3166_2":"AM-KT","name":"Kotayk","admin":"Armenia","adm0_a3":"ARM","type_en":"Province"}},{"type":"Polygon","arcs":[[-22,-29,-25,-30]],"id":"ARM-1675","properties":{"adm1_code":"ARM-1675","iso_3166_2":"AM-ER","name":"Erevan","admin":"Armenia","adm0_a3":"ARM","type_en":"City"}}]}},"arcs":[[[61215,73626],[-4190,3119],[-2136,203],[-3452,-3186],[-4683,610],[-3780,-813]],[[42974,73559],[-822,678]],[[42152,74237],[-575,4406],[2876,2034],[1972,3593],[-4273,3729],[5177,2576],[-1643,2305],[1232,3187],[-2136,1152]],[[44782,97219],[4683,2780],[1562,-4068],[4272,-1491],[-657,-1966],[1808,-3865],[5012,-135],[1972,-2577],[2958,-2983],[1397,-3186],[-3287,-2102],[-3287,-4000]],[[17009,94779],[4026,474],[2712,2238],[2465,-1424],[2793,678],[6163,-1424],[1972,1898],[6574,-745],[1068,745]],[[42152,74237],[-7723,1423],[-3451,-745]],[[30978,74915],[-4109,2440],[-3862,-68]],[[23007,77287],[-4108,1831],[2711,7186],[-4930,5356],[329,3119]],[[23007,77287],[-2711,-4067],[3122,-2238],[575,-3118],[-4355,-2509],[-8463,1966],[-5341,-3593]],[[5834,63728],[-1890,2237],[2794,2644],[2465,6102],[-575,4271],[-3369,7526],[-4602,2440],[-657,3458],[4026,678],[5177,-678],[4190,2169],[3616,204]],[[61215,73626],[4848,-8677],[1890,-1695],[7395,-4204],[2137,-1423],[2876,-1628],[-904,-4338],[-2383,-4475],[-7395,678],[-1972,-1695]],[[67707,46169],[-3780,-1424],[-6245,-406],[-4848,-3051]],[[52834,41288],[-2958,8813],[493,3458]],[[50369,53559],[-2629,3186],[329,2102],[-2876,8813],[-2137,1560],[-82,4339]],[[67707,46169],[4355,-1356],[2958,-4135]],[[75020,40678],[-3040,-4814],[-165,-6847]],[[71815,29017],[-9038,-3051],[-3451,1627],[-1479,2441],[-3123,-1153],[-821,4949],[-2137,2644]],[[51766,36474],[1068,4814]],[[75020,40678],[2301,-2238],[3040,-1152],[2136,-3322],[5095,-4136],[4354,1288],[5834,-3322],[-1561,-3186],[-2300,-407],[-986,-2983],[3779,-2237],[3287,-4203],[-2712,-1560],[-1068,-2847],[-82,-5763],[1150,-3864],[-3861,1695],[-2712,-272],[-5341,-2169],[-3533,8271],[-2137,3593],[904,3390],[-2629,2509],[-4355,2644],[1232,3661],[-493,4135],[-2547,814]],[[51766,36474],[-3862,-542],[-5669,-1356],[-2876,3864],[-3698,3119],[-1397,2508],[-4437,3119]],[[29827,47186],[-986,3051],[2876,2915]],[[31717,53152],[3615,-4068],[2876,2509]],[[38208,51593],[1479,-1356],[8464,3254],[2218,68]],[[30978,74915],[328,-2848],[3944,-2034],[-1561,-7593],[-3040,-3661],[575,-3729]],[[31224,55050],[-246,-474]],[[30978,54576],[-4273,2034],[-4684,-2170],[-3697,0],[-5917,3322],[-4437,-1017]],[[7970,56745],[-3040,4271],[904,2712]],[[29827,47186],[-4026,1424],[-7067,-1424],[-3779,610],[-7806,3526],[1807,2440],[-986,2983]],[[30978,54576],[739,-1424]],[[38208,51593],[-2383,4678],[-4601,-1221]]],"bbox":[43.43977332535454,38.86373643680926,46.598510464957,41.29118415518545],"transform":{"scale":[0.00003158768727289738,0.00002427471993096117],"translate":[43.43977332535454,38.86373643680926]}}