{"type":"Topology","objects":{"a1":{"type":"GeometryCollection","geometries":[{"type":"Polygon","arcs":[[0,1]],"id":"ASM-5002","properties":{"adm1_code":"ASM-5002","iso_3166_2":"AS-X05~","name":"Western","admin":"American Samoa","adm0_a3":"ASM","type_en":null}},{"type":"Polygon","arcs":[[-2,2]],"id":"ASM-4998","properties":{"adm1_code":"ASM-4998","iso_3166_2":"AS-X01~","name":"Eastern","admin":"American Samoa","adm0_a3":"ASM","type_en":null}},{"type":"Polygon","arcs":[[3]],"id":"ASM-4999","properties":{"adm1_code":"ASM-4999","iso_3166_2":"AS-X02~","name":"Manu's","admin":"American Samoa","adm0_a3":"ASM","type_en":null}},{"type":"Polygon","arcs":[[4]],"id":"ASM-5000","properties":{"adm1_code":"ASM-5000","iso_3166_2":"AS-X03~","name":"Rose Atoll","admin":"American Samoa","adm0_a3":"ASM","type_en":null}},{"type":"Polygon","arcs":[[5]],"id":"ASM-5001","properties":{"adm1_code":"ASM-5001","iso_3166_2":"AS-X04~","name":"Swain's Island","admin":"American Samoa","adm0_a3":"ASM","type_en":null}}]}},"arcs":[[[13398,6285],[-2129,-1512],[-2573,1371],[3726,850]],[[12422,6994],[976,-709]],[[12422,6994],[799,851],[2662,189],[-2485,-1749]],[[55368,8932],[-1952,-1371],[-710,946],[2662,425]],[[99910,0],[-355,284],[444,94],[-89,-378]],[[355,99952],[0,-284],[-266,-94],[-89,425],[355,-47]]],"bbox":[-171.08441900202595,-14.533530458400492,-168.15927787110402,-11.051171562072312],"transform":{"scale":[0.000029251703826257555,0.00003482393720265382],"translate":[-171.08441900202595,-14.533530458400492]}}