{"type":"Topology","objects":{"a1":{"type":"GeometryCollection","geometries":[{"type":"Polygon","arcs":[[0]],"id":"ATF-5919","properties":{"adm1_code":"ATF-5919","iso_3166_2":"TF-X03~","name":"Iles Eparses de l'ocean Indien","admin":"French Southern and Antarctic Lands","adm0_a3":"ATF","type_en":null}},{"type":"MultiPolygon","arcs":[[[1]],[[2]]],"id":"ATF-5916","properties":{"adm1_code":"ATF-5916","iso_3166_2":"TF-X01~","name":"Archipel des Kerguelen","admin":"French Southern and Antarctic Lands","adm0_a3":"ATF","type_en":null}},{"type":"Polygon","arcs":[[3]],"id":"ATF-5917","properties":{"adm1_code":"ATF-5917","iso_3166_2":"TF-X02~","name":"Archipel des Crozet","admin":"French Southern and Antarctic Lands","adm0_a3":"ATF","type_en":null}},{"type":"Polygon","arcs":[[4]],"id":"ATF-5918","properties":{"adm1_code":"ATF-5918","iso_3166_2":"TF-X1~","name":"Iles Saint-Paul et Nouvelle-Amsterdam","admin":"French Southern and Antarctic Lands","adm0_a3":"ATF","type_en":null}}]}},"arcs":[[[125,99987],[-27,-138],[-98,54],[7,96],[118,-12]],[[77467,2667],[321,343],[265,-133],[-237,-294],[-28,-216],[-286,-66],[-35,366]],[[81111,1952],[14,-306],[-244,-330],[-411,-79],[-460,145],[-334,-78],[-188,-265],[-349,-72],[-7,-294],[676,-144],[195,246],[425,-90],[77,-162],[-258,-205],[42,-204],[-320,-102],[-718,126],[-383,361],[-133,-307],[-522,120],[-258,241],[-251,12],[-446,-145],[-125,-324],[-634,-96],[-181,156],[35,301],[334,588],[-293,667],[168,360],[-223,145],[-42,228],[327,378],[-230,355],[279,90],[160,552],[279,0],[153,-204],[-118,-234],[244,-204],[-216,-463],[355,-540],[369,150],[230,240],[585,-174],[-34,-228],[-460,-97],[63,-324],[578,-240],[383,354],[634,319],[279,-127],[209,295],[362,72],[307,-144],[76,-319]],[[30871,12194],[-28,-270],[-313,48],[-105,270],[182,132],[264,-180]],[[99776,43413],[223,-186],[-132,-97],[-91,283]]],"bbox":[40.332946409903315,-49.717533693088555,77.58631877203482,-22.321111884404687],"transform":{"scale":[0.00037253744899580493,0.0002739669577564162],"translate":[40.332946409903315,-49.717533693088555]}}