{"type":"Topology","objects":{"a1":{"type":"GeometryCollection","geometries":[{"type":"MultiPolygon","arcs":[[[0,1,2]],[[3]],[[4]],[[5]]],"id":"AUS-2651","properties":{"adm1_code":"AUS-2651","iso_3166_2":"AU-WA","name":"Western Australia","admin":"Australia","adm0_a3":"AUS","type_en":"State"}},{"type":"MultiPolygon","arcs":[[[-2,6,7,8]],[[9]],[[10]],[[11]],[[12]],[[13]],[[14]],[[15]],[[16]],[[17]],[[18]],[[19]]],"id":"AUS-2650","properties":{"adm1_code":"AUS-2650","iso_3166_2":"AU-NT","name":"Northern Territory","admin":"Australia","adm0_a3":"AUS","type_en":"Territory"}},{"type":"MultiPolygon","arcs":[[[-3,-9,20,21,22,23]],[[24]]],"id":"AUS-2655","properties":{"adm1_code":"AUS-2655","iso_3166_2":"AU-SA","name":"South Australia","admin":"Australia","adm0_a3":"AUS","type_en":"State"}},{"type":"MultiPolygon","arcs":[[[-8,25,26,-21]],[[27]],[[28]],[[29]],[[30]],[[31]],[[32]],[[33]],[[34]],[[35]],[[36]],[[37]],[[38]],[[39]]],"id":"AUS-2657","properties":{"adm1_code":"AUS-2657","iso_3166_2":"AU-QLD","name":"Queensland","admin":"Australia","adm0_a3":"AUS","type_en":"State"}},{"type":"Polygon","arcs":[[-22,-27,40,41,42,43],[44]],"id":"AUS-2654","properties":{"adm1_code":"AUS-2654","iso_3166_2":"AU-NSW","name":"New South Wales","admin":"Australia","adm0_a3":"AUS","type_en":"State"}},{"type":"Polygon","arcs":[[-42,45]],"id":"AUS-1932","properties":{"adm1_code":"AUS-1932","iso_3166_2":"AU-X02~","name":"Jervis Bay Territory","admin":"Australia","adm0_a3":"AUS","type_en":"Territory"}},{"type":"MultiPolygon","arcs":[[[-23,-44,46]],[[47]],[[48]]],"id":"AUS-2656","properties":{"adm1_code":"AUS-2656","iso_3166_2":"AU-VIC","name":"Victoria","admin":"Australia","adm0_a3":"AUS","type_en":"State"}},{"type":"MultiPolygon","arcs":[[[49]],[[50]],[[51]],[[52]],[[53]],[[54]],[[55]]],"id":"AUS-2660","properties":{"adm1_code":"AUS-2660","iso_3166_2":"AU-TAS","name":"Tasmania","admin":"Australia","adm0_a3":"AUS","type_en":"State"}},{"type":"Polygon","arcs":[[56]],"id":"AUS+00?","properties":{"adm1_code":"AUS+00?","iso_3166_2":"AU-X03~","name":"Macquarie Island","admin":"Australia","adm0_a3":"AUS","type_en":null}},{"type":"Polygon","arcs":[[57]],"id":"AUS-2659","properties":{"adm1_code":"AUS-2659","iso_3166_2":"AU-NSW","name":"Lord Howe Island","admin":"Australia","adm0_a3":"AUS","type_en":"Territory"}},{"type":"Polygon","arcs":[[-45]],"id":"AUS-2653","properties":{"adm1_code":"AUS-2653","iso_3166_2":"AU-ACT","name":"Australian Capital Territory","admin":"Australia","adm0_a3":"AUS","type_en":"Territory"}}]}},"arcs":[[[34818,50776],[-500,-196],[-247,-152],[-944,-378],[-438,-145],[-545,-87],[-506,-196],[-528,-134],[-506,-69],[-815,-29],[-663,76],[-405,109],[-230,-105],[-152,18],[-298,-135],[-719,-471],[-433,-120],[-522,-243],[-208,-55],[-214,-214],[-421,-152],[-759,-109],[-337,-189],[-185,-185],[-102,-290],[-134,-222],[-119,-472],[-129,-43],[-292,-280],[-39,-174],[-377,-200],[-483,-43],[-163,-182],[-259,-36],[-134,272],[-135,40],[-315,-80],[-197,37],[-460,-66],[-29,-108],[-370,98],[-169,-22],[-270,-211],[-180,124],[-191,308],[-174,-7],[-264,-149],[-275,87],[-124,-43],[-208,123],[-433,11],[-359,-116],[-152,54],[-275,-61],[-225,32],[-163,-65],[-472,-15],[-101,-98],[-225,-72],[-528,83],[-124,-40],[-258,51],[-427,-127],[-506,-348],[-208,-316],[17,-160],[-214,-58],[-5,-123],[-242,-58],[-23,-124],[-309,109],[-399,62],[-123,-134],[-321,-117],[-45,-196],[-494,-152],[-197,-240],[-5,-181],[-264,-7],[-310,-167],[-224,-62],[-360,-25],[-90,-102],[-270,58],[-314,-102],[-388,149],[-410,26],[-68,-109],[-213,91],[-304,-66],[-236,66],[-286,-15],[-422,58],[-466,272],[-495,109],[-191,232],[-404,403],[-287,211],[-601,290],[-326,26],[-163,-95],[-197,182],[-101,395],[-17,530],[51,138],[-68,218],[191,319],[163,-174],[354,-76],[326,120],[180,185],[259,468],[67,25],[17,581],[-163,802],[365,131],[-118,141],[68,182],[-68,337],[90,258],[-62,287],[34,283],[-45,341],[-90,272],[-281,472],[-208,290],[-309,690],[-286,359],[-40,189],[-129,240],[-275,925],[28,153],[-96,250],[51,283],[-40,160],[-5,381],[73,392],[-180,544],[-140,313],[-388,395],[-163,280],[28,286],[-129,294],[-236,269],[-242,374],[-315,272],[-129,450],[-17,185],[101,290],[-151,530],[-135,291],[-534,878],[-377,534],[-635,613],[-118,348],[169,262],[90,-236],[191,61],[96,-279],[123,-127],[101,-294],[208,-214],[343,156],[73,112],[-6,331],[-224,225],[-208,43],[-158,276],[-73,15],[-45,326],[-297,472],[5,160],[202,323],[40,-240],[489,-635],[-56,-65],[-62,-468],[196,-131],[113,189],[213,-40],[-22,-116],[73,-309],[286,-258],[225,160],[62,131],[-95,268],[146,454],[-51,138],[51,189],[-225,112],[-56,167],[-175,149],[-258,436],[-275,613],[-191,102],[-225,511],[-11,363],[-354,432],[-107,261],[-11,363],[101,175],[-40,268],[96,305],[219,374],[84,236],[298,236],[68,152],[33,291],[-73,362],[135,244],[-11,268],[-101,312],[-219,135],[-29,330],[186,218],[62,214],[95,112],[203,621],[247,417],[320,153],[-180,-849],[208,-313],[-107,-156],[-28,-196],[152,-98],[230,175],[175,-80],[50,268],[231,429],[56,206],[236,378],[34,120],[606,330],[383,65],[258,145],[500,189],[321,374],[129,102],[309,138],[157,265],[129,123],[461,196],[146,279],[102,-43],[370,91],[326,192],[338,261],[297,-214],[394,203],[292,-138],[343,-98],[343,48],[196,109],[152,-33],[360,123],[151,124],[68,148],[421,287],[208,-18],[197,76],[101,-58],[511,116],[208,-18],[281,124],[276,348],[33,120],[203,149],[314,47],[354,-76],[411,-160],[297,120],[68,112],[146,-7],[579,98],[365,33],[893,315],[658,287],[517,356],[253,261],[455,628],[264,570],[6,207],[269,130],[12,247],[107,207],[185,-29],[242,178],[432,414],[225,101],[96,193],[-17,141],[-360,120],[23,515],[-135,327],[11,490],[51,178],[230,268],[-6,109],[298,258],[146,51],[219,-15],[-112,182],[90,188],[287,4],[151,54],[-62,131],[29,218],[275,203],[67,211],[197,90],[-39,-341],[-62,-112],[410,-501],[-17,-232],[253,-225],[45,-189],[118,-135],[141,-370],[73,-32],[258,-385],[34,345],[95,323],[68,69],[-141,199],[28,207],[96,22],[438,-312],[-95,290],[236,312],[-292,-43],[-163,326],[-214,146],[-62,108],[191,291],[-5,272],[-242,211],[118,239],[382,-14],[84,-80],[-168,-131],[225,-243],[326,181],[303,33],[208,-272],[258,-29],[124,120],[163,-88],[259,-18],[5,164],[-393,-26],[-79,272],[112,164],[197,-76],[152,181],[-17,232],[56,196],[163,40],[-11,200],[-152,-36],[-202,-360],[-242,211],[-56,413],[84,40],[-28,244],[219,203],[270,-84],[146,287],[0,167],[219,15],[265,-153],[281,-301],[84,334],[-113,145],[-236,-127],[-129,192],[-56,243],[140,91],[113,-43],[146,76],[-39,221],[253,-145],[196,-14],[202,-207],[141,94],[-45,250],[-157,4],[-169,134],[62,156],[-191,294],[298,215],[399,232],[78,87],[180,-91],[68,276],[-68,323],[73,69],[163,-123],[-78,-178],[56,-323],[129,138],[169,-37],[16,-246],[163,7],[45,112],[253,22],[-123,280],[163,72],[28,269],[146,69],[-12,225],[-134,149],[39,225],[124,-19],[45,-257],[95,-109],[-50,-134],[123,-138],[309,479],[242,18],[146,-436],[292,167],[-5,247],[252,142],[-151,334],[444,148],[253,-228],[84,-276],[118,91],[107,-55],[236,40],[208,-54],[157,-254],[382,-265],[191,-236],[73,-182],[197,-159],[56,-127],[584,-443],[40,-272],[-96,-29],[-180,-643],[343,-297],[-11,315],[-51,135],[253,333],[225,-297],[96,87],[-85,134],[-39,258],[281,156],[652,-192],[359,-62]],[[34818,87873],[0,-1543],[0,-1531],[0,-1535],[0,-2302],[0,-1535],[0,-1531],[0,-1536],[0,-1531],[0,-1536],[0,-1535],[0,-2301],[0,-1532],[0,-2301],[0,-2301]],[[34818,63323],[0,-2355],[0,-1568],[0,-1572],[0,-1568],[0,-2355],[0,-1568],[0,-1561]],[[646,63171],[-135,32],[-236,251],[-174,323],[-101,356],[0,239],[191,62],[96,-486],[359,-777]],[[5513,74945],[-56,-196],[-163,-127],[-118,163],[196,240],[141,-80]],[[26580,88751],[-5,-279],[-225,-26],[73,280],[157,25]],[[34818,87873],[371,-214],[6,-207],[84,-280],[107,171],[-90,584],[225,-43],[101,-95],[225,-61],[264,-407],[135,62],[-107,323],[73,225],[174,113],[-258,261],[-45,232],[-107,47],[-382,302],[28,174],[124,243],[140,163],[6,124],[236,51],[241,112],[62,120],[-67,178],[219,261],[-67,189],[112,366],[286,-43],[422,214],[236,250],[-242,327],[-90,33],[23,475],[112,87],[141,-80],[157,69],[73,142],[-17,323],[124,94],[382,185],[90,291],[-34,112],[388,-109],[0,-148],[129,-124],[85,236],[-124,113],[157,145],[276,-58],[11,239],[-68,178],[253,36],[219,-130],[220,261],[22,-196],[169,-189],[185,-58],[259,0],[371,58],[264,113],[61,-98],[242,-95],[275,189],[208,91],[332,-113],[39,167],[298,135],[107,112],[50,392],[-123,178],[225,290],[-220,69],[-219,323],[-269,91],[-276,-44],[-343,-141],[-292,308],[-50,127],[-152,40],[-17,211],[202,-98],[57,185],[101,62],[140,-116],[73,-207],[163,-142],[0,479],[113,-138],[236,109],[73,-149],[202,-43],[427,-606],[185,36],[332,352],[214,-221],[281,-534],[258,-120],[185,91],[287,-225],[309,-94],[135,138],[146,0],[112,123],[214,-54],[-124,-258],[214,-127],[140,72],[270,-14],[124,-290],[146,3],[62,109],[208,-163],[303,-51],[180,33],[219,196],[135,29],[202,-392],[231,-44],[219,-250],[410,83],[96,203],[185,84],[157,-51],[163,73],[73,192],[366,116],[101,-105],[-45,-182],[-247,-206],[39,-160],[208,-44],[247,233],[320,-352],[-90,-113],[85,-203],[253,43],[241,-14],[113,127],[129,283],[-112,120],[-287,29],[258,305],[79,0],[247,236],[180,-109],[124,-400],[219,-239],[163,87],[-11,174],[247,-130],[157,-294],[-185,-175],[-264,-90],[11,-156],[-146,-273],[-163,-138],[-281,-130],[34,-127],[320,-233],[-303,-43],[151,-185],[-253,-349],[-179,47],[11,287],[-135,-22],[-6,-192],[-281,-160],[-157,167],[-112,-188],[-366,-178],[79,-116],[-140,-171],[28,-210],[-51,-109],[197,-331],[253,138],[-102,-243],[-33,-229],[-146,-127],[-45,-388],[-107,-145],[-202,-142],[-180,-312],[-113,-54],[-202,-331],[-17,-156],[-286,-192],[28,-163],[140,-298],[180,-156],[219,-51],[124,-123],[326,-171],[196,-196],[624,-352],[62,-268],[174,-149],[146,-18],[242,-214],[180,-80],[343,-323],[297,-77],[186,157],[118,-128],[438,-217],[242,-222],[298,-123],[112,11],[422,-174],[264,-411],[286,-228]],[[54301,84182],[0,-1982],[0,-1303],[0,-1303],[0,-1299],[0,-1303],[0,-1303],[0,-1299],[0,-1303],[0,-1303],[0,-1300],[0,-1303],[0,-1303],[0,-1303],[0,-1952],[0,-1300]],[[54301,63323],[-1214,0],[-1219,0],[-1826,0],[-1220,0],[-1219,0],[-1214,0],[-1826,0],[-1220,0],[-1219,0],[-1220,0],[-1213,0],[-1220,0],[-1826,0],[-1827,0]],[[51424,86120],[90,-91],[-107,-167],[-90,193],[107,65]],[[52306,85924],[-168,-80],[-124,265],[124,116],[180,-83],[-12,-218]],[[51306,86392],[-62,-210],[-146,-19],[11,240],[197,-11]],[[50592,90435],[-56,-192],[-107,-73],[-123,124],[123,239],[163,-98]],[[52031,89386],[17,-112],[-118,-145],[-371,94],[-202,-54],[-388,141],[-113,483],[45,265],[360,141],[-34,287],[225,-83],[73,-240],[174,-54],[276,105],[-152,-240],[-135,-7],[-73,-130],[101,-102],[-191,-87],[11,-272],[191,61],[135,-109],[169,58]],[[50598,94250],[28,-84],[-253,-141],[11,160],[214,65]],[[42652,94976],[17,-138],[-146,-22],[-28,192],[157,-32]],[[38145,94849],[214,-142],[-135,-138],[-169,-18],[-376,153],[-377,-120],[-202,3],[22,291],[220,-4],[78,87],[-39,236],[-79,127],[264,334],[175,-3],[106,-207],[-5,-225],[140,-127],[-28,-225],[191,-22]],[[40309,95491],[-118,-134],[-107,-294],[-118,51],[-186,-309],[-421,-228],[-253,-218],[-579,279],[-472,331],[-28,232],[-112,134],[-141,555],[73,175],[231,-273],[146,4],[253,-327],[73,84],[264,54],[90,106],[264,-95],[309,236],[264,131],[124,-116],[208,-18],[101,-309],[135,-51]],[[51626,96315],[-95,-298],[-281,-446],[-11,203],[275,414],[112,127]],[[42371,96050],[135,280],[135,-167],[-68,-98],[96,-204],[-135,-145],[-163,334]],[[54301,63323],[1624,0],[2439,0],[2433,0],[0,-827],[0,-1655],[0,-828],[0,-1655],[0,-1651]],[[60797,56707],[0,-2080],[0,-1386],[0,-1383],[0,-1387],[0,-2079],[0,-1383],[0,-1372]],[[60797,45637],[-73,72],[0,-1277],[6,-2207],[0,-1100],[0,-2206],[0,-2192]],[[60730,36727],[-551,-26],[-241,73],[-529,345],[-258,475],[-219,156],[-51,171],[-275,69],[-416,479],[-118,196],[101,119],[-112,236],[-141,146],[247,112],[124,123],[45,175],[-22,319],[-270,552],[-349,653],[-241,261],[-557,465],[-359,225],[-68,131],[967,-755],[253,-269],[62,62],[-253,276],[-630,453],[-314,193],[208,232],[213,-109],[17,-323],[208,15],[39,206],[-298,193],[338,94],[-158,236],[-174,84],[-258,-156],[-304,-55],[17,-134],[-191,-189],[-292,51],[-236,-65],[-231,-175],[-545,-11],[-225,-36],[-146,105],[34,142],[354,189],[152,188],[151,73],[96,301],[-11,233],[90,116],[-45,406],[106,291],[-207,145],[-394,522],[-67,262],[-158,130],[6,109],[-174,185],[-135,-221],[51,-178],[-231,-236],[-107,-385],[62,-76],[-84,-297],[-113,-204],[-157,-457],[0,-163],[-163,-106],[-241,109],[-343,15],[-152,-105],[-202,0],[-152,-153],[-281,33],[-185,-127],[-175,-22],[-78,102],[269,334],[-39,127],[191,308],[236,-58],[276,47],[269,-109],[118,80],[23,258],[118,403],[-113,377],[73,410],[-84,214],[113,30],[101,174],[-45,123],[180,163],[-29,142],[248,200],[129,207],[185,148],[152,22],[11,192],[-163,294],[-112,298],[96,153],[410,145],[-17,130],[-169,135],[-118,479],[-129,323],[-180,105],[-17,-221],[102,-98],[16,-265],[-179,-291],[-107,77],[-483,-407],[-141,-338],[-22,-214],[-326,-580],[-152,-117],[-292,-54],[-118,102],[-343,-273],[-433,-210],[-56,-98],[-461,-276],[-45,-131],[-253,-388],[-253,-167],[23,-152],[-410,-178],[-158,-363],[90,-232],[242,130],[-101,-290],[90,-229],[-321,113],[-90,120],[-174,29],[-236,-204],[-62,164],[-376,366],[-433,327],[-258,-29],[174,247],[466,-392],[-22,377],[-73,145],[-34,291],[-157,352],[-34,261],[-152,232],[-106,51],[-293,272],[-331,236],[33,207],[-112,425],[-331,279],[-467,160],[-242,-113],[-118,91],[-191,479],[-286,77],[157,166],[-123,269],[427,-40],[56,120],[-56,196],[-270,290],[-253,-22],[-79,-87],[-303,-50],[11,156],[197,152],[-298,316],[-264,127],[-17,145],[-208,44],[-79,-153],[-286,87],[-17,-174],[-225,47],[-343,-14],[-202,196],[-264,101],[-292,233],[-455,47],[-242,-44],[17,-156],[-236,26],[-304,-40],[-337,275],[-337,186],[-303,210],[-534,269],[-776,283],[-185,-33],[-214,-134],[-348,-105],[-298,-11],[-320,47],[-849,25],[-168,-47],[-293,11],[-410,-58],[-466,-15],[-186,-43],[-545,-29],[-433,-73]],[[54582,41674],[-174,-226],[-253,95],[-382,7],[-309,-116],[17,-167],[-349,-181],[-191,159],[-348,66],[-152,-135],[-258,44],[-219,-62],[-152,44],[-292,-73],[-124,196],[-270,138],[191,352],[399,98],[585,80],[601,189],[180,-55],[404,62],[-90,-138],[0,-181],[225,-66],[203,40],[73,-160],[208,182],[337,-73],[140,-119]],[[54301,84182],[135,-156],[264,-189],[276,-116],[134,11],[259,-109],[354,33],[208,-135],[253,-83],[219,-15],[146,-65],[51,-138],[208,-123],[-34,-186],[146,-373],[140,-135],[360,-61],[433,-345],[359,-80],[259,-116],[163,-189],[253,-22],[264,33],[579,145],[196,102],[343,247],[169,58],[106,232],[45,269],[124,330],[-28,123],[365,497],[180,200],[73,287],[152,287],[101,482],[163,312],[-101,320],[50,76],[79,559],[107,377],[180,421],[22,153],[124,170],[62,287],[-135,294],[-180,868],[28,185],[124,341],[28,185],[-45,189],[-214,279],[-22,381],[185,628],[202,305],[79,207],[-118,221],[-107,403],[90,145],[276,204],[118,334],[297,203],[-292,-18],[-314,312],[0,-225],[-158,40],[214,472],[129,228],[107,338],[152,196],[95,-222],[129,55],[-62,323],[399,1230],[62,410],[-33,370],[67,120],[320,62],[169,178],[101,236],[219,11],[141,-80],[-141,-203],[141,-69],[45,-138],[230,-98],[107,-240],[22,-428],[146,-251],[-101,-188],[79,-283],[34,-541],[219,-164],[320,33],[174,-160],[-253,-366],[-22,-396],[236,-32],[146,-102],[56,-232],[96,-138],[241,-124],[-151,-424],[33,-106],[253,-7],[12,-483],[56,-272],[0,-290],[146,-232],[5,-196],[-73,-164],[-61,-366],[179,-421],[147,-131],[45,-428],[162,-425],[169,-160],[197,-54],[253,102],[202,174],[50,247],[113,10],[146,-123],[315,153],[140,156],[152,-204],[-6,-217],[85,-265],[123,-160],[169,7],[90,-105],[191,-18],[123,-258],[158,-127],[303,-120],[264,-239],[146,7],[-213,-334],[-23,-156],[146,-261],[-101,-233],[40,-323],[196,-471],[-22,-338],[230,-348],[-56,-309],[56,-160],[-101,-134],[-34,-239],[141,-84],[247,-421],[180,-123],[253,-349],[129,7],[225,-105],[-129,-243],[151,-269],[34,-177],[225,-331],[-6,-272],[169,-258],[-96,-163],[-11,-497],[-202,-494],[45,-236],[163,-192],[180,-65],[67,-247],[270,-80],[-101,-403],[-34,-363],[123,-185],[248,-221],[449,-272],[197,21],[343,-290],[157,47],[174,-72],[163,-211],[73,25],[551,-29],[62,37],[219,-276],[90,-254],[0,-189],[197,-232],[219,-18],[-73,319],[208,-94],[28,-200],[196,-185],[265,69],[123,-131],[270,-58],[112,-156],[-90,-109],[411,-243],[-23,196],[264,98],[96,-338],[393,-163],[124,-138],[5,-156],[158,-116],[-433,-62],[-152,-119],[146,-175],[40,-185],[174,-94],[197,-247],[129,4],[163,-240],[225,-36],[174,-207],[-73,-200],[62,-203],[146,-102],[135,-388],[163,-196],[106,-297],[-95,-157],[95,-167],[6,-188],[275,-646],[208,-309],[-22,-232],[292,221],[112,-174],[304,-189],[-214,563],[146,298],[135,47],[219,-276],[135,-283],[180,-51],[461,-258],[118,468],[152,-43],[264,-309],[-79,-83],[67,-200],[158,-192],[-113,-592],[-22,-424],[146,-258],[-95,-73],[56,-225],[135,-145],[-40,-94],[365,-134],[214,-211],[135,-283],[197,-44],[269,-279],[388,-236],[219,-11],[214,87],[62,-265],[264,-149],[157,-442],[118,-225],[197,-233],[337,-232],[213,-54],[186,-218],[34,-334],[370,-537],[298,-91],[214,-11],[56,-414],[-90,-239],[-5,-229],[275,-301],[146,-91],[67,-149],[169,-32],[-124,-251],[-140,-482],[79,-389],[-6,-417],[90,-84],[0,-529],[118,-269],[-270,-142],[-95,-138],[163,-152],[-107,-152],[191,-91],[118,-251],[95,-14],[124,-232],[17,-171],[281,-345],[-28,-109],[39,-468],[124,-167]],[[87878,58583],[-270,-196],[-410,-51],[-169,-196],[-584,51],[-208,-69],[-202,80],[-253,7],[-101,127],[-293,-254],[-303,-138],[-118,4],[-422,-221],[85,-225],[129,-142],[-90,-381],[-197,-105],[-371,-51],[-73,127],[-382,-145],[-281,-439],[-157,-26],[-79,145],[-56,396],[-230,142],[-225,43],[-68,225],[-550,218],[-371,-51],[-371,25],[-332,247],[-269,-36],[-332,-105],[-562,-18],[-118,-44],[-275,120],[-202,-26],[-147,-210],[-309,-131],[-253,-199],[-140,-40],[-62,-196],[-202,-138],[-1484,0],[-2101,0],[-2102,0],[-1051,0],[-2107,0],[-2102,0],[-2102,0],[-2107,0],[-2102,0]],[[87833,60202],[45,-196],[-113,-479],[-140,40],[39,163],[-22,298],[191,174]],[[87670,60369],[-79,200],[-34,402],[231,11],[-90,-265],[-28,-348]],[[87580,65552],[6,-51],[-231,-537],[-230,-458],[-163,-446],[39,-123],[-101,-167],[-124,148],[-112,392],[264,490],[-67,323],[236,153],[174,189],[28,254],[-169,221],[73,142],[186,119],[0,-363],[45,-156],[146,-130]],[[83034,68470],[62,-182],[-186,-65],[-118,185],[-388,454],[85,76],[376,-134],[169,-334]],[[80100,72052],[28,-261],[-129,40],[101,221]],[[78263,75859],[-208,-14],[-79,98],[79,247],[208,-331]],[[72312,80120],[73,-61],[-129,-182],[-147,62],[-56,200],[-230,239],[62,44],[342,-91],[85,-211]],[[57684,83082],[17,-134],[-270,-15],[135,254],[118,-105]],[[58055,84400],[17,-69],[-281,-175],[-129,153],[-186,-185],[-45,-214],[-309,-131],[-359,58],[185,381],[140,120],[433,80],[253,80],[124,-98],[157,0]],[[63517,97139],[-5,-113],[-220,-83],[-73,225],[203,123],[95,-152]],[[63596,98300],[107,-112],[-113,-153],[-191,88],[28,148],[169,29]],[[63377,98431],[0,-141],[-113,-62],[-90,120],[96,148],[107,-65]],[[64596,99999],[-50,-123],[-191,-8],[-12,120],[253,11]],[[87878,58583],[118,-58],[62,-207],[-57,-424],[23,-284],[118,-159],[-62,-218],[11,-236],[-331,-370],[-68,-276],[-174,-356],[62,-163],[-90,-374],[-17,-290],[-129,-541],[-135,-207],[11,-203],[-123,-348],[-208,-414],[-135,-574],[34,-225],[179,-199],[-90,-146],[29,-188],[-169,-193],[-11,-341],[-130,-221],[40,-138],[-191,-192],[5,-164],[-129,-130],[-208,-403],[-180,-131],[-134,-218],[-79,-261],[118,-94],[-84,-167],[-12,-323],[-258,-138],[-360,-258],[-140,-171],[39,-163],[-551,-127],[-219,-109],[-354,-432],[-95,-286],[-135,-164],[-236,-87],[106,-123],[-129,-167],[-45,-204],[-174,-43],[-73,-319],[-34,-440],[-95,-246],[-191,-29],[17,-204],[-304,-203],[-225,-283],[-11,-345],[-258,-138],[179,-94],[-106,-421],[-175,-167],[51,-283],[-174,-87],[17,-207]],[[81809,43209],[-197,-149]],[[81612,43060],[-129,-58],[-152,-243],[17,-109],[-174,-207],[-6,-156],[-219,-359],[-191,-113],[28,-203],[-174,-109],[28,-138],[-90,-432],[39,-370],[-135,-145],[-28,-400],[-292,-580],[-56,-218],[84,-276],[-146,-94],[264,-120],[45,-156],[-146,-138],[45,-497]],[[80224,37939],[-2338,958],[-1461,602],[-208,40],[197,291],[-112,167],[-281,747],[33,142],[-106,250],[-613,265],[-343,-127],[-157,113],[-186,-47],[-196,-186],[-394,15],[-101,-131],[-320,-25],[-663,269],[-416,21],[-101,-141],[-365,-18],[-557,174],[-466,29],[-371,265],[-264,11],[-253,-80],[-253,54],[-455,-36],[-79,-62],[-174,-399],[-174,-123],[-152,-8],[-298,153],[-388,337],[-213,352],[-315,164],[-174,203],[-219,69],[-478,305],[-393,127],[-28,243],[-382,156],[-90,160],[-73,316],[67,348],[-472,236],[-455,91],[-332,163],[-118,-44],[-84,-294],[-95,-112],[-186,29],[-213,403],[-158,127],[-34,196],[79,196],[-168,47],[-152,138],[-51,178],[-303,47],[-152,127],[-298,-40],[-303,62],[-174,-55],[-214,-188],[-382,174],[-129,-22],[-197,149],[-421,33],[-102,94]],[[78875,42679],[-348,399],[-186,73],[-601,-371],[-118,-395],[45,-472],[124,-94],[213,-305],[231,-58],[112,192],[-39,479],[140,222],[-22,156],[95,130],[354,44]],[[81809,43209],[118,-131],[-315,-18]],[[80224,37939],[-163,-87],[-236,-8],[-264,-326],[-405,-189],[-387,-29],[-770,22],[-343,-18],[-135,-58],[-258,29],[-647,-29],[-382,-73],[-461,-138],[-342,-145],[-366,-211],[-421,-308],[-675,-555],[-219,-222],[-224,-160],[-1012,-210],[-135,102],[-202,-15],[-157,-120],[168,-138],[56,-203],[248,113],[112,-200],[-39,-308],[-371,206],[-180,280],[-191,109],[-163,-26],[-28,-145],[-191,4],[-231,541],[-163,25],[-202,-87],[-152,36],[-123,185],[-141,58],[-39,240],[275,127],[-174,308],[-393,29],[-343,-373],[-242,-204],[-303,26],[-174,228],[387,84],[17,80],[276,319],[-17,240],[-180,119],[-96,215],[-342,3],[-45,-94],[-607,-316],[-281,-51],[-68,-87],[349,-69],[281,116],[151,-87],[-157,-268],[-539,-33],[-332,-221],[-427,-185],[-450,-454],[-303,-80],[-90,-142],[-275,-148],[-186,138],[-253,90],[-196,-18],[-394,283],[-539,127],[-343,233],[-551,232],[-376,-87],[-292,90],[-310,182],[-398,47],[-197,-51],[-152,-236],[-365,37],[-129,185],[-517,359],[-360,153]],[[70182,35732],[-298,-54],[-22,148],[213,37],[107,-131]],[[70412,36160],[-191,-246],[-180,152],[118,105],[253,-11]],[[75948,25323],[-281,196],[-163,-229],[-197,182],[101,127],[-219,72],[152,149],[151,-98],[220,33],[-118,156],[16,134],[-331,15],[-225,163],[-230,-192],[-253,-37],[-62,-257],[-163,-160],[0,-309],[-343,-98],[-354,-432],[-17,-257],[-157,-62],[-315,25],[-219,153],[-208,54],[-449,8],[-90,87],[-248,-29],[-258,50],[-96,229],[214,55],[124,-106],[191,182],[-444,-15],[-135,218],[-191,-69],[-253,182],[-62,166],[-315,302],[-157,11],[-253,413],[-90,265],[-191,124],[-135,766],[686,-396],[79,167],[-197,54],[-405,320],[-56,308],[-95,167],[-321,258],[-146,225],[-140,83],[-130,363],[-157,218],[-56,243],[-186,251],[-16,312],[-152,185],[28,149],[169,94],[-17,403],[640,-91],[326,-101],[315,-33],[135,-84],[798,-192],[174,-189],[270,-54],[646,-250],[455,-26],[1287,418],[332,-66],[247,145],[123,-3],[220,-145],[163,123],[168,232],[152,47],[331,-148],[208,90],[146,254],[489,-228],[264,-356],[-134,-330],[134,-378],[-112,-283],[73,-341],[-112,-428],[140,-254],[-62,-298],[141,-134],[-90,-367],[-124,58],[107,258],[-191,131],[34,185],[-203,-18],[17,-178],[-135,-44],[-39,-214],[-197,-269],[45,-431],[-146,-171],[34,-283],[-140,-221],[252,-196],[-90,-226],[29,-424],[45,-58]],[[74515,25080],[67,-106],[-112,-246],[-360,-4],[45,294],[309,221],[51,-159]],[[76262,26706],[-84,-258],[-174,236],[258,22]],[[76200,31290],[298,76],[-123,-236],[-175,160]],[[76886,31624],[118,-120],[-163,-138],[-247,123],[-461,-43],[-174,61],[157,164],[585,94],[185,-141]],[[75987,32114],[-163,232],[-186,479],[17,149],[197,109],[461,-494],[286,-58],[-11,-222],[90,-246],[-62,-142],[-500,-36],[-129,229]],[[67524,32683],[84,-76],[-73,-229],[-410,-214],[-79,47],[0,305],[-101,77],[51,515],[185,102],[79,181],[213,-120],[96,-399],[-45,-189]],[[99538,443],[135,-87],[-135,-302],[-129,-54],[129,443]],[[99864,51150],[56,-4],[79,-105],[-34,-47],[-22,29],[5,40],[-16,40],[-68,47]]],"bbox":[112.91901284057076,-54.7123159475101,159.1061347791292,-9.369238295509277],"transform":{"scale":[0.00046187583814396595,0.00045343531087311693],"translate":[112.91901284057076,-54.7123159475101]}}