{"type":"Topology","objects":{"a1":{"type":"GeometryCollection","geometries":[{"type":"Polygon","arcs":[[0,1,2,3],[4]],"id":"AUT-2330","properties":{"adm1_code":"AUT-2330","iso_3166_2":"AT-3","name":"Niederösterreich","admin":"Austria","adm0_a3":"AUT","type_en":"State"}},{"type":"Polygon","arcs":[[5,-4,6,7]],"id":"AUT-2326","properties":{"adm1_code":"AUT-2326","iso_3166_2":"AT-4","name":"Oberösterreich","admin":"Austria","adm0_a3":"AUT","type_en":"State"}},{"type":"Polygon","arcs":[[-2,8,9]],"id":"AUT-2322","properties":{"adm1_code":"AUT-2322","iso_3166_2":"AT-1","name":"Burgenland","admin":"Austria","adm0_a3":"AUT","type_en":"State"}},{"type":"Polygon","arcs":[[10,11]],"id":"AUT-2320","properties":{"adm1_code":"AUT-2320","iso_3166_2":"AT-8","name":"Vorarlberg","admin":"Austria","adm0_a3":"AUT","type_en":"State"}},{"type":"MultiPolygon","arcs":[[[12,13,14,-11]],[[15,16,17]]],"id":"AUT-2329","properties":{"adm1_code":"AUT-2329","iso_3166_2":"AT-7","name":"Tirol","admin":"Austria","adm0_a3":"AUT","type_en":"State"}},{"type":"Polygon","arcs":[[18,-8,19,20,-16,21,-14]],"id":"AUT-2327","properties":{"adm1_code":"AUT-2327","iso_3166_2":"AT-5","name":"Salzburg","admin":"Austria","adm0_a3":"AUT","type_en":"State"}},{"type":"Polygon","arcs":[[-17,-21,22,23]],"id":"AUT-2325","properties":{"adm1_code":"AUT-2325","iso_3166_2":"AT-2","name":"Kärnten","admin":"Austria","adm0_a3":"AUT","type_en":"State"}},{"type":"Polygon","arcs":[[-3,-10,24,-23,-20,-7]],"id":"AUT-2323","properties":{"adm1_code":"AUT-2323","iso_3166_2":"AT-6","name":"Steiermark","admin":"Austria","adm0_a3":"AUT","type_en":"State"}},{"type":"Polygon","arcs":[[-5]],"id":"AUT-2331","properties":{"adm1_code":"AUT-2331","iso_3166_2":"AT-9","name":"Wien","admin":"Austria","adm0_a3":"AUT","type_en":"State"}}]}},"arcs":[[[67801,83899],[170,3333],[1259,3899],[1566,-566],[612,4717],[205,4717],[3676,-943],[3675,-3082],[1804,-1698],[1804,566],[2791,-4403],[4289,-1195],[1021,2579],[2723,-629],[238,-1446],[2757,-818],[953,-4340],[68,-2264],[-1157,-3899],[-238,-2956],[1395,-3396],[409,-4403],[1055,-1886]],[[98876,65786],[-4697,-3963],[-1702,-3396],[-1770,315],[-1940,-5158],[-34,-2327],[1157,-3333],[-715,-2830],[34,-2642],[-1225,-2138],[-1089,-126]],[[86895,40188],[-885,2830],[-2144,629],[-2281,3963],[-238,2012],[-5071,5157],[-1974,-1698],[-3983,-2138],[-2416,1698]],[[67903,52641],[680,5094],[-4016,5409],[511,6667],[1055,1006],[1463,-2390],[3846,2516],[69,3270],[-885,7421],[-2825,2265]],[[91286,72515],[-477,1509],[-3369,-3773],[578,-3082],[4425,189],[-204,3648],[-953,1509]],[[43635,60817],[-1362,5283],[1736,3082],[2042,2390],[3166,1635],[1701,2641],[681,4969],[851,3019],[2519,-2390],[1157,3396],[170,5912],[2213,-2264],[1191,-4403],[3165,-1258],[1668,2956],[3268,-1886]],[[67903,52641],[-2723,-2830],[-1906,-2642],[-1974,1258],[-1804,-1258],[-817,2768],[-2281,880],[-1770,-2201],[579,-4465],[-749,-2768],[-1225,440]],[[53233,41823],[-1191,1887],[0,4088],[476,2893],[-374,3082],[-2383,1006],[-578,3334],[408,3773],[-2144,-880],[-2247,1698],[-1565,-1887]],[[98876,65786],[102,-2956],[1021,-1133],[-681,-1698],[-749,-4717],[205,-5220],[-3370,-1006],[-1055,818],[-1396,2075],[-2654,-3396],[1974,-1195],[953,-314],[749,-3837],[-783,-2893],[-2655,-3648],[578,-2201],[-748,-4025],[1259,-1950],[-953,-4025],[-2110,-1069],[-579,-2138],[-1804,-3271],[-544,-629],[-307,-314]],[[85329,17044],[-136,3270],[1532,3900],[-613,2201],[102,3144],[-987,7925],[1668,2704]],[[8577,33647],[341,-4213],[-817,-3208],[-171,-8805]],[[7930,17421],[-3471,3522],[-34,2893],[-3642,1573],[102,251],[204,566],[136,1258],[-68,440],[-544,1510],[-205,188],[0,378],[137,566],[-103,754],[-170,944],[-102,566],[-170,503],[1668,5597],[-1260,4088],[-68,692],[102,-63],[3370,315],[1804,-692],[1600,-3208],[0,-2830],[1565,503],[-204,-4088]],[[8577,33647],[1702,1133],[1906,5220],[-272,3962],[1259,-503],[1089,1320],[2383,-1823],[3846,-4780],[1123,1320],[1157,-943],[2043,4025],[1803,315],[919,2893],[2621,-566],[1498,1383],[3029,-251],[477,2830],[2893,503],[953,-2390],[885,503]],[[39891,47798],[1225,-2704],[272,-2767],[-851,-3019],[-1463,-1321],[-579,-2013],[-1872,0],[-2859,-2012],[-170,-3962],[647,-3711]],[[34241,26289],[-2485,-1572],[-2587,-2516],[-1974,1069],[-3710,-503],[-2042,-1195],[-851,-1635],[-1259,-5472],[-3166,818],[-1191,2641],[-1770,-629],[-987,755],[68,2767],[-1191,2265],[-3166,-5661]],[[35160,25849],[2314,2893],[2587,63],[749,-1258]],[[40810,27547],[1463,-2076],[-136,-2075],[1225,-4843],[1532,-3899],[-2893,-1006],[-681,-3648]],[[41320,10000],[-2655,880],[-1293,1321],[-1327,2956],[-34,3082],[-953,440],[-1090,4340],[1192,2830]],[[39891,47798],[2382,881],[443,-4214],[2144,-3208],[1259,818],[477,5912],[-409,1887],[-1974,1069],[1294,4717],[-1872,5157]],[[53233,41823],[-204,-1509],[851,-5346],[851,-1195],[1327,1007],[1838,-5787],[-2008,-7484]],[[55888,21509],[-2315,3459],[-3914,1636],[-1770,-1887],[-1497,-378],[-1906,1824],[-3676,1384]],[[35160,25849],[-919,440]],[[55888,21509],[783,-1195],[2416,3648],[2281,1447],[2518,-2202],[5991,1636],[2076,-4969],[-272,-2641],[612,-5283],[919,-2202]],[[73212,9748],[-238,63],[-2178,-1258],[-341,-377],[-1055,-2075],[-238,-1195],[-1600,-2265],[-1463,-2641],[-1634,1069],[-2553,755],[-1259,63],[-1736,1572],[-1634,1132],[-2484,315],[-2927,1698],[-3234,-441],[-2178,1761],[-3064,441],[-1089,1195],[-987,440]],[[85329,17044],[-748,-2390],[578,-3962],[-613,880],[-2416,692],[-2144,-1321],[-1328,-1132],[-68,-566],[-1055,-251],[-1327,629],[-2111,-63],[-885,188]]],"bbox":[9.521632864939704,46.39129295467552,17.147244792755657,49.007999308721736],"transform":{"scale":[0.000076256881846978,0.000026167325213714288],"translate":[9.521632864939704,46.39129295467552]}}