{"type":"Topology","objects":{"a1":{"type":"GeometryCollection","geometries":[{"type":"Polygon","arcs":[[0,1]],"id":"AZE-1684","properties":{"adm1_code":"AZE-1684","iso_3166_2":"AZ-QAZ","name":"Qazax","admin":"Azerbaijan","adm0_a3":"AZE","type_en":"District"}},{"type":"Polygon","arcs":[[2,3,-1,4]],"id":"AZE-1676","properties":{"adm1_code":"AZE-1676","iso_3166_2":"AZ-AGA","name":"Ağstafa","admin":"Azerbaijan","adm0_a3":"AZE","type_en":"District"}},{"type":"Polygon","arcs":[[5,6,7,8,9,-3]],"id":"AZE-1687","properties":{"adm1_code":"AZE-1687","iso_3166_2":"AZ-TOV","name":"Tovuz","admin":"Azerbaijan","adm0_a3":"AZE","type_en":"District"}},{"type":"Polygon","arcs":[[-9,10,11,12]],"id":"AZE-1678","properties":{"adm1_code":"AZE-1678","iso_3166_2":"AZ-GAD","name":"Gədəbəy","admin":"Azerbaijan","adm0_a3":"AZE","type_en":"District"}},{"type":"Polygon","arcs":[[-12,13,14,15,16]],"id":"AZE-1677","properties":{"adm1_code":"AZE-1677","iso_3166_2":"AZ-DAS","name":"Daşkəsən","admin":"Azerbaijan","adm0_a3":"AZE","type_en":"District"}},{"type":"Polygon","arcs":[[-16,17,18,19,20,21,22,23]],"id":"AZE-1682","properties":{"adm1_code":"AZE-1682","iso_3166_2":"AZ-KAL","name":"Kəlbəcər","admin":"Azerbaijan","adm0_a3":"AZE","type_en":"District"}},{"type":"Polygon","arcs":[[-23,24,25,26,27,28]],"id":"AZE-1735","properties":{"adm1_code":"AZE-1735","iso_3166_2":"AZ-LAN","name":"Lankaran","admin":"Azerbaijan","adm0_a3":"AZE","type_en":"District"}},{"type":"Polygon","arcs":[[29,-28,30,31,32]],"id":"AZE-1736","properties":{"adm1_code":"AZE-1736","iso_3166_2":"AZ-QBI","name":"Qubadli","admin":"Azerbaijan","adm0_a3":"AZE","type_en":"District"}},{"type":"Polygon","arcs":[[-33,33,34]],"id":"AZE-1740","properties":{"adm1_code":"AZE-1740","iso_3166_2":"AZ-ZAN","name":"Zəngilan","admin":"Azerbaijan","adm0_a3":"AZE","type_en":"District"}},{"type":"Polygon","arcs":[[35,36,37,38]],"id":"AZE-2419","properties":{"adm1_code":"AZE-2419","iso_3166_2":"AZ-SAR","name":"Şərur","admin":"Azerbaijan","adm0_a3":"AZE","type_en":"District"}},{"type":"Polygon","arcs":[[-38,39]],"id":"AZE-2415","properties":{"adm1_code":"AZE-2415","iso_3166_2":"AZ-SAD","name":"Sədərək","admin":"Azerbaijan","adm0_a3":"AZE","type_en":"District"}},{"type":"Polygon","arcs":[[40,41,42,-36]],"id":"AZE-5567","properties":{"adm1_code":"AZE-5567","iso_3166_2":"AZ-KAN","name":"Kangarli","admin":"Azerbaijan","adm0_a3":"AZE","type_en":"District"}},{"type":"Polygon","arcs":[[43,44,45,46,47,48,-42]],"id":"AZE-2420","properties":{"adm1_code":"AZE-2420","iso_3166_2":"AZ-BAB","name":"Babək","admin":"Azerbaijan","adm0_a3":"AZE","type_en":"District"}},{"type":"Polygon","arcs":[[49,50,-45]],"id":"AZE-2423","properties":{"adm1_code":"AZE-2423","iso_3166_2":"AZ-SAH","name":"Şahbuz","admin":"Azerbaijan","adm0_a3":"AZE","type_en":"District"}},{"type":"Polygon","arcs":[[51,52,53,-48,54,-46,-51]],"id":"AZE-2421","properties":{"adm1_code":"AZE-2421","iso_3166_2":"AZ-CUL","name":"Culfa","admin":"Azerbaijan","adm0_a3":"AZE","type_en":"District"}},{"type":"Polygon","arcs":[[55,-53]],"id":"AZE-2418","properties":{"adm1_code":"AZE-2418","iso_3166_2":"AZ-ORD","name":"Ordubad","admin":"Azerbaijan","adm0_a3":"AZE","type_en":"District"}},{"type":"Polygon","arcs":[[56,57]],"id":"AZE-1723","properties":{"adm1_code":"AZE-1723","iso_3166_2":"AZ-BAL","name":"Balakən","admin":"Azerbaijan","adm0_a3":"AZE","type_en":"District"}},{"type":"Polygon","arcs":[[58,-58,59,60]],"id":"AZE-1731","properties":{"adm1_code":"AZE-1731","iso_3166_2":"AZ-ZAQ","name":"Zaqatala","admin":"Azerbaijan","adm0_a3":"AZE","type_en":"District"}},{"type":"Polygon","arcs":[[61,62,63,64]],"id":"AZE-1730","properties":{"adm1_code":"AZE-1730","iso_3166_2":"AZ-XAC","name":"Xaçmaz","admin":"Azerbaijan","adm0_a3":"AZE","type_en":"District"}},{"type":"Polygon","arcs":[[65,-65,66,67]],"id":"AZE-1729","properties":{"adm1_code":"AZE-1729","iso_3166_2":"AZ-QUS","name":"Qusar","admin":"Azerbaijan","adm0_a3":"AZE","type_en":"District"}},{"type":"Polygon","arcs":[[68,69,70]],"id":"AZE-1725","properties":{"adm1_code":"AZE-1725","iso_3166_2":"AZ-OGU","name":"Oğuz","admin":"Azerbaijan","adm0_a3":"AZE","type_en":"District"}},{"type":"Polygon","arcs":[[71,-71,72,73,74,75],[76]],"id":"AZE-1727","properties":{"adm1_code":"AZE-1727","iso_3166_2":"AZ-SA","name":"Şəki","admin":"Azerbaijan","adm0_a3":"AZE","type_en":"District"}},{"type":"Polygon","arcs":[[77,-61,78,-76,79,80]],"id":"AZE-1726","properties":{"adm1_code":"AZE-1726","iso_3166_2":"AZ-QAX","name":"Qax","admin":"Azerbaijan","adm0_a3":"AZE","type_en":"District"}},{"type":"Polygon","arcs":[[81,-68,82,83,84,85,-73,-70]],"id":"AZE-1724","properties":{"adm1_code":"AZE-1724","iso_3166_2":"AZ-QAB","name":"Qəbələ","admin":"Azerbaijan","adm0_a3":"AZE","type_en":"District"}},{"type":"Polygon","arcs":[[86,-81,87,88,89,90,91,-7]],"id":"AZE-1686","properties":{"adm1_code":"AZE-1686","iso_3166_2":"AZ-SMX","name":"Samux","admin":"Azerbaijan","adm0_a3":"AZE","type_en":"District"}},{"type":"Polygon","arcs":[[92,93,94,95,96,97,98]],"id":"AZE-1704","properties":{"adm1_code":"AZE-1704","iso_3166_2":"AZ-IMI","name":"İmişli","admin":"Azerbaijan","adm0_a3":"AZE","type_en":"District"}},{"type":"Polygon","arcs":[[99,-99,100,101,102,103]],"id":"AZE-1698","properties":{"adm1_code":"AZE-1698","iso_3166_2":"AZ-BIL","name":"Biləsuvar","admin":"Azerbaijan","adm0_a3":"AZE","type_en":"District"}},{"type":"Polygon","arcs":[[104,-104,105,106,107]],"id":"AZE-1700","properties":{"adm1_code":"AZE-1700","iso_3166_2":"AZ-CAL","name":"Cəlilabad","admin":"Azerbaijan","adm0_a3":"AZE","type_en":"District"}},{"type":"Polygon","arcs":[[108,-108,109,110]],"id":"AZE-1720","properties":{"adm1_code":"AZE-1720","iso_3166_2":"AZ-YAR","name":"Yardımlı","admin":"Azerbaijan","adm0_a3":"AZE","type_en":"District"}},{"type":"Polygon","arcs":[[111,-111,112,113,114]],"id":"AZE-1709","properties":{"adm1_code":"AZE-1709","iso_3166_2":"AZ-LER","name":"Lerik","admin":"Azerbaijan","adm0_a3":"AZE","type_en":"District"}},{"type":"Polygon","arcs":[[-32,115,116,117,-34]],"id":"AZE-1699","properties":{"adm1_code":"AZE-1699","iso_3166_2":"AZ-CAB","name":"Cəbrayıl","admin":"Azerbaijan","adm0_a3":"AZE","type_en":"District"}},{"type":"Polygon","arcs":[[118,-117,119,120,121]],"id":"AZE-1702","properties":{"adm1_code":"AZE-1702","iso_3166_2":"AZ-FUZ","name":"Füzuli","admin":"Azerbaijan","adm0_a3":"AZE","type_en":"District"}},{"type":"Polygon","arcs":[[122,-122,123,124,-94]],"id":"AZE-1697","properties":{"adm1_code":"AZE-1697","iso_3166_2":"AZ-BEY","name":"Beyləqan","admin":"Azerbaijan","adm0_a3":"AZE","type_en":"District"}},{"type":"Polygon","arcs":[[-115,125,126]],"id":"AZE-1695","properties":{"adm1_code":"AZE-1695","iso_3166_2":"AZ-AST","name":"Astara","admin":"Azerbaijan","adm0_a3":"AZE","type_en":"District"}},{"type":"Polygon","arcs":[[-63,127,128,129,130,131]],"id":"AZE-1701","properties":{"adm1_code":"AZE-1701","iso_3166_2":"AZ-SBN","name":"Dəvəçi","admin":"Azerbaijan","adm0_a3":"AZE","type_en":"District"}},{"type":"Polygon","arcs":[[-129,132,133]],"id":"AZE-1712","properties":{"adm1_code":"AZE-1712","iso_3166_2":"AZ-SIY","name":"Siyəzən","admin":"Azerbaijan","adm0_a3":"AZE","type_en":"District"}},{"type":"Polygon","arcs":[[-130,-134,134,135,136,137,138]],"id":"AZE-1719","properties":{"adm1_code":"AZE-1719","iso_3166_2":"AZ-XIZ","name":"Xizı","admin":"Azerbaijan","adm0_a3":"AZE","type_en":"District"}},{"type":"Polygon","arcs":[[-136,139,140,141]],"id":"AZE-1717","properties":{"adm1_code":"AZE-1717","iso_3166_2":"AZ-SM","name":"Sumqayıt","admin":"Azerbaijan","adm0_a3":"AZE","type_en":"Municipality"}},{"type":"Polygon","arcs":[[-141,142,143,144,145]],"id":"AZE-1689","properties":{"adm1_code":"AZE-1689","iso_3166_2":"AZ-BA","name":"Bakı","admin":"Azerbaijan","adm0_a3":"AZE","type_en":"Municipality"}},{"type":"Polygon","arcs":[[-103,146,147,148,-144,149,150]],"id":"AZE-1715","properties":{"adm1_code":"AZE-1715","iso_3166_2":"AZ-SAL","name":"Salyan","admin":"Azerbaijan","adm0_a3":"AZE","type_en":"District"}},{"type":"Polygon","arcs":[[-106,-151,151,152,153]],"id":"AZE-1710","properties":{"adm1_code":"AZE-1710","iso_3166_2":"AZ-NEF","name":"Neftçala","admin":"Azerbaijan","adm0_a3":"AZE","type_en":"District"}},{"type":"MultiPolygon","arcs":[[[-153,154,155]],[[-114,156,157,158,159,-126]]],"id":"AZE-1707","properties":{"adm1_code":"AZE-1707","iso_3166_2":"AZ-LA","name":"Lankaran","admin":"Azerbaijan","adm0_a3":"AZE","type_en":"District"}},{"type":"Polygon","arcs":[[-107,-154,-156,160,-157,-113,-110]],"id":"AZE-1708","properties":{"adm1_code":"AZE-1708","iso_3166_2":"AZ-MAS","name":"Masallı","admin":"Azerbaijan","adm0_a3":"AZE","type_en":"District"}},{"type":"Polygon","arcs":[[-159,161]],"id":"AZE-5562","properties":{"adm1_code":"AZE-5562","iso_3166_2":"AZ-LA","name":"Lankaran","admin":"Azerbaijan","adm0_a3":"AZE","type_en":"Municipality"}},{"type":"Polygon","arcs":[[-47,-55]],"id":"AZE-2422","properties":{"adm1_code":"AZE-2422","iso_3166_2":"AZ-NX","name":"Naxçıvan","admin":"Azerbaijan","adm0_a3":"AZE","type_en":"Municipality"}},{"type":"Polygon","arcs":[[-26,162,163,164,165]],"id":"AZE-1737","properties":{"adm1_code":"AZE-1737","iso_3166_2":"AZ-SUS","name":"Şuşa","admin":"Azerbaijan","adm0_a3":"AZE","type_en":"District"}},{"type":"Polygon","arcs":[[-22,166,167,-165,168,-163,-25],[169]],"id":"AZE-1739","properties":{"adm1_code":"AZE-1739","iso_3166_2":"AZ-XCI","name":"Xocalı","admin":"Azerbaijan","adm0_a3":"AZE","type_en":"District"}},{"type":"Polygon","arcs":[[-164,-169]],"id":"AZE-5565","properties":{"adm1_code":"AZE-5565","iso_3166_2":"AZ-X01~","name":"Şuşa","admin":"Azerbaijan","adm0_a3":"AZE","type_en":"Municipality"}},{"type":"Polygon","arcs":[[-21,170,171,172,173,-167]],"id":"AZE-1691","properties":{"adm1_code":"AZE-1691","iso_3166_2":"AZ-AGM","name":"Ağdam","admin":"Azerbaijan","adm0_a3":"AZE","type_en":"District"}},{"type":"Polygon","arcs":[[-20,174,175,176,-171]],"id":"AZE-1738","properties":{"adm1_code":"AZE-1738","iso_3166_2":"AZ-TAR","name":"Tərtər","admin":"Azerbaijan","adm0_a3":"AZE","type_en":"District"}},{"type":"Polygon","arcs":[[-19,177,-88,178,-175],[179]],"id":"AZE-1681","properties":{"adm1_code":"AZE-1681","iso_3166_2":"AZ-GOR","name":"Goranboy","admin":"Azerbaijan","adm0_a3":"AZE","type_en":"District"}},{"type":"Polygon","arcs":[[-27,-166,-168,-174,180,-120,-116,-31]],"id":"AZE-1734","properties":{"adm1_code":"AZE-1734","iso_3166_2":"AZ-XVD","name":"Xocavənd","admin":"Azerbaijan","adm0_a3":"AZE","type_en":"District"}},{"type":"Polygon","arcs":[[-145,-149,181,182,183,184,185,186,187]],"id":"AZE-1694","properties":{"adm1_code":"AZE-1694","iso_3166_2":"AZ-HAC","name":"Hajigabul","admin":"Azerbaijan","adm0_a3":"AZE","type_en":"District"}},{"type":"Polygon","arcs":[[-137,-142,-146,-188,188]],"id":"AZE-1690","properties":{"adm1_code":"AZE-1690","iso_3166_2":"AZ-ABS","name":"Abşeron","admin":"Azerbaijan","adm0_a3":"AZE","type_en":"District"}},{"type":"Polygon","arcs":[[-15,189,-91,190,-89,-178,-18]],"id":"AZE-1680","properties":{"adm1_code":"AZE-1680","iso_3166_2":"AZ-GYG","name":"Xanlar","admin":"Azerbaijan","adm0_a3":"AZE","type_en":"District"}},{"type":"Polygon","arcs":[[-96,191,192,193,194,195,-184,196]],"id":"AZE-1706","properties":{"adm1_code":"AZE-1706","iso_3166_2":"AZ-KUR","name":"Kürdəmir","admin":"Azerbaijan","adm0_a3":"AZE","type_en":"District"}},{"type":"Polygon","arcs":[[-95,-125,197,198,199,200,-192]],"id":"AZE-1721","properties":{"adm1_code":"AZE-1721","iso_3166_2":"AZ-ZAR","name":"Zərdab","admin":"Azerbaijan","adm0_a3":"AZE","type_en":"District"}},{"type":"Polygon","arcs":[[-97,-197,-183,201,-147,-102,202]],"id":"AZE-1714","properties":{"adm1_code":"AZE-1714","iso_3166_2":"AZ-SAB","name":"Sabirabad","admin":"Azerbaijan","adm0_a3":"AZE","type_en":"District"}},{"type":"Polygon","arcs":[[-148,-202,-182]],"id":"AZE-5563","properties":{"adm1_code":"AZE-5563","iso_3166_2":"AZ-SR","name":"Shirvan","admin":"Azerbaijan","adm0_a3":"AZE","type_en":"Municipality"}},{"type":"Polygon","arcs":[[-98,-203,-101]],"id":"AZE-1713","properties":{"adm1_code":"AZE-1713","iso_3166_2":"AZ-SAT","name":"Saatlı","admin":"Azerbaijan","adm0_a3":"AZE","type_en":"District"}},{"type":"Polygon","arcs":[[-172,-177,203,204,-199,205]],"id":"AZE-1696","properties":{"adm1_code":"AZE-1696","iso_3166_2":"AZ-BAR","name":"Bərdə","admin":"Azerbaijan","adm0_a3":"AZE","type_en":"District"}},{"type":"Polygon","arcs":[[-8,-92,-190,-14,-11]],"id":"AZE-1685","properties":{"adm1_code":"AZE-1685","iso_3166_2":"AZ-SKR","name":"Şəmkir","admin":"Azerbaijan","adm0_a3":"AZE","type_en":"District"}},{"type":"Polygon","arcs":[[-185,-196,206,207]],"id":"AZE-1693","properties":{"adm1_code":"AZE-1693","iso_3166_2":"AZ-AGU","name":"Ağsu","admin":"Azerbaijan","adm0_a3":"AZE","type_en":"District"}},{"type":"Polygon","arcs":[[-131,-139,208,-186,-208,209,210]],"id":"AZE-1716","properties":{"adm1_code":"AZE-1716","iso_3166_2":"AZ-SMI","name":"Şamaxı","admin":"Azerbaijan","adm0_a3":"AZE","type_en":"District"}},{"type":"Polygon","arcs":[[-64,-132,-211,211,-83,-67]],"id":"AZE-1728","properties":{"adm1_code":"AZE-1728","iso_3166_2":"AZ-QBA","name":"Quba","admin":"Azerbaijan","adm0_a3":"AZE","type_en":"District"}},{"type":"Polygon","arcs":[[-193,-201,212,213]],"id":"AZE-1718","properties":{"adm1_code":"AZE-1718","iso_3166_2":"AZ-UCA","name":"Ucar","admin":"Azerbaijan","adm0_a3":"AZE","type_en":"District"}},{"type":"Polygon","arcs":[[-138,-189,-187,-209]],"id":"AZE-1711","properties":{"adm1_code":"AZE-1711","iso_3166_2":"AZ-QOB","name":"Qobustan","admin":"Azerbaijan","adm0_a3":"AZE","type_en":"District"}},{"type":"Polygon","arcs":[[-84,-212,-210,-207,-195,214]],"id":"AZE-1705","properties":{"adm1_code":"AZE-1705","iso_3166_2":"AZ-ISM","name":"İsmayıllı","admin":"Azerbaijan","adm0_a3":"AZE","type_en":"District"}},{"type":"Polygon","arcs":[[-75,215,-204,-176,-179,-80],[216],[217]],"id":"AZE-1688","properties":{"adm1_code":"AZE-1688","iso_3166_2":"AZ-YEV","name":"Yevlakh Rayon","admin":"Azerbaijan","adm0_a3":"AZE","type_en":"District"}},{"type":"Polygon","arcs":[[-90,-191]],"id":"AZE-1679","properties":{"adm1_code":"AZE-1679","iso_3166_2":"AZ-GA","name":"Gəncə","admin":"Azerbaijan","adm0_a3":"AZE","type_en":"Municipality"}},{"type":"Polygon","arcs":[[-217]],"id":"AZE-1683","properties":{"adm1_code":"AZE-1683","iso_3166_2":"AZ-MI","name":"Mingəçevir","admin":"Azerbaijan","adm0_a3":"AZE","type_en":"Municipality"}},{"type":"Polygon","arcs":[[-85,-215,-194,-214,218]],"id":"AZE-1703","properties":{"adm1_code":"AZE-1703","iso_3166_2":"AZ-GOY","name":"Göyçay","admin":"Azerbaijan","adm0_a3":"AZE","type_en":"District"}},{"type":"Polygon","arcs":[[-74,-86,-219,-213,-200,-205,-216]],"id":"AZE-1692","properties":{"adm1_code":"AZE-1692","iso_3166_2":"AZ-AGS","name":"Ağdaş","admin":"Azerbaijan","adm0_a3":"AZE","type_en":"District"}},{"type":"Polygon","arcs":[[-121,-181,-173,-206,-198,-124]],"id":"AZE-1722","properties":{"adm1_code":"AZE-1722","iso_3166_2":"AZ-AGC","name":"Ağcabədi","admin":"Azerbaijan","adm0_a3":"AZE","type_en":"District"}},{"type":"Polygon","arcs":[[-170]],"id":"AZE-4838","properties":{"adm1_code":"AZE-4838","iso_3166_2":"AZ-XA","name":"Stepanakert","admin":"Azerbaijan","adm0_a3":"AZE","type_en":"District"}},{"type":"Polygon","arcs":[[-218]],"id":"AZE-5566","properties":{"adm1_code":"AZE-5566","iso_3166_2":"AZ-YEV","name":"Yevlakh","admin":"Azerbaijan","adm0_a3":"AZE","type_en":"Municipality"}},{"type":"Polygon","arcs":[[-180]],"id":"AZE-5561","properties":{"adm1_code":"AZE-5561","iso_3166_2":"AZ-NA","name":"Naftalan","admin":"Azerbaijan","adm0_a3":"AZE","type_en":"Municipality"}},{"type":"Polygon","arcs":[[-77]],"id":"AZE-5564","properties":{"adm1_code":"AZE-5564","iso_3166_2":"AZ-SA","name":"Şəki","admin":"Azerbaijan","adm0_a3":"AZE","type_en":"Municipality"}}]}},"arcs":[[[5798,84549],[881,-1366],[2273,-1319],[2087,-329],[-418,-3721],[232,-2968]],[[10853,74846],[-2829,94],[-1020,2685],[371,1366],[-2412,1036],[-881,2827],[1716,1695]],[[17811,81158],[-2088,-1978],[-2922,-4193],[-835,-1931]],[[11966,73056],[-1113,1790]],[[5798,84549],[2690,2685],[1484,0],[2366,-424],[834,-989],[3757,-1507],[-649,-1319],[1531,-1837]],[[17811,81158],[3571,-1837],[2087,471]],[[23469,79792],[2087,-1366]],[[25556,78426],[-2829,-3815],[-2644,94],[-603,-1696],[-2226,-1978],[-278,-1555]],[[16976,69476],[-371,-5982],[-1763,471],[-278,1366],[-1995,1979]],[[12569,67310],[1856,1460],[-789,2214],[-1670,2072]],[[16976,69476],[1530,-3203],[1856,-2449],[-47,-1978]],[[20315,61846],[-1252,-942],[278,-3392],[-649,-3108]],[[18692,54404],[-4175,2920],[-1066,1178],[-2737,6029],[1855,2779]],[[20315,61846],[2134,3156],[881,-566]],[[23330,64436],[2180,-1931],[-1206,-2261],[1670,-2072],[-1299,-3486]],[[24675,54686],[-3571,236],[-1206,-1508]],[[19898,53414],[-1206,990]],[[24675,54686],[2922,-895]],[[27597,53791],[1995,-377],[1855,1461]],[[31447,54875],[-603,-2403],[556,-2732],[1902,377],[2226,-3297]],[[35528,46820],[-1159,-424]],[[34369,46396],[-2319,-1696],[-2087,0]],[[29963,44700],[-4314,-1837],[-4128,-1130],[-1716,-1649]],[[19805,40084],[-1299,1555],[-1669,2873],[-2459,942],[1113,1178],[4175,-471],[1345,3108],[510,3015],[-1623,1130]],[[29963,44700],[1623,-5746]],[[31586,38954],[-186,-4051],[3665,-754]],[[35065,34149],[-1299,-847],[-418,-2167]],[[33348,31135],[-1391,-1319],[-1484,659]],[[30473,30475],[881,2214],[-3293,2308],[-2458,-895],[-2876,2874],[-1206,2308],[-1716,800]],[[32606,23646],[-1855,2920],[-2133,1554],[556,2073],[1299,282]],[[33348,31135],[1624,47],[46,-1978]],[[35018,29204],[-556,-1413],[974,-3015],[1159,-989]],[[36595,23787],[-2504,-2826],[-1485,2685]],[[36595,23787],[789,-1790]],[[37384,21997],[-2180,-3580],[-2366,-3014],[-1762,-1508],[-650,2685],[47,4004],[603,1978],[1530,1084]],[[7050,33443],[-696,-3203],[-1391,-1884]],[[4963,28356],[-1670,1366],[-1299,4898],[-1113,707]],[[881,35327],[2319,3015]],[[3200,38342],[2180,376],[1206,-1837],[464,-3438]],[[881,35327],[-278,283],[-603,1790],[3200,942]],[[7050,33443],[1763,801]],[[8813,34244],[-1114,-3486],[464,-4239],[-2087,-377]],[[6076,26142],[-1113,2214]],[[8813,34244],[834,-1696],[1948,-1131]],[[11595,31417],[-1159,-1742],[3432,-4145]],[[13868,25530],[-325,-1225]],[[13543,24305],[-3246,-94],[556,-1790],[1531,235]],[[12384,22656],[1484,-4427],[-278,-1837]],[[13590,16392],[-696,377],[-1206,942],[-2597,5087],[-2319,612],[-696,2732]],[[11595,31417],[5102,2120],[1438,-565],[279,-2873],[-696,-2544]],[[17718,27555],[-3850,-2025]],[[17718,27555],[2458,-1837]],[[20176,25718],[-1159,-1696],[-2088,-6500],[835,-1978]],[[17764,15544],[-4174,848]],[[12384,22656],[1159,1649]],[[20176,25718],[1484,-1743],[-510,-2355],[1206,-2496],[1994,-5747],[-6586,2167]],[[26901,90861],[-1530,1131],[278,4145],[1577,-142],[2366,4004],[1716,-236],[1066,-2731],[2227,1366]],[[34601,98398],[-139,-1602],[-2366,-2308],[-1438,-2779],[-2226,-1272],[-1531,424]],[[33163,84408],[-3293,2308],[-2644,2402],[-325,1743]],[[34601,98398],[2226,-2968],[1299,-659],[2180,-4287]],[[40306,90484],[-1809,-1507],[-3247,141],[-2087,-4710]],[[65908,95147],[2088,3580],[1345,-1272],[3803,-6170],[649,-1790],[3154,-4757]],[[76947,84738],[-4870,141],[-1113,-377]],[[70964,84502],[-1252,47],[-1763,3816]],[[67949,88365],[-2041,6782]],[[54313,80169],[1531,895],[-140,1554],[1995,2261],[928,2826],[2643,942],[3015,2497],[1623,4003]],[[67949,88365],[-3386,-1932],[-8209,-7395]],[[56354,79038],[-2041,1131]],[[46335,82006],[2412,-424],[1160,-1178],[2272,47]],[[52179,80451],[-185,-3155],[-1067,-2591],[-974,-6029]],[[49953,68676],[-3293,2590],[-2041,3816],[1345,4239],[371,2685]],[[42996,88600],[927,-1837],[650,-3580],[1762,-1177]],[[49953,68676],[-788,-989]],[[49165,67687],[-4685,800]],[[44480,68487],[-5937,3486]],[[38543,71973],[-46,3250],[-2087,2967],[46,2450],[1391,2779],[4500,2967],[649,2214]],[[43135,78991],[557,895],[-835,1366],[-418,-2025],[696,-236]],[[32931,77625],[1299,5040],[-1067,1743]],[[40306,90484],[1391,330],[1299,-2214]],[[38543,71973],[-3061,1554]],[[35482,73527],[-510,3062],[-2041,1036]],[[52179,80451],[2134,-282]],[[56354,79038],[417,-1695],[1438,-1037]],[[58209,76306],[-1484,-2402],[556,-2732],[-1066,-1978],[-2041,-1649],[-1299,-2308]],[[52875,65237],[-2597,-1036]],[[50278,64201],[-974,989],[-139,2497]],[[23469,79792],[2505,330],[1855,-2308],[2968,-2026],[2134,1837]],[[35482,73527],[-3896,-4993],[-1252,-3108]],[[30334,65426],[-1067,94]],[[29267,65520],[-1252,1130]],[[28015,66650],[-1160,3109]],[[26855,69759],[-325,989],[928,4287],[-1902,3391]],[[56910,37541],[-3061,-1460]],[[53849,36081],[1809,3250],[-2505,2308],[1253,4993],[-510,2543]],[[53896,49175],[1113,-377]],[[55009,48798],[2087,-565],[2087,424],[1345,-942],[2783,-659]],[[63311,47056],[-1206,-1743]],[[62105,45313],[-139,-5558],[1902,-1413],[556,-3250]],[[64424,35092],[-1901,-1602],[-4546,4192],[-1067,-141]],[[63497,28026],[-186,1131],[-4731,6735],[-1670,1649]],[[64424,35092],[974,1130],[1902,-1366],[742,1083]],[[68042,35939],[3293,-1319]],[[71335,34620],[-464,-2967],[418,-2685]],[[71289,28968],[-1438,330],[-742,-2732],[-1160,-188],[-1206,1837],[-2319,-2309],[-927,2120]],[[63033,17805],[-557,2590],[-2273,2073],[-324,3344],[3618,2214]],[[71289,28968],[-835,-1507],[649,-4004],[-232,-1978]],[[70871,21479],[-1298,-1743],[-3386,-2873]],[[66187,16863],[-1113,1272],[-2041,-330]],[[61688,9091],[-3804,3061],[-417,2026],[1252,1601],[3293,754],[1021,1272]],[[66187,16863],[1252,-1319]],[[67439,15544],[-3989,-3250],[-1762,-3203]],[[67207,2073],[-2133,4286],[-1856,-518],[-1484,1790],[-46,1460]],[[67439,15544],[835,-2073]],[[68274,13471],[-325,-2449],[1577,-1319],[603,-4380]],[[70129,5323],[-2319,-1272],[-603,-1978]],[[35018,29204],[1345,-424],[371,2166],[2459,-2873],[1391,565],[139,1979]],[[40723,30617],[1995,-2308],[1716,-566]],[[44434,27743],[-2830,-1648],[-1577,-3486],[-2643,-612]],[[50927,33631],[-1252,-1413],[-3201,-1884],[-2040,-2591]],[[40723,30617],[-93,2637],[789,2497],[1484,1130],[2458,660]],[[45361,37541],[2737,848]],[[48098,38389],[2829,-3580],[0,-1178]],[[53849,36081],[-2922,-2450]],[[48098,38389],[-325,2543],[1160,1366],[2041,518],[2319,7631]],[[53293,50447],[603,-1272]],[[70129,5323],[3061,565]],[[73190,5888],[93,-4805],[-1716,283],[-2968,-1366],[-1392,2073]],[[76947,84738],[1021,-2355],[603,-3863]],[[78571,78520],[-1624,1319],[-2412,-471],[-231,-3062],[-1949,-2261],[372,-2590]],[[72727,71455],[-1114,-1084]],[[71613,70371],[-1809,1131]],[[69804,71502],[-278,3062],[1021,1789],[-1392,1932],[1855,3108],[-46,3109]],[[78571,78520],[463,-2355],[3108,-4946]],[[82142,71219],[-2319,-424],[-3293,1555],[-3803,-895]],[[82142,71219],[3015,-2779],[-139,-3580]],[[85018,64860],[-882,-753]],[[84136,64107],[-1437,-3062],[-2459,-659]],[[80240,60386],[-2922,2920],[-1716,1130],[-2458,2874],[-1067,377]],[[72077,67687],[-464,2684]],[[85018,64860],[3200,-2166]],[[88218,62694],[-371,-942]],[[87847,61752],[-1809,-283],[-1902,2638]],[[88218,62694],[1902,-613],[4220,518],[1345,-1884],[1949,-612],[1762,-2591],[603,-3532],[-2505,1742],[-3107,236],[-928,-801],[-1994,1319],[-2041,-2685],[-3571,-1695],[-2412,-3957],[742,-2544],[-1113,-1790],[371,-1554],[-882,-2591],[511,-2072],[-1160,-1225]],[[81910,36363],[0,4145]],[[81910,40508],[-1159,4051]],[[80751,44559],[788,3815],[1577,4287],[-93,4616],[2227,2025],[3339,-94],[2458,895],[-3200,1649]],[[71335,34620],[1299,142],[2319,1884],[-464,5181],[-603,1366]],[[73886,43193],[418,236]],[[74304,43429],[2643,-895],[3293,-189],[1670,-1837]],[[81910,36363],[-1299,-4522]],[[80611,31841],[-2133,-942],[-1995,2073],[-2922,-5700],[-2272,1696]],[[80611,31841],[2227,-3485],[-325,-2355],[-1531,1177],[-1205,-1931],[-47,-3486]],[[79730,21761],[-2365,1272],[-1438,1979],[-3015,-3957]],[[72912,21055],[-2041,424]],[[79730,21761],[-742,-4003],[-1206,329],[186,2120],[-1392,2025],[-1623,283],[-603,-1696],[325,-2637],[-603,-2921]],[[74072,15261],[-1160,5794]],[[68274,13471],[1206,-1083],[2922,1978],[1252,-235]],[[73654,14131],[-1159,-518],[278,-2403]],[[72773,11210],[-371,-282],[139,-1460],[557,612]],[[73098,10080],[92,-4192]],[[74072,15261],[-418,-1130]],[[72773,11210],[325,-1130]],[[31586,38954],[3571,424]],[[35157,39378],[47,-754],[603,330]],[[35807,38954],[232,-2920]],[[36039,36034],[-974,-1885]],[[34369,46396],[2226,-848],[1809,-2402],[-1252,-3109]],[[37152,40037],[927,-3627],[-2040,-376]],[[35807,38954],[-650,424]],[[35482,40179],[835,1271],[-464,518],[-696,-894],[325,-895]],[[35528,46820],[928,3391],[3386,1837],[1484,-1366]],[[41326,50682],[2551,95]],[[43877,50777],[-1577,-1602],[-696,-2025],[-139,-3392],[3015,142],[-232,-2073]],[[44248,41827],[-1670,-848],[-2736,1555],[-2690,-2497]],[[31447,54875],[3386,2590],[1298,0],[2273,2167]],[[38404,59632],[835,-1837]],[[39239,57795],[1948,-3250],[139,-3863]],[[27597,53791],[557,3627],[2783,4051],[-603,3957]],[[35482,73527],[-510,-5746],[1716,-1460],[-974,-1790],[2087,-801],[603,-4098]],[[36595,60103],[325,141],[-232,518],[-278,-376],[185,-283]],[[44248,41827],[1577,-3061],[-464,-1225]],[[74304,43429],[-1067,1931]],[[73237,45360],[-3618,2025],[-139,1602],[-3664,848]],[[65816,49835],[-279,4050]],[[65537,53885],[557,1508]],[[66094,55393],[3571,-1837],[1345,2214]],[[71010,55770],[1856,-471]],[[72866,55299],[139,-1037],[2597,-3768],[2922,-471],[2227,-5464]],[[72866,55299],[1530,-1037],[2830,3392],[1623,753],[1391,1979]],[[23330,64436],[2458,1178],[1067,4145]],[[28015,66650],[-789,-1931],[881,-989],[1160,1790]],[[55009,48798],[1669,1884],[-185,4193]],[[56493,54875],[1020,3674]],[[57513,58549],[603,2025]],[[58116,60574],[1485,565]],[[59601,61139],[-511,-2402],[1809,-1225],[2505,707],[93,-2214],[2040,-2120]],[[65816,49835],[-2505,-2779]],[[53293,50447],[-2876,1083],[-1994,1649]],[[48423,53179],[-743,1272]],[[47680,54451],[1438,2637]],[[49118,57088],[3525,-2402],[3850,189]],[[73237,45360],[649,-2167]],[[68042,35939],[2180,2355],[-186,3439],[-2829,2496],[-1020,-518],[-1206,2167],[-2876,-565]],[[39239,57795],[881,1601],[2134,424],[1252,2167]],[[43506,61987],[2597,-3674],[1577,-3862]],[[48423,53179],[-3015,-2638],[-1531,236]],[[59601,61139],[2597,2874],[2783,2025],[927,2591]],[[65908,68629],[1160,-2356],[-1623,-4145],[3849,-2308],[-2319,-1884],[-881,-2543]],[[72077,67687],[-1391,-1131],[-325,-4192],[649,-6594]],[[65908,68629],[418,2496],[-1716,1931]],[[64610,73056],[1438,-47],[3756,-1507]],[[64610,73056],[-5334,3062],[-1067,188]],[[49118,57088],[-1020,1696],[278,1884],[1902,283]],[[50278,60951],[2736,-1507],[1021,518],[3478,-1413]],[[58116,60574],[371,2449],[-742,801],[-4870,1413]],[[44480,68487],[-974,-6500]],[[39610,67922],[-1252,-47],[835,-1225],[417,1272]],[[42903,62223],[278,1978],[-1437,0],[-47,-1554],[1206,-424]],[[50278,60951],[0,3250]]],"bbox":[44.77386608604121,38.39634989306768,50.369788249544,41.8902288802627],"transform":{"scale":[0.00005595978123284025,0.00003493913926334281],"translate":[44.77386608604121,38.39634989306768]}}