{"type":"Topology","objects":{"a1":{"type":"GeometryCollection","geometries":[{"type":"Polygon","arcs":[[0,1,2,3]],"id":"BFA-2878","properties":{"adm1_code":"BFA-2878","iso_3166_2":"BF-TAP","name":"Tapoa","admin":"Burkina Faso","adm0_a3":"BFA","type_en":"Province"}},{"type":"Polygon","arcs":[[-1,4,5,6]],"id":"BFA-2183","properties":{"adm1_code":"BFA-2183","iso_3166_2":"BF-KMP","name":"Kompienga","admin":"Burkina Faso","adm0_a3":"BFA","type_en":"Province"}},{"type":"Polygon","arcs":[[7,8,9]],"id":"BFA-2835","properties":{"adm1_code":"BFA-2835","iso_3166_2":"BF-LER","name":"Léraba","admin":"Burkina Faso","adm0_a3":"BFA","type_en":"Province"}},{"type":"Polygon","arcs":[[10,-9,11,12,13,14]],"id":"BFA-2836","properties":{"adm1_code":"BFA-2836","iso_3166_2":"BF-COM","name":"Komoé","admin":"Burkina Faso","adm0_a3":"BFA","type_en":"Province"}},{"type":"Polygon","arcs":[[15,-15,16,17,18,19]],"id":"BFA-2837","properties":{"adm1_code":"BFA-2837","iso_3166_2":"BF-PON","name":"Poni","admin":"Burkina Faso","adm0_a3":"BFA","type_en":"Province"}},{"type":"Polygon","arcs":[[-20,20]],"id":"BFA-5989","properties":{"adm1_code":"BFA-5989","iso_3166_2":"BF-NOU","name":"Noumbiel","admin":"Burkina Faso","adm0_a3":"BFA","type_en":"Province"}},{"type":"Polygon","arcs":[[21,22,23]],"id":"BFA-2805","properties":{"adm1_code":"BFA-2805","iso_3166_2":"BF-OUD","name":"Oudalan","admin":"Burkina Faso","adm0_a3":"BFA","type_en":"Province"}},{"type":"Polygon","arcs":[[-23,24,25,26,27,28]],"id":"BFA-2806","properties":{"adm1_code":"BFA-2806","iso_3166_2":"BF-SOM","name":"Soum","admin":"Burkina Faso","adm0_a3":"BFA","type_en":"Province"}},{"type":"Polygon","arcs":[[-28,29,30,31]],"id":"BFA-2822","properties":{"adm1_code":"BFA-2822","iso_3166_2":"BF-LOR","name":"Loroum","admin":"Burkina Faso","adm0_a3":"BFA","type_en":"Province"}},{"type":"Polygon","arcs":[[32,-31,33,34,35,36]],"id":"BFA-2823","properties":{"adm1_code":"BFA-2823","iso_3166_2":"BF-YAT","name":"Yatenga","admin":"Burkina Faso","adm0_a3":"BFA","type_en":"Province"}},{"type":"Polygon","arcs":[[37,-37,38,39,40,41]],"id":"BFA-2808","properties":{"adm1_code":"BFA-2808","iso_3166_2":"BF-SOR","name":"Sourou","admin":"Burkina Faso","adm0_a3":"BFA","type_en":"Province"}},{"type":"Polygon","arcs":[[-42,42,43,44,45]],"id":"BFA-2802","properties":{"adm1_code":"BFA-2802","iso_3166_2":"BF-KOS","name":"Kossi","admin":"Burkina Faso","adm0_a3":"BFA","type_en":"Province"}},{"type":"Polygon","arcs":[[-45,46,47,48]],"id":"BFA-2801","properties":{"adm1_code":"BFA-2801","iso_3166_2":"BF-BAN","name":"Banwa","admin":"Burkina Faso","adm0_a3":"BFA","type_en":"Province"}},{"type":"Polygon","arcs":[[-13,49,50,-48,51,52,53]],"id":"BFA-2799","properties":{"adm1_code":"BFA-2799","iso_3166_2":"BF-HOU","name":"Houet","admin":"Burkina Faso","adm0_a3":"BFA","type_en":"Province"}},{"type":"Polygon","arcs":[[-8,54,-50,-12]],"id":"BFA-2800","properties":{"adm1_code":"BFA-2800","iso_3166_2":"BF-KEN","name":"Kénédougou","admin":"Burkina Faso","adm0_a3":"BFA","type_en":"Province"}},{"type":"Polygon","arcs":[[55,56,57,58,59,-25,-22]],"id":"BFA-2876","properties":{"adm1_code":"BFA-2876","iso_3166_2":"BF-SEN","name":"Séno","admin":"Burkina Faso","adm0_a3":"BFA","type_en":"Province"}},{"type":"Polygon","arcs":[[60,61,62,-57]],"id":"BFA-2877","properties":{"adm1_code":"BFA-2877","iso_3166_2":"BF-YAG","name":"Yagha","admin":"Burkina Faso","adm0_a3":"BFA","type_en":"Province"}},{"type":"Polygon","arcs":[[63,-3,64,65,-62]],"id":"BFA-2875","properties":{"adm1_code":"BFA-2875","iso_3166_2":"BF-KMD","name":"Komondjari","admin":"Burkina Faso","adm0_a3":"BFA","type_en":"Province"}},{"type":"Polygon","arcs":[[-6,66,67,68]],"id":"BFA-2827","properties":{"adm1_code":"BFA-2827","iso_3166_2":"BF-KOP","name":"Koulpélogo","admin":"Burkina Faso","adm0_a3":"BFA","type_en":"Province"}},{"type":"Polygon","arcs":[[69,70,71,72,73,74,-68]],"id":"BFA-2826","properties":{"adm1_code":"BFA-2826","iso_3166_2":"BF-BLG","name":"Boulgou","admin":"Burkina Faso","adm0_a3":"BFA","type_en":"Province"}},{"type":"Polygon","arcs":[[75,76,77,78,-71]],"id":"BFA-2830","properties":{"adm1_code":"BFA-2830","iso_3166_2":"BF-NAO","name":"Nahouri","admin":"Burkina Faso","adm0_a3":"BFA","type_en":"Province"}},{"type":"Polygon","arcs":[[79,80,81,82,83,84,-77]],"id":"BFA-2820","properties":{"adm1_code":"BFA-2820","iso_3166_2":"BF-SIS","name":"Sissili","admin":"Burkina Faso","adm0_a3":"BFA","type_en":"Province"}},{"type":"Polygon","arcs":[[-18,85,86,87,-81,88]],"id":"BFA-2833","properties":{"adm1_code":"BFA-2833","iso_3166_2":"BF-IOB","name":"Ioba","admin":"Burkina Faso","adm0_a3":"BFA","type_en":"Province"}},{"type":"Polygon","arcs":[[-82,-88,89,90,91]],"id":"BFA-2803","properties":{"adm1_code":"BFA-2803","iso_3166_2":"BF-BAL","name":"Balé","admin":"Burkina Faso","adm0_a3":"BFA","type_en":"Province"}},{"type":"Polygon","arcs":[[-83,-92,92,93,94,95]],"id":"BFA-2819","properties":{"adm1_code":"BFA-2819","iso_3166_2":"BF-SNG","name":"Sanguié","admin":"Burkina Faso","adm0_a3":"BFA","type_en":"Province"}},{"type":"Polygon","arcs":[[-53,96,-90,-87,97]],"id":"BFA-2834","properties":{"adm1_code":"BFA-2834","iso_3166_2":"BF-TUI","name":"Tuy","admin":"Burkina Faso","adm0_a3":"BFA","type_en":"Province"}},{"type":"Polygon","arcs":[[-14,-54,-98,-86,-17]],"id":"BFA-2832","properties":{"adm1_code":"BFA-2832","iso_3166_2":"BF-BGR","name":"Bougouriba","admin":"Burkina Faso","adm0_a3":"BFA","type_en":"Province"}},{"type":"Polygon","arcs":[[-44,98,-93,-91,-97,-52,-47]],"id":"BFA-2804","properties":{"adm1_code":"BFA-2804","iso_3166_2":"BF-MOU","name":"Mou Houn","admin":"Burkina Faso","adm0_a3":"BFA","type_en":"Province"}},{"type":"Polygon","arcs":[[-74,99,100,101,102]],"id":"BFA-2829","properties":{"adm1_code":"BFA-2829","iso_3166_2":"BF-KOT","name":"Kouritenga","admin":"Burkina Faso","adm0_a3":"BFA","type_en":"Province"}},{"type":"Polygon","arcs":[[-73,103,104,105,106,107,108,-100]],"id":"BFA-2828","properties":{"adm1_code":"BFA-2828","iso_3166_2":"BF-GAN","name":"Ganzourgou","admin":"Burkina Faso","adm0_a3":"BFA","type_en":"Province"}},{"type":"Polygon","arcs":[[-72,-79,109,110,-104]],"id":"BFA-2831","properties":{"adm1_code":"BFA-2831","iso_3166_2":"BF-ZOU","name":"Zoundwéogo","admin":"Burkina Faso","adm0_a3":"BFA","type_en":"Province"}},{"type":"Polygon","arcs":[[-78,-85,111,112,-110]],"id":"BFA-2821","properties":{"adm1_code":"BFA-2821","iso_3166_2":"BF-ZIR","name":"Ziro","admin":"Burkina Faso","adm0_a3":"BFA","type_en":"Province"}},{"type":"Polygon","arcs":[[-84,-96,113,114,115,116,-112]],"id":"BFA-2812","properties":{"adm1_code":"BFA-2812","iso_3166_2":"BF-BLK","name":"Boulkiemdé","admin":"Burkina Faso","adm0_a3":"BFA","type_en":"Province"}},{"type":"Polygon","arcs":[[-106,117,-116,118,119]],"id":"BFA-2815","properties":{"adm1_code":"BFA-2815","iso_3166_2":"BF-KAD","name":"Kadiogo","admin":"Burkina Faso","adm0_a3":"BFA","type_en":"Province"}},{"type":"Polygon","arcs":[[-107,-120,120,121,122]],"id":"BFA-2816","properties":{"adm1_code":"BFA-2816","iso_3166_2":"BF-OUB","name":"Oubritenga","admin":"Burkina Faso","adm0_a3":"BFA","type_en":"Province"}},{"type":"Polygon","arcs":[[-2,-7,-69,-75,-103,123,-65]],"id":"BFA-2184","properties":{"adm1_code":"BFA-2184","iso_3166_2":"BF-GOU","name":"Gourma","admin":"Burkina Faso","adm0_a3":"BFA","type_en":"Province"}},{"type":"Polygon","arcs":[[-58,-63,-66,-124,-102,124]],"id":"BFA-2874","properties":{"adm1_code":"BFA-2874","iso_3166_2":"BF-GNA","name":"Gnagna","admin":"Burkina Faso","adm0_a3":"BFA","type_en":"Province"}},{"type":"Polygon","arcs":[[-105,-111,-113,-117,-118]],"id":"BFA-2814","properties":{"adm1_code":"BFA-2814","iso_3166_2":"BF-BAZ","name":"Bazéga","admin":"Burkina Faso","adm0_a3":"BFA","type_en":"Province"}},{"type":"Polygon","arcs":[[-115,125,-121,-119]],"id":"BFA-2813","properties":{"adm1_code":"BFA-2813","iso_3166_2":"BF-KOW","name":"Kourwéogo","admin":"Burkina Faso","adm0_a3":"BFA","type_en":"Province"}},{"type":"Polygon","arcs":[[-41,126,-94,-99,-43]],"id":"BFA-2807","properties":{"adm1_code":"BFA-2807","iso_3166_2":"BF-NAY","name":"Nayala","admin":"Burkina Faso","adm0_a3":"BFA","type_en":"Province"}},{"type":"Polygon","arcs":[[-35,127,128,-122,-126,-114,-95,-127,-40,129]],"id":"BFA-2817","properties":{"adm1_code":"BFA-2817","iso_3166_2":"BF-PAS","name":"Passoré","admin":"Burkina Faso","adm0_a3":"BFA","type_en":"Province"}},{"type":"Polygon","arcs":[[-36,-130,-39]],"id":"BFA-2818","properties":{"adm1_code":"BFA-2818","iso_3166_2":"BF-ZON","name":"Zondoma","admin":"Burkina Faso","adm0_a3":"BFA","type_en":"Province"}},{"type":"Polygon","arcs":[[-59,-125,-101,-109,130]],"id":"BFA-2824","properties":{"adm1_code":"BFA-2824","iso_3166_2":"BF-NAM","name":"Namentenga","admin":"Burkina Faso","adm0_a3":"BFA","type_en":"Province"}},{"type":"Polygon","arcs":[[-26,-60,-131,-108,-123,-129,131]],"id":"BFA-2825","properties":{"adm1_code":"BFA-2825","iso_3166_2":"BF-SMT","name":"Sanmatenga","admin":"Burkina Faso","adm0_a3":"BFA","type_en":"Province"}},{"type":"Polygon","arcs":[[-27,-132,-128,-34,-30]],"id":"BFA-2811","properties":{"adm1_code":"BFA-2811","iso_3166_2":"BF-BAM","name":"Bam","admin":"Burkina Faso","adm0_a3":"BFA","type_en":"Province"}}]}},"arcs":[[[87794,36255],[-2034,2084],[-393,752],[-33,1765]],[[85334,40856],[492,868],[459,2257],[328,4311],[-1345,695],[-295,926],[230,1533],[-230,2691],[525,1476],[492,2575],[-164,1273]],[[85826,59461],[459,1129]],[[86285,60590],[2920,-3357],[788,-405],[2887,-347],[1082,1620],[755,492],[1739,-347],[1181,-2141],[525,-2807],[-2198,-694],[0,-1360],[3379,-6453],[656,-752],[-1247,-3906],[-1804,-1939],[-1673,-2344],[-853,-260],[-853,492],[-2034,-290],[-1477,-694],[-426,1128],[-1838,29]],[[87794,36255],[-1082,-1533],[131,-1129],[-1017,-954],[-1739,-29],[-590,-2026],[229,-1070],[-853,-377],[-722,521],[-951,-1504],[-2854,-87],[-2395,-984],[0,1244],[-1411,405]],[[74540,28732],[525,1534],[1017,-347],[722,1996],[-263,1997],[558,1128],[-591,1939],[-32,2893]],[[76476,39872],[525,695],[1607,665],[328,1273],[1772,1910],[1345,-318],[951,-1071],[755,-87],[1575,-2083]],[[197,29109],[1247,-116],[1607,-1823],[1181,-2228],[1575,376]],[[5807,25318],[1444,-868],[0,-1968],[-460,-1504],[-1345,-261],[-230,-1070],[394,-2315],[-525,-1476]],[[5085,15856],[-1246,463],[-2330,-347],[-918,868],[-591,1331],[689,2865],[-197,1678],[656,2836],[-951,3559]],[[20603,8825],[-2132,-1707],[-919,405],[-820,-955],[-919,-376],[-656,-2373],[-1082,666],[-1181,145],[-1280,1273],[-1279,-463],[-1706,2951],[-1608,550],[-98,2720],[-952,521],[-197,1649],[-590,781],[-99,1244]],[[5807,25318],[1247,984],[2165,-290]],[[9219,26012],[558,-1157],[1082,-492],[1674,1621],[886,-203],[754,-1823],[1772,-955],[2001,1331],[722,-723],[1673,-810],[787,492],[821,1822],[754,116]],[[22703,25231],[459,-1418],[-1246,-347],[131,-752],[1050,-695]],[[23097,22019],[-33,-3125],[-1017,-2054],[361,-1967],[-853,-1997],[-952,-550],[-951,116],[-164,-1534],[1083,-1359],[32,-724]],[[29330,9086],[-951,-1158],[-1411,1244],[-2756,87],[-689,521],[-1804,-839],[-1116,-116]],[[23097,22019],[1214,348],[1148,-550],[1411,260],[984,-983],[1509,810],[1837,1794]],[[31200,23698],[1050,-724],[624,203]],[[32874,23177],[-132,-1331],[493,-1997],[984,-2228],[-230,-1562],[952,-695],[-525,-1331],[131,-1707]],[[34547,12326],[-1312,145],[-329,-1447],[-787,-173],[-886,1157],[-1312,58],[-656,-2026],[65,-954]],[[34547,12326],[656,-4571],[-722,-1997],[656,-1157],[-229,-1534],[886,-1360],[-919,-1707],[-591,347],[-1279,2315],[-984,2893],[-1345,463],[-525,1679],[-788,260],[-33,1129]],[[72342,88685],[-755,-665],[-393,-1389],[-1411,-2373],[-3117,174],[-886,-608],[-3149,-289]],[[62631,83535],[-558,579],[-295,2633],[-1903,2893],[-132,897],[-1115,2286],[-2001,2575]],[[56627,95398],[3412,4196],[656,376],[2789,29],[1279,-1360],[2034,1100],[5774,-2720],[-459,-1592],[459,-1562],[-853,-3241],[624,-1939]],[[62631,83535],[-33,-2373],[-919,-665]],[[61679,80497],[-2657,-2083],[-1608,-521],[-2165,-1071],[-2297,-405]],[[52952,76417],[-1771,926],[-788,1968],[-2034,-1360],[-656,-1708]],[[47703,76243],[-853,1245],[-689,1736],[66,1678],[-2199,1910],[-590,1012]],[[43438,83824],[787,695],[230,4311],[492,695],[1640,-87],[1772,289],[4364,3848],[2952,1158],[952,665]],[[47703,76243],[230,-810],[-1739,-1360],[-131,-1099]],[[46063,72974],[-1608,-463],[-1411,202],[-394,2315],[-1541,5469],[-1903,1273],[-657,-781],[-1213,-145],[-230,984],[-1148,1678]],[[35958,83506],[1017,1418],[1706,1042],[951,-290],[2953,-1909],[853,57]],[[32742,74652],[460,232],[-427,2604],[1116,4282],[2067,1736]],[[46063,72974],[492,-1389],[0,-2170],[1181,-1418],[328,-1013],[-295,-1389]],[[47769,65595],[-1083,-434],[-525,753],[-656,-1302],[-1214,-666],[-1411,608]],[[42880,64554],[788,3501],[-296,1302],[-1837,-58],[-2067,955],[-1181,-1071],[-1247,-607]],[[37040,68576],[-525,2749],[-1246,1244],[-1608,665],[-919,1418]],[[25886,66377],[590,1880],[2264,319],[-459,4398],[328,2025],[1673,347],[754,-1244],[1706,550]],[[37040,68576],[1280,-405],[492,-782],[-1247,-2372],[-1411,0],[-426,-550],[131,-1563]],[[35859,62904],[-65,-752]],[[35794,62152],[-1346,-492],[-1181,87],[-1017,868],[-853,-463],[-1378,347],[-557,926],[-1050,-289],[-1181,-1505],[-755,-1938]],[[26476,59693],[-426,955],[-164,5729]],[[26476,59693],[-33,-666]],[[26443,59027],[-1115,-347],[65,-955],[-656,-3414]],[[24737,54311],[-1673,926],[-3084,0],[-853,-2315],[-722,-463],[-1050,1157],[-360,1852],[262,2315],[-1115,897]],[[16142,58680],[426,1562],[-230,2286],[-1542,2981],[296,897],[1542,1822],[754,463],[525,1476],[1772,1881],[590,-695],[-820,-954],[2330,-868],[2559,-2605],[1542,-549]],[[24737,54311],[-1804,-1563],[-722,-1996],[-755,-724],[99,-1302],[-1050,-1389],[-1017,-2662]],[[19488,44675],[-1345,203],[-1903,-781],[-886,-2778],[-1804,-434],[-525,781],[754,3906],[-426,1389],[-1969,-202],[-393,347]],[[10991,47106],[853,2228],[1115,1244],[99,926],[1049,-231],[-590,2228],[820,1678],[-1214,2025],[230,1273],[787,319],[2002,-116]],[[9219,26012],[427,2142],[1312,723],[-33,1360],[-1706,2402],[787,2633],[886,868],[525,-637],[886,1418],[-984,4716],[65,2344],[-196,1563],[-1214,954]],[[9974,46498],[1017,608]],[[19488,44675],[394,-1446]],[[19882,43229],[-99,-2026],[-426,-1707],[262,-1736],[788,-1302],[229,-1505],[525,-376],[-426,-2806],[1017,-897],[754,-1360],[1477,-1794],[492,57]],[[24475,27777],[-853,-1678],[-919,-868]],[[197,29109],[197,607],[1279,232],[853,694],[788,2344],[-33,2141],[558,579],[-197,2691],[-919,926],[328,1938],[-1148,926],[1312,897],[1247,1765],[1017,637],[1706,463],[1870,-174],[919,723]],[[72342,88685],[1837,-2256],[525,-984],[-623,-2228],[393,-1505],[1083,-1620],[558,-1707]],[[76115,78385],[-1247,-868],[-525,-897],[-1148,-319],[-328,-839],[-2297,-1852]],[[70570,73610],[-1509,-636],[-1444,492],[-689,-1302]],[[66928,72164],[99,2112],[-1870,608],[-984,1562],[-263,1360],[-1804,1852]],[[62106,79658],[-427,839]],[[76115,78385],[1279,-1447],[263,-1563],[1673,87],[525,-1013],[689,29],[1279,-781],[1214,-2488],[1772,-1360],[-263,-897],[-2329,955],[-164,-695],[33,-4282]],[[82086,64930],[-2231,-1447],[-2789,-868]],[[77066,62615],[131,839],[-1935,2923],[-1641,723],[-1509,2315],[-1443,2807],[-99,1388]],[[82086,64930],[131,-926],[1673,-637],[2395,-2777]],[[85826,59461],[-1411,-434],[-656,-1649],[-1312,174],[-525,-1013],[-1116,-492],[-197,-1302],[-1640,-2923],[-886,-173],[-754,1938],[-1477,1274],[-1640,-1216]],[[74212,53645],[-591,5122],[-689,1331],[492,1794],[2363,-868],[1279,1591]],[[74540,28732],[-6201,1736]],[[68339,30468],[328,1331],[1181,1881],[-164,550],[-1837,0],[-164,550],[591,2691],[-328,752],[951,2141],[1542,1100]],[[70439,41464],[656,607],[1542,-665],[1148,-145],[1411,-1302],[1280,-87]],[[68339,30468],[-623,174],[-1673,-116],[-919,-1099],[-459,636],[-1378,-1996],[-952,-116],[-557,-1302],[-853,1505]],[[60925,28154],[131,1157],[-1083,2402]],[[59973,31713],[525,1360],[2001,1851],[558,1216],[-361,723],[-1771,897],[-558,-318],[-1542,1128],[-689,1476],[1575,2951]],[[59711,42997],[1312,347],[1247,2026],[1673,260]],[[63943,45630],[-98,-1070],[1148,-1852],[1607,-492],[427,955],[1378,1331]],[[68405,44502],[1575,-1389],[459,-1649]],[[60925,28154],[-2002,0],[-2657,347],[-459,-318],[-3150,29],[-722,318]],[[51935,28530],[-689,1099],[-1050,261],[-1115,868],[656,3183]],[[49737,33941],[2362,2257],[1083,1475]],[[53182,37673],[525,-1041],[754,-87],[460,-955],[951,-637],[2822,-3269],[1279,29]],[[51935,28530],[-131,58],[-1739,144],[-459,-520],[-4757,-58],[-9548,-116]],[[35301,28038],[952,1215],[230,955],[-985,1302],[-951,-434],[-197,1302]],[[34350,32378],[1116,1794],[1181,-202],[1246,1128],[-229,723],[-1575,1534],[-164,1649]],[[35925,39004],[1083,29],[295,1997],[426,1128],[1509,1273],[2067,695]],[[41305,44126],[197,144]],[[41502,44270],[197,-3240],[-1476,-87],[65,-3096],[1575,-492],[623,-723],[558,-1737],[1673,-1591],[821,1273],[1443,-1244],[1378,1389],[1378,-781]],[[31200,23698],[-426,839],[-1312,-58],[0,1389],[885,3472],[33,2083],[-984,290],[-1345,-434]],[[28051,31279],[951,2546],[886,608],[525,-434],[1411,260],[1837,-926]],[[33661,33333],[689,-955]],[[35301,28038],[-1377,202],[295,-1215],[-624,-1128],[-721,-2720]],[[33661,33333],[394,2488],[-33,1563],[-2461,926],[-656,-145],[-1509,-1389],[-1017,-434],[-427,1534],[-1377,955],[295,1360],[-2428,1388]],[[24442,41579],[-295,897],[492,1418],[984,637],[66,926],[1673,173],[820,-1446],[1214,29],[459,897],[-853,1273],[591,1215],[1542,-203],[918,-1041],[853,434]],[[32906,46788],[755,-1013],[-262,-1157],[623,-840],[-558,-1244],[164,-868],[1116,-173],[1181,-2489]],[[32906,46788],[296,897],[951,-666],[361,868],[-492,1707],[-656,811],[525,1909]],[[33891,52314],[951,1187],[558,1360],[-394,1388],[427,1158],[1017,1389]],[[36450,58796],[1312,1331],[1280,-1910],[-66,-1534],[1608,550]],[[40584,57233],[656,-1996],[-1116,-1216],[-853,-347],[230,-3877],[-984,-1215],[557,-839],[-656,-840],[164,-983],[1575,-1158],[1312,463],[-164,-1099]],[[19882,43229],[984,-1360],[1247,-868],[2329,578]],[[28051,31279],[-2526,-811],[-1181,-1678],[131,-1013]],[[26443,59027],[886,-1504],[1411,231],[98,-2662],[1017,-289],[952,-1736],[1607,-1100],[886,810],[591,-463]],[[63943,45630],[525,1013],[0,1910],[-689,926],[-656,3703],[-1083,1563]],[[62040,54745],[2854,-637],[2297,1592]],[[67191,55700],[-230,-2170],[1017,-868],[-492,-2026],[1247,-723]],[[68733,49913],[1411,-1852],[-1378,-1360],[-361,-2199]],[[59711,42997],[-1149,839]],[[58562,43836],[-131,1129],[-1542,2430],[-525,1679]],[[56364,49074],[-426,1360]],[[55938,50434],[-230,1070],[689,2228],[1017,1331],[886,-1013],[886,1013]],[[59186,55063],[1214,1215],[98,1447],[787,29]],[[61285,57754],[722,-1447],[33,-1562]],[[53182,37673],[-427,868]],[[52755,38541],[361,1679],[1181,2690],[1936,1650],[1706,-839],[623,115]],[[41502,44270],[1772,608],[722,666]],[[43996,45544],[918,-1360],[2264,376],[1968,-2691],[1903,-1447],[689,-1128],[1017,-753]],[[40584,57233],[1706,897],[2099,174],[886,-550]],[[45275,57754],[230,-984],[1181,-607],[492,-1997],[-1050,-665],[-623,463],[-1050,-290],[-919,-2604],[656,-492],[1378,1129],[1214,173]],[[46784,51880],[296,-2112],[-919,-1360]],[[46161,48408],[-1116,-752],[-229,-1042],[-820,-1070]],[[56364,49074],[-886,-521],[-2460,-261],[-1050,-520],[-623,1504],[-3216,-2430],[-1115,434],[-853,1128]],[[46784,51880],[1772,955],[-525,2633],[1280,810],[328,1418]],[[49639,57696],[492,-1244],[918,-666],[1116,-1765],[886,637],[951,-1100],[-262,-1822],[1870,-1418],[328,116]],[[49639,57696],[-755,1447],[-131,1910],[-853,636]],[[47900,61689],[853,463],[1411,-405]],[[50164,61747],[853,-694],[1443,-116],[2526,-2026],[624,-1388],[1181,29],[1378,-1823],[1017,-666]],[[68733,49913],[1181,1707],[1739,752],[1345,29],[1214,1244]],[[67191,55700],[98,1446],[-295,1187],[295,1360],[-1345,1186],[-754,2402],[65,1533],[722,1968],[262,2228],[-164,1736],[853,1418]],[[45275,57754],[0,2112],[1017,1273],[1608,550]],[[35794,62152],[-263,-2083],[919,-1273]],[[47769,65595],[1082,-1504],[1969,-753]],[[50820,63338],[-656,-1591]],[[35859,62904],[2428,-144],[951,289],[591,897],[1706,1100],[1345,-492]],[[61285,57754],[-360,1997],[-1017,1909],[1345,2170],[0,2142],[328,1938],[-492,3096],[-427,810],[-328,1910],[131,1563],[820,1012],[197,2691],[624,666]],[[50820,63338],[-263,1476],[1837,1100],[985,-87],[295,2662],[-1050,2401],[459,1216],[-164,1215],[591,1534],[-558,1562]]],"bbox":[-5.521950094087259,9.392052544822079,2.389168066560444,15.07968597852252],"transform":{"scale":[0.0000791119727262043,0.000056876903106035466],"translate":[-5.521950094087259,9.392052544822079]}}