{"type":"Topology","objects":{"a1":{"type":"GeometryCollection","geometries":[{"type":"MultiPolygon","arcs":[[[0,1,2]],[[3]],[[4]],[[5]]],"id":"BGD-2476","properties":{"adm1_code":"BGD-2476","iso_3166_2":"BD-B","name":"Chittagong","admin":"Bangladesh","adm0_a3":"BGD","type_en":"Division"}},{"type":"Polygon","arcs":[[-2,6,7]],"id":"BGD-2488","properties":{"adm1_code":"BGD-2488","iso_3166_2":"BD-G","name":"Sylhet","admin":"Bangladesh","adm0_a3":"BGD","type_en":"Division"}},{"type":"Polygon","arcs":[[-1,8,9,10,11,12,13,-7]],"id":"BGD-1806","properties":{"adm1_code":"BGD-1806","iso_3166_2":"BD-C","name":"Dhaka","admin":"Bangladesh","adm0_a3":"BGD","type_en":"Division"}},{"type":"Polygon","arcs":[[14,-13,15]],"id":"BGD-5492","properties":{"adm1_code":"BGD-5492","iso_3166_2":"BD-F","name":"Rangpur","admin":"Bangladesh","adm0_a3":"BGD","type_en":"Division"}},{"type":"Polygon","arcs":[[16,-16,-12,17]],"id":"BGD-3255","properties":{"adm1_code":"BGD-3255","iso_3166_2":"BD-E","name":"Rajshahi","admin":"Bangladesh","adm0_a3":"BGD","type_en":"Division"}},{"type":"Polygon","arcs":[[-18,-11,18,19]],"id":"BGD-2432","properties":{"adm1_code":"BGD-2432","iso_3166_2":"BD-D","name":"Khulna","admin":"Bangladesh","adm0_a3":"BGD","type_en":"Division"}},{"type":"MultiPolygon","arcs":[[[-10,20,-19]],[[21]],[[22]],[[23]]],"id":"BGD-2475","properties":{"adm1_code":"BGD-2475","iso_3166_2":"BD-A","name":"Barisal","admin":"Bangladesh","adm0_a3":"BGD","type_en":"Division"}}]}},"arcs":[[[58010,45986],[1405,1117],[-900,1735],[675,2352],[4272,1382],[618,1941],[1181,1088],[-619,852],[1237,1382],[1911,677]],[[67790,58512],[2923,-912],[-281,-764],[731,-3029]],[[71163,53807],[-2024,-1499],[281,-1147],[-730,-1588],[-1125,-294],[-56,-2264],[1911,-2587],[1068,-2941],[506,-2881],[1181,676],[337,1470],[2024,-1382],[1573,-3616],[3429,88],[2192,1823],[-1124,3264],[1012,1705],[3204,2294],[-562,3440],[1967,-735],[1181,205],[1967,1294],[675,-1176],[1686,676],[-112,-1676],[955,-2911],[1293,-2822],[-618,-2088],[1068,-4851],[1068,-530],[337,-1911],[1124,-1205],[506,-3587],[1293,-5822],[-899,-735],[843,-2705],[393,-1617],[-393,-2735],[337,-4263],[1068,-3323],[-1743,-882],[-786,1823],[-2193,29],[-2136,1765],[-1911,-794],[-1124,-1794],[-169,-2528],[1911,-2029],[-168,-1441],[-1349,265],[-3036,2822],[-168,2588],[-1855,2234],[955,1441],[394,1705],[-1574,2059],[337,1146],[-1236,30],[168,1441],[-1293,4410],[-1855,2705],[-562,2705],[-1517,2205],[-2755,2970],[-1967,1499],[-4609,-1470],[449,-1117],[-1349,-1735],[-1630,-294],[-2361,941],[-1349,-59],[-1742,1912],[-844,29],[-1349,1676],[-1236,2911],[-1968,2587],[900,3235],[-1237,1352],[-225,1911],[2474,853],[-281,1029]],[[84710,13908],[1068,-2676],[-506,-1852],[-1911,735],[-506,2528],[337,1000],[1518,265]],[[67678,24581],[843,-2323],[-956,-1441],[-1742,-999],[-1237,470],[1181,1352],[337,3499],[1574,-558]],[[74592,28668],[1911,-1911],[-1012,-1471],[-1349,1000],[-506,1294],[956,1088]],[[67790,58512],[2080,2205],[-1293,1999],[731,3264],[-1630,441],[-506,3234],[-3204,0],[-1405,1764],[730,1618],[-224,1558]],[[63069,74595],[6520,823],[5115,-1235],[2024,471],[2080,-588],[1461,735],[5902,264],[1968,-323],[2754,-1323],[1799,-294],[1798,-1235],[2136,-1382],[-168,-1147],[-2080,-470],[-2811,1176],[-730,-500],[337,-1735],[-1799,-4204],[-843,-500],[-56,-1941],[-1630,-676],[-1799,118],[-1180,-971],[224,-1058],[-899,-1970],[-1180,1147],[-3092,-1059],[-1518,-911],[-2529,-294],[-2530,205],[-1180,-1911]],[[58010,45986],[-2136,-1088],[-1068,-1676],[-6409,794],[2811,-1294],[899,-823],[3036,-559],[787,-852],[-113,-2323],[-3260,-1206]],[[52557,36959],[-1967,265],[-1855,-1617],[-1743,1735],[-1068,-147],[-3485,-3294],[-1180,-147]],[[41259,33754],[-2136,1235],[-2867,2823],[-337,2323],[-956,1088],[-843,3293],[-1068,588],[-2754,3028],[-1518,-58],[-956,1029],[1125,2205],[-338,1205]],[[28611,52513],[4610,-1881],[3035,705],[112,2235],[2136,1352],[675,1970],[-1630,1941],[-169,1705],[337,3441],[563,852],[0,2294],[-1912,1235],[-1068,2881],[619,3411]],[[35919,74654],[1293,1588],[-113,1411],[1349,1352]],[[38448,79005],[225,-1764],[2136,-147],[4834,-1529],[5059,-1088],[2979,324],[5115,29],[1799,-500],[2474,265]],[[20629,77212],[-2866,529],[-1518,3029],[-2754,-618],[-2530,588],[-2305,1647],[-56,1088],[-4159,2705],[-2193,-530],[-1124,2382],[1911,4146],[3148,1176],[1293,1911],[2754,1147],[-730,1352],[-2361,559],[0,1676],[6576,-2911],[3261,-3264],[2079,706],[956,-706],[1911,588],[-3091,1853],[1236,1205],[2024,-999],[1911,-4411],[4778,-2440],[2810,29],[2642,1000],[-899,1558],[2080,794],[1068,-588],[955,-1999],[1687,-2382],[-1012,-1676],[1124,-3205],[-562,-3499],[-225,-647]],[[35919,74654],[-3766,117],[-3373,735],[-1462,-617],[-1292,2088],[-5397,235]],[[15346,57336],[112,1734],[-5677,500],[-1574,970],[-5678,2235],[-1180,1764],[-1349,941],[2529,3528],[-562,1294],[1912,529],[899,-1176],[1742,-88],[2193,3146],[112,2176],[3654,353],[3991,-559],[2473,147],[1686,2382]],[[28611,52513],[-3429,147],[-1517,471],[-2979,3587],[-1012,294],[-1911,-882],[-2417,1206]],[[41259,33754],[0,-2264],[-731,-499],[1237,-2088],[-113,-1470],[731,-823]],[[42383,26610],[-3035,-3617],[730,-2852],[-787,-1059],[1068,-2675],[-1574,-1059],[-3541,-235],[394,-1352],[-2867,29],[-506,2793],[-1068,-911],[56,-1382],[-1517,-1147],[-675,1999],[-1743,-558],[-224,-1764],[-1125,176],[-674,1470],[-1855,441],[-562,1470],[281,1412],[-675,2734],[0,1470],[-1574,3117],[281,735],[-1124,2382],[-899,3205],[787,1911],[-2192,2087],[168,1970],[2249,1941],[-2474,911],[-2810,118],[-562,941],[1798,3117],[-1068,0],[-3878,3263],[281,2059],[899,1793],[1293,59],[1293,1000],[281,1852],[-1124,970],[56,1265],[1181,647]],[[52557,36959],[1237,-1940],[-2192,-3176],[1854,-764],[450,-1941],[2024,-2617],[168,-2705],[-1180,-1970],[-1237,-500],[-899,-1499],[-1574,176],[-1180,-1146],[-1293,-3235],[-1911,-999],[-3485,1088],[618,2264],[-2586,176],[-1124,5175],[2192,2823],[-56,441]],[[59921,27051],[1405,-1088],[-450,-1706],[56,-2881],[-1349,-1823],[-2529,-1470],[-1180,911],[618,2470],[899,1500],[337,1970],[-899,3057],[-1911,971],[450,2764],[1517,529],[450,-1147],[2586,-4057]],[[56773,33372],[-2417,-1441],[-1686,-29],[224,1529],[2755,529],[1124,-588]],[[57279,35225],[-3092,0],[1349,1470],[1743,-1470]]],"bbox":[88.02286933763997,20.98126395689343,92.64028377589204,26.57838239092561],"transform":{"scale":[0.00004617460612858198,0.0000559717440577624],"translate":[88.02286933763997,20.98126395689343]}}