{"type":"Topology","objects":{"a1":{"type":"GeometryCollection","geometries":[{"type":"Polygon","arcs":[[0,1,2,3]],"id":"BLR-2339","properties":{"adm1_code":"BLR-2339","iso_3166_2":"BY-HO","name":"Gomel","admin":"Belarus","adm0_a3":"BLR","type_en":"Region"}},{"type":"Polygon","arcs":[[-1,4,5,6]],"id":"BLR-2338","properties":{"adm1_code":"BLR-2338","iso_3166_2":"BY-BR","name":"Brest","admin":"Belarus","adm0_a3":"BLR","type_en":"Region"}},{"type":"Polygon","arcs":[[7,8,9,10]],"id":"BLR-2341","properties":{"adm1_code":"BLR-2341","iso_3166_2":"BY-VI","name":"Vitebsk","admin":"Belarus","adm0_a3":"BLR","type_en":"Region"}},{"type":"Polygon","arcs":[[-6,11,-10,12]],"id":"BLR-2344","properties":{"adm1_code":"BLR-2344","iso_3166_2":"BY-HR","name":"Grodno","admin":"Belarus","adm0_a3":"BLR","type_en":"Region"}},{"type":"Polygon","arcs":[[-3,13,-8,14]],"id":"BLR-2340","properties":{"adm1_code":"BLR-2340","iso_3166_2":"BY-MA","name":"Mogilev","admin":"Belarus","adm0_a3":"BLR","type_en":"Region"}},{"type":"Polygon","arcs":[[-2,-7,-13,-9,-14],[15]],"id":"BLR-2345","properties":{"adm1_code":"BLR-2345","iso_3166_2":"BY-MI","name":"Minsk","admin":"Belarus","adm0_a3":"BLR","type_en":"Municipality"}},{"type":"Polygon","arcs":[[-16]],"id":"BLR-4825","properties":{"adm1_code":"BLR-4825","iso_3166_2":"BY-HM","name":"City of Minsk","admin":"Belarus","adm0_a3":"BLR","type_en":"Region"}}]}},"arcs":[[[45457,7759],[435,2587],[-544,1948],[245,1982],[680,1713],[-680,941],[-28,3359],[-1333,907],[-1305,1612]],[[42927,22808],[761,2385],[1823,1243],[1959,-2049],[2339,67],[626,1579],[1523,-1075],[2176,302],[653,705],[27,2385],[653,975]],[[55467,29325],[1170,0],[2612,839],[-109,1042],[1469,537],[109,1377],[1197,202],[897,1377],[2340,-437],[1577,706],[1551,-269],[-626,3258],[1361,1411],[-109,2587],[707,1108],[1714,-201],[1714,-1176],[299,-941],[2149,471],[1142,1142],[1578,-807],[2449,34],[1251,470],[1142,-2082],[82,-1478],[1115,-471],[1551,303]],[[85799,38327],[-1224,-2184],[1496,-2552],[1224,-807],[680,-2519],[-952,-873],[1034,-2150],[299,-4199],[-408,-1243],[1224,-1108],[843,-3191],[-3046,369],[-1796,-437],[-544,-1074],[-1224,671],[-1823,-67],[-217,-1108],[-1442,-1646],[-1469,-2452],[-952,-2419],[-381,-2989],[517,-236],[27,-2351],[544,-1881],[-870,-1881],[-2095,1276],[-272,1714],[-1904,1948],[-2748,-403],[-598,-706],[-2204,1142],[-1605,-2082],[-1169,-135],[-599,-100],[-789,1914],[-653,2788],[-1224,471],[-925,-1277],[-1605,-638],[-1006,-1848],[-789,437],[-272,1848],[-1197,369],[-1496,-940],[-1442,2586],[-1442,-1948],[-2720,907],[-272,-1848],[-1251,-436],[408,1612],[-2013,1108]],[[45457,7759],[-1306,-671],[-1415,100],[-789,3091],[-1659,369],[-1741,-302],[-1986,1041],[-2312,101],[-381,907],[-2448,134],[-980,907],[-3291,571],[-2312,-201],[-2041,33],[-1768,605],[-1877,-806],[-2965,-571],[-3455,-67],[-1006,-1478],[-544,-1814],[-2748,-2721],[-2421,1209],[-1632,-806],[136,-1780],[-708,1814],[218,3023],[1224,4870],[-408,1848],[-2557,2351],[-1904,672],[-381,1075],[381,1276],[1877,3326],[1850,1545],[1768,604],[1795,1714],[136,1511]],[[7807,31239],[4897,34],[1714,-571],[190,2418],[1224,1915],[1197,-538],[1333,572],[1306,-2453],[2149,504],[707,1478],[844,67],[1251,1714],[762,2082],[-300,2385],[1578,3090],[5794,-907],[1089,269]],[[33542,43298],[217,-2015],[-1088,-806],[925,-2217],[843,-101],[-816,-2956],[599,-1612],[1414,-34],[1687,-1176],[653,-1142],[2312,-571],[354,-1310],[54,-3292],[871,-974],[-164,-1142],[1524,-1142]],[[83867,65535],[-2638,-403],[-599,-638],[-1686,403],[-1252,-907],[-843,-1814],[-870,1041],[-3346,370],[-762,-1713],[-2176,840],[-2394,0],[-1932,-1714]],[[65369,61000],[-27,3494],[299,2956],[-2312,1713],[-2149,-437],[-1360,269],[-626,-941],[-1686,101],[-1034,1613],[-952,-471],[-517,-1713],[-816,235],[-1252,1713],[-3182,-705],[-1769,470],[-1387,2620],[-2176,2150],[-1034,101],[-680,1478],[-1523,1075],[-490,-1042],[-1714,504],[-1741,-638],[-3781,739],[-218,-772]],[[33242,75512],[-1877,1041]],[[31365,76553],[680,2418],[789,672],[2829,-537],[572,1511],[1115,1008],[299,1176],[-3400,772],[925,3662],[653,1041],[0,2015],[2394,807],[1632,2452],[1387,201],[1795,-907],[3238,67],[571,2620],[1197,1075],[1578,2520],[1469,839],[1033,34],[1469,-1948],[1061,840],[2421,-101],[898,-2520],[3373,1310],[3645,-1410],[164,-1344],[-517,-2083],[1224,-2015],[2339,1680],[1279,33],[680,1209],[1224,303],[1252,-504],[1169,705],[2639,-1276],[1034,-1310],[299,-1310],[1523,-1445],[1714,-336],[-190,-2250],[326,-1209],[-1306,-2520],[1741,-2485],[490,-2452],[-734,-1411],[-1279,-941],[-462,-2889],[3509,-2418],[653,-941],[-1088,-2653],[1196,-773]],[[7807,31239],[-136,4871],[-489,1545],[326,1310],[-1142,2419],[-2013,6953],[-1116,6684],[1660,-806],[2883,1008],[1333,-370],[1632,437],[572,-1176],[1278,-134],[1578,1444],[3074,1243],[-408,1512],[707,1041],[2312,-235],[1279,2251],[1850,100],[1061,1008],[870,-1344],[-626,-1511],[1442,-605],[1143,370],[489,1746],[-952,1814],[-1741,538],[871,1545],[326,2015],[1007,974],[-327,2184],[164,2116],[598,1848],[1306,1578],[2040,202],[707,739]],[[33242,75512],[-108,-1613],[2149,-2351],[544,-2284],[925,-1176],[-1905,-5408],[-1006,-1478],[-1986,-235],[-1088,-638],[707,-1411],[245,-1948],[1360,470],[898,-2150],[-2095,-1747],[871,-1276],[-517,-1411],[1088,-1612],[1115,-504],[898,-3023],[109,-1680],[-1904,-739]],[[55467,29325],[-1849,1746],[1224,1478],[1305,3628],[-272,2822],[-897,-303],[-3183,2016],[3346,1075],[-735,1545],[354,2082],[1714,1210],[680,1780],[3428,-705],[924,100],[817,1781],[924,-370],[2340,1612],[-843,3225],[-28,2519],[735,907],[-82,3527]],[[83867,65535],[1116,-2183],[408,-2385],[1904,-1747],[2530,-1176],[1034,-1914],[-952,-3527],[1251,-874],[2203,672],[2149,-1007],[2014,-2016],[-871,-537],[571,-1814],[2068,-1210],[707,-1142],[0,-1981],[-1442,-202],[-1061,-1008],[-761,-1679],[-2095,-1881],[-1306,-403],[-1822,235],[-1333,705],[-436,1344],[-1305,336],[-2068,-202],[-571,-1612]],[[48041,52267],[734,638],[-517,1982],[-979,1176],[-1931,571],[-1007,-437],[-245,-3258],[1388,-571],[2557,-101]]],"bbox":[23.176617327921235,51.24289693689457,32.71771652691763,56.142227009847744],"transform":{"scale":[0.00009541194610942501,0.00004899379066743844],"translate":[23.176617327921235,51.24289693689457]}}