{"type":"Topology","objects":{"a1":{"type":"GeometryCollection","geometries":[{"type":"Polygon","arcs":[[0,1,2,3,4]],"id":"BOL-1936","properties":{"adm1_code":"BOL-1936","iso_3166_2":"BO-L","name":"La Paz","admin":"Bolivia","adm0_a3":"BOL","type_en":"Department"}},{"type":"Polygon","arcs":[[-5,5,6,7]],"id":"BOL-1937","properties":{"adm1_code":"BOL-1937","iso_3166_2":"BO-O","name":"Oruro","admin":"Bolivia","adm0_a3":"BOL","type_en":"Department"}},{"type":"Polygon","arcs":[[-7,8,9,10,11]],"id":"BOL-1939","properties":{"adm1_code":"BOL-1939","iso_3166_2":"BO-P","name":"Potosí","admin":"Bolivia","adm0_a3":"BOL","type_en":"Department"}},{"type":"Polygon","arcs":[[-11,12,13]],"id":"BOL-1941","properties":{"adm1_code":"BOL-1941","iso_3166_2":"BO-T","name":"Tarija","admin":"Bolivia","adm0_a3":"BOL","type_en":"Department"}},{"type":"Polygon","arcs":[[14,15,16,17]],"id":"BOL-1940","properties":{"adm1_code":"BOL-1940","iso_3166_2":"BO-S","name":"Santa Cruz","admin":"Bolivia","adm0_a3":"BOL","type_en":"Department"}},{"type":"Polygon","arcs":[[-10,18,-15,19,-13]],"id":"BOL-1292","properties":{"adm1_code":"BOL-1292","iso_3166_2":"BO-H","name":"Chuquisaca","admin":"Bolivia","adm0_a3":"BOL","type_en":"Department"}},{"type":"Polygon","arcs":[[-2,20,21]],"id":"BOL-1938","properties":{"adm1_code":"BOL-1938","iso_3166_2":"BO-N","name":"Pando","admin":"Bolivia","adm0_a3":"BOL","type_en":"Department"}},{"type":"Polygon","arcs":[[-3,-22,22,-17,23]],"id":"BOL-1293","properties":{"adm1_code":"BOL-1293","iso_3166_2":"BO-B","name":"El Beni","admin":"Bolivia","adm0_a3":"BOL","type_en":"Department"}},{"type":"Polygon","arcs":[[-4,-24,-16,-19,-9,-6]],"id":"BOL-1291","properties":{"adm1_code":"BOL-1291","iso_3166_2":"BO-C","name":"Cochabamba","admin":"Bolivia","adm0_a3":"BOL","type_en":"Department"}}]}},"arcs":[[[4800,36738],[-1800,474],[-279,1295],[-193,349],[-964,810],[-278,1096],[-108,1046],[-621,524],[-557,87],[343,785],[943,548],[664,199],[171,536],[1522,1495],[257,560],[1285,561],[-21,1346],[300,523],[1221,448],[86,461],[-1136,698],[-1350,-100],[-600,536],[-1692,3762],[21,449],[1050,1420],[21,436],[1179,897],[-1157,996],[-836,1034],[236,1333],[771,287],[172,1183],[621,125],[64,573],[1436,934],[-171,1009],[1049,262],[129,411],[-407,997],[-536,398],[-278,1657],[-536,436],[793,1097],[171,2030],[-128,897],[43,1009],[-65,1234],[1050,959],[664,162],[258,411],[-408,349],[558,411],[299,548]],[[8056,78721],[429,-12],[364,560],[686,-50],[428,299],[558,1097],[1199,672],[108,798],[385,324],[1414,274],[493,461],[8485,-3588]],[[22605,79556],[0,-1084],[-321,-424],[150,-672],[-472,-1745],[-385,-872],[-429,-37],[-471,-648],[-1457,-1495],[-493,-747],[214,-1420],[-835,-910],[-86,-959],[-450,-1221],[236,-2093],[-472,-274],[43,-436],[600,-1084],[-407,-660],[836,-1046],[150,-1745],[450,-336],[578,-25],[943,-1133],[514,-947],[-21,-661],[771,-747],[1993,-1682]],[[23784,54453],[-1243,-1109],[-86,-1744],[1200,-1569],[-128,-1520],[407,-798],[43,-1283],[-322,-274],[-1093,-311],[-385,-598],[-300,-997],[964,-971],[107,-885],[364,-1333],[-1221,-635]],[[22091,40426],[-793,922],[-535,224],[-1265,-337],[-964,-510],[-2785,-1720],[193,-560],[-622,-349],[-1628,1071],[-1350,511],[-2293,-12],[-793,-274],[-1264,-1196],[-1414,-910],[-1778,-548]],[[22091,40426],[1350,-910],[1200,-1457],[450,-960]],[[25091,37099],[-900,-473],[-107,-822],[514,-573],[643,25],[514,-324],[-1114,-661],[-86,-984],[514,-872],[1029,-672],[1693,-424],[257,-249],[707,-1570],[1007,-1109],[-300,-510],[-2764,-175],[-536,-236],[-985,-785],[-943,-561],[-6793,-2579],[-1114,-336],[-1200,137],[-3771,1096],[-2378,748]],[[8978,25190],[557,697],[514,287],[-386,436],[-1392,785],[-300,436],[-964,772],[-858,449],[-578,822],[300,673],[-471,847],[-258,1096],[65,922],[-365,598],[-192,1246],[-450,710],[600,772]],[[25091,37099],[750,113],[1650,-50],[1307,884],[1307,25],[728,-922],[707,125],[1672,-1221],[385,-561],[707,-473],[600,-785],[772,-399]],[[35676,33835],[-1329,262],[-1564,174],[536,-710],[171,-1632],[-171,-585],[1414,523],[257,-399],[-621,-523],[257,-760],[-579,-859],[279,-573],[1114,-1209],[643,-436],[1157,-461],[685,-37],[879,199],[793,-785],[64,-847],[943,-1258],[-1007,-1034],[-1543,-760],[-1628,-237],[-536,-361],[21,-461],[-450,-710],[22,-498],[578,-2006],[-1050,-2292],[-42,-959],[-365,-1047],[-43,-1246],[172,-523],[1157,-1084],[686,-436]],[[36576,10265],[-772,-2018],[964,-1084],[172,-1158]],[[36940,6005],[-2207,-25],[-1007,124],[-1371,-211],[-493,211],[-1050,1072],[-943,199],[-386,648],[-1200,299],[-407,-1246],[-85,-698],[-643,-585],[-2979,-748],[-492,-1582],[-1950,-685],[-43,-984],[-621,-411],[-665,-847],[-2914,-536],[-1864,25],[-857,423],[-128,885],[278,1134],[-707,1607],[86,772],[-322,611],[-150,859],[-878,785],[-86,1246],[-750,1644],[43,1844],[-129,336],[-1714,2454],[-942,250],[-343,411],[0,984],[750,760],[-236,311],[-1457,636],[-686,959],[750,473],[-428,748],[43,598],[-408,461],[1543,261],[386,1022],[-107,473],[-1200,847],[64,374],[943,997]],[[36576,10265],[385,2915],[107,1383],[900,38],[1950,-1022],[386,137],[536,1096],[557,-49],[857,-1022],[835,-50],[857,-411],[965,-25],[364,1009],[-43,636],[921,74],[750,-598],[943,-49],[13178,-13]],[[61024,14314],[-22,-498],[-1135,-3289],[-1950,-5544],[-1179,910],[-107,834],[-6899,50],[-815,-411],[-600,361],[-1114,-25],[-407,-573],[-450,-1108],[-300,-225],[-600,-1358],[-750,-772],[-364,-1146],[-621,-287],[-686,648],[214,773],[-471,386],[-729,1121],[258,386],[-386,598],[-814,299],[-2764,573],[-1393,-12]],[[61538,18325],[-8871,-24],[-686,884],[-1071,-760],[-1264,62],[-107,324],[-364,3052],[-150,312],[-343,5232],[214,1719],[-986,137],[-642,-1083],[-643,62],[-386,1221],[-1114,535],[-172,486],[-578,387],[-429,1183]],[[43946,32054],[408,548],[-172,723],[-943,610],[-150,673],[-900,1320],[-300,237],[-942,1757],[1157,1034],[1307,1706],[150,536],[407,224],[943,38],[-65,735],[-1178,1084],[-1179,622],[-1071,735],[-900,922],[-407,1184],[429,747],[-86,698],[343,274],[321,772],[22,2915],[-408,611],[600,548]],[[41332,53307],[10864,-511],[-729,561],[-128,598],[-429,548],[-1050,486],[-364,361],[-257,685],[-472,249],[-878,1196],[-707,1620],[128,436],[-42,1470],[-193,723],[385,161],[2850,736],[4607,2379],[7307,3750],[4413,2292]],[[66637,71047],[1115,-287],[900,387],[921,-237],[728,37],[879,337],[171,-449],[1029,-137],[1414,-834],[1328,-810],[815,-349],[235,-772],[407,-436],[-171,-598],[-536,-474],[86,-1221],[536,-473],[450,-1134],[-65,-635],[493,-424],[150,-3513],[-2550,-37],[450,-337],[2207,-2367],[193,-348],[364,-3775],[108,-1669],[428,-387],[8421,-274],[5314,-162],[600,387],[428,-75],[43,-735],[-171,-935],[-815,-822],[-214,-498],[236,-1184],[-107,-348],[493,-1695],[192,-1183],[1243,-474],[1821,-1270],[1286,-87],[536,-349],[107,-1059],[428,-312],[-42,-834],[771,-1171],[707,-1383],[-129,-548],[-1778,-4959],[450,-236],[107,-773],[-600,-112],[-2785,-5070],[64,-224],[2121,-1682],[-814,-349],[-771,-610],[-879,-436],[107,1482],[-235,1121],[-3407,1832],[-4157,2217],[-7564,-87],[-6835,-1283],[-5571,-1059],[-1885,-249],[-193,-137],[-1350,-3077],[-707,-1022],[-1650,-2056]],[[35676,33835],[771,-822],[43,-535],[1243,-374],[1071,909],[1028,337],[1136,-312],[986,-1009],[835,0],[557,386],[600,-361]],[[61538,18325],[-557,-822],[43,-3189]],[[8056,78721],[-3664,5805],[-3663,5856],[1499,137],[836,-162],[1843,-112],[1542,-349],[643,162],[150,-985],[236,-124],[1178,224],[665,386],[878,137],[1114,486],[1629,2131],[450,224],[1478,62],[900,-411],[579,785],[814,822],[814,274],[1243,1059],[1114,-12],[1136,535],[1328,1234],[2100,1345],[1628,199],[2165,673],[835,125],[493,-187],[514,236],[750,-24],[707,361],[664,-175],[1029,-610],[1093,1171],[685,-212],[536,-872],[-236,-772],[65,-897],[300,-1296],[-322,-735],[-557,-598]],[[35247,94617],[-578,-99],[-493,-611],[-1222,-648],[-749,-62],[85,-660],[-857,-424],[-321,-673],[-964,175],[-536,-1221],[-514,-461],[-65,-523],[-578,-125],[43,-585],[-450,-773],[107,-411],[-514,-411],[-836,-112],[-664,-324],[-1307,25],[-279,-224],[-257,-860],[43,-548],[-664,-237],[-1007,-1171],[-429,-62],[600,-884],[171,-748],[-407,-2404]],[[35247,94617],[-450,-573],[107,-1196],[450,-535],[-193,-773],[708,-498],[149,-947],[-321,-324],[0,-560],[-450,-349],[300,-499],[-128,-585],[385,-237],[-214,-473],[514,-872],[557,-87],[236,-574],[0,-1133],[471,199],[600,-286],[557,-1832],[1693,-274],[643,-872],[1007,-523],[1029,-336],[-172,-860],[771,-623],[1500,-124],[579,-362],[814,87],[1029,-261],[471,523],[514,150],[1179,-150],[964,-561],[386,-37],[835,-835],[1222,-286],[899,511],[515,-137],[214,-710],[600,-810],[450,-63],[943,-959],[1007,175],[364,-486],[1221,-274],[922,-561],[1328,137],[879,-212],[21,-623],[900,-971],[1114,-785],[172,-511],[921,-50],[1178,237]],[[41332,53307],[-4178,-436],[-236,-149],[-664,-1097],[-471,-1569],[-236,-337],[-793,-336],[-2892,-735],[-1543,162],[-1050,361],[-986,598],[-1842,1844],[-343,772],[-2314,2068]]],"bbox":[-69.66481856655683,-22.892179245948114,-57.55156776086689,-9.68192647618146],"transform":{"scale":[0.00012113371939409338,0.0001321038487361539],"translate":[-69.66481856655683,-22.892179245948114]}}