{"type":"Topology","objects":{"a1":{"type":"GeometryCollection","geometries":[{"type":"Polygon","arcs":[[0,1]],"id":"BRA-612","properties":{"adm1_code":"BRA-612","iso_3166_2":"BR-RS","name":"Rio Grande do Sul","admin":"Brazil","adm0_a3":"BRA","type_en":"State"}},{"type":"Polygon","arcs":[[2,3,4]],"id":"BRA-670","properties":{"adm1_code":"BRA-670","iso_3166_2":"BR-RR","name":"Roraima","admin":"Brazil","adm0_a3":"BRA","type_en":"State"}},{"type":"MultiPolygon","arcs":[[[5,6,7,8,9,10,-3,11]],[[12]],[[13]],[[14]],[[15]],[[16]],[[17]],[[18]],[[19]],[[20]],[[21]],[[22]],[[23]],[[24]],[[25]]],"id":"BRA-594","properties":{"adm1_code":"BRA-594","iso_3166_2":"BR-PA","name":"Pará","admin":"Brazil","adm0_a3":"BRA","type_en":"State"}},{"type":"Polygon","arcs":[[26,27,28]],"id":"BRA-576","properties":{"adm1_code":"BRA-576","iso_3166_2":"BR-AC","name":"Acre","admin":"Brazil","adm0_a3":"BRA","type_en":"State"}},{"type":"MultiPolygon","arcs":[[[-6,29]],[[30]],[[31]],[[32]]],"id":"BRA-681","properties":{"adm1_code":"BRA-681","iso_3166_2":"BR-AP","name":"Amapá","admin":"Brazil","adm0_a3":"BRA","type_en":"State"}},{"type":"Polygon","arcs":[[33,34,35,36,37,38]],"id":"BRA-600","properties":{"adm1_code":"BRA-600","iso_3166_2":"BR-MS","name":"Mato Grosso do Sul","admin":"Brazil","adm0_a3":"BRA","type_en":"State"}},{"type":"Polygon","arcs":[[-38,39,40,41,42]],"id":"BRA-613","properties":{"adm1_code":"BRA-613","iso_3166_2":"BR-PR","name":"Paraná","admin":"Brazil","adm0_a3":"BRA","type_en":"State"}},{"type":"MultiPolygon","arcs":[[[-1,43,-42,44]],[[45]],[[46]]],"id":"BRA-614","properties":{"adm1_code":"BRA-614","iso_3166_2":"BR-SC","name":"Santa Catarina","admin":"Brazil","adm0_a3":"BRA","type_en":"State"}},{"type":"Polygon","arcs":[[-4,-11,47,48,-27,49]],"id":"BRA-592","properties":{"adm1_code":"BRA-592","iso_3166_2":"BR-AM","name":"Amazonas","admin":"Brazil","adm0_a3":"BRA","type_en":"State"}},{"type":"Polygon","arcs":[[-28,-49,50,51]],"id":"BRA-595","properties":{"adm1_code":"BRA-595","iso_3166_2":"BR-RO","name":"Rondônia","admin":"Brazil","adm0_a3":"BRA","type_en":"State"}},{"type":"Polygon","arcs":[[-10,52,53,-34,54,-51,-48]],"id":"BRA-602","properties":{"adm1_code":"BRA-602","iso_3166_2":"BR-MT","name":"Mato Grosso","admin":"Brazil","adm0_a3":"BRA","type_en":"State"}},{"type":"MultiPolygon","arcs":[[[-8,55,56,57]],[[58]],[[59]],[[60]]],"id":"BRA-593","properties":{"adm1_code":"BRA-593","iso_3166_2":"BR-MA","name":"Maranhão","admin":"Brazil","adm0_a3":"BRA","type_en":"State"}},{"type":"Polygon","arcs":[[-57,61,62,63,64,65]],"id":"BRA-622","properties":{"adm1_code":"BRA-622","iso_3166_2":"BR-PI","name":"Piauí","admin":"Brazil","adm0_a3":"BRA","type_en":"State"}},{"type":"Polygon","arcs":[[-63,66,67,68,69]],"id":"BRA-621","properties":{"adm1_code":"BRA-621","iso_3166_2":"BR-CE","name":"Ceará","admin":"Brazil","adm0_a3":"BRA","type_en":"State"}},{"type":"Polygon","arcs":[[-68,70,71]],"id":"BRA-628","properties":{"adm1_code":"BRA-628","iso_3166_2":"BR-RN","name":"Rio Grande do Norte","admin":"Brazil","adm0_a3":"BRA","type_en":"State"}},{"type":"Polygon","arcs":[[-69,-72,72,73]],"id":"BRA-626","properties":{"adm1_code":"BRA-626","iso_3166_2":"BR-PB","name":"Paraíba","admin":"Brazil","adm0_a3":"BRA","type_en":"State"}},{"type":"Polygon","arcs":[[-64,-70,-74,74,75,76]],"id":"BRA-1313","properties":{"adm1_code":"BRA-1313","iso_3166_2":"BR-PE","name":"Pernambuco","admin":"Brazil","adm0_a3":"BRA","type_en":"State"}},{"type":"Polygon","arcs":[[-76,77,78,79]],"id":"BRA-623","properties":{"adm1_code":"BRA-623","iso_3166_2":"BR-AL","name":"Alagoas","admin":"Brazil","adm0_a3":"BRA","type_en":"State"}},{"type":"Polygon","arcs":[[-79,80,81]],"id":"BRA-629","properties":{"adm1_code":"BRA-629","iso_3166_2":"BR-SE","name":"Sergipe","admin":"Brazil","adm0_a3":"BRA","type_en":"State"}},{"type":"MultiPolygon","arcs":[[[-65,-77,-80,-82,82,83,84,85,86]],[[87]],[[88]]],"id":"BRA-624","properties":{"adm1_code":"BRA-624","iso_3166_2":"BR-BA","name":"Bahia","admin":"Brazil","adm0_a3":"BRA","type_en":"State"}},{"type":"Polygon","arcs":[[-84,89,90,91]],"id":"BRA-625","properties":{"adm1_code":"BRA-625","iso_3166_2":"BR-ES","name":"Espírito Santo","admin":"Brazil","adm0_a3":"BRA","type_en":"State"}},{"type":"MultiPolygon","arcs":[[[-91,92,93,94]],[[95]]],"id":"BRA-627","properties":{"adm1_code":"BRA-627","iso_3166_2":"BR-RJ","name":"Rio de Janeiro","admin":"Brazil","adm0_a3":"BRA","type_en":"State"}},{"type":"MultiPolygon","arcs":[[[-37,96,-94,97,-40]],[[98]],[[99]]],"id":"BRA-1311","properties":{"adm1_code":"BRA-1311","iso_3166_2":"BR-SP","name":"São Paulo","admin":"Brazil","adm0_a3":"BRA","type_en":"State"}},{"type":"Polygon","arcs":[[-35,-54,100,-86,101,102],[103]],"id":"BRA-1294","properties":{"adm1_code":"BRA-1294","iso_3166_2":"BR-GO","name":"Goiás","admin":"Brazil","adm0_a3":"BRA","type_en":"State"}},{"type":"Polygon","arcs":[[-104]],"id":"BRA-599","properties":{"adm1_code":"BRA-599","iso_3166_2":"BR-DF","name":"Distrito Federal","admin":"Brazil","adm0_a3":"BRA","type_en":"Federal District"}},{"type":"Polygon","arcs":[[-36,-103,-102,-85,-92,-95,-97]],"id":"BRA-601","properties":{"adm1_code":"BRA-601","iso_3166_2":"BR-MG","name":"Minas Gerais","admin":"Brazil","adm0_a3":"BRA","type_en":"State"}},{"type":"Polygon","arcs":[[-9,-58,-66,-87,-101,-53]],"id":"BRA-596","properties":{"adm1_code":"BRA-596","iso_3166_2":"BR-TO","name":"Tocantins","admin":"Brazil","adm0_a3":"BRA","type_en":"State"}}]}},"arcs":[[[51397,16863],[212,-43],[185,64],[87,-156],[390,227],[252,17],[86,123],[384,-228],[378,25],[172,144],[93,-237],[245,68],[331,-228],[483,34],[742,-152],[206,72],[205,-165],[192,4],[26,-164],[246,-139],[59,-165],[292,-25],[443,55],[139,-178],[146,34],[404,-287],[278,-253],[371,-135],[172,-291],[325,-232],[46,-262],[239,-75],[391,-557],[212,-106],[139,34],[682,-122],[139,-89],[318,13],[391,71],[377,-152],[93,-215],[-245,-76],[-404,-438],[20,-401],[-153,-388],[-159,25],[-245,-266],[-6,-223],[225,105],[530,63],[404,-270]],[[61935,11323],[-252,-308],[-311,-489],[-166,-333],[-119,-127],[-689,-1658],[-1033,-1498],[-802,-852],[-298,-266],[-1053,-759],[-768,-397],[-431,-451],[-59,308],[112,97],[-192,236],[100,127],[324,-152],[219,34],[126,160],[311,59],[391,393],[198,307],[252,-59],[232,140],[166,270],[66,379],[-60,161],[206,173],[278,92],[126,384],[529,266],[133,384],[-27,738],[206,-337],[179,422],[-20,177],[-146,148],[-192,-89],[20,-156],[-331,-89],[-246,34],[-99,-308],[-252,144],[47,248],[-272,55],[-291,203],[0,354],[-126,21],[-73,-316],[60,-300],[232,-329],[-126,-160],[-106,-414],[-232,-88],[53,-565],[-239,-26],[-72,-316],[106,-177],[-464,-140],[-73,-316],[-324,-17],[-199,-118],[-166,13],[-205,-313],[7,-316],[-232,-139],[-13,-220],[-279,-92],[-106,-291],[192,-245],[-172,-76],[-53,-224],[305,-168],[33,-148],[-325,-270],[-311,-553],[-245,-776],[-384,-772],[-503,-565],[-696,-524],[-444,-383],[-284,-165],[-411,236],[66,650],[-59,384],[39,308],[186,215],[311,173],[66,219],[298,228],[186,198],[-192,195],[-590,210],[-371,296],[-218,282],[-60,287],[-258,460],[-146,30],[-265,240],[-344,161],[-172,-76],[-351,219],[-497,409],[-40,207],[-278,287],[-576,93],[-385,240],[-152,186],[-152,-148],[-437,249],[-199,266],[-40,177],[-225,232],[-384,304],[-159,-80],[7,-157],[-206,-12],[-79,-165],[-259,-173],[-370,-12],[-20,17],[13,708],[-166,118],[-404,481],[-351,203],[-768,704],[-397,279],[-318,12],[-378,-63],[-278,-426],[-364,42],[-464,-8],[-172,215],[-20,21],[265,97],[245,270],[219,152],[46,338],[225,181],[318,67],[331,389],[371,320],[99,203],[265,211],[153,392],[516,278],[60,258],[232,181],[39,258],[259,92],[410,405],[27,232],[291,89],[-20,215],[166,80],[404,-105],[46,156],[-278,240],[384,228],[179,-4],[119,169],[166,0],[285,388],[152,13],[186,160],[437,51],[291,265],[33,291],[186,203],[324,-21],[239,219],[351,-8],[20,147],[443,-38],[245,427],[252,-60],[325,334],[311,-21]],[[38309,89857],[259,-2785]],[[38568,87072],[-2299,13],[-649,-17],[-258,-240],[-113,-317],[-119,-130],[-93,-266],[-145,-224],[-20,-181],[-172,-405],[-20,-139],[192,-262],[-53,-215],[-331,-93],[-120,-228],[-317,-76],[-246,26],[-198,417],[-225,194],[-73,144],[-331,67],[-120,93],[-298,-21],[-53,-122],[-543,-232],[-192,-232],[-119,-553],[46,-198],[-39,-308],[-113,-338],[53,-320],[-285,4],[-126,97],[-298,-26],[-152,321],[-232,257],[-450,254],[-93,160],[-192,101],[-265,295],[-219,140],[73,206],[259,-59],[165,194],[-20,308],[-132,135],[0,321],[-86,186],[-186,122],[-86,253],[-146,194],[-26,165],[132,202],[-99,207],[86,350],[7,295],[112,287],[-132,350],[6,144],[226,186],[-159,405],[-14,244],[-258,776],[-20,140],[-245,206],[-172,275],[185,341],[-46,249],[66,291],[-364,186],[-397,4],[-298,241],[-67,160],[-271,-51],[-205,64],[-133,139]],[[27043,92228],[66,418],[-59,54],[-815,43],[-325,-21],[-556,109],[126,599],[-272,620],[-298,452],[14,329],[-73,430],[119,245],[-13,202],[-305,334],[-285,139],[-245,194],[-338,367],[-165,367],[-186,122],[27,245],[232,-50],[132,-144],[146,-228],[576,85],[318,-26],[291,-139],[159,-451],[173,-80],[311,177],[324,-51],[318,13],[285,-207],[106,34],[113,257],[357,-122],[232,-291],[159,-114],[345,-418],[271,-97],[239,93],[119,160],[0,317],[-100,295],[60,312],[245,59],[278,-12],[60,223],[192,127],[199,-5],[490,-202],[205,25],[199,144],[265,-34],[251,76],[285,198],[206,-29],[251,50],[60,287],[152,114],[318,13],[93,257],[371,-80],[357,67],[159,140],[120,325],[351,139],[218,164],[172,211],[34,245],[-166,447],[-192,80],[165,30],[557,-101],[93,84],[218,-34],[305,190],[212,-63],[106,-224],[271,-181],[-132,-764],[6,-160],[-139,-300],[-192,-109],[272,-190],[291,33],[73,-75],[298,-68],[278,-198],[-132,-215],[0,-216],[238,-177],[-46,-139],[344,-380],[-132,-84],[-33,-211],[-166,-122],[-53,-173],[-192,-161],[-212,-76],[-66,-143],[106,-177],[-13,-258],[-226,-485],[0,-190],[-112,-139],[-86,-536],[-14,-417],[239,-604],[7,-253],[410,-244],[-59,-882],[39,-177],[265,-59],[-92,-161],[106,-114],[172,17],[649,-654],[199,-244],[688,-169]],[[49019,92793],[100,-109],[46,-380],[-179,-355],[66,-405],[20,-421],[166,-106],[285,47],[205,-89],[331,38],[424,-274],[73,8],[225,-304],[199,-42],[318,-312],[563,46],[26,-147],[245,8],[47,-316],[251,46],[73,-198],[-146,-72],[126,-548],[391,-410],[338,-80],[46,-76],[-66,-468],[26,-388],[226,-359],[86,-282],[-20,-207],[106,-186],[146,-451],[225,34],[324,-321],[186,-236],[-14,-409],[73,-140],[199,-92],[66,-600],[259,30],[106,-515],[298,-190],[377,-84],[470,46]],[[56331,83524],[-53,-50],[20,-380],[-185,-177],[-179,-25],[-331,156],[-530,-199],[-185,-160],[-212,-88],[-93,-140],[437,17],[364,127],[206,-431],[192,169],[304,30],[232,93],[623,434],[192,38],[404,190],[93,160],[337,80],[272,296],[324,168],[232,334],[265,-13],[40,-299],[-199,-233],[212,-282],[0,-528],[133,-265],[198,-182],[86,-325],[232,-392],[252,-93],[93,-346],[145,228],[232,203],[192,-9],[245,123],[338,59],[431,-190],[337,-21],[491,371],[145,-89],[-73,-97],[7,-50],[13,-34],[179,-68],[-26,-282],[-93,-114],[-53,-342],[-146,-190],[-126,-396],[14,-266],[-153,-228],[206,-59],[231,405],[20,266],[245,413],[80,296],[172,362],[225,237],[53,227],[292,224],[112,207],[391,-55],[437,603],[272,-502],[232,30],[172,152],[-80,139],[-245,21],[53,430],[364,-93],[179,469],[-66,202],[252,64],[92,181],[53,299],[-33,157],[292,308],[40,-157],[198,-46],[318,156],[-6,186],[251,-93],[27,-177],[159,-30],[139,118],[33,258],[437,-215],[305,177],[245,-152],[112,-156],[179,-97],[331,-51],[139,-223],[106,236],[226,-262],[397,139],[132,-295],[212,21],[0,-261],[186,-43],[470,72],[0,-337],[99,-30],[226,198],[79,-181],[-53,-160]],[[71194,83394],[-146,-80],[40,-270],[-192,-355],[60,-228],[-60,-270],[-106,-114],[-179,-21],[27,-181],[225,-13],[0,-312],[-166,-544],[-430,-566],[53,-379],[-146,-93],[-66,-177],[-232,-127],[-165,-190],[172,-244],[-119,-148],[19,-245],[-72,-274],[-391,-578],[-318,-202],[-60,-325],[-145,-89],[-67,-291],[-39,-430],[-504,-544],[-119,-34],[-186,-536],[-185,-160],[-93,-220],[-232,-316],[-185,-148],[-371,21],[-1159,-911],[-1219,-991],[20,-43]],[[64458,72766],[431,-147],[404,59],[324,-371],[153,-9],[172,-278],[-113,-140],[-258,-67],[-20,-203],[186,-278],[-279,-156],[126,-312],[-331,-118],[-40,-72],[100,-489],[-285,29],[-272,-215],[-152,-274],[-40,-308],[-344,-148],[-490,-156],[-484,-312],[-53,-161],[80,-303],[6,-363],[-79,-215],[-404,-490],[-40,-249],[205,-299],[378,-232],[-93,-654],[-79,-169],[-206,-658],[-178,-139],[-120,-287],[-192,-321],[0,-93],[-198,-312],[-444,-236],[-159,-270],[-603,-747],[-119,-413],[-33,-270],[-93,-291],[-219,-367]],[[60603,61262],[-2715,139],[-9683,574],[-3491,253],[-73,-9],[-483,237],[-232,-51],[-172,316],[-530,110],[-73,110],[-73,350],[-497,240],[-470,422],[-252,93],[-152,371],[-26,291],[-80,161],[106,531],[-358,469],[-291,907],[-219,413],[-198,308],[-199,186]],[[40442,67683],[-86,101],[-40,337],[-79,148],[-451,393],[-192,442],[7,211],[311,334],[126,190],[3921,8488],[941,2038],[-20,303],[-226,64],[-92,215],[-292,-148],[-291,118],[20,312],[-212,51],[-457,253],[-212,317],[-371,113],[-106,135],[-166,-37],[-278,101],[-530,257],[-437,376],[-192,50],[-199,194],[-258,127],[-298,245],[-146,185],[-159,34],[-185,177],[-133,477],[-331,253],[-145,-4],[-312,367],[27,489],[-292,203],[-19,460],[33,232],[-53,788]],[[38309,89857],[186,-241],[165,-80],[159,38],[226,207],[417,-38],[99,173],[-53,304],[225,50],[206,308],[185,-84],[186,21],[99,-127],[311,-4],[93,342],[219,-4],[291,143],[384,-21],[199,30],[245,274],[93,219],[225,173],[265,-50],[337,185],[239,-261],[232,0],[291,-114],[424,160],[166,-80],[238,93],[292,-34],[887,-245],[172,51],[93,177],[-27,359],[-264,261],[-106,199],[-159,16],[46,220],[265,169],[60,312],[523,-194],[152,-123],[298,93],[530,-8],[113,164],[265,9],[205,156],[152,-80],[239,160],[351,-367],[271,25]],[[63021,81989],[-13,-118],[-192,-232],[-146,42],[-46,25],[-27,47],[13,33],[67,59],[19,76],[192,182],[133,-114]],[[65438,83761],[106,-161],[-92,-194],[-113,-33],[-212,135],[106,219],[205,34]],[[65809,84394],[100,-119],[-133,-388],[-251,-8],[-34,118],[193,342],[125,55]],[[59113,84904],[-59,-245],[-239,-42],[-417,-240],[0,244],[364,317],[292,126],[59,-160]],[[67174,85009],[33,-316],[-139,-17],[-33,186],[139,147]],[[58179,84921],[73,-173],[-192,-405],[-99,-456],[-159,17],[-259,-451],[-311,-262],[-291,-169],[-292,-244],[-278,-85],[-152,156],[205,460],[398,291],[125,182],[-59,101],[40,443],[238,380],[199,232],[205,139],[291,89],[186,-51],[132,-194]],[[58232,86136],[80,-55],[-40,-261],[-132,-207],[-451,-300],[285,620],[258,203]],[[65127,85018],[-86,-430],[-106,-140],[0,-244],[-192,-102],[-79,-383],[-504,-334],[119,-173],[-112,-413],[-206,-160],[-377,-72],[-291,333],[-106,-561],[-385,-63],[-245,59],[-225,-59],[-6,-203],[-166,0],[-113,-122],[-172,0],[-225,-114],[-583,291],[-258,-194],[-338,122],[-27,-185],[-278,-72],[-390,84],[-73,296],[-398,392],[-152,270],[-20,283],[86,367],[-53,666],[73,270],[-26,376],[106,278],[105,490],[106,249],[186,181],[232,89],[205,-17],[113,152],[695,-68],[768,-173],[358,-105],[583,25],[99,118],[437,110],[120,-34],[616,-8],[86,-148],[192,21],[298,-76],[252,30],[443,-89],[153,-97],[-14,-194],[-205,-287],[-20,-232]],[[58716,85748],[-159,143],[13,173],[219,401],[457,148],[258,-156],[99,-182],[-172,-211],[-225,-109],[-358,-308],[-132,101]],[[61630,86229],[232,266],[291,147],[510,34],[206,-207],[-33,-122],[-199,-160],[-636,-38],[-371,80]],[[59583,86676],[-33,202],[93,89],[311,-63],[106,-85],[0,-362],[-284,29],[-193,190]],[[61107,87262],[298,-17],[689,241],[232,-4],[79,-215],[-417,-245],[-186,-186],[-165,-312],[-444,-164],[-166,177],[-351,59],[-232,-72],[-218,304],[40,215],[284,42],[378,-21],[179,198]],[[60239,87123],[-126,-198],[-231,105],[119,169],[79,316],[86,85],[-59,299],[212,59],[-20,-405],[79,-324],[-139,-106]],[[60405,87558],[26,299],[153,156],[523,38],[-13,-249],[-318,-244],[-292,-148],[-79,148]],[[450,68248],[2921,-1215],[5849,-1451],[1437,-760],[7597,-3548]],[[18254,61274],[464,-198]],[[18718,61076],[-650,-456],[-410,-417],[-351,-182],[-345,5],[-384,-359],[-251,-93],[-252,-278],[-179,-266],[-278,139],[-457,-21],[-139,-76],[-504,-721],[-344,-165],[-272,-46],[-205,-131],[-364,-76],[-73,42],[-46,333],[-199,-54],[-477,118],[-570,38],[-258,55],[-464,-47],[-364,-34],[-225,97],[-378,22],[-622,-313],[-232,-59],[-378,72],[-245,253],[-271,-185],[0,1185],[6,1519],[27,367],[212,219],[-205,414],[119,59],[-20,261],[-239,-223],[-496,-342],[-358,-401],[-371,-152],[-93,-164],[-298,-139],[-198,-30],[-2054,0],[87,304],[-87,211],[-178,109],[6,245],[-205,346],[-219,127],[-271,4],[-153,67],[-556,114],[-1026,4],[317,422],[113,34],[225,371],[-46,258],[-232,236],[-272,443],[-245,101],[-205,211],[-13,304],[-437,278],[-206,460],[14,144],[-166,316],[-285,152],[-46,156],[212,67],[6,203],[-324,173],[-331,346],[-40,143],[99,207],[-86,190],[557,97],[119,84],[-53,203],[-186,274]],[[49019,92793],[179,-29],[0,-308],[225,4],[358,-291],[258,-42],[285,-127],[192,34],[133,-127],[172,199],[311,84],[205,215],[259,160],[39,-126],[557,-186],[146,21],[331,245],[278,-253],[444,-165],[258,-29],[205,219],[437,249],[226,270],[172,283],[-47,164],[93,135],[206,448],[258,493],[-20,190],[159,240],[179,89],[549,920],[60,219],[391,418],[132,291],[259,152],[132,71],[86,380],[133,101],[-40,262],[113,215],[324,-211],[424,-498],[113,-358],[0,-566],[159,262],[92,-63],[-20,-405],[27,-595],[-40,-295],[146,-380],[-7,-198],[245,-844],[106,-72],[212,-620],[192,-447],[80,-363],[238,-338],[66,-194],[325,-548],[722,8],[457,-173],[238,-223],[93,-781],[-119,-363],[79,-135],[-225,-236],[-159,38],[-53,-177],[-278,-262],[-199,-92],[-165,-161],[-86,-211],[-305,-227],[-86,-233],[-278,-468],[-464,-523],[-351,-34],[-132,-93],[-226,-358],[-337,-76],[-312,-426],[-165,-405],[-146,-249],[-199,-173],[-450,-536],[-66,-333],[0,-414],[-279,-244],[-192,-64]],[[60683,88418],[-186,-12],[7,164],[364,270],[292,-59],[-219,-350],[-258,-13]],[[61041,88861],[79,237],[172,-106],[-251,-131]],[[60040,91907],[146,9],[219,-431],[-166,-177],[-205,9],[-166,308],[47,240],[125,42]],[[41489,41028],[231,-13],[80,-198],[285,-131],[185,13],[735,198],[391,334],[27,202],[291,236],[40,228],[205,203],[689,38],[126,-42],[278,84],[205,173],[371,80],[199,-59],[106,-139],[384,-123],[119,-97],[457,-109],[186,-275],[496,-215],[411,-257],[715,93],[517,337],[437,9],[265,-173],[73,-232],[185,-5],[451,119],[271,299],[219,135],[331,388],[199,135],[159,-8],[-179,-987],[-272,-119],[-331,-548],[662,-270],[318,38],[279,-46],[476,33],[411,-88],[239,42]],[[53411,40311],[33,-203],[-40,-506],[172,-245],[205,106],[318,-114],[-6,-181],[-272,-452],[60,-109],[278,-76],[371,-30],[305,42],[331,-253],[490,-114],[291,-244],[371,-114],[186,-152],[503,-207],[609,-105],[239,-216],[444,-80],[264,-215],[186,-270]],[[58749,36573],[60,-194],[-120,-68],[-106,-455],[86,-890]],[[58669,34966],[-92,-228],[-278,-274],[-484,-169],[-477,-544],[-165,-55],[-106,-266],[-27,-451],[-291,-308],[-120,-241],[-211,-211],[59,-325],[-291,-430],[-265,-34],[-93,-181],[159,-295],[-278,-186],[-139,-295],[-272,-220],[-139,-409],[-384,-321],[-404,-177],[-358,-223],[-66,-102],[-318,-101],[-205,-202],[-153,-275],[-152,-143]],[[53119,28300],[-795,-333],[-298,-228],[-112,-477],[-219,-489],[-351,-245],[-212,-80],[-311,-1008],[-20,-338],[-431,-262]],[[50370,24840],[-311,169],[-146,182],[-483,265],[-543,-194],[-298,-211],[-418,-50],[-238,-80],[-503,109],[-86,123],[-40,498],[-212,337],[-13,186],[53,388],[-106,126],[53,258],[-166,287],[-99,299],[-53,468],[106,237],[-33,253],[-285,232],[-20,308],[-285,325],[-79,-43],[-775,68],[-305,186],[-272,341],[-225,-42],[-192,-257],[-172,-118],[-397,-30],[-87,-105],[-430,143],[-172,-13],[-345,131],[-145,-67],[-292,4],[-225,84],[-358,9],[-106,185],[-205,0],[-278,-101],[-325,160],[-39,119],[159,333],[-80,139],[46,245],[106,169],[-106,168],[20,435],[192,316],[-125,110],[145,181],[47,232],[-60,228],[73,101],[-219,300],[126,388],[-331,279],[-46,244],[46,236],[-238,148],[-87,414],[-106,126],[272,148],[238,207],[252,118],[-656,569],[-19,76],[861,1717],[185,38],[-33,262],[-139,80],[550,1679],[39,186],[-218,468],[-239,396],[14,283]],[[53119,28300],[159,55],[404,278],[649,-84],[199,88],[238,-113],[192,29],[583,-105],[199,261],[185,51],[491,-228],[331,-17],[503,-173],[490,89],[629,-300],[583,-139],[245,-312],[404,55],[504,-64],[159,80],[192,-97],[424,30],[397,76],[159,-316],[351,-157],[258,-257],[80,-160],[59,-384],[-99,-249],[119,-346],[139,-181],[-39,-308],[-86,-85],[490,-565],[198,-165],[-20,-160],[173,-266],[112,-59],[-185,-650],[13,-189],[199,-59],[993,67],[120,-84],[337,-17],[93,55],[318,-165],[-139,-164],[-60,-637],[139,-68],[245,321],[206,-135],[265,-5],[205,-535],[305,-17],[-133,-203]],[[66094,21617],[-417,-261],[-133,177],[-278,148],[-112,-220],[99,-105],[-119,-156],[-451,67],[53,-219],[232,38],[417,-144],[-185,-130],[-212,-380],[-165,-540]],[[64823,19892],[-179,25],[-683,-17],[-72,-76],[-683,-55],[-205,-202],[-411,-160],[-86,-135],[-265,0],[-331,160],[-404,316],[-179,59],[-609,-101],[-139,38],[-358,-55],[-397,93],[-272,-118],[-218,-418],[-596,-84],[-272,80],[-450,-291],[-100,-194],[126,-468],[-119,-118],[-291,-72],[-259,207],[-953,0],[-338,46],[-490,333],[-656,51],[-914,245],[-252,-72],[-543,0],[-397,261],[-186,55],[-271,-118],[-510,72]],[[51861,19179],[-186,342],[-79,253],[-159,139],[-27,422],[-185,460],[-192,101],[-583,148],[-278,-60],[-351,-223],[-219,173],[-139,0],[-26,363],[271,396],[192,380],[-86,240],[139,553],[126,228],[99,266],[-39,257],[192,511],[-192,459],[231,253]],[[51397,16863],[106,316],[86,38],[146,388],[-93,460],[60,814],[159,300]],[[64823,19892],[-80,-152],[80,-300],[-219,-202],[-225,-34],[-113,-143],[398,-203],[72,-185],[-125,-254],[-47,-417],[139,-135],[20,-540],[113,-89],[-80,-228],[47,-118],[-60,-379],[146,-110],[-66,-190],[-166,-160],[179,-296],[-179,-135],[46,-308],[159,-240],[-106,-186],[20,-244],[-139,-473],[-324,-704],[-34,299],[-205,63],[53,-329],[225,-177],[-126,-173],[-318,-88],[-298,-186],[-728,-527],[-537,-524],[-410,-502]],[[65200,16243],[146,-135],[-100,-355],[-205,-274],[-99,561],[46,143],[212,60]],[[64915,18968],[-165,-182],[-232,245],[179,198],[291,144],[73,-135],[-146,-270]],[[40442,67683],[-185,-203],[-47,-236],[40,-207],[-219,-363],[-212,-219],[7,-156],[133,-321],[46,-291],[-86,-358],[-245,-401],[46,-329],[-139,-380],[-185,-152],[-7823,-50]],[[31573,64017],[-53,164],[-258,34],[-265,-135],[-99,-291],[-225,4],[-86,114],[-345,110],[-99,405],[-345,101],[-172,481],[-205,88],[-219,-33],[-39,194],[-206,168],[-99,275],[-126,130],[-265,119],[-192,21],[-1623,21],[-126,-207],[-13,-219],[-338,-68],[-59,-236],[-431,-127],[-192,-270],[186,-244],[-199,-372],[-358,-84],[53,-578],[-278,-29],[-344,37],[-146,-92],[-139,50],[-318,-190],[-232,13],[-159,93],[-232,-97],[-212,-253],[53,-241],[-337,-476],[-272,-43],[-205,410],[-497,-342],[-60,-144],[-212,85],[-278,-89],[-106,-215],[-238,-89],[-411,393],[-444,-13],[-748,34],[-20,-304],[-252,-283],[-238,-75],[-252,-220],[-126,0],[-218,-228]],[[450,68248],[106,549],[206,236],[437,291],[364,291],[437,101],[172,283],[-112,595],[-126,139],[-20,181],[239,511],[351,434],[106,384],[-34,241],[199,498],[-53,358],[431,194],[238,-17],[73,102],[570,417],[13,140],[199,118],[178,0],[312,202],[145,194],[232,59],[232,173],[291,85],[279,-68],[410,152],[961,118],[119,97],[291,-55],[318,380],[27,152],[304,17],[106,97],[219,-156],[397,156],[305,-93],[13,-232],[192,-110],[345,97],[79,-160],[192,34],[60,202],[46,89],[451,2481],[225,1240],[298,1649],[291,1578],[80,646],[53,143],[-126,232],[0,245],[-232,198],[-86,274],[-139,203],[113,228],[-120,354],[-291,139],[-285,287],[-225,89],[-285,320],[-46,144],[53,1827],[636,50],[278,156],[198,-46],[292,202],[165,-33],[193,-190],[351,-68],[225,89],[-172,751],[-212,245],[-212,63],[-120,-89],[-152,85],[-364,29],[-245,-38],[-119,85],[-226,-81],[7,1561],[20,102],[490,80],[179,80],[278,-34],[298,-97],[1424,4],[1616,0],[-199,127],[-53,224],[153,383],[251,-215],[113,-274],[152,-173],[351,30],[179,130],[504,625],[390,215],[252,-127],[199,-405],[278,-367],[99,-202],[106,-430],[-59,-739],[86,-206],[483,126],[1192,-1080],[159,-110],[299,13],[185,-80],[464,190],[258,261],[324,169],[418,9],[165,-296],[-179,-316],[67,-211],[278,84],[159,376],[159,190],[318,33],[59,85],[113,438],[291,34],[166,169],[298,164],[278,-59],[325,216],[132,227],[364,224],[113,-25],[-79,-270],[112,-68],[126,207],[444,337],[119,178],[73,632],[146,165],[596,72],[371,295],[523,122],[66,224]],[[31573,64017],[259,-203],[59,-173],[-112,-211],[-67,-337],[67,-245],[-159,-46],[-47,-199],[126,-139],[100,-485],[106,-190],[-153,-308],[53,-266],[-40,-346],[-86,-164],[14,-515],[238,-443],[-86,-645],[79,-186],[-119,-84],[-6,-414],[132,-114],[2630,-17],[145,-253],[265,55],[258,-93],[279,9],[172,-80],[232,-612],[-292,-388],[-192,-165],[0,-371],[106,-414],[192,-29],[245,-544],[-6,-296],[165,-362],[-212,-595],[-238,-287],[-106,-371],[-99,-140],[-292,-109],[-192,-249],[-13,-177],[-192,-342],[-80,-384],[-708,-464],[-166,-156]],[[33832,51470],[-437,282],[-318,47],[-53,152],[-272,-114],[-225,-13],[-285,80],[-278,-130],[-344,97],[-365,-81],[-284,17],[-53,173],[-345,266],[-278,329],[-7,211],[-271,72],[-411,-47],[-285,190],[-377,93],[-113,165],[-311,-60],[-291,325],[-139,21],[-186,275],[-66,240],[-159,47],[-278,-173],[-378,97],[-258,282],[-119,13],[-298,190],[-365,50],[-159,-50],[-145,-177],[-318,88],[-252,-29],[-179,122],[-463,42],[-239,211],[53,291],[-318,114],[-311,177],[-199,296],[-523,92],[-172,621],[-186,97],[-145,-68],[0,384],[-73,194],[-172,30],[-159,295],[66,160],[-119,80],[39,199],[-92,168],[139,119],[0,189],[99,110],[-46,321],[-219,169],[60,261],[-139,182],[-33,405],[139,194],[172,202],[99,249],[-93,439],[-19,304],[72,261],[-165,295],[-212,72],[-338,-396],[-318,206],[-205,59],[-219,-122],[-232,8],[-159,-80],[-152,64],[-258,-43],[-669,-227],[-503,-68]],[[60603,61262],[-178,-456],[-186,-215],[-26,-279],[-100,-324],[-139,-157],[-99,-405],[-199,-248],[33,-144],[-126,-574],[53,-244],[-125,-287],[-20,-296],[-139,-371],[-47,-253],[239,-270],[-146,-266],[73,-388],[73,-42],[-80,-312],[20,-490],[126,-206],[33,-410],[-139,-510],[99,-72],[80,-379],[285,-97]],[[59968,53567],[-27,-270],[-238,-330],[46,-383],[-238,-503],[-245,-299],[-93,-346],[-172,-93],[46,-375],[-46,-249],[19,-380],[-158,-110],[-106,-227],[-100,-422],[73,-304],[-166,-329],[-165,-616],[-199,-228],[-199,-101],[-245,88],[-159,-37],[-258,-173],[-364,-376],[-53,-434],[-245,-591],[-278,-498],[-212,8],[-226,-189],[-390,-38],[-106,-59],[-206,-321],[-258,-114],[-278,-224],[-20,-185],[-311,-127],[-33,-181],[172,-165],[-47,-261],[-158,-156],[-40,-156],[-252,-245],[-391,-190],[-145,-122],[-67,-490],[-231,-270],[-173,-303],[40,-207],[-139,-515],[33,-228],[205,-325],[246,-607]],[[41489,41028],[-133,106],[-33,358],[-166,118],[-397,30],[-563,430],[-384,161],[-60,400],[-152,574],[33,118],[-73,401],[66,169],[252,278],[53,317],[-13,249],[-133,25],[-185,-131],[-1643,55],[-2603,93],[-132,130],[-33,566],[-113,1278],[-59,118],[-683,802],[-139,114],[788,12],[-46,1190],[-152,144],[20,215],[-140,384],[-165,160],[-27,413],[166,161],[53,202],[-126,148],[-73,261],[-251,119],[-411,274]],[[71194,83394],[212,42],[119,-68],[159,123],[212,-266],[93,29],[199,266],[99,-443],[146,156],[212,-101],[53,-434],[238,109],[119,228],[153,-169],[-186,-147],[73,-283],[-66,-262],[205,-118],[146,123],[-47,265],[212,249],[186,47],[523,-101],[-86,-195],[172,-92],[192,-224],[133,-51],[40,-232],[317,-12],[159,-72],[80,-380],[-417,-607],[258,38],[146,177],[251,-127],[93,-291],[-86,-236],[-199,0],[-344,-683],[-100,-254],[-6,-223],[-113,-359],[179,-143],[-218,-215],[72,-152],[173,211],[457,413],[72,443],[87,283],[6,304],[172,42],[60,147],[146,13],[377,181],[100,-38],[6,-253],[-132,-122],[-139,-278],[-292,-131],[-6,-114],[490,-30],[126,363],[238,220],[106,-55],[358,139],[298,29],[371,-84],[53,207],[-80,160],[80,135],[364,-13],[291,-84],[722,-287],[245,-139],[278,-38],[206,-211],[232,-101],[218,-177],[484,-17],[106,-139],[556,0],[172,63],[-152,169],[404,-17],[-13,-93]],[[82017,79407],[-60,-228],[133,-211],[-73,-253],[-199,-190],[-212,-316],[-258,-76],[13,-106],[-298,-333],[-378,-42],[-231,-72],[-113,68],[-185,-308],[-259,-325],[20,-228],[-172,-350],[-298,-300],[-106,-261],[-252,-249],[66,-342],[173,-80],[86,-241],[-126,-362],[-86,-397],[106,-84],[132,-279],[47,-417],[79,-161],[-73,-392],[-199,-194],[-284,-452],[-206,-147],[53,-228],[-66,-152],[80,-726],[284,-341],[292,-169],[-73,-789],[-119,-321],[-232,-206],[-298,-34],[-166,67],[-265,-118],[-404,-105],[-549,358],[-358,-21],[-219,-109],[-351,-38],[-59,-161],[-252,-147],[-20,-93],[-225,-211],[-126,-266],[-364,-97],[-523,-443],[-153,-198],[-258,88],[-238,-206],[-299,-127],[-695,-164],[-444,-300],[-59,-101],[-159,-637],[-53,-485],[-199,-266],[-7,-139],[-192,-317],[-79,-443],[-139,-240],[-278,-228],[-133,-363],[99,-215],[93,-426],[27,-380],[172,-122],[79,-220],[-106,-185],[-53,-764],[-6,-434],[-225,-418],[6,-392]],[[71545,60047],[-218,122],[-139,156],[-259,84],[-404,17],[-318,422],[20,144],[-112,232],[-391,257],[33,241],[119,29],[166,249],[-60,148],[-490,223],[-199,262],[-39,358],[-246,249],[-298,38],[-13,203],[404,375],[-46,228],[106,414],[232,371],[331,101],[410,0],[-112,203],[93,101],[6,270],[100,266],[-67,270],[-212,147],[-437,-46],[-318,-93],[-285,-207],[-245,169],[-185,308],[-146,105],[-265,443],[-92,26],[-166,257],[-113,-13],[-145,233],[99,270],[-93,151],[-377,47],[-206,177],[259,89],[139,232],[179,152],[79,312],[-13,485],[99,396],[106,165],[-6,333],[99,296],[-139,333],[33,599],[-179,325],[40,396],[-179,283],[-139,21],[-331,203],[-298,21],[-66,261],[-345,127],[-165,-89],[-226,26],[-470,236],[-411,-55],[-211,-295],[-272,-34],[-93,-106]],[[75241,79301],[7,-367],[-106,-54],[-120,278],[93,304],[126,-161]],[[77466,80723],[-19,-380],[-279,-29],[20,198],[133,182],[145,29]],[[74234,83233],[20,-139],[-245,-177],[-113,139],[133,207],[205,-30]],[[82017,79407],[384,-173],[46,-122],[404,-68],[133,46],[311,-80],[238,-236]],[[83533,78774],[-13,-169],[-318,-493],[-119,-127],[-60,-299],[173,-405],[66,-296],[185,-257],[139,-599],[279,-342],[119,-384],[-417,-544],[19,-477],[120,-223],[-7,-266],[159,-236],[172,-511],[-40,-257],[312,-279],[79,-481],[-20,-198],[80,-569],[6,-279],[219,-624],[86,-612],[133,-203],[0,-168],[264,-182],[352,-67],[158,-190],[-59,-245],[-186,-253],[-178,-489],[125,-338],[-13,-160]],[[85348,67552],[-278,-25],[-113,-76],[7,-215],[172,-321],[-99,-312],[291,-186],[40,-190],[-33,-316],[-119,-241],[-404,-312],[-219,-304],[-139,26],[-86,-207],[-238,34],[-173,-266],[-192,-63],[-132,-220],[-411,-198]],[[83222,64160],[-73,-181],[-258,-389],[-616,-139],[26,-371],[-304,-304],[-166,106],[-324,8],[-272,-223],[-411,-34],[-311,-258],[-139,-232],[-225,34],[-99,-190],[-351,97],[-252,-67],[-206,84],[-26,173],[-219,34],[-258,160],[-225,-88],[-417,-13],[-179,278],[-219,-147],[-179,63],[-132,-72],[-99,-211],[-298,47],[-40,-186],[119,-160],[146,-477],[106,-135],[-73,-384],[26,-219],[-125,-173],[-418,-835],[-198,-60],[-325,-345],[-252,-106],[-510,101],[-304,-101],[-279,-270],[-271,-122],[-80,-190],[-172,-55],[-205,42],[-285,-88],[-695,295],[-312,413],[-86,342],[-338,397],[-390,4]],[[72029,60013],[-484,34]],[[83533,78774],[-19,350],[304,-25],[1418,148],[212,105],[576,-51],[735,-109],[318,-173],[377,-283],[80,17],[503,-321],[325,-97],[709,-498],[238,-46],[179,-283],[278,-105],[377,-333],[338,-106],[179,0],[199,-388],[324,-236],[371,-502],[192,-207],[451,-354],[218,-51],[146,-308],[265,-236],[238,-42],[484,-186],[126,-118],[99,-224]],[[93773,74112],[-775,-257],[-463,-338],[-491,-1029],[-337,-384],[-80,-375],[-159,-346],[-410,-460],[-173,-47],[-119,81],[-199,-169],[-238,-405],[20,-308],[132,59]],[[90481,70134],[-132,-249],[-179,-544],[73,-173],[-80,-199],[-192,-139],[-13,-282],[119,-72],[20,-329],[371,-350],[-132,-338],[-120,-80],[-20,-198],[-152,-220]],[[90044,66961],[-311,-118],[-245,-253],[-133,-215],[-271,-13],[-93,258],[-344,185],[-272,342],[-470,186],[-305,261],[-490,63],[-265,-33],[-285,-118],[-278,-26],[-225,59],[-709,13]],[[93773,74112],[139,-206],[119,-51],[603,-21],[278,-287],[510,-135],[431,59],[742,-38],[337,122],[1246,-244],[231,-178],[179,-367],[225,-329],[166,-527],[126,-595],[106,-190],[33,-489],[139,-127],[33,-274],[93,-88],[66,-325]],[[99575,69822],[-218,-80],[-530,75],[-126,-59],[-411,165],[-516,97],[-133,-46],[-523,-55],[-835,135],[-59,219],[-272,63],[-318,-261],[-20,-190],[186,-367],[-239,-42],[14,-245],[72,-127],[-185,-367],[-219,-12],[-132,-114],[-152,118],[73,270],[-120,143],[-390,51],[-113,106],[-146,-119],[-444,-177],[-132,211],[-166,106],[-457,50],[20,325],[192,93],[93,325],[563,700],[-7,165],[-212,71],[-417,-185],[-132,29],[-418,-101],[-304,-131],[-86,-295],[-133,-127],[-404,-236],[-205,-63],[-119,-161],[-285,93],[-106,-55],[-391,241],[-232,76]],[[99575,69822],[-20,-291],[93,-228],[-20,-152],[99,-312],[113,-72],[0,-401],[159,-223],[-46,-983],[-199,0]],[[99754,67160],[-219,80],[-218,261],[-523,72],[-265,-198],[-318,4],[-153,-506],[-854,-287],[-185,-127],[-232,-38],[-173,123],[-238,4],[-126,-114],[-404,0],[-59,-215],[-312,-38],[-212,-190],[60,-215],[-391,-359],[-132,-8],[-331,-148],[-252,135],[-166,169],[-59,477],[-166,50],[-318,-105],[298,476],[146,131],[-119,300],[39,185],[471,169],[-27,291],[-318,127],[-271,194],[-464,-198],[-298,-338],[-391,-181],[-218,-228],[-272,-118],[-205,-228],[-219,34],[-53,-156],[-205,38],[-232,-114],[-252,384],[-125,-119],[-312,-54],[-159,71],[-278,308]],[[99754,67160],[146,-51],[79,-156],[-245,-245],[20,-219],[113,-47],[92,-215],[-99,-417],[-205,-443],[-20,-279],[-219,-578],[-258,-590],[-53,-275]],[[99105,63645],[-623,76],[-205,127],[-358,-76],[-331,-135],[-152,118],[-437,-93],[-106,30],[-272,-211],[-7,-97],[-291,-182],[-73,-143],[-205,-152],[-239,-21],[-357,-215],[-643,76],[-179,-68],[-92,-169],[-153,127],[-470,165],[-536,514],[-206,93],[-119,160],[-278,-101],[-139,13],[-166,295],[-152,-80],[-20,-215],[-391,-422],[-311,-110],[-159,-211],[-212,-160]],[[91223,62578],[-199,506],[67,304],[-86,67],[-226,-118],[-185,85],[-73,139],[99,139],[-145,186],[-153,-101],[-53,-287],[-119,12],[-126,321],[-384,186],[-285,-55],[-152,143],[-497,144],[-126,261],[-337,106],[-517,-275],[-219,-42],[7,-316],[-530,-127],[53,-202],[-53,-165],[-185,-177],[-371,-152],[-245,101],[-159,-105],[-139,-633],[-199,-17],[-311,-156],[-239,-173],[-311,165],[126,177],[-27,350],[-377,165],[-106,295],[13,460],[-179,59],[-99,152],[-265,4],[-152,164],[-418,-63],[-119,55]],[[99105,63645],[-404,-717],[-219,-287],[-232,-160],[-258,-422],[-192,-114],[-99,-249],[-126,80],[-272,-227],[-73,-321],[-172,-148],[-225,-384],[-543,-472],[-106,-266],[-298,-384]],[[95886,59574],[-139,245],[-265,-13],[20,152],[-159,253],[-166,-55],[-351,156],[-285,287],[-19,224],[-100,122],[-199,4],[-145,127],[-252,51],[-205,232],[-444,181],[-245,17],[-278,211],[-239,38],[-324,194],[-259,72]],[[91832,62072],[-39,126],[-471,169],[-99,211]],[[95886,59574],[-431,-126],[-490,-313],[-344,-257],[-345,-451],[-26,-131],[-311,-523],[-292,-291],[-79,-228],[-199,-80],[-225,-207]],[[93144,56967],[-451,-106],[-351,93],[-132,211],[-305,106],[-92,109],[59,308],[-225,203],[-99,333],[-173,122],[-145,211],[-20,194],[126,275],[212,21],[351,-118],[397,194],[86,126],[-112,203],[-27,325],[133,299],[6,578],[-463,532],[-173,375],[100,198],[-139,110],[125,203]],[[93144,56967],[126,-131],[-563,-1232],[-338,-548],[-676,-966],[-59,-34],[-629,-722],[-484,-219],[-73,42],[166,393],[-86,329],[-298,55],[-60,164],[-185,38],[-47,-291],[-225,-333],[232,-43],[-166,-362],[-225,-118],[126,-232],[-298,-266],[-33,-156],[-239,-190],[13,-245],[120,-4],[112,-456],[-112,-405],[-139,-88],[6,-178],[345,97],[13,-270],[-166,-535],[7,-258],[-205,-928],[112,-363],[53,-1063],[199,-1240],[152,-329],[-212,-612],[-26,-257],[-106,-182],[-20,-270],[-119,-198],[-100,-570],[-112,-362],[33,-253],[-113,-456],[-106,-219],[-20,-342],[80,-401],[7,-384],[119,-202],[-312,-359],[-39,-118],[-278,-97],[-298,-262],[-318,-476],[-126,-338]],[[87554,39522],[-1305,806],[-53,80]],[[86196,40408],[-60,156],[113,253],[-53,135],[-450,363],[-80,169],[-199,25],[34,211],[-100,211],[-238,-21],[20,202],[99,131],[-27,329],[126,519],[139,160],[444,-25],[139,118],[-106,228],[80,456],[291,55],[206,384],[298,210],[192,519],[-179,279],[-179,21],[-318,257],[-99,-8],[-172,198],[-378,21],[-232,93],[-152,-59],[-345,207],[-231,-55],[-179,143],[-292,21],[-218,-156],[-325,-118],[-444,165],[-72,569],[-1126,987],[-351,-156],[-378,-29],[-225,194],[-212,-4],[-437,194],[-384,257],[-126,-17],[-669,485],[-152,178],[-709,109],[-398,-164],[-271,-224],[-550,135],[-404,194],[-46,253],[152,431],[-33,198],[-1232,181],[-623,-257],[-695,-443],[-119,-203],[-557,-312],[-318,-55],[-245,-295],[-357,-215],[-232,13],[-411,-486],[-132,-54],[-411,46],[-112,-156],[-173,105],[153,418],[-113,295]],[[71353,48377],[232,313],[46,143],[-126,401],[0,173],[106,299],[-225,131],[-304,295],[-106,287],[-133,194],[-93,329],[-33,545],[219,645],[225,139],[40,253],[-239,93],[60,481],[205,135],[-39,152],[-371,304]],[[70817,53689],[-7,219],[192,279],[0,257],[-404,203],[-66,210],[13,540],[318,334],[351,185],[-205,237],[-239,-21],[-59,202],[73,101],[357,152],[53,169],[-271,143],[-603,114],[-166,220],[-152,97],[-46,156],[99,211],[172,139],[239,536],[304,139],[40,89],[-172,316],[543,443],[132,34],[457,266],[259,354]],[[89415,52157],[119,-151],[-205,-93],[-126,46],[33,220],[179,-22]],[[90256,53360],[-26,-194],[-411,-300],[0,177],[437,317]],[[87554,39522],[-133,-502],[-46,-418],[7,-565],[112,-865],[-33,-451],[-192,-477],[-126,-139],[-298,-123],[-192,-151],[-305,-667],[-112,-426],[-239,-321],[-165,-472],[-179,-300],[-166,-80],[-258,-397],[-378,-105],[-172,-224],[-39,-270],[-385,-611]],[[84255,31958],[-258,156],[-503,-47],[-318,114],[-126,-38],[-325,93],[-404,211],[27,274],[-73,397],[-311,114]],[[81964,33232],[132,333],[-99,63],[139,220],[0,282],[-152,178],[357,383],[795,-12],[99,67],[153,599],[311,224],[73,527],[232,169],[278,342],[79,422],[-46,384],[-278,286],[59,169],[-192,207],[-159,-51],[-178,140],[99,113],[271,-50],[404,55],[14,291],[-259,143],[67,477],[-53,122],[-305,275],[212,303],[377,194],[186,-118],[159,144],[-345,312],[630,38],[337,143],[272,17],[563,-215]],[[84255,31958],[7,-232],[-278,-405],[139,-220],[-20,-282],[152,-587],[-73,-173],[-635,-333],[-563,-148],[-517,-202],[-265,-186],[-358,-396],[-139,-68],[-79,-190],[7,-232],[185,-215],[-172,-110],[-179,-325],[-808,43],[-636,-9],[-179,-67],[-861,-21],[-225,114],[46,240],[173,156],[13,262],[-119,21],[-497,-211],[79,-249],[199,-131],[-20,-190],[-126,-67],[-583,-59],[-238,-80],[-219,67],[-271,215],[-338,114],[-377,-131],[-113,17],[-146,-211],[-192,-67],[-285,135],[-86,194],[-225,-72],[-33,-126],[-431,-148],[-172,-13],[-106,-325],[106,-109],[411,-114],[-186,-203],[-364,4]],[[74658,26633],[-232,144],[-112,232],[145,173],[27,384],[172,131],[364,152],[577,50],[218,97],[60,186],[212,207],[-126,194],[-828,-76],[-245,54],[-344,452],[-153,42]],[[74393,29055],[252,122],[179,-25],[159,139],[397,152],[576,13],[318,198],[716,279],[377,-17],[517,38],[304,139],[543,-68],[458,59],[165,119],[848,333],[245,135],[457,160],[-13,182],[-212,126],[172,274],[13,207],[192,177],[100,448],[218,413],[0,202],[338,34],[106,270],[146,68]],[[76254,27152],[-331,-113],[-132,181],[106,135],[357,-203]],[[58669,34966],[312,274],[549,202],[252,275],[338,42],[219,-198],[1165,-161],[855,4],[417,-126],[285,29],[-86,-274],[33,-232],[192,-329],[172,-4],[278,388],[179,-224],[7,-434],[258,-17],[-53,375],[113,249],[324,51],[245,-25],[782,114],[132,-72],[239,88],[218,-118],[345,224],[172,-97],[99,308],[325,13],[159,-140],[470,178],[73,-199],[344,-215],[179,-219],[-86,-199],[-46,-413],[337,-207],[113,-274],[-258,-447],[-27,-274],[186,-161],[59,-396],[179,-169],[152,-380],[-13,-143],[272,-13],[205,118],[782,-253],[39,-169],[-172,-384],[-132,-42],[-146,-312],[20,-232],[106,-211],[-186,-190],[232,-185],[-159,-190],[-86,-300],[139,-228],[583,-371],[13,-202],[-159,-123],[265,-164],[20,-249],[186,-93],[331,84],[86,-113],[265,42],[145,105],[265,-67],[199,38],[139,244],[-199,131],[219,122],[344,89],[140,-84],[211,139],[93,-131],[358,110],[59,105],[484,249],[344,38],[232,114]],[[74658,26633],[-298,-88],[-192,97],[-411,-384],[-437,-236],[-126,42],[-337,-232],[86,-148],[-20,-253],[-258,-42],[-537,169],[-371,38],[-550,-186],[-397,-405],[-331,236],[-159,-143],[53,-152],[-477,-207],[-669,-354],[-285,-182],[-212,-329],[-338,-270],[-662,-379],[-252,-59],[-238,-131],[-490,-355],[-172,-173],[20,-248],[-166,-367],[-132,-34],[-206,-241]],[[67538,23174],[-86,-105],[-596,-464],[-119,25],[556,405],[245,139]],[[73420,25212],[-444,-85],[-153,156],[232,199],[80,194],[245,-123],[40,-341]],[[59968,53567],[92,371],[245,405],[517,363],[33,-199],[-172,-240],[7,-211],[-193,-342],[20,-270],[73,-105],[484,-224],[205,-17],[146,-114],[583,-265],[423,-64],[345,-122],[66,291],[159,338],[404,687],[192,139],[610,-493],[139,-574],[-14,-654],[226,38],[72,409],[173,55],[271,-101],[298,21],[358,240],[212,51],[-80,-253],[252,-59],[186,-139],[205,-5],[172,-109],[444,-152],[53,84],[-153,431],[206,101],[212,-333],[291,-17],[378,135],[516,261],[305,68],[371,0],[192,84],[272,287],[536,203],[344,29],[173,93]],[[71353,48377],[-139,-135],[-291,-33],[-272,67],[-53,156],[-179,194],[-331,152],[-159,-211],[7,-312],[79,-312],[-232,-76],[-251,126],[-252,17],[-146,-97],[-99,-455],[106,-26],[86,-219],[-205,-278],[13,-292],[159,-113],[93,-650],[-80,-97],[-550,-144],[-125,43],[-259,-287],[-185,-17]],[[68088,45378],[-93,-274],[40,-211],[-66,-186],[-219,-278],[-46,-211],[125,-199],[352,-236],[264,-662],[27,-148],[-205,-131],[53,-122],[-259,-173],[-278,-329],[-199,-148],[-79,-320],[106,-157],[199,43],[311,-127],[46,-312],[-139,-190],[-59,-350],[178,-460],[-390,-270],[-305,-110],[-252,-287],[-636,-329],[-589,106],[-219,122],[-1020,51],[-516,-30],[-345,64],[-457,-207],[-589,-557],[-73,-17],[-252,338],[-788,-317],[-490,26],[-311,-127],[-537,-135],[-457,-553],[27,-278],[-139,-177],[-272,-5],[-238,-185],[-252,-287],[-93,-300],[40,-185],[-245,25]],[[68088,45378],[-146,143],[27,388],[106,313],[0,308],[-272,135],[-26,101],[-875,17],[-1053,4],[-152,-519],[93,-110],[-193,-266],[113,-303],[-46,-190],[178,-21],[2246,0]]],"bbox":[-73.98374921593931,-33.74081338800638,-34.79672100417443,5.267860014482565],"transform":{"scale":[0.0003918742008596575,0.00039009063493123877],"translate":[-73.98374921593931,-33.74081338800638]}}