{"type":"Topology","objects":{"a1":{"type":"GeometryCollection","geometries":[{"type":"Polygon","arcs":[[0]],"id":"BRN-1183","properties":{"adm1_code":"BRN-1183","iso_3166_2":"BN-TE","name":"Temburong","admin":"Brunei","adm0_a3":"BRN","type_en":"District"}},{"type":"Polygon","arcs":[[1,2]],"id":"BRN-1182","properties":{"adm1_code":"BRN-1182","iso_3166_2":"BN-BM","name":"Brunei and Muara","admin":"Brunei","adm0_a3":"BRN","type_en":"District"}},{"type":"Polygon","arcs":[[3,4,5,-2]],"id":"BRN-1184","properties":{"adm1_code":"BRN-1184","iso_3166_2":"BN-TU","name":"Tutong","admin":"Brunei","adm0_a3":"BRN","type_en":"District"}},{"type":"Polygon","arcs":[[6,-5]],"id":"BRN-1181","properties":{"adm1_code":"BRN-1181","iso_3166_2":"BN-BE","name":"Belait","admin":"Brunei","adm0_a3":"BRN","type_en":"District"}}]}},"arcs":[[[85327,85964],[4633,-8134],[4827,-18181],[0,-15790],[5212,-10048],[-1351,-5422],[-15830,6539],[-5792,23126],[-386,19298],[7529,3030],[1158,5582]],[[55405,68739],[1158,16268]],[[56563,85007],[12548,9888],[9653,5104],[-2510,-11643],[-3089,-4306],[-2509,-6858],[-5213,-638],[-10038,-7815]],[[55405,68739],[2509,-11323],[387,-11324],[4054,-13556],[-3282,-5583]],[[59073,26953],[-5792,10208],[-8880,11323],[-7529,15471]],[[36872,63955],[7915,9569],[11776,11483]],[[59073,26953],[1737,-3987],[-3668,-12280],[-6756,-8613],[-6757,-2073],[-8108,11962],[-4247,11164],[-10232,478],[1159,4944],[-3861,15949],[-9460,7815],[-8880,3828],[18726,-798],[5598,1276],[12548,7337]]],"bbox":[113.99874550291634,4.022044473593894,115.34322030843327,5.053915469812125],"transform":{"scale":[0.000013444882503994424,0.000010318813150313814],"translate":[113.99874550291634,4.022044473593894]}}