{"type":"Topology","objects":{"a1":{"type":"GeometryCollection","geometries":[{"type":"Polygon","arcs":[[0,1,2]],"id":"BWA-2629","properties":{"adm1_code":"BWA-2629","iso_3166_2":"BW-NW","name":"North-West","admin":"Botswana","adm0_a3":"BWA","type_en":"District"}},{"type":"Polygon","arcs":[[-1,3,4,5,6,7,8],[9],[10]],"id":"BWA-2630","properties":{"adm1_code":"BWA-2630","iso_3166_2":"BW-CE","name":"Central","admin":"Botswana","adm0_a3":"BWA","type_en":"District"}},{"type":"Polygon","arcs":[[-5,11],[12]],"id":"BWA-4853","properties":{"adm1_code":"BWA-4853","iso_3166_2":"BW-NE","name":"North-East","admin":"Botswana","adm0_a3":"BWA","type_en":"District"}},{"type":"Polygon","arcs":[[-7,13,14,15,16]],"id":"BWA-2646","properties":{"adm1_code":"BWA-2646","iso_3166_2":"BW-KL","name":"Kgatleng","admin":"Botswana","adm0_a3":"BWA","type_en":"District"}},{"type":"Polygon","arcs":[[-15,17,18,19,20],[21]],"id":"BWA-2648","properties":{"adm1_code":"BWA-2648","iso_3166_2":"BW-SE","name":"South-East","admin":"Botswana","adm0_a3":"BWA","type_en":"District"}},{"type":"Polygon","arcs":[[22,23,24,25,26,-19]],"id":"BWA-2649","properties":{"adm1_code":"BWA-2649","iso_3166_2":"BW-SO","name":"Southern","admin":"Botswana","adm0_a3":"BWA","type_en":"District"}},{"type":"Polygon","arcs":[[27,28,-24,29]],"id":"BWA-2625","properties":{"adm1_code":"BWA-2625","iso_3166_2":"BW-KG","name":"Kgalagadi","admin":"Botswana","adm0_a3":"BWA","type_en":"District"}},{"type":"Polygon","arcs":[[-2,-9,30,-28,31]],"id":"BWA-1191","properties":{"adm1_code":"BWA-1191","iso_3166_2":"BW-GH","name":"Ghanzi","admin":"Botswana","adm0_a3":"BWA","type_en":"District"}},{"type":"Polygon","arcs":[[-8,-17,32,-20,-27,33,-25,-29,-31]],"id":"BWA-2647","properties":{"adm1_code":"BWA-2647","iso_3166_2":"BW-KW","name":"Kweneng","admin":"Botswana","adm0_a3":"BWA","type_en":"District"}},{"type":"Polygon","arcs":[[-16,-21,-33]],"id":"BWA-5501","properties":{"adm1_code":"BWA-5501","iso_3166_2":"BW-GA","name":"Gaborone","admin":"Botswana","adm0_a3":"BWA","type_en":"City"}},{"type":"Polygon","arcs":[[-26,-34]],"id":"BWA-5506","properties":{"adm1_code":"BWA-5506","iso_3166_2":"BW-JW","name":"Jwaneng","admin":"Botswana","adm0_a3":"BWA","type_en":"Town"}},{"type":"Polygon","arcs":[[-13]],"id":"BWA-5502","properties":{"adm1_code":"BWA-5502","iso_3166_2":"BW-FR","name":"Francistown","admin":"Botswana","adm0_a3":"BWA","type_en":"City"}},{"type":"Polygon","arcs":[[-22]],"id":"BWA-5503","properties":{"adm1_code":"BWA-5503","iso_3166_2":"BW-LO","name":"Lobatse","admin":"Botswana","adm0_a3":"BWA","type_en":"Town"}},{"type":"Polygon","arcs":[[-10]],"id":"BWA-5504","properties":{"adm1_code":"BWA-5504","iso_3166_2":"BW-SP","name":"Selebi-Phikwe","admin":"Botswana","adm0_a3":"BWA","type_en":"Town"}},{"type":"Polygon","arcs":[[-11]],"id":"BWA-5505","properties":{"adm1_code":"BWA-5505","iso_3166_2":"BW-ST","name":"Sowa","admin":"Botswana","adm0_a3":"BWA","type_en":"Township"}}]}},"arcs":[[[63887,86627],[-10412,0],[0,-10932],[1828,-777],[0,-2747],[-194,-289],[-6813,-542],[-1357,-18],[-1329,1662],[-1024,488],[-1413,-542],[-332,-578],[-1219,-181],[28,-7499]],[[41650,64672],[-30961,0]],[[10689,64672],[-27,7120],[0,5222],[-28,7716],[0,9378],[194,0],[5151,217],[6120,1157],[9942,1897],[2907,253],[610,-127],[498,-1210],[1523,-1301],[831,-2530],[720,18],[4376,3813],[830,379],[526,615],[1191,36],[748,831],[609,-72],[886,-1139],[776,181],[1578,1626],[997,615],[1468,433],[1052,-307],[1053,506],[1135,-126],[-360,-1518],[748,-1500],[969,-777],[1274,-2855],[1717,-1825],[997,-705],[581,-2024],[1330,-1174],[276,-868]],[[63887,86627],[-110,-1337],[830,-1337],[1025,-2819],[692,-651],[1053,-144],[194,-867],[775,-308],[499,-632],[1440,-705],[304,-596],[886,-343],[554,-543],[886,-108],[1191,-596],[1080,-109],[886,-686],[1136,-416],[554,-1355],[166,-1283],[-166,-1590]],[[77762,70202],[55,-723],[-609,-2331],[138,-1879],[831,-1320],[831,-2096],[249,-1012],[886,-1319],[831,-379],[1662,-235],[1440,72],[1412,-379]],[[85488,58601],[443,-271],[2686,-217],[1911,-687],[969,253],[803,-162],[2465,-1157],[1911,-452],[-194,-2023],[526,-759],[1800,-235],[1191,-1247],[-1385,36],[-554,-343],[-1301,-73],[-942,-975],[83,-777],[-581,-814],[-3074,-1192],[-1080,-235],[-1966,0],[-1523,-958],[-360,-957],[-1219,-850],[-277,-994],[-914,-415],[111,-705],[-554,-560],[-1329,-578],[-775,-669],[-970,-253],[-609,-1590],[-2132,-325],[-776,-795],[-1606,-687],[-1301,-1319],[-443,-1121]],[[74522,34495],[-776,-234],[-1855,-1952],[-7422,4174]],[[64469,36483],[-1938,2385],[-1164,434],[-3101,3939]],[[58266,43241],[-16616,21431]],[[83909,53740],[416,379],[-803,-54],[387,-325]],[[66324,69515],[56,-398],[554,-36],[27,416],[-637,18]],[[77762,70202],[775,253],[2686,0],[1136,-398],[-167,-1409],[277,-868],[-332,-1644],[-28,-2458],[1274,-1174],[970,-1247],[1135,-2656]],[[80669,62305],[-55,759],[-803,-108],[858,-651]],[[74522,34495],[-997,-4047],[-222,-1446],[-1440,-741],[-1966,-1572],[-637,-1228],[-720,-687],[-831,126],[-1689,-433]],[[66020,24467],[-1413,1120]],[[64607,25587],[-886,578]],[[63721,26165],[-692,831],[748,2801],[692,6686]],[[66020,24467],[-3185,-958],[83,-1518],[-443,-1427],[-1495,-3217],[-443,-1680]],[[60537,15667],[-1191,668],[1246,3994],[-637,415],[388,1392],[554,1156]],[[60897,23292],[1578,1590]],[[62475,24882],[111,-686],[1191,-235],[830,1626]],[[60897,18739],[-194,-470],[332,-91],[55,452],[-193,109]],[[60537,15667],[-693,-1717],[-2160,-1373],[-2215,-217],[-1357,289],[-1523,-723],[-1163,-289],[-1440,72],[-1745,723]],[[48241,12432],[-138,940],[-942,271],[-1579,1608],[-166,5222],[-304,578],[-1246,1211],[-499,181],[-10219,-54],[-387,307],[55,9035]],[[32816,31731],[16920,-5060]],[[49736,26671],[-27,-2186],[1938,90],[-55,1536]],[[51592,26111],[6951,-2096],[1274,-651],[1080,-72]],[[0,39320],[32844,-36]],[[32844,39284],[-139,-940],[-914,-307],[-27,-1463],[803,-127],[194,-795],[55,-3921]],[[48241,12432],[-1191,-18],[-969,398],[-748,813],[-1024,253],[-1108,-289],[-1108,253],[-1938,1752],[-582,163],[-2437,1897],[-997,-90],[-1080,289],[-1024,-181],[-1025,-506],[-692,163],[-1745,-1861],[-415,-2259],[-637,-759],[221,-777],[-609,-705],[111,-1030],[-610,-397],[-443,-994],[-803,-1048],[-1246,-217],[-914,-994],[-914,-271],[-637,-686],[-553,-1265],[-942,-1084],[-1302,-506],[-1024,0],[-776,-434],[56,-904],[-914,-759],[-1994,91],[-1274,253],[-2741,-452],[-2908,651],[-1689,-922],[-582,795],[-305,1446],[222,741],[-277,777],[194,1319],[1384,1662],[942,1590],[-388,651],[-110,1951],[-1607,3090],[222,524],[-803,1771],[-499,235],[-1052,2349],[-831,1482],[-1384,1066],[-1247,542],[-1467,1482],[0,9740],[-28,6107]],[[58266,43241],[-2105,-4029],[-23317,72]],[[0,39320],[0,8457],[0,5909],[10606,0],[139,397],[-56,10589]],[[63721,26165],[-1246,-1283]],[[51592,26111],[-1856,560]]],"bbox":[19.978947520205338,-26.88965077675205,29.351338490710248,-17.782196082857865],"transform":{"scale":[0.00009372484695351864,0.00009107545769351878],"translate":[19.978947520205338,-26.88965077675205]}}