{"type":"Topology","objects":{"a1":{"type":"GeometryCollection","geometries":[{"type":"Polygon","arcs":[[0,1,2]],"id":"CAF-812","properties":{"adm1_code":"CAF-812","iso_3166_2":"CF-VK","name":"Vakaga","admin":"Central African Republic","adm0_a3":"CAF","type_en":"Prefecture"}},{"type":"Polygon","arcs":[[-1,3,4,5,6,7,8]],"id":"CAF-866","properties":{"adm1_code":"CAF-866","iso_3166_2":"CF-HK","name":"Haute-Kotto","admin":"Central African Republic","adm0_a3":"CAF","type_en":"Prefecture"}},{"type":"Polygon","arcs":[[-5,9,10]],"id":"CAF-867","properties":{"adm1_code":"CAF-867","iso_3166_2":"CF-HM","name":"Haut-Mbomou","admin":"Central African Republic","adm0_a3":"CAF","type_en":"Prefecture"}},{"type":"Polygon","arcs":[[11,12,13,14,15]],"id":"CAF-808","properties":{"adm1_code":"CAF-808","iso_3166_2":"CF-KG","name":"Kémo","admin":"Central African Republic","adm0_a3":"CAF","type_en":"Prefecture"}},{"type":"Polygon","arcs":[[16,-16,17,18,-8,19]],"id":"CAF-809","properties":{"adm1_code":"CAF-809","iso_3166_2":"CF-UK","name":"Ouaka","admin":"Central African Republic","adm0_a3":"CAF","type_en":"Prefecture"}},{"type":"Polygon","arcs":[[20,-20,-7,21]],"id":"CAF-794","properties":{"adm1_code":"CAF-794","iso_3166_2":"CF-BK","name":"Basse-Kotto","admin":"Central African Republic","adm0_a3":"CAF","type_en":"Prefecture"}},{"type":"Polygon","arcs":[[-22,-6,-11,22]],"id":"CAF-868","properties":{"adm1_code":"CAF-868","iso_3166_2":"CF-MB","name":"Mbomou","admin":"Central African Republic","adm0_a3":"CAF","type_en":"Prefecture"}},{"type":"Polygon","arcs":[[23,24,25,26,27,28,-13,29,30]],"id":"CAF-4856","properties":{"adm1_code":"CAF-4856","iso_3166_2":"CF-MP","name":"Ombella-M'Poko","admin":"Central African Republic","adm0_a3":"CAF","type_en":"Prefecture"}},{"type":"Polygon","arcs":[[31,-31]],"id":"CAF-1460","properties":{"adm1_code":"CAF-1460","iso_3166_2":"CF-BGF","name":"Bangui","admin":"Central African Republic","adm0_a3":"CAF","type_en":"Autonomous Commune"}},{"type":"Polygon","arcs":[[32,33,-25,34]],"id":"CAF-795","properties":{"adm1_code":"CAF-795","iso_3166_2":"CF-LB","name":"Lobaye","admin":"Central African Republic","adm0_a3":"CAF","type_en":"Prefecture"}},{"type":"Polygon","arcs":[[-2,-9,-19,35,36,37]],"id":"CAF-806","properties":{"adm1_code":"CAF-806","iso_3166_2":"CF-BB","name":"Bamingui-Bangoran","admin":"Central African Republic","adm0_a3":"CAF","type_en":"Prefecture"}},{"type":"Polygon","arcs":[[-14,-29,38,39,-37,40]],"id":"CAF-810","properties":{"adm1_code":"CAF-810","iso_3166_2":"CF-AC","name":"Ouham","admin":"Central African Republic","adm0_a3":"CAF","type_en":"Prefecture"}},{"type":"Polygon","arcs":[[-28,41,42,-39]],"id":"CAF-805","properties":{"adm1_code":"CAF-805","iso_3166_2":"CF-OP","name":"Ouham-Pendé","admin":"Central African Republic","adm0_a3":"CAF","type_en":"Prefecture"}},{"type":"Polygon","arcs":[[43,44,-33]],"id":"CAF-802","properties":{"adm1_code":"CAF-802","iso_3166_2":"CF-SE","name":"Sangha-Mbaéré","admin":"Central African Republic","adm0_a3":"CAF","type_en":"Economic Prefecture"}},{"type":"Polygon","arcs":[[-27,45,46,-42]],"id":"CAF-804","properties":{"adm1_code":"CAF-804","iso_3166_2":"CF-NM","name":"Nana-Mambéré","admin":"Central African Republic","adm0_a3":"CAF","type_en":"Prefecture"}},{"type":"Polygon","arcs":[[-26,-34,-45,47,-46]],"id":"CAF-801","properties":{"adm1_code":"CAF-801","iso_3166_2":"CF-HS","name":"Mambéré-Kadéï","admin":"Central African Republic","adm0_a3":"CAF","type_en":"Prefecture"}},{"type":"Polygon","arcs":[[-15,-41,-36,-18]],"id":"CAF-807","properties":{"adm1_code":"CAF-807","iso_3166_2":"CF-KB","name":"Nana-Grébizi","admin":"Central African Republic","adm0_a3":"CAF","type_en":"Economic Prefecture"}}]}},"arcs":[[[69492,78914],[-338,976],[-538,-807],[-159,-1239],[-318,-695],[-796,-357],[-757,-1107],[-79,-977],[-1990,-807],[-1274,-338],[-915,-1052],[-1055,0]],[[61273,72511],[-239,920],[-1134,376],[-736,1108],[-219,1896],[-697,1183],[-1035,1183],[-517,1577],[-179,1089],[-1174,2047],[-737,225],[-199,1765],[-1054,-826],[-796,-1240],[-1135,-356],[-855,-1146],[-796,-807],[-577,432]],[[49194,81937],[1393,2628],[159,1089],[577,338],[298,864],[498,432],[458,1014],[915,-38],[438,826],[398,1352],[458,639],[855,150],[478,732],[259,1314],[-359,1822],[140,732],[1074,357],[1075,863],[338,1070],[995,-244],[577,1146],[856,432],[736,544],[1990,-413],[1075,-526],[20,-319],[1094,-2328],[796,-826],[1393,-1990],[2548,-6084],[398,-2478],[-538,-1746],[319,-1352],[-100,-1615],[-637,-1051],[-676,-357]],[[69492,78914],[-199,-1540],[119,-507],[896,0],[-120,-1032],[-537,-1146],[179,-826],[816,244],[836,-338],[358,207],[1174,-75],[1473,-376],[438,94],[557,-1352],[-378,-431],[-557,-1840],[457,-845],[637,-338]],[[75641,68813],[1095,-1164],[497,-1052],[-139,-1615],[358,-2459],[-20,-939],[498,-1502],[238,-207],[-457,-1239],[-140,-1389],[339,-563],[-160,-2253],[-1014,-357],[-657,-488],[60,-1033],[-518,-1033]],[[75621,51520],[-6209,-5144],[-418,-977],[-636,-131],[-180,-1145],[-378,-94],[-2587,1014],[-736,995],[-935,-38],[-975,-263],[-498,-1351],[-716,-902],[-776,-112],[-498,225],[-975,-901],[-219,-864],[-199,-2215],[259,-751],[-1413,-1916]],[[57532,36950],[-1194,733],[-637,112]],[[55701,37795],[60,564],[776,882],[656,-620],[339,695],[278,1502],[0,1108],[-358,1239],[-537,413],[-239,1277],[-358,695],[497,1521],[-219,1502],[100,713],[-637,357],[-776,2103],[338,1239],[-358,1389],[-199,1990],[20,1089],[-398,395],[-637,-19],[-278,526],[99,1220],[-298,976],[-1075,733],[-876,1089]],[[51621,62373],[-199,1539],[359,1671],[2049,376],[-199,1652],[1015,1070],[478,-206],[298,507],[876,525],[637,-676],[438,-807],[835,394],[-199,827],[259,863],[-298,1352],[358,1202],[537,131],[597,-338],[1493,-225],[318,281]],[[75641,68813],[517,-263],[757,300],[636,-732],[777,113],[1671,-582],[657,-902],[259,-1032],[1054,-1277],[975,-225],[359,-995],[119,-1352],[-876,-902],[199,-901],[956,-957],[338,-939],[1791,-1408],[1473,-789],[119,-432],[1294,-1145],[437,-94],[418,-1746],[1194,-1408],[1095,-995],[-577,-1540],[-120,-1258],[677,-845],[577,-375],[358,-1277],[219,-1427],[577,-375],[776,0],[776,-601],[100,-714],[1254,-413],[358,-788],[736,-245],[358,-544],[697,-1934],[-319,-1258],[140,-1333],[477,-1352],[657,-694],[418,-845],[-756,338],[-1732,1145],[-676,-113],[-518,-450],[-716,-1296],[-816,582],[-1254,-94],[-597,-394],[-437,150],[-558,1033],[-756,19],[-1234,1239],[-796,-789],[-418,432],[-756,-131],[-1074,488],[-1175,1314],[-1651,-732],[-438,-1427],[318,-507],[-318,-1239],[-617,-263],[-756,113],[-338,-751],[-976,431],[-1293,-807],[-955,38],[-418,1051],[-995,976]],[[77293,32688],[955,1934],[677,-131],[736,544],[1353,1559],[418,845],[199,2778],[617,470],[418,1070],[-617,770],[-438,1070],[-1373,1633],[975,395],[617,1295],[-1313,1540],[-677,56],[-756,-882],[-776,-244],[-538,638],[-2149,3492]],[[41850,32219],[-1054,864],[-2388,-75],[-259,-489],[-1055,-863],[-318,-695],[-677,-207]],[[36099,30754],[-119,1183],[-717,1446],[-59,545],[258,1408],[-338,1089],[-716,957],[-259,1390],[-1274,375],[-398,714]],[[32477,39861],[-159,1614],[100,1465],[935,732],[1234,1634],[-339,375],[0,1164],[-815,1352],[-60,601]],[[33373,48798],[1731,338],[458,-75],[278,-657],[597,-451],[1175,188],[1751,525],[1612,-300]],[[40975,48366],[79,-638],[896,-1108],[-239,-2310],[-378,-844],[-557,-151],[-916,-1464],[438,-1746],[-20,-1070],[-716,-864],[-617,-244],[338,-808],[3244,-37],[537,-244],[-398,-1352],[-219,-2441],[-597,-826]],[[46447,26117],[60,864],[-955,1952],[-657,282],[-637,920],[-1273,1108],[-876,319],[-259,657]],[[40975,48366],[1035,-75],[-140,1277],[478,1258],[836,1145],[636,1239],[319,2253]],[[44139,55463],[657,-732],[1691,-75],[1314,1108],[497,1389],[736,-169],[637,451],[1095,2140],[437,638],[-119,920],[537,1240]],[[55701,37795],[-219,-676],[-557,-206],[-338,432],[-279,1370],[-697,1108],[-1214,-882],[-776,37],[-298,507],[-1035,-1896],[219,-1314],[-219,-451],[0,-1652],[-398,-1089],[219,-1390],[-279,-694],[40,-1390],[-1552,-1089],[-1174,-1859],[-697,-544]],[[58567,22737],[-1294,132],[-1114,619],[-677,-18],[-736,-564],[-1393,470],[-438,507],[-518,-357],[-577,131],[-557,902],[-1632,732],[-617,-301],[-1452,-187],[-1115,1314]],[[57532,36950],[20,-1276],[-219,-2347],[-597,-676],[258,-826],[-378,-1108],[-298,-2629],[995,-394],[975,-1652],[995,169],[20,-714],[-498,-1145],[-238,-1615]],[[77293,32688],[-637,244],[-219,-1258],[-537,-112],[-1035,-1089],[-557,150],[-1095,-1183],[-995,38],[-617,-470],[-1313,-619],[-896,-751],[-457,-826],[-956,544],[-736,1183],[-537,-300],[-617,450],[-259,864],[-657,-38],[-338,-1276],[-517,150],[-756,-2666],[-777,-470],[160,-995],[-538,-957],[60,-470],[-716,-1032],[-1135,-207],[-736,244],[-617,601],[-696,300]],[[31721,23620],[637,-1559],[199,-2140],[-259,-1314]],[[32298,18607],[-935,600],[-518,733],[-636,1314],[20,1427],[-279,882],[-876,676],[-617,1052],[-358,-132],[-875,413],[-796,-131],[-617,770],[-856,-263],[-517,263],[-339,657],[-239,1540],[-358,769],[-1094,920],[-776,1071],[-757,769],[-636,-131]],[[20239,31806],[-319,676],[936,939],[-657,1389],[-776,845],[-1990,19],[-1115,-1014]],[[16318,34660],[-219,1577],[120,1765]],[[16219,38002],[656,601],[1155,1821],[1751,901]],[[19781,41325],[318,-1521],[617,-150],[3702,94],[1771,1371],[617,657],[796,-526],[219,-582],[1751,-56],[179,-545],[915,-112],[-199,-601],[378,-1371],[1294,901],[338,977]],[[36099,30754],[-736,-1915],[-1393,-2328],[-398,-1446],[-438,-638],[-955,-75]],[[32179,24352],[-259,770],[-537,-582],[338,-920]],[[32179,24352],[-458,-732]],[[23124,16504],[-597,1352],[-895,751],[-1035,431],[-1154,808],[-796,1934],[-717,1126]],[[17930,22906],[358,1089],[498,845],[398,75],[776,-863],[-139,1558],[-378,375],[-617,1690],[-179,864],[0,1483],[1432,1108],[160,676]],[[32298,18607],[-139,-1803],[259,-2647],[-339,0],[-537,1314],[-637,94],[-1393,-300],[-517,-1108],[-756,976],[-757,-281],[-457,281],[-518,-300],[-358,826],[-1393,206],[-597,244],[-517,639],[-518,-244]],[[44139,55463],[-1075,1146],[-716,544],[-279,1220],[-935,1071],[-239,1032],[-1194,545],[119,826],[-716,939],[-1094,187],[-180,2160],[180,2009],[-140,563],[-796,1220],[-79,751],[-538,695],[-676,2028]],[[35781,72399],[59,563]],[[35840,72962],[398,488],[-577,808],[-915,582],[-279,1164],[1592,1333],[518,-150],[716,300],[816,-319],[2547,225],[796,357],[975,131],[1055,864],[756,-207],[1473,-37],[577,244],[597,976],[-139,526],[2448,1690]],[[19781,41325],[-358,1127],[-179,1708],[398,2253],[1054,1221],[-437,863],[-936,-375],[-537,507],[-657,1314],[-298,2178],[0,807],[-339,1258],[617,1221],[-40,1070],[359,2441],[219,300],[-120,1390]],[[18527,60608],[498,957],[1711,507],[995,1521],[1174,676],[617,169],[279,469],[1353,676],[1055,-263],[617,57],[1333,601],[796,18],[2547,113],[637,188],[219,1032],[418,789],[1074,789],[816,1783],[776,1296],[398,976]],[[35781,72399],[-80,-2122],[-278,-1558],[298,-357],[-20,-1840],[-557,-3342],[159,-244],[-1612,-1221],[-458,-863],[816,-3492],[-915,-1578],[139,-582],[-637,-1389],[319,-638],[418,-1671],[796,-676],[20,-620],[-518,-432],[-298,-976]],[[16219,38002],[-597,1408],[-916,1070],[-517,1277],[-418,113],[-697,-1240],[-796,19],[-1353,1427],[-258,2610],[-637,1427],[497,826],[-159,789],[-1612,-1240],[-895,-112],[-717,1427],[-219,1727],[-796,1202],[-179,826],[-1273,-751],[-657,-38]],[[4020,50769],[915,1183],[1095,4187],[477,1258],[1413,1389],[-99,545],[477,976],[1433,-75],[398,-544],[577,-113],[995,338],[1075,1183],[1095,244],[577,544],[676,132],[279,1408],[1074,845],[20,-864],[418,-413],[159,-1014],[637,-469],[557,-995],[259,94]],[[23124,16504],[-617,-732],[-577,75],[-338,-413],[-1174,-263],[-717,-376],[-875,301],[-319,-432],[-637,225],[-696,-150],[-537,-732],[-438,-2704],[-358,-807],[199,-1014],[-339,-1258],[279,-1108],[-418,-1521],[-1771,-5595],[-498,1464],[-318,1672],[159,863],[-378,1333],[-20,939],[259,883],[-518,1314],[-338,-19],[-517,1371],[-995,131],[-4000,6327]],[[6627,16278],[1492,1352],[478,-450],[458,281],[179,676],[995,920],[1194,714],[1253,244],[1214,-507],[677,-582],[577,-75],[438,-601],[1194,1859],[80,1464],[616,1502],[458,-169]],[[16318,34660],[-3582,-2197],[-458,-150],[-537,507],[-736,-432],[-358,432],[-179,1370],[-458,-37],[-299,-789],[199,-1614],[-1034,56],[-438,319],[-597,-526],[-2169,-75],[-916,-657],[-458,657],[-875,-75],[-1413,207]],[[2010,31656],[20,1483],[-299,939],[-776,638],[577,1502],[160,1314],[-199,1108],[298,1315],[-119,1445],[-239,657],[-796,-150],[-637,1258],[259,676],[796,1258],[318,0],[1075,789],[497,901],[179,1033],[896,2947]],[[6627,16278],[-697,1089],[-676,1446],[-438,1596],[497,-113],[776,414],[-696,694],[-219,1746],[-557,1578],[-1692,1614],[-477,883],[-199,1596],[79,582],[-318,2253]]],"bbox":[14.39859842394793,2.236430389229028,27.4410422419449,11.001573811650502],"transform":{"scale":[0.00013042574243739405,0.00008765231074732221],"translate":[14.39859842394793,2.236430389229028]}}