{"type":"Topology","objects":{"a1":{"type":"GeometryCollection","geometries":[{"type":"Polygon","arcs":[[0,1,2,3,4]],"id":"CHE-165","properties":{"adm1_code":"CHE-165","iso_3166_2":"CH-VS","name":"Valais","admin":"Switzerland","adm0_a3":"CHE","type_en":"Canton"}},{"type":"Polygon","arcs":[[-4,5,6,7]],"id":"CHE-168","properties":{"adm1_code":"CHE-168","iso_3166_2":"CH-TI","name":"Ticino","admin":"Switzerland","adm0_a3":"CHE","type_en":"Canton"}},{"type":"Polygon","arcs":[[-7,8,9,10,11]],"id":"CHE-170","properties":{"adm1_code":"CHE-170","iso_3166_2":"CH-GR","name":"Graubünden","admin":"Switzerland","adm0_a3":"CHE","type_en":"Canton"}},{"type":"Polygon","arcs":[[12,13,14]],"id":"CHE-171","properties":{"adm1_code":"CHE-171","iso_3166_2":"CH-SH","name":"Schaffhausen","admin":"Switzerland","adm0_a3":"CHE","type_en":"Canton"}},{"type":"Polygon","arcs":[[15,16,-14,17]],"id":"CHE-174","properties":{"adm1_code":"CHE-174","iso_3166_2":"CH-TG","name":"Thurgau","admin":"Switzerland","adm0_a3":"CHE","type_en":"Canton"}},{"type":"Polygon","arcs":[[18,-15,-17,19,20,21,22]],"id":"CHE-176","properties":{"adm1_code":"CHE-176","iso_3166_2":"CH-ZH","name":"Zürich","admin":"Switzerland","adm0_a3":"CHE","type_en":"Canton"}},{"type":"Polygon","arcs":[[23,-23,24,25,26,27,28]],"id":"CHE-162","properties":{"adm1_code":"CHE-162","iso_3166_2":"CH-AG","name":"Aargau","admin":"Switzerland","adm0_a3":"CHE","type_en":"Canton"}},{"type":"Polygon","arcs":[[29,30]],"id":"CHE-3425","properties":{"adm1_code":"CHE-3425","iso_3166_2":"CH-BS","name":"Basel-Stadt","admin":"Switzerland","adm0_a3":"CHE","type_en":"Canton"}},{"type":"MultiPolygon","arcs":[[[31,-29,32,33,34,35,-30]],[[36,37,38]]],"id":"CHE-3423","properties":{"adm1_code":"CHE-3423","iso_3166_2":"CH-BL","name":"Basel-Landschaft","admin":"Switzerland","adm0_a3":"CHE","type_en":"Canton"}},{"type":"Polygon","arcs":[[-11,39,40,-20,-16,41],[42,43]],"id":"CHE-167","properties":{"adm1_code":"CHE-167","iso_3166_2":"CH-SG","name":"Sankt Gallen","admin":"Switzerland","adm0_a3":"CHE","type_en":"Canton"}},{"type":"MultiPolygon","arcs":[[[-35,-37,44]],[[-28,45,46,-33]]],"id":"CHE-3426","properties":{"adm1_code":"CHE-3426","iso_3166_2":"CH-SO","name":"Solothurn","admin":"Switzerland","adm0_a3":"CHE","type_en":"Canton"}},{"type":"Polygon","arcs":[[-34,-47,47,48,49,-38]],"id":"CHE-160","properties":{"adm1_code":"CHE-160","iso_3166_2":"CH-JU","name":"Jura","admin":"Switzerland","adm0_a3":"CHE","type_en":"Canton"}},{"type":"Polygon","arcs":[[50,51]],"id":"CHE-159","properties":{"adm1_code":"CHE-159","iso_3166_2":"CH-GE","name":"Genève","admin":"Switzerland","adm0_a3":"CHE","type_en":"Canton"}},{"type":"MultiPolygon","arcs":[[[-1,52,-52,53,54,55,56,57,58]],[[59,60,61]]],"id":"CHE-3422","properties":{"adm1_code":"CHE-3422","iso_3166_2":"CH-VD","name":"Vaud","admin":"Switzerland","adm0_a3":"CHE","type_en":"Canton"}},{"type":"Polygon","arcs":[[-49,62,-62,63,-57,64,-55,65]],"id":"CHE-161","properties":{"adm1_code":"CHE-161","iso_3166_2":"CH-NE","name":"Neuchâtel","admin":"Switzerland","adm0_a3":"CHE","type_en":"Canton"}},{"type":"Polygon","arcs":[[-2,-59,66,-60,-63,-48,-46,-27,67,68,69,70,71]],"id":"CHE-3424","properties":{"adm1_code":"CHE-3424","iso_3166_2":"CH-BE","name":"Bern","admin":"Switzerland","adm0_a3":"CHE","type_en":"Canton"}},{"type":"Polygon","arcs":[[-26,72,73,74,75,-68]],"id":"CHE-163","properties":{"adm1_code":"CHE-163","iso_3166_2":"CH-LU","name":"Lucerne","admin":"Switzerland","adm0_a3":"CHE","type_en":"Canton"}},{"type":"Polygon","arcs":[[-22,76,-73,-25]],"id":"CHE-177","properties":{"adm1_code":"CHE-177","iso_3166_2":"CH-ZG","name":"Zug","admin":"Switzerland","adm0_a3":"CHE","type_en":"Canton"}},{"type":"Polygon","arcs":[[-3,-72,77,78,79,80,-9,-6]],"id":"CHE-175","properties":{"adm1_code":"CHE-175","iso_3166_2":"CH-UR","name":"Uri","admin":"Switzerland","adm0_a3":"CHE","type_en":"Canton"}},{"type":"Polygon","arcs":[[-21,-41,81,-80,82,-74,-77]],"id":"CHE-173","properties":{"adm1_code":"CHE-173","iso_3166_2":"CH-SZ","name":"Schwyz","admin":"Switzerland","adm0_a3":"CHE","type_en":"Canton"}},{"type":"Polygon","arcs":[[-10,-81,-82,-40]],"id":"CHE-169","properties":{"adm1_code":"CHE-169","iso_3166_2":"CH-GL","name":"Glarus","admin":"Switzerland","adm0_a3":"CHE","type_en":"Canton"}},{"type":"Polygon","arcs":[[-70,83,-75,-83,-79,84]],"id":"CHE-164","properties":{"adm1_code":"CHE-164","iso_3166_2":"CH-NW","name":"Nidwalden","admin":"Switzerland","adm0_a3":"CHE","type_en":"Canton"}},{"type":"MultiPolygon","arcs":[[[-58,-64,-61,-67]],[[-56,-65]]],"id":"CHE-3421","properties":{"adm1_code":"CHE-3421","iso_3166_2":"CH-FR","name":"Fribourg","admin":"Switzerland","adm0_a3":"CHE","type_en":"Canton"}},{"type":"MultiPolygon","arcs":[[[-69,-76,-84]],[[-71,-85,-78]]],"id":"CHE-3427","properties":{"adm1_code":"CHE-3427","iso_3166_2":"CH-OW","name":"Obwalden","admin":"Switzerland","adm0_a3":"CHE","type_en":"Canton"}},{"type":"Polygon","arcs":[[-43,85]],"id":"CHE-166","properties":{"adm1_code":"CHE-166","iso_3166_2":"CH-AR","name":"Appenzell Ausserrhoden","admin":"Switzerland","adm0_a3":"CHE","type_en":"Canton"}},{"type":"Polygon","arcs":[[-44,-86]],"id":"CHE-3473","properties":{"adm1_code":"CHE-3473","iso_3166_2":"CH-AI","name":"Appenzell Innerrhoden","admin":"Switzerland","adm0_a3":"CHE","type_en":"Canton"}}]}},"arcs":[[[18454,29485],[1442,-332],[4268,-10465],[3056,4069],[980,3073]],[[28200,25830],[3922,2326],[2018,-249],[2884,3571],[2191,-1163],[5421,4818],[808,2076],[4152,-1827],[3287,2242],[1557,4568]],[[54440,42192],[0,-3156],[1499,-3156]],[[55939,35880],[-2018,-4070]],[[53921,31810],[-4268,-7142],[-2537,-2409],[1153,-3322],[-461,-3489],[-2018,-2325],[-750,-4070],[-2999,-2990],[-3460,-581],[-3403,2824],[-3979,-3904],[-3979,-1329],[-3575,2243],[-3749,9966],[-1730,582],[1153,6810],[-1730,3821],[865,2990]],[[55939,35880],[1615,2741],[2884,-83]],[[60438,38538],[2422,-831],[3748,3156],[1846,-1993],[-519,-2907],[1845,-5897],[-923,-5897],[692,-3986],[1673,-2409]],[[71222,17774],[-3576,-6728],[0,-5232],[1269,-2658],[-1269,-3156],[-2076,415],[-865,5980],[-2249,1828],[1442,4235],[-2307,2077],[-2826,747],[-3921,6479],[346,9302],[-1269,747]],[[60438,38538],[57,5565],[2307,1993],[1961,4153]],[[64763,50249],[2883,166],[5306,5066]],[[72952,55481],[4902,-1329],[1557,4568],[-1211,4070]],[[78200,62790],[1211,-415],[1096,0],[6170,-2077],[58,-3820],[5882,-4651],[5364,7475],[2018,-2990],[-115,-3655],[-577,-5481],[-1269,-4153],[1961,-2492],[-173,-3903],[-3460,249],[-2307,3820],[-2076,-913],[-1442,-3821],[-173,-4402],[2422,-1578],[-922,-4319],[1499,-3322],[-2595,-2159],[-1788,6893],[-1442,748],[-4959,-3987],[-2538,0],[-2422,3904],[-288,6146],[-3922,-333],[173,-8886],[-980,-3904],[-1384,-2990]],[[58535,92773],[-2999,-913],[-1500,2574],[1615,3655],[2134,1910],[1672,-831],[4845,-5730]],[[64302,93438],[-1385,-416]],[[62917,93022],[-3344,1661],[-1038,-1910]],[[79872,85630],[-6574,-1993],[-5017,914],[-2192,-5814]],[[66089,78737],[-865,1412],[-57,5897],[-1211,1162],[-1039,5814]],[[64302,93438],[3633,332],[5709,-1412],[6113,-5814],[115,-914]],[[54728,88870],[2884,830],[577,-166],[346,3239]],[[66089,78737],[808,-3156],[-1096,-2492],[-3230,-2409]],[[62571,70680],[-2018,-2824]],[[60553,67856],[-2480,2658],[-3633,1412]],[[54440,71926],[-115,8306],[-1096,3903],[1499,4735]],[[39331,87291],[2018,2326],[2076,-1827],[3864,415],[2076,2409],[5363,-1744]],[[54440,71926],[-58,-5232]],[[54382,66694],[-1499,1578],[-1096,4817],[-1961,-1827],[-2479,1495],[-5537,-1495]],[[41810,71262],[-346,1827]],[[41464,73089],[1730,3488],[2826,2077],[-1672,3986]],[[44348,82640],[-2307,4402],[-2710,249]],[[37543,87375],[-2826,581]],[[34717,87956],[1442,1080],[1384,-1661]],[[37543,87375],[1788,-84]],[[44348,82640],[-577,-2491],[-2710,-2243],[-3403,249],[1327,4984],[-6113,-4485]],[[32872,78654],[-1154,1744]],[[31718,80398],[750,1910]],[[32468,82308],[577,1827],[922,582],[750,3239]],[[31776,81395],[-58,-997]],[[31718,80398],[-1095,913]],[[30623,81311],[1153,84]],[[72952,55481],[-58,3655],[-1787,1993],[461,4568],[-4325,2409]],[[67243,68106],[-1327,2574],[-3345,0]],[[79872,85630],[2134,-5398],[-2826,-7392],[-519,-1744],[-288,-1578],[231,-2077],[346,-1412],[-173,-1744],[-577,-1495]],[[78431,77408],[0,1993],[1153,166],[923,1412],[576,1246],[-1787,914],[-2480,-2575],[-4210,-831],[-865,-2159],[692,-4319],[2537,-914]],[[74970,72341],[2365,333],[1096,4734]],[[31776,81395],[692,913]],[[41464,73089],[-3056,1329],[-2307,-831],[2076,-4983],[-5305,-2824],[-1961,4651],[4613,5150]],[[35524,75581],[58,166],[-115,1163],[-2595,1744]],[[35524,75581],[-3748,-250],[-5190,-3322],[-1788,-166],[-1788,-2990],[-3172,-997]],[[19838,67856],[-288,167]],[[19550,68023],[2653,3903],[634,5897],[-1038,3239],[750,3156],[3748,-83],[2307,-3488],[2019,664]],[[5767,24668],[1442,-3489],[-3864,-5149],[-3345,-332],[0,4069],[2941,1744],[635,4319]],[[3576,25830],[2191,-1162]],[[18454,29485],[-3864,2574],[-2941,-332],[-4037,-2741],[-1845,-4318]],[[3576,25830],[-1327,4319],[1730,7060],[-115,1910],[6632,8389],[288,4568]],[[10784,52076],[1557,166],[4729,4236],[865,-4734]],[[17935,51744],[635,-2824],[2768,-166],[230,3322],[-1211,2741]],[[20357,54817],[750,996]],[[21107,55813],[2076,-4318],[-4325,-13123],[3748,-4568],[577,-2326],[5363,5648]],[[28546,37126],[-922,-8638],[576,-2658]],[[23645,59053],[922,-582]],[[24567,58471],[692,-3571],[-1211,-2326],[-2076,4319]],[[21972,56893],[1673,2160]],[[19838,67856],[635,-3820],[3575,1744],[923,-1412],[-1326,-5315]],[[21972,56893],[-865,-1080]],[[20357,54817],[-2422,-3073]],[[10784,52076],[0,4651],[4960,3904],[749,3156],[3057,4236]],[[28546,37126],[1673,1578],[1442,5232],[-1557,1578],[57,6728],[-2422,2658],[231,4817],[-3403,-1246]],[[41810,71262],[1038,-5233],[-288,-4069],[1730,-2243],[-1672,-3987],[-116,-3737],[2365,-3655],[1499,499]],[[46366,48837],[2538,-1495],[4671,1578]],[[53575,48920],[519,-748]],[[54094,48172],[1211,-249]],[[55305,47923],[-865,-5731]],[[54382,66694],[808,-1412]],[[55190,65282],[-1211,-2160],[1730,-3903]],[[55709,59219],[-4383,249],[-923,-1329]],[[50403,58139],[-3345,-3738],[-692,-5564]],[[60553,67856],[-1038,-3239],[-4325,665]],[[55305,47923],[577,4319]],[[55882,52242],[-289,2326],[2250,4402]],[[57843,58970],[1038,-1495],[7151,-1828]],[[66032,55647],[-1269,-5398]],[[67243,68106],[-577,-4485],[-1499,-2741],[865,-5233]],[[57843,58970],[-2134,249]],[[53575,48920],[-923,1412],[-461,7558],[-1788,249]],[[55882,52242],[-2480,581],[692,-4651]],[[78431,77408],[-3057,1744],[-1038,-4319],[634,-2492]]],"bbox":[5.957995976957648,45.82022559313211,10.45861241086942,47.80168122223378],"transform":{"scale":[0.000045006614405261784,0.00001981475443856113],"translate":[5.957995976957648,45.82022559313211]}}