{"type":"Topology","objects":{"a1":{"type":"GeometryCollection","geometries":[{"type":"MultiPolygon","arcs":[[[0,1,2]],[[3]]],"id":"COL-1406","properties":{"adm1_code":"COL-1406","iso_3166_2":"CO-NAR","name":"Nariño","admin":"Colombia","adm0_a3":"COL","type_en":"Department"}},{"type":"Polygon","arcs":[[-2,4,5,6,7]],"id":"COL-1407","properties":{"adm1_code":"COL-1407","iso_3166_2":"CO-PUT","name":"Putumayo","admin":"Colombia","adm0_a3":"COL","type_en":"Intendancy"}},{"type":"MultiPolygon","arcs":[[[8,9,10,11]],[[12,13]],[[14]]],"id":"COL-1415","properties":{"adm1_code":"COL-1415","iso_3166_2":"CO-CHO","name":"Chocó","admin":"Colombia","adm0_a3":"COL","type_en":"Department"}},{"type":"Polygon","arcs":[[15,16,17,18]],"id":"COL-1424","properties":{"adm1_code":"COL-1424","iso_3166_2":"CO-GUA","name":"Guainía","admin":"Colombia","adm0_a3":"COL","type_en":"Commissiary"}},{"type":"Polygon","arcs":[[19,20,21,22,-16]],"id":"COL-1426","properties":{"adm1_code":"COL-1426","iso_3166_2":"CO-VAU","name":"Vaupés","admin":"Colombia","adm0_a3":"COL","type_en":"Commissiary"}},{"type":"Polygon","arcs":[[-7,23,-21,24]],"id":"COL-1283","properties":{"adm1_code":"COL-1283","iso_3166_2":"CO-AMA","name":"Amazonas","admin":"Colombia","adm0_a3":"COL","type_en":"Commissiary"}},{"type":"Polygon","arcs":[[25,26,27]],"id":"COL-1318","properties":{"adm1_code":"COL-1318","iso_3166_2":"CO-LAG","name":"La Guajira","admin":"Colombia","adm0_a3":"COL","type_en":"Department"}},{"type":"Polygon","arcs":[[28,29,30,31,32,-26]],"id":"COL-1414","properties":{"adm1_code":"COL-1414","iso_3166_2":"CO-CES","name":"Cesar","admin":"Colombia","adm0_a3":"COL","type_en":"Department"}},{"type":"Polygon","arcs":[[33,34,35,-30]],"id":"COL-1421","properties":{"adm1_code":"COL-1421","iso_3166_2":"CO-NSA","name":"Norte de Santander","admin":"Colombia","adm0_a3":"COL","type_en":"Department"}},{"type":"Polygon","arcs":[[36,37,38,39]],"id":"COL-1420","properties":{"adm1_code":"COL-1420","iso_3166_2":"CO-ARA","name":"Arauca","admin":"Colombia","adm0_a3":"COL","type_en":"Intendancy"}},{"type":"Polygon","arcs":[[-35,40,-40,41,42,43,44,45]],"id":"COL-1315","properties":{"adm1_code":"COL-1315","iso_3166_2":"CO-BOY","name":"Boyacá","admin":"Colombia","adm0_a3":"COL","type_en":"Department"}},{"type":"Polygon","arcs":[[-18,46,47,48,-38,49]],"id":"COL-1427","properties":{"adm1_code":"COL-1427","iso_3166_2":"CO-VID","name":"Vichada","admin":"Colombia","adm0_a3":"COL","type_en":"Commissiary"}},{"type":"Polygon","arcs":[[-1,50,51,52,53,54,-5]],"id":"COL-1404","properties":{"adm1_code":"COL-1404","iso_3166_2":"CO-CAU","name":"Cauca","admin":"Colombia","adm0_a3":"COL","type_en":"Department"}},{"type":"Polygon","arcs":[[-11,55,56,57,-52,58,-14,59]],"id":"COL-1408","properties":{"adm1_code":"COL-1408","iso_3166_2":"CO-VAC","name":"Valle del Cauca","admin":"Colombia","adm0_a3":"COL","type_en":"Department"}},{"type":"Polygon","arcs":[[-9,60,61,62,63,-45,64,65]],"id":"COL-1314","properties":{"adm1_code":"COL-1314","iso_3166_2":"CO-ANT","name":"Antioquia","admin":"Colombia","adm0_a3":"COL","type_en":"Department"}},{"type":"Polygon","arcs":[[-62,66,67,68]],"id":"COL-1316","properties":{"adm1_code":"COL-1316","iso_3166_2":"CO-COR","name":"Córdoba","admin":"Colombia","adm0_a3":"COL","type_en":"Department"}},{"type":"Polygon","arcs":[[-68,69,70]],"id":"COL-1417","properties":{"adm1_code":"COL-1417","iso_3166_2":"CO-SUC","name":"Sucre","admin":"Colombia","adm0_a3":"COL","type_en":"Department"}},{"type":"Polygon","arcs":[[-32,71,-63,-69,-71,72,73,74]],"id":"COL-1413","properties":{"adm1_code":"COL-1413","iso_3166_2":"CO-BOL","name":"Bolívar","admin":"Colombia","adm0_a3":"COL","type_en":"Department"}},{"type":"Polygon","arcs":[[-74,75,76]],"id":"COL-1412","properties":{"adm1_code":"COL-1412","iso_3166_2":"CO-ATL","name":"Atlántico","admin":"Colombia","adm0_a3":"COL","type_en":"Department"}},{"type":"Polygon","arcs":[[-27,-33,-75,-77,77]],"id":"COL-1416","properties":{"adm1_code":"COL-1416","iso_3166_2":"CO-MAG","name":"Magdalena","admin":"Colombia","adm0_a3":"COL","type_en":"Department"}},{"type":"Polygon","arcs":[[78]],"id":"COL-1342","properties":{"adm1_code":"COL-1342","iso_3166_2":"CO-SAP","name":"San Andrés y Providencia","admin":"Colombia","adm0_a3":"COL","type_en":"Department"}},{"type":"Polygon","arcs":[[79]],"id":"COL+99?","properties":{"adm1_code":"COL+99?","iso_3166_2":"CO-X01~","name":null,"admin":"Colombia","adm0_a3":"COL","type_en":null}},{"type":"Polygon","arcs":[[-6,-55,80,81,82,-22,-24]],"id":"COL-1403","properties":{"adm1_code":"COL-1403","iso_3166_2":"CO-CAQ","name":"Caquetá","admin":"Colombia","adm0_a3":"COL","type_en":"Intendancy"}},{"type":"Polygon","arcs":[[-54,83,84,85,-81]],"id":"COL-1405","properties":{"adm1_code":"COL-1405","iso_3166_2":"CO-HUI","name":"Huila","admin":"Colombia","adm0_a3":"COL","type_en":"Department"}},{"type":"Polygon","arcs":[[-17,-23,-83,86,-47]],"id":"COL-1423","properties":{"adm1_code":"COL-1423","iso_3166_2":"CO-GUV","name":"Guaviare","admin":"Colombia","adm0_a3":"COL","type_en":"Commissiary"}},{"type":"Polygon","arcs":[[-44,87,88,89,-65]],"id":"COL-1397","properties":{"adm1_code":"COL-1397","iso_3166_2":"CO-CAL","name":"Caldas","admin":"Colombia","adm0_a3":"COL","type_en":"Department"}},{"type":"Polygon","arcs":[[-39,-49,90,-42]],"id":"COL-1422","properties":{"adm1_code":"COL-1422","iso_3166_2":"CO-CAS","name":"Casanare","admin":"Colombia","adm0_a3":"COL","type_en":"Intendancy"}},{"type":"Polygon","arcs":[[-48,-87,-82,-86,91,92,-91]],"id":"COL-1425","properties":{"adm1_code":"COL-1425","iso_3166_2":"CO-MET","name":"Meta","admin":"Colombia","adm0_a3":"COL","type_en":"Department"}},{"type":"Polygon","arcs":[[-92,93]],"id":"COL-1399","properties":{"adm1_code":"COL-1399","iso_3166_2":"CO-CUN","name":"Bogota","admin":"Colombia","adm0_a3":"COL","type_en":"Federal District"}},{"type":"Polygon","arcs":[[-31,-36,-46,-64,-72]],"id":"COL-1317","properties":{"adm1_code":"COL-1317","iso_3166_2":"CO-SAN","name":"Santander","admin":"Colombia","adm0_a3":"COL","type_en":"Department"}},{"type":"Polygon","arcs":[[-53,-58,94,95,-89,96,-84]],"id":"COL-1402","properties":{"adm1_code":"COL-1402","iso_3166_2":"CO-TOL","name":"Tolima","admin":"Colombia","adm0_a3":"COL","type_en":"Department"}},{"type":"Polygon","arcs":[[-57,97,-95]],"id":"COL-1400","properties":{"adm1_code":"COL-1400","iso_3166_2":"CO-QUI","name":"Quindío","admin":"Colombia","adm0_a3":"COL","type_en":"Department"}},{"type":"Polygon","arcs":[[-43,-93,-94,-85,-97,-88]],"id":"COL-1398","properties":{"adm1_code":"COL-1398","iso_3166_2":"CO-CUN","name":"Cundinamarca","admin":"Colombia","adm0_a3":"COL","type_en":"Department"}},{"type":"Polygon","arcs":[[-10,-66,-90,-96,-98,-56]],"id":"COL-1401","properties":{"adm1_code":"COL-1401","iso_3166_2":"CO-RIS","name":"Risaralda","admin":"Colombia","adm0_a3":"COL","type_en":"Department"}}]}},"arcs":[[[24563,40927],[821,-538],[140,-587],[-122,-450],[612,-852],[122,-362],[647,-196],[804,79],[1311,381],[787,-303],[-105,-597],[769,-499],[18,-352],[-472,-421],[-280,-989],[612,-156],[2080,333],[542,-666],[-70,-294],[-472,-332],[88,-1126]],[[32395,33000],[-437,-450],[-752,-303],[0,-676],[385,-186],[-403,-939],[-996,-1106],[874,-675],[-87,-323],[244,-793],[-122,-254]],[[31101,27295],[-699,-118],[-1049,245],[-420,196],[-279,1448],[-315,49],[-455,69],[-577,450],[-52,430],[-367,137],[-804,-195],[-402,323],[-1434,342],[-874,587],[-822,323],[-717,666],[-611,58],[-210,402],[-420,19],[-717,754],[-402,244],[-157,646],[-315,10],[-664,372],[175,401],[856,871],[577,49],[1277,-284],[157,460],[-350,411],[88,431],[-577,176],[-210,949],[787,1263],[279,147],[752,949],[664,362],[385,-626],[280,303],[349,-470],[647,-19],[88,802]],[[24178,40810],[227,-323],[-402,-323],[-402,470],[577,176]],[[32395,33000],[752,-29],[367,127],[507,617],[542,-157],[489,-783],[-175,-411],[35,-773],[297,-303],[962,-284],[944,-30],[1014,421]],[[38129,31395],[962,-147],[489,-763],[874,-254],[1049,-108],[682,-480],[944,20],[437,-196],[227,-489],[123,-705],[1381,-283],[227,-1185],[717,-293],[769,-127],[402,-294],[122,-1223],[473,-284],[839,-137],[384,205],[804,-303],[350,-509],[839,-117],[700,-529],[996,-342]],[[52919,22852],[-3706,-1008]],[[49213,21844],[-822,616],[-717,715],[-297,-89],[-926,1087],[-333,-304],[-402,79],[-786,440],[-612,548],[-542,59],[-420,-441],[-926,265],[-1521,880],[-962,-9],[-926,577],[-840,1086],[-1153,255],[-595,313],[-699,-382],[52,-831],[-1188,-196],[-385,244],[-647,59],[-1066,-166],[-332,244],[-665,118],[-402,284]],[[31888,74290],[227,-1008],[-332,-519],[-122,-607],[-717,-695],[979,-841],[699,-441],[1241,-1252],[717,-304],[385,-323],[175,-1037],[-280,-499],[-927,205],[-996,-156],[227,-656],[-262,-284],[-927,-186],[245,-792],[262,-490],[752,-655],[-122,-362],[227,-813],[472,-704],[891,-40],[1207,157],[751,0],[420,-910],[699,-352],[-140,-676],[298,-802],[-70,-499],[384,-392]],[[38251,58357],[-349,-724],[-490,-274],[-87,-597],[559,-793],[140,-832]],[[38024,55137],[-437,-391],[-192,-480],[-822,-694],[-87,-431],[-822,-705],[-105,-685],[-367,-871],[0,-489],[332,-333],[-489,-264],[-507,-519],[-472,49],[-437,-352],[-1102,254],[-419,480],[-735,-108],[-402,372],[-804,147],[-70,303]],[[30087,50420],[-559,157],[-332,470],[192,235],[262,949],[0,969],[-315,1722],[-52,891],[105,881],[-332,988],[-367,225],[-612,-59],[419,617],[577,196],[332,-118],[630,548],[105,519],[-385,597],[-332,822],[-210,98],[-682,871],[472,293],[262,588],[-139,342],[367,881],[-490,558],[18,332],[-804,118],[-280,528],[-857,695],[315,343],[-892,1027],[-734,509],[507,1439],[594,323],[-262,822],[612,10],[664,-842],[490,392],[1136,665],[-262,401],[385,636],[804,597],[-455,1106],[-367,558],[-262,59],[-402,1096],[-315,489],[245,538],[402,216],[454,-450],[210,-558],[944,-519],[560,-783],[437,-117]],[[28863,49882],[595,431],[419,-79]],[[29877,50234],[-1014,-352]],[[29423,50557],[-193,-205],[-1101,0],[874,528],[420,-323]],[[80017,35349],[-1399,431],[-717,528],[332,1380]],[[78233,37688],[717,568],[-262,479],[-2045,-186],[-1084,176],[-805,304],[-367,655],[-472,549],[-1031,371],[35,177],[2657,968]],[[75576,41749],[787,372],[682,568],[-158,802],[717,705],[472,49],[-140,851],[210,411],[332,49],[402,617],[315,-137],[472,362],[1259,10],[647,303],[52,431],[857,147],[297,-177],[926,235],[1242,-577],[996,68],[1836,940],[961,-10],[490,323],[192,372],[437,20],[158,616],[594,-108],[105,-352],[559,-137],[525,509],[699,-421],[752,-68],[542,186],[524,509]],[[94317,49217],[158,-666],[419,-988],[647,-157],[437,-333],[455,-1037],[664,-470],[-35,-254],[-577,-695],[-385,-137],[-2587,-2124],[87,-352],[490,88],[839,-166],[350,-734],[612,-167],[1066,-1115],[874,-431],[158,-392],[-298,-313],[315,-851],[332,-127],[-87,-695],[454,-646],[577,-1360],[18,-392],[297,-577],[17,-460],[333,-587],[52,-617],[-1276,-294],[-227,480],[157,1713],[-280,998],[-262,470],[-734,851],[-525,940],[-664,293],[-1032,-499],[-1328,-1448],[-472,-304],[-927,-68],[-402,401],[-297,636],[-664,499],[-403,-890],[140,-519],[525,-294],[-4266,0],[-3759,-9],[-786,225],[-735,78],[-472,-186],[-1293,-186]],[[80017,35349],[-53,-235],[-17,-3621],[594,186],[315,-196],[647,88],[961,-68],[402,-196],[315,206],[559,-147],[560,-568],[454,-1742],[-594,-205],[-927,156],[-507,441],[-437,78],[-769,-470],[-524,108],[-735,-362],[-1678,-118],[-140,-4237],[123,-333],[751,-744],[595,-205],[752,-666],[769,-323],[314,-822],[-297,-528],[367,-470],[228,-636],[612,-460],[0,-568],[332,-538],[-140,-333]],[[82849,17821],[-297,353],[-1312,342],[-17,489],[-472,284],[-420,-303],[-1031,88],[157,665],[-1346,-342],[350,-411],[-437,-166],[-962,822],[455,479],[-402,597],[244,186],[-35,832],[-297,450],[437,352],[-402,245],[-489,-421],[-647,59],[-350,636],[-454,-10],[-1294,480],[-629,-196],[-577,998],[-18,529],[-367,382],[-315,-59],[-646,235],[-228,460],[-647,-98],[-367,205]],[[70034,25983],[-664,353],[-787,-88],[-1014,479],[-664,685],[-997,675],[70,314],[-472,215],[-262,528]],[[65244,29144],[1678,1498],[193,323],[559,68],[437,362],[158,411],[524,147],[-315,470],[88,382],[734,1683],[175,205],[105,803],[856,-352],[700,489],[1293,577],[385,372],[1119,10],[280,-88],[1381,293],[367,216],[1626,254],[646,421]],[[52919,22852],[909,39],[892,-450],[210,-304],[576,-117],[997,156],[857,-577],[839,59],[559,401],[752,-450],[717,225],[402,-39],[699,-509],[437,-157],[874,754],[647,-431],[560,245],[69,714],[700,842],[612,391],[1293,88],[472,128],[315,557],[682,519],[1591,656],[454,391]],[[82849,17821],[-210,-1497],[-769,-3660],[-787,-3827],[-594,-2877],[-1189,-5754],[-122,-206],[-630,763],[-874,470],[-192,617],[-630,567],[-454,69],[-402,-294],[-717,10],[-979,470],[-297,29],[1818,2496],[2780,3846],[-298,489],[-314,-196],[-630,245],[-402,529],[-419,293],[-665,-39],[-821,519],[-472,-265],[-385,725],[-559,127],[-577,460],[-804,196],[-997,-392],[-524,-470],[-647,49],[-490,-205],[-454,675],[-2098,665],[-490,-283],[-856,-822],[-822,-10],[-490,-450],[-541,68],[-280,-225],[-752,-88],[-315,254],[-821,128],[-542,293],[-490,-509],[-594,245],[-927,-245],[-175,372],[-594,343],[-682,39],[-245,626],[560,676],[-385,685],[70,371],[-192,578],[-542,156],[-490,-117],[-1293,705],[314,606],[-87,558],[-577,450],[140,177],[-490,694],[-646,235],[-472,-39],[-525,186],[-262,460],[-822,255],[-524,303],[-822,196],[-332,264],[-140,842],[-454,391],[87,352],[-332,676]],[[59318,87208],[-665,-166],[-786,0],[-350,332],[717,1028],[-332,294],[-840,322],[-157,656],[-1206,137],[-1032,-127]],[[54667,89684],[-297,871],[70,881],[385,303],[105,509]],[[54930,92248],[1101,10],[734,98],[1609,1184],[804,372],[1189,841],[2062,558],[1277,558],[839,1302],[-210,773],[1101,166],[-70,-401],[333,-245],[419,323],[175,813],[507,-128],[752,421],[245,421],[839,-108],[1940,-704],[874,-1390],[-174,-470],[-1084,-567],[-193,-411],[-821,-333],[-3514,-793],[-245,-215],[-1678,-2721],[-1504,-205],[-647,-1048],[-874,-871],[-315,-812],[-594,-675],[-489,-783]],[[59318,87208],[-140,-1507],[-350,-1047],[70,-959],[-996,-1645],[-368,-225],[-664,-959],[-227,-509],[-455,-372],[105,-293]],[[56293,79692],[-367,-88],[-210,-1693],[158,-431],[-927,-1223],[490,-744],[-245,-411],[1084,-362],[-298,-626],[18,-588],[297,-665],[507,-186],[-419,-529],[-53,-508],[-507,-607],[-419,-176],[-875,332]],[[54527,71187],[-856,40],[52,469],[455,431],[-682,1223],[-52,372]],[[53444,73722],[-53,343],[262,655],[-52,773],[-455,1097],[158,1027],[-420,431]],[[52884,78048],[472,998],[-507,724],[-524,108],[-18,587],[-315,617],[-909,597],[525,450],[367,107],[857,-137],[629,167],[-402,841],[17,304],[-1118,998],[-403,568],[105,694],[1067,1204],[821,108],[1294,665],[-245,881],[367,480],[-524,215],[227,460]],[[56293,79692],[1259,156],[1119,617],[210,-861],[297,-304],[734,255],[297,-489],[717,-2428],[1486,-1467],[262,-128],[140,-753],[402,-910],[-1031,-920],[244,-685],[-209,-1097],[140,-469],[-123,-372],[192,-401],[385,-196],[1276,-147],[280,-323],[70,-802],[489,-754],[595,-323]],[[65524,66891],[-1276,166],[-1049,-753],[-577,-206],[-542,216]],[[62080,66314],[-315,391],[-1101,137],[-1154,411],[367,529],[-332,558],[245,264],[-402,1047],[-473,333],[-122,479],[-1503,98],[-298,-499],[-751,39],[-892,333],[-822,753]],[[65716,66852],[892,-117],[384,254],[805,147],[2499,-206],[682,-333],[1486,275],[402,322],[1347,216],[839,-79],[384,-420],[402,-39],[962,-421],[1084,244],[419,-205],[4388,-4893],[88,0]],[[82779,61597],[-944,-402],[-1434,49],[-489,-215]],[[79912,61029],[-682,587],[-455,147],[-629,597],[-489,117],[-1224,30],[-892,-304],[-1486,-88],[-926,39],[-2308,343],[-1731,-440],[-979,68],[-769,-68],[-892,-265],[-472,0],[-1556,-479],[-699,381],[-577,744],[158,519]],[[63304,62957],[279,421],[839,313],[210,382],[158,1135],[332,313],[594,1331]],[[65524,66891],[192,-39]],[[63304,62957],[-210,-98],[-420,-773],[507,-744],[-349,-1057],[-368,-284],[647,-303],[769,-714],[-244,-196],[-315,-852],[-682,304],[-891,-861],[-245,-353],[-804,-440],[-665,626],[-874,-861],[-105,-558],[315,-372],[-455,-626],[-384,39],[-245,-1037],[105,-450]],[[58391,53347],[-280,-333],[-839,-10],[-577,362],[-664,793],[-822,98],[-140,264],[455,714],[-297,1096],[-420,402],[-35,489],[-717,470],[-646,254],[-210,304],[-1189,-1097],[-997,460],[-646,186],[-385,607],[52,499],[-139,715],[-228,215],[-629,-352],[-629,146],[-752,-234]],[[47657,59395],[-123,117]],[[47534,59512],[158,538],[332,333],[105,871],[-192,333],[157,567],[420,392]],[[48514,62546],[524,-1106],[559,-333],[455,186],[350,-528],[-210,-587],[647,107],[419,-186],[927,-822],[1591,176],[664,-235],[175,1194],[227,500],[542,596],[682,-450],[-18,-646],[-489,-450],[472,-538],[315,607],[472,-20],[454,754],[1241,-245],[944,1086],[507,177],[437,450],[140,1350],[787,-107],[490,381],[314,852],[123,1184],[-175,421]],[[75576,41749],[-629,343],[-1346,-274],[-1207,342],[-612,89]],[[71782,42249],[0,2936],[18,9258]],[[71800,54443],[227,234],[455,950],[489,215],[1346,1008],[53,392],[1556,851],[717,205],[1066,118],[769,489],[682,822],[472,969],[280,333]],[[82779,61597],[804,146],[437,-391],[1259,812],[1119,-196],[437,20],[1311,-313],[332,205],[909,147],[979,-107],[1067,283],[856,-78],[647,137],[560,440],[734,-29],[1066,-215],[822,-411],[-35,-30],[-245,-469],[437,-451],[-52,-411],[-332,-146],[-787,-734],[-262,-451],[-53,-528],[228,-607],[-228,-421],[-1084,-626],[-227,-479],[192,-656],[-70,-460],[210,-274],[-227,-1145],[87,-186],[-349,-1948],[244,-127],[315,-900],[-140,-421],[123,-568],[454,-792]],[[24563,40927],[839,167],[297,-558],[857,-20],[175,294],[-403,724],[175,274],[962,617],[-35,1047],[944,714],[17,529],[280,107]],[[28671,44822],[682,-812],[682,-245],[1031,412],[629,-147],[857,-431],[525,176],[209,353],[595,-402],[926,-39],[577,401],[210,832],[1224,-205],[1206,-411]],[[38024,44304],[-245,-705],[455,-352],[87,-636]],[[38321,42611],[1521,-1243],[175,-304],[-297,-822],[192,-332],[-332,-284],[-822,381],[-559,-420],[-699,-284],[-840,-98],[-472,333],[-297,-274],[245,-470],[-175,-450],[-489,-587],[-560,97],[-192,-685],[-227,-254],[157,-548],[490,-333],[646,-822],[420,-274],[1346,-382]],[[37552,34556],[-542,-655],[-402,-822],[-70,-774],[280,-352],[647,-29],[664,-529]],[[38024,55137],[594,-743],[525,-881],[1311,-294]],[[40454,53219],[53,-274],[-787,-19],[-350,-666],[53,-558],[402,-362],[122,-646],[-262,-469],[0,-597],[454,-186]],[[40139,49442],[-646,-1233],[-700,-940],[-244,-910],[-350,-695],[35,-763],[-210,-597]],[[28671,44822],[52,323],[595,274],[385,881],[716,421],[367,1067],[-209,313],[-490,-69],[-384,402],[821,949],[-472,176],[-402,-264],[-175,-734],[-542,440],[-70,881]],[[29877,50234],[210,186]],[[31888,74290],[297,-764],[752,49],[-700,-1017],[542,-314],[647,69],[175,920],[-262,1067],[0,831],[-455,607],[-734,274],[367,441],[1486,362],[297,411],[455,146],[787,568]],[[35542,77940],[367,-783],[384,-470],[700,-489],[70,-998],[-665,-763],[-682,-1087],[-87,-998],[-245,-333],[-244,-792],[34,-842],[612,-1302],[3637,-98],[664,803],[1206,421],[297,704],[595,705],[647,460],[891,959],[770,127],[1171,30],[717,694]],[[46381,73888],[1591,-1135],[384,-577],[70,-597],[315,-382],[-105,-342],[-402,-284],[-175,-636],[157,-597],[630,-372],[437,567],[384,-137],[-349,-665],[0,-910],[367,-940],[612,-88],[2185,1811]],[[52482,68604],[52,-1155],[228,-509],[-804,-509],[-682,-861],[-1242,-803],[-629,-176],[-157,-352],[-35,-959],[-699,-734]],[[47534,59512],[-332,20],[-437,-509],[-594,323],[-839,-176],[-682,-323],[0,-372],[-350,-402],[-594,-234],[-560,156],[-472,940],[-577,-20],[-874,382],[105,-1292],[-1031,235],[-804,-401]],[[39493,57839],[-700,97],[-542,421]],[[35542,77940],[122,235],[682,186],[454,391],[18,382],[454,470],[123,577],[349,108],[263,470],[1136,499],[1416,-69]],[[40559,81189],[0,-372],[1573,-694],[245,-500],[1451,-665],[35,-695],[-594,-166],[-420,-558],[262,-1674],[175,-244],[752,-470],[699,303],[909,206],[909,-812],[35,-421]],[[46590,74427],[-209,-539]],[[40559,81189],[525,216],[297,998],[-542,499],[454,1546],[53,754]],[[41346,85202],[717,-313],[-18,-734],[1014,-206],[-245,-1165],[1224,-244],[1031,-959],[595,-79],[280,-234],[-280,-500],[280,-1008],[507,-597],[1118,-655],[787,-950],[-419,-469],[367,-1576],[-175,-362],[-699,-548],[-840,-176]],[[53444,73722],[-473,-333],[-104,-587],[384,-1350],[-105,-1008],[-524,-597],[52,-578],[-192,-665]],[[41346,85202],[279,577],[-716,29],[367,451],[524,293],[140,695],[-105,891],[752,577],[962,157]],[[43549,88872],[192,-480],[-262,-577],[629,-323],[262,-441],[385,69],[1066,-871]],[[45821,86249],[-175,-773],[577,-235],[315,-666],[-437,-293],[-18,-401],[438,-597],[-123,-372],[350,-451],[-175,-851],[1189,-665],[717,-813],[629,167],[1294,-666],[577,-626],[734,29],[402,-391],[559,-20],[210,-577]],[[43549,88872],[174,323],[0,283],[1312,627],[69,342],[1189,676]],[[46293,91123],[560,-548],[279,-568],[-35,-1879],[-524,-431],[-192,-626],[-560,-822]],[[46293,91123],[18,137],[2307,-813],[88,-792],[227,-548],[629,166],[560,1272],[419,529],[-174,724],[384,695],[1224,225],[1206,-470],[1749,0]],[[70,99656],[-70,128],[105,215],[122,0],[-157,-343]],[[734,48737],[105,186],[123,-78],[-228,-108]],[[37552,34556],[1259,-9],[787,636],[664,704],[787,989],[507,401],[874,1282],[524,333],[437,548],[402,881],[647,-59],[857,724],[-420,548],[542,852],[542,352]],[[45961,42738],[1119,-255],[909,-1105],[-367,-1527],[35,-871],[682,-812],[-490,-823],[70,-489],[647,-704],[3986,-1243],[1643,-59]],[[54195,34850],[70,-235],[682,-881],[804,-802],[123,-548],[1958,-1596],[577,-88],[1048,715],[158,656],[349,244],[997,-39],[857,-519],[472,-117],[367,-352],[105,-460],[611,-803],[507,-450],[875,-157],[489,-274]],[[38321,42611],[385,107],[804,-332],[1416,1057],[699,1242],[420,490],[1101,303],[385,-225],[839,352],[665,10],[-245,-734],[717,-196],[384,69],[927,979],[17,430],[647,881],[734,577]],[[48216,47621],[472,-401]],[[48688,47220],[-332,-714],[-507,-587],[-227,-1341],[-210,-294],[-1031,-695],[-420,-851]],[[54195,34850],[88,108],[52,3875],[192,274],[770,69],[1171,-128],[594,79],[228,264],[804,-20],[1119,499],[157,470],[787,323],[1119,29],[1730,783],[1172,206],[-35,362],[524,196],[857,-401],[1049,185],[682,304],[769,-392],[402,235],[1206,-58],[245,176],[822,-118],[367,176],[716,-97]],[[47657,59395],[87,-294],[-192,-763],[0,-685],[-594,-999]],[[46958,56654],[-560,137],[-1206,-117],[-822,-793],[-245,79],[-839,-255],[-367,-421],[210,-195],[-245,-529],[175,-264],[-332,-558]],[[42727,53738],[-769,705],[-1469,195],[-262,558],[-315,-636],[-419,-39],[-472,665],[244,460],[560,421],[-53,480],[997,-39],[157,225],[-489,548],[-927,-128],[-17,686]],[[71800,54443],[-1031,-617],[-403,-49],[-1958,-744],[-821,-440],[-892,-225],[-524,-499],[-770,-519],[-402,-29],[-524,332],[-1171,-234],[-298,-402],[-454,69],[-1032,-264],[-1084,19],[-437,675],[-769,588],[-839,1243]],[[48688,47220],[437,-147],[612,773],[175,460],[682,793],[367,-78]],[[50961,49021],[210,-10],[787,577],[1293,607],[420,-19],[-385,1301],[752,597],[507,-215],[559,-1057],[350,-127],[822,215],[821,-176],[752,-313],[472,2838],[70,108]],[[48688,47220],[472,597],[420,832],[-70,528],[192,470],[542,-19],[315,871],[157,724],[123,1693],[716,998],[385,-88],[-35,-851],[140,-235],[-822,-1351],[53,-372],[-280,-391],[385,-803],[-420,-802]],[[40139,49442],[1084,1301],[123,773],[682,999],[314,146],[297,578]],[[42639,53239],[88,499]],[[46958,56654],[87,-1086],[-175,-851],[0,-979],[-419,-529],[209,-420],[-157,-1038],[-472,-929],[699,-157],[874,-440],[665,352],[454,-587],[-297,-1106],[122,-206],[-332,-1057]],[[40454,53219],[1224,-88],[245,-156],[716,264]]],"bbox":[-81.72096812568041,-4.23621495068528,-66.87464401842813,12.579826260411707],"transform":{"scale":[0.00014846472571978007,0.0001681620937319072],"translate":[-81.72096812568041,-4.23621495068528]}}