{"type":"Topology","objects":{"a1":{"type":"GeometryCollection","geometries":[{"type":"Polygon","arcs":[[0]],"id":"CPV-5041","properties":{"adm1_code":"CPV-5041","iso_3166_2":"CV-BR","name":"Brava","admin":"Cape Verde","adm0_a3":"CPV","type_en":null}},{"type":"Polygon","arcs":[[1,2,3]],"id":"CPV-5044","properties":{"adm1_code":"CPV-5044","iso_3166_2":"CV-CF","name":"Santa Catarina do Fogo","admin":"Cape Verde","adm0_a3":"CPV","type_en":null}},{"type":"Polygon","arcs":[[-4,4,5]],"id":"CPV-5043","properties":{"adm1_code":"CPV-5043","iso_3166_2":"CV-MO","name":"Mosteiros","admin":"Cape Verde","adm0_a3":"CPV","type_en":null}},{"type":"Polygon","arcs":[[-3,6,-5]],"id":"CPV-5042","properties":{"adm1_code":"CPV-5042","iso_3166_2":"CV-SF","name":"São Filipe","admin":"Cape Verde","adm0_a3":"CPV","type_en":null}},{"type":"Polygon","arcs":[[7,8,9]],"id":"CPV-5045","properties":{"adm1_code":"CPV-5045","iso_3166_2":"CV-TA","name":"Tarrafal","admin":"Cape Verde","adm0_a3":"CPV","type_en":null}},{"type":"Polygon","arcs":[[-10,10,11,12,13,14]],"id":"CPV-5046","properties":{"adm1_code":"CPV-5046","iso_3166_2":"CV-CA","name":"Santa Catarina","admin":"Cape Verde","adm0_a3":"CPV","type_en":null}},{"type":"Polygon","arcs":[[-14,15,16,17,18,19]],"id":"CPV-5052","properties":{"adm1_code":"CPV-5052","iso_3166_2":"CV-RS","name":"Ribeira Grande de Santiago","admin":"Cape Verde","adm0_a3":"CPV","type_en":null}},{"type":"Polygon","arcs":[[-19,20,21]],"id":"CPV-5053","properties":{"adm1_code":"CPV-5053","iso_3166_2":"CV-PR","name":"Praia","admin":"Cape Verde","adm0_a3":"CPV","type_en":null}},{"type":"Polygon","arcs":[[-18,22,23,24,-21]],"id":"CPV-5051","properties":{"adm1_code":"CPV-5051","iso_3166_2":"CV-SD","name":"São Domingos","admin":"Cape Verde","adm0_a3":"CPV","type_en":null}},{"type":"Polygon","arcs":[[-12,25,26,-24,27,28]],"id":"CPV-5048","properties":{"adm1_code":"CPV-5048","iso_3166_2":"CV-CR","name":"Santa Cruz","admin":"Cape Verde","adm0_a3":"CPV","type_en":null}},{"type":"Polygon","arcs":[[-9,29,-26,-11]],"id":"CPV-5047","properties":{"adm1_code":"CPV-5047","iso_3166_2":"CV-SM","name":"São Miguel","admin":"Cape Verde","adm0_a3":"CPV","type_en":null}},{"type":"Polygon","arcs":[[30]],"id":"CPV-5054","properties":{"adm1_code":"CPV-5054","iso_3166_2":"CV-MA","name":"Maio","admin":"Cape Verde","adm0_a3":"CPV","type_en":null}},{"type":"Polygon","arcs":[[31]],"id":"CPV-5055","properties":{"adm1_code":"CPV-5055","iso_3166_2":"CV-BV","name":"Boa Vista","admin":"Cape Verde","adm0_a3":"CPV","type_en":null}},{"type":"Polygon","arcs":[[32,33]],"id":"CPV-5057","properties":{"adm1_code":"CPV-5057","iso_3166_2":"CV-RB","name":"Ribeira Brava","admin":"Cape Verde","adm0_a3":"CPV","type_en":null}},{"type":"Polygon","arcs":[[-34,34]],"id":"CPV-5058","properties":{"adm1_code":"CPV-5058","iso_3166_2":"CV-TS","name":"Tarrafal de São Nicolau","admin":"Cape Verde","adm0_a3":"CPV","type_en":null}},{"type":"Polygon","arcs":[[35]],"id":"CPV-5056","properties":{"adm1_code":"CPV-5056","iso_3166_2":"CV-SL","name":"Sal","admin":"Cape Verde","adm0_a3":"CPV","type_en":null}},{"type":"Polygon","arcs":[[36]],"id":"CPV-5059","properties":{"adm1_code":"CPV-5059","iso_3166_2":"CV-SV","name":"São Vicente","admin":"Cape Verde","adm0_a3":"CPV","type_en":null}},{"type":"Polygon","arcs":[[37,38,39]],"id":"CPV-5061","properties":{"adm1_code":"CPV-5061","iso_3166_2":"CV-RG","name":"Ribeira Grande","admin":"Cape Verde","adm0_a3":"CPV","type_en":null}},{"type":"Polygon","arcs":[[-40,40,41]],"id":"CPV-5060","properties":{"adm1_code":"CPV-5060","iso_3166_2":"CV-PN","name":"Porto Novo","admin":"Cape Verde","adm0_a3":"CPV","type_en":null}},{"type":"Polygon","arcs":[[-39,42,-41]],"id":"CPV-5062","properties":{"adm1_code":"CPV-5062","iso_3166_2":"CV-PA","name":"Paul","admin":"Cape Verde","adm0_a3":"CPV","type_en":null}},{"type":"Polygon","arcs":[[-13,-29,43,-16]],"id":"CPV-5049","properties":{"adm1_code":"CPV-5049","iso_3166_2":"CV-SS","name":"São Salvador do Mundo","admin":"Cape Verde","adm0_a3":"CPV","type_en":null}},{"type":"Polygon","arcs":[[-17,-44,-28,-23]],"id":"CPV-5050","properties":{"adm1_code":"CPV-5050","iso_3166_2":"CV-SO","name":"São Lourenço dos Órgãos","admin":"Cape Verde","adm0_a3":"CPV","type_en":null}}]}},"arcs":[[[24272,3125],[679,-3125],[-2136,0],[-194,2500],[1651,625]],[[39417,5417],[97,-2500]],[[39514,2917],[-2815,2083]],[[36699,5000],[2718,417]],[[36699,5000],[-2136,3403]],[[34563,8403],[3786,139],[1068,-3125]],[[39514,2917],[-1359,-2709],[-4272,278],[-2912,3681],[3592,4236]],[[59223,15069],[-292,5417],[2233,486],[2331,-3958]],[[63495,17014],[-1068,-1875]],[[62427,15139],[-3204,-70]],[[62427,15139],[2233,-2292]],[[64660,12847],[291,-1042]],[[64951,11805],[-389,-2847]],[[64562,8958],[-3203,-2986]],[[61359,5972],[-2816,5347],[680,3750]],[[64562,8958],[583,70]],[[65145,9028],[582,-1181]],[[65727,7847],[1263,-2153]],[[66990,5694],[873,-2291]],[[67863,3403],[-5145,1180],[-1359,1389]],[[66990,5694],[3398,556]],[[70388,6250],[-2525,-2847]],[[65727,7847],[2622,2014]],[[68349,9861],[1553,139]],[[69902,10000],[486,-3750]],[[64660,12847],[1262,1667]],[[65922,14514],[3980,-4514]],[[68349,9861],[-1942,903]],[[66407,10764],[-1456,1041]],[[63495,17014],[2427,-2500]],[[83300,20486],[583,-4722],[-2622,-3403],[-2815,2361],[388,4028],[2136,2639],[2330,-903]],[[99999,54305],[0,-2083],[-4660,-3264],[-5243,1389],[-485,2916],[1650,1598],[-388,3680],[7864,-347],[1262,-3889]],[[36602,78124],[3495,-1528],[7184,-833],[-874,-2639],[-4466,1806],[-1456,-625],[-1942,-4445]],[[38543,69860],[97,5556],[-2038,2708]],[[38543,69860],[-3689,7639],[1748,625]],[[90679,74583],[-1942,5486],[-291,3888],[3495,556],[-194,-9444],[-1068,-486]],[[16213,87291],[1748,-2917],[-4563,-1666],[-3495,2569],[4466,3194],[1844,-1180]],[[4078,97499],[5339,2500],[2913,-2153]],[[12330,97846],[-1845,-1319]],[[10485,96527],[-3204,-1181],[-3203,2153]],[[10485,96527],[3301,-1459]],[[13786,95068],[-4854,-3472],[-2718,-2916],[-4175,-417],[-486,3681],[-1553,1388],[1359,2848],[2719,1319]],[[12330,97846],[1456,-2778]],[[66407,10764],[-1262,-1736]]],"bbox":[-25.354251231065376,14.826243979451377,-22.68087468727694,17.196091243493242],"transform":{"scale":[0.000026734032778212143,0.000023698709627514932],"translate":[-25.354251231065376,14.826243979451377]}}