{"type":"Topology","objects":{"a1":{"type":"GeometryCollection","geometries":[{"type":"Polygon","arcs":[[0,1,2,3,4]],"id":"CRI-1333","properties":{"adm1_code":"CRI-1333","iso_3166_2":"CR-A","name":"Alajuela","admin":"Costa Rica","adm0_a3":"CRI","type_en":"Province"}},{"type":"Polygon","arcs":[[-4,5,6,7,8]],"id":"CRI-1334","properties":{"adm1_code":"CRI-1334","iso_3166_2":"CR-G","name":"Guanacaste","admin":"Costa Rica","adm0_a3":"CRI","type_en":"Province"}},{"type":"Polygon","arcs":[[9,10,11,12,13,14]],"id":"CRI-1329","properties":{"adm1_code":"CRI-1329","iso_3166_2":"CR-L","name":"Limón","admin":"Costa Rica","adm0_a3":"CRI","type_en":"Province"}},{"type":"MultiPolygon","arcs":[[[-3,15,-11,16,-6]],[[-8,17]]],"id":"CRI-1330","properties":{"adm1_code":"CRI-1330","iso_3166_2":"CR-P","name":"Puntarenas","admin":"Costa Rica","adm0_a3":"CRI","type_en":"Province"}},{"type":"Polygon","arcs":[[-1,18,-15,19]],"id":"CRI-1328","properties":{"adm1_code":"CRI-1328","iso_3166_2":"CR-H","name":"Heredia","admin":"Costa Rica","adm0_a3":"CRI","type_en":"Province"}},{"type":"Polygon","arcs":[[-2,-20,-14,20,-12,-16]],"id":"CRI-1331","properties":{"adm1_code":"CRI-1331","iso_3166_2":"CR-SJ","name":"San José","admin":"Costa Rica","adm0_a3":"CRI","type_en":"Province"}},{"type":"Polygon","arcs":[[-13,-21]],"id":"CRI-1327","properties":{"adm1_code":"CRI-1327","iso_3166_2":"CR-C","name":"Cartago","admin":"Costa Rica","adm0_a3":"CRI","type_en":"Province"}}]}},"arcs":[[[52492,86683],[-234,-19792],[-389,-4871],[-623,-1502]],[[51246,60518],[-3817,-1399],[-4049,155],[-3271,-2902]],[[40109,56372],[-3116,1866],[2415,4041],[-1636,2487],[-1090,5907],[-1947,-415],[-1090,1555]],[[33645,71813],[700,3989],[-934,1710],[-5452,3368],[-1246,2798],[-4906,2383],[-3038,-259],[-779,1503],[-3894,3109],[6075,4611]],[[20171,95025],[9112,-3472],[1402,156],[6231,3886],[7788,-3627],[1869,1244],[1324,-2384],[3115,-1813],[1480,-2332]],[[33645,71813],[-2415,-311],[-233,-3990],[-1870,-1917],[-1401,1244],[-2570,-52]],[[25156,66787],[-3194,311],[-1947,-1555],[2181,-3057]],[[22196,62486],[-467,-1243],[-3193,-1088],[3426,-2850],[-1635,-4093]],[[20327,53212],[-3037,3212],[-4206,726],[-4984,1761],[-4206,5493],[-2025,4766],[-467,3627],[1557,4663],[5296,3990],[-934,1813],[-78,3161],[-4128,2280],[-3115,1088],[857,1865],[4127,-207],[-155,2591],[1324,1865],[2102,3627],[1013,466],[2726,-1813],[8177,-3161]],[[64330,86269],[3037,1036],[-1013,4093],[2181,-1088],[4751,-12850],[2103,-3730],[5763,-7772],[3504,-3990],[2103,-1243],[2025,-3005],[5296,-6529],[4050,-829],[1869,-1813],[-1324,-2798],[-6308,3627],[-1480,-1347],[545,-2384],[-2492,-1502],[156,-11503]],[[89096,32642],[-3583,2902],[-623,2331],[-2648,2487],[-1869,52],[-2804,1503],[-3193,-363]],[[74376,41554],[-1713,3575]],[[72663,45129],[-779,3109],[3115,5233],[2181,2798],[-78,4767],[-7554,155],[-10592,4974]],[[58956,66165],[856,1969]],[[59812,68134],[1402,1606],[701,2643],[-779,2487],[1402,2279],[-78,4871],[3661,1606],[-1791,2643]],[[40109,56372],[-623,-2590],[1947,-5441],[2959,-259],[935,2021],[7165,-311],[2570,-2280],[1869,-3212],[3037,-1243],[2648,-5130],[2648,-104],[2259,-3057],[4283,-2279],[1324,2849],[-857,2954],[2103,3264]],[[89096,32642],[5685,-3057],[857,-1710],[-4440,-2590],[-1713,-3005],[2259,-3524],[389,-3160],[-1012,-2902],[-2493,-1140],[-2959,-2694],[3271,-2124],[1713,-4612],[-311,-2124],[-78,2228],[-2103,3679],[-5452,4663],[1558,1917],[-1324,3730],[623,1503],[-3504,829],[-4362,3679],[-2881,-881],[2258,-3886],[3583,-2280],[311,-3627],[-2103,-414],[-3504,1710],[-3427,103],[-4906,5596],[3270,3472],[-311,1502],[1635,1710],[-1246,6269],[-4750,5182],[-3972,3005],[-5530,2590],[-2336,2021],[-2726,1244],[-5530,1399],[-1947,-208],[-2881,1866],[-1791,3626],[1246,2850],[-3817,6062],[-2647,-311],[-6542,5959]],[[22196,62486],[4595,-2331],[1636,52],[2881,-3886],[-2881,-3005],[-3038,-1969],[-857,-2436],[-1713,778],[-2492,3523]],[[52492,86683],[2414,-725],[1635,725],[2726,-2176],[2181,104],[2882,1658]],[[59812,68134],[-4594,-1399],[1713,-3730],[-545,-1710],[-3661,-1140],[-1479,363]],[[58956,66165],[2103,-3471],[-1013,-2539],[-2804,-466],[-77,-2021],[-2025,-2435],[2414,-674],[2258,-2953],[1948,-467],[1090,-1865],[4205,-1710],[1792,-52],[3816,-2383]]],"bbox":[-85.90752770347726,8.034327549798093,-82.57489131296818,11.210581174520854],"transform":{"scale":[0.00003332669717206252,0.00003176285387576638],"translate":[-85.90752770347726,8.034327549798093]}}