{"type":"Topology","objects":{"a1":{"type":"GeometryCollection","geometries":[{"type":"Polygon","arcs":[[0]],"id":"CSI+00?","properties":{"adm1_code":"CSI+00?","iso_3166_2":"-99-X03~","name":"Coral Sea Islands","admin":"Coral Sea Islands","adm0_a3":"CSI","type_en":null}}]}},"arcs":[[[99999,99999],[-33333,-99999],[-66666,0],[99999,99999]]],"bbox":[150.00108146300317,-16.136468816162136,150.00886799662584,-16.13482308889543],"transform":{"scale":[7.786611488778571e-8,1.6457437241426628e-8],"translate":[150.00108146300317,-16.136468816162136]}}