{"type":"Topology","objects":{"a1":{"type":"GeometryCollection","geometries":[{"type":"Polygon","arcs":[[0,1,2]],"id":"CUB-1365","properties":{"adm1_code":"CUB-1365","iso_3166_2":"CU-14","name":"Guantánamo","admin":"Cuba","adm0_a3":"CUB","type_en":"Province"}},{"type":"MultiPolygon","arcs":[[[3]],[[4]],[[5]],[[6,7,8,9]]],"id":"CUB-1364","properties":{"adm1_code":"CUB-1364","iso_3166_2":"CU-09","name":"Camagüey","admin":"Cuba","adm0_a3":"CUB","type_en":"Province"}},{"type":"MultiPolygon","arcs":[[[10]],[[-10,11,12,13]]],"id":"CUB-1363","properties":{"adm1_code":"CUB-1363","iso_3166_2":"CU-08","name":"Ciego de Ávila","admin":"Cuba","adm0_a3":"CUB","type_en":"Province"}},{"type":"Polygon","arcs":[[-2,14,15,16,17]],"id":"CUB-1367","properties":{"adm1_code":"CUB-1367","iso_3166_2":"CU-11","name":"Holguín","admin":"Cuba","adm0_a3":"CUB","type_en":"Province"}},{"type":"Polygon","arcs":[[18]],"id":"CUB-1320","properties":{"adm1_code":"CUB-1320","iso_3166_2":"CU-99","name":"Isla de la Juventud","admin":"Cuba","adm0_a3":"CUB","type_en":"Special Municipality"}},{"type":"Polygon","arcs":[[-13,19,20,21,22]],"id":"CUB-1322","properties":{"adm1_code":"CUB-1322","iso_3166_2":"CU-07","name":"Sancti Spíritus","admin":"Cuba","adm0_a3":"CUB","type_en":"Province"}},{"type":"Polygon","arcs":[[-22,23,24,25]],"id":"CUB-1431","properties":{"adm1_code":"CUB-1431","iso_3166_2":"CU-05","name":"Villa Clara","admin":"Cuba","adm0_a3":"CUB","type_en":"Province"}},{"type":"Polygon","arcs":[[-25,26,27,28,29]],"id":"CUB-1430","properties":{"adm1_code":"CUB-1430","iso_3166_2":"CU-04","name":"Matanzas","admin":"Cuba","adm0_a3":"CUB","type_en":"Province"}},{"type":"Polygon","arcs":[[-8,30,-17,31,32]],"id":"CUB-1368","properties":{"adm1_code":"CUB-1368","iso_3166_2":"CU-10","name":"Las Tunas","admin":"Cuba","adm0_a3":"CUB","type_en":"Province"}},{"type":"Polygon","arcs":[[-29,33,34,35,36]],"id":"CUB-5489","properties":{"adm1_code":"CUB-5489","iso_3166_2":"CU-16","name":"Mayabeque","admin":"Cuba","adm0_a3":"CUB","type_en":"Province"}},{"type":"Polygon","arcs":[[-36,37,38]],"id":"CUB-1428","properties":{"adm1_code":"CUB-1428","iso_3166_2":"CU-03","name":"Ciudad de la Habana","admin":"Cuba","adm0_a3":"CUB","type_en":"Province"}},{"type":"Polygon","arcs":[[-35,39,40,41,-38]],"id":"CUB-1429","properties":{"adm1_code":"CUB-1429","iso_3166_2":"CU-15","name":"Artemisa","admin":"Cuba","adm0_a3":"CUB","type_en":"Province"}},{"type":"Polygon","arcs":[[-41,42]],"id":"CUB-1321","properties":{"adm1_code":"CUB-1321","iso_3166_2":"CU-01","name":"Pinar del Río","admin":"Cuba","adm0_a3":"CUB","type_en":"Province"}},{"type":"Polygon","arcs":[[-21,43,-27,-24]],"id":"CUB-1319","properties":{"adm1_code":"CUB-1319","iso_3166_2":"CU-06","name":"Cienfuegos","admin":"Cuba","adm0_a3":"CUB","type_en":"Province"}},{"type":"Polygon","arcs":[[-16,44,45,-32]],"id":"CUB-1366","properties":{"adm1_code":"CUB-1366","iso_3166_2":"CU-12","name":"Granma","admin":"Cuba","adm0_a3":"CUB","type_en":"Province"}},{"type":"Polygon","arcs":[[-1,46,-45,-15]],"id":"CUB-1369","properties":{"adm1_code":"CUB-1369","iso_3166_2":"CU-13","name":"Santiago de Cuba","admin":"Cuba","adm0_a3":"CUB","type_en":"Province"}}]}},"arcs":[[[88496,1130],[-985,4273],[528,2063],[-456,4273],[24,3045],[961,2505]],[[88568,17289],[408,442],[841,-1228],[456,2210],[792,393],[529,-1523],[720,1179],[1153,-1915],[576,1080],[24,2112],[601,1228]],[[94668,21267],[1032,-2112],[1009,-3880],[864,-1474],[841,-392],[889,540],[696,-2063],[-24,-1768],[-817,-1572],[-336,-1866],[-1176,393],[-1730,-983],[-2137,-343],[-1537,-3389],[-1081,-786],[-384,2210],[-216,0],[-672,-2112],[-1393,-540]],[[67675,65962],[-144,-2505],[-433,-687],[-1921,2013],[-408,1719],[1273,835],[1633,-1375]],[[64313,68762],[168,2554],[768,-393],[-168,-2309],[-768,148]],[[62463,74164],[-432,2849],[913,147],[648,-2259],[-240,-1572],[-889,835]],[[63520,66797],[1729,-6139],[480,687],[769,-2554],[888,-982],[1345,933],[96,1474],[1657,-2849],[1729,-3586],[-120,-2750],[-864,1670],[-96,-3979],[984,541],[433,3241],[336,-245],[1153,-4077]],[[74039,48182],[-865,-1473],[-576,196],[-288,-2308],[0,-4912],[-505,-2210],[-576,-638],[-408,-2505],[-1609,1768],[-1105,-3438],[-673,-1228],[-984,-639],[-480,-2062],[-121,-2407]],[[65849,26326],[-1032,-835],[-1153,393],[-600,1375],[-1297,4273],[-1225,1719],[-840,2701],[-625,9971],[-744,4519]],[[58333,50442],[2449,4027],[481,1817],[-72,1621],[1392,-442],[72,2407],[-648,1719],[1585,3880],[-72,1326]],[[60326,78143],[-841,-295],[-504,2308],[985,0],[432,934],[1273,-3095],[-1369,-1178],[24,1326]],[[58333,50442],[-841,884],[-312,2259],[-1777,-1179]],[[55403,52406],[-96,2702],[-1297,-737],[-120,2505],[864,5844],[601,2947],[-769,1572],[120,2358],[985,6630]],[[55691,76227],[1345,-245],[240,-2014],[745,1031],[1008,-1080],[769,-1818],[960,-392],[721,-2456],[1297,-737],[744,-1719]],[[88568,17289],[-865,3290],[-408,492],[-1345,-3242],[-1537,-1032],[-1345,2849],[-696,835],[-456,-933],[24,-2358],[-817,541]],[[81123,17731],[-672,2259],[-2882,3831],[-1465,2407]],[[76104,26228],[312,6385],[1585,1326],[144,1277],[1465,3094],[264,3684]],[[79874,41994],[1633,-2505],[192,-2260],[2258,295],[480,1081],[817,-442],[888,-1376],[553,-1866],[-1177,-5550],[-601,246],[-144,-2702],[697,-1670],[888,835],[1081,-736],[961,1375],[312,-1867],[600,1376],[937,-197],[408,-982],[1393,540],[1369,-2014],[912,-442],[337,-1866]],[[22022,53487],[-264,-2800],[-2210,-2898],[-672,-245],[-1585,982],[-865,2947],[1369,-589],[505,1277],[-961,5058],[-24,2456],[792,3144],[1225,-442],[1561,-1572],[-24,-1719],[913,-2849],[240,-2750]],[[55403,52406],[-1945,-1424],[-745,0],[-1056,1424],[-793,-147],[-1585,1866],[-168,884],[-1633,737],[-745,1424],[-984,-1178],[-913,3143]],[[44836,59135],[24,1375],[697,2014]],[[45557,62524],[1104,2112],[1057,-835],[552,2407],[-384,2603],[1225,687],[913,-638],[1729,4322],[-745,3585],[168,1670]],[[51176,78437],[697,-1768],[1777,-1080],[2041,638]],[[45557,62524],[-697,5501],[144,3634],[-1393,3733],[121,1719],[-889,3242],[-1321,1424],[-552,-1277]],[[40970,80500],[-408,2800],[96,3389],[-289,1915],[-768,-491],[-745,2407],[169,2652],[1032,638],[240,2407]],[[40297,96217],[337,-1817],[1152,-1719],[1393,-1130],[2378,1032],[336,-1867],[2666,-4076],[432,343],[240,-2996],[1057,-3683],[888,-1867]],[[40970,80500],[-961,-2456],[-1969,688],[-480,-835],[-481,-2800],[72,-2701],[913,-3340],[841,-1228],[1152,148],[216,-2014]],[[40273,65962],[-3674,0],[-1033,1228],[-864,3487],[-865,-3438],[-768,196],[-216,2014],[-1081,933],[-1273,295],[-1609,-688],[-504,2112],[-1945,2456],[-265,2652],[2570,0],[1441,983],[312,3290]],[[30499,81482],[481,3881],[-481,1080],[-408,3291],[144,2407],[-624,1669],[624,2309],[-48,2750]],[[30187,98869],[961,49],[936,-1719],[1921,1228],[817,-2701],[576,-393],[409,1965],[840,-49],[240,-1277],[1849,1129],[1561,-884]],[[74039,48182],[1296,-2063],[1369,-1178],[24,-1670],[2474,-295],[672,-982]],[[76104,26228],[-672,-835],[-385,1424],[-1873,-98],[-1801,1326],[-961,-2014]],[[70412,26031],[-1441,-1179],[-744,639],[-1897,98],[-481,737]],[[30499,81482],[-936,1916],[-1153,1228],[-2065,-737],[-913,933],[-1777,49]],[[23655,84871],[-624,3389],[216,4666]],[[23247,92926],[1705,442],[456,1670],[-72,1719],[1009,3046]],[[26345,99803],[2209,-1130],[1633,196]],[[23247,92926],[-961,3438]],[[22286,96364],[1225,2211],[1729,1424],[1105,-196]],[[23655,84871],[-2234,-245],[-1368,491],[-409,-2554]],[[19644,82563],[-1368,5992],[528,884],[-264,4322]],[[18540,93761],[240,1376],[1897,98],[1609,1129]],[[19644,82563],[-2425,-4420],[-745,-3684],[-1128,-589],[-553,-2604],[-624,-1375],[-1825,295],[-1513,-737],[-1369,0],[-720,-3389],[96,-3192],[-457,-983],[-936,688],[-1513,-1670],[-1489,-3389],[-505,442],[433,3537],[-577,1080],[-1128,-835],[-1297,-2407],[-769,-245],[-600,1080],[1897,2751],[1465,1670],[576,1179],[553,-786],[1297,786],[-120,2455],[-865,2161],[336,4470],[937,3978],[552,541],[721,2357],[1224,2849],[1369,2161],[2906,2554],[168,1129],[961,885],[624,-295],[360,1719],[1129,1522],[432,-687],[937,1228],[1081,-1032]],[[44836,59135],[-1561,1817],[-1537,4617],[361,1817],[-817,2702],[-480,-835],[624,-2260],[-1153,-1031]],[[81123,17731],[-1057,-2014],[-696,-442],[-480,-3733],[120,-3733],[-360,-1326],[-1081,-1719],[-1849,246],[-1537,-344],[-961,-3340]],[[73222,1326],[-1441,737],[-1249,-393],[-312,-1081],[-2353,-589],[-1153,344],[1081,4911],[2017,5305],[2041,2898],[625,2210],[288,2849],[-288,1424],[-1177,1522],[432,2211],[-768,736],[-553,1621]],[[88496,1130],[-2066,294],[-1080,1965],[-1585,442],[-793,-589],[-1224,884],[-1249,245],[-2570,-1375],[-1177,197],[-1993,-393],[-840,-1376],[-697,-98]]],"bbox":[-84.94718855667948,19.844066415606676,-74.13947988839301,23.19476713059919],"transform":{"scale":[0.00010807816746453931,0.00003350734222334736],"translate":[-84.94718855667948,19.844066415606676]}}