{"type":"Topology","objects":{"a1":{"type":"GeometryCollection","geometries":[{"type":"Polygon","arcs":[[0]],"id":"CUW-5151","properties":{"adm1_code":"CUW-5151","iso_3166_2":"CW-X01~","name":"Curaçao","admin":"Curaçao","adm0_a3":"CUW","type_en":null}}]}},"arcs":[[[99999,15962],[-4054,-15962],[-39189,18310],[-34459,28168],[-22297,29108],[676,24413],[23648,-14554],[7432,-24413],[20946,-15493],[33108,-8450],[14189,-21127]]],"bbox":[-69.16388490349745,12.041673444202203,-68.77974924477833,12.392213352008397],"transform":{"scale":[0.000003841395001141183,0.0000035054341324032657],"translate":[-69.16388490349745,12.041673444202203]}}