{"type":"Topology","objects":{"a1":{"type":"GeometryCollection","geometries":[{"type":"Polygon","arcs":[[0]],"id":"CYM+00?","properties":{"adm1_code":"CYM+00?","iso_3166_2":"KY-X01~","name":"Cayman Islands","admin":"Cayman Islands","adm0_a3":"CYM","type_en":null}}]}},"arcs":[[[98461,82978],[1538,-82978],[-99999,23404],[9231,76595],[89230,-17021]]],"bbox":[-81.303090821263,19.29110205399691,-81.1343825927715,19.36845123553161],"transform":{"scale":[0.0000016870991559065238,7.73499550342504e-7],"translate":[-81.303090821263,19.29110205399691]}}