{"type":"Topology","objects":{"a1":{"type":"GeometryCollection","geometries":[{"type":"Polygon","arcs":[[0]],"id":"CYN+00?","properties":{"adm1_code":"CYN+00?","iso_3166_2":"-99-X04~","name":"Northern Cyprus","admin":"Northern Cyprus","adm0_a3":"CYN","type_en":null}}]}},"arcs":[[[63977,5750],[-7510,-5750],[-4590,500],[-10153,2250],[-4868,22500],[-4589,-5250],[-6676,4250],[-5007,-3250],[-12935,-13750],[-7649,15750],[8206,-3750],[3477,11500],[-557,24999],[8067,-5999],[3755,499],[15299,-4999],[12517,4750],[6676,8499],[2643,-1000],[10848,9500],[7789,12500],[7371,4750],[13908,15750],[-278,-7000],[-11822,-18500],[-11544,-16250],[-4172,-13749],[-4729,-500],[-3477,-11750],[-417,-12000],[6119,-15250],[-5702,750]]],"bbox":[32.71252550450251,35.03083763267489,34.57869806273928,35.68912853935319],"transform":{"scale":[0.00001866191220148971,0.000006582974896531997],"translate":[32.71252550450251,35.03083763267489]}}