{"type":"Topology","objects":{"a1":{"type":"GeometryCollection","geometries":[{"type":"Polygon","arcs":[[0,1,2,3,4]],"id":"DEU-1601","properties":{"adm1_code":"DEU-1601","iso_3166_2":"DE-SN","name":"Sachsen","admin":"Germany","adm0_a3":"DEU","type_en":"State"}},{"type":"Polygon","arcs":[[-1,5,6,7,8]],"id":"DEU-1591","properties":{"adm1_code":"DEU-1591","iso_3166_2":"DE-BY","name":"Bayern","admin":"Germany","adm0_a3":"DEU","type_en":"State"}},{"type":"Polygon","arcs":[[9,10,11,12,13,14]],"id":"DEU-1580","properties":{"adm1_code":"DEU-1580","iso_3166_2":"DE-RP","name":"Rheinland-Pfalz","admin":"Germany","adm0_a3":"DEU","type_en":"State"}},{"type":"Polygon","arcs":[[-14,15]],"id":"DEU-1581","properties":{"adm1_code":"DEU-1581","iso_3166_2":"DE-SL","name":"Saarland","admin":"Germany","adm0_a3":"DEU","type_en":"State"}},{"type":"MultiPolygon","arcs":[[[16,17,18,19]],[[20]]],"id":"DEU-1579","properties":{"adm1_code":"DEU-1579","iso_3166_2":"DE-SH","name":"Schleswig-Holstein","admin":"Germany","adm0_a3":"DEU","type_en":"State"}},{"type":"Polygon","arcs":[[-18,21,22,23,24,25,26,27,28,29,30],[31]],"id":"DEU-1576","properties":{"adm1_code":"DEU-1576","iso_3166_2":"DE-NI","name":"Niedersachsen","admin":"Germany","adm0_a3":"DEU","type_en":"State"}},{"type":"Polygon","arcs":[[-10,32,-27,33]],"id":"DEU-1572","properties":{"adm1_code":"DEU-1572","iso_3166_2":"DE-NW","name":"Nordrhein-Westfalen","admin":"Germany","adm0_a3":"DEU","type_en":"State"}},{"type":"Polygon","arcs":[[-7,34,-12,35]],"id":"DEU-1573","properties":{"adm1_code":"DEU-1573","iso_3166_2":"DE-BW","name":"Baden-Württemberg","admin":"Germany","adm0_a3":"DEU","type_en":"State"}},{"type":"Polygon","arcs":[[-4,36,-23,37,38],[39]],"id":"DEU-3487","properties":{"adm1_code":"DEU-3487","iso_3166_2":"DE-BB","name":"Brandenburg","admin":"Germany","adm0_a3":"DEU","type_en":"State"}},{"type":"MultiPolygon","arcs":[[[-17,40,-38,-22]],[[41]],[[42]]],"id":"DEU-3488","properties":{"adm1_code":"DEU-3488","iso_3166_2":"DE-MV","name":"Mecklenburg-Vorpommern","admin":"Germany","adm0_a3":"DEU","type_en":"State"}},{"type":"MultiPolygon","arcs":[[[-29,43]],[[-32]]],"id":"DEU-1575","properties":{"adm1_code":"DEU-1575","iso_3166_2":"DE-HB","name":"Bremen","admin":"Germany","adm0_a3":"DEU","type_en":"State"}},{"type":"Polygon","arcs":[[-19,-31,44]],"id":"DEU-1578","properties":{"adm1_code":"DEU-1578","iso_3166_2":"DE-HH","name":"Hamburg","admin":"Germany","adm0_a3":"DEU","type_en":"State"}},{"type":"Polygon","arcs":[[-8,-36,-11,-34,-26,45]],"id":"DEU-1574","properties":{"adm1_code":"DEU-1574","iso_3166_2":"DE-HE","name":"Hessen","admin":"Germany","adm0_a3":"DEU","type_en":"State"}},{"type":"Polygon","arcs":[[-2,-9,-46,-25,46]],"id":"DEU-1577","properties":{"adm1_code":"DEU-1577","iso_3166_2":"DE-TH","name":"Thüringen","admin":"Germany","adm0_a3":"DEU","type_en":"State"}},{"type":"Polygon","arcs":[[-3,-47,-24,-37]],"id":"DEU-1600","properties":{"adm1_code":"DEU-1600","iso_3166_2":"DE-ST","name":"Sachsen-Anhalt","admin":"Germany","adm0_a3":"DEU","type_en":"State"}},{"type":"Polygon","arcs":[[-40]],"id":"DEU-1599","properties":{"adm1_code":"DEU-1599","iso_3166_2":"DE-BE","name":"Berlin","admin":"Germany","adm0_a3":"DEU","type_en":"State"}}]}},"arcs":[[[68095,39857],[-1278,475],[-880,840]],[[65937,41172],[937,1725],[1703,215],[1448,1531],[-227,1466],[1816,431],[2441,991],[-1107,927],[-681,1143],[-2384,323]],[[69883,49924],[-454,65],[-994,2673],[540,431],[-284,1617],[880,1487],[2129,129],[141,388],[2385,0],[2753,625],[1618,-452]],[[78597,56887],[1192,-647],[312,-1746],[568,-625],[1732,474],[1220,-711],[2668,-237],[2243,150],[1050,1488],[1022,711],[1958,-237],[1874,625],[2157,-215]],[[96593,55917],[2214,-949],[454,-948],[738,-1639],[-710,-2716],[-1561,-2694],[-397,-582],[-1817,517],[-653,776],[284,841],[-880,539],[-2270,258],[-398,-776],[1448,-754],[-3804,-1552],[-1561,-280],[-624,-733],[-2555,-151],[-1675,-1509],[-738,366],[-1618,-582],[-794,-1099],[-1647,-65],[-539,-1099],[-1476,431],[-1618,-625],[-1845,-65],[-1873,-1703],[-1164,0],[-1419,733]],[[68095,39857],[-227,-948],[1107,-927],[709,-1660],[2413,-970],[624,-862],[-794,-1638],[-738,-475],[2611,-3061],[227,-1056],[1675,-1336],[1362,64],[852,-495],[1958,-2307],[1334,-323],[909,-1315],[1504,-302],[1448,-1143],[766,-194],[994,-1336],[-142,-2026],[-965,-1164],[-2101,819],[-710,-1035],[-567,-1703],[-1419,-905],[-2640,-561],[-1703,-819],[-1448,-1056],[1135,-1811],[1562,-1767],[-1079,-1617],[1646,-367],[341,-646],[-397,-2026],[-1051,-281],[-1788,1100],[-369,1444],[-1987,-302],[-738,-172],[-795,819],[-2412,-173],[-398,-970],[-2526,87],[-1249,-475],[-2185,194],[-767,-991],[-1504,-108],[-1703,-1380],[-965,324],[-937,-453],[-3208,1638],[-1986,625],[-909,-452],[-1050,172],[227,-1358],[-1589,-1789],[-1420,-388],[171,1401],[-1306,-172],[0,970],[-1334,1099],[-1505,237],[-2810,-108]],[[40249,3427],[625,712],[1618,431],[1135,711],[965,-194],[1959,367],[-29,1681],[-454,1875],[540,1941],[-909,2586],[-795,992],[937,1185],[937,-64],[1788,840],[-28,1014],[1220,1228],[454,2781],[-1220,1552],[-880,237],[-596,1358],[-795,668],[256,2350],[-483,1660],[-2072,-388],[-85,905],[-1505,2242],[-1759,-302],[255,949],[-1788,302],[-1505,-108],[824,-1035],[-1902,-1703],[-1561,-21]],[[35396,30179],[397,2241],[-1334,2113],[-170,2479],[2384,603],[1107,-64],[851,-604],[1079,194],[57,1682],[1646,-22],[937,927],[199,1272],[1021,-43],[1562,646],[596,906]],[[45728,42509],[596,496],[1391,-582],[3888,-2458],[256,-1293],[2412,625],[-1334,647],[795,840],[3577,-280],[227,-711],[1305,-453],[284,1099],[-369,1488],[1079,603],[2015,-1832],[2782,453],[1305,21]],[[5450,39965],[2327,711],[1448,-474],[823,194],[-369,1509],[1959,1100],[2696,840],[2044,302],[170,798],[2299,388],[1874,1595],[1902,-302],[1220,-1832],[880,-108]],[[24723,44686],[312,-1272],[-624,-776],[-1164,-237],[227,-1574],[1107,-1444],[-2186,-1035],[-283,-1034],[-1363,-884],[1590,-1035],[2810,949],[1760,-1143],[56,-884],[1079,-2155],[-852,-819],[597,-1121]],[[27789,30222],[851,-1789],[-142,-1897],[-1107,-1078],[-255,-1380],[-795,-1315],[-908,-668]],[[25433,22095],[-2924,992],[-3151,21],[-1362,625],[-483,884],[-1135,194]],[[16378,24811],[-852,517],[994,2156],[-1533,992],[681,517],[-425,1229],[-3634,625],[-3633,-1272],[-2782,-65]],[[5194,29510],[0,539],[1562,1768],[85,1229],[-2243,711],[-1532,1336],[-653,1272],[227,949],[340,1228],[2470,1423]],[[16378,24811],[-1135,-797],[-1249,129],[-1590,884],[-1817,366],[-1277,-711],[-1675,2694],[-851,970],[-1646,259],[56,905]],[[55009,87626],[-1561,-1272],[-28,-1552],[1958,-798],[171,-1552],[-3492,-1595],[-369,-948]],[[51688,79909],[-2980,797]],[[48708,80706],[-1590,1250],[426,1380],[-880,1035],[-4399,-1832]],[[42265,82539],[-2072,797],[-199,1013],[-1050,496],[-454,1078],[-1902,776],[-2328,21],[-993,582],[-909,1294],[1789,-65],[227,884],[-2243,1078],[824,1616],[-2583,-388],[-256,1488],[2526,345],[1590,668],[57,539],[-1732,1487],[-511,884],[-1277,625],[-312,2113],[1788,129],[4059,-733],[341,-582],[2327,65],[1277,474],[2697,-841],[1845,-258],[681,-1445],[-142,-1401],[2016,-1121],[6273,-1897],[1731,841],[1533,-496],[-114,-2069],[-3434,-1832],[1674,-1078]],[[58841,94394],[-738,-689],[-1987,560],[1249,884],[1476,-755]],[[51688,79909],[5337,-2997],[596,388],[1419,-733]],[[59040,76567],[3378,-970]],[[62418,75597],[-880,-1293],[-2612,-884],[-2724,453],[-597,-604],[-2157,-366],[-57,-668],[2129,-2522],[540,-1251],[-682,-474],[1476,-1185],[-823,-388],[937,-1531],[-511,-1229],[-993,-970],[-3123,-172],[-766,-884],[539,-1229],[-596,-1379],[1221,-1833]],[[52739,57188],[-483,-776],[-1533,-301],[-993,474],[-625,-647],[-2356,-1444],[-1135,0],[-1050,-668]],[[44564,53826],[-1561,345],[-1363,-1208],[-1249,345],[767,884],[-454,1337],[823,625],[-540,927],[-1987,258]],[[39000,57339],[-567,1057],[795,1336],[-2754,1832],[-227,1358],[-596,733],[-1448,22],[-198,1724],[369,992],[1192,884],[-511,1164],[-1306,-1143],[-1476,-280],[-1305,259],[-29,948],[-795,561],[-1476,-216],[-1788,-1423],[1050,-409],[625,-2587],[-1022,-754],[-1362,280],[-965,-647],[-1704,-237],[-85,1423],[-1220,345],[766,1466],[-766,840],[-823,-194],[-2413,1488],[-511,-1358],[-2867,-1315],[-2980,-432]],[[12603,65056],[227,1660],[-823,1121],[-795,-258],[-2242,582],[255,1983],[3491,258],[369,2544],[1221,1638],[-114,2091],[227,1574],[682,970],[-1987,237],[-568,1466],[710,1789],[1532,1056],[2527,367],[511,-216],[4882,561],[2356,-2199],[-1193,-668],[1618,-1208],[965,388],[284,906],[-766,1056],[2895,-453],[454,-452]],[[29321,81849],[767,1099],[-1249,173]],[[28839,83121],[-227,1271],[908,1876],[1221,409],[1901,-754],[2782,431],[1760,0],[3207,-3471],[2129,-689]],[[42520,82194],[511,-1100],[1079,-582],[1901,431],[1136,-625],[1561,388]],[[29406,77796],[1505,-1724],[2327,-712],[824,906],[-2669,1271],[-1987,259]],[[5450,39965],[-596,2070],[-1306,129],[-426,690],[795,582],[-1675,1638],[-936,474],[766,2070],[-653,862],[-1419,-108],[1192,1444],[1618,841],[-738,1207],[1306,1358],[113,2285],[-1163,1121],[113,647],[-1675,1336],[-198,798],[1277,517],[1987,216],[1731,-475],[1590,647],[2044,302],[965,1121],[-1420,647],[1051,970],[653,64],[2157,1638]],[[39000,57339],[-1050,-495],[-113,-755],[-2470,-1444],[-1022,862],[-1192,-366],[312,-1186],[-2724,-366],[-1193,-1143],[1618,-129],[284,-1229],[-1022,-1099],[-1447,64],[227,-948],[-1987,-2091],[-1050,86],[-1420,-1078],[-28,-1336]],[[40249,3427],[-85,22],[-3009,1509],[-2810,366],[-1788,-86],[-2384,1488],[-823,215],[-1051,-496],[-794,-948],[738,-668],[1476,237],[-171,-841],[-283,43],[-1420,-215],[-2639,452],[-1022,-625],[-1902,-108],[-1022,475],[-993,-604],[-880,22],[-682,431],[-681,1121],[29,1487],[1021,2867],[-397,1552],[1845,3061],[-142,690],[795,2716],[1504,1272],[227,603],[1448,841],[1079,1789]],[[27789,30222],[908,-65],[1873,625],[511,-1056],[1221,-496],[-142,-1315],[2412,1294],[824,970]],[[78597,56887],[1306,1228],[-199,1057],[-1050,840],[-4371,1854],[-1164,-302],[-1533,518],[-2413,2392],[511,3255],[454,841],[-1532,173],[596,4526],[-2583,259],[-1476,561],[-738,883],[-1987,625]],[[59040,76567],[1334,-129],[1760,496],[-227,776],[1788,582],[1533,-302],[1873,970],[568,733],[1362,173],[2669,-1315],[879,43],[5365,-1358],[1646,1185],[1420,388],[1362,-172],[795,431],[653,1164],[1845,1035],[1760,409],[567,-1056],[3520,0],[-28,-582],[-1505,-1444],[1590,-173],[1561,992]],[[93130,79413],[568,-1078],[-710,-992],[-369,-1681],[-2186,-1164],[795,-1854],[1817,-1034],[539,-690],[1930,-1186],[256,-1293],[-1022,-992],[738,-1897],[993,-302],[-113,-1724],[823,-582],[-738,-1919],[-1192,-1659],[1476,-1682],[-142,-1767]],[[84756,68311],[256,582],[-1590,1035],[-2214,539],[-1561,-668],[-709,-2458],[4002,44],[1958,-539],[1221,991],[-1363,474]],[[55009,87626],[2952,733],[738,-949],[2356,-366],[369,1121],[1391,970],[426,862],[4939,539],[851,776],[1703,797],[1732,2221],[2100,-518],[-170,-539],[2157,-366],[1476,948],[1136,-2069],[1901,-582],[2101,-1444],[2214,560],[1362,-819],[-539,-970],[1448,-1552],[-767,-453],[1789,-1358],[1334,-409],[1731,108],[0,-669],[454,-2500],[937,-2285]],[[91143,87324],[-85,-798],[-3577,-431],[625,712],[-312,927],[1618,452],[-1136,819],[-1362,-388],[-171,1035],[2300,-733],[2100,-1595]],[[85551,93273],[-2157,-625],[-1675,-1401],[-1504,496],[-1022,819],[1476,625],[-766,884],[-171,1250],[2300,-301],[993,668],[1902,108],[397,-582],[-1107,-906],[1334,-1035]],[[29321,81849],[-482,1272]],[[42520,82194],[-255,345]],[[44564,53826],[-29,-1013],[1476,-1057],[1618,-517],[-965,-1681],[-993,-626],[57,-1638],[-1164,-884],[-398,-1595],[1505,-302],[57,-2004]],[[52739,57188],[1163,-64],[1164,-819],[965,-2113],[3463,-345],[1505,-1466],[-1193,-862],[909,-1401],[2867,-86],[482,-970],[1391,64],[1589,-970],[1675,44],[1277,754],[-113,970]]],"bbox":[5.874939618315665,47.27175704235776,15.018925602555157,54.90628583255926],"transform":{"scale":[0.00009144077425013742,0.00007634605136252863],"translate":[5.874939618315665,47.27175704235776]}}