{"type":"Topology","objects":{"a1":{"type":"GeometryCollection","geometries":[{"type":"Polygon","arcs":[[0,1,2,3,4]],"id":"EGY-1558","properties":{"adm1_code":"EGY-1558","iso_3166_2":"EG-SIN","name":"Shamal Sina'","admin":"Egypt","adm0_a3":"EGY","type_en":"Governorate"}},{"type":"Polygon","arcs":[[5,6,7,8]],"id":"EGY-1548","properties":{"adm1_code":"EGY-1548","iso_3166_2":"EG-ASN","name":"Aswan","admin":"Egypt","adm0_a3":"EGY","type_en":"Governorate"}},{"type":"Polygon","arcs":[[-9,9,10,11,12,13,14,15,16]],"id":"EGY-1556","properties":{"adm1_code":"EGY-1556","iso_3166_2":"EG-BA","name":"Al Bahr al Ahmar","admin":"Egypt","adm0_a3":"EGY","type_en":"Governorate"}},{"type":"Polygon","arcs":[[17,18,19,20,21]],"id":"EGY-1540","properties":{"adm1_code":"EGY-1540","iso_3166_2":"EG-MT","name":"Matruh","admin":"Egypt","adm0_a3":"EGY","type_en":"Governorate"}},{"type":"Polygon","arcs":[[-21,22,23,24,25,26,-7,27]],"id":"EGY-1550","properties":{"adm1_code":"EGY-1550","iso_3166_2":"EG-WAD","name":"Al Wadi at Jadid","admin":"Egypt","adm0_a3":"EGY","type_en":"Governorate"}},{"type":"Polygon","arcs":[[-2,28,29,-16,30,31,32]],"id":"EGY-1536","properties":{"adm1_code":"EGY-1536","iso_3166_2":"EG-SUZ","name":"As Suways","admin":"Egypt","adm0_a3":"EGY","type_en":"Governorate"}},{"type":"Polygon","arcs":[[-1,33,-29]],"id":"EGY-1557","properties":{"adm1_code":"EGY-1557","iso_3166_2":"EG-JS","name":"Janub Sina'","admin":"Egypt","adm0_a3":"EGY","type_en":"Governorate"}},{"type":"Polygon","arcs":[[-4,34,35,36]],"id":"EGY-1538","properties":{"adm1_code":"EGY-1538","iso_3166_2":"EG-PTS","name":"Bur Sa`id","admin":"Egypt","adm0_a3":"EGY","type_en":"Governorate"}},{"type":"Polygon","arcs":[[37,38,39,40,41,42,43]],"id":"EGY-1537","properties":{"adm1_code":"EGY-1537","iso_3166_2":"EG-DK","name":"Ad Daqahliyah","admin":"Egypt","adm0_a3":"EGY","type_en":"Governorate"}},{"type":"MultiPolygon","arcs":[[[-36,44,45]],[[-39,46,47,48,49]]],"id":"EGY-1535","properties":{"adm1_code":"EGY-1535","iso_3166_2":"EG-SHR","name":"Ash Sharqiyah","admin":"Egypt","adm0_a3":"EGY","type_en":"Governorate"}},{"type":"Polygon","arcs":[[-3,-33,50,-48,51,-45,-35]],"id":"EGY-1531","properties":{"adm1_code":"EGY-1531","iso_3166_2":"EG-IS","name":"Al Isma`iliyah","admin":"Egypt","adm0_a3":"EGY","type_en":"Governorate"}},{"type":"Polygon","arcs":[[-44,52]],"id":"EGY-1539","properties":{"adm1_code":"EGY-1539","iso_3166_2":"EG-DT","name":"Dumyat","admin":"Egypt","adm0_a3":"EGY","type_en":"Governorate"}},{"type":"Polygon","arcs":[[-42,53,54,55]],"id":"EGY-1547","properties":{"adm1_code":"EGY-1547","iso_3166_2":"EG-KFS","name":"Kafr ash Shaykh","admin":"Egypt","adm0_a3":"EGY","type_en":"Governorate"}},{"type":"Polygon","arcs":[[-19,56,57,-55,58,59,60]],"id":"EGY-1541","properties":{"adm1_code":"EGY-1541","iso_3166_2":"EG-BH","name":"Al Buhayrah","admin":"Egypt","adm0_a3":"EGY","type_en":"Governorate"}},{"type":"Polygon","arcs":[[-18,61,-57]],"id":"EGY-1543","properties":{"adm1_code":"EGY-1543","iso_3166_2":"EG-ALX","name":"Al Iskandariyah","admin":"Egypt","adm0_a3":"EGY","type_en":"Governorate"}},{"type":"Polygon","arcs":[[-32,62,63,-49,-51]],"id":"EGY-1533","properties":{"adm1_code":"EGY-1533","iso_3166_2":"EG-C","name":"Al Qahirah","admin":"Egypt","adm0_a3":"EGY","type_en":"Governorate"}},{"type":"Polygon","arcs":[[-15,64,65,66,67,-23,-20,-61,68,69,-63,-31]],"id":"EGY-1544","properties":{"adm1_code":"EGY-1544","iso_3166_2":"EG-GZ","name":"Al Jizah","admin":"Egypt","adm0_a3":"EGY","type_en":"Governorate"}},{"type":"Polygon","arcs":[[-13,70,-24,-68,71]],"id":"EGY-1545","properties":{"adm1_code":"EGY-1545","iso_3166_2":"EG-MN","name":"Al Minya","admin":"Egypt","adm0_a3":"EGY","type_en":"Governorate"}},{"type":"Polygon","arcs":[[-66,72]],"id":"EGY-1542","properties":{"adm1_code":"EGY-1542","iso_3166_2":"EG-FYM","name":"Al Fayyum","admin":"Egypt","adm0_a3":"EGY","type_en":"Governorate"}},{"type":"Polygon","arcs":[[-14,-72,-67,-73,-65]],"id":"EGY-1546","properties":{"adm1_code":"EGY-1546","iso_3166_2":"EG-BNS","name":"Bani Suwayf","admin":"Egypt","adm0_a3":"EGY","type_en":"Governorate"}},{"type":"Polygon","arcs":[[-60,73,74,-69]],"id":"EGY-1532","properties":{"adm1_code":"EGY-1532","iso_3166_2":"EG-MNF","name":"Al Minufiyah","admin":"Egypt","adm0_a3":"EGY","type_en":"Governorate"}},{"type":"Polygon","arcs":[[-40,-50,-64,-70,-75,75]],"id":"EGY-1534","properties":{"adm1_code":"EGY-1534","iso_3166_2":"EG-KB","name":"Al Qalyubiyah","admin":"Egypt","adm0_a3":"EGY","type_en":"Governorate"}},{"type":"Polygon","arcs":[[-41,-76,-74,-59,-54]],"id":"EGY-1530","properties":{"adm1_code":"EGY-1530","iso_3166_2":"EG-GH","name":"Al Gharbiyah","admin":"Egypt","adm0_a3":"EGY","type_en":"Governorate"}},{"type":"Polygon","arcs":[[-11,76,-26,77]],"id":"EGY-1552","properties":{"adm1_code":"EGY-1552","iso_3166_2":"EG-SHG","name":"Suhaj","admin":"Egypt","adm0_a3":"EGY","type_en":"Governorate"}},{"type":"Polygon","arcs":[[-8,-27,-77,-10],[78]],"id":"EGY-1551","properties":{"adm1_code":"EGY-1551","iso_3166_2":"EG-KN","name":"Qina","admin":"Egypt","adm0_a3":"EGY","type_en":"Governorate"}},{"type":"Polygon","arcs":[[-12,-78,-25,-71]],"id":"EGY-1549","properties":{"adm1_code":"EGY-1549","iso_3166_2":"EG-AST","name":"Asyut","admin":"Egypt","adm0_a3":"EGY","type_en":"Governorate"}},{"type":"Polygon","arcs":[[-79]],"id":"EGY-5494","properties":{"adm1_code":"EGY-5494","iso_3166_2":"EG-LX","name":"Luxor","admin":"Egypt","adm0_a3":"EGY","type_en":"Governorate"}}]}},"arcs":[[[83524,77567],[-3423,596],[-3635,1652],[-2083,1244],[-5230,1022],[-2253,-120]],[[66900,81961],[-213,443],[-255,3066]],[[66432,85470],[-425,1243],[-765,1312],[-425,4905]],[[64817,92930],[0,903]],[[64817,93833],[1062,-238],[1255,579],[701,-85],[489,783],[574,290],[723,-1329],[1637,545],[914,154],[1212,-120],[1700,477],[1573,681],[1255,886],[404,-1073],[659,-2248],[1233,-3543],[446,-2606],[531,-579],[1106,-3492],[64,-681],[680,-2061],[191,-1771],[319,-835],[-21,0]],[[55760,0],[-488,0],[446,1584],[-64,494],[-638,290],[-744,-1261]],[[54272,1107],[-722,988],[637,852],[1212,255],[617,460],[574,869],[191,715],[-213,1516],[702,954],[1275,-188],[2594,1448],[531,51],[553,-494],[744,-68],[489,-409],[468,903],[255,1141],[914,2538],[914,1227],[-85,885],[-1913,-153],[-617,443],[425,2095],[574,852],[1510,408],[255,358],[-808,732],[-213,511],[256,920],[1318,222],[446,919],[-128,750],[107,3423],[382,1244],[-701,2299],[-85,1056],[-362,852],[-1126,920]],[[65242,32601],[297,255],[128,1039]],[[65667,33895],[1658,-1465],[595,-1005],[234,-1209],[128,-1908],[871,-2129],[-85,-630],[-893,-1482],[-319,-1703],[234,-1771],[489,-1363],[702,-886],[191,-1413],[-234,-1022],[574,-1959],[-361,-1380],[-850,-1431],[106,-477],[1212,-749],[531,-818],[340,-1345],[-319,-358],[-1190,1261],[-1276,102],[-1254,903],[-468,-1056],[-42,-1074],[-319,-528],[-1637,-1788],[-1063,-426],[-765,119],[-1254,1176],[-404,-426],[-553,-1755],[-808,-970],[-680,-137],[-510,-732],[-1701,-937],[-787,-1124]],[[65667,33895],[-532,903],[-148,1311],[318,903],[1659,1976],[552,1788],[-85,1141],[-319,954],[-977,1039],[-638,222],[-1191,-85],[-1892,-954]],[[62414,43093],[-1254,1941],[-1360,631],[-574,954],[-43,579],[-680,1396],[-1722,1482]],[[56781,50076],[-1191,2589],[-1148,1192],[-807,1227],[-2062,1039],[-362,885],[21,1210]],[[51232,58218],[128,988],[-553,3389],[-425,971],[-191,1260],[786,2215],[277,2521]],[[51254,69562],[382,1345],[1637,2436],[510,1260],[22,988]],[[53805,75591],[1445,-2027],[553,-374],[3019,-1022]],[[58822,72168],[340,-171],[2104,239],[3210,1499],[787,17]],[[65263,73752],[-255,-1533],[468,-954],[1147,-1380],[383,-1737],[1106,-937],[999,-2078],[1743,-2095],[1424,-1311],[532,-1125],[-447,-1022],[-21,-1192],[319,-1039],[616,-426],[468,-1584],[1105,-851],[85,-1431],[1361,-2828],[-468,-323],[-42,-1686],[595,-443],[744,-1908],[595,-1158],[1340,-3236],[1700,-2879],[702,-1601],[404,-1465],[489,-800],[531,-1431],[1488,-3185],[64,-767],[553,-681],[382,-1260],[1021,-2521],[1275,-1210],[298,-1004],[553,-801],[765,-341],[149,-579],[914,-272],[-277,-852],[-1403,681],[-234,-613],[-85,-1243],[298,-426],[-170,-2674],[425,-903],[277,-2044],[659,-1448],[318,-1464],[489,-103],[255,-919],[830,-1005],[807,-426],[1744,-443],[616,-613],[319,-1039],[957,-681],[85,-716],[999,-630],[1254,-1312],[340,86],[1148,-1159],[-106,-732],[-3827,0],[-7610,0],[-3827,0],[-5697,0],[-3826,0],[-5719,0],[-5187,0],[-8440,0]],[[40221,93305],[212,-6966]],[[40433,86339],[383,-886],[5400,-3662]],[[46216,81791],[-6378,-4292],[-5336,-5945],[-1637,-1379],[-6505,-1891],[-595,-272],[-616,-852],[-3551,-8448]],[[21598,58712],[-19196,-17]],[[2402,58695],[0,4462],[0,4088],[0,7137],[-191,1141],[-680,1823],[-22,1754],[-552,1209],[63,1414],[-1020,2623],[21,392],[681,1533],[1105,1737],[723,2964],[-872,2418],[-255,1312],[21,2436],[1340,1175],[297,885],[744,801],[319,-1294],[1722,-307],[3465,1158],[1169,17],[3232,-971],[3210,-460],[914,-425],[829,136],[1233,-613],[1679,-102],[510,-1159],[766,-562],[1488,-357],[1679,562],[277,-1244],[637,-221],[1467,0],[1339,-341],[702,273],[3401,-1397],[85,-375],[1616,-902],[1573,102],[2338,1226],[766,562]],[[21598,58712],[10885,0]],[[32483,58712],[16666,0],[-127,-358]],[[49022,58354],[63,-1005],[766,-1822],[1360,-1567],[1148,-614],[765,-885],[1042,-2351]],[[54166,50110],[1127,-1584],[786,-749],[3423,-4872]],[[59502,42905],[1297,-1396],[935,-375],[1127,324],[1870,1005],[1127,-120],[170,-885],[-956,-2453],[-1127,-1022],[-425,-698],[510,-3117],[446,-869],[766,-698]],[[54272,1107],[-531,-1107],[-6696,0],[-7972,0],[-4783,0],[-4783,0],[-7972,0],[-7972,0],[-6378,0],[-4783,0],[0,9061],[0,9062],[0,9061],[0,6047],[0,9061],[0,10015],[0,6388]],[[66900,81961],[-1658,-1294]],[[65242,80667],[-723,1891],[-787,-580],[192,-647],[-808,-1226],[-447,-1397],[404,-766],[1382,-1329],[276,-494],[532,-2367]],[[58822,72168],[531,7954],[-42,477]],[[59311,80599],[63,937],[-404,3713]],[[58970,85249],[2955,119],[1765,-392],[1190,630],[1552,-136]],[[83524,77567],[-1212,-1908],[-64,-1107],[-446,-954],[85,-1209],[-319,-221],[-106,-2044],[-510,-1499],[-489,-903],[-851,-2385],[383,-1447],[-213,-1908],[-1551,-1959],[-1319,68],[-744,886],[-1828,1414],[-723,1414],[-340,255],[-574,1158],[-1063,716],[-531,851],[-1148,1261],[-276,1090],[276,920],[-404,562],[-276,2214],[-1531,1754],[-595,426],[-553,1209],[-21,562],[-617,443],[-233,1278],[-255,204],[85,1380],[-319,579]],[[64817,92930],[-2381,1499],[-170,-51]],[[62266,94378],[-22,579]],[[62244,94957],[-255,1107],[0,120],[617,-171],[2211,-2180]],[[58205,96064],[1148,-919],[425,443],[553,-1056]],[[60331,94532],[-829,-443],[-1382,-205],[-1360,-2350],[-574,-443],[-1042,0],[-489,-375],[149,-1277],[-213,-648]],[[54591,88791],[-808,154]],[[53783,88945],[128,749],[-319,1584],[85,886],[447,1380],[-383,783]],[[53741,94327],[383,324],[-107,2163],[-255,1328],[808,545]],[[54570,98687],[1807,-902]],[[56377,97785],[-553,-716],[893,-647],[638,-17],[-106,-1073],[956,732]],[[62266,94378],[-1212,-272]],[[61054,94106],[871,204],[319,647]],[[60331,94532],[723,-511]],[[61054,94021],[425,-443],[0,-733],[-617,-1379],[107,-937],[-277,-664],[-1020,-1227],[-1148,-119],[-255,-443],[340,-1720]],[[58609,86356],[-2041,-1533]],[[56568,84823],[-1700,937],[-936,1618],[128,817],[531,596]],[[58970,85249],[-361,1107]],[[61054,94021],[0,85]],[[56377,97785],[1467,392],[723,459],[616,103],[255,-154],[532,-1073],[701,-528],[-106,-68],[-617,375],[-106,443],[-616,885],[-596,-272],[-63,-1397],[-362,-886]],[[53741,94327],[-1467,119],[-170,-885],[-1637,-545],[-701,17]],[[49766,93033],[-532,1124],[-1679,1567],[127,988],[-680,477],[-234,596]],[[46768,97785],[2296,545],[-404,-630],[914,-307],[489,426],[893,-239],[723,290],[319,715],[616,205],[-106,698],[2062,-801]],[[40433,86339],[489,1294],[362,426],[1339,681],[999,1329],[-234,647],[-893,1431],[277,1107],[-277,818],[1106,664],[723,1414]],[[44324,96150],[552,-716],[829,426],[-127,477],[1190,1448]],[[49766,93033],[212,-1108],[-297,-1056],[361,-987]],[[50042,89882],[446,-2351],[-148,-1226]],[[50340,86305],[-3806,-3765],[-318,-749]],[[40221,93305],[1977,1482],[1658,1720],[468,-357]],[[59311,80599],[-5209,-239],[-42,1295],[-553,1277],[149,1107]],[[53656,84039],[1658,716],[1254,68]],[[53805,75591],[-170,750],[-1106,306]],[[52529,76647],[-574,2896],[-616,579],[-1722,-239],[-1701,-868],[-2104,-1499],[-3806,-4105]],[[42006,73411],[-340,-2606],[-212,-801]],[[41454,70004],[-1318,-3883],[-1042,-1533],[-1233,-1022],[-3805,-2231],[-574,-494],[-999,-2129]],[[50340,86305],[680,17],[510,-1141],[723,-35],[638,-476]],[[52891,84670],[765,-631]],[[51232,58218],[-892,-119],[-1318,255]],[[41454,70004],[8354,222],[1446,-664]],[[52529,76647],[-1382,-2231],[-1233,-1056],[-3422,-1073],[-935,392],[-3551,732]],[[50042,89882],[1063,391],[1127,-340],[1530,-1244]],[[53762,88689],[-935,-1226],[-277,-1175],[341,-1618]],[[53762,88689],[21,256]],[[62414,43093],[-425,-273],[-978,1073],[-1509,-988]],[[54166,50110],[1424,1022],[638,-1022],[553,-34]],[[65220,38170],[149,392],[-149,85],[-212,-443],[212,-34]]],"bbox":[24.687204850722054,21.995031953178,36.89648957109179,31.65709673594864],"transform":{"scale":[0.0001220940681443788,0.00009662161404384685],"translate":[24.687204850722054,21.995031953178]}}