{"type":"Topology","objects":{"a1":{"type":"GeometryCollection","geometries":[{"type":"Polygon","arcs":[[0,1]],"id":"ERI-1565","properties":{"adm1_code":"ERI-1565","iso_3166_2":"ER-DK","name":"Debubawi Keyih Bahri","admin":"Eritrea","adm0_a3":"ERI","type_en":"Region"}},{"type":"MultiPolygon","arcs":[[[2,3,4,5,6,-1]],[[7]]],"id":"ERI-1562","properties":{"adm1_code":"ERI-1562","iso_3166_2":"ER-DU","name":"Debub","admin":"Eritrea","adm0_a3":"ERI","type_en":"Region"}},{"type":"Polygon","arcs":[[-6,8,9,10]],"id":"ERI-1563","properties":{"adm1_code":"ERI-1563","iso_3166_2":"ER-SK","name":"Semenawi Keyih Bahri","admin":"Eritrea","adm0_a3":"ERI","type_en":"Region"}},{"type":"Polygon","arcs":[[-10,11,12,13]],"id":"ERI-1560","properties":{"adm1_code":"ERI-1560","iso_3166_2":"ER-GB","name":"Gash Barka","admin":"Eritrea","adm0_a3":"ERI","type_en":"Region"}},{"type":"Polygon","arcs":[[14,-13,15,-4]],"id":"ERI-1564","properties":{"adm1_code":"ERI-1564","iso_3166_2":"ER-MA","name":"Maekel","admin":"Eritrea","adm0_a3":"ERI","type_en":"Region"}},{"type":"Polygon","arcs":[[-5,-16,-12,-9]],"id":"ERI-1561","properties":{"adm1_code":"ERI-1561","iso_3166_2":"ER-AN","name":"Anseba","admin":"Eritrea","adm0_a3":"ERI","type_en":"Region"}}]}},"arcs":[[[58704,35014],[1978,4286],[1357,2186],[233,2041],[-311,2391]],[[61961,45918],[2404,-2362],[-116,-1078],[1241,-962],[1124,204],[931,-642],[3141,-641],[775,-1312],[1474,-1399],[426,-1546],[2559,-3323],[543,-1545],[1163,-1108],[853,-2187],[1939,-204],[504,-874],[2094,-759],[194,-962],[1589,-2274],[2792,-1428],[814,-2770],[543,-3440],[1474,-496],[659,700],[2016,-2886],[1202,-962],[543,-2741],[1435,-729],[1396,-204],[581,1604],[1280,-1429],[465,-1982],[-3257,-1633],[-698,-87],[-1008,-1662],[116,-1575],[-1434,-845],[-272,-379],[-2365,2420],[-1357,437],[-776,-962],[-3606,5452],[-2830,1807],[-776,1283],[-1163,2916],[-1590,2390],[-2714,2595],[-4575,3411],[-466,525],[-2210,4519],[-3140,4140],[-1939,1195],[-1784,379],[-2443,1399],[-1008,1108]],[[58704,35014],[-1163,1225],[-2559,1078],[-1551,-175],[-1318,-583],[-2172,1458],[-659,-58]],[[49282,37959],[-5157,10233],[-775,1720]],[[43350,49912],[-1900,1254],[-1590,1807],[-1977,3994]],[[37883,56967],[-543,2187],[-1706,3003],[-2017,291],[-2132,1167],[-504,1049],[349,3499],[-698,2011],[-1086,1283],[-1318,3440],[-3412,700],[-776,1020],[155,2595],[-775,1108],[232,2012],[233,7259],[-116,2187]],[[23769,91778],[2171,291],[1357,-262],[78,1078],[1318,933],[1706,4169],[2133,2012],[1396,-3499],[1395,-2448],[1047,-2741],[1047,-2070],[1900,-6414],[194,-1428],[892,-2828],[504,-2945],[543,-5831],[543,-3382],[1163,-3790],[1706,-1312],[-39,-933],[853,-2711],[-349,-1603],[1939,116],[1124,-3440],[815,-1283],[-311,-2478],[1707,-787],[659,1662],[-427,1662],[-737,524],[-77,1662],[1551,2012],[1939,-2187],[1008,-525],[-698,-2011],[1667,-3178],[310,-1341],[2133,-1166],[1086,1253],[1202,292],[1473,-233],[271,-700]],[[59208,58134],[388,-758],[-1900,-438],[-1163,467],[-2210,-146],[310,1224],[-620,1021],[-1706,1049],[736,671],[1745,612],[698,-1020],[-77,-1429],[465,-1195],[1008,-292],[814,1312],[1512,-1078]],[[37883,56967],[-2598,-320]],[[35285,56647],[-1513,-204],[-2753,87],[-814,408],[-1318,2099],[-1202,700],[-2559,-671],[-1435,1137],[-2598,758],[-1279,846],[-2986,-29],[-1706,1341],[-1280,2216],[-1473,1282],[-2714,962],[-814,1342],[-621,2711],[-698,583]],[[7522,72215],[-736,1633],[348,2274],[1241,1924],[117,3819],[-272,1458],[2404,-817],[2598,671],[1396,-437],[853,1137],[620,1778],[78,2187],[3179,1166],[1202,1662],[1086,-700],[2133,1808]],[[35285,56647],[38,-7114]],[[35323,49533],[-1008,146],[-4420,-1225],[-1318,-1924],[-1319,-991],[-542,-1662],[620,-2128],[-116,-1137]],[[27220,40612],[-3568,1283],[-1745,2740],[-4846,-13498],[-1357,1457],[-1202,2683],[-1513,1895],[-2559,-642],[-736,-2420],[-1009,-379],[-891,729],[-2947,496],[-2714,-700],[-621,-525],[-930,9388],[-582,5627],[1512,2420],[737,2594],[814,904],[-194,1545],[815,3382],[1318,2012],[1900,6181],[853,1195],[-233,3236]],[[49282,37959],[-1861,175],[-1241,991],[-388,-758],[-1822,-758],[-1473,87],[-892,-845],[-776,2128],[-1202,1370],[-969,205],[-465,-1429],[-1706,-1312],[-3878,-1020],[-2675,-350],[-1551,1574],[-1163,2595]],[[35323,49533],[7406,0],[621,379]]],"bbox":[36.42410653131557,12.359298806674474,43.1179299356169,18.004143331440844],"transform":{"scale":[0.00006693890343204758,0.000056449009737761075],"translate":[36.42410653131557,12.359298806674474]}}