{"type":"Topology","objects":{"a1":{"type":"GeometryCollection","geometries":[{"type":"Polygon","arcs":[[0]],"id":"ESB-5132","properties":{"adm1_code":"ESB-5132","iso_3166_2":"-99-X16~","name":"Dhekelia","admin":"Dhekelia Sovereign Base Area","adm0_a3":"ESB","type_en":null}}]}},"arcs":[[[44827,16418],[-35632,-2985],[-9195,55223],[37931,-2985],[62068,34328],[-34482,-61193],[27586,-38806],[-48276,16418]]],"bbox":[33.680651184922965,34.958425632940276,33.90646065998084,35.0686893598089],"transform":{"scale":[0.000002258117331752038,0.000001102648295169189],"translate":[33.680651184922965,34.958425632940276]}}