{"type":"Topology","objects":{"a1":{"type":"GeometryCollection","geometries":[{"type":"Polygon","arcs":[[0]],"id":"FSM-4944","properties":{"adm1_code":"FSM-4944","iso_3166_2":"FM-KSA","name":"Kosrae","admin":"Federated States of Micronesia","adm0_a3":"FSM","type_en":null}},{"type":"Polygon","arcs":[[1]],"id":"FSM-4941","properties":{"adm1_code":"FSM-4941","iso_3166_2":"FM-PNI","name":"Pohnpei","admin":"Federated States of Micronesia","adm0_a3":"FSM","type_en":null}},{"type":"Polygon","arcs":[[2]],"id":"FSM-4942","properties":{"adm1_code":"FSM-4942","iso_3166_2":"FM-TRK","name":"Chuuk","admin":"Federated States of Micronesia","adm0_a3":"FSM","type_en":null}},{"type":"Polygon","arcs":[[3]],"id":"FSM-4943","properties":{"adm1_code":"FSM-4943","iso_3166_2":"FM-YAP","name":"Yap","admin":"Federated States of Micronesia","adm0_a3":"FSM","type_en":null}}]}},"arcs":[[[99999,1568],[-21,-1568],[-386,1109],[344,1377],[63,-918]],[[80985,38699],[188,-1376],[-177,-1951],[-407,-38],[-271,2639],[230,1682],[437,-956]],[[54070,49063],[136,191],[104,-536],[-21,-764],[-219,1109]],[[261,99999],[-11,-1606],[-219,115],[-31,1262],[261,229]]],"bbox":[138.12661768840888,5.272797196282653,163.02535670254724,9.576373998691992],"transform":{"scale":[0.000248989880040184,0.000043036198386077246],"translate":[138.12661768840888,5.272797196282653]}}