{"type":"Topology","objects":{"a1":{"type":"GeometryCollection","geometries":[{"type":"Polygon","arcs":[[0,1,2,3]],"id":"GAB-2187","properties":{"adm1_code":"GAB-2187","iso_3166_2":"GA-9","name":"Wouleu-Ntem","admin":"Gabon","adm0_a3":"GAB","type_en":"Province"}},{"type":"Polygon","arcs":[[-1,4,5,6,7]],"id":"GAB-2186","properties":{"adm1_code":"GAB-2186","iso_3166_2":"GA-6","name":"Ogooué-Ivindo","admin":"Gabon","adm0_a3":"GAB","type_en":"Province"}},{"type":"Polygon","arcs":[[8,-6,9]],"id":"GAB-2627","properties":{"adm1_code":"GAB-2627","iso_3166_2":"GA-2","name":"Haut-Ogooué","admin":"Gabon","adm0_a3":"GAB","type_en":"Province"}},{"type":"Polygon","arcs":[[10,11,-7,-9]],"id":"GAB-2628","properties":{"adm1_code":"GAB-2628","iso_3166_2":"GA-7","name":"Ogooué-Lolo","admin":"Gabon","adm0_a3":"GAB","type_en":"Province"}},{"type":"Polygon","arcs":[[12,13,14,15,-12]],"id":"GAB-2622","properties":{"adm1_code":"GAB-2622","iso_3166_2":"GA-4","name":"Ngounié","admin":"Gabon","adm0_a3":"GAB","type_en":"Province"}},{"type":"Polygon","arcs":[[16,17,-14]],"id":"GAB-2623","properties":{"adm1_code":"GAB-2623","iso_3166_2":"GA-5","name":"Nyanga","admin":"Gabon","adm0_a3":"GAB","type_en":"Province"}},{"type":"Polygon","arcs":[[-3,18,19,20]],"id":"GAB-2168","properties":{"adm1_code":"GAB-2168","iso_3166_2":"GA-1","name":"Estuaire","admin":"Gabon","adm0_a3":"GAB","type_en":"Province"}},{"type":"MultiPolygon","arcs":[[[-15,-18,21,-20,22]],[[23]]],"id":"GAB-2624","properties":{"adm1_code":"GAB-2624","iso_3166_2":"GA-8","name":"Ogooué-Maritime","admin":"Gabon","adm0_a3":"GAB","type_en":"Province"}},{"type":"Polygon","arcs":[[-2,-8,-16,-23,-19]],"id":"GAB-2621","properties":{"adm1_code":"GAB-2621","iso_3166_2":"GA-3","name":"Moyen-Ogooué","admin":"Gabon","adm0_a3":"GAB","type_en":"Province"}}]}},"arcs":[[[77233,82456],[-14324,184],[-404,-1000],[-1976,-2998],[-224,-2183],[-12438,-7785],[1661,-2078]],[[49528,66596],[-13426,26]],[[36102,66622],[584,816],[583,2972],[1348,2314],[404,2288],[-449,1026],[-9026,-2893],[-1077,1236],[763,2288],[90,2262]],[[29322,78931],[9519,-26],[6421,-26],[-90,11730],[0,6313],[-134,605],[494,2156],[5523,316],[1437,-605],[6017,105],[1751,-158],[2290,474],[853,-368],[1617,157],[2379,-631],[2335,-315],[988,447],[4760,-237],[898,552],[1886,-210],[943,-894],[-45,-868],[-269,-1841],[-1258,-842],[-763,-1499],[494,-868],[-1078,-4024],[1886,-2631],[-90,-1920],[-853,-1367]],[[77233,82456],[1168,-27],[2829,1184],[2245,-184],[1706,1184],[1976,289],[628,947],[3278,-290],[1168,-657],[1257,289],[1661,-631],[943,-1552],[0,-1631],[1258,-1078],[943,-1867],[1167,-921],[-359,-1552],[-1886,-1946],[-180,-1157],[-1661,-1263],[-2694,-52],[-629,-2026],[-1661,-999],[-1258,-2472],[405,-2420],[628,-526],[-763,-1657]],[[89402,61441],[-2829,1315],[-3458,710],[-4176,105]],[[78939,63571],[-2739,763],[-628,1683],[-2470,921],[-718,-526],[-2066,342],[-898,657],[-1167,-500],[-988,369],[-2605,-10784],[-2694,-1289],[-12797,-4340]],[[49169,50867],[-853,2473],[-1482,1762],[-449,2104],[-1078,1710],[0,1552],[-988,1157],[449,1315],[853,657],[3683,1868],[224,1131]],[[69555,32693],[628,2262],[2156,4235],[853,1052],[1527,552],[2110,1815],[90,2577],[1796,-657],[2829,3156],[2155,2919],[-90,658],[-4310,7812],[-809,420],[-583,1736],[1032,2341]],[[89402,61441],[-988,-1815],[1572,-500],[2379,-342],[1078,-710],[674,-2420],[2290,290],[1167,-395],[1841,-1473],[584,-1236],[-853,-1920],[135,-1683],[-809,-1052],[-359,-1631],[853,-2578],[449,-631],[-583,-1999],[853,-631],[-764,-1815],[449,-500],[-1571,-1131],[539,-1052],[-135,-2866],[-494,-1158],[-1976,-710],[-269,-2446],[-1482,-2236],[1302,-1025],[-1571,-1210],[-629,-1263],[-1841,-368],[-1886,210],[-629,1053],[988,999],[-718,605],[-1617,3235],[-3053,-3314],[-2560,-1604],[-1481,-27],[-3009,1052],[-898,-210],[-1482,552],[-943,-289],[-224,2025],[-1302,605],[-584,2078],[-1168,2341],[-1122,447]],[[69555,32693],[-1841,1052],[-3188,-1184]],[[64526,32561],[-3997,1263],[-1212,921],[-2290,2761],[449,579],[-270,2498],[-1077,1184],[-2425,1552],[-898,1078],[-269,1394],[-1752,-657],[-1706,-158],[-359,1973],[-539,815],[0,1736],[988,1367]],[[64526,32561],[-315,-1683],[674,-2420],[-180,-2788],[-6870,-1341],[-2155,1368],[-2290,-737],[-853,-631],[-1482,1000],[-1931,52],[449,-2788],[584,-1026],[-135,-1473],[-1302,-1998]],[[48720,18096],[-1213,1446],[-4176,3788],[-538,1420],[-1437,789],[-1213,1368],[-7499,-895]],[[32644,26012],[-1751,2315],[-943,1788],[135,1421],[-1616,841],[-988,-289],[-1572,263],[-2919,1263],[-1077,78],[-1976,2473],[1482,1157],[404,1552],[-225,1446],[1347,1421],[360,1104]],[[23305,42845],[1481,1421],[1437,473],[1707,-105],[988,473],[2155,3472],[494,1710],[853,473],[2066,2315],[1212,-526],[2514,868],[4221,263],[2650,-1894],[2020,-789],[2066,-132]],[[48720,18096],[1751,-474],[2200,-2367],[-988,-1078],[-359,-1947],[2335,-1341],[2111,-763],[-1976,-3919],[1212,-1183],[-988,-1394],[-3323,578],[-1391,2052],[-1482,578],[-1213,-1262],[-1347,-342],[-2155,-1420],[-1662,-3814],[-1616,1262],[-629,2289],[-3098,2419],[-2784,1789],[-180,2209],[-1122,737],[-2021,2130],[-4939,3682],[-3547,2525]],[[21509,19042],[6286,1605],[449,1262],[1123,710],[-315,763],[1123,1473],[2469,1157]],[[36102,66622],[-2425,-394],[-449,-2052],[-1661,-1236],[90,-815],[-2560,-1947],[-1796,-920],[-1167,-1131],[-2066,-1210],[-1976,-526],[-449,1367],[-1167,316],[-1527,-999],[-988,315],[-3368,-1262],[135,-2446]],[[14728,53682],[-808,894],[-2111,1026],[-898,1104],[-763,1868]],[[10148,58574],[0,1105],[674,1893],[179,1605],[-853,4839],[1257,-184],[45,-1631],[764,53],[4984,-1184],[1347,737],[-1931,657],[-1886,1210],[-1257,-105],[-1482,2867],[-1841,1183],[45,1105],[3637,1105],[1841,-684],[-135,2656],[-987,2499],[1886,1526],[1302,26],[1032,-973],[1797,-1026],[1077,79],[494,973],[7185,26]],[[21509,19042],[-1033,711],[-3099,3498],[2066,-290],[539,-526],[2874,-1288],[1841,578],[-180,789],[-3951,921],[-1482,736],[-1213,-736],[-987,1367],[-1707,527],[-539,2551],[-2200,1788],[-1212,1368],[-135,1289],[2739,-211],[-584,921],[-2784,-105],[-1392,1446],[-134,2630],[-3817,4893],[1167,-448],[1303,-1998],[1841,-1079],[179,-1972],[2964,894],[763,684],[-90,1210],[-1841,-1263],[-1347,-210],[-269,2577],[-2200,316],[-2201,1552],[-269,2051],[-2380,3130],[-2739,5024],[1167,26],[225,-1210],[2245,737],[1302,-1868],[1437,1841],[225,1447],[2874,2998],[673,2236]],[[14728,53682],[1123,-3341],[1931,-1762],[2065,-79],[988,-605],[359,-2156],[-584,-1105],[1213,-1368],[1482,-421]],[[4805,52893],[628,-132],[90,-1736],[-1212,105],[-315,1500],[809,263]]],"bbox":[8.719619901803156,-3.93669258814667,14.499823361042814,2.320362479830507],"transform":{"scale":[0.00005780261261852277,0.00006257117639153569],"translate":[8.719619901803156,-3.93669258814667]}}