{"type":"Topology","objects":{"a1":{"type":"GeometryCollection","geometries":[{"type":"Polygon","arcs":[[0,1,2,3]],"id":"GRC-2892","properties":{"adm1_code":"GRC-2892","iso_3166_2":"GR-C","name":"Dytiki Makedonia","admin":"Greece","adm0_a3":"GRC","type_en":"Region"}},{"type":"Polygon","arcs":[[-4,4,5,6]],"id":"GRC-2949","properties":{"adm1_code":"GRC-2949","iso_3166_2":"GR-D","name":"Ipeiros","admin":"Greece","adm0_a3":"GRC","type_en":"Region"}},{"type":"Polygon","arcs":[[-2,7,8,9,10,11,12]],"id":"GRC-2991","properties":{"adm1_code":"GRC-2991","iso_3166_2":"GR-B","name":"Kentriki Makedonia","admin":"Greece","adm0_a3":"GRC","type_en":"Region"}},{"type":"MultiPolygon","arcs":[[[-9,13]],[[14]],[[15]]],"id":"GRC-3001","properties":{"adm1_code":"GRC-3001","iso_3166_2":"GR-A","name":"Anatoliki Makedonia kai Thraki","admin":"Greece","adm0_a3":"GRC","type_en":"Region"}},{"type":"Polygon","arcs":[[-11,16]],"id":"GRC-2992","properties":{"adm1_code":"GRC-2992","iso_3166_2":"GR-69","name":"Ayion Oros","admin":"Greece","adm0_a3":"GRC","type_en":"Autonomous Monastic State"}},{"type":"Polygon","arcs":[[-3,-13,17,18,-5]],"id":"GRC-2900","properties":{"adm1_code":"GRC-2900","iso_3166_2":"GR-E","name":"Thessalia","admin":"Greece","adm0_a3":"GRC","type_en":"Region"}},{"type":"MultiPolygon","arcs":[[[-19,19,20,21,22]],[[23]],[[24]]],"id":"GRC-2989","properties":{"adm1_code":"GRC-2989","iso_3166_2":"GR-H","name":"Stereá Elláda","admin":"Greece","adm0_a3":"GRC","type_en":"Region"}},{"type":"MultiPolygon","arcs":[[[-21,25,26,27]],[[28,29]],[[30]],[[31]],[[32]]],"id":"GRC-2884","properties":{"adm1_code":"GRC-2884","iso_3166_2":"GR-A1","name":"Attiki","admin":"Greece","adm0_a3":"GRC","type_en":"Region"}},{"type":"Polygon","arcs":[[-27,33,-30,34,35,36]],"id":"GRC-2885","properties":{"adm1_code":"GRC-2885","iso_3166_2":"GR-J","name":"Peloponnisos","admin":"Greece","adm0_a3":"GRC","type_en":"Region"}},{"type":"MultiPolygon","arcs":[[[-36,37]],[[-6,-23,38]]],"id":"GRC-2886","properties":{"adm1_code":"GRC-2886","iso_3166_2":"GR-G","name":"Dytiki Ellada","admin":"Greece","adm0_a3":"GRC","type_en":"Region"}},{"type":"Polygon","arcs":[[39]],"id":"GRC-2990","properties":{"adm1_code":"GRC-2990","iso_3166_2":"GR-M","name":"Kriti","admin":"Greece","adm0_a3":"GRC","type_en":"Region"}},{"type":"MultiPolygon","arcs":[[[40]],[[41]],[[42]],[[43]],[[44]],[[45]],[[46]],[[47]],[[48]],[[49]],[[50]],[[51]],[[52]]],"id":"GRC-3013","properties":{"adm1_code":"GRC-3013","iso_3166_2":"GR-L","name":"Notio Aigaio","admin":"Greece","adm0_a3":"GRC","type_en":"Region"}},{"type":"MultiPolygon","arcs":[[[53]],[[54]],[[55]],[[56]],[[57]]],"id":"GRC-2988","properties":{"adm1_code":"GRC-2988","iso_3166_2":"GR-K","name":"Voreio Aigaio","admin":"Greece","adm0_a3":"GRC","type_en":"Region"}},{"type":"MultiPolygon","arcs":[[[58]],[[59]],[[60]],[[61]]],"id":"GRC-2883","properties":{"adm1_code":"GRC-2883","iso_3166_2":"GR-F","name":"Ionioi Nisoi","admin":"Greece","adm0_a3":"GRC","type_en":"Region"}}]}},"arcs":[[[12820,78912],[332,1522],[694,773],[965,-73],[1267,1450],[211,1183],[-874,1425],[30,1667],[3258,193],[2141,677],[875,-121],[875,-507],[1207,893],[844,-72]],[[24645,87922],[423,-1256],[-1086,-145],[543,-2246],[1297,-339],[151,-1835],[603,-1015],[1780,-1280],[1116,-1304],[-905,-1667]],[[28567,76835],[-1629,-2585],[-1237,-942],[513,-1038],[-1659,-435],[-3288,556],[-966,-701],[-1055,-169]],[[19246,71521],[-785,628],[-1508,-290],[-422,507],[-211,1740],[-1267,1545],[331,773],[-1357,2754],[-1207,-266]],[[19246,71521],[-1086,-725],[211,-1280],[-1237,-145],[634,-1377],[150,-2149],[1117,-1232],[1297,-797],[-604,-1160],[332,-700]],[[20060,61956],[-1538,-845],[-1448,-25],[-513,-797]],[[16561,60289],[-664,-362],[-1267,918],[-1206,48],[-664,-1932],[-543,1811],[-2323,2102],[-452,1087],[-965,-24],[-845,652],[-815,1521],[483,1063],[-1418,435],[453,1256],[-2112,1015],[2323,-773],[1146,1280],[30,1135],[1086,435],[-874,1232],[1327,2125],[2111,266],[1448,3333]],[[24645,87922],[1629,2077],[332,628],[1207,459],[874,-241],[1267,579],[2414,-676],[1930,121],[815,797],[814,-169],[181,1763],[211,531],[423,218],[1387,-24],[2293,-339],[2021,1256],[3922,-314]],[[46365,94588],[90,-966],[996,-459],[-212,-773],[1328,-1473],[1568,-918],[664,193],[1327,-1811],[-332,-749],[-1749,-1473],[-1026,-314]],[[49019,85845],[-1659,-628],[-241,-628],[1267,-1595],[905,-386],[-604,-1449],[483,-701],[1599,-386]],[[50769,80072],[-30,-991]],[[50739,79081],[-936,725],[-1025,24],[-1539,-652],[121,-966],[784,-846],[2474,-1231],[332,-1522],[-543,-797],[-1750,893],[-332,1039],[-1387,1836],[-3228,869],[-694,-1014],[1870,-2440],[1991,-821],[-633,-918],[-2745,1280],[-845,1377],[-90,1908],[-3138,1329],[-1508,1135],[-784,1232],[1749,966],[-844,1353],[-2293,-1957],[-1267,-435],[664,-1642],[-1237,-2971],[211,-1667],[1599,-1739]],[[35716,73429],[-2473,-24],[-1388,1304],[-935,1884],[-2353,242]],[[46365,94588],[1508,363],[1719,918],[543,-387],[1177,507],[-61,797],[1750,314],[1056,-434],[2835,434],[754,-1739],[1418,-483],[1961,73],[3107,-1377],[1539,-990],[3076,1111],[1629,-266],[1388,628],[814,-531],[2776,773],[633,1304],[-784,2609],[-543,289],[573,1232],[1448,266],[1146,-483],[3077,-1691],[453,-3212],[-1116,-387],[-1690,-1377],[-724,-72],[-120,-2416],[603,-845],[-181,-966],[-1146,-652],[-1448,-2247],[-1056,-434],[-362,1256],[-1116,434],[-2142,-24],[-2262,266],[-2776,1208],[-1930,169],[-875,676],[-784,-990],[-1478,-556],[-724,-749],[-2022,73],[-693,1377],[-1780,-97],[-1177,-966],[302,-701],[-2654,-1521],[-1448,48],[-1539,725]],[[70376,80941],[-1206,-724],[-1418,845],[1267,870],[1357,-991]],[[59849,85168],[-31,-1691],[-1629,-724],[-1538,1425],[664,1304],[874,701],[1660,-1015]],[[50769,80072],[2111,-604],[2293,-2464],[-965,-749],[-1539,2174],[-1930,652]],[[35716,73429],[362,-893],[1358,-1474],[784,-2560],[2051,-1498],[1961,-2560],[844,-1908],[-482,-604],[-1026,241],[-724,1715],[-1508,483],[-2081,-434],[-181,-991],[1568,-1497],[724,-1619],[-302,-652]],[[39064,59178],[-1478,-96],[-2775,1111],[-1357,-73],[-242,1329],[-2986,1787],[-1388,-2005],[-1719,-990],[-1599,1401],[-1569,-145],[-693,1787],[-1871,-483],[-1327,-845]],[[39064,59178],[-2383,-1256],[-1206,0],[-785,532],[-663,-1160],[1599,218],[784,-967],[1689,-145],[1689,-700],[362,-1135],[1328,483],[1357,-580],[-332,-942],[1448,-1087],[2142,-459],[-90,-700],[1327,-1305],[663,73]],[[47993,50048],[-1659,-1208],[-90,-1377],[-724,-652],[-3137,1618],[-815,-1038]],[[41568,47391],[-1689,314],[-4374,2053],[-513,990],[-1176,-1280],[-966,1812],[-1116,-1232],[-2715,459],[-1689,555],[-1599,-338]],[[25731,50724],[302,966],[1237,822],[181,3405],[-453,266],[-1810,-990],[-1810,-24],[-1025,579],[-272,1063],[483,870],[-1207,483],[-60,845],[-1146,701],[301,1159],[-392,1087]],[[58582,56908],[-724,-532],[-604,966],[-1267,677],[91,1207],[1297,-507],[121,-918],[1086,-893]],[[57556,47367],[60,-1425],[-482,-1232],[-2112,-97],[-1176,1812],[-1720,3140],[-784,290],[-60,966],[-1599,-49],[-3168,363],[-30,1642],[-1508,1015],[-694,1159],[-2835,2246],[-1388,242],[-1327,628],[1960,1763],[1871,508],[1478,-1305],[301,-1159],[1961,-1619],[966,0],[1779,-1207],[2504,-49],[634,-1183],[1025,-870],[-332,-1932],[754,-1691],[-60,-749],[935,-821],[1750,-700],[1297,314]],[[47993,50048],[2142,-749],[1388,-1256],[-935,-1208],[513,-1691],[-242,-1714],[634,-387],[60,-2560],[-1418,-194],[-543,1546],[-1629,483],[-965,1909],[-2685,1111],[-452,-677],[-2142,-24],[-784,-483]],[[40935,44154],[-966,1739]],[[39969,45893],[1629,652],[-30,846]],[[41267,39275],[1568,-1039],[603,266],[1750,-1401],[-965,-676]],[[44223,36425],[-121,555],[-1478,0],[-1448,822],[91,1473]],[[39215,20193],[785,-556],[-302,-1835],[-1659,893],[-121,1788],[664,821],[633,-1111]],[[45429,41715],[-241,-1208],[-784,0],[-362,1111],[1387,97]],[[43831,43550],[814,1450],[754,-1015],[-1568,-435]],[[40935,44154],[-1659,-217],[-31,-1135],[1177,24],[784,-604],[-211,-1860],[272,-1087]],[[44223,36425],[-2444,-435],[-331,-1208],[-1509,773],[694,1377],[-1418,314],[-543,773],[-2805,290],[422,-2102],[1780,-3164],[-181,-724],[1207,-1474],[120,-1401],[996,-1932],[-91,-1087],[-724,-242],[634,-2004],[754,-556],[-603,-1449],[-664,1256],[-754,-121],[-1026,1956],[-754,725],[-633,1498],[-1629,-25],[-1056,-1400],[-724,-3744],[-1358,869],[362,894],[-181,1473],[-905,2150],[-814,1135],[-965,290],[181,1522],[-1237,217],[-1267,-821],[-181,-1715],[271,-1063],[-844,-942],[-604,1208],[-1327,145],[-60,2053],[-1207,1280],[-362,1643],[302,918],[1026,942],[0,1401]],[[23771,35918],[1990,24],[1117,1956],[-1841,966],[-211,2923],[694,1087],[2082,-1087],[1568,217],[965,604],[31,1884],[1116,532],[513,1328],[-181,1063]],[[31614,47415],[1809,-483],[1961,-918],[2172,-1884],[1237,580],[-995,821],[633,725],[1538,-363]],[[23771,35918],[-1539,2681],[-1719,1376],[-1207,242],[-30,1449],[-2021,966],[151,1619],[844,-24],[1388,1111],[573,2681],[1146,-121],[1509,-652],[814,411],[1056,1714],[995,677],[1237,-73],[2172,-1280],[965,-942],[1509,-338]],[[25731,50724],[-784,-362],[-2142,-193],[-724,-532],[-1930,1377],[-2504,-1522],[-664,532],[483,869],[-634,1498],[-573,72],[-120,1498],[-1358,1328],[-302,1184],[-1297,-218],[-482,556],[422,1304],[2443,797],[1267,-1207],[875,1956],[-1146,628]],[[77707,5628],[-664,-821],[543,-1136],[-815,-2101],[-1085,-531],[-1901,531],[-2051,-483],[-2413,121],[-1086,-435],[-2353,0],[-2414,-676],[-4162,-97],[241,1594],[-603,821],[-1660,145],[-1900,1232],[-1267,-121],[-2413,339],[-3017,700],[-513,-266],[-2262,73],[-784,990],[633,1860],[785,1063],[905,96],[-91,2005],[664,73],[573,-1764],[2624,-96],[453,918],[1176,-73],[30,-1956],[905,-1087],[875,-435],[2956,628],[1478,531],[1388,-338],[1508,290],[996,-1014],[2292,-290],[1418,121],[1237,-677],[1840,701],[1478,-145],[-633,-2247],[181,-724],[1176,-145],[784,918],[1991,700],[1026,-507],[1931,1715]],[[88053,8647],[-1086,-410],[-30,2198],[513,1521],[664,-314],[-694,-1666],[633,-1329]],[[99999,22029],[-60,-870],[-1207,-2753],[-2323,-2368],[-784,-1231],[-965,-749],[-815,918],[543,1932],[-663,1159],[724,435],[512,1208],[1086,966],[2534,1280],[1418,73]],[[56229,26642],[120,-1207],[-1870,0],[362,1304],[1388,-97]],[[65520,26232],[392,1111],[1056,-991],[-694,-869],[-754,749]],[[88838,29009],[513,-869],[-1267,-362],[-996,-943],[-965,218],[181,942],[1176,749],[1358,265]],[[84554,29565],[453,1087],[1055,-193],[-663,-1136],[-845,242]],[[65580,31062],[-875,-869],[-1176,338],[543,1449],[1267,194],[241,-1112]],[[68446,33236],[814,-1425],[-513,-1908],[-1206,-652],[-1237,2222],[2142,1763]],[[54992,36401],[1267,-314],[-754,-991],[-513,1305]],[[66937,36497],[-1025,-96],[483,1401],[1327,-556],[-785,-749]],[[63408,38913],[-1086,797],[0,652],[2866,-845],[-332,-1353],[-1448,749]],[[55082,40434],[242,-917],[-966,-1257],[-422,1232],[1146,942]],[[62232,41618],[-392,-894],[-3047,3189],[724,1062],[965,-1135],[1327,-193],[-120,-918],[543,-1111]],[[78159,40434],[-1508,-1690],[-2021,-773],[-905,434],[1086,1305],[1448,-73],[1900,797]],[[86123,41014],[-2172,-1232],[-845,73],[-905,966],[-1387,-387],[-121,797],[905,749],[1327,314],[1690,-531],[1206,0],[302,-749]],[[75867,52995],[-302,-1812],[302,-1715],[-604,-1183],[-1599,-822],[-1236,1377],[1116,628],[301,1135],[-663,1232],[-1056,749],[90,966],[1690,338],[1961,-893]],[[81085,60434],[-2202,-1208],[-2986,798],[-61,1111],[1539,1159],[-1388,266],[-905,-1305],[-633,-193],[-1780,773],[-362,1667],[2353,459],[1207,483],[0,821],[2081,73],[875,-773],[-453,-701],[1056,-845],[1659,-2585]],[[67571,74903],[-1810,-3334],[-633,1643],[-815,-1063],[-1207,145],[-241,1860],[2082,362],[724,-700],[1900,1087]],[[14691,41980],[-61,-869],[-935,-1208],[-1297,1280],[-965,1860],[754,942],[664,-990],[1267,-363],[573,-652]],[[12760,45942],[-1388,845],[-1206,-145],[-453,1063],[-1055,-459],[-483,725],[694,1932],[1055,-290],[724,1063],[845,-483],[543,-1136],[1448,-2101],[-724,-1014]],[[11041,54106],[-272,1063],[453,1328],[1357,604],[30,-2705],[-1568,-290]],[[5309,66062],[-1086,-507],[-1568,1039],[-272,1207],[-1750,1788],[-633,1207],[483,580],[2021,435],[1116,-507],[-1026,-1933],[604,-1111],[241,-1522],[1870,-676]]],"bbox":[19.636340040807227,34.932093996673146,28.240459693873873,41.74540488079347],"transform":{"scale":[0.00008604205695123598,0.00006813379017910506],"translate":[19.636340040807227,34.932093996673146]}}