{"type":"Topology","objects":{"a1":{"type":"GeometryCollection","geometries":[{"type":"MultiPolygon","arcs":[[[0,1,2,3,4,5]],[[6,7]],[[8,9]],[[10,11]],[[12]],[[13]],[[14]],[[15]],[[16]],[[17]],[[18]],[[19]],[[20]],[[21]],[[22]],[[23]],[[24]]],"id":"GRL-2739","properties":{"adm1_code":"GRL-2739","iso_3166_2":"GL-SM","name":"Kommuneqarfik Sermersooq","admin":"Greenland","adm0_a3":"GRL","type_en":null}},{"type":"MultiPolygon","arcs":[[[-6,25,26,-10,27,-8,28]],[[29]],[[30]],[[31]],[[32]],[[33]],[[34]],[[35]],[[36]],[[37]],[[38]],[[39]],[[40]],[[41]],[[42]],[[43]],[[44]],[[45]],[[46]],[[47]],[[48]],[[49]],[[50]],[[51]],[[52]],[[53]]],"id":"GRL-2742","properties":{"adm1_code":"GRL-2742","iso_3166_2":"GL-UO","name":"Nationalparken","admin":"Greenland","adm0_a3":"GRL","type_en":null}},{"type":"MultiPolygon","arcs":[[[-5,54,55,56,57,-26]],[[58]],[[59]],[[60]],[[61]],[[62]],[[63]],[[64]],[[65]],[[66]],[[67]],[[68]],[[69]],[[70]],[[71]],[[72]],[[73]],[[74]]],"id":"GRL-2743","properties":{"adm1_code":"GRL-2743","iso_3166_2":"GL-QA","name":"Qaasuitsup Kommunia","admin":"Greenland","adm0_a3":"GRL","type_en":null}},{"type":"Polygon","arcs":[[-57,75]],"id":"GRL-2738","properties":{"adm1_code":"GRL-2738","iso_3166_2":"GL-UO","name":"Pituffik","admin":"Greenland","adm0_a3":"GRL","type_en":null}},{"type":"MultiPolygon","arcs":[[[-4,76,-12,77,-55]],[[78]]],"id":"GRL-2741","properties":{"adm1_code":"GRL-2741","iso_3166_2":"GL-QE","name":"Qeqqata Kommunia","admin":"Greenland","adm0_a3":"GRL","type_en":null}},{"type":"MultiPolygon","arcs":[[[-2,79]],[[80]],[[81]],[[82]],[[83]],[[84]],[[85]],[[86]]],"id":"GRL-2740","properties":{"adm1_code":"GRL-2740","iso_3166_2":"GL-KU","name":"Kommune Kujalleq","admin":"Greenland","adm0_a3":"GRL","type_en":null}}]}},"arcs":[[[73142,47468],[279,-711],[-447,207],[-270,-97],[198,-331],[228,-55],[-144,-594],[-489,-739],[-1401,-387],[101,-325],[523,318],[823,173],[-110,-325],[190,-255],[1705,352],[194,-62],[524,179],[346,-41],[337,-401],[-612,-373],[-443,159],[-527,-331],[-228,-311],[-760,-346],[-333,215],[-338,-35],[-320,-387],[666,118],[237,-256],[590,207],[195,-421],[312,138],[160,732],[549,394],[342,-42],[506,-221],[680,456],[979,449],[-34,-566],[435,345],[932,-476],[21,-111],[713,-152],[768,-304],[1933,7],[481,69],[-493,-670],[-330,-138],[-485,104],[-346,-180],[-253,-276],[443,-55],[-211,-297],[-490,-83],[-481,-138],[140,-422],[-321,-442],[-460,90],[-262,-380],[-358,-338],[-220,-345],[-662,-228],[-30,-387],[-452,-449],[-384,83],[114,-352],[-299,-387],[-199,76],[-249,-414],[-472,13],[-85,-407],[-211,-152],[-1245,-214],[-215,-311],[-561,0],[-198,-276],[-216,186],[-291,-290],[-675,-131],[-810,-276],[-296,-353],[-527,-172],[-422,359],[-131,456],[-228,-152],[-253,-594],[228,-470],[-583,-76],[-890,-262],[-810,304],[-93,-166],[-367,90],[-72,428],[-409,242],[-140,455],[-413,360],[-152,379],[-236,-145],[265,-545],[321,-131],[346,-1078],[-211,-173],[47,-607],[-287,-180],[-397,42],[-291,-463],[-376,-311],[-422,-552],[-278,-97],[126,-484],[-228,-338],[89,-380],[-245,-200],[-55,-373],[-202,-90],[-123,-428],[-320,-256],[-228,-863],[-274,-573],[-456,-352],[-173,-505],[-249,-269],[-287,-110],[-397,345],[0,-553],[-375,235],[-338,-90],[114,-683],[-359,-152],[-435,-587],[-202,-14],[-308,345],[-713,-400],[-89,-215],[-536,-393],[-700,635],[-254,518],[405,297],[-12,200],[553,746],[-650,-69],[-308,194],[-477,83],[-72,-228],[625,-187],[-389,-235],[233,-172],[-186,-339],[-25,-711],[-325,97],[-140,-284],[258,-559],[-178,-525],[-620,21],[-110,-256],[-860,14],[-406,-193],[-303,552],[-233,-214],[81,-262],[-237,-249],[-253,304],[-232,-249],[63,-248],[405,-97],[43,-843],[-431,-297],[-101,-518],[-418,14],[-338,408],[-177,-249],[-519,-69],[106,-449],[-68,-345],[220,-166],[211,-387],[261,-228],[110,-739],[-118,-207],[380,-207],[67,-242],[-776,90],[-393,-290],[-726,62],[224,-621],[485,-125],[612,42],[245,-214],[-84,-1257],[164,-346],[-304,-200],[-485,104],[-232,193],[-127,-235],[549,-145],[198,-400],[-67,-263],[-405,7],[29,-414],[-224,-56],[-590,173],[-220,331],[-169,0],[-219,-193],[80,-262],[283,-201],[342,-538],[-85,-539],[-477,497],[-71,-83],[506,-601],[-498,14],[-50,166],[-401,138],[206,-428],[625,-131],[-207,-636],[-380,21],[-54,-214],[-659,76],[-464,-518],[-532,138],[-190,145]],[[48366,12397],[-582,-138],[-798,83],[-2928,-3516],[-2933,-3522],[-456,-255]],[[40669,5049],[-215,158],[-405,726],[-38,-380],[-536,352],[177,373],[-55,332],[-502,89],[523,594],[-743,-359],[-303,345],[-106,284],[295,158],[13,332],[-114,366],[287,311],[-59,324],[-304,-449],[-21,-435],[-135,-110],[-278,511],[75,414],[372,104],[384,435],[-380,69],[-17,-297],[-232,-103],[-430,324],[455,269],[-84,311],[-245,-255],[-126,317],[-194,166],[-520,228],[-303,373],[-173,345],[211,1154],[-157,359],[-206,14],[-26,380],[-236,145],[-76,483],[295,200],[43,194],[-313,172],[-308,-117],[-169,-228],[-278,152],[-46,691],[-140,138],[72,476],[540,132],[-21,124],[-574,-207],[-380,290],[114,159],[-350,297],[68,400],[156,138],[-5,491],[-346,324],[64,145],[747,201],[388,27],[110,346],[-1017,-401],[-317,138],[-160,387],[519,48],[240,-172],[211,124],[287,518],[97,318],[448,248],[-30,235],[-232,338],[76,194],[418,269],[287,-159],[253,-794],[810,-628],[-50,359],[-216,69],[-405,387],[-80,518],[55,248],[-321,180],[-426,55],[-236,580],[-258,939],[194,221]],[[36056,22570],[292,290],[595,401],[295,69],[2431,0],[1629,0],[1624,0],[1625,0],[2439,0],[0,3640],[0,3640],[0,1892]],[[46986,32502],[0,2058],[0,4027],[0,2479],[0,2479],[0,3433]],[[46986,46978],[3254,0],[3250,0],[3253,0],[1625,0],[2439,0],[1629,0],[2439,0],[2444,0],[1629,0],[2717,0],[1477,490]],[[75966,49050],[730,-83],[515,-504],[-26,-339],[-282,-435],[-655,-449],[-371,-69],[-316,-297],[-655,-165],[-1101,27],[-422,829]],[[73383,47565],[2329,863],[254,622]],[[81916,50797],[-430,-497],[-452,-332],[80,-297],[595,145],[363,-207],[190,297],[473,-96],[-705,-394],[-135,-490],[88,-836],[195,21],[114,676],[249,249],[320,-14],[435,-359],[-101,-283],[-380,-269],[392,-111],[102,-228],[-203,-435],[346,-546],[-300,-373],[228,-517],[-185,-691],[413,-138],[-350,-484],[-241,7],[-295,283],[-426,-221],[-194,76],[-114,843],[71,608],[-232,62],[-126,-428],[135,-636],[-152,-559],[-1114,7],[-950,725],[-413,808],[-131,1160],[-658,794],[-739,166],[-439,567]],[[77240,48850],[1042,-256],[313,235],[177,1505],[186,208],[401,-69],[303,158],[604,83],[371,145],[283,-131],[397,207],[599,-138]],[[35879,21742],[114,69],[173,-760],[-413,-573],[-254,-83],[-304,400],[-130,-455],[-148,-173],[-131,-580],[-278,-491],[21,-200],[-283,-352],[-498,-7],[-59,925],[38,394],[215,242]],[[33942,20098],[473,145],[443,1036],[667,103],[354,360]],[[35921,19815],[-244,-401],[-296,-704],[-325,-76],[329,580],[186,718],[350,-117]],[[35120,19200],[-254,111],[308,649],[279,34],[-135,-462],[-198,-332]],[[50181,12425],[21,-214],[-603,-111],[-85,270],[135,241],[532,-186]],[[51624,14600],[-17,-276],[-455,90],[-693,974],[266,117],[190,-297],[494,-338],[215,-270]],[[52401,18523],[-427,-27],[-29,345],[426,-21],[30,-297]],[[53257,19649],[-80,-152],[-354,62],[-144,159],[-126,780],[-321,470],[-156,428],[249,118],[354,-429],[97,-372],[-114,-166],[595,-898]],[[58473,24649],[-291,-255],[-169,283],[258,186],[202,-214]],[[58718,25457],[0,-462],[-304,227],[304,235]],[[57629,25126],[-29,-359],[262,-118],[-693,-462],[-346,234],[-8,719],[215,317],[296,138],[303,-469]],[[70218,35320],[-253,-332],[-237,297],[490,35]],[[80418,41701],[228,0],[122,-297],[-418,-69],[-185,249],[253,117]],[[73459,45887],[-55,559],[122,97],[714,-7],[-211,-318],[-570,-331]],[[77362,45914],[26,-373],[-848,-234],[-228,-249],[-515,179],[-477,-255],[-726,-90],[-1701,-304],[228,870],[405,70],[406,476],[253,131],[333,394],[658,14],[574,179],[135,152],[849,463],[42,-456],[435,-221],[151,-746]],[[46986,46978],[0,2631],[0,3378],[0,4385],[0,4379],[0,4379],[0,2921],[0,4386],[0,2921],[-1337,532],[-2672,1070],[-2675,1064],[-2672,1071],[-2675,1070],[-2671,1071],[-4014,1602],[-2671,1070],[-1498,753],[-2975,1312],[-616,318],[-1195,1119],[-1350,1077]],[[17965,89487],[1257,-34],[224,269],[-582,781],[747,373],[84,207],[-1089,987],[283,297],[1215,408],[760,145],[1996,-359],[258,-746],[882,-69],[-566,891],[-1595,518],[1393,428],[1460,262],[1110,90],[1742,352],[1115,-96],[38,297],[1316,221],[566,-221],[869,-857],[76,-863],[-418,-698],[-42,-794],[1405,1299],[-156,600],[1372,-124],[211,-152],[1886,-269],[-236,331],[1962,-359],[595,318],[-1815,870],[-856,1492],[3405,-235],[452,-401],[1827,-531],[616,-256],[1988,-566],[135,-373],[857,-339],[396,-324],[608,-55],[781,158],[-355,518],[-595,180],[794,525],[-625,324],[131,318],[1409,352],[173,270],[-1147,373],[-258,283],[-1738,684],[1139,179],[5110,-62],[912,-173],[1017,-573],[1085,-152],[16,642],[-1017,104],[-645,242],[-6064,338],[-1511,90],[-553,-145],[-945,214],[-469,345],[675,360],[2127,-104],[-591,311],[541,214],[1873,166],[1562,41],[607,297],[1507,-366],[1705,-870],[2038,-111],[1064,449],[1878,359],[-511,201],[-1203,27],[-291,207],[279,705],[1025,41],[772,304],[1254,-304],[122,435],[2431,-6],[4473,407],[1397,-186],[1604,48],[2245,-283],[1034,-49],[396,-214],[4448,-725],[-692,-380],[-3030,-117],[-4549,-180],[-249,-131],[-2068,-186],[-1447,-249],[-4094,-345],[1009,-63],[1506,63],[1583,262],[2439,41],[2106,442],[257,118],[4415,-269],[1354,96],[2157,352],[620,-234],[139,-477],[-548,-366],[1675,-34],[650,-277],[1781,-172],[1266,-422],[764,-380],[-140,-214],[-1468,-531],[-211,-366],[-2359,-256],[-3233,-200],[-3232,-194],[-3233,-193],[-148,-228],[-2975,-518],[-1637,-504],[101,-629],[928,-48],[55,235],[705,414],[1426,125],[2870,566],[2072,262],[5111,-317],[-140,-864],[-2616,-690],[-291,-422],[173,-373],[1253,560],[1768,359],[1984,615],[-85,379],[271,588],[388,76],[2549,179],[434,-442],[157,-870],[-376,-1064],[-903,-870],[-456,-180],[-291,-490],[-473,-131],[-886,-829],[-177,-366],[-464,-352],[413,-166],[507,435],[-60,276],[1646,588],[971,752],[667,152],[422,518],[1367,767],[-42,338],[797,49],[228,-332],[-346,-760],[1304,539],[1688,-304],[768,-69],[545,518],[-43,366],[629,62],[-55,463],[2081,276],[2089,-13],[1405,-408],[1671,-325],[566,-559],[464,-186],[-397,-304],[-856,-235],[-604,-608],[-1865,-780],[-642,83],[-768,-125],[566,-324],[-148,-546],[-1667,-290],[-164,-276],[-1351,-49],[-1321,111],[-1257,-145],[-372,-221],[-856,-14],[-587,249],[-844,138],[-1519,-532],[300,-173],[1194,580],[1316,-393],[1013,-207],[1211,82],[676,297],[726,-435],[1067,-179],[4,-132],[-1067,-780],[-1097,-152],[-271,145],[-953,-235],[-1287,166],[-836,283],[-481,-34],[-798,-746],[-181,-387],[-561,-635],[502,-69],[223,-518],[798,310],[452,-269],[-287,-359],[54,-304],[-350,-691],[262,-414],[759,-111],[-29,-469],[-966,-152],[-587,-401],[207,-366],[-232,-428],[-1178,7],[-532,-269],[190,-256],[-46,-594],[-253,-249],[-414,-987],[97,-352],[-135,-456],[-498,-332],[139,-359],[-384,-255],[-303,-719],[514,-89],[520,82],[-68,415],[667,815],[329,0],[1300,-753],[983,-249],[612,-483],[-701,-311],[-991,629],[-1228,-318],[700,-263],[-316,-317],[548,-242],[-46,-207],[819,-131],[384,-201],[177,-317],[443,-7],[42,428],[747,-97],[485,-359],[93,-345],[4,-864],[-384,-725],[-413,49],[-498,324],[-536,-27],[-819,400],[-1004,83],[-861,-635],[-439,0],[-300,-415],[-523,0],[-215,332],[-511,352],[-333,-97],[266,-345],[-549,-35],[-160,-193],[856,-290],[456,-28],[426,-400],[174,-601],[-224,-539],[565,28],[752,186],[658,-352],[899,145],[430,-545],[-135,-297],[-392,27],[-443,-297],[-102,-290],[646,42],[300,-187],[438,-628],[-185,-297],[346,-532],[63,-587],[-135,-739],[-266,-352],[-472,34],[-279,318],[169,221],[-359,262],[-810,-200],[-865,539],[-140,310],[-502,111],[456,-663],[544,-207],[680,-498],[-211,-297],[0,-1001],[-110,-235],[384,-614],[730,-90],[574,-318],[443,401],[287,-145],[4,-525],[477,-166],[-650,-912],[-409,-117],[-933,173],[-257,697],[-1460,118],[-840,-146],[-88,-269],[-368,-228],[26,-290],[-329,-304],[16,-324],[-422,-90],[815,-345],[646,248],[1468,-718],[523,34],[127,-407],[-316,-166],[-64,-780],[224,-152],[-258,-366],[-1202,34],[-427,138],[-46,-400],[-637,-256],[-570,-345],[-1300,435],[-544,339],[-878,676],[-42,511],[308,83],[-380,346],[-569,-387],[-102,-304],[156,-408],[-514,-117],[-43,-159],[-932,-83],[-338,-297],[76,-241],[-409,-304],[-726,-131],[-481,165],[-435,-614],[-608,234],[-101,-179],[722,-194],[426,401],[726,21],[451,-270],[1085,-227],[114,-242],[-249,-359],[-300,-201],[-612,42],[-472,-442],[-452,-49],[-544,325],[-165,-124],[642,-428],[688,41],[586,414],[523,-310],[574,-173],[258,-725],[-321,-353],[-874,-262],[397,-166],[532,277],[544,-70],[287,-352],[946,-366],[295,-407],[764,-339],[169,-235],[793,-421]],[[77240,48850],[-295,310],[-815,277],[-1152,-166],[-608,511],[-105,325],[-637,511],[21,145],[-456,324],[-776,118],[-157,-283],[967,-132],[-173,-159],[1034,-635],[-76,-262],[-443,-180],[861,-173],[143,-172],[561,-207],[393,117],[439,-69]],[[73383,47565],[-241,-97]],[[31908,93866],[-105,359],[898,249],[524,-491],[2004,-780],[-101,-152],[-1321,69],[-1764,491],[-135,255]],[[46125,94874],[178,-117],[-1055,-684],[544,-518],[-574,-145],[-544,504],[-2363,739],[-494,636],[-844,552],[1523,14],[713,131],[1638,-476],[1278,-636]],[[40724,96428],[-777,35],[68,442],[1270,-290],[-561,-187]],[[54405,97782],[148,-228],[-802,-145],[-337,228],[-435,35],[557,338],[869,-228]],[[53321,97575],[392,-311],[-1367,193],[-1182,629],[933,-21],[603,-407],[621,-83]],[[55384,98065],[-177,-228],[-1464,339],[-334,255],[-941,42],[540,338],[849,-207],[489,-345],[1038,-194]],[[82840,52973],[-671,0],[-456,159],[-54,-442],[1025,-373],[-333,-636],[-448,62],[-688,435],[-189,297],[-1368,657],[-312,338],[-414,186],[-215,988],[139,138],[764,90],[481,-180],[789,7],[169,-338],[532,-525],[325,-83],[920,-532],[4,-248]],[[78207,55017],[-233,-573],[-561,235],[224,228],[570,110]],[[82874,54271],[-1182,-166],[-266,505],[-561,248],[-734,-27],[-350,152],[-1131,-21],[-17,373],[1232,103],[878,249],[1599,-407],[578,-263],[-422,-470],[376,-276]],[[78654,55570],[-211,-7],[-667,304],[-595,13],[-452,270],[418,469],[224,97],[114,380],[1274,62],[1996,-732],[-42,-124],[-1392,214],[565,-325],[1114,-83],[161,-290],[-2414,-297],[-93,49]],[[85436,60625],[312,-345],[-1405,-304],[-397,-42],[-224,208],[-857,297],[-88,172],[240,429],[963,448],[1139,-200],[317,-663]],[[88065,62221],[-144,-353],[-646,166],[515,366],[275,-179]],[[86318,63305],[122,-145],[-654,-656],[-481,145],[-401,366],[194,290],[-85,400],[216,228],[472,14],[372,-186],[-51,-311],[296,-145]],[[90373,64334],[-295,-580],[-979,172],[-566,-221],[-612,90],[-169,166],[148,435],[63,781],[465,151],[206,-276],[422,145],[524,-110],[-642,-311],[625,-635],[363,262],[447,-69]],[[88364,68188],[-519,587],[-34,407],[-350,767],[21,456],[177,186],[-160,387],[582,-117],[106,-242],[-101,-511],[114,-1388],[164,-532]],[[89250,74832],[-358,0],[380,566],[582,35],[-283,-525],[-321,-76]],[[87119,75868],[13,-339],[-1895,608],[810,193],[372,-421],[700,-41]],[[85393,76924],[-709,166],[625,276],[84,-442]],[[87769,78216],[21,-428],[-595,-463],[21,642],[553,249]],[[87432,79335],[-439,-21],[-351,269],[743,670],[47,-918]],[[90019,80688],[-629,125],[447,525],[363,-214],[-181,-436]],[[88018,84639],[304,180],[1359,310],[755,-324],[-126,-290],[-781,-850],[-1055,-235],[-992,387],[-430,387],[966,435]],[[86786,84874],[-135,490],[650,270],[705,-415],[-1220,-345]],[[89694,91442],[-781,407],[684,228],[742,-601],[-645,-34]],[[86887,92947],[-291,622],[890,-249],[671,-732],[-595,-179],[-675,538]],[[46986,32502],[-2439,0],[-1625,0],[-1624,0],[-3689,-28],[-548,-159]],[[37061,32315],[-726,21],[-312,145],[-102,318],[-244,200],[-271,-27],[-249,842],[325,187],[-274,262],[-367,-442],[236,-173],[-194,-324],[-249,34],[-173,-228],[-253,221],[-604,69],[-181,221],[-523,-138],[-262,35],[-388,-256],[-435,-587],[-401,-324],[-249,83],[-8,310],[240,159],[76,290],[-236,387],[789,656],[-93,228],[199,359],[-26,387],[422,-180],[503,139],[624,-415],[435,-186],[1165,96],[995,-676],[228,193],[-755,407],[-494,449],[148,242],[-135,242],[169,324],[-317,56],[4,-346],[-544,-34],[-1300,-394],[-295,256],[-291,-83],[-456,400],[506,442],[397,194],[-139,241],[1063,256],[13,-214],[629,-48],[683,255],[359,373],[-148,332],[-375,-14],[240,490],[-55,746],[89,373],[473,-21],[510,-442],[490,28],[-228,387],[118,310],[-371,56],[0,400],[-676,-545],[-371,158],[334,532],[101,1202],[409,691],[566,-63],[-140,484],[-422,159],[148,469],[-709,-324],[-523,0],[371,428],[-308,35],[-354,-449],[-304,207],[-625,21],[-519,138],[-456,683],[-1012,574],[-988,117],[-291,138],[-924,1126],[426,483],[561,139],[886,-325],[397,83],[650,-69],[553,-228],[987,-815],[481,-318],[224,14],[561,-290],[659,-173],[211,145],[-393,256],[-359,21],[-578,614],[583,173],[181,207],[-848,145],[342,794],[-435,90],[-743,477],[135,200],[1013,-449],[9,235],[-1038,504],[-300,-159],[-355,145],[705,518],[308,-34],[139,262],[-346,200],[-489,-476],[-612,-401],[-215,118],[506,490],[-17,290],[-1194,235],[473,442],[717,221],[777,97],[206,393],[-831,-345],[-663,104],[-147,172],[-979,125],[671,663],[-1342,-525],[-93,-380],[-574,-28],[392,-414],[-168,-456],[-1098,-359],[-308,14],[-270,338],[-498,-228],[-367,283],[-240,622],[126,214],[-519,145],[93,166],[772,435],[169,428],[-447,242],[-17,221],[793,718],[296,173],[0,497],[-224,228],[-329,-256],[-422,139],[-275,228],[228,276],[397,-69],[485,76],[-46,221],[367,400],[169,353],[29,400],[-363,711],[-177,-62],[-785,311],[9,774],[308,538],[-367,332],[-275,504],[-472,152],[181,255],[-164,753],[447,97],[-718,359],[-358,311],[215,325],[-93,490],[-498,-311],[-1190,-269],[625,421],[498,187],[164,511],[-181,352],[607,193],[-1033,898],[-292,145],[342,276],[-388,470],[-338,-69],[-654,476],[-249,0],[-460,366],[308,180],[-489,256],[-448,573],[-232,124],[802,518],[-422,276],[190,318],[-401,48],[177,325],[-966,-124],[-376,746],[-658,76],[-55,276],[-696,97],[25,193],[-1152,7],[-67,518],[-992,55],[-599,131],[-676,366],[-211,-186],[-1257,490],[-498,62],[-401,-808],[-498,-200],[-316,518],[-254,0],[-1114,-511],[-481,-7],[13,-456],[-502,55],[-368,263],[245,400],[-4,332],[-777,-221],[-316,-580],[-1030,760],[-426,-436],[359,-76],[84,-345],[891,-490],[-3161,559],[-144,366],[-367,69],[-574,415],[-464,131],[-409,290],[97,228],[810,262]],[[6212,70059],[852,-835],[600,0],[0,911],[882,0],[0,346],[-557,0]],[[7989,70481],[-574,304],[-929,-35],[-1641,359],[-300,214],[-903,7],[-532,394],[296,152],[-882,248],[8,332],[713,504],[1903,200],[1634,-207],[181,-76],[1199,131],[1506,-303],[515,96],[-2207,304],[-363,-83],[-1376,214],[1127,505],[1519,27],[1076,-117],[178,262],[751,28],[240,290],[-367,518],[-540,235],[-861,-7],[-177,-408],[-553,-207],[-1245,-103],[-460,41],[-949,-242],[-1680,442],[612,297],[-304,187],[-987,27],[983,746],[-498,21],[-494,-338],[-1030,-49],[-151,200],[-811,297],[-726,532],[-704,387],[-186,269],[354,346],[-274,255],[338,318],[84,546],[1055,158],[629,360],[1211,-118],[106,332],[1232,241],[127,214],[763,21],[764,373],[-105,345],[1616,408],[2211,283],[916,-173],[688,442],[451,539],[427,166],[477,552],[59,380],[-304,249],[110,525],[-300,283],[291,463],[38,469],[-620,97],[-903,-352],[-503,255],[-1430,-48],[-114,297],[-553,221],[9,663],[1088,511],[47,366],[1000,235],[143,242],[1511,483],[604,905],[1342,255],[164,235],[1384,484],[1266,-125],[566,-290]],[[32195,36294],[215,138],[165,-325],[-372,-200],[-8,387]],[[33410,37088],[-953,-159],[493,401],[747,34],[-287,-276]],[[35242,42420],[337,48],[566,-401],[-494,-462],[34,-670],[-477,-90],[-156,856],[257,318],[-67,401]],[[32511,40037],[-493,-131],[-621,-318],[-417,110],[-131,242],[-363,62],[-203,263],[114,221],[659,-111],[185,208],[-320,359],[-406,-42],[-987,159],[-414,470],[131,497],[190,249],[46,379],[-105,484],[4,483],[144,228],[468,249],[895,-97],[1034,-373],[384,-345],[489,-801],[680,-359],[510,-159],[55,-477],[207,-248],[-498,-650],[-1237,-552]],[[34280,46736],[244,-407],[-806,193],[76,332],[486,-118]],[[30895,47323],[-93,373],[557,636],[359,-705],[-93,-407],[-358,-111],[-372,214]],[[33191,48090],[-287,-408],[-481,-55],[-266,242],[-80,559],[321,173],[915,-138],[-122,-373]],[[31874,49236],[-257,173],[88,401],[1009,-42],[-544,-518],[-296,-14]],[[27983,50825],[452,-97],[-245,-304],[-401,256],[194,145]],[[29026,52510],[-477,-594],[-207,-110],[-278,345],[713,428],[249,-69]],[[27798,54071],[-422,-145],[-106,242],[253,255],[528,35],[-253,-387]],[[27899,53753],[-84,214],[299,394],[663,366],[350,-97],[-173,-366],[-713,-759],[-342,248]],[[28110,55521],[734,-159],[-595,-186],[-139,345]],[[27270,58843],[-797,-48],[42,414],[987,-248],[-232,-118]],[[26633,61647],[-937,-27],[620,304],[317,-277]],[[2152,73796],[-207,-311],[-696,21],[-650,290],[313,297],[1240,-297]],[[4131,73913],[-1173,-172],[-363,317],[659,90],[877,-235]],[[6212,70059],[561,360],[1216,62]],[[36056,22570],[-354,-228],[177,-600]],[[33942,20098],[-215,352],[287,249],[169,366],[557,186],[-321,380],[-181,-200],[-64,-318],[-447,111],[-101,207],[282,193],[-379,504],[198,104],[-85,276],[13,484],[-397,-69],[-202,200],[481,552],[-447,-62],[12,201],[-409,227],[59,581],[-709,13],[-80,270],[274,297],[-316,456],[-308,172],[118,498],[629,386],[417,380],[93,297],[523,449],[498,200],[292,650],[422,255],[540,594],[-342,-55],[-359,-449],[-418,-263],[-274,-607],[-941,-705],[-468,-628],[-566,-366],[-502,110],[160,456],[-211,470],[119,628],[367,83],[316,-145],[405,214],[-742,111],[-30,310],[228,201],[380,-83],[629,83],[-498,690],[789,-14],[-186,242],[-321,-83],[-481,166],[-899,-83],[21,352],[-291,132],[-245,324],[203,304],[696,83],[161,214],[388,35],[1502,490],[165,-124],[806,-49],[80,166],[-764,-48],[-287,193],[-1565,-525],[-194,69],[-448,-96],[-422,-284],[-177,118],[114,773],[291,284],[405,193],[422,428],[114,256],[802,310],[236,0],[456,-290],[350,-89],[81,-180],[540,97],[451,-35],[477,-242],[258,-296],[362,-166],[579,-21],[194,117]],[[32457,24566],[135,-145],[-300,-345],[-207,76],[-17,297],[389,117]],[[48366,12397],[102,-276],[358,-83],[789,-428],[211,-567],[0,-310],[-506,276],[-321,14],[279,-408],[291,62],[236,-435],[-76,-601],[-168,-379],[489,-28],[-122,-573],[-372,-712],[152,-317],[-177,-263],[-861,0],[55,-131],[654,14],[47,-718],[-338,-297],[-13,-594],[-342,-194],[414,-331],[-89,-401],[-489,-200],[-654,276],[-85,-117],[971,-311],[-59,-221],[219,-193],[-67,-567],[-245,-276],[-363,28],[-42,-346],[-642,373],[-337,-138],[654,-180],[181,-193],[368,-753],[-81,-746],[-405,118],[-607,255],[-372,90],[-489,-103],[-220,-42],[-88,-138],[-178,-566],[-624,214],[-135,511],[-211,214],[152,290],[270,193],[55,463],[-76,193],[-448,-186],[-291,325],[38,386],[-397,-366],[-595,249],[351,297],[71,366],[-455,269],[-26,-297],[-303,63],[88,379],[431,387],[607,221],[211,497],[-169,35],[-215,-373],[-675,-449],[-97,187],[236,317],[275,125],[122,248],[-219,173],[-123,-290],[-312,-187],[-85,-214],[-354,359],[-63,-304],[-355,-82],[-8,-332],[-367,-476],[-313,255],[228,290],[-185,187],[-667,-615],[-287,-28],[-515,90],[-426,-117],[-59,124],[329,297],[447,235],[-215,159]],[[46417,753],[-232,110],[122,580],[270,-172],[80,-235],[-240,-283]],[[45113,2417],[-51,-456],[-354,-352],[71,781],[334,27]],[[42834,4158],[-215,131],[789,518],[42,-207],[-350,-173],[-266,-269]],[[47463,407],[-139,-359],[-426,-48],[-80,297],[232,428],[413,-318]],[[46974,780],[-439,-469],[-152,159],[278,462],[313,-152]],[[48333,1126],[-30,-325],[-473,235],[-177,-546],[-502,290],[-89,256],[-257,249],[63,269],[1465,-428]],[[40935,3999],[-291,-318],[-224,55],[-321,436],[498,158],[258,-103],[80,-228]]],"bbox":[-72.89882553117857,59.80561590551244,-11.395591956799137,83.63410099999996],"transform":{"scale":[0.0006150384861286556,0.00023828723381721334],"translate":[-72.89882553117857,59.80561590551244]}}