{"type":"Topology","objects":{"a1":{"type":"GeometryCollection","geometries":[{"type":"Polygon","arcs":[[0,1,2,3]],"id":"GTM-1962","properties":{"adm1_code":"GTM-1962","iso_3166_2":"GT-JU","name":"Jutiapa","admin":"Guatemala","adm0_a3":"GTM","type_en":"Department"}},{"type":"Polygon","arcs":[[-3,4,5,6]],"id":"GTM-1960","properties":{"adm1_code":"GTM-1960","iso_3166_2":"GT-CQ","name":"Chiquimula","admin":"Guatemala","adm0_a3":"GTM","type_en":"Department"}},{"type":"Polygon","arcs":[[7,8,9]],"id":"GTM-1944","properties":{"adm1_code":"GTM-1944","iso_3166_2":"GT-PE","name":"Petén","admin":"Guatemala","adm0_a3":"GTM","type_en":"Department"}},{"type":"Polygon","arcs":[[10,11,12,13]],"id":"GTM-1947","properties":{"adm1_code":"GTM-1947","iso_3166_2":"GT-SM","name":"San Marcos","admin":"Guatemala","adm0_a3":"GTM","type_en":"Department"}},{"type":"Polygon","arcs":[[14,15,16,17,-11]],"id":"GTM-1943","properties":{"adm1_code":"GTM-1943","iso_3166_2":"GT-HU","name":"Huehuetenango","admin":"Guatemala","adm0_a3":"GTM","type_en":"Department"}},{"type":"Polygon","arcs":[[18,19,20,21,22,23,-16]],"id":"GTM-3467","properties":{"adm1_code":"GTM-3467","iso_3166_2":"GT-QC","name":"Quiché","admin":"Guatemala","adm0_a3":"GTM","type_en":"Department"}},{"type":"Polygon","arcs":[[-9,24,25,26,27,-20,28]],"id":"GTM-1948","properties":{"adm1_code":"GTM-1948","iso_3166_2":"GT-AV","name":"Alta Verapaz","admin":"Guatemala","adm0_a3":"GTM","type_en":"Department"}},{"type":"Polygon","arcs":[[-8,29,30,-25]],"id":"GTM-1959","properties":{"adm1_code":"GTM-1959","iso_3166_2":"GT-IZ","name":"Izabal","admin":"Guatemala","adm0_a3":"GTM","type_en":"Department"}},{"type":"Polygon","arcs":[[-6,31,32,-26,-31,33]],"id":"GTM-1963","properties":{"adm1_code":"GTM-1963","iso_3166_2":"GT-ZA","name":"Zacapa","admin":"Guatemala","adm0_a3":"GTM","type_en":"Department"}},{"type":"Polygon","arcs":[[-13,34,35,36]],"id":"GTM-1946","properties":{"adm1_code":"GTM-1946","iso_3166_2":"GT-RE","name":"Retalhuleu","admin":"Guatemala","adm0_a3":"GTM","type_en":"Department"}},{"type":"Polygon","arcs":[[-36,37,38,39,40,41]],"id":"GTM-1952","properties":{"adm1_code":"GTM-1952","iso_3166_2":"GT-SU","name":"Suchitepéquez","admin":"Guatemala","adm0_a3":"GTM","type_en":"Department"}},{"type":"Polygon","arcs":[[-41,42,43,44,45,46]],"id":"GTM-1950","properties":{"adm1_code":"GTM-1950","iso_3166_2":"GT-ES","name":"Escuintla","admin":"Guatemala","adm0_a3":"GTM","type_en":"Department"}},{"type":"Polygon","arcs":[[-1,47,-46,48,49]],"id":"GTM-1957","properties":{"adm1_code":"GTM-1957","iso_3166_2":"GT-SR","name":"Santa Rosa","admin":"Guatemala","adm0_a3":"GTM","type_en":"Department"}},{"type":"Polygon","arcs":[[-22,50,51,-43,-40,52]],"id":"GTM-1949","properties":{"adm1_code":"GTM-1949","iso_3166_2":"GT-CM","name":"Chimaltenango","admin":"Guatemala","adm0_a3":"GTM","type_en":"Department"}},{"type":"Polygon","arcs":[[-44,-52,53]],"id":"GTM-1953","properties":{"adm1_code":"GTM-1953","iso_3166_2":"GT-SA","name":"Sacatepéquez","admin":"Guatemala","adm0_a3":"GTM","type_en":"Department"}},{"type":"Polygon","arcs":[[-45,-54,-51,54,55,56,-49]],"id":"GTM-1951","properties":{"adm1_code":"GTM-1951","iso_3166_2":"GT-GU","name":"Guatemala","admin":"Guatemala","adm0_a3":"GTM","type_en":"Department"}},{"type":"Polygon","arcs":[[-2,-50,-57,57,-32,-5]],"id":"GTM-1961","properties":{"adm1_code":"GTM-1961","iso_3166_2":"GT-JA","name":"Jalapa","admin":"Guatemala","adm0_a3":"GTM","type_en":"Department"}},{"type":"Polygon","arcs":[[-27,-33,-58,-56,58]],"id":"GTM-1956","properties":{"adm1_code":"GTM-1956","iso_3166_2":"GT-PR","name":"El Progreso","admin":"Guatemala","adm0_a3":"GTM","type_en":"Department"}},{"type":"Polygon","arcs":[[-23,-53,-39,59,60]],"id":"GTM-1954","properties":{"adm1_code":"GTM-1954","iso_3166_2":"GT-SO","name":"Sololá","admin":"Guatemala","adm0_a3":"GTM","type_en":"Department"}},{"type":"Polygon","arcs":[[-12,-18,61,-60,-38,-35]],"id":"GTM-1945","properties":{"adm1_code":"GTM-1945","iso_3166_2":"GT-QZ","name":"Quezaltenango","admin":"Guatemala","adm0_a3":"GTM","type_en":"Department"}},{"type":"Polygon","arcs":[[-21,-28,-59,-55]],"id":"GTM-1942","properties":{"adm1_code":"GTM-1942","iso_3166_2":"GT-BV","name":"Baja Verapaz","admin":"Guatemala","adm0_a3":"GTM","type_en":"Department"}},{"type":"Polygon","arcs":[[-17,-24,-61,-62]],"id":"GTM-1955","properties":{"adm1_code":"GTM-1955","iso_3166_2":"GT-TO","name":"Totonicapán","admin":"Guatemala","adm0_a3":"GTM","type_en":"Department"}}]}},"arcs":[[[49838,1410],[194,1612],[-1548,3626],[710,483],[2707,-1128],[2644,2982],[-194,1732],[-3288,2055],[838,2095],[1870,443],[709,1853]],[[54480,17163],[7222,1652],[1869,1894]],[[63571,20709],[2257,-1330],[1870,81],[580,-2538]],[[68278,16922],[-1805,-282],[-710,-2055],[1677,-2498],[-2644,-604],[-1805,-1290],[-967,-2538],[-3288,-40],[-3546,-2579],[-1870,-1934],[0,-3102],[-3482,1410]],[[63571,20709],[516,4472],[-1741,484]],[[62346,25665],[1612,2941],[1934,-806],[2063,0],[1548,1128],[6447,0]],[[75950,28928],[-967,-1934],[1999,-3022],[-323,-3183],[-2127,-201],[-2902,-3868],[-3352,202]],[[74790,53223],[-3031,161],[-967,-1249]],[[70792,52135],[-2901,-443],[-64,1289],[-4062,-81],[-1612,927],[-2837,-363],[-709,1169],[-8188,2175],[-5739,685]],[[44680,57493],[-322,4392],[1547,2135],[65,1773],[-1999,282],[-1676,1451],[-2579,966],[322,1531],[-2514,3788],[-8253,4190],[-1354,2458],[-1225,241],[-2966,3949],[-1869,0],[-1677,1611],[10961,-80],[0,13456],[774,363],[17408,-40],[16376,0],[10960,0],[194,-12087],[64,-6970],[-1096,-15754],[-1031,-11925]],[[3482,42183],[967,-1168],[258,-2901],[5158,1773],[3288,-282],[2514,-3143]],[[15667,36462],[-2063,-2417],[645,-2176],[-1612,-2458],[-1419,-3666],[-1418,-1329],[-2514,161],[-2966,-846],[-1548,-1451],[2128,-604],[774,-2095]],[[5674,19581],[-3611,-1088]],[[2063,18493],[-2063,1450],[967,605],[1096,3223],[-709,2740],[903,2095],[0,2336],[1998,1894],[-3223,4029],[0,1249],[2450,4069]],[[3482,42183],[8768,14464],[709,564],[18117,41]],[[31076,57252],[-4900,-9388],[-2772,-1853],[-709,-2297],[1676,-2901],[1999,-282],[129,-2336],[-3417,-726]],[[23082,37469],[-3224,-805],[-1805,-1813]],[[18053,34851],[-2386,1611]],[[31076,57252],[12637,0],[967,201]],[[44680,57453],[-580,-1652],[-4706,685],[-2579,-1893],[-65,-2982],[-1160,-1853],[773,-2095],[3675,-1370],[774,-2659],[-2192,-1612],[1031,-2095],[3869,-564],[-258,-1894]],[[43262,37469],[-903,-1208],[-3739,40],[-4320,1048],[-193,-2660],[1869,-2296],[2257,-1330],[1225,-2377]],[[39458,28686],[-4836,927],[-4319,-604],[-1548,-2216]],[[28755,26793],[-2385,2054]],[[26370,28847],[-1483,2619],[258,1974],[-1999,2539],[-64,1490]],[[70792,52135],[-3288,-2740],[-3095,-4190],[1612,-2377],[-1225,-1410],[-258,-3264],[1032,-2699]],[[65570,35455],[-4062,-564],[-2708,80]],[[58800,34971],[-2321,-80]],[[56479,34891],[1096,1491],[-580,1732],[-3159,-483],[-4449,483],[-967,-1853],[-2579,1168],[-2579,40]],[[44680,57453],[0,40]],[[74790,53223],[7994,-282],[3095,-846],[4062,-2579],[4384,2538],[2579,-1128],[3095,-2095],[-2386,-1289],[-902,-1410],[-2837,-2337],[-7286,-5399],[-5286,-3908],[-4320,-1692]],[[76982,32796],[-838,765],[-387,2619],[516,1612],[-1870,685],[-4513,-1894],[-4320,-1128]],[[62346,25665],[-1418,120],[-1032,2257]],[[59896,28042],[1612,805],[-1999,2660],[1354,604],[-2063,2860]],[[76982,32796],[-1032,-1854],[0,-2014]],[[5674,19581],[3997,-202],[2386,4231],[2321,-846],[1612,1128],[2256,121]],[[18246,24013],[-1418,-1491],[-967,-2820],[64,-5037],[-1354,-5237]],[[14571,9428],[-6189,4069],[-3482,3062],[-2837,1934]],[[18246,24013],[1032,644]],[[19278,24657],[-194,-2659],[2321,645],[1999,-403],[1161,-2015],[1998,323],[1548,-1008]],[[28111,19540],[64,-2457]],[[28175,17083],[-1483,-3868],[-2901,201],[-3353,1411],[-967,-1652],[129,-1974],[-2385,-3224]],[[17215,7977],[-2644,1451]],[[28175,17083],[2386,-524],[3094,1974]],[[33655,18533],[1741,-2055],[1419,1330],[2836,242]],[[39651,18050],[1290,-1330],[838,-3868]],[[41779,12852],[1225,-1329],[-2772,-3586],[0,-3304]],[[40232,4633],[-1999,202],[-5029,-443],[-6383,362],[-3739,725],[-5867,2498]],[[49838,1410],[-6447,2579],[-3159,644]],[[41779,12852],[2966,1773],[-65,1451],[1483,2659],[2515,403]],[[48678,19138],[516,-444],[3417,564],[1869,-2095]],[[39458,28686],[-2708,-3062]],[[36750,25624],[-129,-2619],[-2321,-2618],[-645,-1854]],[[28111,19540],[193,2498],[903,2780],[-452,1975]],[[36750,25624],[1870,-725],[1805,-2498],[-774,-4351]],[[39458,28686],[1547,-483],[2644,604],[2192,-242]],[[45841,28565],[1225,-1087],[322,-2539],[3224,-1853]],[[50612,23086],[-1418,-1531],[-516,-2417]],[[50612,23086],[838,846],[2579,403],[774,1370],[2901,926],[2192,1411]],[[45841,28565],[2385,-241],[516,1611],[7737,4956]],[[19278,24657],[1031,1934]],[[20309,26591],[1225,1007],[3740,41],[1096,1208]],[[18053,34851],[-1677,-605],[645,-3545],[2257,-1854],[1031,-2256]]],"bbox":[-92.24576607234266,13.731835347098723,-88.22012818941464,17.816530423037534],"transform":{"scale":[0.00004025678139709421,0.000040847359232980436],"translate":[-92.24576607234266,13.731835347098723]}}