{"type":"Topology","objects":{"a1":{"type":"GeometryCollection","geometries":[{"type":"Polygon","arcs":[[0]],"id":"GUM+00?","properties":{"adm1_code":"GUM+00?","iso_3166_2":"GU-X01~","name":"Guam","admin":"Guam","adm0_a3":"GUM","type_en":null}}]}},"arcs":[[[78150,99999],[21849,-10460],[-15126,-20920],[-31932,-17992],[-12605,-16736],[-2521,-23849],[-26050,-10042],[-11765,30544],[3361,18409],[42017,19666],[17647,29706],[15125,1674]]],"bbox":[144.64394633059607,13.24634580342348,144.9528121642959,13.63967462016376],"transform":{"scale":[0.0000030886892238905033,0.0000039333275006777995],"translate":[144.64394633059607,13.24634580342348]}}