{"type":"Topology","objects":{"a1":{"type":"GeometryCollection","geometries":[{"type":"Polygon","arcs":[[0,1,2]],"id":"HKG-5168","properties":{"adm1_code":"HKG-5168","iso_3166_2":"HK-X16~","name":"North","admin":"Hong Kong S.A.R.","adm0_a3":"HKG","type_en":null}},{"type":"Polygon","arcs":[[3]],"id":"HKG-5170","properties":{"adm1_code":"HKG-5170","iso_3166_2":"HK-X18~","name":"Islands","admin":"Hong Kong S.A.R.","adm0_a3":"HKG","type_en":null}},{"type":"Polygon","arcs":[[4,5,6,7]],"id":"HKG-5156","properties":{"adm1_code":"HKG-5156","iso_3166_2":"HK-X04~","name":"Southern","admin":"Hong Kong S.A.R.","adm0_a3":"HKG","type_en":null}},{"type":"Polygon","arcs":[[-6,8,9]],"id":"HKG-5153","properties":{"adm1_code":"HKG-5153","iso_3166_2":"HK-X01~","name":"Central and Western","admin":"Hong Kong S.A.R.","adm0_a3":"HKG","type_en":null}},{"type":"Polygon","arcs":[[-7,-10,10,11]],"id":"HKG-5154","properties":{"adm1_code":"HKG-5154","iso_3166_2":"HK-X02~","name":"Wan Chai","admin":"Hong Kong S.A.R.","adm0_a3":"HKG","type_en":null}},{"type":"Polygon","arcs":[[-8,-12,12]],"id":"HKG-5155","properties":{"adm1_code":"HKG-5155","iso_3166_2":"HK-X03~","name":"Eastern","admin":"Hong Kong S.A.R.","adm0_a3":"HKG","type_en":null}},{"type":"Polygon","arcs":[[13,14,15,16,17,18]],"id":"HKG-5165","properties":{"adm1_code":"HKG-5165","iso_3166_2":"HK-X13~","name":"Tsuen Wan","admin":"Hong Kong S.A.R.","adm0_a3":"HKG","type_en":null}},{"type":"MultiPolygon","arcs":[[[-1,19,20,-17,21]],[[22,23,24]]],"id":"HKG-5169","properties":{"adm1_code":"HKG-5169","iso_3166_2":"HK-X17~","name":"Tai Po","admin":"Hong Kong S.A.R.","adm0_a3":"HKG","type_en":null}},{"type":"Polygon","arcs":[[-18,-21,25,-25,26,27,28,29,30]],"id":"HKG-5163","properties":{"adm1_code":"HKG-5163","iso_3166_2":"HK-X11~","name":"Sha Tin","admin":"Hong Kong S.A.R.","adm0_a3":"HKG","type_en":null}},{"type":"Polygon","arcs":[[-24,31,32,33,-27]],"id":"HKG-5162","properties":{"adm1_code":"HKG-5162","iso_3166_2":"HK-X10~","name":"Sai Kung","admin":"Hong Kong S.A.R.","adm0_a3":"HKG","type_en":null}},{"type":"Polygon","arcs":[[-33,34,35,36]],"id":"HKG-5161","properties":{"adm1_code":"HKG-5161","iso_3166_2":"HK-X09~","name":"Kwun Tong","admin":"Hong Kong S.A.R.","adm0_a3":"HKG","type_en":null}},{"type":"Polygon","arcs":[[-29,37,-36,38,39,40]],"id":"HKG-5158","properties":{"adm1_code":"HKG-5158","iso_3166_2":"HK-X06~","name":"Kowloon City","admin":"Hong Kong S.A.R.","adm0_a3":"HKG","type_en":null}},{"type":"Polygon","arcs":[[-40,41,42]],"id":"HKG-5157","properties":{"adm1_code":"HKG-5157","iso_3166_2":"HK-X05~","name":"Yau Tsim Mong","admin":"Hong Kong S.A.R.","adm0_a3":"HKG","type_en":null}},{"type":"Polygon","arcs":[[-30,-41,-43,43,44]],"id":"HKG-5159","properties":{"adm1_code":"HKG-5159","iso_3166_2":"HK-X07~","name":"Sham Shui Po","admin":"Hong Kong S.A.R.","adm0_a3":"HKG","type_en":null}},{"type":"Polygon","arcs":[[-19,-31,-45,45]],"id":"HKG-5164","properties":{"adm1_code":"HKG-5164","iso_3166_2":"HK-X12~","name":"Kwai Tsing","admin":"Hong Kong S.A.R.","adm0_a3":"HKG","type_en":null}},{"type":"Polygon","arcs":[[-15,46,47]],"id":"HKG-5166","properties":{"adm1_code":"HKG-5166","iso_3166_2":"HK-X14~","name":"Tuen Mun","admin":"Hong Kong S.A.R.","adm0_a3":"HKG","type_en":null}},{"type":"Polygon","arcs":[[-2,-22,-16,-48,48]],"id":"HKG-5167","properties":{"adm1_code":"HKG-5167","iso_3166_2":"HK-X15~","name":"Yuen Long","admin":"Hong Kong S.A.R.","adm0_a3":"HKG","type_en":null}},{"type":"Polygon","arcs":[[-28,-34,-37,-38]],"id":"HKG-5160","properties":{"adm1_code":"HKG-5160","iso_3166_2":"HK-X08~","name":"Wong Tai Sin","admin":"Hong Kong S.A.R.","adm0_a3":"HKG","type_en":null}}]}},"arcs":[[[90520,87142],[-21800,-3333],[-13744,-9524]],[[54976,74285],[-9953,16190]],[[45023,90475],[-474,1905],[27014,7619],[18957,-12857]],[[28910,30476],[6161,0],[-1896,-14762],[-16587,-15714],[-16588,5238],[9953,18571],[18957,6667]],[[75355,10952],[-8057,-10476],[-17062,17143]],[[50236,17619],[9005,-3810]],[[59241,13809],[4739,477]],[[63980,14286],[11375,-3334]],[[50236,17619],[9479,2381]],[[59715,20000],[-474,-6191]],[[59715,20000],[2370,0]],[[62085,20000],[1895,-5714]],[[62085,20000],[13270,-9048]],[[50236,42381],[-17061,-1905]],[[33175,40476],[2844,9047]],[[36019,49523],[18483,8572]],[[54502,58095],[6161,1904]],[[60663,59999],[-3792,-14761]],[[56871,45238],[-6635,-2857]],[[90520,87142],[-23222,-25238]],[[67298,61904],[-6635,-1905]],[[54502,58095],[474,16190]],[[75355,63809],[13270,14285],[8056,-9999]],[[96681,68095],[-21326,-14762]],[[75355,53333],[0,10476]],[[67298,61904],[8057,1905]],[[75355,53333],[-5214,-11429]],[[70141,41904],[-6635,-2381]],[[63506,39523],[-2843,-476]],[[60663,39047],[-1896,-952]],[[58767,38095],[-1896,7143]],[[96681,68095],[3318,-21905],[-19431,6190],[-6635,-30475]],[[73933,21905],[-1422,13333]],[[72511,35238],[-2370,6666]],[[73933,21905],[-5687,7142]],[[68246,29047],[-948,6667]],[[67298,35714],[5213,-476]],[[63506,39523],[3792,-3809]],[[68246,29047],[-6635,-5714]],[[61611,23333],[0,9048]],[[61611,32381],[-948,6666]],[[61611,23333],[-2844,9048]],[[58767,32381],[2844,0]],[[58767,32381],[-2369,2857]],[[56398,35238],[2369,2857]],[[56398,35238],[-6162,7143]],[[33175,40476],[-18957,7619],[4739,14285]],[[18957,62380],[17062,-12857]],[[18957,62380],[10427,18095],[15639,10000]]],"bbox":[113.83782380804752,22.21062222511513,114.38547667284303,22.556224951121237],"transform":{"scale":[0.000005476583413789231,0.0000034560618206792694],"translate":[113.83782380804752,22.21062222511513]}}