{"type":"Topology","objects":{"a1":{"type":"GeometryCollection","geometries":[{"type":"Polygon","arcs":[[0]],"id":"HMD+00?","properties":{"adm1_code":"HMD+00?","iso_3166_2":"HM-X01~","name":"Heard Island and McDonald Islands","admin":"Heard Island and McDonald Islands","adm0_a3":"HMD","type_en":null}}]}},"arcs":[[[99999,44761],[-37820,-43809],[-26923,-952],[-35256,95237],[57692,4762],[42307,-55238]]],"bbox":[73.32968039163381,-53.19001822581655,73.73458014001343,-53.0172168628135],"transform":{"scale":[0.000004049037974175941,0.0000017280309103396347],"translate":[73.32968039163381,-53.19001822581655]}}