{"type":"Topology","objects":{"a1":{"type":"GeometryCollection","geometries":[{"type":"Polygon","arcs":[[0]],"id":"IOA-1928","properties":{"adm1_code":"IOA-1928","iso_3166_2":"-99-X15~","name":"Cocos (Keeling) Islands","admin":"Indian Ocean Territories","adm0_a3":"IOA","type_en":"Province"}},{"type":"Polygon","arcs":[[1]],"id":"IOA-2652","properties":{"adm1_code":"IOA-2652","iso_3166_2":"-99-X14~","name":"Christmas Island","admin":"Indian Ocean Territories","adm0_a3":"IOA","type_en":null}}]}},"arcs":[[[468,931],[-205,-931],[-175,1024],[-59,1676],[-29,1397],[88,0],[58,-1955],[29,-1211],[117,-279],[176,279]],[[99999,99999],[-58,-5587],[-789,1118],[847,4469]]],"bbox":[96.82165233127375,-12.19824346695924,105.70349168354954,-10.43073238252802],"transform":{"scale":[0.00008881928171557505,0.000017675287597188173],"translate":[96.82165233127375,-12.19824346695924]}}