{"type":"Topology","objects":{"a1":{"type":"GeometryCollection","geometries":[{"type":"Polygon","arcs":[[0]],"id":"IOT+00?","properties":{"adm1_code":"IOT+00?","iso_3166_2":"IO-X01~","name":"British Indian Ocean Territory","admin":"British Indian Ocean Territory","adm0_a3":"IOT","type_en":null}}]}},"arcs":[[[88094,29592],[11905,-4082],[-45238,-25510],[-4761,17347],[4761,35714],[-4761,14285],[-42857,16327],[-7143,16326],[54761,-27551],[7143,-15306],[-7143,-53060],[33333,25510]]],"bbox":[72.3719367560436,-7.432217302608393,72.48094822676117,-7.270936030472214],"transform":{"scale":[0.000001090125608431842,0.0000016128288496502881],"translate":[72.3719367560436,-7.432217302608393]}}