{"type":"Topology","objects":{"a1":{"type":"GeometryCollection","geometries":[{"type":"Polygon","arcs":[[0]],"id":"JEY+00?","properties":{"adm1_code":"JEY+00?","iso_3166_2":"JE-X01~","name":"Jersey","admin":"Jersey","adm0_a3":"JEY","type_en":null}}]}},"arcs":[[[73493,99999],[26506,-99999],[-66264,7407],[-33735,79629],[73493,12963]]],"bbox":[-2.241223927729436,49.17092630812462,-2.0257964975018012,49.2597955805262],"transform":{"scale":[0.0000021542958452348013,8.887016110319219e-7],"translate":[-2.241223927729436,49.17092630812462]}}