{"type":"Topology","objects":{"a1":{"type":"GeometryCollection","geometries":[{"type":"Polygon","arcs":[[0,1,2,3,4]],"id":"JOR-854","properties":{"adm1_code":"JOR-854","iso_3166_2":"JO-IR","name":"Irbid","admin":"Jordan","adm0_a3":"JOR","type_en":"Province"}},{"type":"Polygon","arcs":[[5,6,7,8]],"id":"JOR-858","properties":{"adm1_code":"JOR-858","iso_3166_2":"JO-MD","name":"Madaba","admin":"Jordan","adm0_a3":"JOR","type_en":"Province"}},{"type":"Polygon","arcs":[[9,-9,10,11,12]],"id":"JOR-859","properties":{"adm1_code":"JOR-859","iso_3166_2":"JO-KA","name":"Karak","admin":"Jordan","adm0_a3":"JOR","type_en":"Province"}},{"type":"Polygon","arcs":[[13,-13,14,15]],"id":"JOR-852","properties":{"adm1_code":"JOR-852","iso_3166_2":"JO-AT","name":"Tafilah","admin":"Jordan","adm0_a3":"JOR","type_en":"Province"}},{"type":"Polygon","arcs":[[-16,16,17]],"id":"JOR-849","properties":{"adm1_code":"JOR-849","iso_3166_2":"JO-AQ","name":"Aqaba","admin":"Jordan","adm0_a3":"JOR","type_en":"Province"}},{"type":"Polygon","arcs":[[18,-4,19,20,21,22,-7]],"id":"JOR-857","properties":{"adm1_code":"JOR-857","iso_3166_2":"JO-BA","name":"Balqa","admin":"Jordan","adm0_a3":"JOR","type_en":"Province"}},{"type":"Polygon","arcs":[[23,24,-1,25]],"id":"JOR-850","properties":{"adm1_code":"JOR-850","iso_3166_2":"JO-MA","name":"Mafraq","admin":"Jordan","adm0_a3":"JOR","type_en":"Province"}},{"type":"Polygon","arcs":[[-12,26,27,-17,-15]],"id":"JOR-853","properties":{"adm1_code":"JOR-853","iso_3166_2":"JO-MN","name":"Ma`an","admin":"Jordan","adm0_a3":"JOR","type_en":"Province"}},{"type":"Polygon","arcs":[[-8,-23,28,29,-27,-11]],"id":"JOR-851","properties":{"adm1_code":"JOR-851","iso_3166_2":"JO-AM","name":"Amman","admin":"Jordan","adm0_a3":"JOR","type_en":"Province"}},{"type":"Polygon","arcs":[[-22,30,-24,31,-29]],"id":"JOR-860","properties":{"adm1_code":"JOR-860","iso_3166_2":"JO-AZ","name":"Zarqa","admin":"Jordan","adm0_a3":"JOR","type_en":"Province"}},{"type":"Polygon","arcs":[[-3,32,-20]],"id":"JOR-855","properties":{"adm1_code":"JOR-855","iso_3166_2":"JO-AJ","name":"Ajlun","admin":"Jordan","adm0_a3":"JOR","type_en":"Province"}},{"type":"Polygon","arcs":[[-2,-25,-31,-21,-33]],"id":"JOR-856","properties":{"adm1_code":"JOR-856","iso_3166_2":"JO-JA","name":"Jarash","admin":"Jordan","adm0_a3":"JOR","type_en":"Province"}}]}},"arcs":[[[26061,79535],[119,-2598],[-1614,-1456]],[[24566,75481],[-2570,-196]],[[21996,75285],[-1315,1534],[-4602,-1141],[-718,-2125],[419,-1968]],[[15780,71585],[-1734,158]],[[14046,71743],[0,4643],[479,2716],[-419,3502],[4483,2401],[299,79],[2869,-827],[4304,-4722]],[[11656,53640],[59,1417],[1016,4604]],[[12731,59661],[1853,-118],[1256,1653],[1614,590]],[[17454,61786],[2988,236],[-657,-2755],[1733,-3896],[-1554,-2400]],[[19964,52971],[-3766,39],[-4542,630]],[[9145,41440],[2092,4329],[-956,3660],[1375,4211]],[[19964,52971],[717,-3581],[6994,-158]],[[27675,49232],[956,-3699],[-1196,-3345],[-2689,-4487]],[[24746,37701],[-4483,3542],[-3706,1299],[-4483,393],[-478,-2046],[-2451,551]],[[7232,36599],[1913,4841]],[[24746,37701],[-1793,-2636],[-6516,-1260],[-4961,118]],[[11476,33923],[-4244,2676]],[[11476,33923],[-597,-3384],[-1017,-2912],[60,-2716],[-1554,-3069],[-299,-1811],[1554,-1731],[3467,-315],[2451,-3699],[1494,-5510],[1196,-7792]],[[18231,984],[-18231,2873],[1076,4368],[-956,590],[1075,4172],[1076,2597],[897,4605],[1315,2873],[-478,1456],[837,3148],[-479,1968],[1495,4486],[1374,2479]],[[12731,59661],[1315,1928],[-836,3660],[0,3345],[836,3149]],[[15780,71585],[1375,-669]],[[17155,70916],[3347,-433],[1255,-1023]],[[21757,69460],[1076,-1180]],[[22833,68280],[-2630,-1220],[-3287,-2322],[956,-1535],[-418,-1417]],[[64733,59936],[-28631,8776],[-1912,1220],[-3228,-236],[-1315,669],[-4782,40],[-896,1495]],[[23969,71900],[-957,1574],[1554,2007]],[[26061,79535],[2211,275],[4483,-3384],[3347,-709],[6934,-944],[15541,8933],[18948,10547],[10579,5746],[6456,-20936],[-1793,-512],[1554,-3975],[4363,1063],[1315,-2598],[-3347,-3030],[-4244,-2951],[-22474,-5786],[-5201,-1338]],[[27675,49232],[24626,-39]],[[52301,49193],[5977,-5746],[11536,-12121],[-7173,-3660],[-836,-826],[-3288,-7202],[-478,-394],[-16438,-3109],[-1195,-826],[-5260,-8028],[-9384,-7045],[-1196,-236],[-6335,984]],[[22833,68280],[2630,-2244],[3706,591],[1972,1023],[2451,-197],[2929,-2558],[-1554,-1850],[2809,-2361],[2869,472],[6515,-5903]],[[47160,55253],[-896,-236],[6037,-5824]],[[21757,69460],[2212,2440]],[[64733,59936],[-17573,-4683]],[[21996,75285],[-1434,-866],[-897,-1889],[-2510,-1614]]],"bbox":[34.949856165420584,29.19015156317174,39.29214641567114,33.3719445478456],"transform":{"scale":[0.000043423336735872924,0.00004181834803021893],"translate":[34.949856165420584,29.19015156317174]}}