{"type":"Topology","objects":{"a1":{"type":"GeometryCollection","geometries":[{"type":"Polygon","arcs":[[0,1,2,3]],"id":"KAZ-3206","properties":{"adm1_code":"KAZ-3206","iso_3166_2":"KZ-VOS","name":"East Kazakhstan","admin":"Kazakhstan","adm0_a3":"KAZ","type_en":"Region"}},{"type":"Polygon","arcs":[[4,5,6,-1],[7]],"id":"KAZ-3207","properties":{"adm1_code":"KAZ-3207","iso_3166_2":"KZ-ALA","name":"Almaty","admin":"Kazakhstan","adm0_a3":"KAZ","type_en":"Region"}},{"type":"Polygon","arcs":[[-6,8,9,10]],"id":"KAZ-3252","properties":{"adm1_code":"KAZ-3252","iso_3166_2":"KZ-ZHA","name":"Zhambyl","admin":"Kazakhstan","adm0_a3":"KAZ","type_en":"Region"}},{"type":"Polygon","arcs":[[-10,11,12,13]],"id":"KAZ-3251","properties":{"adm1_code":"KAZ-3251","iso_3166_2":"KZ-YUZ","name":"South Kazakhstan","admin":"Kazakhstan","adm0_a3":"KAZ","type_en":"Region"}},{"type":"MultiPolygon","arcs":[[[14,15,16]],[[17]]],"id":"KAZ-3236","properties":{"adm1_code":"KAZ-3236","iso_3166_2":"KZ-MAN","name":"Mangghystau","admin":"Kazakhstan","adm0_a3":"KAZ","type_en":"Region"}},{"type":"Polygon","arcs":[[-13,18,19,20],[21]],"id":"KAZ-3197","properties":{"adm1_code":"KAZ-3197","iso_3166_2":"KZ-KZY","name":"Qyzylorda","admin":"Kazakhstan","adm0_a3":"KAZ","type_en":"Region"}},{"type":"Polygon","arcs":[[-16,22,23,24,25,26,-20,27]],"id":"KAZ-3195","properties":{"adm1_code":"KAZ-3195","iso_3166_2":"KZ-AKT","name":"Aqtöbe","admin":"Kazakhstan","adm0_a3":"KAZ","type_en":"Region"}},{"type":"Polygon","arcs":[[28,29,30,31]],"id":"KAZ-3204","properties":{"adm1_code":"KAZ-3204","iso_3166_2":"KZ-SEV","name":"North Kazakhstan","admin":"Kazakhstan","adm0_a3":"KAZ","type_en":"Region"}},{"type":"Polygon","arcs":[[-26,32,-31,33,34]],"id":"KAZ-3196","properties":{"adm1_code":"KAZ-3196","iso_3166_2":"KZ-KUS","name":"Qostanay","admin":"Kazakhstan","adm0_a3":"KAZ","type_en":"Region"}},{"type":"Polygon","arcs":[[-3,35,36,-29,37]],"id":"KAZ-3205","properties":{"adm1_code":"KAZ-3205","iso_3166_2":"KZ-PAV","name":"Pavlodar","admin":"Kazakhstan","adm0_a3":"KAZ","type_en":"Region"}},{"type":"Polygon","arcs":[[-24,38,39]],"id":"KAZ-3201","properties":{"adm1_code":"KAZ-3201","iso_3166_2":"KZ-ZAP","name":"West Kazakhstan","admin":"Kazakhstan","adm0_a3":"KAZ","type_en":"Region"}},{"type":"Polygon","arcs":[[-15,40,-39,-23]],"id":"KAZ-3198","properties":{"adm1_code":"KAZ-3198","iso_3166_2":"KZ-ATY","name":"Atyrau","admin":"Kazakhstan","adm0_a3":"KAZ","type_en":"Region"}},{"type":"Polygon","arcs":[[-30,-37,41,-34],[42]],"id":"KAZ-3202","properties":{"adm1_code":"KAZ-3202","iso_3166_2":"KZ-AKM","name":"Aqmola","admin":"Kazakhstan","adm0_a3":"KAZ","type_en":"Region"}},{"type":"Polygon","arcs":[[-2,-7,-11,-14,-21,-27,-35,-42,-36]],"id":"KAZ-3203","properties":{"adm1_code":"KAZ-3203","iso_3166_2":"KZ-KAR","name":"Qaraghandy","admin":"Kazakhstan","adm0_a3":"KAZ","type_en":"Region"}},{"type":"Polygon","arcs":[[-8]],"id":"KAZ-4829","properties":{"adm1_code":"KAZ-4829","iso_3166_2":"KZ-ALA","name":"Almaty City","admin":"Kazakhstan","adm0_a3":"KAZ","type_en":"City"}},{"type":"Polygon","arcs":[[-43]],"id":"KAZ-4830","properties":{"adm1_code":"KAZ-4830","iso_3166_2":"KZ-AST","name":"Astana","admin":"Kazakhstan","adm0_a3":"KAZ","type_en":"City"}}]}},"arcs":[[[87691,33470],[-420,221],[32,676],[-134,787],[-247,654],[-172,1086],[-648,1663],[-108,532],[-464,399],[-102,299],[-273,-22],[-229,343],[-279,22],[-674,322],[-1048,975],[-204,532],[-610,432],[-1290,-122],[-444,1142],[-648,222],[-591,33],[-166,443],[-1131,1142],[-400,-610],[-159,310],[-477,-543],[-476,155],[-184,-188]],[[76145,44375],[-649,-78],[-127,-498],[-508,255],[-305,642],[121,1153],[438,233],[-216,1330],[223,1573],[266,1075],[337,355],[-584,521],[-32,853],[-248,34],[-254,476],[165,909],[261,22],[317,366],[223,465],[63,676],[-31,699],[-407,44],[-547,-133],[-203,399],[-6,809],[394,465],[-337,532],[-254,743],[-274,277],[-152,465],[337,942],[495,366],[483,665],[70,698],[-25,854],[146,399],[496,343],[540,942],[152,521]],[[76513,64767],[210,44],[318,-487],[527,-388],[763,-355],[482,865],[363,1319],[-248,764],[13,687],[-83,909],[-642,721],[-318,487],[-400,987],[-63,421],[197,354],[749,444],[642,598],[146,942],[413,-11],[255,366],[44,487],[349,278],[134,554]],[[80364,74753],[407,-1297],[1271,-4743],[146,432],[324,155],[629,554],[63,455],[-133,531],[159,710],[305,-11],[203,631],[394,-299],[229,-354],[515,-466],[-216,-1274],[241,-56],[597,144],[159,-853],[-13,-687],[521,33],[217,321],[559,-166],[203,-288],[305,-55],[140,254],[375,23],[165,-233],[540,654],[165,643],[515,-167],[203,233],[121,510],[801,0],[159,-322],[273,-88],[515,-432],[317,-588],[64,-632],[273,-354],[267,-953],[-51,-355],[153,-643],[25,-565],[292,-332],[668,-178],[324,-310],[158,-388],[337,-44],[-51,-1131],[191,-144],[375,-1208],[19,-543],[172,-299],[292,233],[318,-200],[203,222],[191,-388],[375,-133],[254,-321],[445,177],[158,-377],[229,809],[299,277],[534,1153],[336,-89],[70,-598],[-267,-200],[-184,-521],[566,-521],[12,-521],[185,-543],[419,-775],[349,-45],[172,-310],[89,-665],[-508,299],[-350,-255],[-210,100],[-394,-787],[-25,-521],[178,-498],[-127,-366],[13,-543],[-439,-1186],[-324,-277],[-241,22],[-344,-476],[-457,77],[-547,-155],[-158,-321],[-324,-1474],[-172,-1486],[197,-1994],[-38,-676],[222,-942],[-25,-1197],[-254,-189],[-146,-853],[-719,-122],[-88,-266],[-617,-964],[-432,-244],[-19,898],[-165,243],[-350,-88],[-241,155],[-648,0],[-216,-200],[-401,67],[-934,632],[-419,521],[-496,443],[-337,-111],[-70,-1696],[-355,-1418],[-407,-2704],[-261,-898],[-190,-1984],[-286,-1130],[-184,-1208]],[[87691,33470],[76,-421],[705,-388],[45,-643],[-121,-1097],[-267,-410],[-445,753],[-254,-33],[-591,-532],[-349,299],[-166,1009],[-178,66],[-305,-365],[-972,-599],[-711,-532],[-382,122],[-667,-344],[-146,-332],[-744,-166],[-502,-776],[26,-366],[305,-377],[553,167],[629,-554],[-242,-433],[19,-465],[-127,-1241],[102,-998],[-70,-1119],[318,-1308],[584,-3037],[-171,-886],[222,-255],[134,-809],[-38,-377],[-483,44],[-509,-609],[96,-499],[279,-199],[-114,-410],[-604,-499],[-216,-1131],[178,-964],[-45,-221],[178,-1408],[-139,-321],[-718,1584],[-541,233],[-540,-33],[-190,288],[-108,532],[-274,355],[-146,432],[-82,654],[-286,-233],[-845,333],[-464,476],[-274,11],[-870,-155],[-299,244],[-686,111],[-172,-133],[-381,221],[-464,-66],[-216,321],[-413,200],[-298,-111],[-356,-410],[-445,22],[-248,-166],[-368,210],[-464,89],[-166,-111],[-470,133]],[[71798,15837],[-584,898],[-496,587],[-165,942],[324,1153],[-1011,632],[630,2116],[108,610],[19,754],[-432,953],[-420,476],[-534,144],[-362,676],[-133,699],[-45,930],[-940,1696],[-146,1031],[-477,122],[-216,631],[83,588],[610,66],[-102,687],[-57,1109],[63,1629],[312,1197]],[[67827,36163],[1417,2992],[1569,1884],[572,-66],[636,133],[648,-56],[406,-210],[483,-22],[178,199],[1036,-199],[343,-677],[356,488],[458,144],[260,244],[32,942],[-76,2416]],[[74626,17555],[171,643],[7,620],[-324,-99],[-229,-632],[89,-466],[286,-66]],[[71798,15837],[-394,-875],[-1144,288],[-768,853],[-369,155],[-381,776],[-731,676],[-534,-222],[-184,233],[-159,-576],[-654,-466],[-178,-299],[-166,-820],[26,-687],[-197,-887],[-32,-487],[235,-1131],[-438,45],[-26,443],[-495,377],[-420,-100],[-247,133],[-286,654],[-610,199],[-452,532],[-457,-66],[-629,554],[-375,-144],[-273,-355],[-439,244],[-184,-388],[-159,111],[-280,-510],[-57,-587],[-298,-189],[-64,-565],[-216,-953]],[[59763,11803],[-654,1352],[-115,89],[-337,820],[-279,188],[-140,399],[-25,1496],[-83,444],[-242,299],[-50,421],[-483,421],[-566,311],[-133,720],[-223,277],[274,809],[597,3547],[63,753],[-260,3314],[-705,4887],[-541,2716],[-305,975]],[[55556,36041],[12271,122]],[[59763,11803],[140,-609],[-350,-399],[-171,66],[-305,-1153],[-185,-11],[-190,466],[-343,-399],[-439,-1264],[-654,-997],[-604,-211],[-356,-642],[-203,-189],[-13,-510],[-419,-55],[-426,-554],[-13,-1064],[-718,-1053],[-89,-543],[-146,-211],[-248,-786],[45,-688],[146,-443],[-83,-454],[-324,-100],[-476,521],[-483,842],[152,1629],[-267,200],[-209,953],[-248,-299],[-210,188],[-2287,-288],[-140,78],[-172,310],[-362,3646],[-89,1707],[-1188,22],[-26,111],[13,2416]],[[47823,12036],[420,-133],[762,1518],[375,377],[216,-166],[521,942],[1188,1585],[1195,1185],[-140,1086],[-286,278],[210,399],[63,598],[172,632],[19,687],[248,-288],[102,532],[-89,720],[165,388],[222,0],[0,443],[-578,854],[-254,764],[-629,654],[-32,5120],[-191,466],[-546,765],[6,786],[159,1596],[184,610],[-95,687],[-261,410],[-31,654]],[[50918,36185],[4638,-144]],[[15625,34899],[433,-199],[1220,587],[540,643],[-153,344],[623,1451],[419,233],[1919,754],[839,77],[566,909],[483,-820],[171,200],[197,-377],[13,-654],[273,-244],[242,55],[222,-487],[254,44],[585,-377]],[[24471,37038],[165,-886],[407,-5331]],[[25043,30821],[-1786,-1119],[-6,-4655],[0,-4633],[0,-6184],[6,-6184],[0,-3081],[-248,11],[-591,-399],[-311,-44],[-197,221],[-178,654],[-311,566],[-318,1152],[-362,1020],[-108,920],[-413,787],[-1328,1817],[-363,188],[-1556,-587],[-1062,-887],[-521,-897],[-800,-1652],[114,1297],[-203,1020],[483,1695],[190,1308],[165,798],[-76,499],[-343,454],[-496,233],[-241,-233],[-254,599],[-267,-67],[-311,-288],[-191,399],[-496,2006],[-692,-255],[-255,222],[115,831],[19,887],[-114,786],[-325,499],[-285,1131],[-102,798],[-318,809],[-13,1008],[-368,510],[-864,310],[-280,543],[-13,1186],[185,587],[483,-199],[857,44],[458,-787],[267,-199],[381,454],[254,-210],[337,255],[-305,354],[-235,-111],[-292,976],[-560,720],[26,953],[235,111],[407,643],[0,410],[375,1153],[476,77],[489,410],[407,-233],[1087,255],[400,-55],[845,-587],[483,-89],[83,565],[-985,953],[12,765],[286,864]],[[15212,32827],[-158,-333],[-185,455],[248,288],[95,-410]],[[47823,12036],[102,465],[114,3691],[-750,-754],[-680,2826],[-603,809],[-242,510],[-527,1374],[-248,111],[-1048,-1119],[-2987,543],[-1786,-588],[-1099,-398],[-108,77],[-1468,3369],[-546,1175],[-146,454],[-159,998],[-1430,1862],[-1906,2482],[-1519,1984]],[[30787,31907],[-64,3336],[204,1662],[1366,3469],[616,1208],[604,842],[597,266],[70,821],[242,443],[553,-78],[616,1751],[222,1131],[540,1385],[604,277],[699,11],[464,-1385],[299,-188],[362,-654],[362,-1042],[-44,-288],[959,-432]],[[40058,44442],[-419,-621],[-45,-299],[731,221],[635,-809],[344,-88],[616,-543],[534,-111],[2923,-2239],[209,-44],[598,-1020],[514,-465],[3489,-1585],[661,11],[70,-665]],[[41386,33536],[426,133],[483,510],[273,587],[216,998],[0,1119],[-216,987],[-273,587],[-483,510],[-280,111],[-572,-111],[-483,-510],[-273,-587],[-216,-987],[0,-1119],[216,-998],[273,-587],[483,-510],[426,-133]],[[24471,37038],[-235,1230],[-204,577],[-57,698],[-1906,1363],[-496,887],[-305,853],[-210,1009],[-203,565],[13,975],[171,2350],[-31,787],[-210,1684],[-248,532],[6,732],[-203,1529],[140,1363],[-121,754],[-222,33],[-324,454],[-204,-454],[-127,-598],[-908,399],[50,232],[-95,1718],[-178,820],[-298,-166],[-452,543]],[[17614,57907],[-6,698],[229,1241],[222,588],[369,388],[425,-34],[668,1364],[241,1463],[-311,798],[25,709],[-101,687],[158,321],[216,843]],[[19749,66973],[318,487],[-89,698],[0,1208],[-337,289],[58,421],[279,244],[420,-366],[203,-410],[375,-189],[89,-587],[546,-887],[451,-133],[413,-775],[668,786],[362,521],[235,1242],[394,-89],[235,543],[-32,388],[216,222],[216,-555],[223,-99],[19,631],[419,-77],[737,277],[77,-510],[184,-133],[191,-754],[343,-121],[101,288],[382,-89],[120,277],[-12,909],[89,310],[463,-288],[293,144],[273,-222],[292,577],[216,-588],[299,-11],[184,-255],[-101,-665],[216,-421],[57,-487],[642,-754],[660,-111],[229,-310],[362,100],[204,-1053],[248,332],[375,67],[349,1064],[6,476],[248,621],[280,-67],[95,-687],[305,-388],[1023,-221],[248,77],[1353,798],[172,621],[172,1917],[330,698]],[[37135,71904],[407,45],[273,-200],[83,-742],[177,-433],[299,300],[343,-466],[-133,-643],[330,-631],[-171,-654],[108,-543],[241,11],[216,-1585],[388,-1463],[483,-1341],[57,-853],[-229,-155],[-260,232],[-254,-354],[-128,-710],[-241,-432],[-114,-576],[95,-543],[-318,33],[-70,-543],[471,-1452],[-274,-410],[178,-787],[534,-1163],[369,-178],[222,211],[305,-133],[63,-499],[-63,-654],[1544,-1496],[756,-2150]],[[42822,50947],[572,-1829],[-241,-498],[-3095,-4178]],[[30787,31907],[-1156,1518],[-121,67],[-2580,-1496],[-1887,-1175]],[[66035,86622],[305,-1053],[-299,-221],[76,-876],[413,621],[280,-189],[-477,-1496],[274,-111],[-102,-853],[305,-111],[178,565],[280,111],[184,-388],[-324,-1640],[171,-288]],[[67299,80693],[-762,100],[-439,576],[-1016,587],[-242,45],[-165,1562],[-216,167],[-439,-167],[-457,-11],[-496,-576],[-775,33],[-330,200],[-140,476],[133,344],[96,898],[-528,1230],[-724,-599],[-528,255],[-95,576],[-947,-121],[-95,-477],[-413,-421],[-388,698],[-470,-22],[178,532],[-64,355],[-381,44],[-184,898],[-223,365],[-425,-33],[-642,-731],[-426,631],[-260,-354],[-299,188],[-343,-133],[95,-454],[-775,-1053],[330,-865],[255,-199],[247,-887],[-76,-720],[-184,-277],[70,-1031],[-661,-765],[-280,-798],[-610,-410],[-146,-343],[178,-399],[-483,-964],[-235,133],[-566,598],[-571,78],[-32,-998],[-750,-177],[-1118,277],[-121,477],[-572,-34],[-235,-133],[-184,488],[-452,222]],[[47918,79574],[20,1141],[76,1053],[190,344],[32,820],[-184,731],[140,477],[533,122],[229,277],[-368,787],[-89,1507],[-318,111],[-95,565],[228,410],[45,698],[-331,443],[-184,1242],[858,731],[-191,543],[-444,554],[286,211],[-318,2283]],[[48033,94624],[851,499],[623,55],[197,266],[483,33],[572,233],[178,377],[826,0],[330,299],[146,366],[858,22],[343,787],[-286,354],[178,466],[839,11],[312,1053],[597,-33],[-83,587],[439,-244],[159,-487],[362,399],[349,-244],[477,-100],[318,-288],[266,-532],[699,-532],[432,454],[236,565],[279,-77],[204,244],[374,-100],[-63,-410],[451,-1053],[-76,-1274],[146,-765],[426,-322],[203,-587],[-286,-321],[0,-776],[127,-521],[-19,-543],[-515,44],[185,-532],[-32,-410],[343,-565],[337,665],[299,-100],[82,-510],[566,156],[133,775],[744,-177],[209,986],[445,-975],[-83,-299],[452,-288],[-312,-366],[153,-443],[-115,-532],[204,-211],[495,920],[-362,11],[280,610],[813,-111],[51,-477],[210,-454],[730,-277],[388,122],[25,365],[515,322],[-102,-1064],[-158,-288],[-363,111],[-375,-665],[-63,-610],[-191,-155],[7,-610],[394,-343],[146,-488]],[[37135,71904],[-267,410],[-159,688],[-286,232],[-813,167],[-216,853],[-1029,44],[-344,300],[185,964],[-432,177],[-331,388],[-241,-122],[-134,543],[108,277],[420,0],[355,643],[388,421],[407,-44],[267,510],[235,166],[400,609],[-191,444],[-44,521],[-273,232],[-70,765],[-311,244],[50,487],[324,244],[884,1629],[387,-188],[318,177],[235,-377],[597,145],[255,-266],[419,365],[38,643],[-146,244],[-699,310],[-299,499],[-400,-200],[-330,377],[-344,45],[-165,642],[204,809],[165,67],[235,-443],[426,465],[-134,565],[-343,-44],[-197,-277],[-343,144],[-324,488],[470,1241],[-330,388],[311,942],[292,288],[261,-33],[146,-355],[731,-22],[146,-321],[407,-133],[0,576],[1004,55],[-58,-565],[267,-432],[216,620],[-89,388],[293,344],[349,111],[667,-67],[96,599],[502,-78],[927,587],[363,-321],[368,177],[-63,510],[769,333],[336,-11],[356,232],[350,-354],[464,465],[432,-632],[311,233],[-76,709],[76,532],[521,167],[127,543],[572,-244],[280,510],[305,144],[63,-554],[299,166]],[[47918,79574],[-38,-1508],[-197,-388],[-235,-1518],[-368,-709],[-477,-266],[-210,-377],[394,-465],[134,-455],[-127,-1241],[-216,-743],[70,-653],[432,-1297],[25,-1208],[318,44],[222,565],[293,89],[235,-299],[146,-554],[241,22],[401,-743],[876,-521],[706,211],[267,-366],[-108,-875],[356,-676],[648,554],[635,155],[585,454]],[[52926,66806],[432,-631],[-153,-543],[-248,-444],[-870,-509],[19,-1076],[-578,-1318],[-1602,-2638],[-216,-543],[-279,-200],[-121,-665],[-280,-155],[-851,-1396],[-483,-122],[-324,-321],[-229,-510],[-515,-189],[-1112,289],[-807,-244],[-285,-1230],[-293,-23],[102,-1019],[-807,-676],[-19,-698],[-585,-998]],[[76513,64767],[-146,189],[-6,1064],[-115,487],[-533,466],[-490,288],[-209,377],[-344,44],[-527,-986],[-140,-1486],[-298,189],[-534,-189],[-165,-520],[-299,221],[-934,-299],[-343,-199],[-687,0],[-819,-998],[-223,133],[-146,454],[146,377],[521,554],[-203,289],[-318,1075],[-343,465],[-229,-355],[-165,322],[32,543],[-445,288],[-972,-266],[-267,443],[32,953],[114,100],[153,1596],[-153,953],[-781,521]],[[66677,71860],[336,1031],[235,299],[801,565],[-546,421],[-64,244],[-464,-88],[-6,664],[165,710],[369,532],[-58,3779],[-146,676]],[[66035,86622],[464,776],[565,465],[420,-22],[44,-377],[375,156],[133,-543],[344,-255],[114,620],[-6,776],[400,-33],[114,499],[267,520],[623,-155],[998,1197],[-178,488],[336,288],[471,78],[1207,931],[121,642],[489,-199],[508,332],[26,377],[489,266],[-210,-654],[178,-454],[-425,-1097],[-464,199],[-248,-111],[368,-1252],[2663,-3491],[419,-776],[470,-1075],[1227,-3568],[693,-2173],[1334,-4244]],[[17614,57907],[-476,-831],[-108,-444],[-267,-133],[-871,-11],[-139,78],[-369,-831],[19,-798],[-362,-1042],[-83,-1097],[-159,-133],[-851,521],[-95,-222],[-413,100],[-388,266],[76,532],[-210,321],[-946,211],[-521,-222],[-509,-986],[-546,-410],[-1995,-2571],[-1113,-178],[-57,-510],[-1283,821],[-4398,1230]],[[1550,51568],[-82,221],[-1468,909],[343,1740],[331,1651],[432,610],[222,621],[19,709],[-121,288],[-502,587],[305,3292],[147,421],[533,432],[324,654],[45,432],[-153,521],[70,599],[343,687],[299,510],[165,-78],[903,-1751],[254,-687],[114,-776],[235,-665],[439,-366],[152,211],[744,610],[248,587],[-452,2117],[-70,1651],[388,111],[445,587],[324,665],[553,300],[133,376],[-190,554],[184,920],[870,0],[509,865],[540,244],[292,254],[134,787],[336,266],[19,710],[140,465],[509,-255],[-108,754],[50,343],[388,-543],[597,-66],[159,111],[337,-377],[6,-388],[-324,-188],[153,-488],[184,-33],[591,354],[64,-454],[330,277],[-44,676],[260,532],[540,-89],[140,388],[457,311],[109,-688],[311,-1230],[388,-100],[305,278],[419,-333],[470,388],[623,-188],[502,-654],[-45,-665],[197,-466],[642,-232],[197,-444],[235,-155],[159,-864],[299,-499],[438,-277],[-140,-565],[-101,-1009],[241,-632],[165,34]],[[15625,34899],[147,189],[406,1518],[172,1696],[0,465],[-184,632],[31,898],[229,1008],[-203,122],[-51,787],[-400,698],[-750,-44],[-388,343],[-241,-731],[-235,-155],[-58,-432],[-311,44],[-273,521],[-223,-56],[-355,233],[-642,975],[-769,377],[-210,-244],[-597,-277],[-254,-565],[-254,-188],[-109,-399],[-463,88],[-83,-432],[-521,-465],[-330,-765],[-140,-22],[-394,-610],[-439,244],[-70,-344],[-343,244],[-406,-643],[-185,-942],[-476,521],[-331,521],[-190,-22],[-280,488],[-324,44],[-108,543],[-184,155],[248,676],[298,-22],[210,-510],[375,133],[222,455],[-756,2227],[-426,2084],[-209,133],[-191,421],[-458,1485],[-317,388],[-966,-33],[-528,465],[-114,-155],[-70,-864],[-451,587],[-133,332],[88,388],[-260,654],[311,521],[-178,333],[-69,698],[88,255]],[[66677,71860],[-458,111],[-629,-321],[235,-798],[254,232],[343,-288],[-374,-620],[-572,-377],[44,-222],[-419,-488],[-413,167],[-305,-909],[-572,-388],[-108,-986],[-299,210],[-210,-277],[-38,-709],[-654,111],[-299,232],[134,1242],[-452,620],[-591,-255],[-235,-720],[-508,-366],[-51,-332],[-591,-532],[-140,-1330],[-203,343],[-330,-221],[-147,-1097],[-794,-577],[-102,521],[191,565],[-197,488],[-775,-277],[-439,55],[-228,865],[-382,100],[-260,-854],[-305,-454],[-280,-133],[-819,465],[139,621],[267,2095],[19,742],[-533,366],[-522,-399],[-438,-532],[-864,-11],[159,-732]],[[61180,69965],[261,421],[76,831],[-64,311],[-381,631],[-273,-88],[-146,-344],[-7,-543],[534,-1219]]],"bbox":[46.47911694940916,40.585167157772986,87.32467682280588,55.43456428516859],"transform":{"scale":[0.00040845968333080054,0.00014849545622851832],"translate":[46.47911694940916,40.585167157772986]}}