{"type":"Topology","objects":{"a1":{"type":"GeometryCollection","geometries":[{"type":"Polygon","arcs":[[0,1,2,3,4,5,6,7,8]],"id":"KEN-890","properties":{"adm1_code":"KEN-890","iso_3166_2":"KE-700","name":"Rift Valley","admin":"Kenya","adm0_a3":"KEN","type_en":"Province"}},{"type":"Polygon","arcs":[[9,10,11,-4,12,13,-1]],"id":"KEN-889","properties":{"adm1_code":"KEN-889","iso_3166_2":"KE-400","name":"Eastern","admin":"Kenya","adm0_a3":"KEN","type_en":"National Capital Area"}},{"type":"Polygon","arcs":[[14,15,-11]],"id":"KEN-893","properties":{"adm1_code":"KEN-893","iso_3166_2":"KE-500","name":"North-Eastern","admin":"Kenya","adm0_a3":"KEN","type_en":"Province"}},{"type":"MultiPolygon","arcs":[[[-5,-12,-16,16]],[[17]]],"id":"KEN-1193","properties":{"adm1_code":"KEN-1193","iso_3166_2":"KE-300","name":"Coast","admin":"Kenya","adm0_a3":"KEN","type_en":"Province"}},{"type":"Polygon","arcs":[[-7,18,19]],"id":"KEN-1197","properties":{"adm1_code":"KEN-1197","iso_3166_2":"KE-600","name":"Nyanza","admin":"Kenya","adm0_a3":"KEN","type_en":"Province"}},{"type":"Polygon","arcs":[[-8,-20,20]],"id":"KEN-891","properties":{"adm1_code":"KEN-891","iso_3166_2":"KE-800","name":"Western","admin":"Kenya","adm0_a3":"KEN","type_en":"Province"}},{"type":"Polygon","arcs":[[-3,21,-13]],"id":"KEN-1196","properties":{"adm1_code":"KEN-1196","iso_3166_2":"KE-110","name":"Nairobi","admin":"Kenya","adm0_a3":"KEN","type_en":"National Capital Area"}},{"type":"Polygon","arcs":[[-2,-14,-22]],"id":"KEN-1195","properties":{"adm1_code":"KEN-1195","iso_3166_2":"KE-200","name":"Central","admin":"Kenya","adm0_a3":"KEN","type_en":"Province"}}]}},"arcs":[[[26948,93947],[0,-12103],[1234,-492],[64,-1068],[-357,-1119],[1721,-678],[1526,-983],[714,-1272],[98,-949],[909,-813],[195,-1340],[1298,-135],[1364,1135],[1006,-2356],[845,-661],[909,-2119],[2175,-51],[1364,-966],[649,-1051],[909,-593],[130,-712],[1169,-1051],[1039,-1780],[3019,576],[617,254],[1006,-932],[130,-1390],[1169,-1407],[260,-3526],[-714,68],[-2143,-1085],[-1624,-238],[-1655,-983],[-1169,255],[-1137,-102],[-1103,1458],[-2371,610],[-1785,-373],[-1202,-1475],[163,-288],[5649,-593],[812,-1848],[-455,-1475],[-1850,-1424],[-1559,-491]],[[39967,48381],[-1039,-1221],[260,-1373],[-682,-627],[-1104,118],[-909,1611],[-1753,-254],[-1559,491],[715,1136],[-1461,1068],[-1851,-576],[-941,-577],[-585,-1458],[-97,-1424],[617,-1118],[1428,-119],[390,-1899],[1331,-322],[130,-1661],[844,-2272],[-97,-1169],[-487,-85],[-390,-1373],[2110,-475]],[[34837,34802],[780,-610],[1655,-576]],[[37272,33616],[1364,-475],[-195,-543],[422,-729],[2013,-2017],[260,-1322],[1493,-949],[942,-187],[2760,-1407],[1461,-322],[-1396,-1814],[3701,-3526],[292,-780]],[[50389,19545],[-844,-2373],[-227,-1475],[-1916,-406]],[[47402,15291],[-454,1508],[-2760,1272],[-8994,4153],[-8051,3695],[-10195,4679],[-6591,3034]],[[10357,33632],[-487,1848],[-617,695],[-714,1594],[876,491],[812,-84],[3344,779],[1202,1187],[-487,3441],[-423,882],[488,559],[129,983],[909,865],[1819,-1119],[746,475],[-1201,1034],[-195,525],[-1266,187],[-844,-407],[-682,339],[-2175,-102],[-747,305]],[[10844,48109],[1916,1916],[292,831],[-65,1152],[-487,1034],[-682,339],[130,678],[877,0],[649,594],[1493,51],[974,762],[-162,1035],[-1266,779],[-1104,-17],[-487,-373],[-1591,-203],[-2143,2000],[-747,848]],[[8441,59535],[195,508],[1266,594],[1429,237],[-195,1441],[715,661],[551,1187],[747,356],[455,915],[0,2017],[292,594],[-552,712],[130,1068],[-585,1119],[-681,1407],[0,661],[714,678],[-617,1186],[-714,68],[-520,899],[-584,1729],[-1104,68],[-844,881],[-357,1560],[-1396,881],[-130,1255],[-487,864],[-33,797],[650,627],[65,1458],[-1267,678],[-746,-254],[-1429,1814],[-974,101],[260,661],[-552,492],[97,831],[-519,1034],[-650,322],[5065,4119],[3572,1492],[7240,2237],[227,-339],[1851,848],[-195,-1068],[2175,-237],[-584,-1272],[1104,-1661],[1104,-305],[1006,305],[1753,0],[163,-1000],[1396,-814]],[[26948,93947],[2272,68],[617,-136],[4286,68],[390,-118],[2435,0],[2143,-628],[1201,-915],[10811,-5730],[747,-797],[812,-373],[941,85],[2663,-237],[1363,271],[2046,-305],[746,-356],[2176,-475],[2435,51],[1136,-424],[1461,153]],[[67629,84149],[390,-3017],[-65,-1611],[-714,-542],[-1916,-831],[-1786,-3458],[-1071,-560],[747,-3136],[0,-847],[1558,-2289],[649,-440],[1202,-1662],[1558,-746],[1364,-1085],[-1948,-661],[-195,-237],[2078,-4560],[-1721,-746],[-1234,-1254],[-617,-967],[-4188,-1288],[-519,-644],[-974,-187],[-163,-593],[682,-2390],[-130,-746],[98,-2153]],[[60714,47499],[-520,254],[-1948,170],[-1656,-576],[5715,-8087],[1558,-2881],[32,-5577],[-487,-797],[260,-2102],[-2305,-3764],[-1331,-796],[-747,0],[5162,-6256],[-3149,-254],[-1688,153],[-1461,661],[-1202,-220],[-1136,661],[-941,1339],[-1786,1051],[-2078,-933],[-617,0]],[[37272,33616],[1299,1271],[1201,-85],[780,627]],[[40552,35429],[1038,1662],[1851,390],[-1526,1746],[163,1068],[1168,-323],[1656,509],[-32,1610],[-520,543],[-97,1136],[-1396,2763],[-2890,1848]],[[67629,84149],[163,-271],[1558,-34],[1266,-593],[487,966],[2143,1661],[1266,2136],[4221,1695],[2273,644],[194,272],[3994,1271],[779,424],[1559,-1339],[1461,-712],[1363,-1272],[1266,-271],[2663,136],[3409,491],[1688,-491],[617,288],[-6786,-8001],[-4545,-3696],[-162,-288],[32,-3272],[0,-7713],[0,-5323],[0,-6272],[0,-6442],[130,-8933],[6786,-7239],[162,-1068]],[[95616,30903],[-6721,-356],[-9675,-3560],[-682,153],[-747,2305],[33,1984],[-974,1508],[-357,2289],[-1494,2492],[-649,1797],[-292,1559],[-747,1001],[-649,135],[-845,932],[-487,1475],[-584,628],[-1461,983],[-1526,576],[-2045,68],[-1104,915],[-1104,-186],[-422,-390],[-2370,288]],[[95616,30903],[0,-203],[-2890,-2679],[-1298,136],[-1137,-356],[-1006,-661],[-487,136],[-1072,-526],[260,-1407],[-1071,-288],[-650,-848],[520,-491],[-2662,-1831],[-1169,288],[-1656,-373],[-1818,-983],[-877,-1102],[162,-458],[-324,-1305],[779,-610],[-747,-763],[-552,-1187],[98,-712],[-2046,-1508],[-1428,-2340],[195,-712],[-1007,-2288],[-1461,-1763],[-1071,-1967],[-390,-1271],[-2370,-2390],[-1234,288],[-909,-729],[-9675,5747],[-8085,4780],[-616,1187],[-1526,271],[-130,1136],[1396,915],[-260,1255]],[[89609,27072],[1104,-102],[163,-542],[-1299,-187],[32,831]],[[10357,33632],[-8344,3832],[-649,389],[-1202,0],[-97,3493],[714,5238],[0,407]],[[779,46991],[812,1542],[714,865],[195,915],[1266,492],[455,491],[1591,34],[617,-932],[1363,-1204],[-97,-983],[1753,-220],[1396,118]],[[779,46991],[-779,2119],[877,1118],[1591,1729],[-163,577],[714,1509],[1494,881],[552,949],[1169,712],[941,1899],[552,1051],[650,-102],[64,102]],[[34837,34802],[1656,1322],[1136,-50],[488,356],[779,-729],[1169,84],[487,-356]]],"bbox":[33.89088759273545,-4.677269858159747,41.88506211202517,5.030875288078377],"transform":{"scale":[0.00007994254461834332,0.0000970824222866041],"translate":[33.89088759273545,-4.677269858159747]}}