{"type":"Topology","objects":{"a1":{"type":"GeometryCollection","geometries":[{"type":"Polygon","arcs":[[0,1,2]],"id":"KHM-1795","properties":{"adm1_code":"KHM-1795","iso_3166_2":"KH-16","name":"Rôtânôkiri","admin":"Cambodia","adm0_a3":"KHM","type_en":"Province"}},{"type":"Polygon","arcs":[[-1,3,4,5]],"id":"KHM-1794","properties":{"adm1_code":"KHM-1794","iso_3166_2":"KH-11","name":"Môndól Kiri","admin":"Cambodia","adm0_a3":"KHM","type_en":"Province"}},{"type":"Polygon","arcs":[[-5,6,7,8,9]],"id":"KHM-1793","properties":{"adm1_code":"KHM-1793","iso_3166_2":"KH-10","name":"Krâchéh","admin":"Cambodia","adm0_a3":"KHM","type_en":"Province"}},{"type":"Polygon","arcs":[[10,11,12,13,14,-8]],"id":"KHM-1784","properties":{"adm1_code":"KHM-1784","iso_3166_2":"KH-3","name":"Kâmpóng Cham","admin":"Cambodia","adm0_a3":"KHM","type_en":"Province"}},{"type":"Polygon","arcs":[[15,16]],"id":"KHM-1801","properties":{"adm1_code":"KHM-1801","iso_3166_2":"KH-20","name":"Svay Rieng","admin":"Cambodia","adm0_a3":"KHM","type_en":"Province"}},{"type":"Polygon","arcs":[[17,-17,18,19,-12]],"id":"KHM-1790","properties":{"adm1_code":"KHM-1790","iso_3166_2":"KH-14","name":"Prey Vêng","admin":"Cambodia","adm0_a3":"KHM","type_en":"Province"}},{"type":"Polygon","arcs":[[-13,-20,20,21,22,23],[24]],"id":"KHM-1786","properties":{"adm1_code":"KHM-1786","iso_3166_2":"KH-8","name":"Kândal","admin":"Cambodia","adm0_a3":"KHM","type_en":"Province"}},{"type":"Polygon","arcs":[[25,26,27,-22]],"id":"KHM-1802","properties":{"adm1_code":"KHM-1802","iso_3166_2":"KH-21","name":"Takêv","admin":"Cambodia","adm0_a3":"KHM","type_en":"Province"}},{"type":"Polygon","arcs":[[-27,28,29,30,31,32,33]],"id":"KHM-1797","properties":{"adm1_code":"KHM-1797","iso_3166_2":"KH-7","name":"Kâmpôt","admin":"Cambodia","adm0_a3":"KHM","type_en":"Province"}},{"type":"Polygon","arcs":[[34,35,36]],"id":"KHM-1782","properties":{"adm1_code":"KHM-1782","iso_3166_2":"KH-22","name":"Otdar Mean Chey","admin":"Cambodia","adm0_a3":"KHM","type_en":"Province"}},{"type":"Polygon","arcs":[[37,38,39,40]],"id":"KHM-1791","properties":{"adm1_code":"KHM-1791","iso_3166_2":"KH-13","name":"Preah Vihéar","admin":"Cambodia","adm0_a3":"KHM","type_en":"Province"}},{"type":"Polygon","arcs":[[-35,41,-40,42,43,44,45]],"id":"KHM-1781","properties":{"adm1_code":"KHM-1781","iso_3166_2":"KH-17","name":"Siemréab","admin":"Cambodia","adm0_a3":"KHM","type_en":"Province"}},{"type":"Polygon","arcs":[[-36,-46,46,47]],"id":"KHM-1777","properties":{"adm1_code":"KHM-1777","iso_3166_2":"KH-1","name":"Bântéay Méanchey","admin":"Cambodia","adm0_a3":"KHM","type_en":"Province"}},{"type":"Polygon","arcs":[[-33,48,49,50,51]],"id":"KHM-1779","properties":{"adm1_code":"KHM-1779","iso_3166_2":"KH-9","name":"Kaôh Kong","admin":"Cambodia","adm0_a3":"KHM","type_en":"Province"}},{"type":"Polygon","arcs":[[-44,52,53,54,-51,55,56]],"id":"KHM-1780","properties":{"adm1_code":"KHM-1780","iso_3166_2":"KH-15","name":"Pouthisat","admin":"Cambodia","adm0_a3":"KHM","type_en":"Province"}},{"type":"Polygon","arcs":[[-45,-57,57,58,59,-47]],"id":"KHM-1778","properties":{"adm1_code":"KHM-1778","iso_3166_2":"KH-2","name":"Batdâmbâng","admin":"Cambodia","adm0_a3":"KHM","type_en":"Province"}},{"type":"Polygon","arcs":[[60,-59]],"id":"KHM-1783","properties":{"adm1_code":"KHM-1783","iso_3166_2":"KH-24","name":"Krong Pailin","admin":"Cambodia","adm0_a3":"KHM","type_en":"Municipality"}},{"type":"Polygon","arcs":[[-2,-6,-10,61,-38,62]],"id":"KHM-1792","properties":{"adm1_code":"KHM-1792","iso_3166_2":"KH-19","name":"Stœng Trêng","admin":"Cambodia","adm0_a3":"KHM","type_en":"Province"}},{"type":"Polygon","arcs":[[-32,63,-49]],"id":"KHM-1800","properties":{"adm1_code":"KHM-1800","iso_3166_2":"KH-18","name":"Krong Preah Sihanouk","admin":"Cambodia","adm0_a3":"KHM","type_en":"Municipality"}},{"type":"Polygon","arcs":[[-30,64]],"id":"KHM-1798","properties":{"adm1_code":"KHM-1798","iso_3166_2":"KH-23","name":"Kep","admin":"Cambodia","adm0_a3":"KHM","type_en":"Province"}},{"type":"Polygon","arcs":[[-14,-24,65,-54,66]],"id":"KHM-1785","properties":{"adm1_code":"KHM-1785","iso_3166_2":"KH-4","name":"Kâmpóng Chhnang","admin":"Cambodia","adm0_a3":"KHM","type_en":"Province"}},{"type":"Polygon","arcs":[[-9,-15,-67,-53,-43,-39,-62]],"id":"KHM-1788","properties":{"adm1_code":"KHM-1788","iso_3166_2":"KH-6","name":"Kâmpóng Thum","admin":"Cambodia","adm0_a3":"KHM","type_en":"Province"}},{"type":"Polygon","arcs":[[-23,-28,-34,-52,-55,-66]],"id":"KHM-1787","properties":{"adm1_code":"KHM-1787","iso_3166_2":"KH-5","name":"Kâmpóng Spœ","admin":"Cambodia","adm0_a3":"KHM","type_en":"Province"}},{"type":"Polygon","arcs":[[-25]],"id":"KHM-1789","properties":{"adm1_code":"KHM-1789","iso_3166_2":"KH-12","name":"Phnom Penh","admin":"Cambodia","adm0_a3":"KHM","type_en":"Municipality"}}]}},"arcs":[[[99311,67088],[-1916,884],[-1966,-1114],[-2211,1997],[-934,-1267],[-2309,76],[49,-1766],[-737,-1651],[-3686,-116],[-2113,1306],[-2457,2611]],[[81031,68048],[-196,2957],[-836,2343],[148,1190],[1769,4033],[-492,5645],[-786,1958],[688,4340],[-393,2035],[344,1690]],[[81277,94239],[1621,-653],[1622,-2496],[2899,38],[1573,2611],[933,-844],[2507,2189],[1425,2457],[2407,-1305],[737,2073],[1278,1690],[-295,-3802],[-933,-2496],[-1278,-307],[-737,-2343],[196,-1920],[-737,-2765],[443,-2342],[1621,-807],[295,-1497],[-49,-3226],[1376,-2112],[1572,-3687],[246,-3110],[-688,-2497]],[[99311,67088],[-246,-729],[-1916,-5645],[639,-3802],[786,-1344],[98,-1959],[442,-2573],[-147,-3110],[-786,-2996],[-1867,-2112],[-1819,1767],[-1769,-461],[-1425,-768],[-3292,-4186],[-1179,-730],[-2359,39]],[[84471,38479],[-49,2918],[-983,1613],[-2654,1229],[-835,2266],[-3243,2381],[-197,1805],[492,2227],[1474,1767],[1769,806],[934,1190],[-99,1575],[-3489,2189],[-1474,2150],[541,2996],[-344,1382],[49,3111]],[[76363,70084],[1425,-39],[3243,-1997]],[[84471,38479],[-1671,-2266],[-1228,-230],[-4570,115]],[[77002,36098],[-3096,-538],[-1130,269],[-344,2151],[-1917,1113],[0,1152],[-1523,1383],[-4030,1459],[394,1805],[-541,3840]],[[64815,48732],[-1376,6337],[148,2188],[-541,961],[-393,3110],[-1130,5184]],[[61523,66512],[2604,-1305],[2899,-2266],[1229,307],[786,1844],[835,-77],[1524,3225],[2309,461],[2654,1383]],[[77002,36098],[786,-2381],[-737,-2727],[688,-1612],[-2801,-77],[-2506,1689],[-2654,538],[-1523,-2957],[-2162,-38]],[[66093,28533],[-2310,2419],[-4717,768],[-786,1459],[-1475,653],[-3292,-2842]],[[53513,30990],[-1572,384],[-1376,2919],[-1917,-1843],[-1032,422],[-491,1498]],[[47125,34370],[1425,2611],[-492,1690],[590,2304],[-196,1421]],[[48452,42396],[688,576],[3685,-1306],[1523,269],[-1179,3610],[2408,499],[1572,-960],[983,3111],[2064,-615],[983,691],[3636,461]],[[65601,27150],[1131,-845],[343,-3110],[-540,-2535],[1081,-1997],[1376,-652],[1720,-2266],[1818,-922],[197,-1958],[-836,-1421],[541,-2919],[-2605,845],[-1621,1767],[-1327,-1344],[-2064,4147],[-2555,-1075]],[[62260,12865],[-541,960],[688,2150],[-295,1959],[983,1574],[-196,3572],[1032,3571],[1670,499]],[[66093,28533],[-492,-1383]],[[62260,12865],[-1769,-461],[-2162,307],[-1573,-2688],[-2211,998]],[[54545,11021],[-197,3725],[1671,4877],[-491,2881],[639,998],[-2998,2765],[-491,1190],[835,3533]],[[54545,11021],[-3243,730]],[[51302,11751],[-541,1536],[197,4608],[-1622,1920],[0,1421],[-1327,576],[-2309,39]],[[45700,21851],[-1769,2112],[393,3879],[1720,4915]],[[46044,32757],[1081,1613]],[[49090,23963],[787,1152],[-885,4263],[-1081,0],[-1327,-1844],[344,-3840],[2162,269]],[[51302,11751],[-443,-1728],[934,-2381],[-442,-1306],[-1818,-1152],[-1720,-2573],[-2457,-230],[-442,77]],[[44914,2458],[147,2726],[-590,1652],[1131,1881],[-688,2266],[-2359,0],[-786,3187],[-1376,653],[-492,1575]],[[39901,16398],[2359,-807],[2113,307],[590,5108],[737,845]],[[44914,2458],[-2801,-154],[-1131,-2112],[-786,-192],[-540,730]],[[39656,730],[-688,2419],[-2261,-38]],[[36707,3111],[-3734,76],[-2900,1421]],[[30073,4608],[688,1460],[-245,7219]],[[30516,13287],[1228,1575],[836,-39],[982,2189],[787,307]],[[34349,17319],[2260,-998],[3292,77]],[[32481,91896],[541,-2611],[-4914,-2804],[-2408,-3033],[-2506,-1690],[-2310,-845]],[[20884,80913],[-442,1459],[-1278,1268],[-1474,-77],[-1376,2842],[-3292,2726]],[[13022,89131],[1278,1344],[2997,1076],[4030,729],[1769,1114],[2506,-883],[2702,-346],[885,-576],[1965,538],[1327,-231]],[[67518,81796],[-3440,-345],[-98,-1037],[-3489,-922],[1032,-4416],[-639,-3917]],[[60884,71159],[-2998,-1805],[-3734,-3187],[-1769,-2151],[-1868,-1113],[-1523,345],[-688,1459],[98,3418],[-2997,461],[-3096,-1728]],[[42309,66858],[246,3034],[1081,3379],[-4030,1037],[148,2343],[-491,2496],[-934,1229],[688,1152],[1130,5145],[885,1460],[-1032,1305],[294,2458]],[[40294,91896],[1622,77],[983,1152],[2506,0],[835,691],[2703,-1075],[1130,-307],[49,-1844],[1327,-2035],[1032,384],[1573,2688],[49,-1267],[1326,-2534],[1720,-1805],[1917,268],[1572,1114],[1622,-1421],[2408,-384],[786,-1805],[2064,-1997]],[[32481,91896],[3833,1037],[3980,-1037]],[[42309,66858],[-1474,-1344],[-344,-3456],[-1622,-3764],[-2063,-1536],[-1524,-2381]],[[35282,54377],[-688,1114],[-6584,8141]],[[28010,63632],[-2359,3994],[-1769,614],[-3489,1997]],[[20393,70237],[-49,5108],[540,5568]],[[20393,70237],[-2899,-153],[-1769,845],[-3735,-1191],[-2850,653],[-1818,-422],[-1425,1036],[-5897,538]],[[0,71543],[49,1843],[3440,77],[1130,2957],[2359,1575],[1425,4070],[1818,1959],[835,3379],[1966,1728]],[[30516,13287],[-1917,-1920],[-983,-307],[-933,-2650],[-934,-845]],[[25749,7565],[-196,1344],[835,2189],[-1229,3149],[-2358,3111],[-1130,-692],[-1376,-5798],[-2359,1113],[-1818,-1574],[-1622,1613],[344,5299],[-639,2612],[688,4301],[-1621,1997],[-1032,-308],[245,3341],[-1425,-614],[0,2765],[-1326,2342],[-1475,4186]],[[8255,37941],[4472,-384],[2752,-1152],[2801,1152],[2211,2535],[1524,115],[1621,-998],[1376,-1805],[4029,-2650]],[[29041,34754],[-1326,-231],[-295,-2380],[590,-3341],[2407,-2113],[2212,-576],[49,-1382],[1179,-2957],[-491,-1767],[983,-2688]],[[35282,54377],[885,-1344],[3145,-3264]],[[39312,49769],[-148,-2765],[-1032,-1997],[-2358,-1651],[-737,-2189],[343,-1766]],[[35380,39401],[-1621,-615],[-2211,-3149],[-983,845],[-1524,-1728]],[[8255,37941],[-1375,3111],[442,3840],[884,1920]],[[8206,46812],[787,-384],[2899,1613],[3685,960],[3538,1613],[3145,-691],[1818,883],[787,1882],[-295,4301],[786,576],[639,2419],[-442,691],[2457,2957]],[[8206,46812],[-3882,4800],[-1179,538]],[[3145,52150],[3145,960],[1474,1075],[344,1575],[-344,5453],[-786,1382],[-1671,-153],[-442,-1767],[-1818,-576]],[[3047,60099],[-2064,3303],[-983,3187],[0,4954]],[[3145,52150],[0,2151],[147,1267],[-737,2957],[492,1574]],[[61523,66512],[-541,1536],[-98,3111]],[[67518,81796],[2899,-192],[1818,3649],[-1277,2381],[-1229,1190],[-835,2496],[1818,960],[1720,-153],[933,768],[590,1958],[1966,-806],[1523,384],[295,1344],[1474,1574],[491,-1613],[1573,-1497]],[[30073,4608],[-3243,-2496],[-2309,-192],[-2212,3149],[1131,2112],[2309,384]],[[39656,730],[-2212,652],[-737,1729]],[[46044,32757],[-1622,-307],[-2997,-1728],[-2506,1190],[-1131,1267],[-1326,3649],[-836,806],[-246,1767]],[[39312,49769],[1867,-768],[1867,1805],[1229,-115],[3096,-1383],[638,-2803],[934,-845],[-1179,-1766],[688,-1498]]],"bbox":[102.32932711371944,10.418986359240208,107.61119242110726,14.7044601617159],"transform":{"scale":[0.000052819181265690836,0.000042855166576422695],"translate":[102.32932711371944,10.418986359240208]}}