{"type":"Topology","objects":{"a1":{"type":"GeometryCollection","geometries":[{"type":"Polygon","arcs":[[0]],"id":"KIR+00?","properties":{"adm1_code":"KIR+00?","iso_3166_2":"KI-X01~","name":"Kiribati","admin":"Kiribati","adm0_a3":"KIR","type_en":null}},{"type":"Polygon","arcs":[[1]],"id":"KIR+99?","properties":{"adm1_code":"KIR+99?","iso_3166_2":"KI-X02~","name":null,"admin":"Kiribati","adm0_a3":"KIR","type_en":null}}]}},"arcs":[[[18530,98165],[-3354,-677],[-2556,502],[-10064,655],[-2556,655],[6709,699],[3515,-873],[8306,-961]],[[98082,240],[1118,109],[799,-283],[-2396,-66],[479,240]]],"bbox":[-157.4917268080259,-5.63508312737666,-155.86693679209233,1.9023477540897886],"transform":{"scale":[0.0000162480626399621,0.00007537506256529014],"translate":[-157.4917268080259,-5.63508312737666]}}