{"type":"Topology","objects":{"a1":{"type":"GeometryCollection","geometries":[{"type":"Polygon","arcs":[[0,1,2]],"id":"LAO-3291","properties":{"adm1_code":"LAO-3291","iso_3166_2":"LA-PH","name":"Phôngsali","admin":"Laos","adm0_a3":"LAO","type_en":"Province"}},{"type":"Polygon","arcs":[[-2,3,4,5,6,7]],"id":"LAO-3290","properties":{"adm1_code":"LAO-3290","iso_3166_2":"LA-OU","name":"Oudômxai","admin":"Laos","adm0_a3":"LAO","type_en":"Province"}},{"type":"Polygon","arcs":[[-7,8,9]],"id":"LAO-3272","properties":{"adm1_code":"LAO-3272","iso_3166_2":"LA-LM","name":"Louang Namtha","admin":"Laos","adm0_a3":"LAO","type_en":"Province"}},{"type":"Polygon","arcs":[[-6,10,11,-9]],"id":"LAO-3271","properties":{"adm1_code":"LAO-3271","iso_3166_2":"LA-BK","name":"Bokeo","admin":"Laos","adm0_a3":"LAO","type_en":"Province"}},{"type":"Polygon","arcs":[[-5,12,13,14,-11]],"id":"LAO-3278","properties":{"adm1_code":"LAO-3278","iso_3166_2":"LA-XA","name":"Xaignabouri","admin":"Laos","adm0_a3":"LAO","type_en":"Province"}},{"type":"Polygon","arcs":[[15,16,17,18,19,20]],"id":"LAO-3292","properties":{"adm1_code":"LAO-3292","iso_3166_2":"LA-BL","name":"Bolikhamxai","admin":"Laos","adm0_a3":"LAO","type_en":"Province"}},{"type":"Polygon","arcs":[[-20,21,22,23]],"id":"LAO-3293","properties":{"adm1_code":"LAO-3293","iso_3166_2":"LA-KH","name":"Khammouan","admin":"Laos","adm0_a3":"LAO","type_en":"Province"}},{"type":"Polygon","arcs":[[24,-23,25,26]],"id":"LAO-3282","properties":{"adm1_code":"LAO-3282","iso_3166_2":"LA-SV","name":"Savannakhét","admin":"Laos","adm0_a3":"LAO","type_en":"Province"}},{"type":"Polygon","arcs":[[27,-27,28,29,30]],"id":"LAO-3281","properties":{"adm1_code":"LAO-3281","iso_3166_2":"LA-SL","name":"Saravan","admin":"Laos","adm0_a3":"LAO","type_en":"Province"}},{"type":"Polygon","arcs":[[31,-16,32]],"id":"LAO-3283","properties":{"adm1_code":"LAO-3283","iso_3166_2":"LA-VI","name":"Vientiane [prefecture]","admin":"Laos","adm0_a3":"LAO","type_en":"Municipality|Prefecture"}},{"type":"Polygon","arcs":[[-14,33,34,-17,-32,35]],"id":"LAO-3284","properties":{"adm1_code":"LAO-3284","iso_3166_2":"LA-VI","name":"Vientiane","admin":"Laos","adm0_a3":"LAO","type_en":"Province"}},{"type":"Polygon","arcs":[[-31,36,37,38]],"id":"LAO-3280","properties":{"adm1_code":"LAO-3280","iso_3166_2":"LA-CH","name":"Champasak","admin":"Laos","adm0_a3":"LAO","type_en":"Province"}},{"type":"Polygon","arcs":[[-1,39,40,41,-34,-13,-4]],"id":"LAO-3289","properties":{"adm1_code":"LAO-3289","iso_3166_2":"LA-LP","name":"Louangphrabang","admin":"Laos","adm0_a3":"LAO","type_en":"Province"}},{"type":"Polygon","arcs":[[-41,42,43]],"id":"LAO-3288","properties":{"adm1_code":"LAO-3288","iso_3166_2":"LA-HO","name":"Houaphan","admin":"Laos","adm0_a3":"LAO","type_en":"Province"}},{"type":"Polygon","arcs":[[-18,-35,-42,-44,44]],"id":"LAO-3286","properties":{"adm1_code":"LAO-3286","iso_3166_2":"LA-XI","name":"Xiangkhoang","admin":"Laos","adm0_a3":"LAO","type_en":"Province"}},{"type":"Polygon","arcs":[[45,-37,-30,46]],"id":"LAO-3295","properties":{"adm1_code":"LAO-3295","iso_3166_2":"LA-XE","name":"Xékong","admin":"Laos","adm0_a3":"LAO","type_en":"Province"}},{"type":"Polygon","arcs":[[47,-38,-46]],"id":"LAO-3294","properties":{"adm1_code":"LAO-3294","iso_3166_2":"LA-AT","name":"Attapu","admin":"Laos","adm0_a3":"LAO","type_en":"Province"}}]}},"arcs":[[[37397,84244],[-1614,-230],[-241,-1037],[-2919,-1151],[-755,-748],[-927,595],[-1717,499]],[[29224,82172],[-1237,671],[-892,-57],[-1443,1189],[-1442,423],[-1442,786]],[[22768,85184],[-1305,960],[171,2917],[790,403],[-858,1497],[274,1036],[-1030,1458],[-858,422],[-687,1440],[69,998],[-584,614],[1167,652],[653,1881],[790,537],[927,-230],[446,-768],[2610,461],[1374,-557],[481,-1094],[927,-882],[2163,-1305],[1236,-1113],[-68,-749],[1511,-652],[583,-1324],[207,-1516],[927,38],[858,921],[1030,-403],[1099,365],[344,-1881],[-1030,-940],[-104,-3128],[516,-998]],[[29224,82172],[583,-1344],[-171,-2015],[-1408,-806],[-1202,-2283],[378,-730],[-172,-1151],[584,-806],[-653,-1036],[-2129,-365],[-1236,-940],[-2541,-557]],[[21257,70139],[-1958,-1266],[-3983,-19],[-1683,786],[-927,-498],[-3365,537],[-550,-250]],[[8791,69429],[-309,1017],[2885,595],[686,979],[962,307],[755,-480],[1374,672],[-206,2015]],[[14938,74534],[1957,153],[1031,403],[1133,1401],[378,921],[-103,922],[-1546,1343],[1065,1228],[1305,192],[-35,787],[1443,710],[515,767],[0,1113]],[[22081,84474],[687,710]],[[14938,74534],[-1339,-96],[-1580,595],[-69,671],[-858,1018],[-1408,38],[-103,1113],[-1408,1938],[-1442,921]],[[6731,80732],[-1237,538],[378,1650],[1236,499],[687,1036],[481,1785],[893,-173],[2781,1267],[1855,1247],[206,461],[378,-192],[-206,-1536],[824,-479],[-344,-1363],[893,-844],[1408,576],[1511,230],[1168,-211],[1751,-1056],[687,307]],[[8791,69429],[-1133,-595],[-2576,-479],[-996,192]],[[4086,68547],[859,825],[927,2341],[-206,979],[-893,479],[-1270,2073],[-756,365],[-1133,-595],[-1408,-1190],[-206,825],[652,2687],[825,1746],[1030,902],[1236,652],[1717,-288],[1271,384]],[[21257,70139],[858,-902],[-343,-1304],[171,-1018],[756,20],[0,-2034],[1202,-922],[-1099,-1439],[-172,-2686]],[[22630,59854],[-103,-1900],[790,-1075],[-687,-2015],[-893,-1382],[-1098,-364],[-1717,-1862],[-1443,-1132],[-275,-863],[344,-672],[-34,-1804],[446,-595],[1339,-153],[-171,-595]],[[19128,45442],[-3950,-2572],[-1511,-1535],[-2575,1094],[-687,480],[927,1305],[103,1055],[584,1132],[756,442],[1305,1401],[-310,825],[241,921],[-412,499],[240,1055],[-961,403],[-550,653],[618,978],[1031,538],[1098,1362],[-377,442],[309,2111],[1099,1842],[-1168,1074],[0,960],[-481,2648],[618,230],[103,1152],[-1614,-77],[-1991,576],[-1305,0],[-1717,-1497],[-1477,672],[-790,-403],[-1476,326],[-962,2187],[240,826]],[[39526,49241],[-687,-153],[-515,1458],[-1236,499]],[[37088,51045],[0,1152],[-1065,1381],[858,154],[2610,-134],[3743,460],[1580,940],[172,922],[-206,2552],[1133,230],[549,-460],[2164,-979],[1477,576]],[[50103,57839],[1991,-749],[1133,154],[1718,1861],[103,1382]],[[55048,60487],[1270,-653],[584,-652],[1064,-154],[825,-844],[2369,-1324],[1992,-173],[858,-537],[2301,-384],[756,-940],[-893,-787],[-275,-1113],[1099,-1036],[-103,-538],[1339,-844]],[[68234,50508],[-206,-844],[-1442,-2150],[-1236,-575],[-1477,172],[-1271,557],[-515,844],[-3228,1785],[-1545,-518],[-1992,-3781]],[[55322,45998],[-1030,1843],[-1236,1113],[-1443,2379],[-652,173],[-1236,-537],[-344,383],[-1614,346],[-1373,595],[-2782,479],[-1785,-479],[-275,-749],[755,-479],[-1476,-442],[-618,-1055],[-687,-327]],[[68234,50508],[1477,-1132],[1099,499],[309,-768],[1682,-1842],[-103,-960],[1855,-2609],[1476,-768],[2301,-2360],[2198,-1612],[962,383],[618,-1324],[1030,-1055],[275,-825]],[[83413,36135],[-825,-58],[-1511,384],[-1339,748],[-446,-556],[-2713,-96],[-2095,672],[-996,19],[-274,-787],[-1958,672],[-1511,-39],[-858,-518],[-1031,38],[-858,653],[-1030,-441],[-721,287],[-2233,-153],[-412,-1113],[0,-979],[-1133,442]],[[61469,35310],[0,940],[859,1708],[68,2341],[-1339,1669],[-3091,1459],[-789,691],[-893,1401],[-962,479]],[[70432,24352],[-4190,1056],[-858,537],[-172,1113],[-549,672],[-1030,690],[-550,998],[-1511,1056],[344,2168],[-275,1209],[-172,1459]],[[83413,36135],[1717,-749],[0,-3108],[206,-538],[1202,-595],[206,-1362],[1270,-499]],[[88014,29284],[344,-979],[-1271,-115],[-515,-1362],[-3400,-941],[-2541,499],[-961,-422],[240,-1765],[-927,-461],[-1134,77],[-1201,-921],[-1374,76],[-3812,1305],[-1030,77]],[[72664,17616],[790,2418],[-515,1017],[-1168,480],[-996,19],[-995,1382],[-138,844],[790,576]],[[88014,29284],[927,1209],[550,-326],[-34,-1075],[1407,-1305],[1340,-96],[893,-1247]],[[93097,26444],[-893,-1248],[-1786,-556],[-1545,230],[-172,-1017],[-927,-748],[-1030,-1689],[549,-1497],[-240,-921],[-2885,-173],[-412,-460],[-1030,249],[-687,-518],[962,-787]],[[83001,17309],[-1580,-460],[-1236,-845],[-1134,864],[-34,1132],[-2335,-211],[-3468,134],[-550,-307]],[[25893,49856],[-241,882],[275,921],[1133,960],[824,58],[618,-883],[1546,-576],[1579,-134],[619,-653],[1098,-192],[584,461],[2473,518],[687,-173]],[[39526,49241],[-172,-1208],[-481,-519],[-1305,211],[-1133,-441],[-1751,-1036],[-790,-806],[-859,422],[206,768],[-583,652],[-2061,269],[-1408,671],[-2644,1881],[-652,-249]],[[22630,59854],[1923,1209],[550,1189],[1133,787],[172,729],[1236,288],[1580,-556],[824,326],[1545,-806],[1168,-1132],[1682,575],[550,480]],[[34993,62943],[2129,-1305],[2060,-307],[412,-326],[2267,-307],[1133,249],[1168,-249],[927,326],[961,-748],[1855,-173],[2198,-710],[0,-1554]],[[25893,49856],[-2026,-1804],[-1511,422],[-790,-1881],[-1237,-192],[-1201,-959]],[[83001,17309],[1304,-882],[1202,-269],[1374,-921],[240,-979]],[[87121,14258],[1031,-173],[652,-671],[137,-1190],[-343,-787],[-1168,-691],[-206,-594],[-1064,-212],[-1683,672],[241,1593],[-928,-115],[-1202,614],[-1682,-1363],[-550,-729],[35,-844],[1167,-998],[275,-921],[755,-710],[-34,-921]],[[82554,6218],[-1373,403],[-413,-979],[-652,-384],[-1202,77],[-1271,-480],[584,-1247],[859,-595],[893,-1190],[-1271,-1823],[-2026,96],[-1442,998],[-550,902],[-1682,192],[-1134,710],[-1099,-557],[-1339,-134],[-1202,902],[-927,1266],[-34,634],[1991,460],[1065,499],[1065,1267],[206,671],[-310,2246],[619,1707],[652,519],[-1854,1823],[137,479],[1442,1133],[-68,614],[-962,575],[1408,614]],[[37397,84244],[343,-844],[824,-327],[721,-1266],[1031,-998],[1030,-230],[2163,-384]],[[43509,80195],[-2129,-1017],[-172,-1727],[-480,-979],[721,-1017],[34,-864],[-1614,-1592],[721,-902],[-377,-384],[0,-1766]],[[40213,69947],[-2473,-1113],[-103,-1113],[-962,-326],[-2644,-1976],[35,-1209],[927,-1267]],[[43509,80195],[515,307],[927,-844],[1065,-173],[1168,-864],[1236,1056],[206,998],[2335,767],[1408,672],[1786,-326],[1339,-595],[1271,-1267],[824,-76],[515,-730],[1614,-691],[-927,-1247],[-1305,0],[-1134,-1113],[962,-326],[1889,19],[1408,-844],[-309,-1497],[2129,96],[1202,-537],[618,-960],[-138,-1171],[-961,-115],[-1236,-863],[343,-1363],[-1992,-1094],[-412,-921],[-1545,-192],[-1683,979],[-1133,-365],[-1236,519]],[[54258,67434],[-653,1650],[-893,269],[-618,-691],[-1133,-250],[-1030,730],[172,1208],[-1202,922],[-1340,-423],[-103,-729],[-2850,-710],[-2575,307],[-653,422],[-1167,-192]],[[54258,67434],[-2438,-1152],[721,-480],[240,-882],[-652,-825],[-1305,-365],[-1134,-748],[1546,-1075],[858,57],[1477,-556],[1477,-921]],[[97939,13145],[240,480],[-790,1132],[-1099,-269],[-1133,384],[-721,729],[-1855,192],[-2026,-479],[-2026,287],[-1408,-1343]],[[93097,26444],[1373,-633],[790,-768],[1751,-96],[172,-537],[-721,-864],[-2060,-940],[-790,-77],[-206,-1036],[721,-365],[446,-1132],[893,-499],[721,-1075],[1030,135],[619,-1017],[1098,-211],[275,-845],[790,-556],[0,-883],[-962,-1190],[-103,-671],[-995,-39]],[[97939,13145],[-756,-211],[206,-806],[1236,-940],[-824,-825],[378,-1171],[-893,-844],[-515,-1037],[-1683,653],[-996,-1228],[-1751,-1094],[-652,422],[-1099,-1305],[-2026,-19],[-1134,1247],[-1133,327],[-1099,748],[-343,806],[-1030,-787],[-206,-672],[-1065,-191]]],"bbox":[100.09978298642403,13.916156800968636,107.65791162284341,22.49204158772011],"transform":{"scale":[0.00007558204218461567,0.00008575970546456937],"translate":[100.09978298642403,13.916156800968636]}}