{"type":"Topology","objects":{"a1":{"type":"GeometryCollection","geometries":[{"type":"Polygon","arcs":[[0,1,2]],"id":"LBR-786","properties":{"adm1_code":"LBR-786","iso_3166_2":"LR-CM","name":"Grand Cape Mount","admin":"Liberia","adm0_a3":"LBR","type_en":"County"}},{"type":"Polygon","arcs":[[3,4,5,6,-1]],"id":"LBR-1459","properties":{"adm1_code":"LBR-1459","iso_3166_2":"LR-X1~","name":"Gbapolu","admin":"Liberia","adm0_a3":"LBR","type_en":"County"}},{"type":"Polygon","arcs":[[7,-5,8]],"id":"LBR-787","properties":{"adm1_code":"LBR-787","iso_3166_2":"LR-LO","name":"Lofa","admin":"Liberia","adm0_a3":"LBR","type_en":"County"}},{"type":"Polygon","arcs":[[9,10,11,12,13,14]],"id":"LBR-791","properties":{"adm1_code":"LBR-791","iso_3166_2":"LR-NI","name":"Nimba","admin":"Liberia","adm0_a3":"LBR","type_en":"County"}},{"type":"Polygon","arcs":[[-10,15,16,17]],"id":"LBR-793","properties":{"adm1_code":"LBR-793","iso_3166_2":"LR-GG","name":"Grand Gedeh","admin":"Liberia","adm0_a3":"LBR","type_en":"County"}},{"type":"Polygon","arcs":[[-17,18,19,20,21]],"id":"LBR-1458","properties":{"adm1_code":"LBR-1458","iso_3166_2":"LR-X2~","name":"River Gee","admin":"Liberia","adm0_a3":"LBR","type_en":"County"}},{"type":"Polygon","arcs":[[22,23,-20]],"id":"LBR-781","properties":{"adm1_code":"LBR-781","iso_3166_2":"LR-MY","name":"Maryland","admin":"Liberia","adm0_a3":"LBR","type_en":"County"}},{"type":"Polygon","arcs":[[-6,-8,24,-14,25,26,27,28]],"id":"LBR-784","properties":{"adm1_code":"LBR-784","iso_3166_2":"LR-BG","name":"Bong","admin":"Liberia","adm0_a3":"LBR","type_en":"County"}},{"type":"Polygon","arcs":[[-2,-7,-29,29,30]],"id":"LBR-783","properties":{"adm1_code":"LBR-783","iso_3166_2":"LR-BM","name":"Bomi","admin":"Liberia","adm0_a3":"LBR","type_en":"County"}},{"type":"Polygon","arcs":[[-28,31,32,-30]],"id":"LBR-788","properties":{"adm1_code":"LBR-788","iso_3166_2":"LR-MO","name":"Montserrado","admin":"Liberia","adm0_a3":"LBR","type_en":"County"}},{"type":"Polygon","arcs":[[-27,33,34,-32]],"id":"LBR-789","properties":{"adm1_code":"LBR-789","iso_3166_2":"LR-MG","name":"Margibi","admin":"Liberia","adm0_a3":"LBR","type_en":"County"}},{"type":"Polygon","arcs":[[-13,35,36,-34,-26]],"id":"LBR-785","properties":{"adm1_code":"LBR-785","iso_3166_2":"LR-GB","name":"Grand Bassa","admin":"Liberia","adm0_a3":"LBR","type_en":"County"}},{"type":"Polygon","arcs":[[-12,37,38,-36]],"id":"LBR-792","properties":{"adm1_code":"LBR-792","iso_3166_2":"LR-RI","name":"River Cess","admin":"Liberia","adm0_a3":"LBR","type_en":"County"}},{"type":"Polygon","arcs":[[-11,-18,-22,39,40,-38]],"id":"LBR-782","properties":{"adm1_code":"LBR-782","iso_3166_2":"LR-SI","name":"Sinoe","admin":"Liberia","adm0_a3":"LBR","type_en":"County"}},{"type":"Polygon","arcs":[[-21,-24,41,-40]],"id":"LBR-780","properties":{"adm1_code":"LBR-780","iso_3166_2":"LR-GK","name":"Grand Kru","admin":"Liberia","adm0_a3":"LBR","type_en":"County"}}]}},"arcs":[[[15013,76579],[6806,-1619],[1400,-1935],[318,-2054],[-764,-869],[-3816,-1935],[-1336,-1422],[-3117,-1856],[-1336,-1541]],[[13168,63348],[-954,-4067],[63,-2449],[-2481,-2093],[0,-988]],[[9796,53751],[-6806,2607],[-318,2646],[-2672,2607],[1654,1816],[891,3436],[1335,1778],[2418,987],[1844,2172],[4072,3357],[2799,1422]],[[15013,76579],[3244,3870],[2862,1541],[-63,6082]],[[21056,88072],[1272,-1067],[2481,632],[1336,-1263],[4453,-1343],[636,908],[2290,-3120],[3944,869],[6170,-2488],[255,-1580],[-3626,-8215],[509,-2804]],[[40776,68601],[-2672,-2093],[-1272,-39],[-2990,-1936],[-382,1936],[-1845,355],[-3880,-3712],[-2735,-830],[-318,-1698]],[[24682,60584],[-3435,-158],[-2927,-1303],[-763,908],[0,2172],[-1209,909],[-3180,236]],[[48727,72472],[-1463,-1462],[-2035,-671],[-955,-1698],[-1590,-553],[-1908,513]],[[21056,88072],[2163,2448],[4007,553],[1082,830],[-318,1619],[1272,5648],[2481,829],[2226,-237],[1209,-2014],[1972,1303],[2163,474],[1590,158],[1463,-908],[1590,434],[2545,-2409],[1654,-3002],[-446,-1816],[1145,-514],[1464,-3554],[-382,-3594],[1717,-2607],[382,-3238],[-3308,-6003]],[[70037,51342],[-1017,-2764],[-2418,-4108],[-2353,-2014],[0,-2093],[-1781,-474],[-255,-1738],[827,-1619]],[[63040,36532],[-954,-948],[-3499,-79]],[[58587,35505],[-381,3199],[763,830],[-445,2764],[636,2370],[-191,1659],[-1845,1737]],[[57124,48064],[255,4503],[1081,1461],[-2290,513]],[[56170,54541],[1781,4384],[64,1856],[-1463,2765],[1526,4858]],[[58078,68404],[1781,908],[4326,750],[-191,1778],[3308,3910],[64,2685],[1018,1738],[2926,-119],[445,-2093],[1527,-1027],[1018,-513],[954,-2528],[445,-2804],[2099,-4265],[445,-2883],[-890,-1382],[64,-2962],[-827,-1936],[-2227,-2409],[-4326,-3910]],[[70037,51342],[2545,-1303],[1018,987],[1654,-1026],[381,-1936],[5407,-1974],[2672,671],[3054,-711],[2226,-2093],[-509,-1975],[1463,-948],[127,-2132],[2036,-1738],[891,948],[2353,-1383],[636,-1026],[2736,118],[-64,-2725],[827,-2488],[191,-2765]],[[99681,27843],[-16667,-671],[-4834,-632],[-3562,276]],[[74618,26816],[-1273,1462],[1209,1935],[1718,197],[63,1541],[-2226,2330],[-1654,39],[-1591,-1856],[-7824,4068]],[[99681,27843],[-1018,-2172],[1336,-1343],[-445,-2409],[-1336,158],[-509,-3159],[-2163,-2094],[573,-2527],[-1273,-1224],[0,-1936]],[[94846,11137],[-2735,1501],[-1654,-474],[-1399,751],[0,4186],[-4453,1145]],[[84605,18246],[-4708,553],[-2290,830]],[[77607,19629],[-890,2804],[-1781,1737],[-318,2646]],[[94846,11137],[700,-987],[64,-9597],[827,-553],[-4199,197],[-3244,2252]],[[88994,2449],[636,1303],[64,2567],[-1972,3239],[-1082,868],[-3371,1264],[-509,1106],[2036,4028],[-191,1422]],[[48727,72472],[1209,1184],[2544,-39],[2481,-948],[636,-1975],[2481,-2290]],[[56170,54541],[-3562,-237],[-2863,-2567],[-1717,-829],[-2990,237],[1336,2014],[-2036,1896],[-1908,118]],[[42430,55173],[445,2251],[-2417,593],[-827,-3002],[-3563,1106],[-1908,-513],[-2990,987],[-2035,1303],[-1718,-79]],[[27417,57819],[-2226,395],[-1400,1383]],[[23791,59597],[891,987]],[[23791,59597],[-1336,-356],[-1208,-6911],[-2227,1026],[-2608,-1579],[0,-2607]],[[16412,49170],[-2163,2330],[-4453,2251]],[[27417,57819],[-1336,-3515],[764,-1895],[-64,-2015],[-2099,-1777],[-3626,-2132],[-509,-1620]],[[20547,44865],[-3690,1699],[-445,2606]],[[42430,55173],[-2354,-2646],[-1400,316],[-1526,-1185],[-2163,237],[-1527,-671],[-1654,1540],[-3244,-5174],[-1399,-4423]],[[27163,43167],[-6616,1698]],[[57124,48064],[-5153,-39],[-2162,-711],[-255,-3713],[-1845,-2132],[-1844,237],[-1145,-1422],[-955,-4779],[255,-4463],[-1272,-1579]],[[42748,29463],[-7570,6556],[-127,1026],[-7888,6122]],[[58587,35505],[-1654,-2883],[-2735,-1224],[-2290,-1896],[1081,-3475],[-2544,-3989]],[[50445,22038],[-1972,2843],[-2163,988],[-254,1382],[-3308,2212]],[[77607,19629],[-1844,-1817],[-1782,-198],[-2353,-1619],[-1145,-2054],[-1336,-513],[-1209,-2172]],[[67938,11256],[-3562,2211],[-4071,1541],[-6425,4028],[-3435,3002]],[[88994,2449],[-2354,1184],[-3880,1185],[-3880,632],[-1018,1146],[-3435,1145],[-4135,2685],[-2354,830]]],"bbox":[-11.476052804233547,4.352835654199737,-7.395909185946749,8.519817093473335],"transform":{"scale":[0.000040801844201309984,0.00004167023109504694],"translate":[-11.476052804233547,4.352835654199737]}}