{"type":"Topology","objects":{"a1":{"type":"GeometryCollection","geometries":[{"type":"Polygon","arcs":[[0,1,2,3]],"id":"LBY-2882","properties":{"adm1_code":"LBY-2882","iso_3166_2":"LY-GD","name":"Ghadamis","admin":"Libya","adm0_a3":"LBY","type_en":"Municipality|Governarate"}},{"type":"Polygon","arcs":[[-1,4,5]],"id":"LBY-2974","properties":{"adm1_code":"LBY-2974","iso_3166_2":"LY-NQ","name":"An Nuqat al Khams","admin":"Libya","adm0_a3":"LBY","type_en":"Municipality|Governarate"}},{"type":"Polygon","arcs":[[6,7,8,9]],"id":"LBY-2965","properties":{"adm1_code":"LBY-2965","iso_3166_2":"LY-KF","name":"Al Kufrah","admin":"Libya","adm0_a3":"LBY","type_en":"Municipality|Governarate"}},{"type":"Polygon","arcs":[[-7,10,11,12,13,14]],"id":"LBY-2969","properties":{"adm1_code":"LBY-2969","iso_3166_2":"LY-MQ","name":"Murzuq","admin":"Libya","adm0_a3":"LBY","type_en":"Municipality|Governarate"}},{"type":"Polygon","arcs":[[15,16,17]],"id":"LBY-2987","properties":{"adm1_code":"LBY-2987","iso_3166_2":"LY-BU","name":"Al Butnan","admin":"Libya","adm0_a3":"LBY","type_en":"Municipality|Governarate"}},{"type":"Polygon","arcs":[[-9,18,19,20,21,22,23,24,-16,25]],"id":"LBY-2983","properties":{"adm1_code":"LBY-2983","iso_3166_2":"LY-AJ","name":"Ajdabiya","admin":"Libya","adm0_a3":"LBY","type_en":"Municipality|Governarate"}},{"type":"Polygon","arcs":[[-3,26,27,28,29,30,31]],"id":"LBY-2967","properties":{"adm1_code":"LBY-2967","iso_3166_2":"LY-WS","name":"Ash Shati'","admin":"Libya","adm0_a3":"LBY","type_en":"Municipality|Governarate"}},{"type":"Polygon","arcs":[[-12,32,-31,33]],"id":"LBY-2968","properties":{"adm1_code":"LBY-2968","iso_3166_2":"LY-GT","name":"Ghat","admin":"Libya","adm0_a3":"LBY","type_en":"Municipality|Governarate"}},{"type":"Polygon","arcs":[[-20,34,35,36]],"id":"LBY-2985","properties":{"adm1_code":"LBY-2985","iso_3166_2":"LY-SR","name":"Surt","admin":"Libya","adm0_a3":"LBY","type_en":"Municipality|Governarate"}},{"type":"Polygon","arcs":[[-36,37,38,39,40]],"id":"LBY-2970","properties":{"adm1_code":"LBY-2970","iso_3166_2":"LY-MI","name":"Misratah","admin":"Libya","adm0_a3":"LBY","type_en":"Municipality|Governarate"}},{"type":"Polygon","arcs":[[-40,41,42,43,44]],"id":"LBY-2966","properties":{"adm1_code":"LBY-2966","iso_3166_2":"LY-MB","name":"Al Marqab","admin":"Libya","adm0_a3":"LBY","type_en":"Municipality|Governarate"}},{"type":"Polygon","arcs":[[-44,45,46,47]],"id":"LBY-2978","properties":{"adm1_code":"LBY-2978","iso_3166_2":"LY-TN","name":"Tajura' wa an Nawahi al Arba","admin":"Libya","adm0_a3":"LBY","type_en":"Municipality|Governarate"}},{"type":"Polygon","arcs":[[-6,48,-47,49,50]],"id":"LBY-2975","properties":{"adm1_code":"LBY-2975","iso_3166_2":"LY-ZA","name":"Az Zawiyah","admin":"Libya","adm0_a3":"LBY","type_en":"Municipality|Governarate"}},{"type":"Polygon","arcs":[[-17,-25,51,52]],"id":"LBY-2986","properties":{"adm1_code":"LBY-2986","iso_3166_2":"LY-QB","name":"Al Qubbah","admin":"Libya","adm0_a3":"LBY","type_en":"Municipality|Governarate"}},{"type":"Polygon","arcs":[[-24,53,54,-52]],"id":"LBY-2982","properties":{"adm1_code":"LBY-2982","iso_3166_2":"LY-JA","name":"Al Jabal al Akhdar","admin":"Libya","adm0_a3":"LBY","type_en":"Municipality|Governarate"}},{"type":"Polygon","arcs":[[-23,55,56,-54]],"id":"LBY-2981","properties":{"adm1_code":"LBY-2981","iso_3166_2":"LY-MJ","name":"Al Marj","admin":"Libya","adm0_a3":"LBY","type_en":"Municipality|Governarate"}},{"type":"Polygon","arcs":[[-22,57,-56]],"id":"LBY-2984","properties":{"adm1_code":"LBY-2984","iso_3166_2":"LY-BA","name":"Benghazi","admin":"Libya","adm0_a3":"LBY","type_en":"Municipality|Governarate"}},{"type":"Polygon","arcs":[[-43,58,-50,-46]],"id":"LBY-2973","properties":{"adm1_code":"LBY-2973","iso_3166_2":"LY-JI","name":"Al Jifarah","admin":"Libya","adm0_a3":"LBY","type_en":"Municipality|Governarate"}},{"type":"Polygon","arcs":[[-2,-51,-59,-42,-39,59,-27]],"id":"LBY-2976","properties":{"adm1_code":"LBY-2976","iso_3166_2":"LY-MZ","name":"Mizdah","admin":"Libya","adm0_a3":"LBY","type_en":"Municipality|Governarate"}},{"type":"Polygon","arcs":[[-8,-15,60,-28,-60,-38,-35,-19]],"id":"LBY-2964","properties":{"adm1_code":"LBY-2964","iso_3166_2":"LY-JU","name":"Al Jufrah","admin":"Libya","adm0_a3":"LBY","type_en":"Municipality|Governarate"}},{"type":"Polygon","arcs":[[-14,61,-29,-61]],"id":"LBY-2971","properties":{"adm1_code":"LBY-2971","iso_3166_2":"LY-SB","name":"Sabha","admin":"Libya","adm0_a3":"LBY","type_en":"Municipality|Governarate"}},{"type":"Polygon","arcs":[[-13,-34,-30,-62]],"id":"LBY-5488","properties":{"adm1_code":"LBY-5488","iso_3166_2":"LY-WD","name":"Wadi al Hayaa","admin":"Libya","adm0_a3":"LBY","type_en":"Municipality|Governarate"}}]}},"arcs":[[[14117,94419],[736,-698],[1391,-108]],[[16244,93613],[0,-866],[-245,-1660],[196,-1322],[-147,-1600],[32,-1648],[98,-649],[589,-1179],[-490,-1130],[-1374,-2081],[-377,-757],[164,-950],[16,-2778],[197,-1624],[507,-3247],[0,-2045],[1047,-1659],[343,-1936]],[[16800,66482],[-327,-481],[-703,168],[-393,433],[-867,-156],[-605,96],[-655,-421],[-409,0],[-1128,565],[-802,144],[-393,530],[-278,950],[-360,-121],[-932,-721],[-1669,-770],[-408,-72],[-1505,758],[-1947,-722]],[[3419,66662],[147,1215],[-16,1395],[-147,1118],[-998,3500],[-736,1419],[-1146,1611],[-523,686],[1472,818],[1407,745],[818,181],[785,1022],[655,1070],[572,650],[491,1347],[-147,1190],[-867,2442],[49,601],[932,1359],[327,265],[704,-12],[540,312],[458,602],[130,829],[491,24],[769,554],[425,757],[1947,926],[1652,770],[507,361]],[[14117,94419],[246,349],[-164,577],[-556,685],[33,1937],[310,2032],[835,-529],[1325,-193],[1472,-914],[262,-264],[1423,-650],[1423,-144]],[[20726,97305],[-703,-1551],[-786,-505],[-327,-421],[-1030,-481],[-164,-385],[-1472,-349]],[[62391,17294],[0,4822],[-33,7264],[-32,7276],[-33,7264],[0,3632]],[[62293,47552],[0,7372]],[[62293,54924],[4286,24],[5513,36],[3778,-48],[3779,-48],[3681,24],[3680,24],[3697,72],[3681,61],[4531,120]],[[98919,55189],[0,-7072],[0,-6398],[0,-4269],[0,-6398],[0,-6398],[0,-6398],[0,-4546],[0,-3644],[0,-6326],[-81,-96],[-6217,0],[0,-3644],[-4678,2670],[-3108,1780],[-3108,1780],[-3894,2237],[-4678,2669],[-6216,3572],[-4548,2586]],[[62391,17294],[-1685,974],[-4678,2670],[-4663,2682],[-4678,2670],[-4466,2561],[-131,-24],[-6200,-3259],[-4711,-2754],[-196,36],[-3795,3620],[-736,445],[-3976,1022],[-5561,1443],[-1636,3524],[-900,1948],[-622,445]],[[13757,35297],[82,998],[-163,951],[-769,1479],[49,2898],[-49,1431],[425,1191]],[[13332,44245],[1211,734],[1668,-758],[1898,204],[1292,1143],[867,-181],[785,97],[507,433],[1636,589],[1505,120],[655,493],[1096,1263],[1177,313],[1669,637]],[[29298,49332],[1260,144],[1832,794],[2535,2790],[933,361],[1914,505],[1194,156],[1848,373],[3272,926]],[[44086,55381],[-16,-1671],[278,-397],[1243,-662],[360,-517],[-49,-757],[327,-746],[671,-722],[981,-673],[360,-517],[2045,-457],[916,-361],[998,541],[1325,229],[1112,998],[687,373],[884,228],[736,-337],[1227,-1311],[638,-84],[2551,-613],[933,-373]],[[98919,62850],[-3108,96],[-5987,144],[-2994,60],[-16,4811],[0,4810],[-16,4799],[0,4810],[-556,217]],[[86242,82597],[-82,3175],[180,1239],[540,793],[229,1143],[81,1311],[835,2694]],[[88025,92952],[965,-193],[1668,-48],[1080,-253],[998,-408],[572,-638],[1195,12],[1684,-120],[769,301],[1963,-469],[328,-373],[-66,-457],[605,-854],[213,-589],[-573,-566],[-229,-625],[-1030,-830],[-17,-1720],[197,-926],[670,-1707],[-556,-2093],[-850,-1227],[-524,-1082],[-16,-277],[785,-1852],[-49,-998],[425,-854],[17,-1238],[523,-1287],[147,-806],[0,-5039],[0,-2886]],[[62293,54924],[16,9754],[-1047,96],[-3190,1034]],[[58072,65808],[0,2730],[82,2117],[425,1491],[753,1082],[213,1083],[-115,1226],[66,1215],[343,2754]],[[59839,79506],[916,-613],[834,-193],[1146,60],[621,181],[1211,709],[539,181],[835,661],[1816,2249],[703,1648],[-33,1311]],[[68427,85700],[295,276],[687,-216],[752,-1059],[1113,-589],[899,48],[1244,241],[2421,-84]],[[75838,84317],[2126,60],[393,168]],[[78357,84545],[474,193],[2012,204]],[[80843,84942],[916,180],[1260,-1118],[343,-722],[671,-469],[1080,-276],[1129,60]],[[98919,62850],[0,-3151],[0,-4510]],[[16800,66482],[196,384],[1096,-276],[769,-325],[1358,-156],[49,-565],[556,-289],[622,24],[1014,1311],[1603,950],[655,758],[1341,1936],[605,1166],[900,1131],[1047,902],[540,156],[507,-108],[1194,-625],[671,-481],[850,-999],[-16,-397]],[[32357,70979],[-65,-1623],[81,-794],[655,-1166],[850,-710],[1129,-746],[752,-817],[360,-1925],[671,-108],[802,84],[818,481],[1325,49],[1276,-421],[539,-566],[99,-601],[-622,-2020]],[[41027,60096],[-1456,156],[-1325,-565],[-1799,-241],[-933,-421],[-442,-830],[-2044,-1334],[-655,-770],[-2764,-313]],[[29609,55778],[-2258,445],[-1734,565],[-998,181],[-1128,-313],[-1505,-998],[-2928,-2357],[-3567,-2586],[-2322,-1599]],[[13169,49116],[-99,1022],[-621,2850],[-426,2526],[-180,1695],[-359,806],[-557,397],[-801,301],[-1472,276],[-2438,722],[-1210,553],[-933,553]],[[4073,60817],[33,349],[-932,2501],[-82,421],[327,2574]],[[13757,35297],[-4711,1648],[-278,12],[-1423,-565],[-376,24],[-818,709],[-426,1263],[-1014,782],[-65,3006],[-327,926],[-3583,5244],[-147,409],[654,1347],[2225,1106],[376,1083],[-82,360],[180,1035],[-539,565],[-115,757],[-540,1961],[213,950],[425,601],[-180,469],[442,361],[425,1467]],[[13169,49116],[-377,-2021],[-65,-1407],[196,-818],[409,-625]],[[58072,65808],[-1734,385],[-867,613],[-654,686],[-540,1840],[-1063,1299],[-393,1226],[-540,469],[-474,0],[-1080,-817],[-1554,469],[-670,613],[-802,60],[-687,-276],[-1210,-73],[-851,133]],[[44953,72435],[589,890],[131,745],[-426,2105],[-1014,2838],[-491,2778],[-687,2634],[-16,1215],[147,324]],[[43186,85964],[1391,-240],[2323,-24],[1357,-301],[1374,-469],[1293,-241],[638,-408],[1423,-518],[981,-264],[491,-493],[1571,-505],[932,-950],[1554,-1143],[524,-565],[801,-337]],[[44953,72435],[-295,204],[-1488,457],[-605,-204],[-998,-698],[-884,132],[-883,1215],[-622,397],[-736,-12],[-2094,649],[-1243,1167]],[[35105,75742],[785,1130],[17,842],[-213,2033],[-1047,649],[-1407,385],[-687,493],[-1505,746],[-916,2273],[-834,1551],[-851,577],[-1047,1359],[-212,770],[-687,1455],[-229,1082],[-360,650]],[[25912,91737],[1390,-12],[1358,373],[998,-193],[474,96],[344,409],[1030,-709],[507,-505],[671,-229],[1227,169],[589,1972],[-245,782],[229,769]],[[34484,94659],[965,-48],[1799,-397],[556,-529],[540,-1154],[-82,-878],[82,-806],[769,-1924],[834,-1227],[867,-794],[1783,-829],[589,-109]],[[25912,91737],[-213,1106],[-703,842]],[[24996,93685],[-98,120]],[[24898,93805],[932,361],[425,1071],[2274,805],[900,866]],[[29429,96908],[1390,-300],[1849,-1444],[1030,-168],[786,-337]],[[24898,93805],[-311,409],[-148,1900],[-539,530]],[[23900,96644],[212,445],[-49,697]],[[24063,97786],[393,253],[1178,-60],[1374,-746],[1357,-24],[1064,-301]],[[20726,97305],[1571,-60],[1766,541]],[[23900,96644],[-687,-385],[-916,-1912],[-17,-1083]],[[22280,93264],[-1079,-192],[-1555,517],[-703,-48],[-2699,72]],[[80843,84942],[-1227,1179],[311,1310],[0,1179],[147,409],[82,2718],[-278,1960],[458,1708],[-49,541],[-343,950],[98,1143]],[[80042,98039],[1030,252],[360,-433],[1096,-132],[851,-577],[1881,-481],[344,-229],[1374,-349],[114,-950],[278,-276],[-327,-1131],[622,-228],[360,-553]],[[78357,84545],[-33,1576],[-360,517],[-262,878],[33,842],[262,637],[0,1684],[-180,685],[-1080,962],[-605,1431],[-213,1347],[818,890],[-16,469],[-638,614]],[[76083,97077],[622,228],[965,866],[670,144],[1015,-348],[687,72]],[[75838,84317],[-180,1768],[-295,577],[-180,1347],[-425,421],[-1096,-145],[-1309,85],[-507,-217],[-867,144],[-1243,2550],[-262,782],[17,541],[294,794],[1309,1599],[65,914]],[[71159,95477],[1391,589],[867,578],[1030,433],[1636,0]],[[68427,85700],[-245,613],[-507,649],[-426,1191],[-212,1155],[114,1755],[835,1600],[1979,1876],[1194,938]],[[24996,93685],[-606,-180],[-2110,-241]],[[35105,75742],[-752,-1299],[131,-1070],[-33,-962],[-246,-361],[-1292,-914],[-556,-157]],[[44086,55381],[-147,553],[-1473,1131],[-376,1179],[-1063,1647],[0,205]],[[29298,49332],[-16,734],[261,829],[704,698],[392,830],[-81,409],[-606,950],[49,962],[-147,746],[-245,288]]],"bbox":[9.285441345051595,19.49681796233388,25.15180135687558,33.181040184908895],"transform":{"scale":[0.00015866518677010757,0.00013684359066165678],"translate":[9.285441345051595,19.49681796233388]}}