{"type":"Topology","objects":{"a1":{"type":"GeometryCollection","geometries":[{"type":"Polygon","arcs":[[0,1,2]],"id":"LUX-906","properties":{"adm1_code":"LUX-906","iso_3166_2":"LU-D","name":"Diekirch","admin":"Luxembourg","adm0_a3":"LUX","type_en":"District"}},{"type":"Polygon","arcs":[[3,4,-1]],"id":"LUX-907","properties":{"adm1_code":"LUX-907","iso_3166_2":"LU-G","name":"Grevenmacher","admin":"Luxembourg","adm0_a3":"LUX","type_en":"District"}},{"type":"Polygon","arcs":[[-2,-5,5]],"id":"LUX-908","properties":{"adm1_code":"LUX-908","iso_3166_2":"LU-L","name":"Luxembourg","admin":"Luxembourg","adm0_a3":"LUX","type_en":"District"}}]}},"arcs":[[[73927,57042],[-6271,-8216]],[[67656,48826],[-25742,4695],[-6271,-13615],[-17491,-3287]],[[18152,36619],[-15182,11737],[-2970,13380],[12541,13615],[7591,17136],[19142,7512],[11881,-4225],[-2641,-10329],[7591,-13849],[17822,-14554]],[[73927,57042],[26072,-7747],[-990,-13380],[-18152,-19249],[0,-5868],[-660,-9859],[-11881,4929]],[[68316,5868],[5941,13850],[-1650,12441],[-14192,2113],[9241,14554]],[[68316,5868],[-14521,705],[-9241,-6573],[-17492,4695],[-17161,7981],[11881,15023],[-3630,8920]]],"bbox":[5.714017923446846,49.4490542161962,6.50045781933801,50.15013403180859],"transform":{"scale":[0.000007864477603687672,0.000007010868264806531],"translate":[5.714017923446846,49.4490542161962]}}