{"type":"Topology","objects":{"a1":{"type":"GeometryCollection","geometries":[{"type":"Polygon","arcs":[[0,1,2,3]],"id":"MAR-3457","properties":{"adm1_code":"MAR-3457","iso_3166_2":"MA-14","name":"Guelmim - Es-Semara","admin":"Morocco","adm0_a3":"MAR","type_en":"Region"}},{"type":"Polygon","arcs":[[-1,4,5,6]],"id":"MAR-3456","properties":{"adm1_code":"MAR-3456","iso_3166_2":"MA-15","name":"Laâyoune - Boujdour - Sakia El Hamra","admin":"Morocco","adm0_a3":"MAR","type_en":"Region"}},{"type":"Polygon","arcs":[[7,-6]],"id":"MAR-3469","properties":{"adm1_code":"MAR-3469","iso_3166_2":"MA-16","name":"Oued el Dahab","admin":"Morocco","adm0_a3":"MAR","type_en":"Region"}},{"type":"Polygon","arcs":[[8,9,10]],"id":"MAR-1445","properties":{"adm1_code":"MAR-1445","iso_3166_2":"MA-01","name":"Tanger - Tétouan","admin":"Morocco","adm0_a3":"MAR","type_en":"Region"}},{"type":"Polygon","arcs":[[11,12,13,14]],"id":"MAR-1454","properties":{"adm1_code":"MAR-1454","iso_3166_2":"MA-04","name":"Oriental","admin":"Morocco","adm0_a3":"MAR","type_en":"Region"}},{"type":"Polygon","arcs":[[-12,15,16,17,18,19,20,21]],"id":"MAR-1452","properties":{"adm1_code":"MAR-1452","iso_3166_2":"MA-06","name":"Meknès - Tafilalet","admin":"Morocco","adm0_a3":"MAR","type_en":"Region"}},{"type":"Polygon","arcs":[[-3,22,23,24,-17,25]],"id":"MAR-1455","properties":{"adm1_code":"MAR-1455","iso_3166_2":"MA-13","name":"Souss - Massa - Draâ","admin":"Morocco","adm0_a3":"MAR","type_en":"Region"}},{"type":"Polygon","arcs":[[-9,26,-14,27,28]],"id":"MAR-1447","properties":{"adm1_code":"MAR-1447","iso_3166_2":"MA-03","name":"Taza - Al Hoceima - Taounate","admin":"Morocco","adm0_a3":"MAR","type_en":"Region"}},{"type":"Polygon","arcs":[[-10,-29,-21,29,30]],"id":"MAR-1448","properties":{"adm1_code":"MAR-1448","iso_3166_2":"MA-02","name":"Gharb - Chrarda - Béni Hssen","admin":"Morocco","adm0_a3":"MAR","type_en":"Region"}},{"type":"Polygon","arcs":[[-20,31,32,-30]],"id":"MAR-1451","properties":{"adm1_code":"MAR-1451","iso_3166_2":"MA-07","name":"Rabat - Salé - Zemmour - Zaer","admin":"Morocco","adm0_a3":"MAR","type_en":"Region"}},{"type":"Polygon","arcs":[[-19,33,34,35,36,37,38,-32]],"id":"MAR-1449","properties":{"adm1_code":"MAR-1449","iso_3166_2":"MA-09","name":"Chaouia - Ouardigha","admin":"Morocco","adm0_a3":"MAR","type_en":"Region"}},{"type":"Polygon","arcs":[[-38,39]],"id":"MAR-1450","properties":{"adm1_code":"MAR-1450","iso_3166_2":"MA-08","name":"Grand Casablanca","admin":"Morocco","adm0_a3":"MAR","type_en":"Region"}},{"type":"Polygon","arcs":[[-36,40,41]],"id":"MAR-1457","properties":{"adm1_code":"MAR-1457","iso_3166_2":"MA-10","name":"Doukkala - Abda","admin":"Morocco","adm0_a3":"MAR","type_en":"Region"}},{"type":"Polygon","arcs":[[-24,42,-41,-35,43]],"id":"MAR-1456","properties":{"adm1_code":"MAR-1456","iso_3166_2":"MA-11","name":"Marrakech - Tensift - Al Haouz","admin":"Morocco","adm0_a3":"MAR","type_en":"Region"}},{"type":"Polygon","arcs":[[-13,-22,-28]],"id":"MAR-1446","properties":{"adm1_code":"MAR-1446","iso_3166_2":"MA-05","name":"Fès - Boulemane","admin":"Morocco","adm0_a3":"MAR","type_en":"Region"}},{"type":"Polygon","arcs":[[-18,-25,-44,-34]],"id":"MAR-1453","properties":{"adm1_code":"MAR-1453","iso_3166_2":"MA-12","name":"Tadla - Azilal","admin":"Morocco","adm0_a3":"MAR","type_en":"Region"}}]}},"arcs":[[[31047,31544],[-2422,-23],[-342,1646],[-471,1338],[81,795],[471,976],[1090,1112],[308,465],[683,1441],[748,2212],[666,931],[715,601],[1691,874],[-65,306],[-943,1634],[-487,965]],[[32770,46817],[1853,794],[1007,1305],[374,250],[1366,1452],[1788,885],[1186,692],[764,692],[325,477]],[[41433,53364],[407,-204],[780,-80],[699,-284],[471,420],[943,182],[536,794],[390,136],[586,-215],[764,351],[585,-22],[1414,272],[260,-159],[439,636],[1268,215],[845,-363],[585,261],[-309,987],[49,2156],[276,454],[1740,-57],[422,284],[911,68],[341,-170],[504,306],[325,613],[1300,102],[829,613],[553,79],[1333,-272],[926,1384],[894,-159],[781,57],[422,522],[797,238],[829,-488],[357,-442],[-292,-726],[211,-976],[780,-397],[-439,-840],[65,-647],[813,-1792]],[[66823,56201],[-2227,-386],[-520,-477],[-1089,431],[-1187,0],[-699,-295],[-568,-578],[-1691,45],[-2048,-1464],[-780,-669],[-699,-307],[-1252,-896],[-227,-363],[-1447,-874],[-211,-420],[0,-6921],[-846,0],[277,-1384],[-179,-693],[309,-1168],[-260,-488],[-1284,-204],[-1301,68],[-1284,-80],[-455,-272],[-1561,-1305],[-1040,-68],[-829,420],[-975,-352],[-390,0],[-1870,896],[-1300,205],[-1024,-68],[-2146,-681],[-796,-193],[471,-953],[-130,-772],[-845,-783],[-1040,-1543],[-504,-1327],[-1951,-500],[-178,-238]],[[31047,31544],[-147,-862],[-552,-1589],[-878,-3654],[-325,-964],[-439,-965],[-439,-419],[-1300,-965],[-1496,-919]],[[25471,21207],[-1268,193],[-1024,-125],[-2064,-715],[-2601,534],[-1560,-68],[-1772,-432],[-553,91],[-666,726],[-1414,454]],[[12549,21865],[650,647],[439,1611],[48,794],[-130,1237],[423,1600],[423,545],[585,1781],[634,965],[244,1134],[-65,307],[520,885],[682,283],[894,908],[699,80],[764,385],[1902,1294],[748,1169],[423,1327],[195,874],[633,1010],[374,976],[439,1509],[683,408],[585,1180],[813,386],[1138,193],[894,-23],[1121,363],[1707,284],[1756,840]],[[25471,21207],[-699,-658],[-1073,-2145],[-504,-760],[-487,-272],[-2390,-1033],[-747,-692],[-569,-1180],[-244,-749],[-504,-2144],[-130,-965],[-309,-1373],[-130,-1180],[0,-953],[-179,-976],[-569,-817],[-812,-760],[-1187,-1520],[130,-761],[-390,-1032],[-488,-692],[-569,-341],[-1934,-68],[-1950,68],[-1821,273],[-1804,68],[-943,-137],[-2438,0],[-943,-68],[-1788,-340],[276,1180],[17,1305],[292,1032],[650,1373],[699,999],[472,-11],[682,283],[342,431],[244,920],[438,499],[98,1032],[325,1158],[732,510],[97,749],[-244,295],[390,409],[472,1100],[487,704],[98,454],[845,1191],[374,704],[16,1191],[927,454],[1105,1350],[910,851],[797,1033],[650,227],[358,442]],[[78396,94870],[212,-703],[-732,-795],[-536,-113],[-764,-556],[-1170,-454],[-976,-227],[-374,-352]],[[74056,91670],[-1007,-11],[-439,159],[-585,567],[-748,23],[-927,738],[-2080,544],[-845,-57]],[[67425,93633],[276,851],[1138,2599],[601,1929],[910,68],[439,272],[699,-56],[943,658],[309,45],[374,-533],[113,-919],[456,-897],[617,-465],[537,-681],[1853,-1214],[1706,-420]],[[86751,71099],[65,726],[-552,828],[-179,1419],[-585,-80],[-1041,227],[-812,-306],[-813,987],[-358,862],[-959,1430]],[[81517,77192],[862,1418],[1138,1430],[504,397],[1755,102],[1788,318],[667,431],[-358,908],[-666,669],[-781,500],[-32,397],[683,601],[373,670],[-325,215]],[[87125,85248],[-569,1112],[-48,545],[569,249],[260,579],[-260,772],[-537,737],[163,431],[634,488],[178,681],[504,102],[-162,658],[-1333,488],[-455,-34],[-585,-578],[-911,-659],[-699,341],[163,1055],[-98,318],[-747,204],[-504,409],[-65,1906]],[[82623,95052],[926,556],[520,-375],[1122,-238],[1349,272],[943,522],[618,114],[-130,-114],[162,-317],[179,68],[49,-715],[536,-363],[374,147],[1235,-317],[911,363],[1219,-409],[178,-601],[2552,-1702],[-520,-1101],[748,-703],[-374,-840],[406,-567],[456,-1362],[-293,-1339],[114,-862],[-244,-602],[488,-283],[308,-851],[-438,-1056],[48,-896],[651,-874],[455,-351],[0,-534],[-374,-340],[845,-1328],[601,-295],[1756,-1248],[-471,-692],[-602,-170],[-341,-1123],[-98,-545],[244,-477],[-4112,182],[-3820,170],[-1122,-295],[-1170,-91],[-358,-193],[699,-1747],[-1089,-148],[-1008,-283]],[[86751,71099],[-3104,-590],[-98,-1782],[-455,-22],[-455,-466],[32,-669],[1122,-862],[504,-965],[-650,-817],[81,-874],[-1187,-578],[-1040,-239],[-975,-45],[-732,-193],[-617,-340],[-699,-863],[-878,-680],[-927,-386]],[[76673,60728],[-2795,1861],[81,1066],[-975,1180],[16,568],[341,635],[0,772],[439,1316],[130,760],[-244,431],[-1268,931],[-698,204],[-1057,0],[130,454],[894,1169],[-114,442],[-439,216],[-910,-273]],[[70204,72460],[-341,579],[244,601],[1137,783],[1073,329],[-374,874],[569,817],[-536,148],[-813,510],[-764,273],[-780,703],[-894,329]],[[68725,78406],[-98,726],[-601,193],[130,590],[-439,454],[-1268,817],[-97,295]],[[66352,81481],[130,987],[292,602],[878,-216],[98,-499],[1251,-341],[1008,80],[195,386],[98,1622],[406,1169],[-390,669],[162,488],[-552,999],[-228,113]],[[69700,87540],[602,647],[536,-477],[829,-90],[650,249],[293,795]],[[72610,88664],[422,-568],[147,-658],[520,46],[991,-1884],[-390,-601],[195,-386],[894,-182],[455,-499],[33,-363],[-601,-862],[812,-1997],[911,-1385],[1414,-283],[601,-568],[748,-1032],[569,-273],[1186,23]],[[41433,53364],[846,851],[763,998],[553,1180],[1463,1646],[634,1089],[406,896],[260,1918],[-552,953],[-1171,987],[423,738],[-16,1146]],[[45042,65766],[829,-897],[894,364],[1365,0],[585,-239],[1171,57],[1430,783],[439,-636],[959,148],[1479,0],[1236,397],[812,-68],[1317,1339],[3121,1384],[878,726]],[[61557,69124],[471,-306],[796,-204],[1122,136],[634,704],[1382,556],[2665,1225],[1220,794],[357,431]],[[76673,60728],[-650,-329],[-1885,-1407],[-602,-624],[-1007,-1680],[-667,-828],[-601,-193],[-537,193],[-211,636],[-1528,-250],[-2162,-45]],[[78396,94870],[748,-193],[2601,670],[878,-295]],[[87125,85248],[-1495,363],[-520,397],[-472,80],[-471,-329],[-1398,-1487],[-81,-476],[-1024,-261],[-618,238],[65,953],[-780,1112],[-569,193],[-1235,34],[-521,341],[-227,567],[-780,363],[-537,726],[-1056,681],[-1138,125],[-797,-250],[-861,46]],[[72610,88664],[-439,612],[878,613],[959,817],[48,964]],[[69700,87540],[-536,-91],[-1447,364],[-1008,79],[-1203,-329],[-1056,420]],[[64450,87983],[358,681],[682,941],[1658,3200],[277,828]],[[66352,81481],[-846,-352],[-1105,386],[-552,602],[195,1531],[-1187,420],[-504,1180],[-374,341]],[[61979,85589],[1203,760],[650,658],[618,976]],[[68725,78406],[-325,-318],[-1252,-306],[-1788,125],[-520,-250],[-1235,46],[-862,-556],[-455,-1396],[-358,-420]],[[61930,75331],[-438,68],[-1106,704],[-1284,147],[-422,170],[-651,840],[-780,533],[-731,897]],[[56518,78690],[-390,556],[-147,1168],[-260,579],[504,443],[423,715],[-260,896]],[[56388,83047],[780,295]],[[57168,83342],[1284,-454],[569,23],[-81,-534],[1105,715],[179,908],[357,874]],[[60581,84874],[699,488],[699,227]],[[57168,83342],[97,125],[2341,851],[569,533],[406,23]],[[56518,78690],[-374,-318],[-260,-1418],[-325,-352],[-1918,-1350],[357,-931],[715,-397],[17,-601],[-358,-454],[-731,-1487],[-732,-204],[-1820,148],[-699,227],[-537,760],[-813,147],[-942,-192],[-781,295]],[[47317,72563],[586,556],[601,1395],[-146,851],[292,828],[-81,727],[927,726],[715,794],[813,579],[1495,1702],[49,306],[569,658],[487,-22],[1317,964],[1447,420]],[[45042,65766],[-81,1282],[162,1532],[-244,238],[992,1611],[146,658],[1300,1476]],[[61930,75331],[114,-284],[65,-1656],[439,-1260],[-325,-669],[-910,-182],[-374,-431],[845,-930],[-227,-795]]],"bbox":[-17.014873721169977,21.42067313710119,-1.047288772251079,35.924467538490674],"transform":{"scale":[0.00015967744626365163,0.00014503939440783893],"translate":[-17.014873721169977,21.42067313710119]}}