{"type":"Topology","objects":{"a1":{"type":"GeometryCollection","geometries":[{"type":"Polygon","arcs":[[0]],"id":"MHL-4968","properties":{"adm1_code":"MHL-4968","iso_3166_2":"MH-L","name":"Railik Chain","admin":"Marshall Islands","adm0_a3":"MHL","type_en":null}},{"type":"Polygon","arcs":[[1]],"id":"MHL-4969","properties":{"adm1_code":"MHL-4969","iso_3166_2":"MH-T","name":"Ratak Chain","admin":"Marshall Islands","adm0_a3":"MHL","type_en":null}}]}},"arcs":[[[0,126],[1583,1256],[1151,4020],[288,3643],[575,1885],[2590,2512],[1151,126],[-3165,-2890],[-720,-3015],[-288,-2261],[-575,-3141],[-1151,-2261],[-1439,126]],[[99999,99999],[-1439,-1131],[-4029,-879],[-1726,-1131],[-2015,628],[9209,2513]]],"bbox":[169.58940454647046,5.79942992162529,171.3932848357258,7.109428825915089],"transform":{"scale":[0.000018038983282386285,0.000013100120044098427],"translate":[169.58940454647046,5.79942992162529]}}