{"type":"Topology","objects":{"a1":{"type":"GeometryCollection","geometries":[{"type":"Polygon","arcs":[[0,1,2,3,4,5,6]],"id":"MKD-4845","properties":{"adm1_code":"MKD-4845","iso_3166_2":"MK-72","name":"Struga","admin":"Macedonia","adm0_a3":"MKD","type_en":"Statistical Region"}},{"type":"Polygon","arcs":[[-1,7,8]],"id":"MKD-2951","properties":{"adm1_code":"MKD-2951","iso_3166_2":"MK-78","name":"Centar župa","admin":"Macedonia","adm0_a3":"MKD","type_en":"Statistical Region"}},{"type":"Polygon","arcs":[[-2,-9,9,10,11]],"id":"MKD-2952","properties":{"adm1_code":"MKD-2952","iso_3166_2":"MK-21","name":"Debar","admin":"Macedonia","adm0_a3":"MKD","type_en":"Statistical Region"}},{"type":"Polygon","arcs":[[12,13,14,15,-11]],"id":"MKD-2955","properties":{"adm1_code":"MKD-2955","iso_3166_2":"MK-50","name":"Mavrovo and Rostusa","admin":"Macedonia","adm0_a3":"MKD","type_en":"Statistical Region"}},{"type":"Polygon","arcs":[[16,17,18,19,20,21,-14]],"id":"MKD-2962","properties":{"adm1_code":"MKD-2962","iso_3166_2":"MK-19","name":"Gostivar","admin":"Macedonia","adm0_a3":"MKD","type_en":"Statistical Region"}},{"type":"Polygon","arcs":[[-6,22]],"id":"MKD-2895","properties":{"adm1_code":"MKD-2895","iso_3166_2":"MK-12","name":"Vevčani","admin":"Macedonia","adm0_a3":"MKD","type_en":"Statistical Region"}},{"type":"Polygon","arcs":[[23,24,25,26]],"id":"MKD-2898","properties":{"adm1_code":"MKD-2898","iso_3166_2":"MK-58","name":"Ohrid","admin":"Macedonia","adm0_a3":"MKD","type_en":"Statistical Region"}},{"type":"Polygon","arcs":[[-4,27,28,-25,29]],"id":"MKD-2899","properties":{"adm1_code":"MKD-2899","iso_3166_2":"MK-22","name":"Debarca","admin":"Macedonia","adm0_a3":"MKD","type_en":"Statistical Region"}},{"type":"Polygon","arcs":[[-27,30,31,32]],"id":"MKD-2894","properties":{"adm1_code":"MKD-2894","iso_3166_2":"MK-66","name":"Resen","admin":"Macedonia","adm0_a3":"MKD","type_en":"Statistical Region"}},{"type":"Polygon","arcs":[[33,34,35,36]],"id":"MKD-2999","properties":{"adm1_code":"MKD-2999","iso_3166_2":"MK-56","name":"Novo Selo","admin":"Macedonia","adm0_a3":"MKD","type_en":"Statistical Region"}},{"type":"Polygon","arcs":[[37,38,39]],"id":"MKD-3000","properties":{"adm1_code":"MKD-3000","iso_3166_2":"MK-26","name":"Dojran","admin":"Macedonia","adm0_a3":"MKD","type_en":"Statistical Region"}},{"type":"Polygon","arcs":[[40,-40,41,42,43,44,45]],"id":"MKD-2994","properties":{"adm1_code":"MKD-2994","iso_3166_2":"MK-10","name":"Valandovo","admin":"Macedonia","adm0_a3":"MKD","type_en":"Statistical Region"}},{"type":"Polygon","arcs":[[46,-46,47,48,49,-34]],"id":"MKD-2993","properties":{"adm1_code":"MKD-2993","iso_3166_2":"MK-73","name":"Strumitsa","admin":"Macedonia","adm0_a3":"MKD","type_en":"Statistical Region"}},{"type":"Polygon","arcs":[[50,51,-42,-39]],"id":"MKD-2996","properties":{"adm1_code":"MKD-2996","iso_3166_2":"MK-05","name":"Bogdanci","admin":"Macedonia","adm0_a3":"MKD","type_en":"Statistical Region"}},{"type":"Polygon","arcs":[[52,53,54,-43,-52]],"id":"MKD-2998","properties":{"adm1_code":"MKD-2998","iso_3166_2":"MK-18","name":"Gevgelija","admin":"Macedonia","adm0_a3":"MKD","type_en":"Statistical Region"}},{"type":"Polygon","arcs":[[55,56,57,58,59,60,-54]],"id":"MKD-2936","properties":{"adm1_code":"MKD-2936","iso_3166_2":"MK-36","name":"Kavadartsi","admin":"Macedonia","adm0_a3":"MKD","type_en":"Statistical Region"}},{"type":"Polygon","arcs":[[61,62,63,64]],"id":"MKD-2947","properties":{"adm1_code":"MKD-2947","iso_3166_2":"MK-55","name":"Novaci","admin":"Macedonia","adm0_a3":"MKD","type_en":"Statistical Region"}},{"type":"Polygon","arcs":[[65,-64,66,67,68,69,-57]],"id":"MKD-2903","properties":{"adm1_code":"MKD-2903","iso_3166_2":"MK-62","name":"Prilep","admin":"Macedonia","adm0_a3":"MKD","type_en":"Statistical Region"}},{"type":"Polygon","arcs":[[-32,70,71,72,-62,73]],"id":"MKD-2896","properties":{"adm1_code":"MKD-2896","iso_3166_2":"MK-04","name":"Bitola","admin":"Macedonia","adm0_a3":"MKD","type_en":"Statistical Region"}},{"type":"Polygon","arcs":[[74,75,76,77,78,79]],"id":"MKD-2920","properties":{"adm1_code":"MKD-2920","iso_3166_2":"MK-48","name":"Lipkovo","admin":"Macedonia","adm0_a3":"MKD","type_en":"Statistical Region"}},{"type":"Polygon","arcs":[[-79,80,81,82,83,84,85]],"id":"MKD-2926","properties":{"adm1_code":"MKD-2926","iso_3166_2":"MK-82","name":"Čučer Sandevo","admin":"Macedonia","adm0_a3":"MKD","type_en":"Statistical Region"}},{"type":"Polygon","arcs":[[-85,86,87,88]],"id":"MKD-2948","properties":{"adm1_code":"MKD-2948","iso_3166_2":"MK-29","name":"Gjorče Petrov","admin":"Macedonia","adm0_a3":"MKD","type_en":"Municipality"}},{"type":"Polygon","arcs":[[89,-88,90,91,92,93]],"id":"MKD-2908","properties":{"adm1_code":"MKD-2908","iso_3166_2":"MK-68","name":"Saraj","admin":"Macedonia","adm0_a3":"MKD","type_en":"Municipality"}},{"type":"Polygon","arcs":[[-94,94,95,96,97]],"id":"MKD-2963","properties":{"adm1_code":"MKD-2963","iso_3166_2":"MK-35","name":"Jegunovce","admin":"Macedonia","adm0_a3":"MKD","type_en":"Municipality"}},{"type":"Polygon","arcs":[[98,-97,99]],"id":"MKD-2957","properties":{"adm1_code":"MKD-2957","iso_3166_2":"MK-75","name":"Tearce","admin":"Macedonia","adm0_a3":"MKD","type_en":"Municipality"}},{"type":"Polygon","arcs":[[100,-100,-96,101,102,103]],"id":"MKD-2958","properties":{"adm1_code":"MKD-2958","iso_3166_2":"MK-76","name":"Tetovo","admin":"Macedonia","adm0_a3":"MKD","type_en":"Statistical Region"}},{"type":"Polygon","arcs":[[104,-104,105,106]],"id":"MKD-2960","properties":{"adm1_code":"MKD-2960","iso_3166_2":"MK-06","name":"Bogovinje","admin":"Macedonia","adm0_a3":"MKD","type_en":"Statistical Region"}},{"type":"Polygon","arcs":[[-18,107,-107,108]],"id":"MKD-2959","properties":{"adm1_code":"MKD-2959","iso_3166_2":"MK-16","name":"Vrapcište","admin":"Macedonia","adm0_a3":"MKD","type_en":"Statistical Region"}},{"type":"Polygon","arcs":[[109,110,111,112,113]],"id":"MKD-2906","properties":{"adm1_code":"MKD-2906","iso_3166_2":"MK-44","name":"Kriva Palanka","admin":"Macedonia","adm0_a3":"MKD","type_en":"Statistical Region"}},{"type":"Polygon","arcs":[[114,-114,115,116]],"id":"MKD-4846","properties":{"adm1_code":"MKD-4846","iso_3166_2":"MK-65","name":"Rankovce","admin":"Macedonia","adm0_a3":"MKD","type_en":"Statistical Region"}},{"type":"Polygon","arcs":[[117,-117,118,119]],"id":"MKD-2910","properties":{"adm1_code":"MKD-2910","iso_3166_2":"MK-71","name":"Staro Nagoričane","admin":"Macedonia","adm0_a3":"MKD","type_en":"Statistical Region"}},{"type":"Polygon","arcs":[[-75,120,-120,121,122,123,124,125]],"id":"MKD-2943","properties":{"adm1_code":"MKD-2943","iso_3166_2":"MK-47","name":"Kumanovo","admin":"Macedonia","adm0_a3":"MKD","type_en":"Statistical Region"}},{"type":"Polygon","arcs":[[126,127,128,129,130]],"id":"MKD-3005","properties":{"adm1_code":"MKD-3005","iso_3166_2":"MK-23","name":"Delčevo","admin":"Macedonia","adm0_a3":"MKD","type_en":"Statistical Region"}},{"type":"Polygon","arcs":[[-111,131,-131,132,133]],"id":"MKD-3006","properties":{"adm1_code":"MKD-3006","iso_3166_2":"MK-51","name":"Makedonska Kamenica","admin":"Macedonia","adm0_a3":"MKD","type_en":"Statistical Region"}},{"type":"Polygon","arcs":[[-36,134,135,136,137,-129,138,139]],"id":"MKD-3004","properties":{"adm1_code":"MKD-3004","iso_3166_2":"MK-03","name":"Berovo","admin":"Macedonia","adm0_a3":"MKD","type_en":"Statistical Region"}},{"type":"Polygon","arcs":[[-128,140,-139]],"id":"MKD-3007","properties":{"adm1_code":"MKD-3007","iso_3166_2":"MK-60","name":"Pehčevo","admin":"Macedonia","adm0_a3":"MKD","type_en":"Statistical Region"}},{"type":"Polygon","arcs":[[-93,141,142,143,-102,-95]],"id":"MKD-2918","properties":{"adm1_code":"MKD-2918","iso_3166_2":"MK-30","name":"Želino","admin":"Macedonia","adm0_a3":"MKD","type_en":"Statistical Region"}},{"type":"Polygon","arcs":[[-19,-109,-106,-103,-144,144]],"id":"MKD-2961","properties":{"adm1_code":"MKD-2961","iso_3166_2":"MK-08","name":"Brvenica","admin":"Macedonia","adm0_a3":"MKD","type_en":"Statistical Region"}},{"type":"Polygon","arcs":[[-20,-145,-143,145,146,147,148,149,150,151,152]],"id":"MKD-2944","properties":{"adm1_code":"MKD-2944","iso_3166_2":"MK-52","name":"Brod","admin":"Macedonia","adm0_a3":"MKD","type_en":"Statistical Region"}},{"type":"Polygon","arcs":[[-21,-153,153,154,155]],"id":"MKD-2956","properties":{"adm1_code":"MKD-2956","iso_3166_2":"MK-57","name":"Oslomej","admin":"Macedonia","adm0_a3":"MKD","type_en":"Statistical Region"}},{"type":"Polygon","arcs":[[-92,156,157,158,-146,-142]],"id":"MKD-2909","properties":{"adm1_code":"MKD-2909","iso_3166_2":"MK-70","name":"Sopište","admin":"Macedonia","adm0_a3":"MKD","type_en":"Statistical Region"}},{"type":"Polygon","arcs":[[-84,159,160,161,162,-157,-91,-87]],"id":"MKD-2935","properties":{"adm1_code":"MKD-2935","iso_3166_2":"MK-38","name":"Karpoš","admin":"Macedonia","adm0_a3":"MKD","type_en":"Municipality"}},{"type":"Polygon","arcs":[[-82,163]],"id":"MKD-5883","properties":{"adm1_code":"MKD-5883","iso_3166_2":"MK-84","name":"Šuto Orizari","admin":"Macedonia","adm0_a3":"MKD","type_en":"Municipality"}},{"type":"Polygon","arcs":[[-78,164,165,-160,-83,-164,-81]],"id":"MKD-2921","properties":{"adm1_code":"MKD-2921","iso_3166_2":"MK-09","name":"Butel","admin":"Macedonia","adm0_a3":"MKD","type_en":"Municipality"}},{"type":"Polygon","arcs":[[-161,-166,166,167,168]],"id":"MKD-2913","properties":{"adm1_code":"MKD-2913","iso_3166_2":"MK-79","name":"Čair","admin":"Macedonia","adm0_a3":"MKD","type_en":"Municipality"}},{"type":"Polygon","arcs":[[-162,-169,169,170]],"id":"MKD-2923","properties":{"adm1_code":"MKD-2923","iso_3166_2":"MK-77","name":"Centar","admin":"Macedonia","adm0_a3":"MKD","type_en":"Municipality"}},{"type":"Polygon","arcs":[[-15,-22,-156,171,172]],"id":"MKD-2950","properties":{"adm1_code":"MKD-2950","iso_3166_2":"MK-31","name":"Zajas","admin":"Macedonia","adm0_a3":"MKD","type_en":"Statistical Region"}},{"type":"Polygon","arcs":[[-69,173,174,-149,175]],"id":"MKD-2928","properties":{"adm1_code":"MKD-2928","iso_3166_2":"MK-27","name":"Dolneni","admin":"Macedonia","adm0_a3":"MKD","type_en":"Statistical Region"}},{"type":"Polygon","arcs":[[-68,176,177,-174]],"id":"MKD-2941","properties":{"adm1_code":"MKD-2941","iso_3166_2":"MK-45","name":"Krivogaštani","admin":"Macedonia","adm0_a3":"MKD","type_en":"Statistical Region"}},{"type":"Polygon","arcs":[[-63,-73,178,-177,-67]],"id":"MKD-2945","properties":{"adm1_code":"MKD-2945","iso_3166_2":"MK-53","name":"Mogila","admin":"Macedonia","adm0_a3":"MKD","type_en":"Statistical Region"}},{"type":"Polygon","arcs":[[-58,-70,-176,-148,179,180,181,182,183]],"id":"MKD-2922","properties":{"adm1_code":"MKD-2922","iso_3166_2":"MK-80","name":"Čaška","admin":"Macedonia","adm0_a3":"MKD","type_en":"Statistical Region"}},{"type":"Polygon","arcs":[[-59,-184,184,185]],"id":"MKD-2907","properties":{"adm1_code":"MKD-2907","iso_3166_2":"MK-67","name":"Rosoman","admin":"Macedonia","adm0_a3":"MKD","type_en":"Statistical Region"}},{"type":"Polygon","arcs":[[-60,-186,186,187,188,189]],"id":"MKD-2946","properties":{"adm1_code":"MKD-2946","iso_3166_2":"MK-54","name":"Negotino","admin":"Macedonia","adm0_a3":"MKD","type_en":"Statistical Region"}},{"type":"Polygon","arcs":[[-3,-12,-16,-173,190,191,192,193,194,-28]],"id":"MKD-2953","properties":{"adm1_code":"MKD-2953","iso_3166_2":"MK-28","name":"Drugovo","admin":"Macedonia","adm0_a3":"MKD","type_en":"Statistical Region"}},{"type":"Polygon","arcs":[[-77,195,196,197,198,199,-167,-165]],"id":"MKD-2929","properties":{"adm1_code":"MKD-2929","iso_3166_2":"MK-17","name":"Gazi Baba","admin":"Macedonia","adm0_a3":"MKD","type_en":"Municipality"}},{"type":"Polygon","arcs":[[-72,200,-194,201,-150,-175,-178,-179]],"id":"MKD-2942","properties":{"adm1_code":"MKD-2942","iso_3166_2":"MK-46","name":"Kruševo","admin":"Macedonia","adm0_a3":"MKD","type_en":"Statistical Region"}},{"type":"Polygon","arcs":[[-26,-29,-195,-201,-71,-31]],"id":"MKD-2897","properties":{"adm1_code":"MKD-2897","iso_3166_2":"MK-25","name":"Demir Hisar","admin":"Macedonia","adm0_a3":"MKD","type_en":"Statistical Region"}},{"type":"Polygon","arcs":[[-168,-200,202,203,-170]],"id":"MKD-2937","properties":{"adm1_code":"MKD-2937","iso_3166_2":"MK-01","name":"Aerodrom","admin":"Macedonia","adm0_a3":"MKD","type_en":"Municipality"}},{"type":"Polygon","arcs":[[-147,-159,204,-203,-199,205,206,-180]],"id":"MKD-2912","properties":{"adm1_code":"MKD-2912","iso_3166_2":"MK-74","name":"Studeničani","admin":"Macedonia","adm0_a3":"MKD","type_en":"Statistical Region"}},{"type":"Polygon","arcs":[[-158,-163,-171,-204,-205]],"id":"MKD-2938","properties":{"adm1_code":"MKD-2938","iso_3166_2":"MK-39","name":"Kisela Voda","admin":"Macedonia","adm0_a3":"MKD","type_en":"Municipality"}},{"type":"Polygon","arcs":[[207,208,209,210,211,212]],"id":"MKD-2904","properties":{"adm1_code":"MKD-2904","iso_3166_2":"MK-63","name":"Probištip","admin":"Macedonia","adm0_a3":"MKD","type_en":"Statistical Region"}},{"type":"Polygon","arcs":[[-208,213,214,215]],"id":"MKD-2925","properties":{"adm1_code":"MKD-2925","iso_3166_2":"MK-81","name":"Češinovo-Obleševo","admin":"Macedonia","adm0_a3":"MKD","type_en":"Statistical Region"}},{"type":"Polygon","arcs":[[-76,-126,216,-196]],"id":"MKD-2919","properties":{"adm1_code":"MKD-2919","iso_3166_2":"MK-02","name":"Aračinovo","admin":"Macedonia","adm0_a3":"MKD","type_en":"Statistical Region"}},{"type":"Polygon","arcs":[[-181,-207,217,218]],"id":"MKD-2917","properties":{"adm1_code":"MKD-2917","iso_3166_2":"MK-32","name":"Zelenikovo","admin":"Macedonia","adm0_a3":"MKD","type_en":"Statistical Region"}},{"type":"Polygon","arcs":[[-155,219,-191,-172]],"id":"MKD-2954","properties":{"adm1_code":"MKD-2954","iso_3166_2":"MK-40","name":"Kičevo","admin":"Macedonia","adm0_a3":"MKD","type_en":"Statistical Region"}},{"type":"Polygon","arcs":[[-151,-202,-193,220]],"id":"MKD-2902","properties":{"adm1_code":"MKD-2902","iso_3166_2":"MK-61","name":"Plasnica","admin":"Macedonia","adm0_a3":"MKD","type_en":"Statistical Region"}},{"type":"Polygon","arcs":[[-152,-221,-192,-220,-154]],"id":"MKD-2916","properties":{"adm1_code":"MKD-2916","iso_3166_2":"MK-15","name":"Vraneštica","admin":"Macedonia","adm0_a3":"MKD","type_en":"Statistical Region"}},{"type":"Polygon","arcs":[[-124,221,222,-218,-206,-198,223]],"id":"MKD-2901","properties":{"adm1_code":"MKD-2901","iso_3166_2":"MK-85","name":"Skopje","admin":"Macedonia","adm0_a3":"MKD","type_en":"Statistical Region"}},{"type":"Polygon","arcs":[[224,225,226,227]],"id":"MKD-2931","properties":{"adm1_code":"MKD-2931","iso_3166_2":"MK-49","name":"Lozovo","admin":"Macedonia","adm0_a3":"MKD","type_en":"Statistical Region"}},{"type":"Polygon","arcs":[[-123,228,-211,229,-225,230,-222]],"id":"MKD-2914","properties":{"adm1_code":"MKD-2914","iso_3166_2":"MK-69","name":"Sveti Nikole","admin":"Macedonia","adm0_a3":"MKD","type_en":"Statistical Region"}},{"type":"Polygon","arcs":[[-183,231,-227,232,-187,-185]],"id":"MKD-2930","properties":{"adm1_code":"MKD-2930","iso_3166_2":"MK-20","name":"Gradsko","admin":"Macedonia","adm0_a3":"MKD","type_en":"Statistical Region"}},{"type":"Polygon","arcs":[[-113,233,-212,-229,-122,-119,-116]],"id":"MKD-2940","properties":{"adm1_code":"MKD-2940","iso_3166_2":"MK-43","name":"Kratovo","admin":"Macedonia","adm0_a3":"MKD","type_en":"Statistical Region"}},{"type":"Polygon","arcs":[[-125,-224,-197,-217]],"id":"MKD-2933","properties":{"adm1_code":"MKD-2933","iso_3166_2":"MK-34","name":"Ilinden","admin":"Macedonia","adm0_a3":"MKD","type_en":"Statistical Region"}},{"type":"Polygon","arcs":[[-209,-216,234,235,236,237]],"id":"MKD-2934","properties":{"adm1_code":"MKD-2934","iso_3166_2":"MK-37","name":"Karbinci","admin":"Macedonia","adm0_a3":"MKD","type_en":"Statistical Region"}},{"type":"Polygon","arcs":[[-188,-233,-226,-230,-210,-238,238,239]],"id":"MKD-2911","properties":{"adm1_code":"MKD-2911","iso_3166_2":"MK-83","name":"Štip","admin":"Macedonia","adm0_a3":"MKD","type_en":"Statistical Region"}},{"type":"Polygon","arcs":[[-112,-134,240,241,-214,-213,-234]],"id":"MKD-2939","properties":{"adm1_code":"MKD-2939","iso_3166_2":"MK-42","name":"Kočani","admin":"Macedonia","adm0_a3":"MKD","type_en":"Statistical Region"}},{"type":"Polygon","arcs":[[-215,-242,242,-235]],"id":"MKD-2924","properties":{"adm1_code":"MKD-2924","iso_3166_2":"MK-33","name":"Zrnovci","admin":"Macedonia","adm0_a3":"MKD","type_en":"Statistical Region"}},{"type":"Polygon","arcs":[[-182,-219,-223,-231,-228,-232]],"id":"MKD-2915","properties":{"adm1_code":"MKD-2915","iso_3166_2":"MK-13","name":"Veles","admin":"Macedonia","adm0_a3":"MKD","type_en":"Statistical Region"}},{"type":"Polygon","arcs":[[-44,-55,-61,-190,243]],"id":"MKD-2927","properties":{"adm1_code":"MKD-2927","iso_3166_2":"MK-24","name":"Demir Kapija","admin":"Macedonia","adm0_a3":"MKD","type_en":"Statistical Region"}},{"type":"Polygon","arcs":[[-130,-138,244,-236,-243,-241,-133]],"id":"MKD-3003","properties":{"adm1_code":"MKD-3003","iso_3166_2":"MK-14","name":"Vinica","admin":"Macedonia","adm0_a3":"MKD","type_en":"Statistical Region"}},{"type":"Polygon","arcs":[[-35,-50,245,-135]],"id":"MKD-2997","properties":{"adm1_code":"MKD-2997","iso_3166_2":"MK-07","name":"Bosilovo","admin":"Macedonia","adm0_a3":"MKD","type_en":"Statistical Region"}},{"type":"Polygon","arcs":[[-137,246,247,-239,-237,-245]],"id":"MKD-2905","properties":{"adm1_code":"MKD-2905","iso_3166_2":"MK-64","name":"Radoviš","admin":"Macedonia","adm0_a3":"MKD","type_en":"Statistical Region"}},{"type":"Polygon","arcs":[[-49,248,-247,-136,-246]],"id":"MKD-2995","properties":{"adm1_code":"MKD-2995","iso_3166_2":"MK-11","name":"Vasilevo","admin":"Macedonia","adm0_a3":"MKD","type_en":"Statistical Region"}},{"type":"Polygon","arcs":[[-45,-244,-189,-240,-248,-249,-48]],"id":"MKD-2932","properties":{"adm1_code":"MKD-2932","iso_3166_2":"MK-41","name":"Konče","admin":"Macedonia","adm0_a3":"MKD","type_en":"Statistical Region"}}]}},"arcs":[[[3779,36403],[5414,1516]],[[9193,37919],[306,-108]],[[9499,37811],[103,-108]],[[9602,37703],[2757,-9209],[-817,-7692],[-3268,-5959]],[[8274,14843],[-2248,650],[-3268,8234]],[[2758,23727],[3166,758],[-1021,2059],[-2860,-217]],[[2043,26327],[-715,4659],[2451,5417]],[[3779,36403],[-2247,4333]],[[1532,40736],[5005,3576],[2656,-6393]],[[1532,40736],[-1532,5309],[3575,2492]],[[3575,48537],[4290,-2709],[3371,-4442]],[[11236,41386],[-1737,-3575]],[[3575,48537],[-1328,9642],[1941,4334]],[[4188,62513],[3881,-2817],[5720,1083],[4086,-7150]],[[17875,53629],[-3473,-3250]],[[14402,50379],[-204,-7151],[-2962,-1842]],[[4188,62513],[-409,2925],[1124,1950],[5720,-975]],[[10623,66413],[5209,-3575],[4290,2925]],[[20122,65763],[4903,-4767]],[[25025,60996],[-1940,-3142],[919,-5308]],[[24004,52546],[-2656,-1517]],[[21348,51029],[-3473,2600]],[[2758,23727],[-715,2600]],[[15424,4875],[-2758,-2058],[-2452,2817],[-1532,8125]],[[8682,13759],[6129,11918],[3473,650],[4903,-1625]],[[23187,24702],[306,-867]],[[23493,23835],[-5311,-5959],[-1022,-8667],[-1736,-4334]],[[9602,37703],[7865,0],[2655,-6501]],[[20122,31202],[3065,-6500]],[[8682,13759],[-408,1084]],[[23493,23835],[2247,-5634]],[[25740,18201],[-919,-5308],[7354,-9209],[-612,-2817]],[[31563,867],[-11032,-867],[-1021,3792],[-4086,1083]],[[92645,32069],[-409,3900]],[[92236,35969],[2758,7909]],[[94994,43878],[3371,434]],[[98365,44312],[408,-6284],[-1430,-6067],[-4698,108]],[[90500,28710],[-613,-7908],[-2758,758]],[[87129,21560],[-3575,4225]],[[83554,25785],[3779,3467],[3167,-542]],[[91215,31094],[-715,-2384]],[[83554,25785],[-2452,-1950]],[[81102,23835],[-1430,6717],[-5209,4226]],[[74463,34778],[-204,3033]],[[74259,37811],[4494,1409]],[[78753,39220],[3575,-7693],[2962,-1191],[3780,2275],[2145,-1517]],[[92645,32069],[-1430,-975]],[[78753,39220],[2554,1408]],[[81307,40628],[6435,325]],[[87742,40953],[4494,-4984]],[[87129,21560],[-2758,-3575]],[[84371,17985],[-3269,5850]],[[84371,17985],[-6537,-542],[-8172,3034]],[[69662,20477],[3065,6067],[-409,3467]],[[72318,30011],[2145,4767]],[[69662,20477],[-4290,-2601],[-2962,1084],[-4086,-2059]],[[58324,16901],[-3677,10509],[-715,9209],[-1634,2276]],[[52298,38895],[1430,975]],[[53728,39870],[3473,-1517],[3370,4658]],[[60571,43011],[2452,-541],[1532,-9643]],[[64555,32827],[2860,-3575],[4903,759]],[[41777,3359],[-2554,6283],[-408,5742]],[[38815,15384],[4392,651],[2247,4008]],[[45454,20043],[11747,-5959]],[[57201,14084],[-5516,-9317],[-2860,325],[-4086,-4009],[-2962,2276]],[[58324,16901],[-1123,-2817]],[[45454,20043],[-6231,2384],[-2962,3683]],[[36261,26110],[1737,6826]],[[37998,32936],[4800,2492],[2860,3683]],[[45658,39111],[4393,1950],[2247,-2166]],[[25740,18201],[7559,6067]],[[33299,24268],[919,-541]],[[34218,23727],[2554,-8668],[2043,325]],[[41777,3359],[-2962,541],[-7252,-3033]],[[48518,91115],[307,-4659],[-3167,-6825]],[[45658,79631],[-2451,650]],[[43207,80281],[-1226,2058]],[[41981,82339],[-919,2709]],[[41062,85048],[-613,6392]],[[40449,91440],[409,542],[3268,-109],[4392,-758]],[[41062,85048],[-2554,-7259]],[[38508,77789],[-715,1408],[-613,-1625]],[[37180,77572],[-306,-433]],[[36874,77139],[-817,433]],[[36057,77572],[-2349,4659]],[[33708,82231],[2349,7909],[4392,1300]],[[36057,77572],[0,-2925]],[[36057,74647],[-4494,7367]],[[31563,82014],[2145,217]],[[30950,82556],[613,-542]],[[36057,74647],[0,-2383]],[[36057,72264],[-5618,-4659]],[[30439,67605],[-1124,6175],[-1940,1301]],[[27375,75081],[1021,6283],[2554,1192]],[[27375,75081],[-4290,1083]],[[23085,76164],[0,433]],[[23085,76597],[3881,3901],[-3473,5742]],[[23493,86240],[2247,2383],[5210,-6067]],[[18079,83423],[2861,1192],[2553,1625]],[[23085,76597],[-5006,6826]],[[12155,71722],[1328,9426],[4596,2275]],[[23085,76164],[-409,-3575]],[[22676,72589],[-2451,0]],[[20225,72589],[-4291,2275],[-3779,-3142]],[[12053,69772],[102,1950]],[[20225,72589],[-409,-5201]],[[19816,67388],[-7763,2384]],[[10623,66413],[1430,3359]],[[19816,67388],[306,-1625]],[[66700,96749],[4801,3250],[3371,-3684],[6332,-10834]],[[81204,85481],[-3575,-3250]],[[77629,82231],[-2757,-325]],[[74872,81906],[-5618,1733]],[[69254,83639],[-409,9643],[-2145,3467]],[[63023,95557],[3677,1192]],[[69254,83639],[-2452,-2058],[-4596,4875]],[[62206,86456],[817,9101]],[[50255,92848],[8682,4767],[4086,-2058]],[[62206,86456],[-3065,-4333]],[[59141,82123],[-7354,2058],[-1532,8667]],[[48518,91115],[1737,1733]],[[59141,82123],[1533,-6501]],[[60674,75622],[-4597,-108],[-2145,-3684]],[[53932,71830],[-5005,2817]],[[48927,74647],[-2145,3684]],[[46782,78331],[-1124,1300]],[[85903,80931],[8580,-4767],[1532,-8884]],[[96015,67280],[-4903,-5525]],[[91112,61755],[-3268,1300]],[[87844,63055],[306,6283],[-3064,5201]],[[85086,74539],[817,6392]],[[81204,85481],[4699,-4550]],[[85086,74539],[-3473,-2492]],[[81613,72047],[-2451,9317],[-1533,867]],[[94994,43878],[-5107,3467]],[[89887,47345],[-3882,4225]],[[86005,51570],[-306,6176]],[[85699,57746],[2145,5309]],[[91112,61755],[920,-3467],[3575,-542],[4392,-3250]],[[99999,54496],[-1736,-2601],[102,-7583]],[[96015,67280],[3984,-12784]],[[30439,67605],[613,-3900]],[[31052,63705],[-1941,1408]],[[29111,65113],[-4392,1192],[-2043,6284]],[[29111,65113],[-4086,-4117]],[[31052,63705],[4494,-5959]],[[35546,57746],[1941,-4225]],[[37487,53521],[-817,-4659]],[[36670,48862],[-4597,-7909]],[[32073,40953],[-2451,-2817]],[[29622,38136],[-4699,2492]],[[24923,40628],[2758,4442],[-1839,2925]],[[25842,47995],[-1838,4551]],[[25842,47995],[-3779,-4984]],[[22063,43011],[-1430,3034]],[[20633,46045],[715,4984]],[[36057,72264],[2656,-109]],[[38713,72155],[817,-1408]],[[39530,70747],[-3473,-2059],[-511,-10942]],[[36874,77139],[1839,-1300]],[[38713,75839],[0,-975]],[[38713,74864],[0,-2167]],[[38713,72697],[0,-542]],[[38508,77789],[-1328,-217]],[[41981,82339],[-2553,-6825]],[[39428,75514],[-715,325]],[[39428,75514],[0,-975]],[[39428,74539],[-307,0]],[[39121,74539],[-408,325]],[[39121,74539],[-102,-650]],[[39019,73889],[-306,-1192]],[[20633,46045],[-2758,-1842]],[[17875,44203],[-3473,6176]],[[37998,32936],[-3882,1625]],[[34116,34561],[-2043,6392]],[[36670,48862],[3473,-5525],[5515,-4226]],[[36261,26110],[-1226,1084]],[[35035,27194],[-919,7367]],[[34218,23727],[817,3467]],[[37487,53521],[3473,5308]],[[40960,58829],[3371,-216]],[[44331,58613],[3983,-2926],[817,-3792],[3167,-2383]],[[52298,49512],[1736,-7476]],[[54034,42036],[-306,-2166]],[[54034,42036],[6537,4226]],[[60571,46262],[0,-3251]],[[60571,46262],[1124,6609]],[[61695,52871],[3881,-3901],[5925,-3358]],[[71501,45612],[1532,-3576]],[[73033,42036],[-5414,-2491],[-1123,-6609],[-1941,-109]],[[17875,44203],[3065,-3467]],[[20940,40736],[3779,-2600]],[[24719,38136],[2451,-1625]],[[27170,36511],[205,-1300]],[[27375,35211],[-7253,-4009]],[[43207,80281],[-102,-5417]],[[43105,74864],[1736,-4442]],[[44841,70422],[-408,-650]],[[44433,69772],[-715,1192]],[[43718,70964],[-4290,3575]],[[33299,24268],[-3064,9101],[-2860,1842]],[[27170,36511],[2452,1625]],[[43718,70964],[-715,-651]],[[43003,70313],[-3984,3576]],[[39530,70747],[3473,-434]],[[44433,69772],[510,-975]],[[44943,68797],[-4698,-5417],[715,-4551]],[[71297,72264],[-1226,-6501]],[[70071,65763],[-3065,650]],[[67006,66413],[-1838,542]],[[65168,66955],[-3371,6392],[409,2384]],[[62206,75731],[5413,2275],[6844,-542]],[[74463,77464],[-3166,-5200]],[[71297,72264],[3983,-6609]],[[75280,65655],[1328,-3684]],[[76608,61971],[-6537,3792]],[[46782,78331],[-3677,-3467]],[[44943,68797],[1635,-4984]],[[46578,63813],[-2247,-5200]],[[22063,43011],[-1123,-2275]],[[24719,38136],[204,2492]],[[53932,71830],[-409,-1950]],[[53523,69880],[-2655,-1842],[-511,-4875],[-3779,650]],[[44841,70422],[4086,4225]],[[55260,64788],[6537,-6717]],[[61797,58071],[-2043,-4442]],[[59754,53629],[-3983,3142]],[[55771,56771],[-1430,2383],[919,5634]],[[60674,75622],[1532,109]],[[65168,66955],[-3371,-8884]],[[55260,64788],[-1737,5092]],[[52298,49512],[3473,7259]],[[59754,53629],[1941,-758]],[[74872,81906],[-409,-4442]],[[76608,61971],[2247,-108]],[[78855,61863],[0,-1300]],[[78855,60563],[-1838,-3792]],[[77017,56771],[-3984,-217],[-4392,4442],[-1635,5417]],[[77017,56771],[-3065,-7476]],[[73952,49295],[-2451,-3683]],[[81613,72047],[-3269,-4984]],[[78344,67063],[-3064,-1408]],[[78344,67063],[511,-5200]],[[73033,42036],[1226,-4225]],[[85699,57746],[-6844,2817]],[[87742,40953],[2145,6392]],[[86005,51570],[-4903,-8342]],[[81102,43228],[-3370,4767],[-3780,1300]],[[81307,40628],[-205,2600]]],"bbox":[20.443544026358865,40.85012924771101,22.984549498561677,42.369135514871175],"transform":{"scale":[0.00002541030882511637,0.00001519021457374739],"translate":[20.443544026358865,40.85012924771101]}}