{"type":"Topology","objects":{"a1":{"type":"GeometryCollection","geometries":[{"type":"Polygon","arcs":[[0,1,2,3,4]],"id":"MLT-5950","properties":{"adm1_code":"MLT-5950","iso_3166_2":"MT-21","name":"Kalkara","admin":"Malta","adm0_a3":"MLT","type_en":null}},{"type":"Polygon","arcs":[[-5,5,6,7,8,9,10]],"id":"MLT-5949","properties":{"adm1_code":"MLT-5949","iso_3166_2":"MT-60","name":"Valletta","admin":"Malta","adm0_a3":"MLT","type_en":null}},{"type":"Polygon","arcs":[[-10,11,12,13]],"id":"MLT-5936","properties":{"adm1_code":"MLT-5936","iso_3166_2":"MT-56","name":"Sliema","admin":"Malta","adm0_a3":"MLT","type_en":null}},{"type":"Polygon","arcs":[[-13,14,15,16,17,18]],"id":"MLT-5935","properties":{"adm1_code":"MLT-5935","iso_3166_2":"MT-48","name":"San Giljan","admin":"Malta","adm0_a3":"MLT","type_en":null}},{"type":"Polygon","arcs":[[-18,19,20,21]],"id":"MLT-5934","properties":{"adm1_code":"MLT-5934","iso_3166_2":"MT-40","name":"Pembroke","admin":"Malta","adm0_a3":"MLT","type_en":null}},{"type":"Polygon","arcs":[[-21,22,23,24,25,26,27,28]],"id":"MLT-5928","properties":{"adm1_code":"MLT-5928","iso_3166_2":"MT-38","name":"Naxxar","admin":"Malta","adm0_a3":"MLT","type_en":null}},{"type":"Polygon","arcs":[[-28,29,30,31,32]],"id":"MLT-5926","properties":{"adm1_code":"MLT-5926","iso_3166_2":"MT-51","name":"San Pawl il-Bahar","admin":"Malta","adm0_a3":"MLT","type_en":null}},{"type":"Polygon","arcs":[[-32,33,34]],"id":"MLT-5925","properties":{"adm1_code":"MLT-5925","iso_3166_2":"MT-30","name":"Mellieħa","admin":"Malta","adm0_a3":"MLT","type_en":null}},{"type":"Polygon","arcs":[[-31,35,36,37,-34]],"id":"MLT-5924","properties":{"adm1_code":"MLT-5924","iso_3166_2":"MT-31","name":"Mġarr","admin":"Malta","adm0_a3":"MLT","type_en":null}},{"type":"Polygon","arcs":[[-37,38,39,40,41,42,43,44,45]],"id":"MLT-5923","properties":{"adm1_code":"MLT-5923","iso_3166_2":"MT-46","name":"Rabat","admin":"Malta","adm0_a3":"MLT","type_en":null}},{"type":"Polygon","arcs":[[-45,46,47]],"id":"MLT-5947","properties":{"adm1_code":"MLT-5947","iso_3166_2":"MT-07","name":"Dingli","admin":"Malta","adm0_a3":"MLT","type_en":null}},{"type":"Polygon","arcs":[[-44,48,49,50,51,52,53,-47]],"id":"MLT-5948","properties":{"adm1_code":"MLT-5948","iso_3166_2":"MT-55","name":"Siġġiewi","admin":"Malta","adm0_a3":"MLT","type_en":null}},{"type":"Polygon","arcs":[[-53,54,55,56]],"id":"MLT-5972","properties":{"adm1_code":"MLT-5972","iso_3166_2":"MT-44","name":"Qrendi","admin":"Malta","adm0_a3":"MLT","type_en":null}},{"type":"Polygon","arcs":[[-56,57,58,59,60,61,62]],"id":"MLT-5973","properties":{"adm1_code":"MLT-5973","iso_3166_2":"MT-68","name":"Żurrieq","admin":"Malta","adm0_a3":"MLT","type_en":null}},{"type":"Polygon","arcs":[[-62,63,64,65]],"id":"MLT-5968","properties":{"adm1_code":"MLT-5968","iso_3166_2":"MT-05","name":"Birżebbuġa","admin":"Malta","adm0_a3":"MLT","type_en":null}},{"type":"Polygon","arcs":[[-65,66,67,68,69]],"id":"MLT-5963","properties":{"adm1_code":"MLT-5963","iso_3166_2":"MT-28","name":"Marsaxlokk","admin":"Malta","adm0_a3":"MLT","type_en":null}},{"type":"Polygon","arcs":[[-69,70,71,72]],"id":"MLT-5962","properties":{"adm1_code":"MLT-5962","iso_3166_2":"MT-27","name":"Marsaskala","admin":"Malta","adm0_a3":"MLT","type_en":null}},{"type":"Polygon","arcs":[[-3,73,74,-72,75,76,77]],"id":"MLT-5956","properties":{"adm1_code":"MLT-5956","iso_3166_2":"MT-64","name":"Żabbar","admin":"Malta","adm0_a3":"MLT","type_en":null}},{"type":"Polygon","arcs":[[-2,78,-74]],"id":"MLT-5952","properties":{"adm1_code":"MLT-5952","iso_3166_2":"MT-63","name":"Xgħajra","admin":"Malta","adm0_a3":"MLT","type_en":null}},{"type":"Polygon","arcs":[[79,80,81]],"id":"MLT-5974","properties":{"adm1_code":"MLT-5974","iso_3166_2":"MT-50","name":"San Lawrenz","admin":"Malta","adm0_a3":"MLT","type_en":null}},{"type":"Polygon","arcs":[[-82,82,83,84,85,86,87]],"id":"MLT-5981","properties":{"adm1_code":"MLT-5981","iso_3166_2":"MT-22","name":"Kerċem","admin":"Malta","adm0_a3":"MLT","type_en":null}},{"type":"Polygon","arcs":[[-87,88,89,90,91]],"id":"MLT-5984","properties":{"adm1_code":"MLT-5984","iso_3166_2":"MT-36","name":"Munxar","admin":"Malta","adm0_a3":"MLT","type_en":null}},{"type":"Polygon","arcs":[[-91,92,93,94]],"id":"MLT-5985","properties":{"adm1_code":"MLT-5985","iso_3166_2":"MT-52","name":"Sannat","admin":"Malta","adm0_a3":"MLT","type_en":null}},{"type":"Polygon","arcs":[[-94,95,96,97,98]],"id":"MLT-5987","properties":{"adm1_code":"MLT-5987","iso_3166_2":"MT-13","name":"Għajnsielem","admin":"Malta","adm0_a3":"MLT","type_en":null}},{"type":"Polygon","arcs":[[-98,99,100]],"id":"MLT-5980","properties":{"adm1_code":"MLT-5980","iso_3166_2":"MT-42","name":"Qala","admin":"Malta","adm0_a3":"MLT","type_en":null}},{"type":"Polygon","arcs":[[-97,101,102,-100]],"id":"MLT-5979","properties":{"adm1_code":"MLT-5979","iso_3166_2":"MT-37","name":"Nadur","admin":"Malta","adm0_a3":"MLT","type_en":null}},{"type":"Polygon","arcs":[[-102,103,104,105,106]],"id":"MLT-5978","properties":{"adm1_code":"MLT-5978","iso_3166_2":"MT-61","name":"Xagħra","admin":"Malta","adm0_a3":"MLT","type_en":null}},{"type":"Polygon","arcs":[[-106,107,108,109]],"id":"MLT-5977","properties":{"adm1_code":"MLT-5977","iso_3166_2":"MT-65","name":"Żebbuġ","admin":"Malta","adm0_a3":"MLT","type_en":null}},{"type":"Polygon","arcs":[[-84,110,111,-109,112]],"id":"MLT-5976","properties":{"adm1_code":"MLT-5976","iso_3166_2":"MT-16","name":"Għasri","admin":"Malta","adm0_a3":"MLT","type_en":null}},{"type":"Polygon","arcs":[[-81,113,-111,-83]],"id":"MLT-5975","properties":{"adm1_code":"MLT-5975","iso_3166_2":"MT-14","name":"Għarb","admin":"Malta","adm0_a3":"MLT","type_en":null}},{"type":"Polygon","arcs":[[-85,-113,-108,-105,114,115]],"id":"MLT-5982","properties":{"adm1_code":"MLT-5982","iso_3166_2":"MT-45","name":"Victoria","admin":"Malta","adm0_a3":"MLT","type_en":null}},{"type":"Polygon","arcs":[[-86,-116,116,-89]],"id":"MLT-5983","properties":{"adm1_code":"MLT-5983","iso_3166_2":"MT-10","name":"Fontana, Gozo","admin":"Malta","adm0_a3":"MLT","type_en":null}},{"type":"Polygon","arcs":[[-90,-117,-115,-104,-96,-93]],"id":"MLT-5986","properties":{"adm1_code":"MLT-5986","iso_3166_2":"MT-62","name":"Xewkija","admin":"Malta","adm0_a3":"MLT","type_en":null}},{"type":"Polygon","arcs":[[-27,117,118,-39,-36,-30]],"id":"MLT-5927","properties":{"adm1_code":"MLT-5927","iso_3166_2":"MT-32","name":"Mosta","admin":"Malta","adm0_a3":"MLT","type_en":null}},{"type":"Polygon","arcs":[[-26,119,120,121,-118]],"id":"MLT-5929","properties":{"adm1_code":"MLT-5929","iso_3166_2":"MT-24","name":"Lija","admin":"Malta","adm0_a3":"MLT","type_en":null}},{"type":"Polygon","arcs":[[-40,-119,-122,122,123,124,125,126]],"id":"MLT-5920","properties":{"adm1_code":"MLT-5920","iso_3166_2":"MT-01","name":"Attard","admin":"Malta","adm0_a3":"MLT","type_en":null}},{"type":"Polygon","arcs":[[-41,-127,127]],"id":"MLT-5922","properties":{"adm1_code":"MLT-5922","iso_3166_2":"MT-35","name":"Mtarfa","admin":"Malta","adm0_a3":"MLT","type_en":null}},{"type":"Polygon","arcs":[[-42,-128,-126]],"id":"MLT-5921","properties":{"adm1_code":"MLT-5921","iso_3166_2":"MT-29","name":"Mdina","admin":"Malta","adm0_a3":"MLT","type_en":null}},{"type":"Polygon","arcs":[[-43,-125,128,-49]],"id":"MLT-5946","properties":{"adm1_code":"MLT-5946","iso_3166_2":"MT-66","name":"Żebbuġ","admin":"Malta","adm0_a3":"MLT","type_en":null}},{"type":"Polygon","arcs":[[-50,-129,-124,129,130,131,132,133]],"id":"MLT-5945","properties":{"adm1_code":"MLT-5945","iso_3166_2":"MT-43","name":"Qormi","admin":"Malta","adm0_a3":"MLT","type_en":null}},{"type":"Polygon","arcs":[[-17,134,135,-23,-20]],"id":"MLT-5933","properties":{"adm1_code":"MLT-5933","iso_3166_2":"MT-57","name":"Swieqi","admin":"Malta","adm0_a3":"MLT","type_en":null}},{"type":"Polygon","arcs":[[-24,-136,136,137]],"id":"MLT-5932","properties":{"adm1_code":"MLT-5932","iso_3166_2":"MT-15","name":"Għargħur","admin":"Malta","adm0_a3":"MLT","type_en":null}},{"type":"Polygon","arcs":[[-16,138,139,140,141,-137,-135]],"id":"MLT-5937","properties":{"adm1_code":"MLT-5937","iso_3166_2":"MT-49","name":"San Ġwann","admin":"Malta","adm0_a3":"MLT","type_en":null}},{"type":"Polygon","arcs":[[-25,-138,-142,142,143,-120]],"id":"MLT-5931","properties":{"adm1_code":"MLT-5931","iso_3166_2":"MT-19","name":"Iklin","admin":"Malta","adm0_a3":"MLT","type_en":null}},{"type":"Polygon","arcs":[[-130,144,-143,-141,145,146]],"id":"MLT-5939","properties":{"adm1_code":"MLT-5939","iso_3166_2":"MT-04","name":"Birkirkara","admin":"Malta","adm0_a3":"MLT","type_en":null}},{"type":"Polygon","arcs":[[-121,-144,-145,-123]],"id":"MLT-5930","properties":{"adm1_code":"MLT-5930","iso_3166_2":"MT-02","name":"Balzan","admin":"Malta","adm0_a3":"MLT","type_en":null}},{"type":"Polygon","arcs":[[-131,-147,147,148]],"id":"MLT-5943","properties":{"adm1_code":"MLT-5943","iso_3166_2":"MT-54","name":"Santa Venera","admin":"Malta","adm0_a3":"MLT","type_en":null}},{"type":"Polygon","arcs":[[-132,-149,149,150,151]],"id":"MLT-5944","properties":{"adm1_code":"MLT-5944","iso_3166_2":"MT-18","name":"Ħamrun","admin":"Malta","adm0_a3":"MLT","type_en":null}},{"type":"Polygon","arcs":[[-133,-152,152,153,154]],"id":"MLT-5957","properties":{"adm1_code":"MLT-5957","iso_3166_2":"MT-26","name":"Marsa","admin":"Malta","adm0_a3":"MLT","type_en":null}},{"type":"Polygon","arcs":[[-51,-134,-155,155,156,157,158,-61,159,160,161]],"id":"MLT-5964","properties":{"adm1_code":"MLT-5964","iso_3166_2":"MT-25","name":"Luqa","admin":"Malta","adm0_a3":"MLT","type_en":null}},{"type":"Polygon","arcs":[[-52,-162,162,-58,-55]],"id":"MLT-5969","properties":{"adm1_code":"MLT-5969","iso_3166_2":"MT-33","name":"Mqabba","admin":"Malta","adm0_a3":"MLT","type_en":null}},{"type":"Polygon","arcs":[[-59,-163,-161,163]],"id":"MLT-5970","properties":{"adm1_code":"MLT-5970","iso_3166_2":"MT-23","name":"Kirkop","admin":"Malta","adm0_a3":"MLT","type_en":null}},{"type":"Polygon","arcs":[[-60,-164,-160]],"id":"MLT-5971","properties":{"adm1_code":"MLT-5971","iso_3166_2":"MT-47","name":"Safi","admin":"Malta","adm0_a3":"MLT","type_en":null}},{"type":"Polygon","arcs":[[-64,-159,164,165,166,167,-67]],"id":"MLT-5967","properties":{"adm1_code":"MLT-5967","iso_3166_2":"MT-17","name":"Għaxaq","admin":"Malta","adm0_a3":"MLT","type_en":null}},{"type":"Polygon","arcs":[[-68,-168,168,169,-76,-71]],"id":"MLT-5961","properties":{"adm1_code":"MLT-5961","iso_3166_2":"MT-67","name":"Żejtun","admin":"Malta","adm0_a3":"MLT","type_en":null}},{"type":"Polygon","arcs":[[-77,-170,170,171,172]],"id":"MLT-5959","properties":{"adm1_code":"MLT-5959","iso_3166_2":"MT-08","name":"Fgura","admin":"Malta","adm0_a3":"MLT","type_en":null}},{"type":"Polygon","arcs":[[-167,173,174,-171,-169]],"id":"MLT-5960","properties":{"adm1_code":"MLT-5960","iso_3166_2":"MT-59","name":"Tarxien","admin":"Malta","adm0_a3":"MLT","type_en":null}},{"type":"Polygon","arcs":[[-157,-174,-166,175]],"id":"MLT-5965","properties":{"adm1_code":"MLT-5965","iso_3166_2":"MT-53","name":"Santa Luċija","admin":"Malta","adm0_a3":"MLT","type_en":null}},{"type":"Polygon","arcs":[[-158,-176,-165]],"id":"MLT-5966","properties":{"adm1_code":"MLT-5966","iso_3166_2":"MT-11","name":"Gudja","admin":"Malta","adm0_a3":"MLT","type_en":null}},{"type":"Polygon","arcs":[[-154,176,177,178,-172,-175,-156]],"id":"MLT-5958","properties":{"adm1_code":"MLT-5958","iso_3166_2":"MT-39","name":"Paola","admin":"Malta","adm0_a3":"MLT","type_en":null}},{"type":"Polygon","arcs":[[-9,179,180,-139,-15,-12]],"id":"MLT-5938","properties":{"adm1_code":"MLT-5938","iso_3166_2":"MT-12","name":"Gżira","admin":"Malta","adm0_a3":"MLT","type_en":null}},{"type":"Polygon","arcs":[[-8,181,-177,-153,-151,182,183]],"id":"MLT-5954","properties":{"adm1_code":"MLT-5954","iso_3166_2":"MT-09","name":"Floriana","admin":"Malta","adm0_a3":"MLT","type_en":null}},{"type":"Polygon","arcs":[[-180,-184,184,185]],"id":"MLT-5941","properties":{"adm1_code":"MLT-5941","iso_3166_2":"MT-58","name":"Ta' Xbiex","admin":"Malta","adm0_a3":"MLT","type_en":null}},{"type":"Polygon","arcs":[[-7,186,187,-178,-182]],"id":"MLT-5953","properties":{"adm1_code":"MLT-5953","iso_3166_2":"MT-20","name":"Isla","admin":"Malta","adm0_a3":"MLT","type_en":null}},{"type":"Polygon","arcs":[[-78,-173,-179,-188,188]],"id":"MLT-5955","properties":{"adm1_code":"MLT-5955","iso_3166_2":"MT-06","name":"Cospicua","admin":"Malta","adm0_a3":"MLT","type_en":null}},{"type":"Polygon","arcs":[[-150,189,-185,-183]],"id":"MLT-5942","properties":{"adm1_code":"MLT-5942","iso_3166_2":"MT-41","name":"Pietà","admin":"Malta","adm0_a3":"MLT","type_en":null}},{"type":"Polygon","arcs":[[-140,-181,-186,-190,-148,-146]],"id":"MLT-5940","properties":{"adm1_code":"MLT-5940","iso_3166_2":"MT-34","name":"Msida","admin":"Malta","adm0_a3":"MLT","type_en":null}},{"type":"Polygon","arcs":[[-4,-189,-187,-6]],"id":"MLT-5951","properties":{"adm1_code":"MLT-5951","iso_3166_2":"MT-03","name":"Birgu","admin":"Malta","adm0_a3":"MLT","type_en":null}}]}},"arcs":[[[89795,33750],[6122,-3125]],[[95917,30625],[-2721,-2500]],[[93196,28125],[-2721,-625]],[[90475,27500],[-2041,5000]],[[88434,32500],[1361,1250]],[[88434,32500],[-1360,-1250]],[[87074,31250],[-1361,-1250]],[[85713,30000],[-2040,2500]],[[83673,32500],[1360,1250]],[[85033,33750],[1361,1250]],[[86394,35000],[3401,-1250]],[[85033,33750],[-4081,3125]],[[80952,36875],[4761,6875]],[[85713,43750],[681,-8750]],[[80952,36875],[-681,-625]],[[80271,36250],[-2040,3125]],[[78231,39375],[680,2500]],[[78911,41875],[4762,4375]],[[83673,46250],[2040,-2500]],[[78911,41875],[-5442,3750]],[[73469,45625],[680,6249]],[[74149,51874],[9524,-5624]],[[73469,45625],[-2041,0]],[[71428,45625],[-1361,-6250]],[[70067,39375],[-1360,-3125]],[[68707,36250],[-2721,625]],[[65986,36875],[-2721,5000]],[[63265,41875],[3401,16249]],[[66666,58124],[7483,-6250]],[[63265,41875],[-5442,-4375]],[[57823,37500],[-8164,10625]],[[49659,48125],[8844,11874]],[[58503,59999],[8163,-1875]],[[49659,48125],[-8163,-3750]],[[41496,44375],[17007,15624]],[[57823,37500],[0,-1250]],[[57823,36250],[-16327,-1875]],[[41496,34375],[0,10000]],[[57823,36250],[2721,-2500]],[[60544,33750],[-681,-2500]],[[59863,31250],[-2721,-3750]],[[57142,27500],[2721,-625]],[[59863,26875],[1361,-6250]],[[61224,20625],[-4762,-1250]],[[56462,19375],[-8843,1875]],[[47619,21250],[-6123,13125]],[[56462,19375],[-2721,-8125]],[[53741,11250],[-6122,10000]],[[61224,20625],[12245,-625]],[[73469,20000],[1360,-625]],[[74829,19375],[-2721,-5000]],[[72108,14375],[-2041,-3125]],[[70067,11250],[-5442,-6250]],[[64625,5000],[-10884,6250]],[[70067,11250],[4082,-625]],[[74149,10625],[-3401,-8125]],[[70748,2500],[-6123,2500]],[[74149,10625],[2721,625]],[[76870,11250],[2041,-1875]],[[78911,9375],[5442,-1875]],[[84353,7500],[1360,0]],[[85713,7500],[-3401,-7500]],[[82312,0],[-11564,2500]],[[85713,7500],[4082,4375]],[[89795,11875],[4082,-4375]],[[93877,7500],[-11565,-7500]],[[89795,11875],[0,1250]],[[89795,13125],[6122,625]],[[95917,13750],[4082,-1250]],[[99999,12500],[-6122,-5000]],[[95917,13750],[-1360,5625]],[[94557,19375],[4762,5000]],[[99319,24375],[680,-11875]],[[93196,28125],[4762,-1250]],[[97958,26875],[1361,-2500]],[[94557,19375],[-4762,1875]],[[89795,21250],[0,3750]],[[89795,25000],[680,2500]],[[95917,30625],[2041,-3750]],[[2721,83749],[-2721,13125]],[[0,96874],[7483,-5000]],[[7483,91874],[-4762,-8125]],[[7483,91874],[2041,0]],[[9524,91874],[2041,-1250]],[[11565,90624],[2040,-3750]],[[13605,86874],[0,-2500]],[[13605,84374],[-6802,-3125]],[[6803,81249],[-4082,2500]],[[13605,84374],[1361,-1250]],[[14966,83124],[0,-625]],[[14966,82499],[-2041,-3750]],[[12925,78749],[-6122,2500]],[[14966,82499],[8163,-2500]],[[23129,79999],[680,-1250]],[[23809,78749],[-10884,0]],[[23129,79999],[2721,5000]],[[25850,84999],[4082,-1250]],[[29932,83749],[680,-1875]],[[30612,81874],[-6803,-3125]],[[29932,83749],[6122,6250]],[[36054,89999],[-5442,-8125]],[[25850,84999],[2041,11875]],[[27891,96874],[8163,-6875]],[[25850,84999],[-6803,1875]],[[19047,86874],[-1360,3125]],[[17687,89999],[5442,9375]],[[23129,99374],[4762,-2500]],[[17687,89999],[-2721,1250]],[[14966,91249],[-2041,8750]],[[12925,99999],[10204,-625]],[[9524,91874],[-2041,7500]],[[7483,99374],[5442,625]],[[14966,91249],[-3401,-625]],[[0,96874],[7483,2500]],[[19047,86874],[-2721,-3125]],[[16326,83749],[-2721,3125]],[[16326,83749],[-1360,-625]],[[65986,36875],[0,-4375]],[[65986,32500],[-5442,1250]],[[68707,36250],[680,-1250]],[[69387,35000],[-680,-2500]],[[68707,32500],[-2721,0]],[[68707,32500],[3401,-2500]],[[72108,30000],[-680,-1875]],[[71428,28125],[-11565,-1250]],[[59863,26875],[0,1875]],[[59863,28750],[0,2500]],[[59863,28750],[-2721,-1250]],[[71428,28125],[2041,-8125]],[[72108,30000],[3401,-1250]],[[75509,28750],[2041,-1250]],[[77550,27500],[1361,-1875]],[[78911,25625],[-1361,-1875]],[[77550,23750],[-2721,-4375]],[[78231,39375],[-4762,-625]],[[73469,38750],[-2041,6875]],[[73469,38750],[0,-625]],[[73469,38125],[-3402,1250]],[[80271,36250],[-680,-1875]],[[79591,34375],[-4082,-625]],[[75509,33750],[-2040,1250]],[[73469,35000],[0,3125]],[[73469,35000],[-2041,-625]],[[71428,34375],[-2041,625]],[[72108,30000],[-680,4375]],[[75509,33750],[681,-2500]],[[76190,31250],[-681,-2500]],[[76190,31250],[3401,-1875]],[[79591,29375],[-2041,-1875]],[[79591,29375],[2721,625]],[[82312,30000],[0,-1250]],[[82312,28750],[-3401,-3125]],[[82312,28750],[680,-1875]],[[82992,26875],[-2040,-6250]],[[80952,20625],[-3402,3125]],[[80952,20625],[680,-1875]],[[81632,18750],[0,-3125]],[[81632,15625],[2041,-5000]],[[83673,10625],[2040,-3125]],[[84353,7500],[-4082,3750]],[[80271,11250],[-2721,3125]],[[77550,14375],[-5442,0]],[[77550,14375],[-680,-3125]],[[80271,11250],[-1360,-1875]],[[83673,10625],[2040,5000]],[[85713,15625],[0,1875]],[[85713,17500],[0,625]],[[85713,18125],[4082,-5000]],[[85713,18125],[1361,1250]],[[87074,19375],[2721,1875]],[[87074,19375],[-2041,3125]],[[85033,22500],[1361,1875]],[[86394,24375],[3401,625]],[[85713,17500],[-4081,1250]],[[81632,18750],[3401,3750]],[[85713,15625],[-4081,0]],[[82992,26875],[2041,1875]],[[85033,28750],[1361,-1875]],[[86394,26875],[0,-2500]],[[83673,32500],[-3402,1250]],[[80271,33750],[-680,625]],[[85713,30000],[-680,-1250]],[[82312,30000],[0,1875]],[[82312,31875],[1361,625]],[[82312,31875],[-2041,-625]],[[80271,31250],[0,2500]],[[87074,31250],[1360,-1875]],[[88434,29375],[-2040,-2500]],[[88434,29375],[2041,-1875]],[[79591,29375],[680,1875]]],"bbox":[14.183170993720324,35.80926662982198,14.564711141231868,36.072582992493295],"transform":{"scale":[0.000003815439629511731,0.00000263318995861277],"translate":[14.183170993720324,35.80926662982198]}}