{"type":"Topology","objects":{"a1":{"type":"GeometryCollection","geometries":[{"type":"Polygon","arcs":[[0,1]],"id":"MRT-2783","properties":{"adm1_code":"MRT-2783","iso_3166_2":"MR-11","name":"Tiris Zemmour","admin":"Mauritania","adm0_a3":"MRT","type_en":"Region"}},{"type":"MultiPolygon","arcs":[[[2,3,4]],[[5]]],"id":"MRT-2785","properties":{"adm1_code":"MRT-2785","iso_3166_2":"MR-08","name":"Dakhlet Nouadhibou","admin":"Mauritania","adm0_a3":"MRT","type_en":"Region"}},{"type":"Polygon","arcs":[[6,-2,7,8,9,10,11,-3]],"id":"MRT-2795","properties":{"adm1_code":"MRT-2795","iso_3166_2":"MR-07","name":"Adrar","admin":"Mauritania","adm0_a3":"MRT","type_en":"Region"}},{"type":"Polygon","arcs":[[12,13,14,15,16]],"id":"MRT-2784","properties":{"adm1_code":"MRT-2784","iso_3166_2":"MR-05","name":"Brakna","admin":"Mauritania","adm0_a3":"MRT","type_en":"Region"}},{"type":"Polygon","arcs":[[-11,-13,17,18,19,20]],"id":"MRT-2788","properties":{"adm1_code":"MRT-2788","iso_3166_2":"MR-06","name":"Trarza","admin":"Mauritania","adm0_a3":"MRT","type_en":"Region"}},{"type":"Polygon","arcs":[[-16,21,22,23]],"id":"MRT-2791","properties":{"adm1_code":"MRT-2791","iso_3166_2":"MR-04","name":"Gorgol","admin":"Mauritania","adm0_a3":"MRT","type_en":"Region"}},{"type":"Polygon","arcs":[[24,-23,25]],"id":"MRT-2790","properties":{"adm1_code":"MRT-2790","iso_3166_2":"MR-10","name":"Guidimaka","admin":"Mauritania","adm0_a3":"MRT","type_en":"Region"}},{"type":"Polygon","arcs":[[26,27,28,-9]],"id":"MRT-2796","properties":{"adm1_code":"MRT-2796","iso_3166_2":"MR-01","name":"Hodh ech Chargui","admin":"Mauritania","adm0_a3":"MRT","type_en":"Region"}},{"type":"Polygon","arcs":[[29,30,-28,31]],"id":"MRT-2797","properties":{"adm1_code":"MRT-2797","iso_3166_2":"MR-02","name":"Hodh el Gharbi","admin":"Mauritania","adm0_a3":"MRT","type_en":"Region"}},{"type":"Polygon","arcs":[[32,-26,-22,-15,33,-30]],"id":"MRT-2789","properties":{"adm1_code":"MRT-2789","iso_3166_2":"MR-03","name":"Assaba","admin":"Mauritania","adm0_a3":"MRT","type_en":"Region"}},{"type":"Polygon","arcs":[[-4,-12,-21,34]],"id":"MRT-2786","properties":{"adm1_code":"MRT-2786","iso_3166_2":"MR-12","name":"Inchiri","admin":"Mauritania","adm0_a3":"MRT","type_en":"Region"}},{"type":"Polygon","arcs":[[-19,35]],"id":"MRT-2787","properties":{"adm1_code":"MRT-2787","iso_3166_2":"MR-NKC","name":"Nouakchott","admin":"Mauritania","adm0_a3":"MRT","type_en":"District"}},{"type":"Polygon","arcs":[[-10,-29,-31,-34,-14]],"id":"MRT-2798","properties":{"adm1_code":"MRT-2798","iso_3166_2":"MR-09","name":"Tagant","admin":"Mauritania","adm0_a3":"MRT","type_en":"Region"}}]}},"arcs":[[[33023,54406],[-487,7301],[-593,2052],[381,1052],[847,1079],[3217,2013],[2181,420],[1778,763],[846,211],[128,408],[0,4867],[0,6643],[0,8458],[4932,0],[5757,0],[4107,0],[7388,0],[4805,13],[212,145],[0,5261],[-21,4907],[4847,-2802],[6456,-3709],[4848,-2802],[3218,-1855],[5270,-3039],[6859,-4104],[-9039,0],[-5419,-13],[720,-5735]],[[86261,75940],[-34928,-22034],[-12976,-1341],[-5334,1841]],[[22735,52420],[995,-1513]],[[23730,50907],[-13590,53],[2116,-3302],[-5292,-9155],[-783,-1079]],[[6181,37424],[318,579],[-805,355],[1228,1749],[-529,1040],[698,881],[-402,816],[508,631],[-783,934],[-783,1907],[-720,842],[-593,-789],[-910,750],[-656,1591],[-466,540],[-1058,1710],[-678,-961],[85,-789],[-423,-1315],[-212,855],[1016,3670],[5631,0],[4805,0],[5504,0],[5779,0]],[[5737,40265],[105,-736],[-550,-961],[-254,671],[699,1026]],[[22735,52420],[6477,0],[3959,0],[-148,1986]],[[86261,75940],[614,-5144],[487,-4064]],[[87362,66732],[-64,-132],[-13018,-26808],[-106,-224]],[[74174,39568],[-24852,-118],[-3154,-2407],[-233,-1645],[-1863,921],[-1735,-1118],[-3684,-2236],[-2667,-2736]],[[35986,30229],[-4678,3538],[-7981,0]],[[23327,33767],[22,3433],[529,13497],[-148,210]],[[17400,15154],[932,644],[1757,829],[402,434],[2032,1421],[2942,4130],[1842,1566],[2286,1591],[6393,4460]],[[35986,30229],[1567,-2263],[-233,-2210],[-318,-4038],[1101,-1092],[825,-645]],[[38928,19981],[-317,-381],[-1164,-474],[-212,-381],[-1715,-592],[-592,-631],[-191,-869]],[[34737,16653],[-889,-1933],[-1461,-329],[-381,-447],[-190,-842],[-3323,-855],[-360,-145],[-127,-671],[-572,-368]],[[27434,11063],[-762,-303],[-783,711],[-466,157],[-106,869],[-296,131],[-2688,2250],[-508,197],[-614,-224],[-932,-26],[-2328,145],[-551,184]],[[17400,15154],[-1439,-711],[-868,-131],[-2117,-13],[-487,-395],[-995,-263],[-1143,250],[-1968,-145],[-635,474],[-974,-211],[-614,-421],[-445,-1828],[-698,-579],[-339,-1302],[0,-881],[-275,-737],[127,1342],[-106,2328],[593,1802],[63,1197],[953,2394],[529,789],[868,1763],[762,2263],[233,973],[148,1750]],[[8573,24862],[2032,13],[0,4038],[-2265,-13]],[[8340,28900],[-84,750],[-508,1144],[-276,1723],[-359,1224]],[[7113,33741],[16214,26]],[[34737,16653],[170,-289],[-233,-1184],[423,-263],[360,-710],[-233,-750],[868,210],[1863,-342],[317,-1868],[635,382],[593,-290],[148,-789],[995,-118],[720,-434],[42,-908]],[[41405,9300],[-1101,-421],[-783,-39],[-466,-579],[-1375,-1197],[-254,-724],[-763,-749],[-973,-1632],[-339,-1118]],[[35351,2841],[-275,619],[-614,105],[85,736],[-487,316],[-466,1250],[-1037,-92],[-254,842],[-953,157],[85,592],[-487,645],[-212,1158],[-656,1091],[-741,763],[-1566,-381],[-339,237],[0,184]],[[43882,6090],[-424,-539],[-508,-1394],[-359,-1973],[381,-158],[-191,-1079],[-1122,-908],[-2371,-39],[-952,566],[-551,578],[-190,632],[-1228,842],[-550,-79],[-466,302]],[[41405,9300],[572,-289],[825,52],[318,513],[-212,527],[1186,-66],[550,-369],[889,-118],[-508,-526],[-423,-1092],[-297,-329],[-423,-1513]],[[87362,66732],[550,-4617],[677,-5788],[868,-7209],[635,-5393],[593,-4999],[868,-7669],[825,-7353],[635,-5762],[445,-3933],[148,-250],[1969,-1289],[85,-184],[-1271,-6432],[-63,-106],[-6562,0],[-4213,0],[-5546,0],[-4085,0],[-8023,14]],[[65897,5762],[360,342],[-85,2538],[-804,1645],[1608,2078],[-190,553],[1164,1118],[3768,3933],[-2519,2617],[-4509,-552]],[[64690,20034],[9484,19534]],[[52984,5222],[-656,4078],[-910,842],[148,1131],[-635,500],[-64,434],[297,960],[-402,435],[740,263],[254,447],[-825,381],[-487,1013],[-762,605],[-42,1303],[127,960],[-254,500],[254,973],[-85,868],[-550,1053],[-297,1065],[127,526]],[[48962,23559],[6097,-1631],[4974,303],[4657,-2197]],[[65897,5762],[-1122,0],[-1715,0],[149,1525],[-360,-13],[-614,-1013],[233,-947],[-2033,-79],[-1333,-473],[-953,79],[-1460,-66],[-1440,500],[-1841,52],[-424,-105]],[[52984,5222],[-1228,-52],[-84,-645],[-656,-434],[-720,-1473],[-1059,1341],[-2053,1447],[-910,1197],[-953,-13],[-973,-592],[-466,92]],[[38928,19981],[784,-710],[2476,-802],[1270,421],[1503,-119],[339,434],[85,1631],[402,1026],[360,1316],[-551,644],[-677,1447],[212,908],[508,224],[1333,-106],[911,250],[148,711],[720,618],[1100,381],[-889,-4696]],[[7113,33741],[-593,1065],[-699,737],[-868,395],[-381,999],[932,-52],[677,539]],[[8573,24862],[64,592],[-297,3446]]],"bbox":[-17.082357012566604,14.775226434183821,-4.821162068045652,27.28604511560478],"transform":{"scale":[0.00012261317557696528,0.00012510943790858866],"translate":[-17.082357012566604,14.775226434183821]}}