{"type":"Topology","objects":{"a1":{"type":"GeometryCollection","geometries":[{"type":"Polygon","arcs":[[0,1,2]],"id":"MSR-5089","properties":{"adm1_code":"MSR-5089","iso_3166_2":"MS-P","name":"Saint Peter","admin":"Montserrat","adm0_a3":"MSR","type_en":"Parish"}},{"type":"Polygon","arcs":[[-3,3,4]],"id":"MSR-5087","properties":{"adm1_code":"MSR-5087","iso_3166_2":"MS-A","name":"Saint Anthony","admin":"Montserrat","adm0_a3":"MSR","type_en":"Parish"}},{"type":"Polygon","arcs":[[-2,5,-4]],"id":"MSR-5088","properties":{"adm1_code":"MSR-5088","iso_3166_2":"MS-G","name":"Saint Georges","admin":"Montserrat","adm0_a3":"MSR","type_en":"Parish"}}]}},"arcs":[[[0,49999],[75861,50000]],[[75861,99999],[-27586,-67646]],[[48275,32353],[-48275,17646]],[[48275,32353],[51724,-32353]],[[99999,0],[-99999,49999]],[[75861,99999],[24138,-99999]]],"bbox":[-62.22608344568532,16.720476063418175,-62.15081362066603,16.776430790485833],"transform":{"scale":[7.527057772506794e-7,5.595528662052367e-7],"translate":[-62.22608344568532,16.720476063418175]}}