{"type":"Topology","objects":{"a1":{"type":"GeometryCollection","geometries":[{"type":"Polygon","arcs":[[0,1,2]],"id":"MUS-5192","properties":{"adm1_code":"MUS-5192","iso_3166_2":"MU-RR","name":"Rivière du Rempart","admin":"Mauritius","adm0_a3":"MUS","type_en":"District"}},{"type":"Polygon","arcs":[[-3,3,4,5,6,7]],"id":"MUS-5187","properties":{"adm1_code":"MUS-5187","iso_3166_2":"MU-PA","name":"Pamplemousses","admin":"Mauritius","adm0_a3":"MUS","type_en":"District"}},{"type":"Polygon","arcs":[[-7,8,9,10]],"id":"MUS-5190","properties":{"adm1_code":"MUS-5190","iso_3166_2":"MU-PL","name":"Port Louis city","admin":"Mauritius","adm0_a3":"MUS","type_en":"City"}},{"type":"Polygon","arcs":[[-10,11,12,13,14,15,16,17,18]],"id":"MUS-5193","properties":{"adm1_code":"MUS-5193","iso_3166_2":"MU-BL","name":"Rivière Noire","admin":"Mauritius","adm0_a3":"MUS","type_en":"District"}},{"type":"Polygon","arcs":[[-18,19,20,21]],"id":"MUS-5195","properties":{"adm1_code":"MUS-5195","iso_3166_2":"MU-SA","name":"Savanne","admin":"Mauritius","adm0_a3":"MUS","type_en":"District"}},{"type":"Polygon","arcs":[[-21,22,23,24,25]],"id":"MUS-5185","properties":{"adm1_code":"MUS-5185","iso_3166_2":"MU-GP","name":"Grand Port","admin":"Mauritius","adm0_a3":"MUS","type_en":"District"}},{"type":"Polygon","arcs":[[-2,26,-25,27,-4]],"id":"MUS-5184","properties":{"adm1_code":"MUS-5184","iso_3166_2":"MU-FL","name":"Flacq","admin":"Mauritius","adm0_a3":"MUS","type_en":"District"}},{"type":"Polygon","arcs":[[28]],"id":"MUS-5180","properties":{"adm1_code":"MUS-5180","iso_3166_2":"MU-AG","name":"Agaléga","admin":"Mauritius","adm0_a3":"MUS","type_en":"Dependency"}},{"type":"Polygon","arcs":[[29]],"id":"MUS-5194","properties":{"adm1_code":"MUS-5194","iso_3166_2":"MU-RO","name":"Rodrigues","admin":"Mauritius","adm0_a3":"MUS","type_en":"Dependency"}},{"type":"Polygon","arcs":[[-5,-28,-24,30,31]],"id":"MUS-5186","properties":{"adm1_code":"MUS-5186","iso_3166_2":"MU-MO","name":"Moka","admin":"Mauritius","adm0_a3":"MUS","type_en":"District"}},{"type":"Polygon","arcs":[[-13,32,-31,-23,-20,-17,33,34,35,36,37]],"id":"MUS-5188","properties":{"adm1_code":"MUS-5188","iso_3166_2":"MU-PW","name":"Plaines Wilhems","admin":"Mauritius","adm0_a3":"MUS","type_en":"District"}},{"type":"Polygon","arcs":[[-14,-38,38]],"id":"MUS-5181","properties":{"adm1_code":"MUS-5181","iso_3166_2":"MU-BR","name":"Beau Bassin-Rose Hill","admin":"Mauritius","adm0_a3":"MUS","type_en":"City"}},{"type":"Polygon","arcs":[[-6,-32,-33,-12,-9]],"id":"MUS-5189","properties":{"adm1_code":"MUS-5189","iso_3166_2":"MU-PL","name":"Port Louis","admin":"Mauritius","adm0_a3":"MUS","type_en":"City"}},{"type":"Polygon","arcs":[[-15,-39,-37,39]],"id":"MUS-5191","properties":{"adm1_code":"MUS-5191","iso_3166_2":"MU-QB","name":"Quatre Bornes","admin":"Mauritius","adm0_a3":"MUS","type_en":"City"}},{"type":"Polygon","arcs":[[-16,-40,-36,40,-34]],"id":"MUS-5196","properties":{"adm1_code":"MUS-5196","iso_3166_2":"MU-VP","name":"Vacoas-Phoenix","admin":"Mauritius","adm0_a3":"MUS","type_en":"City"}},{"type":"Polygon","arcs":[[-35,-41]],"id":"MUS-5183","properties":{"adm1_code":"MUS-5183","iso_3166_2":"MU-CU","name":"Curepipe","admin":"Mauritius","adm0_a3":"MUS","type_en":"City"}}]}},"arcs":[[[15192,5073],[1269,64],[933,-1001]],[[17394,4136],[-1455,-582]],[[15939,3554],[-747,1519]],[[15939,3554],[-336,-291]],[[15603,3263],[-896,-161]],[[14707,3102],[-672,775]],[[14035,3877],[-75,0]],[[13960,3877],[560,953],[672,243]],[[14035,3877],[-485,-436]],[[13550,3441],[-38,48]],[[13512,3489],[448,388]],[[13550,3441],[74,-210]],[[13624,3231],[-149,-307]],[[13475,2924],[-37,-355]],[[13438,2569],[0,-340]],[[13438,2229],[186,-371]],[[13624,1858],[224,-937]],[[13848,921],[-1381,-291],[112,-436]],[[12579,194],[-597,695],[187,1631],[1343,969]],[[13848,921],[859,210]],[[14707,1131],[970,-226],[262,-663]],[[15939,242],[-1829,-242],[-1531,194]],[[14707,1131],[784,581]],[[15491,1712],[970,146]],[[16461,1858],[1568,226]],[[18029,2084],[-933,-808],[224,-371],[-1381,-663]],[[17394,4136],[896,-1244],[-261,-808]],[[16461,1858],[-858,1405]],[[0,99999],[261,-162],[374,-387],[-262,48],[-298,275],[-75,226]],[[99999,8239],[-112,-436],[-1493,-436],[336,807],[1269,65]],[[15491,1712],[-1643,1487]],[[13848,3199],[859,-97]],[[13624,3231],[224,-32]],[[13624,1858],[187,64]],[[13811,1922],[299,-242],[709,194],[-373,291]],[[14446,2165],[-262,194]],[[14184,2359],[-224,274]],[[13960,2633],[-485,291]],[[13960,2633],[-522,-64]],[[14184,2359],[-746,-130]],[[14446,2165],[-635,-243]]],"bbox":[56.52374532267251,-20.517394800106175,63.47711984773002,-10.330343019259587],"transform":{"scale":[0.00006953444059498107,0.00010187153652383111],"translate":[56.52374532267251,-20.517394800106175]}}