{"type":"Topology","objects":{"a1":{"type":"GeometryCollection","geometries":[{"type":"Polygon","arcs":[[0,1]],"id":"NCL-559","properties":{"adm1_code":"NCL-559","iso_3166_2":"NC-X03~","name":"Nord","admin":"New Caledonia","adm0_a3":"NCL","type_en":"Province"}},{"type":"MultiPolygon","arcs":[[[2]],[[-2,3]]],"id":"NCL-1259","properties":{"adm1_code":"NCL-1259","iso_3166_2":"NC-X02~","name":"Sud","admin":"New Caledonia","adm0_a3":"NCL","type_en":"Province"}},{"type":"MultiPolygon","arcs":[[[4]],[[5]]],"id":"NCL-1258","properties":{"adm1_code":"NCL-1258","iso_3166_2":"NC-X01~","name":"Îles Loyauté","admin":"New Caledonia","adm0_a3":"NCL","type_en":"Province"}}]}},"arcs":[[[26156,50642],[-697,-707],[-2407,3471],[-1583,707],[-2090,3920],[-823,3984],[-1773,836],[-1774,4499],[-3293,2120],[-3800,5206],[-190,2185],[-1710,4884],[-2279,1993],[-1457,8804],[-2280,0],[253,7455],[3230,-5398],[1520,-1479],[1710,1993],[4370,-2571],[2090,-3535],[3546,-3213],[2470,-4306],[5700,-5912],[3863,-1157],[1267,-4113],[1646,-2442],[1837,-643],[-127,-4177],[4750,-5334],[507,-2957],[3166,-1349],[2343,-3214],[1457,257],[3863,-3599],[380,-2120]],[[49841,44730],[-1330,-3021],[-3863,257],[-2343,2571],[-2597,321],[-4306,4242],[-2723,-65],[-380,2186],[-2470,1671],[-2090,-515],[-1583,-1735]],[[84926,3920],[-316,-3920],[-2154,964],[127,3278],[2343,-322]],[[49841,44730],[823,257],[2470,-3085],[4750,-4242],[3927,-6619],[2406,-1928],[2597,-3535],[2343,-771],[1583,-1735],[507,-2571],[1647,-3213],[-317,-3471],[-2533,-2699],[-824,1992],[-2406,-2249],[-3547,4499],[-3800,-386],[-4686,5334],[-1203,-64],[-2217,4113],[-63,2571],[-2027,3020],[-1710,-2056],[-2976,3791],[-1140,-192],[-2153,4884],[-1330,-900],[-4244,3278],[-1013,2828],[-1203,-707],[-2977,1799],[-823,2442],[-2027,1221],[-1519,4306]],[[99999,48329],[-253,-6620],[-2280,-2185],[-1837,771],[-2533,5334],[-507,4949],[3230,-771],[1013,-2250],[3167,772]],[[82773,64138],[-253,-4691],[-2217,-643],[-1583,2828],[-2913,707],[-1964,3020],[380,3149],[1267,1029],[1267,3920],[-760,2956],[1393,1607],[2343,-2314],[-633,-2056],[63,-4628],[2470,-1542],[1140,-3342]]],"bbox":[164.04020158470382,-22.67000606494419,168.13851378144358,-20.10925443796563],"transform":{"scale":[0.000040983531802715583,0.000025607772347509055],"translate":[164.04020158470382,-22.67000606494419]}}