{"type":"Topology","objects":{"a1":{"type":"GeometryCollection","geometries":[{"type":"Polygon","arcs":[[0,1,2,3]],"id":"NGA-2879","properties":{"adm1_code":"NGA-2879","iso_3166_2":"NG-KE","name":"Kebbi","admin":"Nigeria","adm0_a3":"NGA","type_en":"State"}},{"type":"Polygon","arcs":[[-3,4,5,6,7,8,9]],"id":"NGA-2851","properties":{"adm1_code":"NGA-2851","iso_3166_2":"NG-NI","name":"Niger","admin":"Nigeria","adm0_a3":"NGA","type_en":"State"}},{"type":"Polygon","arcs":[[-9,10,11,12,13,14]],"id":"NGA-2849","properties":{"adm1_code":"NGA-2849","iso_3166_2":"NG-KW","name":"Kwara","admin":"Nigeria","adm0_a3":"NGA","type_en":"State"}},{"type":"Polygon","arcs":[[15,16,17,18,19,20]],"id":"NGA-2852","properties":{"adm1_code":"NGA-2852","iso_3166_2":"NG-OG","name":"Ogun","admin":"Nigeria","adm0_a3":"NGA","type_en":"State"}},{"type":"Polygon","arcs":[[-14,21,-16,22]],"id":"NGA-2856","properties":{"adm1_code":"NGA-2856","iso_3166_2":"NG-OY","name":"Oyo","admin":"Nigeria","adm0_a3":"NGA","type_en":"State"}},{"type":"Polygon","arcs":[[-20,23]],"id":"NGA-2850","properties":{"adm1_code":"NGA-2850","iso_3166_2":"NG-LA","name":"Lagos","admin":"Nigeria","adm0_a3":"NGA","type_en":"State"}},{"type":"Polygon","arcs":[[24,25,26,27]],"id":"NGA-2839","properties":{"adm1_code":"NGA-2839","iso_3166_2":"NG-BO","name":"Borno","admin":"Nigeria","adm0_a3":"NGA","type_en":"State"}},{"type":"Polygon","arcs":[[-25,28,29,30]],"id":"NGA-2881","properties":{"adm1_code":"NGA-2881","iso_3166_2":"NG-AD","name":"Adamawa","admin":"Nigeria","adm0_a3":"NGA","type_en":"State"}},{"type":"Polygon","arcs":[[-30,31,32,33,34,35,36]],"id":"NGA-2848","properties":{"adm1_code":"NGA-2848","iso_3166_2":"NG-TA","name":"Taraba","admin":"Nigeria","adm0_a3":"NGA","type_en":"State"}},{"type":"Polygon","arcs":[[-33,37,38,39,40,41,42]],"id":"NGA-2846","properties":{"adm1_code":"NGA-2846","iso_3166_2":"NG-BE","name":"Benue","admin":"Nigeria","adm0_a3":"NGA","type_en":"State"}},{"type":"Polygon","arcs":[[43,44,45,46,-39]],"id":"NGA-2847","properties":{"adm1_code":"NGA-2847","iso_3166_2":"NG-CR","name":"Cross River","admin":"Nigeria","adm0_a3":"NGA","type_en":"State"}},{"type":"Polygon","arcs":[[-1,47,48]],"id":"NGA-2871","properties":{"adm1_code":"NGA-2871","iso_3166_2":"NG-SO","name":"Sokoto","admin":"Nigeria","adm0_a3":"NGA","type_en":"State"}},{"type":"Polygon","arcs":[[-2,-49,49,50,51,-5]],"id":"NGA-2872","properties":{"adm1_code":"NGA-2872","iso_3166_2":"NG-ZA","name":"Zamfara","admin":"Nigeria","adm0_a3":"NGA","type_en":"State"}},{"type":"Polygon","arcs":[[-27,52,53,54,55]],"id":"NGA-2873","properties":{"adm1_code":"NGA-2873","iso_3166_2":"NG-YO","name":"Yobe","admin":"Nigeria","adm0_a3":"NGA","type_en":"State"}},{"type":"Polygon","arcs":[[56,57,58,59,-51]],"id":"NGA-2870","properties":{"adm1_code":"NGA-2870","iso_3166_2":"NG-KT","name":"Katsina","admin":"Nigeria","adm0_a3":"NGA","type_en":"State"}},{"type":"Polygon","arcs":[[-55,60,61,-58,62]],"id":"NGA-2868","properties":{"adm1_code":"NGA-2868","iso_3166_2":"NG-JI","name":"Jigawa","admin":"Nigeria","adm0_a3":"NGA","type_en":"State"}},{"type":"Polygon","arcs":[[-18,63,64,65,66,67,68]],"id":"NGA-2853","properties":{"adm1_code":"NGA-2853","iso_3166_2":"NG-ON","name":"Ondo","admin":"Nigeria","adm0_a3":"NGA","type_en":"State"}},{"type":"Polygon","arcs":[[-68,69,70,71,72,73]],"id":"NGA-2860","properties":{"adm1_code":"NGA-2860","iso_3166_2":"NG-DE","name":"Delta","admin":"Nigeria","adm0_a3":"NGA","type_en":"State"}},{"type":"Polygon","arcs":[[-73,74,75]],"id":"NGA-2845","properties":{"adm1_code":"NGA-2845","iso_3166_2":"NG-BY","name":"Bayelsa","admin":"Nigeria","adm0_a3":"NGA","type_en":"State"}},{"type":"MultiPolygon","arcs":[[[-72,76,77,78,79,80,-75]],[[81]]],"id":"NGA-2844","properties":{"adm1_code":"NGA-2844","iso_3166_2":"NG-RI","name":"Rivers","admin":"Nigeria","adm0_a3":"NGA","type_en":"State"}},{"type":"Polygon","arcs":[[-45,82,-80,83]],"id":"NGA-2842","properties":{"adm1_code":"NGA-2842","iso_3166_2":"NG-AK","name":"Akwa Ibom","admin":"Nigeria","adm0_a3":"NGA","type_en":"State"}},{"type":"Polygon","arcs":[[-46,-84,-79,84,85,86,87]],"id":"NGA-2841","properties":{"adm1_code":"NGA-2841","iso_3166_2":"NG-AB","name":"Abia","admin":"Nigeria","adm0_a3":"NGA","type_en":"State"}},{"type":"Polygon","arcs":[[-40,-47,-88,88]],"id":"NGA-2863","properties":{"adm1_code":"NGA-2863","iso_3166_2":"NG-EB","name":"Ebonyi","admin":"Nigeria","adm0_a3":"NGA","type_en":"State"}},{"type":"Polygon","arcs":[[-71,89,90,-86,91,-77]],"id":"NGA-2857","properties":{"adm1_code":"NGA-2857","iso_3166_2":"NG-AN","name":"Anambra","admin":"Nigeria","adm0_a3":"NGA","type_en":"State"}},{"type":"Polygon","arcs":[[-67,92,-70]],"id":"NGA-2861","properties":{"adm1_code":"NGA-2861","iso_3166_2":"NG-ED","name":"Edo","admin":"Nigeria","adm0_a3":"NGA","type_en":"State"}},{"type":"Polygon","arcs":[[-36,93,94,95,-61,-54,96]],"id":"NGA-2858","properties":{"adm1_code":"NGA-2858","iso_3166_2":"NG-BA","name":"Bauchi","admin":"Nigeria","adm0_a3":"NGA","type_en":"State"}},{"type":"Polygon","arcs":[[-35,97,98,-94]],"id":"NGA-2866","properties":{"adm1_code":"NGA-2866","iso_3166_2":"NG-PL","name":"Plateau","admin":"Nigeria","adm0_a3":"NGA","type_en":"State"}},{"type":"Polygon","arcs":[[-34,-43,99,100,101,-98]],"id":"NGA-2867","properties":{"adm1_code":"NGA-2867","iso_3166_2":"NG-NA","name":"Nassarawa","admin":"Nigeria","adm0_a3":"NGA","type_en":"State"}},{"type":"Polygon","arcs":[[-26,-31,-37,-97,-53]],"id":"NGA-2859","properties":{"adm1_code":"NGA-2859","iso_3166_2":"NG-GO","name":"Gombe","admin":"Nigeria","adm0_a3":"NGA","type_en":"State"}},{"type":"Polygon","arcs":[[-41,-89,-87,-91,102]],"id":"NGA-2862","properties":{"adm1_code":"NGA-2862","iso_3166_2":"NG-EN","name":"Enugu","admin":"Nigeria","adm0_a3":"NGA","type_en":"State"}},{"type":"Polygon","arcs":[[-8,103,-100,-42,-103,-90,-93,-66,104,-11]],"id":"NGA-2865","properties":{"adm1_code":"NGA-2865","iso_3166_2":"NG-KO","name":"Kogi","admin":"Nigeria","adm0_a3":"NGA","type_en":"State"}},{"type":"Polygon","arcs":[[-13,105,-64,-17,-22]],"id":"NGA-2855","properties":{"adm1_code":"NGA-2855","iso_3166_2":"NG-OS","name":"Osun","admin":"Nigeria","adm0_a3":"NGA","type_en":"State"}},{"type":"Polygon","arcs":[[-78,-92,-85]],"id":"NGA-2843","properties":{"adm1_code":"NGA-2843","iso_3166_2":"NG-IM","name":"Imo","admin":"Nigeria","adm0_a3":"NGA","type_en":"State"}},{"type":"Polygon","arcs":[[-12,-105,-65,-106]],"id":"NGA-2854","properties":{"adm1_code":"NGA-2854","iso_3166_2":"NG-EK","name":"Ekiti","admin":"Nigeria","adm0_a3":"NGA","type_en":"State"}},{"type":"Polygon","arcs":[[-6,-52,-60,106,-95,-99,-102,107]],"id":"NGA-2864","properties":{"adm1_code":"NGA-2864","iso_3166_2":"NG-KD","name":"Kaduna","admin":"Nigeria","adm0_a3":"NGA","type_en":"State"}},{"type":"Polygon","arcs":[[-59,-62,-96,-107]],"id":"NGA-2869","properties":{"adm1_code":"NGA-2869","iso_3166_2":"NG-KN","name":"Kano","admin":"Nigeria","adm0_a3":"NGA","type_en":"State"}},{"type":"Polygon","arcs":[[-7,-108,-101,-104]],"id":"NGA-3470","properties":{"adm1_code":"NGA-3470","iso_3166_2":"NG-FC","name":"Federal Capital Territory","admin":"Nigeria","adm0_a3":"NGA","type_en":"State"}}]}},"arcs":[[[12070,93087],[1255,-69],[584,257],[1016,-926],[1752,-892],[1212,549],[-411,-2144],[476,-1235],[-195,-1527],[259,-1681],[-43,-789],[-1536,-188],[-302,-652],[64,-3997],[-281,-1629],[-367,-978],[-65,-995],[627,-531],[670,720],[1580,892],[1232,-120]],[[19597,77152],[995,-275],[779,258],[216,411],[1017,0],[325,-514],[1211,-515],[1557,240],[930,-257],[390,-480],[-260,-1492],[498,-481],[627,-1235],[87,-1595]],[[27969,71217],[-563,172],[-627,-789],[-584,-120],[-1428,-755],[-1384,-120],[-346,463],[43,1201],[-692,1235],[-108,771],[-1103,395],[-2466,-618],[-1147,-634],[-130,-652],[1125,-806],[887,-206],[411,-360],[195,-1132],[-390,-635],[519,-1201],[-1384,-771],[-843,-18],[-130,-686],[43,-1492],[649,-1338],[-195,-686],[-1795,-703],[-195,-1064],[-778,258],[194,1526],[-389,446],[-108,1527],[303,669],[973,669],[281,600],[281,2693],[-540,206],[-1017,806],[-844,274],[-865,-154],[-2704,-17],[-1687,1098],[-822,34]],[[8609,71303],[-346,240],[-1493,2590],[-151,532],[324,1183],[758,1458],[584,669],[-476,926],[-44,584],[411,857],[-238,1115],[217,1818],[-43,2710],[1817,1681],[540,635],[1341,2556],[260,2230]],[[27969,71217],[995,-1904],[129,-686]],[[29093,68627],[-411,-600],[109,-1647],[-282,-1715],[671,-1269],[281,51],[844,1218],[995,943],[584,155],[584,-566],[1254,360],[152,583],[822,-17],[130,-1046],[886,-412],[65,-1441],[844,-480],[-216,-686],[-1233,-1338],[367,-601],[606,-308],[1839,-69],[411,-343],[151,-2058],[-671,-412],[649,-566],[368,-1046],[-995,-1767],[757,-1235]],[[38654,52315],[-1168,-2075],[-1233,1200],[-497,189],[-1536,-69],[-238,-411],[86,-7444],[628,-687]],[[34696,43018],[-1233,-2006],[-952,1458],[-908,806],[-779,2607],[-779,583],[-519,-69]],[[29526,46397],[-454,-120],[-563,412],[-1384,-206],[-1146,69],[-368,686],[-801,137],[-930,1098],[-692,189],[-562,463],[-1579,257],[-519,1115],[-1298,789],[-1514,-618],[-368,292],[-87,1115],[-649,189],[-367,497],[-65,841],[-1341,34],[-260,583],[87,1612],[-130,704],[-541,223],[-2812,4099],[-800,343],[-2120,-223]],[[8263,60977],[0,343],[-757,1287],[670,1560],[866,-308],[670,2350],[-887,2024],[195,857],[-411,2213]],[[29526,46397],[-346,-566],[-476,-2521],[-519,-635],[-930,258],[-1147,68],[-1665,635],[-736,686],[-1341,-1904],[195,-943],[1254,-1338],[44,-635]],[[23859,39502],[-887,-34],[-627,-944],[-1017,0],[-562,429],[-822,155]],[[19944,39108],[-606,-52],[-433,566],[-2120,-514],[-1081,34]],[[15704,39142],[-389,360],[-541,1578],[-714,944],[-281,1389],[-1038,2590],[0,1269],[1081,1458],[-1384,258],[-995,428],[-693,584],[-432,840],[-779,171],[-368,-343],[-281,-1183],[-367,-395],[-1709,-1063],[-1060,-892],[-995,-566],[-822,223],[-1882,-1818],[-973,-172],[-498,-514]],[[584,44288],[-151,2538],[238,429],[129,2539],[995,206],[801,-155],[908,686],[498,1681],[-195,1475],[952,1613],[800,977],[-173,1081],[1125,737],[497,-68],[714,1269],[108,1064],[433,617]],[[0,37667],[779,686],[800,-34],[260,-1664],[886,394],[65,-926],[-324,-1046],[173,-755],[627,-806],[368,-841],[584,-668],[930,-172],[671,1389],[346,292],[692,-961],[497,309],[822,-34],[303,-1269],[498,-378],[216,-1321],[-519,-1012],[1514,138],[1514,549]],[[11702,29537],[606,343],[238,-909],[1038,325],[519,-1132],[1514,275],[130,-206]],[[15747,28233],[-194,-1355],[-1320,-1492],[-216,-1012],[238,-361],[843,-154],[692,635],[238,-1493],[-670,-720],[454,-566],[-627,-429]],[[15185,21286],[-1276,515]],[[13909,21801],[21,600],[-887,52],[-692,480],[476,583],[-519,463],[-519,-360],[-454,1509],[-4867,-34],[-671,-429],[-1017,498],[-649,-1750],[-2292,0],[-476,-600],[-1039,68]],[[324,22881],[65,309],[109,1441],[389,583],[-454,1064],[108,651],[-173,1218],[476,738],[-303,549],[216,617],[-173,2573],[411,720],[-584,1132],[-22,755],[65,1407],[-454,1029]],[[15704,39142],[43,-720],[-1341,-1201],[-1146,1081],[-909,-1287],[-562,189],[-433,-2333],[390,-412],[540,-1149],[-584,-3773]],[[0,37667],[303,2556],[216,771],[-303,1133],[44,1012],[324,1149]],[[13909,21801],[-1796,411],[-2120,223],[-3569,-223],[822,464],[-216,754],[-541,566],[-411,-308],[-259,-1064],[108,-532],[-2509,-171],[-1277,68],[-1881,-205],[64,1097]],[[92320,69450],[-1687,-360],[-1038,240],[-195,-2041],[-454,-1389],[-303,-1389],[-974,-138],[-951,892],[-1298,429],[-671,-189],[-951,-1200],[-498,-223],[-389,-686],[-606,-326],[-1276,-258],[-476,-497],[-865,-1389],[-1060,-927],[-1341,103]],[[77287,60102],[-606,446],[-541,1132],[-995,686],[-411,1321],[606,1235],[-87,892]],[[75253,65814],[757,686],[152,2076],[476,634],[1968,858],[519,480],[260,703],[0,1767],[1579,2676],[-433,1098],[-822,171],[541,1630],[-151,1492],[389,3516],[-173,1561],[909,1064],[584,1252],[-87,651],[-800,910],[-152,669],[195,2006]],[[80964,91714],[714,-154],[519,858],[216,1012],[1017,480],[1125,1235],[540,926],[476,-17],[952,566],[800,-274],[649,257],[325,943],[778,789],[2055,-103],[3807,-6518],[952,-5557],[22,-1664],[303,-274],[1708,-69],[779,-309],[281,-857],[1017,-772],[-562,-1424],[173,-1183],[-282,-1390],[-367,-669],[627,-926],[-238,-1389],[-1882,-1184],[-735,-857],[-952,-652],[-1514,394],[-909,-1149],[-454,-1012],[-541,-549],[-43,-772]],[[92320,69450],[-1536,-2744],[-540,-1904],[-541,-3568],[-368,-394],[-1190,-377],[-21,-1115],[-281,-1064],[410,-720],[-562,-2710],[-1774,-704],[-995,-960],[303,-841],[-86,-771],[-541,-1356],[43,-806],[-195,-1972],[-259,-755],[-454,-17],[-498,-1012],[-843,-566],[-628,189],[-887,-292],[217,-1029],[-498,-669],[-973,-480],[65,-2059],[-390,-737],[87,-1493],[-1190,-1989],[-389,-1132],[130,-824],[-995,-1492]],[[76941,33087],[-325,1098],[-108,1389],[-389,1201],[-1320,1424],[-822,-995],[-497,326],[-714,1869],[3244,4803],[563,566],[86,1441],[844,2161],[-43,720],[-887,841],[-260,1338],[-519,1372],[-1233,943],[-778,1784]],[[73783,55368],[1470,549],[1558,1149],[432,755],[44,2281]],[[76941,33087],[-1017,-1544],[-22,-669],[844,-1440],[-606,-326],[-562,-772],[-974,-686],[-713,-1115],[281,-618],[-519,-1595],[-779,-429],[-216,-1012],[-584,-377],[-974,-17],[-887,137],[-302,1304],[-44,1303],[-432,704],[-1060,514],[-368,1338],[-1925,1184],[-887,-1922],[-2141,-34],[-995,1287],[-2034,-2144],[-865,-155],[-649,-2487],[-411,-137]],[[58100,23379],[217,1012],[64,2401],[260,1818],[606,1132],[778,789],[65,1235],[325,1253],[-368,1200],[-865,944],[-736,1166],[-951,806],[-1277,189],[-1276,-52],[-1146,-463],[346,1081]],[[54142,37890],[1665,1492],[-86,1184],[-454,703],[259,823],[1774,-377],[562,737]],[[57862,42452],[1687,223],[1017,1115],[1147,892],[1254,1887],[1947,583],[1319,806],[282,669],[-65,1681],[-455,1578],[-21,1441],[-238,1064]],[[65736,54391],[454,343],[1060,51],[1579,703],[1147,-171]],[[69976,55317],[886,-86],[2921,137]],[[58100,23379],[-1298,-1081]],[[56802,22298],[-389,875],[-995,1458],[-735,463],[-1320,-309],[-865,223],[-130,1167],[-995,737],[-1168,326],[-541,-257],[-173,-1029],[-627,-292],[-1038,52],[-995,-738]],[[46831,24974],[-368,1029],[-757,-137],[-303,-515],[-1017,-154],[-216,-1218],[-368,-634],[-562,445],[-281,721]],[[42959,24511],[303,978],[-109,994],[-540,635],[-563,-343],[-649,154],[-822,961],[-389,1252]],[[40190,29142],[930,-720],[389,977],[1104,738],[346,720],[432,1836],[-800,326],[-216,1646],[21,1201],[-692,1509],[-86,1681]],[[41618,39056],[2530,-634],[2704,-1150],[779,-720],[303,429],[-584,1818],[151,737],[454,481],[1104,154],[2292,-857],[1212,51],[1579,-1475]],[[56802,22298],[-540,-823],[-801,-429],[-454,-995],[-1146,-1149],[-1212,-1612],[-1125,-944],[65,-995],[-367,-497],[627,-858],[-368,-1114],[0,-858],[-411,-2847],[-346,-258],[-1298,-2641],[-65,-686],[-497,-498],[-152,-669],[-908,481],[-800,1029],[-109,-686]],[[46895,5249],[-1406,1595],[-627,1629],[65,1270],[-519,480],[-692,-34],[-411,806],[238,326]],[[43543,11321],[497,274],[-411,961],[-238,2161]],[[43391,14717],[325,1389],[411,703],[65,1047],[649,34],[173,-480],[1449,720],[281,1046],[822,1218],[-22,1355],[520,378],[-325,1218],[-779,1063],[-129,566]],[[12070,93087],[43,2744],[1017,223],[1319,1526],[844,549],[995,309],[1925,532],[562,-429],[2899,206],[844,1063],[1492,189],[4737,-2281],[1363,137],[692,-429],[1168,-1355],[1363,-1835],[692,-1510]],[[34025,92726],[-1081,-874],[-1623,257],[-757,480],[-497,-120],[-152,-978],[-1146,0],[-606,-651],[130,-1784],[-238,-566],[-606,-275],[-1881,-223],[-411,-411],[-758,-1287],[-389,-326],[152,-2264],[-411,-549],[-2553,-120],[-1233,240],[-303,-1252],[-65,-4871]],[[34025,92726],[692,-1166],[563,-600],[1319,-120]],[[36599,90840],[-151,-1081],[259,-4305],[671,-3379],[-368,-1201],[909,-875],[-606,-1166],[-692,-652],[-800,137],[-476,-274],[-325,-1870],[303,-634],[-238,-1681]],[[35085,73859],[-887,-961],[-432,-1509],[-455,-652],[-1622,-583],[-1103,308],[-995,-1543],[-498,-292]],[[75253,65814],[-908,34],[-130,1064],[108,2384],[-238,635],[-1730,2367],[-1687,1200],[-1147,-377]],[[69521,73121],[-627,429],[303,1612],[-65,892],[-995,3036],[-303,2847],[-346,721],[-281,2007],[-1060,1046]],[[66147,85711],[-325,2144],[-497,892],[-1147,274],[-908,-137],[-303,1304],[-562,549],[-2293,-1081],[-238,-532],[-714,-394],[-1017,394]],[[58143,89124],[1428,2076],[606,497],[303,721],[1946,1269],[4045,1063],[1017,138],[1514,-223],[4067,34],[2531,-789],[908,-463],[1709,-1338],[1190,103],[648,-429],[909,-69]],[[36599,90840],[1125,1286],[1601,-51],[3050,2229],[562,189],[2120,-360],[1406,-1029],[1254,-1424],[1125,-103],[1212,-1475],[2487,-840]],[[52541,89262],[-519,-961],[-779,-635],[-778,-85],[-1060,343],[-541,1200],[-2423,0],[-887,-171],[-173,-1647],[1104,-343],[281,-549]],[[46766,86414],[-801,-154],[-476,-1441],[-302,-360],[-1471,-669],[-628,-549],[-86,-3653],[173,-1407],[346,-1355],[-1233,-515],[-454,-1389],[714,-1132]],[[42548,73790],[-303,-532],[-671,-343],[-1016,841],[-606,137],[-519,-377],[-173,-704],[-1168,-17],[0,-1115],[-476,-463],[-714,600],[-887,429],[346,721],[-259,600],[-1017,292]],[[66147,85711],[-1103,-892],[-692,326],[-1082,-480],[-800,-2985],[-109,-1115],[-2530,-1200],[-1255,-446],[-454,-498],[-173,-772],[346,-291],[822,223],[411,-429],[130,-1098],[-282,-635],[563,-583],[1146,-2058],[606,-292],[2639,-583],[-541,-840],[-908,-446],[-303,-1252],[-628,326],[-1319,-121],[-671,824],[87,1338],[-562,1046],[-1558,-240],[-735,686],[-1060,-51],[-1514,445]],[[54618,73618],[238,1167],[735,823],[-779,1081],[-173,600],[-692,69],[-22,789],[303,549],[238,1166],[-216,926],[-1211,-188],[-671,394],[-86,1784],[-347,549],[-995,257],[-151,961],[-627,514],[-108,1029],[-1233,378],[-909,-395],[-497,-1166],[-649,1509]],[[52541,89262],[2444,-344],[909,155],[1752,-240],[497,291]],[[15747,28233],[736,1184],[692,480],[1146,-515],[22,1527],[216,995],[757,360],[22,429]],[[19338,32693],[584,223],[1817,-18],[411,-154],[389,-1235],[476,-223],[865,909],[455,1338],[259,1287],[995,1149],[584,274]],[[26173,36243],[671,155],[605,-1355],[520,-704]],[[27969,34339],[-779,-840],[173,-566],[-22,-1458],[-627,-738],[-433,-1578],[-324,-480],[-454,-2504],[-390,-532],[-605,223],[-606,-446],[-368,1612],[-2336,0],[-1125,-1955],[-65,-823],[390,-961],[-498,-1372],[-389,-206],[-281,-806],[973,-1029],[152,-618]],[[20355,19262],[-931,-2830]],[[19424,16432],[-973,1578],[-497,377],[-909,1253],[-1860,1646]],[[20355,19262],[973,-926],[0,-1218],[800,429],[44,600],[1081,-17],[562,-377],[606,583],[498,17],[973,-652],[973,-1029],[-216,-754],[454,-669],[801,205],[1579,1819],[108,806],[-779,737],[-627,1870],[324,892],[671,-635],[584,532],[2531,1612],[584,-68],[497,497]],[[33376,23516],[44,-635],[648,-3207],[-475,-943],[-152,-1767],[-497,-909],[-152,-995]],[[32792,15060],[-454,-2196],[-627,-806],[129,-446]],[[31840,11612],[-108,-326],[-1081,-205],[-519,-824],[-649,-103],[43,-617],[-1601,-892],[-627,532],[-389,-549],[-2163,-824],[-1515,1115]],[[23231,8919],[-800,378],[-195,1801],[303,583],[-952,377],[-540,686],[281,841],[800,-35],[-65,601],[-1168,-566],[-411,480],[-1060,2367]],[[31840,11612],[779,-86],[281,-463],[-1081,-1440],[-476,-1441],[-22,-1098],[-367,-1475],[540,-1029],[952,343],[519,-412],[195,-703],[606,-549]],[[33766,3259],[-584,-823],[346,-1716],[-1947,-205],[-1601,-378],[-1449,-137],[-65,1372],[-368,52],[152,-1252],[-974,411],[-1362,1269],[-1558,1870],[-908,2076],[-822,3036],[605,85]],[[32792,15060],[519,-309]],[[33311,14751],[-367,-2007],[670,-154],[346,-446],[-194,-1441],[1211,-1149],[1190,-103],[1990,103]],[[38157,9554],[129,-892],[-865,-1647],[108,-823],[1363,52],[757,-172],[563,-463]],[[40212,5609],[302,-1184]],[[40514,4425],[-21,-1063],[-649,-498],[-887,275],[-692,-69],[-779,343],[65,-1097],[-1125,-669],[-605,-652],[-909,429],[-130,-704],[-1081,69],[65,2470]],[[38351,2213],[282,-686],[-1060,-446],[-282,343],[801,1132],[259,-343]],[[46895,5249],[476,-1630],[-476,-755],[-2227,52],[-282,-172],[-1946,-240],[-238,-206],[-1471,275],[-217,1852]],[[40212,5609],[-282,1715],[455,721],[151,2058],[-86,600],[800,52],[216,1372],[-65,720],[541,137],[692,-909],[909,-754]],[[38157,9554],[605,2195],[671,1424],[-173,1321],[151,634],[-108,1167],[-1146,875]],[[38157,17170],[951,977]],[[39108,18147],[866,17],[540,-514]],[[40514,17650],[-64,-1269],[497,-309],[1211,-17],[455,-258],[194,-686],[584,-394]],[[40514,17650],[411,171],[931,-480],[-44,1064],[368,583],[-346,1818],[346,1389],[22,738],[-346,1321],[1103,257]],[[33376,23516],[952,326],[389,1527],[563,651]],[[35280,26020],[65,-617],[1557,-498],[-43,-703],[-671,-1423],[584,-481],[995,-2744],[519,-1184],[822,-223]],[[38157,17170],[-693,-223],[-757,188],[-1060,-394],[-454,-1287],[-1319,-137],[-563,-566]],[[27969,34339],[757,-720],[108,-806],[1103,377],[714,-875],[692,52],[649,-1390],[973,292],[584,-618],[173,-737],[-259,-2024],[-325,-1149],[22,-1887],[216,-1338]],[[65736,54391],[-1644,1200],[-4088,2333],[-498,-395],[433,-943],[-822,-823],[-260,-652],[-605,-223],[-1320,-86],[-1709,480],[-649,1150],[-497,377],[346,1218],[-216,1561],[-519,240],[-974,-206],[-303,240],[0,1664],[-497,1544],[-974,51]],[[50940,63121],[-735,926],[368,1304]],[[50573,65351],[627,1201],[-65,720],[-606,1355],[22,1647],[260,669],[778,188],[1406,2007],[1623,480]],[[69521,73121],[-497,-652],[-779,-549],[-671,-943],[-886,-497],[-671,-2385],[-454,-1046],[887,-480],[346,-1527],[1146,-772],[152,-617],[0,-2076],[-952,-583],[303,-960],[1730,-1578],[433,-2007],[368,-1132]],[[57862,42452],[-303,532],[-1427,875],[-1817,-343],[-779,0],[-1211,635],[-195,1355],[-346,857],[541,1132],[865,944],[151,669],[-367,411],[-541,-188],[-1103,120],[-541,1217],[-887,669]],[[49902,51337],[216,1235],[-1059,1681],[0,1493],[605,1166],[-21,1544],[324,1372],[-216,789],[151,772],[930,1080],[108,652]],[[41618,39056],[-1428,-103],[-1731,120],[-1687,-703],[-951,-806],[-152,772],[238,617],[108,2213],[-411,875],[281,1029]],[[35885,43070],[2380,635],[1081,651],[649,1098],[368,1235],[389,2110],[-21,1664],[194,1115],[368,874]],[[41293,52452],[1579,-634],[606,892],[519,103],[346,-807],[584,-514],[303,-2230],[670,446],[693,1098],[1016,-395],[822,-1218],[692,498],[779,1646]],[[35280,26020],[238,566],[735,-531],[1774,1904],[497,789],[974,737],[692,-343]],[[34696,43018],[1189,52]],[[26173,36243],[-1557,978],[86,1784],[-995,-223],[152,720]],[[19944,39108],[-195,-858],[-974,-1098],[-108,-2247],[671,-2212]],[[42548,73790],[562,69],[973,892],[1190,463],[281,-172],[-194,-1098],[1016,-823],[476,-617],[1212,-481],[865,-1115],[151,-1458],[-151,-789],[130,-1252],[-649,-789],[454,-463],[670,-103],[368,-549],[671,-154]],[[41293,52452],[-714,412],[-454,-618],[-1471,69]]],"bbox":[2.6720787881846775,4.278777927198433,14.671127100741899,13.873367892034551],"transform":{"scale":[0.00011999168304240262,0.00009594685911695235],"translate":[2.6720787881846775,4.278777927198433]}}