{"type":"Topology","objects":{"a1":{"type":"GeometryCollection","geometries":[{"type":"Polygon","arcs":[[0,1,2,3]],"id":"NIC-4800","properties":{"adm1_code":"NIC-4800","iso_3166_2":"NI-SJ","name":"Rio San Juan","admin":"Nicaragua","adm0_a3":"NIC","type_en":"Department"}},{"type":"Polygon","arcs":[[4,5,6,7]],"id":"NIC-657","properties":{"adm1_code":"NIC-657","iso_3166_2":"NI-AN","name":"Atlántico Norte","admin":"Nicaragua","adm0_a3":"NIC","type_en":"Autonomous Region"}},{"type":"Polygon","arcs":[[-7,8,9,10,11,12]],"id":"NIC-656","properties":{"adm1_code":"NIC-656","iso_3166_2":"NI-JI","name":"Jinotega","admin":"Nicaragua","adm0_a3":"NIC","type_en":"Department"}},{"type":"Polygon","arcs":[[-12,13,14]],"id":"NIC-667","properties":{"adm1_code":"NIC-667","iso_3166_2":"NI-NS","name":"Nueva Segovia","admin":"Nicaragua","adm0_a3":"NIC","type_en":"Department"}},{"type":"Polygon","arcs":[[15,16,17,18]],"id":"NIC-663","properties":{"adm1_code":"NIC-663","iso_3166_2":"NI-CI","name":"Chinandega","admin":"Nicaragua","adm0_a3":"NIC","type_en":"Department"}},{"type":"Polygon","arcs":[[-11,19,-16,20,-14]],"id":"NIC-665","properties":{"adm1_code":"NIC-665","iso_3166_2":"NI-MD","name":"Madriz","admin":"Nicaragua","adm0_a3":"NIC","type_en":"Department"}},{"type":"Polygon","arcs":[[21,22,23,24,-1]],"id":"NIC-24","properties":{"adm1_code":"NIC-24","iso_3166_2":"NI-RI","name":"Rivas","admin":"Nicaragua","adm0_a3":"NIC","type_en":"Department"}},{"type":"Polygon","arcs":[[-3,25,26,27,-5,28]],"id":"NIC-644","properties":{"adm1_code":"NIC-644","iso_3166_2":"NI-AS","name":"Atlántico Sur","admin":"Nicaragua","adm0_a3":"NIC","type_en":"Autonomous Region"}},{"type":"Polygon","arcs":[[-18,29,30,31,32]],"id":"NIC-658","properties":{"adm1_code":"NIC-658","iso_3166_2":"NI-LE","name":"León","admin":"Nicaragua","adm0_a3":"NIC","type_en":"Department"}},{"type":"Polygon","arcs":[[-32,33,34,35,36,37,38]],"id":"NIC-659","properties":{"adm1_code":"NIC-659","iso_3166_2":"NI-MN","name":"Managua","admin":"Nicaragua","adm0_a3":"NIC","type_en":"Department"}},{"type":"Polygon","arcs":[[-23,39,-38,40,41]],"id":"NIC-654","properties":{"adm1_code":"NIC-654","iso_3166_2":"NI-CA","name":"Carazo","admin":"Nicaragua","adm0_a3":"NIC","type_en":"Department"}},{"type":"Polygon","arcs":[[-6,-28,42,-34,-31,43,-9]],"id":"NIC-666","properties":{"adm1_code":"NIC-666","iso_3166_2":"NI-MT","name":"Matagalpa","admin":"Nicaragua","adm0_a3":"NIC","type_en":"Department"}},{"type":"Polygon","arcs":[[-27,44,45,-35,-43]],"id":"NIC-668","properties":{"adm1_code":"NIC-668","iso_3166_2":"NI-BO","name":"Boaco","admin":"Nicaragua","adm0_a3":"NIC","type_en":"Department"}},{"type":"Polygon","arcs":[[-2,-25,46,-45,-26]],"id":"NIC-669","properties":{"adm1_code":"NIC-669","iso_3166_2":"NI-CO","name":"Chontales","admin":"Nicaragua","adm0_a3":"NIC","type_en":"Department"}},{"type":"Polygon","arcs":[[-10,-44,-30,-17,-20]],"id":"NIC-664","properties":{"adm1_code":"NIC-664","iso_3166_2":"NI-ES","name":"Estelí","admin":"Nicaragua","adm0_a3":"NIC","type_en":"Department"}},{"type":"Polygon","arcs":[[-24,-42,47,-36,-46,-47]],"id":"NIC-655","properties":{"adm1_code":"NIC-655","iso_3166_2":"NI-GR","name":"Granada","admin":"Nicaragua","adm0_a3":"NIC","type_en":"Department"}},{"type":"Polygon","arcs":[[-37,-48,-41]],"id":"NIC-660","properties":{"adm1_code":"NIC-660","iso_3166_2":"NI-MS","name":"Masaya","admin":"Nicaragua","adm0_a3":"NIC","type_en":"Department"}}]}},"arcs":[[[61481,5305],[-1254,764],[-7863,3015],[-912,840],[5300,11259]],[[56752,21183],[2507,1794],[4216,3664],[4103,-115]],[[67578,26526],[1595,-4885],[-627,-2824],[228,-1794],[3875,-2099],[1082,-1985],[2508,-1832],[854,-1222],[2735,-458],[855,-877],[2507,610],[285,-1450],[1937,-458],[1653,-2023]],[[87065,5229],[512,-153],[741,-3015],[-2222,-763],[-2108,-1222],[-1596,-76],[-1994,1603],[-1197,-534],[-1766,534],[-1082,1718],[-2280,1335],[-968,1756],[-1368,-916],[-5698,2672],[-4558,-2863]],[[91224,53664],[-2393,-39],[-4216,2710],[512,1642],[-3760,763],[-2849,-1260],[-969,1832],[-3191,-38],[-1196,-649],[-3077,0],[-5698,-725]],[[64387,57900],[-2849,3855],[-1994,-1908],[-2735,-153],[-1539,-2557],[-1652,-840],[-2621,1260],[-1596,1336],[-1538,2595]],[[47863,61488],[114,1145],[2108,1641],[-114,2825],[969,1870],[1823,267],[2735,1717],[2336,-801],[4103,6870],[569,6183],[-2222,267],[-1082,1298],[399,2405],[-855,763],[-285,2137]],[[58461,90075],[-228,1565],[741,1680],[2108,1717],[2906,-267],[1538,-3015],[3818,-344],[969,-954],[3191,1298],[1082,-191],[1140,2061],[1139,-954],[3533,1030],[3362,420],[9003,4771],[1538,1107],[2792,-1107],[2906,344],[-1083,-268],[-2393,-3282],[-399,1527],[-2336,-1909],[1653,-2251],[854,954],[1311,-5764],[1025,-3168],[-569,-3167],[-2906,-4657],[-1767,-2137],[-1367,-5077],[-570,-4809],[-855,-2671],[-228,-2977],[855,-5916]],[[47863,61488],[-2165,-992],[-3077,-3817],[-3818,-3359],[-1652,-191],[-2337,878]],[[34814,54007],[-3247,3283],[740,4656]],[[32307,61946],[3362,2405]],[[35669,64351],[3077,-191],[1937,1603],[0,1374],[1083,3893],[855,992]],[[42621,72022],[-57,1489],[1025,1717],[3020,1832],[2849,2138],[855,1794],[1595,1641],[2849,649],[-342,2251],[1197,1833],[2849,2709]],[[35669,64351],[-2279,2824],[-1368,-1527],[-1709,725],[-4387,306],[-1311,-573],[-1823,1832],[-2564,-229]],[[20228,67709],[-171,1603],[968,1412],[4103,344],[2849,-802],[2165,649],[627,1603],[2165,2825],[1937,1794],[5983,-4580],[1767,-535]],[[20911,59122],[399,-1565]],[[21310,57557],[-114,-2558]],[[21196,54999],[1254,-3053],[-171,-4160],[-2450,-611],[-3077,-3282],[-1823,-2596],[-2507,-954]],[[12422,40343],[-4958,3741],[-2393,2900],[-4216,2977],[-855,1069],[399,1489],[1823,1717],[2564,-1717],[684,-1413],[2678,1374],[5014,344],[855,-382],[2165,2099],[798,3932],[2108,1221],[1823,-572]],[[32307,61946],[-2108,1069],[-2621,-726],[-1481,687],[-1425,-877],[-1538,-2634],[-1824,-1908]],[[20911,59122],[684,1068],[-1367,7519]],[[61481,5305],[-1026,-114],[-6666,2557],[-5983,2328],[-1994,1336],[-741,-343],[-1539,-2672],[-1823,725],[-798,1870],[-2336,2748],[-5128,4008],[-285,840]],[[33162,18588],[1595,2099]],[[34757,20687],[4559,1641],[8148,0]],[[47464,22328],[9288,-1145]],[[67578,26526],[740,1413],[-2849,1374],[-1538,3893],[-228,3015],[-1481,2557],[114,1870],[-2678,4123]],[[59658,44771],[-684,1908],[-1767,1450],[-854,-420],[-1311,-2671]],[[55042,45038],[-1082,2748],[2108,1908],[3817,-229],[2565,2099],[2051,191],[456,2481],[-1653,2099],[1083,1565]],[[91224,53664],[513,-3016],[-741,-7480],[1197,-2481],[-114,-1680],[-2450,306],[-684,1412],[228,2214],[1310,496],[399,4771],[-2222,-229],[1254,-3588],[-1824,-1450],[-2051,-535],[1026,-2862],[285,-2023],[1937,267],[-1026,-2138],[-1082,-4770],[-1140,-153],[114,-2252],[-1652,-1756],[1139,-1336],[1880,840],[1026,-5496],[-2393,-1260],[-741,-2633],[-1595,-1603],[0,-2367],[684,-3015],[2564,-4618]],[[21196,54999],[1653,-152],[3362,878],[1766,-2061],[-171,-3092],[3419,-1183]],[[31225,49389],[-570,-4924]],[[30655,44465],[-1425,-1221],[171,-2634],[-3931,-4160],[171,-3702],[-1482,-1222],[-1424,-76],[-456,-1717]],[[22279,29733],[-2792,5038],[-5983,3969],[-1082,1603]],[[30655,44465],[4102,-954],[2849,-1679]],[[37606,41832],[57,-1527],[1140,-2672],[1937,-1870],[-456,-1450]],[[40284,34313],[-3304,-1260]],[[36980,33053],[-2393,-305],[-1710,-1641],[-114,-2290],[-1937,-77]],[[30826,28740],[-3305,-3549],[-1538,-878]],[[25983,24313],[-3704,5420]],[[33162,18588],[-3533,2137],[-911,1336],[-2735,2252]],[[30826,28740],[4558,-2366]],[[35384,26374],[-1025,-3893],[398,-1794]],[[55042,45038],[-1823,38],[-3191,1870],[-3191,-1565],[-6666,-1221],[-2565,-2328]],[[31225,49389],[456,1603],[1994,992],[1139,2023]],[[59658,44771],[-2394,-4810],[-4330,-1946],[-2792,-420],[-2336,153],[-1710,-954],[-1196,-3665],[-342,-2328]],[[44558,30801],[-1652,-114],[-2622,3626]],[[47464,22328],[-2906,8473]],[[35384,26374],[2393,5458],[-797,1221]]],"bbox":[-87.68545288065695,10.718508721778832,-83.13033071138636,15.030314160521655],"transform":{"scale":[0.00004555167720947799,0.000043118485572283956],"translate":[-87.68545288065695,10.718508721778832]}}