{"type":"Topology","objects":{"a1":{"type":"GeometryCollection","geometries":[{"type":"Polygon","arcs":[[0,1,2]],"id":"NLD-897","properties":{"adm1_code":"NLD-897","iso_3166_2":"NL-GR","name":"Groningen","admin":"Netherlands","adm0_a3":"NLD","type_en":"Province"}},{"type":"Polygon","arcs":[[-1,3,4,5]],"id":"NLD-894","properties":{"adm1_code":"NLD-894","iso_3166_2":"NL-DR","name":"Drenthe","admin":"Netherlands","adm0_a3":"NLD","type_en":"Province"}},{"type":"Polygon","arcs":[[6,7,8,9,-5]],"id":"NLD-899","properties":{"adm1_code":"NLD-899","iso_3166_2":"NL-OV","name":"Overijssel","admin":"Netherlands","adm0_a3":"NLD","type_en":"Province"}},{"type":"Polygon","arcs":[[-8,10,11,12,13,14,15]],"id":"NLD-896","properties":{"adm1_code":"NLD-896","iso_3166_2":"NL-GE","name":"Gelderland","admin":"Netherlands","adm0_a3":"NLD","type_en":"Province"}},{"type":"Polygon","arcs":[[16,-12,17]],"id":"NLD-898","properties":{"adm1_code":"NLD-898","iso_3166_2":"NL-LI","name":"Limburg","admin":"Netherlands","adm0_a3":"NLD","type_en":"Province"}},{"type":"MultiPolygon","arcs":[[[18]],[[19,20]],[[21,22]],[[23,24,25]],[[26]]],"id":"NLD-903","properties":{"adm1_code":"NLD-903","iso_3166_2":"NL-ZE","name":"Zeeland","admin":"Netherlands","adm0_a3":"NLD","type_en":"Province"}},{"type":"Polygon","arcs":[[-13,-17,27,-21,28,-23,29,-26,30]],"id":"NLD-3483","properties":{"adm1_code":"NLD-3483","iso_3166_2":"NL-NB","name":"Noord-Brabant","admin":"Netherlands","adm0_a3":"NLD","type_en":"Province"}},{"type":"Polygon","arcs":[[-14,-31,-25,31,32,33]],"id":"NLD-3485","properties":{"adm1_code":"NLD-3485","iso_3166_2":"NL-ZH","name":"Zuid-Holland","admin":"Netherlands","adm0_a3":"NLD","type_en":"Province"}},{"type":"MultiPolygon","arcs":[[[-33,34,35,36,37]],[[38]]],"id":"NLD-3486","properties":{"adm1_code":"NLD-3486","iso_3166_2":"NL-NH","name":"Noord-Holland","admin":"Netherlands","adm0_a3":"NLD","type_en":"Province"}},{"type":"MultiPolygon","arcs":[[[-2,-6,-10,39,-36,40]],[[41]]],"id":"NLD-895","properties":{"adm1_code":"NLD-895","iso_3166_2":"NL-FR","name":"Friesland","admin":"Netherlands","adm0_a3":"NLD","type_en":"Province"}},{"type":"Polygon","arcs":[[42]],"id":"NLD-5149","properties":{"adm1_code":"NLD-5149","iso_3166_2":"NL-BQ1","name":"Bonaire","admin":"Caribbean Netherlands","adm0_a3":"NLD","type_en":"Special Municipality"}},{"type":"Polygon","arcs":[[43]],"id":"NLD-5148","properties":{"adm1_code":"NLD-5148","iso_3166_2":"NL-BQ3","name":"St. Eustatius","admin":"Netherlands","adm0_a3":"NLD","type_en":"Special Municipality"}},{"type":"Polygon","arcs":[[44]],"id":"NLD-5147","properties":{"adm1_code":"NLD-5147","iso_3166_2":"NL-BQ2","name":"Saba","admin":"Netherlands","adm0_a3":"NLD","type_en":"Special Municipality"}},{"type":"Polygon","arcs":[[-9,-16,45,-37,-40]],"id":"NLD-902","properties":{"adm1_code":"NLD-902","iso_3166_2":"NL-FL","name":"Flevoland","admin":"Netherlands","adm0_a3":"NLD","type_en":"Province"}},{"type":"Polygon","arcs":[[-15,-34,-38,-46]],"id":"NLD-3484","properties":{"adm1_code":"NLD-3484","iso_3166_2":"NL-UT","name":"Utrecht","admin":"Netherlands","adm0_a3":"NLD","type_en":"Province"}}]}},"arcs":[[[99838,98502],[-45,150],[-391,505],[-148,-16],[-213,238],[-213,-270]],[[98828,99109],[-185,147],[148,441],[-124,179]],[[98667,99876],[209,4],[512,119],[178,-64],[45,-202],[388,-254],[-27,-290],[13,-386],[-147,-301]],[[99838,98502],[-45,-469],[-422,-48]],[[99371,97985],[-124,111],[-319,-127],[-82,115],[-206,60],[-48,135],[103,115],[-103,139]],[[98592,98533],[178,175],[110,-44],[110,124],[-162,321]],[[99371,97985],[-31,-365],[271,-107],[96,47],[100,-206],[-28,-306],[-261,-302],[-79,-12]],[[99439,96734],[-137,135],[-226,32],[-110,163],[-203,-40],[-151,48],[-103,178],[86,239],[-134,218],[-216,24]],[[98245,97731],[-31,203],[110,158],[-4,167],[-185,151]],[[98135,98410],[457,123]],[[99439,96734],[-127,-179],[172,-119],[-117,-206],[-247,-56],[-192,-119],[-209,87],[-241,-40],[-154,-95],[24,-147]],[[98348,95860],[-110,32]],[[98238,95892],[-134,8],[-154,147],[-189,28],[-158,-56],[-86,-155],[-240,-32],[-168,219]],[[97109,96051],[147,123],[83,218]],[[97339,96392],[171,-15],[254,51],[83,223],[-179,226],[-31,242]],[[97637,97119],[165,20],[62,167],[254,163],[127,262]],[[97826,94581],[165,242],[264,92],[-48,512],[278,0],[-117,350],[-130,115]],[[98348,95860],[202,-246],[-13,-119],[140,-207],[-13,-421],[-158,-250],[89,-222],[-196,-155],[-144,-267],[172,20],[79,-159],[-93,-381],[-137,4],[-210,20],[-99,119],[-45,107],[124,135],[7,124],[158,433],[-385,186]],[[94980,94649],[-65,314],[254,103],[282,-163],[267,52],[351,-8],[-138,-231],[-250,-159],[-158,-4],[-45,120],[-185,79],[-313,-103]],[[96147,94951],[-27,0],[-419,194],[-154,-143],[-182,151],[-203,12],[-103,234],[134,96],[357,43],[302,-254],[93,-159],[178,4]],[[96123,95129],[24,-178]],[[96079,95312],[-213,60],[0,159],[182,-48]],[[96048,95483],[31,-171]],[[96020,95546],[-99,76]],[[95921,95622],[117,-24]],[[96038,95598],[-18,-52]],[[95825,95713],[-79,-151],[-240,187],[188,99],[131,-135]],[[97826,94581],[-103,171],[-110,-68],[-199,-4],[-154,136],[-144,389],[-138,-199],[-237,223],[-99,-143],[-172,123],[-196,-80],[21,-226],[-148,48]],[[96123,95129],[-44,183]],[[96048,95483],[-28,63]],[[96038,95598],[178,48],[93,123],[189,-32],[171,60],[151,198],[289,56]],[[95921,95622],[-100,330],[7,337],[-41,135],[175,60],[189,262],[295,536]],[[96446,97282],[79,-63],[-27,-199],[291,-16]],[[96789,97004],[72,-195],[18,-369],[68,-111],[289,151],[103,-88]],[[96446,97282],[120,413],[96,699],[100,413],[220,-151],[353,251]],[[97335,98907],[107,-346],[147,-183]],[[97589,98378],[-17,-242],[-347,-258],[96,-266],[-85,-183],[75,-167],[271,-107]],[[97582,97155],[-120,-8],[-96,-222],[-209,-48],[-24,274],[-344,-147]],[[96958,99153],[-131,-266],[-106,131],[185,322],[52,-187]],[[98135,98410],[-58,88],[-241,-112],[-247,-8]],[[97335,98907],[265,214],[89,298],[192,199],[515,246],[271,12]],[[97658,99924],[-285,-187],[-38,79],[323,108]],[[271,481],[7,-263],[-72,-218],[-55,421],[-151,131],[21,115],[250,-186]],[[7168,13266],[68,-95],[-48,-44],[-20,139]],[[6848,13560],[21,-43],[-21,-36],[-17,24],[17,55]],[[97637,97119],[-55,36]]],"bbox":[-68.4163776757197,12.028507626068631,7.193459311756953,53.4613372924004],"transform":{"scale":[0.0007561059309340759,0.00041433243998771754],"translate":[-68.4163776757197,12.028507626068631]}}