{"type":"Topology","objects":{"a1":{"type":"GeometryCollection","geometries":[{"type":"Polygon","arcs":[[0,1,2]],"id":"PAK-1111","properties":{"adm1_code":"PAK-1111","iso_3166_2":"PK-GB","name":"Northern Areas","admin":"Pakistan","adm0_a3":"PAK","type_en":"Centrally Administered Area"}},{"type":"Polygon","arcs":[[-2,3,4,5,6,7,8]],"id":"PAK-1123","properties":{"adm1_code":"PAK-1123","iso_3166_2":"PK-KP","name":"K.P.","admin":"Pakistan","adm0_a3":"PAK","type_en":"Province"}},{"type":"Polygon","arcs":[[-8,9,10,11]],"id":"PAK-1112","properties":{"adm1_code":"PAK-1112","iso_3166_2":"PK-TA","name":"F.A.T.A.","admin":"Pakistan","adm0_a3":"PAK","type_en":"Territory"}},{"type":"Polygon","arcs":[[-11,12,13,14]],"id":"PAK-1108","properties":{"adm1_code":"PAK-1108","iso_3166_2":"PK-BA","name":"Baluchistan","admin":"Pakistan","adm0_a3":"PAK","type_en":"Province"}},{"type":"Polygon","arcs":[[-5,15,16,17,-13,-10,-7,18]],"id":"PAK-1113","properties":{"adm1_code":"PAK-1113","iso_3166_2":"PK-PB","name":"Punjab","admin":"Pakistan","adm0_a3":"PAK","type_en":"Province"}},{"type":"Polygon","arcs":[[-14,-18,19]],"id":"PAK-1114","properties":{"adm1_code":"PAK-1114","iso_3166_2":"PK-SD","name":"Sind","admin":"Pakistan","adm0_a3":"PAK","type_en":"Province"}},{"type":"Polygon","arcs":[[-1,20,-16,-4]],"id":"PAK-1109","properties":{"adm1_code":"PAK-1109","iso_3166_2":"PK-JK","name":"Azad Kashmir","admin":"Pakistan","adm0_a3":"PAK","type_en":"Centrally Administered Area"}},{"type":"Polygon","arcs":[[-6,-19]],"id":"PAK-1110","properties":{"adm1_code":"PAK-1110","iso_3166_2":"PK-IS","name":"F.C.T.","admin":"Pakistan","adm0_a3":"PAK","type_en":"Capital Territory"}}]}},"arcs":[[[88739,81862],[176,433],[-128,729],[-433,506],[-1442,-358],[-800,284],[-1026,667],[-688,1248],[-353,124],[-1201,-272],[-897,99]],[[81947,85322],[-1233,741],[-913,272],[-545,543],[240,828],[353,222],[-161,606],[-784,111],[-785,-62],[-1314,667],[-961,692],[96,877],[-400,334],[-1314,-12],[-496,-284],[-849,123],[-865,383],[448,815],[-352,668],[208,963],[785,309],[1217,976],[17,420],[560,99],[689,988],[-96,742],[865,86],[1217,297],[1137,-149],[449,-210],[801,186],[416,420],[-929,494],[-48,321]],[[79400,98788],[945,-160],[513,-309],[913,0],[128,432],[593,50],[1121,741],[913,210],[737,247],[1537,-692],[1170,235],[592,-346],[961,-247],[273,-383],[96,-877],[496,-198],[481,346],[496,-99],[865,-494],[529,-519],[625,-1174],[-48,-1210],[272,-532],[-737,-1000],[176,-495],[849,-296],[337,-371],[320,-1025],[897,24],[737,383],[833,38],[32,-853],[656,-284],[609,-507],[1682,-4027],[-224,-927],[-561,-494],[-865,74],[-240,-840],[-561,-531],[-608,-161],[-945,185],[-849,-494],[-865,-185],[-609,123],[-304,-407],[-1218,-890],[-1025,-49],[-1618,445],[-768,617]],[[81947,85322],[-144,-643],[-545,-1038],[-785,-494],[-785,-136],[-672,-939],[-64,-617],[-1186,-198],[-288,-1371],[465,-804],[272,-1964]],[[78215,77118],[-849,-284],[-433,-766],[-736,-445],[-401,-25]],[[75796,75598],[-1233,-580]],[[74563,75018],[-513,222],[-16,902],[-496,494],[-417,-580],[-480,148],[-561,1025],[-577,-74],[-512,-383],[-673,-173],[-32,-1285],[-913,173],[-400,-333],[-289,-717],[-128,-926],[-689,-939],[-624,-198],[-241,-890],[305,-383],[-321,-1087],[-608,568],[-385,668],[-785,-112],[337,-1136],[-192,-321],[-849,-25],[-721,-371],[-289,-1149],[193,-1532],[592,-173],[545,-617],[-16,-519],[-384,-692],[-337,-1186],[-689,-754],[-64,-383],[-704,-1001],[-577,-1408],[-288,-1186],[112,-951],[-289,-223],[-288,-766],[-1281,247],[-721,-272],[-337,-321]],[[58961,56399],[-1185,4226],[16,568],[-464,1025],[-369,1199],[881,926],[401,0],[881,902],[240,569],[705,86],[-1266,1581],[16,791],[1025,1656],[561,-50],[977,445],[497,605],[-433,272],[-1345,482],[-465,1100],[1378,494],[144,642],[1458,-185],[672,284],[625,964],[817,-667],[705,123],[961,-74],[-193,-531],[497,-149],[1153,631],[-304,345],[384,556],[-768,643],[-177,-358],[-624,-408],[-497,-25],[-112,618],[-449,420],[-320,902],[0,951],[961,1063],[32,407],[721,569],[-80,1099],[240,630],[481,297],[160,902],[-529,136],[-608,-149],[-241,606],[-704,580]],[[65417,84098],[400,544],[0,470],[577,494],[192,494],[-641,729],[497,716],[-112,507],[0,642],[-673,581],[224,433],[-641,1309],[-464,667],[-1057,630],[320,705],[993,704],[977,1025],[545,779],[657,-482],[352,716],[497,62],[1089,902],[753,259],[256,544],[1490,235],[672,482],[817,111],[1057,-50],[481,173],[1522,186],[1954,12],[1249,111]],[[58961,56399],[32,-420],[-864,-272],[-161,-617]],[[57968,55090],[-48,729],[160,1667],[-144,618],[-464,-383],[-529,-74],[-977,766],[128,1087],[-32,1038],[-528,544],[144,593],[-305,247],[16,556],[-688,-74],[-865,-742],[-1442,-136],[-208,87]],[[52186,61613],[-304,1421],[80,1433],[-225,741],[321,840],[496,272],[417,741],[-256,890],[560,531],[0,1161],[433,482],[849,37],[528,260],[673,-198],[833,396],[208,395],[465,37],[1057,902],[-64,482],[-801,926],[96,989],[-385,667],[-688,111],[-241,74],[-720,1421],[400,704],[593,62],[2018,-643],[1185,-148],[2099,198],[1137,581],[352,827],[-32,828],[144,704],[-929,853],[80,642],[513,25],[80,865],[769,556],[529,951],[961,469]],[[57968,55090],[-80,-1495],[-656,-1211],[-289,-111],[-48,-877],[-528,-952],[-305,-1235],[673,-309],[-433,-976],[-128,-680],[-624,-1507],[-737,-889],[-593,-173],[-384,-1779],[608,-421],[-16,-518],[481,-322],[-224,-1136],[-1154,-1433],[64,-853],[-368,-988],[-849,-1013],[320,-544]],[[52698,35668],[-3764,-161],[-1057,75],[-1025,-334],[-304,-544],[-657,-346],[-1746,-1482],[-448,-680],[-1490,-729],[-1746,-469],[-368,-902],[-433,-605],[-529,-1125],[-272,-1346],[64,-4497],[176,-1471],[1586,-3212],[80,-469],[-64,-1396],[-416,-1421],[-929,-1297],[-321,-630],[-208,-1051],[-673,-864],[-384,-890],[-641,-247],[-977,-890]],[[36152,8685],[-128,149],[112,1309],[224,717],[-128,370],[-1041,1014],[240,457],[-336,692],[-593,593],[-1105,111],[-448,-235],[-385,-791],[561,111],[272,396],[497,74],[1073,-1038],[-176,-111],[-753,494],[-673,50],[-2435,-408],[-1137,-531],[-1714,333],[-1009,-160],[-464,-556],[-705,148],[-1458,99],[-544,-111],[-337,-643],[-897,346],[-625,-259],[-352,321],[-1810,469],[-753,-86],[-865,309],[-833,61],[-592,-135],[-545,-606],[96,-679],[-769,247],[-416,-50],[-801,284],[-929,-284],[-1586,309],[-1810,-25],[-689,-593],[-688,248],[-1074,-112],[-32,-729],[-1201,25],[-288,-494],[-705,0],[368,939],[-592,284],[-593,12],[208,618],[128,2471],[193,334],[-80,827],[608,519],[321,2471],[288,569],[1458,543],[192,445],[737,-173],[288,1124],[849,482],[1025,111],[977,482],[2403,-136],[192,445],[48,1087],[513,445],[-177,383],[-32,852],[193,458],[-65,778],[-512,296],[-1538,-321],[-737,74],[-272,927],[368,1100],[-208,2508],[-288,1247],[192,1619],[-160,358],[-1009,-222],[-689,902],[-625,518],[-1938,507],[-961,432],[-1489,1594],[-529,865],[-481,1569],[-496,519],[-401,791],[-32,902],[-368,247],[-2675,3385],[4741,-1656],[4693,-1593],[641,-136],[769,74],[5959,605],[2498,-519],[705,-321],[737,853],[1810,531],[1986,-13],[1330,-210],[2675,828],[4469,1384],[897,914],[-705,655],[64,506],[400,853],[129,1594],[-337,1235],[609,2409],[1137,408],[689,791],[224,852],[865,606],[641,284],[464,-37],[32,-532],[833,-24],[1170,-210],[1569,469],[913,433],[128,506],[-736,0],[-337,223],[-160,790],[593,-86],[512,197],[577,593],[689,62],[576,420],[305,532],[384,506],[593,-457],[624,-25],[1058,457],[913,-370],[624,-1162],[417,-98],[977,333],[689,655],[672,1087],[481,445]],[[78215,77118],[368,-729],[-64,-803],[192,-704],[-144,-618],[305,-383],[16,-926],[-337,-495],[160,-1050],[305,-395],[-160,-519],[1233,-840],[528,123],[465,-457],[2050,-1099]],[[83132,68223],[1266,-581],[801,-161],[-129,-1013],[209,-679],[384,-284],[689,111],[432,-223],[721,161],[1057,-519],[641,-494],[368,-531],[-400,-840],[-609,-149],[-576,-383],[-385,149],[-528,-495],[-769,-49],[-289,-618],[-528,50],[-817,-828],[-465,-964],[401,-741],[352,-1297],[-496,-1026],[-160,-963],[592,-890],[-512,-704],[-721,-519],[-449,49],[-384,-840],[-641,-926],[-657,-544],[-720,-1248],[-545,-395],[513,-840],[80,-433],[-1282,-1161],[-1121,-272],[-1153,-642],[-849,-2928],[-1121,-2323],[-929,-1544],[-3204,-1792],[-769,-1038],[-368,-1507],[-305,-679],[-993,-952],[-592,-976],[-193,-1099],[-1858,-618],[-1537,-49],[-993,-297],[-1458,-791],[-497,-123],[-752,309],[-433,852],[-48,569],[-448,506],[-641,309],[-705,-210],[-945,-902]],[[57664,31208],[-1313,828],[-481,828],[-609,2125],[-416,531],[-753,136],[-737,321],[-657,-309]],[[74563,75018],[-577,-309],[-96,-581],[513,-259],[897,407],[833,-988],[352,408],[496,1013],[-640,618],[-545,271]],[[57664,31208],[-609,-741],[-448,-1446],[-673,-778],[-368,-643],[-1682,-1667],[-433,-1038],[-256,-1829],[240,-543],[961,-433],[961,-729],[1490,62],[625,-432],[16,-1199],[-176,-1433],[-337,-605],[-80,-890],[304,-741],[625,-717],[305,-667],[592,-185],[721,25],[705,247],[400,-569],[-64,-1519],[481,-1088],[833,-1099],[208,-1038],[1009,-2323],[-481,-395],[-144,-420],[144,-890],[593,-222],[-480,-593],[-481,37],[-481,-420],[65,-309],[-593,-247],[-817,74],[-384,346],[16,1026],[-897,-161],[-1074,-544],[-833,-185],[-352,-778],[-496,-272],[-1250,-25],[-609,198],[-656,655],[-1746,61],[-817,-210],[-609,223],[-432,-235],[-545,482],[-577,74],[-448,-296],[0,-2434],[-1810,12],[-1105,-469],[-433,-470],[-496,-803],[-1474,988],[-368,-395],[-1058,-74],[-112,346],[-576,432],[-96,507],[-401,716],[-528,0],[-337,865],[-48,877],[-288,1248],[-593,1248],[160,927],[-224,333],[-464,-160],[-609,469],[-1153,49],[-465,309]],[[88739,81862],[-1282,-74],[-2178,445],[-1554,568],[-785,37],[-1009,-593],[-977,-160],[-224,-779],[-385,-358],[-544,-1100],[480,-481],[513,-25],[384,-803],[-705,-840],[369,-556],[1746,12],[272,-370],[-192,-470],[-609,-420],[-657,-124],[-368,-518],[0,-828],[1025,-742],[96,-420],[-320,-1112],[-641,-568],[0,-692],[945,-1037],[801,-235],[224,-272],[-32,-1124]]],"bbox":[60.845271483262565,23.734565674075384,77.0490479520696,37.05508217071065],"transform":{"scale":[0.00016203938508192118,0.00013320649703132294],"translate":[60.845271483262565,23.734565674075384]}}