{"type":"Topology","objects":{"a1":{"type":"GeometryCollection","geometries":[{"type":"MultiPolygon","arcs":[[[0]],[[1]]],"id":"PRI-5260","properties":{"adm1_code":"PRI-5260","iso_3166_2":"US-PR","name":"Puerto Rico","admin":"Puerto Rico","adm0_a3":"PRI","type_en":null}}]}},"arcs":[[[99999,31302],[-6208,-3324],[-540,10526],[4184,1939],[2564,-9141]],[[85424,59002],[1890,-8033],[-7558,-8310],[-4858,-26039],[-5668,-9418],[-3374,1108],[-8232,-8310],[-13090,3601],[-2834,7202],[-6343,-4986],[-9041,3601],[-8233,-5817],[-7422,3878],[-2294,-3878],[-5398,2770],[1619,29363],[1620,10526],[-2294,14958],[-3914,11634],[5803,9973],[-540,11080],[3644,6094],[9986,-6371],[13900,1939],[9042,-3601],[4453,2770],[6478,-1662],[7152,-6371],[6748,3324],[7287,-4155],[9717,-12189],[1754,-14681]]],"bbox":[-67.27175723318504,17.928439877172835,-65.34848342838191,18.522547420449996],"transform":{"scale":[0.00001923293037733508,0.000005941134844120054],"translate":[-67.27175723318504,17.928439877172835]}}