{"type":"Topology","objects":{"a1":{"type":"GeometryCollection","geometries":[{"type":"Polygon","arcs":[[0,1,2,3]],"id":"PRK-3308","properties":{"adm1_code":"PRK-3308","iso_3166_2":"KP-07","name":"Kangwŏn-do","admin":"North Korea","adm0_a3":"PRK","type_en":"Province"}},{"type":"Polygon","arcs":[[-1,4,5,6,7,8,9]],"id":"PRK-3303","properties":{"adm1_code":"PRK-3303","iso_3166_2":"KP-06","name":"Hwanghae-bukto","admin":"North Korea","adm0_a3":"PRK","type_en":"Province"}},{"type":"Polygon","arcs":[[10,11,12,13,14]],"id":"PRK-3307","properties":{"adm1_code":"PRK-3307","iso_3166_2":"KP-09","name":"Hamgyŏng-bukto","admin":"North Korea","adm0_a3":"PRK","type_en":"Province"}},{"type":"Polygon","arcs":[[-12,15]],"id":"PRK-5495","properties":{"adm1_code":"PRK-5495","iso_3166_2":"KP-13","name":"Rasŏn","admin":"North Korea","adm0_a3":"PRK","type_en":"Province"}},{"type":"Polygon","arcs":[[16,-15,17,18]],"id":"PRK-3314","properties":{"adm1_code":"PRK-3314","iso_3166_2":"KP-10","name":"Ryanggang","admin":"North Korea","adm0_a3":"PRK","type_en":"Province"}},{"type":"Polygon","arcs":[[-19,19,20,21,22]],"id":"PRK-3310","properties":{"adm1_code":"PRK-3310","iso_3166_2":"KP-04","name":"Chagang-do","admin":"North Korea","adm0_a3":"PRK","type_en":"Province"}},{"type":"Polygon","arcs":[[-22,23,24]],"id":"PRK-3312","properties":{"adm1_code":"PRK-3312","iso_3166_2":"KP-03","name":"P'yŏngan-bukto","admin":"North Korea","adm0_a3":"PRK","type_en":"Province"}},{"type":"Polygon","arcs":[[-2,-10,25,-8,26,-24,-21,27]],"id":"PRK-3313","properties":{"adm1_code":"PRK-3313","iso_3166_2":"KP-02","name":"P'yŏngan-namdo","admin":"North Korea","adm0_a3":"PRK","type_en":"Province"}},{"type":"Polygon","arcs":[[-6,28]],"id":"PRK-3304","properties":{"adm1_code":"PRK-3304","iso_3166_2":"KP-05","name":"Hwanghae-namdo","admin":"North Korea","adm0_a3":"PRK","type_en":"Province"}},{"type":"Polygon","arcs":[[-3,-28,-20,-18,-14,29]],"id":"PRK-3311","properties":{"adm1_code":"PRK-3311","iso_3166_2":"KP-08","name":"Hamgyŏng-namdo","admin":"North Korea","adm0_a3":"PRK","type_en":"Province"}},{"type":"Polygon","arcs":[[-9,-26]],"id":"PRK-3305","properties":{"adm1_code":"PRK-3305","iso_3166_2":"KP-01","name":"P'yŏngyang","admin":"North Korea","adm0_a3":"PRK","type_en":"Special City"}}]}},"arcs":[[[41049,8409],[-1098,1250],[-41,1032],[-1220,1156],[-1384,2720],[-366,2251],[1790,1125],[1180,1907],[122,1938],[1953,1063],[-285,2563]],[[41700,25414],[692,2563]],[[42392,27977],[1627,3783],[4841,31]],[[48860,31791],[-1057,-3126],[1261,-1407],[2441,-281],[2563,-813],[1261,-2032],[2563,-2719],[1221,-282],[1830,-2219],[1139,531],[1221,-1438],[81,-1031],[-1424,-1032],[-81,-2219],[-1505,-1876],[-2075,-969],[-3743,-187],[-732,594],[-4435,-563],[-1505,438],[-3417,-219],[-3011,-1782],[-407,-750]],[[41049,8409],[-2807,-3720],[-1505,-782],[41,-2063],[-1424,-969],[-2726,2126]],[[32628,3001],[-244,5908],[-1790,750],[-3052,-1063],[-1708,-250],[-2156,2782],[-1302,282],[-1343,3907],[-244,1719]],[[20789,17036],[-285,594]],[[20504,17630],[-854,2282]],[[19650,19912],[2522,1157],[2848,-875],[407,-938],[1465,-688],[1220,125],[1627,1282],[-122,1000],[-1342,1282],[976,1625],[3133,-1094]],[[32384,22788],[1098,-375],[1017,1688],[2156,-281],[-1505,2469],[2604,563],[2726,-1501],[1220,63]],[[71521,81650],[1261,1094],[2441,1156],[1424,1345],[488,3032],[1912,1250],[2401,-1031],[2929,1000],[569,3532],[733,1063],[-407,1157],[1871,4751],[1587,-563],[2197,282],[284,-1407],[1546,-94],[82,-3032],[1261,-1750],[1505,-876],[488,-1031]],[[96093,91528],[-284,-1845],[-2685,-687],[162,-1626],[-1261,-1844],[163,-1157]],[[92188,84369],[-41,-1375],[-1993,-438],[-1709,-3407],[-2970,-2626],[-1302,-2094],[-488,-3533],[2197,-1813],[-1383,-4657],[651,-4064],[-570,-1407],[-2278,94],[-1017,-906],[-2441,-907],[-732,-1344],[-1099,594],[-1139,-2657]],[[75874,53829],[-1546,500],[-2156,4251],[-122,2063],[569,1720],[-488,1406]],[[72131,63769],[-285,2063],[448,1376],[-1302,1625],[-163,1845],[1180,1219],[-285,1094],[-1912,1125],[122,3282],[-854,219],[-366,1907],[976,63],[1831,2063]],[[96093,91528],[1221,-375],[732,-1595],[1261,-1188],[692,-1688],[-1302,-437],[-2156,1281],[-1465,-1312],[-2888,-1845]],[[41985,76367],[1790,-2688],[2441,-2001],[3214,-125],[2563,-1313],[3295,31],[1506,750],[1871,-1562],[1912,312],[1831,3407],[-814,1438],[-1424,1001],[-1871,3188],[-82,2157],[3540,750],[3783,-719],[3418,1001],[2563,-344]],[[72131,63769],[-2888,1563],[-1709,32],[-366,-1563],[-1994,-1595],[-1871,-281],[366,-1594],[-448,-2626],[-813,-2032],[-1994,-2094],[-1952,687],[-1221,-406],[-936,-1469],[-2441,-1594],[-569,1031],[773,2282],[-1017,188],[-611,1594],[-1342,1594],[-651,1969],[976,719],[-40,1814],[854,250],[122,2313],[-1627,437],[-1302,-1719],[-1302,156]],[[48128,63425],[-244,1782],[-773,219],[-1912,-1407],[-2197,813],[-1546,2907],[-570,2845],[-1586,0],[2075,2376],[40,2313],[570,1094]],[[48128,63425],[-1058,-1938],[-325,-1844],[1139,-1313],[-2441,-1594],[-854,-2001],[-1424,-344],[-1506,-1219],[82,-1219],[-1139,-2501]],[[40602,49452],[-1628,-2438],[-3702,-2219],[-529,-1094],[-1546,-688],[-1220,406]],[[31977,43419],[-3417,1063],[-2726,2782],[-2523,63],[-2359,1500],[-1302,2313],[569,1814],[-3051,2532]],[[17168,55486],[2238,2375],[2278,1563],[3092,750],[1668,0],[2197,3658],[1749,969],[2848,3907],[1261,563],[-325,1063],[1831,4407],[2685,563],[1546,1688],[1749,-625]],[[31977,43419],[122,-2250],[-1709,-876],[-2481,-625],[-1180,719],[-3336,-3251],[-1953,-1000],[-3702,-1188]],[[17738,34948],[-2604,-969],[-976,1344],[-2767,250],[-2848,2095],[-1668,625],[-122,-1438],[-1220,-938],[-1383,1907],[-489,1782],[-1871,281],[-1790,1532],[773,531],[0,3001],[4272,3720],[1098,313],[2848,3282],[2075,-500],[-41,1469],[3621,1532],[2522,719]],[[32384,22788],[-692,2157],[-854,313],[-3580,3219],[-3377,-531],[-1912,1532],[-1424,-688],[81,-1969],[-854,-1407],[325,-2501],[-1179,-2188],[732,-813]],[[20504,17630],[-1586,1157],[-2604,281],[-1546,-531],[-1994,1813],[977,3470],[1464,2250],[-81,907],[2278,2845],[-1342,3000],[1668,2126]],[[40602,49452],[1424,32],[1586,-1001],[204,-1844],[732,-1344],[-1627,-1844],[854,-2532],[-1668,-1126],[-1139,751],[-2278,-407],[-1099,-2188],[-81,-2470],[-651,-1344],[1017,-1469],[-448,-2688],[1587,94],[1627,-626],[367,-1312],[1383,-157]],[[32628,3001],[-5330,-1657],[-2603,1188],[-1465,2344],[-1302,-687],[-1749,-2782],[-1628,-500],[-488,-907],[-1953,125],[-772,2970],[-936,656],[-1261,-1156],[-2279,719],[1994,3657],[-1994,-688],[-1708,1188],[-1750,-500],[1221,3032],[203,1844],[1587,1813],[1139,2251],[1220,1063],[1953,844],[3174,719],[2888,-1501]],[[75874,53829],[-1302,-1751],[-1627,-250],[-1790,-1688],[-3214,-969],[122,-2251],[-2401,-1250],[-2278,-750],[-976,-1188],[-2156,-313],[-2482,532],[-1831,-1594],[-244,-1313],[-3946,-1157],[-1587,-1594],[-162,-1876],[976,-1031],[-1424,-3001],[-692,-594]]],"bbox":[124.32109357538877,37.73147607732258,130.70086012357518,42.99615760348223],"transform":{"scale":[0.00006379830346489875,0.00005264734173501384],"translate":[124.32109357538877,37.73147607732258]}}