{"type":"Topology","objects":{"a1":{"type":"GeometryCollection","geometries":[{"type":"Polygon","arcs":[[0,1,2,3,4]],"id":"PRT-744","properties":{"adm1_code":"PRT-744","iso_3166_2":"PT-07","name":"Évora","admin":"Portugal","adm0_a3":"PRT","type_en":"District"}},{"type":"Polygon","arcs":[[-5,5,6,7]],"id":"PRT-747","properties":{"adm1_code":"PRT-747","iso_3166_2":"PT-12","name":"Portalegre","admin":"Portugal","adm0_a3":"PRT","type_en":"District"}},{"type":"Polygon","arcs":[[8,9]],"id":"PRT-741","properties":{"adm1_code":"PRT-741","iso_3166_2":"PT-16","name":"Viana do Castelo","admin":"Portugal","adm0_a3":"PRT","type_en":"District"}},{"type":"Polygon","arcs":[[-7,10,11,12,13,14]],"id":"PRT-751","properties":{"adm1_code":"PRT-751","iso_3166_2":"PT-05","name":"Castelo Branco","admin":"Portugal","adm0_a3":"PRT","type_en":"District"}},{"type":"Polygon","arcs":[[-14,15,16,17,18]],"id":"PRT-753","properties":{"adm1_code":"PRT-753","iso_3166_2":"PT-09","name":"Guarda","admin":"Portugal","adm0_a3":"PRT","type_en":"District"}},{"type":"Polygon","arcs":[[19,-18,20,21]],"id":"PRT-750","properties":{"adm1_code":"PRT-750","iso_3166_2":"PT-04","name":"Bragança","admin":"Portugal","adm0_a3":"PRT","type_en":"District"}},{"type":"Polygon","arcs":[[22,-22,23,24,25]],"id":"PRT-756","properties":{"adm1_code":"PRT-756","iso_3166_2":"PT-17","name":"Vila Real","admin":"Portugal","adm0_a3":"PRT","type_en":"District"}},{"type":"Polygon","arcs":[[26,-26,27,28,-9]],"id":"PRT-749","properties":{"adm1_code":"PRT-749","iso_3166_2":"PT-03","name":"Braga","admin":"Portugal","adm0_a3":"PRT","type_en":"District"}},{"type":"Polygon","arcs":[[29,30]],"id":"PRT-745","properties":{"adm1_code":"PRT-745","iso_3166_2":"PT-08","name":"Faro","admin":"Portugal","adm0_a3":"PRT","type_en":"District"}},{"type":"Polygon","arcs":[[31,-31,32,33,-2]],"id":"PRT-743","properties":{"adm1_code":"PRT-743","iso_3166_2":"PT-02","name":"Beja","admin":"Portugal","adm0_a3":"PRT","type_en":"District"}},{"type":"Polygon","arcs":[[-3,-34,34,35,36]],"id":"PRT-5498","properties":{"adm1_code":"PRT-5498","iso_3166_2":"PT-15","name":"Setúbal","admin":"Portugal","adm0_a3":"PRT","type_en":"District"}},{"type":"MultiPolygon","arcs":[[[-36,37,38]],[[39,40,41]]],"id":"PRT-746","properties":{"adm1_code":"PRT-746","iso_3166_2":"PT-11","name":"Lisboa","admin":"Portugal","adm0_a3":"PRT","type_en":"District"}},{"type":"Polygon","arcs":[[-4,-37,-39,42,-42,43,-11,-6]],"id":"PRT-748","properties":{"adm1_code":"PRT-748","iso_3166_2":"PT-14","name":"Santarém","admin":"Portugal","adm0_a3":"PRT","type_en":"District"}},{"type":"Polygon","arcs":[[-12,-44,-41,44,45]],"id":"PRT-740","properties":{"adm1_code":"PRT-740","iso_3166_2":"PT-10","name":"Leiria","admin":"Portugal","adm0_a3":"PRT","type_en":"District"}},{"type":"Polygon","arcs":[[-13,-46,46,47,48,-16]],"id":"PRT-752","properties":{"adm1_code":"PRT-752","iso_3166_2":"PT-06","name":"Coimbra","admin":"Portugal","adm0_a3":"PRT","type_en":"District"}},{"type":"Polygon","arcs":[[-48,49,50,51]],"id":"PRT-739","properties":{"adm1_code":"PRT-739","iso_3166_2":"PT-01","name":"Aveiro","admin":"Portugal","adm0_a3":"PRT","type_en":"District"}},{"type":"Polygon","arcs":[[-25,52,-51,53,-28]],"id":"PRT-754","properties":{"adm1_code":"PRT-754","iso_3166_2":"PT-13","name":"Porto","admin":"Portugal","adm0_a3":"PRT","type_en":"District"}},{"type":"Polygon","arcs":[[54]],"id":"PRT-736","properties":{"adm1_code":"PRT-736","iso_3166_2":"PT-30","name":"Madeira","admin":"Portugal","adm0_a3":"PRT","type_en":"Autonomous region"}},{"type":"MultiPolygon","arcs":[[[55]],[[56]],[[57]],[[58]],[[59]],[[60]],[[61]]],"id":"PRT-735","properties":{"adm1_code":"PRT-735","iso_3166_2":"PT-20","name":"Azores","admin":"Portugal","adm0_a3":"PRT","type_en":"Autonomous region"}},{"type":"Polygon","arcs":[[-17,-49,-52,-53,-24,-21]],"id":"PRT-755","properties":{"adm1_code":"PRT-755","iso_3166_2":"PT-18","name":"Viseu","admin":"Portugal","adm0_a3":"PRT","type_en":"District"}}]}},"arcs":[[[95942,64381],[-238,-553],[31,-1160],[-331,-1661],[766,-1835],[196,-917]],[[96366,58255],[-217,69],[-435,1471],[-476,-329],[-466,-1090],[-600,121],[-621,467],[-424,537],[-921,156]],[[92206,59657],[-590,623],[62,588],[-300,1091],[-590,-174],[-487,329],[-51,571],[579,1125],[-155,571]],[[90674,64381],[1149,1472],[238,986]],[[92061,66839],[383,225],[476,-813],[279,207],[290,-675],[435,329],[393,-104],[435,727],[248,-363],[362,-1627],[601,329],[-21,-693]],[[92061,66839],[-228,225],[-310,1004],[165,484],[818,1281],[548,1367],[-248,572],[300,882],[290,-346],[228,381]],[[93624,72689],[445,1004],[548,259]],[[94617,73952],[166,-865],[465,-1056],[342,-381],[-52,-1228],[300,-745],[21,-778],[311,-277],[0,-589],[517,-52],[259,-1003],[-373,-1143],[42,-519],[-673,-935]],[[92133,96416],[-538,-501],[-787,-398],[-155,-1039],[-341,242],[-735,-363]],[[89577,94357],[-238,1263],[52,1281],[465,1160],[497,865],[1118,519],[497,554],[124,-969],[331,-537],[-300,-467],[-197,-848],[207,-762]],[[93624,72689],[-238,831],[-342,328],[-52,745],[-331,-18],[-52,-1177],[-641,243],[-21,1107],[-207,450]],[[91740,75198],[611,1333]],[[92351,76531],[828,865],[93,450],[610,502],[-258,952],[93,485]],[[93717,79785],[1024,1125],[290,796],[249,-329],[476,277],[-197,-1298],[300,-191],[983,191],[228,-329]],[[97070,80027],[-331,-398],[31,-1021],[248,-173],[300,-987],[-176,-1454],[-310,-726],[-135,-1177],[-589,-156],[-1491,17]],[[93717,79785],[51,1003],[-217,1800]],[[93551,82588],[983,779],[156,1194],[-311,1073],[135,727],[683,139],[279,709],[-114,814],[280,1523]],[[95642,89546],[693,52],[207,-814],[580,-415]],[[97122,88369],[362,-2181],[93,-2025],[-134,-865],[134,-658],[-165,-640],[248,-900],[-321,-814],[-269,-259]],[[96004,97213],[259,1038],[372,-485],[269,225],[1304,-311],[528,-692],[-217,-1333],[93,-692],[756,-121],[631,-970],[-455,-1592],[-642,-1229],[-652,-363],[-455,-1229],[-228,-1021],[-445,-69]],[[95642,89546],[-528,588]],[[95114,90134],[321,1229],[-42,1159],[508,918],[-73,779],[321,1505],[-145,1489]],[[92651,96451],[227,502],[383,-69],[694,432],[466,-259],[72,-519],[476,294],[248,-173],[787,554]],[[95114,90134],[-466,-346],[-900,-260],[-487,18]],[[93261,89546],[83,917],[-393,1298]],[[92951,91761],[207,1211],[435,1022],[-735,294],[41,709],[-424,364],[176,1090]],[[92133,96416],[518,35]],[[92951,91761],[-249,-467],[-527,796],[-611,-364],[-652,52],[-1149,1004]],[[89763,92782],[-186,1575]],[[94783,51367],[155,-364],[248,-3167],[-393,-225],[-1097,-1575],[-776,-207],[-787,900],[-1035,-52],[-745,398],[-1004,-779],[-424,173],[414,1783],[-11,813],[301,1471]],[[89629,50536],[683,-692],[300,207],[383,-294],[207,398],[528,156],[434,-969],[404,-104],[352,779],[1097,1056],[352,-70],[414,364]],[[96366,58255],[673,156],[-300,-1852],[-393,173],[-580,-952],[-259,-1436],[-372,-641],[-352,-2336]],[[89629,50536],[-73,1575],[104,1021],[0,1367]],[[89660,54499],[465,-727],[352,18],[290,986],[776,-69],[135,1419],[-425,987],[207,709],[849,848],[-103,987]],[[89660,54499],[-21,796],[-248,745],[372,2249],[-83,1800],[-445,1627],[-569,-761],[-600,-294],[62,1453],[-269,1212],[797,294],[434,848]],[[89090,64468],[83,35]],[[89173,64503],[549,-468],[321,1056],[631,-710]],[[89090,64468],[-269,1454],[269,1073],[611,588]],[[89701,67583],[-662,-2423],[134,-657]],[[89691,67704],[-518,-346],[-735,-2475],[-20,-1055],[-839,-468],[-672,398],[-11,1177],[280,1177],[-52,1039],[341,1765],[11,1004]],[[87476,69920],[393,242],[321,-1004],[404,952],[289,-138]],[[88883,69972],[476,-468],[-113,-796],[445,-1004]],[[89701,67583],[-10,121]],[[88883,69972],[-20,657],[538,1246],[455,0],[311,900],[72,1039],[-83,986],[818,848],[114,-1004],[652,554]],[[87476,69920],[-21,778],[445,554],[600,1679],[73,1056],[683,3859]],[[89256,77846],[342,-277],[548,87],[538,-675],[518,484],[258,-692],[456,1246],[238,243],[269,-1281],[-72,-450]],[[89256,77846],[197,969],[-228,641],[176,796],[310,2596]],[[89711,82848],[445,-917],[756,-623],[114,-952],[424,900]],[[91450,81256],[487,-537],[445,191],[765,969],[404,709]],[[89711,82848],[249,1281],[331,519],[-238,882],[186,2510]],[[90239,88040],[952,69],[497,641]],[[91688,88750],[269,-779],[300,-294],[156,-1160],[-363,-190],[-455,-1195],[52,-1609],[196,-762],[-310,-311],[-83,-1194]],[[93261,89546],[-662,-571],[-507,34],[-404,-259]],[[90239,88040],[-41,1229],[-290,1229],[-186,1505],[41,779]],[[57803,450],[-238,-450],[-507,35],[-662,605],[-435,1143],[207,571],[528,-571],[590,294],[672,-1177],[-155,-450]],[[24798,46036],[155,-917],[-569,121],[0,727],[414,69]],[[24270,54897],[269,-830],[-259,-468],[-1231,-363],[-797,398],[-476,744],[-73,952],[311,52],[331,-710],[890,-138],[476,329],[559,34]],[[12658,61024],[-528,-727],[-217,346],[-642,-52],[-362,831],[258,762],[435,-70],[673,-848],[383,-242]],[[10671,62599],[51,-467],[-610,-312],[-373,796],[487,485],[445,-502]],[[13537,62668],[-341,-104],[-807,537],[-218,848],[787,-623],[579,-658]],[[17005,63620],[-156,-554],[-672,0],[-394,260],[-258,969],[372,467],[611,-69],[414,-536],[83,-537]],[[310,72187],[301,-900],[-176,-710],[-435,450],[114,1143],[196,17]]],"bbox":[-31.284994340343616,32.64453309596608,-6.207165052883539,42.15354524293403],"transform":{"scale":[0.0002507808006826076,0.00009509107238040327],"translate":[-31.284994340343616,32.64453309596608]}}