{"type":"Topology","objects":{"a1":{"type":"GeometryCollection","geometries":[{"type":"Polygon","arcs":[[0,1,2]],"id":"SGP-4872","properties":{"adm1_code":"SGP-4872","iso_3166_2":"SG-05","name":"South West","admin":"Singapore","adm0_a3":"SGP","type_en":null}},{"type":"Polygon","arcs":[[-3,3,4,5,6,7]],"id":"SGP-4871","properties":{"adm1_code":"SGP-4871","iso_3166_2":"SG-01","name":"Central Singapore","admin":"Singapore","adm0_a3":"SGP","type_en":null}},{"type":"Polygon","arcs":[[-7,8,9]],"id":"SGP-4875","properties":{"adm1_code":"SGP-4875","iso_3166_2":"SG-04","name":"South East","admin":"Singapore","adm0_a3":"SGP","type_en":null}},{"type":"Polygon","arcs":[[-6,10,-9]],"id":"SGP-4874","properties":{"adm1_code":"SGP-4874","iso_3166_2":"SG-02","name":"North East","admin":"Singapore","adm0_a3":"SGP","type_en":null}},{"type":"Polygon","arcs":[[-2,11,-4]],"id":"SGP-4873","properties":{"adm1_code":"SGP-4873","iso_3166_2":"SG-03","name":"North West","admin":"Singapore","adm0_a3":"SGP","type_en":null}}]}},"arcs":[[[62601,0],[-62601,22680],[11382,63917],[24390,13402]],[[35772,99999],[13821,-67010]],[[49593,32989],[13008,-32989]],[[49593,32989],[23577,63917]],[[73170,96906],[8943,-9278]],[[82113,87628],[-3252,-16495]],[[78861,71133],[-813,-50515]],[[78048,20618],[-15447,-20618]],[[78861,71133],[21138,3093]],[[99999,74226],[-4065,-45360],[-17886,-8248]],[[82113,87628],[17886,-13402]],[[35772,99999],[37398,-3093]]],"bbox":[103.64784680716076,1.2720342109453355,103.96709468569082,1.4316697558148093],"transform":{"scale":[0.000003192510710407741,0.0000015963714124088615],"translate":[103.64784680716076,1.2720342109453355]}}