{"type":"Topology","objects":{"a1":{"type":"GeometryCollection","geometries":[{"type":"Polygon","arcs":[[0]],"id":"SLB-1261","properties":{"adm1_code":"SLB-1261","iso_3166_2":"SB-RB","name":"Rennell and Bellona","admin":"Solomon Islands","adm0_a3":"SLB","type_en":"Province"}},{"type":"Polygon","arcs":[[1]],"id":"SLB-3509","properties":{"adm1_code":"SLB-3509","iso_3166_2":"SB-MK","name":"Makira","admin":"Solomon Islands","adm0_a3":"SLB","type_en":"Province"}},{"type":"MultiPolygon","arcs":[[[2]],[[3]]],"id":"SLB-1934","properties":{"adm1_code":"SLB-1934","iso_3166_2":"SB-TE","name":"Temotu","admin":"Solomon Islands","adm0_a3":"SLB","type_en":"Province"}},{"type":"MultiPolygon","arcs":[[[4]],[[5]]],"id":"SLB-1260","properties":{"adm1_code":"SLB-1260","iso_3166_2":"SB-ML","name":"Malaita","admin":"Solomon Islands","adm0_a3":"SLB","type_en":"Province"}},{"type":"Polygon","arcs":[[6,7]],"id":"SLB-5130","properties":{"adm1_code":"SLB-5130","iso_3166_2":"SB-CT","name":"Capital Territory (Honiara)","admin":"Solomon Islands","adm0_a3":"SLB","type_en":"Province"}},{"type":"Polygon","arcs":[[-8,8]],"id":"SLB-1263","properties":{"adm1_code":"SLB-1263","iso_3166_2":"SB-GU","name":"Guadalcanal","admin":"Solomon Islands","adm0_a3":"SLB","type_en":"Province"}},{"type":"MultiPolygon","arcs":[[[9]],[[10]],[[11]]],"id":"SLB-1262","properties":{"adm1_code":"SLB-1262","iso_3166_2":"SB-CE","name":"Central","admin":"Solomon Islands","adm0_a3":"SLB","type_en":"Province"}},{"type":"MultiPolygon","arcs":[[[12]],[[13]],[[14]],[[15]],[[16]],[[17]],[[18]],[[19]]],"id":"SLB-3507","properties":{"adm1_code":"SLB-3507","iso_3166_2":"SB-CH","name":"Western","admin":"Solomon Islands","adm0_a3":"SLB","type_en":"Province"}},{"type":"MultiPolygon","arcs":[[[20]],[[21]],[[22]]],"id":"SLB-1264","properties":{"adm1_code":"SLB-1264","iso_3166_2":"SB-IS","name":"Isabel","admin":"Solomon Islands","adm0_a3":"SLB","type_en":"Province"}},{"type":"MultiPolygon","arcs":[[[23]],[[24]]],"id":"SLB-3508","properties":{"adm1_code":"SLB-3508","iso_3166_2":"SB-CH","name":"Choiseul","admin":"Solomon Islands","adm0_a3":"SLB","type_en":"Province"}}]}},"arcs":[[[42689,2072],[551,-722],[-711,-1350],[-918,1287],[-184,1131],[-642,596],[-505,1162],[-551,-534],[-1400,1225],[-413,1318],[367,1130],[734,-659],[1768,-2323],[941,-785],[963,-1476]],[[59237,19466],[-849,-220],[-619,534],[-941,-251],[-804,973],[-367,-220],[-1561,879],[-390,1005],[-1974,2261],[184,1193],[-482,1538],[184,1068],[-2043,1067],[92,1602],[918,408],[941,-911],[2065,-2951],[895,-785],[1125,126],[413,-723],[918,409],[436,-974],[505,-2323],[505,-942],[-46,-2575],[895,-188]],[[99471,3893],[528,-1318],[-1239,-63],[-666,1507],[895,848],[482,-974]],[[92609,21946],[-827,-1381],[-1055,-188],[-643,-1759],[-941,1068],[-23,1162],[643,31],[459,1790],[1308,188],[1079,-911]],[[50585,46405],[183,502],[1148,-4176],[229,-2763],[-1560,1915],[0,4522]],[[50286,42480],[-459,691],[-642,2543],[-2364,4333],[-895,1318],[-918,3925],[-138,1727],[-505,2009],[-321,2794],[573,974],[-1124,3202],[69,1130],[895,-722],[390,1036],[734,-2135],[1469,-3485],[69,-1098],[-551,-597],[46,-2292],[1813,-2606],[459,-3611],[1102,-5714],[482,-1350],[-184,-2072]],[[37709,45996],[780,220]],[[38489,46216],[-390,-753],[-390,533]],[[38489,46216],[827,-220],[2180,409],[803,-1194],[390,-1193],[735,-282],[620,-1130],[160,-1664],[987,-566],[344,-2668],[-1583,-1319],[-1217,910],[-665,0],[-987,1413],[-1744,-157],[-2548,565],[-987,1665],[-620,2511],[-482,1193],[138,4145],[826,910],[620,-659],[1423,-2889]],[[40486,51240],[941,910],[69,-1444],[-1010,534]],[[39109,53186],[436,911],[987,0],[390,-1005],[-390,-1130],[-1423,1224]],[[30893,53908],[-69,-1350],[-551,-533],[-528,942],[688,1318],[460,-377]],[[17168,59340],[46,-1193],[-1286,1099],[643,879],[597,-785]],[[21069,63265],[689,-722],[-253,-2387],[-826,-1412],[-574,251],[-619,1318],[69,1633],[665,1444],[849,-125]],[[14895,62354],[-711,-816],[-689,1005],[1286,2919],[596,-1632],[-482,-1476]],[[18774,62605],[-1079,1036],[-872,1382],[459,659],[-550,2386],[-758,377],[-1216,-345],[-413,-1193],[-620,408],[-46,1758],[849,722],[23,1005],[551,1947],[1056,1350],[688,-848],[276,-1162],[23,-1978],[482,-1350],[688,220],[826,-2072],[574,-3077],[-160,-1601],[-781,376]],[[8285,71962],[69,-1413],[-367,-785],[-367,2260],[665,-62]],[[12646,70957],[-918,722],[-482,2041],[482,2009],[803,471],[873,-1946],[91,-1821],[-482,-1916],[-367,440]],[[10007,78681],[-69,-880],[-1239,-3296],[-414,1287],[69,1130],[-918,1759],[-92,1726],[941,1162],[643,-1852],[1079,-1036]],[[1262,92024],[368,-1381],[-1102,-597],[-528,911],[643,2009],[619,-942]],[[35483,63641],[-459,-408],[-849,1350],[160,1319],[758,-188],[390,-2073]],[[24856,80784],[-1101,-534],[160,1445],[941,-911]],[[36998,63579],[-299,-566],[-1744,3517],[-735,314],[-734,973],[-1033,534],[-160,691],[-1010,753],[-3236,4050],[-941,1696],[-459,1413],[-964,1318],[45,1382],[-1147,1758],[-23,848],[1354,-1036],[436,502],[1423,-1978],[505,-1319],[1033,-1318],[-23,-722],[872,-1194],[1653,-973],[252,-628],[895,94],[253,-941],[3649,-5621],[-413,-1255],[551,-2292]],[[18591,84646],[183,-1256],[-1056,471],[391,1224],[482,-439]],[[16410,86059],[-780,-1539],[-872,314],[-1263,1162],[-849,94],[-436,1225],[-1125,1130],[-1124,2857],[-1010,3077],[-803,879],[-1194,2261],[-137,1287],[367,1193],[528,-157],[1078,-1224],[987,-1916],[2318,-2323],[689,-1601],[275,-2732],[1125,-1664],[206,-1036],[1079,-942],[941,-345]]],"bbox":[155.67486896273277,-11.844412104619664,166.98351129407865,-6.602770760193749],"transform":{"scale":[0.00011308755418900069,0.00005241693761363528],"translate":[155.67486896273277,-11.844412104619664]}}