{"type":"Topology","objects":{"a1":{"type":"GeometryCollection","geometries":[{"type":"Polygon","arcs":[[0,1,2]],"id":"SLV-1343","properties":{"adm1_code":"SLV-1343","iso_3166_2":"SV-AH","name":"Ahuachapán","admin":"El Salvador","adm0_a3":"SLV","type_en":"Department"}},{"type":"Polygon","arcs":[[-1,3,4,5,6]],"id":"SLV-1358","properties":{"adm1_code":"SLV-1358","iso_3166_2":"SV-SA","name":"Santa Ana","admin":"El Salvador","adm0_a3":"SLV","type_en":"Department"}},{"type":"Polygon","arcs":[[-5,7,8,9,10,11]],"id":"SLV-1357","properties":{"adm1_code":"SLV-1357","iso_3166_2":"SV-CH","name":"Chalatenango","admin":"El Salvador","adm0_a3":"SLV","type_en":"Department"}},{"type":"Polygon","arcs":[[-9,12,13,14,15]],"id":"SLV-1344","properties":{"adm1_code":"SLV-1344","iso_3166_2":"SV-CA","name":"Cabañas","admin":"El Salvador","adm0_a3":"SLV","type_en":"Department"}},{"type":"Polygon","arcs":[[16,17,18]],"id":"SLV-1351","properties":{"adm1_code":"SLV-1351","iso_3166_2":"SV-MO","name":"Morazán","admin":"El Salvador","adm0_a3":"SLV","type_en":"Department"}},{"type":"Polygon","arcs":[[-14,19,-19,20,21,22,23]],"id":"SLV-1352","properties":{"adm1_code":"SLV-1352","iso_3166_2":"SV-SM","name":"San Miguel","admin":"El Salvador","adm0_a3":"SLV","type_en":"Department"}},{"type":"Polygon","arcs":[[-18,24,-21]],"id":"SLV-1350","properties":{"adm1_code":"SLV-1350","iso_3166_2":"SV-UN","name":"La Unión","admin":"El Salvador","adm0_a3":"SLV","type_en":"Department"}},{"type":"Polygon","arcs":[[-2,-7,25,26]],"id":"SLV-1348","properties":{"adm1_code":"SLV-1348","iso_3166_2":"SV-SO","name":"Sonsonate","admin":"El Salvador","adm0_a3":"SLV","type_en":"Department"}},{"type":"Polygon","arcs":[[-6,-12,27,28,29,-26]],"id":"SLV-1346","properties":{"adm1_code":"SLV-1346","iso_3166_2":"SV-LI","name":"La Libertad","admin":"El Salvador","adm0_a3":"SLV","type_en":"Department"}},{"type":"Polygon","arcs":[[-29,30,31,32,33]],"id":"SLV-1347","properties":{"adm1_code":"SLV-1347","iso_3166_2":"SV-PA","name":"La Paz","admin":"El Salvador","adm0_a3":"SLV","type_en":"Department"}},{"type":"Polygon","arcs":[[-15,-24,34,35,-33,36]],"id":"SLV-1353","properties":{"adm1_code":"SLV-1353","iso_3166_2":"SV-SV","name":"San Vicente","admin":"El Salvador","adm0_a3":"SLV","type_en":"Department"}},{"type":"Polygon","arcs":[[-23,37,-35]],"id":"SLV-1354","properties":{"adm1_code":"SLV-1354","iso_3166_2":"SV-US","name":"Usulután","admin":"El Salvador","adm0_a3":"SLV","type_en":"Department"}},{"type":"Polygon","arcs":[[-10,-16,-37,-32,38]],"id":"SLV-1345","properties":{"adm1_code":"SLV-1345","iso_3166_2":"SV-CU","name":"Cuscatlán","admin":"El Salvador","adm0_a3":"SLV","type_en":"Department"}},{"type":"Polygon","arcs":[[-11,-39,-31,-28]],"id":"SLV-1349","properties":{"adm1_code":"SLV-1349","iso_3166_2":"SV-SS","name":"San Salvador","admin":"El Salvador","adm0_a3":"SLV","type_en":"Department"}}]}},"arcs":[[[14674,70051],[2174,-4036],[-870,-6641]],[[15978,59374],[-2174,-1171],[-543,-10026],[-1522,-7032],[-4348,2084],[-1304,-3255]],[[6087,39974],[-6087,5338],[0,10026],[3152,6250],[5978,8333],[5544,130]],[[14674,70051],[1630,8203],[3044,4167],[4456,1953],[-2826,8073],[1196,6641],[3043,911],[5652,-651],[652,-130]],[[31521,99218],[4240,-7162],[-3913,-11979],[-2935,-2864],[-761,-5078],[2282,-2344]],[[30434,69791],[-543,-7292],[-1848,-2213],[-1087,-11589]],[[26956,48697],[-5761,2605],[-3369,7682],[-1848,390]],[[31521,99218],[13370,-8073],[2391,-7943],[3696,-2083],[1848,-6641],[4130,0],[2065,-7031]],[[59021,67447],[-7717,-5208],[-2283,130]],[[49021,62369],[-3369,1823],[-2935,7161],[-2609,521]],[[40108,71874],[-5217,-1172]],[[34891,70702],[-4457,-911]],[[59021,67447],[2391,261],[5653,-3646],[0,-9245]],[[67065,54817],[-1413,-7291]],[[65652,47526],[-8587,4166],[-4783,-4948]],[[52282,46744],[-1848,1172],[-3369,10026],[1956,4427]],[[76412,60156],[2392,5599],[5434,-782],[3044,-8984],[2608,1953]],[[89890,57942],[653,-11979],[-1413,-11458],[-1522,-3516]],[[87608,30989],[-3587,-651],[-1957,5209],[-3043,1432],[-1957,4687],[2174,5078],[-2174,4167],[-652,9245]],[[67065,54817],[9347,5339]],[[87608,30989],[-870,-6640],[544,-6380],[-979,-10287],[-2173,-6640]],[[84130,1042],[-979,-131]],[[83151,911],[-4565,10417],[-4674,2865],[-2065,6770],[870,6250],[-435,11979],[-4783,2735]],[[67499,41927],[-1847,5599]],[[89890,57942],[5000,1823],[3479,-5469],[1630,-3515],[-1848,-8724],[-1413,-12500],[2609,-2604],[-435,-4557],[-3369,-2865],[-2392,-3255],[3478,-4688],[-217,-3125],[-4782,-5338],[-761,-3125],[-6739,1042]],[[26956,48697],[-2608,-10156],[-3805,-10546]],[[20543,27995],[-2934,1692],[-5435,-651],[-1196,5599],[-4891,5339]],[[34891,70702],[-326,-4427],[2609,-4036],[-327,-6901],[-1847,-9245],[2500,-6770],[-326,-10026],[2826,-3125]],[[40000,26172],[326,-5990]],[[40326,20182],[-4783,4557],[-5652,1823],[-5978,0],[-3370,1433]],[[40000,26172],[2065,8593],[2935,5860]],[[45000,40625],[3369,-2344],[2065,1562]],[[50434,39843],[326,-5078],[3261,-4036],[-435,-7943],[1631,-3255],[-2174,-11068]],[[53043,8463],[-12717,11719]],[[67499,41927],[-7391,-11198],[-2826,-16276],[-3587,-6510]],[[53695,7943],[-652,520]],[[50434,39843],[1848,6901]],[[83151,911],[-3913,-781],[-5434,2735],[-2174,-1954],[-3370,4167],[-2391,-1953],[-12174,4818]],[[45000,40625],[-1087,8333],[-2283,4036],[-2174,9766],[652,9114]]],"bbox":[-90.09927830368923,13.159122258288605,-87.71140799273256,14.423040799110936],"transform":{"scale":[0.000023878941898985704,0.000012639311801341325],"translate":[-90.09927830368923,13.159122258288605]}}