{"type":"Topology","objects":{"a1":{"type":"GeometryCollection","geometries":[{"type":"Polygon","arcs":[[0]],"id":"SOL+00?","properties":{"adm1_code":"SOL+00?","iso_3166_2":"-99-X11~","name":"Somaliland","admin":"Somaliland","adm0_a3":"SOL","type_en":null}}]}},"arcs":[[[84735,0],[-15883,0],[-948,849],[-12995,7826],[-9365,5658],[-15388,9099],[-8292,4903],[-618,660],[-5776,9383],[-1155,0],[-2063,2216],[-783,3724],[-1568,2452],[-578,1792],[-742,5516],[-1898,1084],[-1774,5563],[-1939,2641],[-742,3583],[-165,2593],[-1320,2876],[-743,3112],[825,754],[784,3347],[1114,2782],[1196,1320],[454,2263],[4208,11740],[825,2263],[2145,-2735],[1361,-1178],[454,-3206],[1485,-2970],[1197,-4197],[2722,-5327],[7096,-9901],[1815,-1697],[3136,-425],[2599,1273],[3341,-330],[660,1273],[3960,4008],[1362,2027],[2393,377],[1567,2358],[1362,848],[1278,2169],[784,94],[2806,-2168],[1980,-802],[1650,707],[2063,-2451],[1773,-472],[3383,1745],[3507,3960],[2021,1320],[2723,4055],[2970,2640],[2475,424],[2476,-2263],[1402,613],[2888,-141],[3383,613],[949,1838],[1155,330],[784,1509],[2846,1273],[2104,330],[3713,-2310],[825,-47],[0,-19283],[0,-28996],[0,-3206],[-5734,-15606],[-3796,-10419],[-5734,-15653]]],"bbox":[42.648142407048255,7.996475822664095,48.93966157417756,11.487063355325745],"transform":{"scale":[0.00006291582082950138,0.000034906224388860385],"translate":[42.648142407048255,7.996475822664095]}}