{"type":"Topology","objects":{"a1":{"type":"GeometryCollection","geometries":[{"type":"Polygon","arcs":[[0]],"id":"STP-4861","properties":{"adm1_code":"STP-4861","iso_3166_2":"ST-S","name":"São Tomé","admin":"Sao Tome and Principe","adm0_a3":"STP","type_en":null}},{"type":"Polygon","arcs":[[1]],"id":"STP-4862","properties":{"adm1_code":"STP-4862","iso_3166_2":"ST-P","name":"Príncipe","admin":"Sao Tome and Principe","adm0_a3":"STP","type_en":null}}]}},"arcs":[[[22021,22332],[6476,-4150],[-777,-7115],[-8031,-6719],[-14249,-4348],[-5440,11265],[7254,7608],[10621,3755],[4146,-296]],[[99999,98517],[-3886,-6719],[-9067,98],[6995,8103],[5958,-1482]]],"bbox":[6.461525151224578,0.03444730639013471,7.463392477343348,1.6999233002862155],"transform":{"scale":[0.000010018773448922191,0.00001665492648822569],"translate":[6.461525151224578,0.03444730639013471]}}