{"type":"Topology","objects":{"a1":{"type":"GeometryCollection","geometries":[{"type":"Polygon","arcs":[[0,1]],"id":"TGO-90","properties":{"adm1_code":"TGO-90","iso_3166_2":"TG-S","name":"Savanes","admin":"Togo","adm0_a3":"TGO","type_en":"Region"}},{"type":"Polygon","arcs":[[2,3,4,-1]],"id":"TGO-88","properties":{"adm1_code":"TGO-88","iso_3166_2":"TG-K","name":"Kara","admin":"Togo","adm0_a3":"TGO","type_en":"Region"}},{"type":"Polygon","arcs":[[5,6,-4,7]],"id":"TGO-89","properties":{"adm1_code":"TGO-89","iso_3166_2":"TG-C","name":"Centre","admin":"Togo","adm0_a3":"TGO","type_en":"Region"}},{"type":"Polygon","arcs":[[8,9,10,-6]],"id":"TGO-86","properties":{"adm1_code":"TGO-86","iso_3166_2":"TG-P","name":"Plateaux","admin":"Togo","adm0_a3":"TGO","type_en":"Region"}},{"type":"Polygon","arcs":[[-10,11]],"id":"TGO-87","properties":{"adm1_code":"TGO-87","iso_3166_2":"TG-M","name":"Maritime","admin":"Togo","adm0_a3":"TGO","type_en":"Region"}}]}},"arcs":[[[59733,81758],[-1600,-719],[-11867,-196],[-3466,-4512],[533,-1307],[-6533,32],[-1867,1243],[-4800,490],[-1333,1373]],[[28800,78162],[-2134,1602],[667,3727],[-2533,261],[-1734,1602],[-5466,0],[-2667,1863],[-5466,1929],[-5467,883],[-267,1340],[3067,2255],[2533,4937],[-2533,719],[-3600,-229],[-3200,948],[2533,-196],[25200,-1962],[5733,-457],[0,-1406],[9734,1112],[11599,98],[-2000,-3923],[-4133,-2027],[267,-2582],[-933,-3923],[11733,-2975]],[[59733,81758],[17066,-4381],[667,-817],[400,-7159],[-1200,-1438],[2667,-1177],[400,-2027],[1733,-1373]],[[81466,63386],[-2133,-621],[-8934,-915],[-4133,196],[-6400,-360],[-267,-2877],[-6000,-1111],[-7333,883],[-5600,-2125],[-2133,-1308],[-5200,-850]],[[33333,54298],[400,1602],[-3067,2256],[1600,2157],[2134,1014],[1733,3759],[-5600,2223],[-4933,-196],[-934,-850],[-4266,-360],[-134,3138],[6400,-98],[-266,2158],[-1334,1602],[800,2550],[2934,2909]],[[90799,45014],[-18800,98],[-400,-1340],[1867,-2779],[-1333,-3269],[-7334,-948],[-7066,491],[-6400,-196],[-8267,-1308],[-3600,-163]],[[39466,35600],[-1466,6178],[6666,1569],[-1066,1994],[-3467,2092],[-8933,2354],[-3867,3073],[6000,1438]],[[81466,63386],[7466,-3073],[1734,-1732],[400,-9154],[1733,-2255],[-2000,-2158]],[[90799,45014],[1200,-1928],[-133,-12848],[0,-1732],[133,-10690],[-4800,-98],[1600,-1765]],[[88799,15953],[-4133,-1439],[-6000,-65],[-6400,-2125],[-6533,1733],[-8267,196],[-2800,-981],[-667,-2321],[-3600,-1634],[-5333,-720]],[[45066,8597],[-4400,2223],[400,1308],[-5866,2419],[1200,1275],[-2534,1504],[5334,1144],[0,2550],[2400,3269],[-1067,1471],[-3867,-294],[-2533,1438],[0,2125],[3200,1013],[2533,1733],[-400,3825]],[[88799,15953],[1200,-458],[133,-3171],[267,-2190],[3067,-785],[1733,-1732],[2800,-1144],[2000,-2975],[-7600,-621],[-667,-621],[-9866,-654],[-12533,-1602],[-400,1013],[-4267,197],[-4267,1634],[-1466,1602],[-3867,0],[-7200,1896],[-2800,2255]]],"bbox":[-0.16481496168015042,6.1005980114306055,1.7818184439910283,11.13487772025286],"transform":{"scale":[0.000019466528721999006,0.00005034330052122775],"translate":[-0.16481496168015042,6.1005980114306055]}}