{"type":"Topology","objects":{"a1":{"type":"GeometryCollection","geometries":[{"type":"Polygon","arcs":[[0,1,2,3,4]],"id":"THA-443","properties":{"adm1_code":"THA-443","iso_3166_2":"TH-32","name":"Surin","admin":"Thailand","adm0_a3":"THA","type_en":"Province"}},{"type":"Polygon","arcs":[[-5,5,6,7,8]],"id":"THA-425","properties":{"adm1_code":"THA-425","iso_3166_2":"TH-33","name":"Si Sa Ket","admin":"Thailand","adm0_a3":"THA","type_en":"Province"}},{"type":"Polygon","arcs":[[-8,9,10,11]],"id":"THA-426","properties":{"adm1_code":"THA-426","iso_3166_2":"TH-34","name":"Ubon Ratchathani","admin":"Thailand","adm0_a3":"THA","type_en":"Province"}},{"type":"Polygon","arcs":[[12,13,14,15,16,17]],"id":"THA-433","properties":{"adm1_code":"THA-433","iso_3166_2":"TH-27","name":"Sa Kaeo","admin":"Thailand","adm0_a3":"THA","type_en":"Province"}},{"type":"Polygon","arcs":[[18,-18,19,20,21,-2]],"id":"THA-436","properties":{"adm1_code":"THA-436","iso_3166_2":"TH-31","name":"Buri Ram","admin":"Thailand","adm0_a3":"THA","type_en":"Province"}},{"type":"MultiPolygon","arcs":[[[22,23]],[[24]],[[25]]],"id":"THA-435","properties":{"adm1_code":"THA-435","iso_3166_2":"TH-23","name":"Trat","admin":"Thailand","adm0_a3":"THA","type_en":"Province"}},{"type":"Polygon","arcs":[[-14,26,-23,27,28,29,30]],"id":"THA-432","properties":{"adm1_code":"THA-432","iso_3166_2":"TH-22","name":"Chanthaburi","admin":"Thailand","adm0_a3":"THA","type_en":"Province"}},{"type":"MultiPolygon","arcs":[[[31,32,33]],[[34]]],"id":"THA-385","properties":{"adm1_code":"THA-385","iso_3166_2":"TH-91","name":"Satun","admin":"Thailand","adm0_a3":"THA","type_en":"Province"}},{"type":"MultiPolygon","arcs":[[[-34,35,36,37,38,39,40]],[[41,42,43]]],"id":"THA-386","properties":{"adm1_code":"THA-386","iso_3166_2":"TH-90","name":"Songkhla","admin":"Thailand","adm0_a3":"THA","type_en":"Province"}},{"type":"Polygon","arcs":[[-40,44,45,46]],"id":"THA-388","properties":{"adm1_code":"THA-388","iso_3166_2":"TH-95","name":"Yala","admin":"Thailand","adm0_a3":"THA","type_en":"Province"}},{"type":"Polygon","arcs":[[-46,47,48]],"id":"THA-493","properties":{"adm1_code":"THA-493","iso_3166_2":"TH-96","name":"Narathiwat","admin":"Thailand","adm0_a3":"THA","type_en":"Province"}},{"type":"Polygon","arcs":[[49,50,51,52]],"id":"THA-389","properties":{"adm1_code":"THA-389","iso_3166_2":"TH-57","name":"Chiang Rai","admin":"Thailand","adm0_a3":"THA","type_en":"Province"}},{"type":"Polygon","arcs":[[-52,53,54,55,56,57]],"id":"THA-390","properties":{"adm1_code":"THA-390","iso_3166_2":"TH-50","name":"Chiang Mai","admin":"Thailand","adm0_a3":"THA","type_en":"Province"}},{"type":"Polygon","arcs":[[-57,58,59]],"id":"THA-374","properties":{"adm1_code":"THA-374","iso_3166_2":"TH-58","name":"Mae Hong Son","admin":"Thailand","adm0_a3":"THA","type_en":"Province"}},{"type":"Polygon","arcs":[[-56,60,61,62,63,64,65,66,67,-59]],"id":"THA-404","properties":{"adm1_code":"THA-404","iso_3166_2":"TH-63","name":"Tak","admin":"Thailand","adm0_a3":"THA","type_en":"Province"}},{"type":"Polygon","arcs":[[-67,68,69,70,71,72]],"id":"THA-399","properties":{"adm1_code":"THA-399","iso_3166_2":"TH-71","name":"Kanchanaburi","admin":"Thailand","adm0_a3":"THA","type_en":"Province"}},{"type":"Polygon","arcs":[[73,74,75,76]],"id":"THA-420","properties":{"adm1_code":"THA-420","iso_3166_2":"TH-77","name":"Prachuap Khiri Khan","admin":"Thailand","adm0_a3":"THA","type_en":"Province"}},{"type":"Polygon","arcs":[[77,78,79,80,-75]],"id":"THA-419","properties":{"adm1_code":"THA-419","iso_3166_2":"TH-76","name":"Phetchaburi","admin":"Thailand","adm0_a3":"THA","type_en":"Province"}},{"type":"Polygon","arcs":[[-72,81,82,83,-79,84]],"id":"THA-421","properties":{"adm1_code":"THA-421","iso_3166_2":"TH-70","name":"Ratchaburi","admin":"Thailand","adm0_a3":"THA","type_en":"Province"}},{"type":"Polygon","arcs":[[85,-77,86,87,88]],"id":"THA-375","properties":{"adm1_code":"THA-375","iso_3166_2":"TH-86","name":"Chumphon","admin":"Thailand","adm0_a3":"THA","type_en":"Province"}},{"type":"Polygon","arcs":[[-89,89,90,91]],"id":"THA-379","properties":{"adm1_code":"THA-379","iso_3166_2":"TH-85","name":"Ranong","admin":"Thailand","adm0_a3":"THA","type_en":"Province"}},{"type":"Polygon","arcs":[[-50,92,93,94,95]],"id":"THA-394","properties":{"adm1_code":"THA-394","iso_3166_2":"TH-56","name":"Phayao","admin":"Thailand","adm0_a3":"THA","type_en":"Province"}},{"type":"Polygon","arcs":[[96,97,98,-94]],"id":"THA-393","properties":{"adm1_code":"THA-393","iso_3166_2":"TH-55","name":"Nan","admin":"Thailand","adm0_a3":"THA","type_en":"Province"}},{"type":"Polygon","arcs":[[99,100,101,102,-98]],"id":"THA-398","properties":{"adm1_code":"THA-398","iso_3166_2":"TH-53","name":"Uttaradit","admin":"Thailand","adm0_a3":"THA","type_en":"Province"}},{"type":"Polygon","arcs":[[103,104,105,106,107,108,-101]],"id":"THA-396","properties":{"adm1_code":"THA-396","iso_3166_2":"TH-65","name":"Phitsanulok","admin":"Thailand","adm0_a3":"THA","type_en":"Province"}},{"type":"Polygon","arcs":[[109,110,111,112,113,114,-105]],"id":"THA-445","properties":{"adm1_code":"THA-445","iso_3166_2":"TH-42","name":"Loei","admin":"Thailand","adm0_a3":"THA","type_en":"Province"}},{"type":"Polygon","arcs":[[115,116,117,118]],"id":"THA-5499","properties":{"adm1_code":"THA-5499","iso_3166_2":"TH-38","name":"Bueng Kan","admin":"Thailand","adm0_a3":"THA","type_en":"Province"}},{"type":"Polygon","arcs":[[-111,119,-118,120,121]],"id":"THA-446","properties":{"adm1_code":"THA-446","iso_3166_2":"TH-43","name":"Nong Khai","admin":"Thailand","adm0_a3":"THA","type_en":"Province"}},{"type":"Polygon","arcs":[[-116,122,123,124]],"id":"THA-472","properties":{"adm1_code":"THA-472","iso_3166_2":"TH-48","name":"Nakhon Phanom","admin":"Thailand","adm0_a3":"THA","type_en":"Province"}},{"type":"Polygon","arcs":[[-124,125,126,127,128,129,130]],"id":"THA-473","properties":{"adm1_code":"THA-473","iso_3166_2":"TH-49","name":"Mukdahan","admin":"Thailand","adm0_a3":"THA","type_en":"Province"}},{"type":"Polygon","arcs":[[-11,131,-127,132]],"id":"THA-427","properties":{"adm1_code":"THA-427","iso_3166_2":"TH-37","name":"Amnat Charoen","admin":"Thailand","adm0_a3":"THA","type_en":"Province"}},{"type":"Polygon","arcs":[[-91,133,134,135]],"id":"THA-378","properties":{"adm1_code":"THA-378","iso_3166_2":"TH-82","name":"Phangnga","admin":"Thailand","adm0_a3":"THA","type_en":"Province"}},{"type":"Polygon","arcs":[[-135,136,137,138,139]],"id":"THA-382","properties":{"adm1_code":"THA-382","iso_3166_2":"TH-81","name":"Krabi","admin":"Thailand","adm0_a3":"THA","type_en":"Province"}},{"type":"Polygon","arcs":[[-33,140,-139,141,142,-36]],"id":"THA-387","properties":{"adm1_code":"THA-387","iso_3166_2":"TH-92","name":"Trang","admin":"Thailand","adm0_a3":"THA","type_en":"Province"}},{"type":"Polygon","arcs":[[-39,143,-48,-45]],"id":"THA-494","properties":{"adm1_code":"THA-494","iso_3166_2":"TH-94","name":"Pattani","admin":"Thailand","adm0_a3":"THA","type_en":"Province"}},{"type":"Polygon","arcs":[[-37,-143,144,-43,145]],"id":"THA-383","properties":{"adm1_code":"THA-383","iso_3166_2":"TH-93","name":"Phatthalung","admin":"Thailand","adm0_a3":"THA","type_en":"Province"}},{"type":"Polygon","arcs":[[-44,-145,-142,-138,146,147]],"id":"THA-376","properties":{"adm1_code":"THA-376","iso_3166_2":"TH-80","name":"Nakhon Si Thammarat","admin":"Thailand","adm0_a3":"THA","type_en":"Province"}},{"type":"MultiPolygon","arcs":[[[-88,148,-147,-137,-134,-90]],[[149]],[[150]]],"id":"THA-380","properties":{"adm1_code":"THA-380","iso_3166_2":"TH-84","name":"Surat Thani","admin":"Thailand","adm0_a3":"THA","type_en":"Province"}},{"type":"Polygon","arcs":[[-80,-84,151,152]],"id":"THA-424","properties":{"adm1_code":"THA-424","iso_3166_2":"TH-75","name":"Samut Songkhram","admin":"Thailand","adm0_a3":"THA","type_en":"Province"}},{"type":"Polygon","arcs":[[-83,153,154,155,-152]],"id":"THA-423","properties":{"adm1_code":"THA-423","iso_3166_2":"TH-74","name":"Samut Sakhon","admin":"Thailand","adm0_a3":"THA","type_en":"Province"}},{"type":"Polygon","arcs":[[-155,156,157,158,159,160,161]],"id":"THA-416","properties":{"adm1_code":"THA-416","iso_3166_2":"TH-10","name":"Bangkok Metropolis","admin":"Thailand","adm0_a3":"THA","type_en":"Province"}},{"type":"Polygon","arcs":[[-161,162,163]],"id":"THA-422","properties":{"adm1_code":"THA-422","iso_3166_2":"TH-11","name":"Samut Prakan","admin":"Thailand","adm0_a3":"THA","type_en":"Province"}},{"type":"Polygon","arcs":[[-15,-31,164,165,-163,-160,166,167,168]],"id":"THA-431","properties":{"adm1_code":"THA-431","iso_3166_2":"TH-24","name":"Chachoengsao","admin":"Thailand","adm0_a3":"THA","type_en":"Province"}},{"type":"Polygon","arcs":[[-30,169,170,-165]],"id":"THA-430","properties":{"adm1_code":"THA-430","iso_3166_2":"TH-20","name":"Chon Buri","admin":"Thailand","adm0_a3":"THA","type_en":"Province"}},{"type":"Polygon","arcs":[[-29,171,-170]],"id":"THA-434","properties":{"adm1_code":"THA-434","iso_3166_2":"TH-21","name":"Rayong","admin":"Thailand","adm0_a3":"THA","type_en":"Province"}},{"type":"Polygon","arcs":[[172]],"id":"THA-377","properties":{"adm1_code":"THA-377","iso_3166_2":"TH-83","name":"Phuket","admin":"Thailand","adm0_a3":"THA","type_en":"Province"}},{"type":"Polygon","arcs":[[-21,173,174,175,-114,176,177,178,179]],"id":"THA-438","properties":{"adm1_code":"THA-438","iso_3166_2":"TH-40","name":"Khon Kaen","admin":"Thailand","adm0_a3":"THA","type_en":"Province"}},{"type":"Polygon","arcs":[[-117,-125,-131,180,181,-121]],"id":"THA-447","properties":{"adm1_code":"THA-447","iso_3166_2":"TH-47","name":"Sakon Nakhon","admin":"Thailand","adm0_a3":"THA","type_en":"Province"}},{"type":"Polygon","arcs":[[-70,182,183,184,185,186,187]],"id":"THA-403","properties":{"adm1_code":"THA-403","iso_3166_2":"TH-72","name":"Suphan Buri","admin":"Thailand","adm0_a3":"THA","type_en":"Province"}},{"type":"Polygon","arcs":[[-185,188,189,190,191]],"id":"THA-414","properties":{"adm1_code":"THA-414","iso_3166_2":"TH-17","name":"Sing Buri","admin":"Thailand","adm0_a3":"THA","type_en":"Province"}},{"type":"Polygon","arcs":[[-184,192,193,-189]],"id":"THA-407","properties":{"adm1_code":"THA-407","iso_3166_2":"TH-18","name":"Chai Nat","admin":"Thailand","adm0_a3":"THA","type_en":"Province"}},{"type":"Polygon","arcs":[[-186,-192,194,195]],"id":"THA-406","properties":{"adm1_code":"THA-406","iso_3166_2":"TH-15","name":"Ang Thong","admin":"Thailand","adm0_a3":"THA","type_en":"Province"}},{"type":"Polygon","arcs":[[196,197,198,199,200]],"id":"THA-415","properties":{"adm1_code":"THA-415","iso_3166_2":"TH-19","name":"Saraburi","admin":"Thailand","adm0_a3":"THA","type_en":"Province"}},{"type":"Polygon","arcs":[[-17,201,202,-197,203,204,-174,-20]],"id":"THA-441","properties":{"adm1_code":"THA-441","iso_3166_2":"TH-30","name":"Nakhon Ratchasima","admin":"Thailand","adm0_a3":"THA","type_en":"Province"}},{"type":"Polygon","arcs":[[-168,205,-198,-203,206]],"id":"THA-409","properties":{"adm1_code":"THA-409","iso_3166_2":"TH-26","name":"Nakhon Nayok","admin":"Thailand","adm0_a3":"THA","type_en":"Province"}},{"type":"Polygon","arcs":[[-159,207,208,-199,-206,-167]],"id":"THA-413","properties":{"adm1_code":"THA-413","iso_3166_2":"TH-13","name":"Pathum Thani","admin":"Thailand","adm0_a3":"THA","type_en":"Province"}},{"type":"Polygon","arcs":[[-66,209,-193,-183,-69]],"id":"THA-405","properties":{"adm1_code":"THA-405","iso_3166_2":"TH-61","name":"Uthai Thani","admin":"Thailand","adm0_a3":"THA","type_en":"Province"}},{"type":"Polygon","arcs":[[-130,210,211,-179,212,-181]],"id":"THA-439","properties":{"adm1_code":"THA-439","iso_3166_2":"TH-46","name":"Kalasin","admin":"Thailand","adm0_a3":"THA","type_en":"Province"}},{"type":"Polygon","arcs":[[-4,213,-211,-129,214,-6]],"id":"THA-442","properties":{"adm1_code":"THA-442","iso_3166_2":"TH-45","name":"Roi Et","admin":"Thailand","adm0_a3":"THA","type_en":"Province"}},{"type":"Polygon","arcs":[[-3,-22,-180,-212,-214]],"id":"THA-440","properties":{"adm1_code":"THA-440","iso_3166_2":"TH-44","name":"Maha Sarakham","admin":"Thailand","adm0_a3":"THA","type_en":"Province"}},{"type":"Polygon","arcs":[[-113,215,-177]],"id":"THA-449","properties":{"adm1_code":"THA-449","iso_3166_2":"TH-39","name":"Nong Bua Lam Phu","admin":"Thailand","adm0_a3":"THA","type_en":"Province"}},{"type":"Polygon","arcs":[[-191,216,217,-204,-201,218,-195]],"id":"THA-408","properties":{"adm1_code":"THA-408","iso_3166_2":"TH-16","name":"Lop Buri","admin":"Thailand","adm0_a3":"THA","type_en":"Province"}},{"type":"Polygon","arcs":[[-112,-122,-182,-213,-178,-216]],"id":"THA-448","properties":{"adm1_code":"THA-448","iso_3166_2":"TH-41","name":"Udon Thani","admin":"Thailand","adm0_a3":"THA","type_en":"Province"}},{"type":"Polygon","arcs":[[-187,-196,-219,-200,-209,219,220]],"id":"THA-412","properties":{"adm1_code":"THA-412","iso_3166_2":"TH-14","name":"Phra Nakhon Si Ayutthaya","admin":"Thailand","adm0_a3":"THA","type_en":"Province"}},{"type":"Polygon","arcs":[[-158,221,-220,-208]],"id":"THA-417","properties":{"adm1_code":"THA-417","iso_3166_2":"TH-12","name":"Nonthaburi","admin":"Thailand","adm0_a3":"THA","type_en":"Province"}},{"type":"Polygon","arcs":[[-71,-188,-221,-222,-157,-154,-82]],"id":"THA-418","properties":{"adm1_code":"THA-418","iso_3166_2":"TH-73","name":"Nakhon Pathom","admin":"Thailand","adm0_a3":"THA","type_en":"Province"}},{"type":"Polygon","arcs":[[-64,222,-108,223,224]],"id":"THA-400","properties":{"adm1_code":"THA-400","iso_3166_2":"TH-62","name":"Kamphaeng Phet","admin":"Thailand","adm0_a3":"THA","type_en":"Province"}},{"type":"Polygon","arcs":[[-51,-96,225,226,-62,227,-54]],"id":"THA-391","properties":{"adm1_code":"THA-391","iso_3166_2":"TH-52","name":"Lampang","admin":"Thailand","adm0_a3":"THA","type_en":"Province"}},{"type":"Polygon","arcs":[[-63,-227,228,-102,-109,-223]],"id":"THA-397","properties":{"adm1_code":"THA-397","iso_3166_2":"TH-64","name":"Sukhothai","admin":"Thailand","adm0_a3":"THA","type_en":"Province"}},{"type":"Polygon","arcs":[[-65,-225,229,230,-217,-190,-194,-210]],"id":"THA-411","properties":{"adm1_code":"THA-411","iso_3166_2":"TH-60","name":"Nakhon Sawan","admin":"Thailand","adm0_a3":"THA","type_en":"Province"}},{"type":"Polygon","arcs":[[-106,-115,-176,231,-218,-231,232]],"id":"THA-402","properties":{"adm1_code":"THA-402","iso_3166_2":"TH-67","name":"Phetchabun","admin":"Thailand","adm0_a3":"THA","type_en":"Province"}},{"type":"Polygon","arcs":[[-107,-233,-230,-224]],"id":"THA-401","properties":{"adm1_code":"THA-401","iso_3166_2":"TH-66","name":"Phichit","admin":"Thailand","adm0_a3":"THA","type_en":"Province"}},{"type":"Polygon","arcs":[[-175,-205,-232]],"id":"THA-437","properties":{"adm1_code":"THA-437","iso_3166_2":"TH-36","name":"Chaiyaphum","admin":"Thailand","adm0_a3":"THA","type_en":"Province"}},{"type":"Polygon","arcs":[[-95,-99,-103,-229,-226]],"id":"THA-395","properties":{"adm1_code":"THA-395","iso_3166_2":"TH-54","name":"Phrae","admin":"Thailand","adm0_a3":"THA","type_en":"Province"}},{"type":"Polygon","arcs":[[-55,-228,-61]],"id":"THA-392","properties":{"adm1_code":"THA-392","iso_3166_2":"TH-51","name":"Lamphun","admin":"Thailand","adm0_a3":"THA","type_en":"Province"}},{"type":"Polygon","arcs":[[-16,-169,-207,-202]],"id":"THA-410","properties":{"adm1_code":"THA-410","iso_3166_2":"TH-25","name":"Prachin Buri","admin":"Thailand","adm0_a3":"THA","type_en":"Province"}},{"type":"Polygon","arcs":[[-7,-215,-128,-132,-10]],"id":"THA-428","properties":{"adm1_code":"THA-428","iso_3166_2":"TH-35","name":"Yasothon","admin":"Thailand","adm0_a3":"THA","type_en":"Province"}}]}},"arcs":[[[80595,58886],[-847,66],[-1253,-155],[-565,167],[-1724,100],[-1599,255],[-1128,-322],[-2571,-211]],[[70908,58786],[157,755],[-282,967],[658,1167],[1317,667],[595,467],[0,1679],[659,766],[-1599,356],[-878,-278],[-1536,367],[-783,422],[156,367]],[[69372,66488],[2759,-544],[878,177]],[[73009,66121],[1316,45],[784,200],[2351,-178],[721,167],[1693,-356]],[[79874,65999],[1097,-311],[-972,-634],[-282,-644],[564,-923],[-1034,-945],[-63,-444],[784,-156],[157,-500],[627,-489],[-126,-756],[188,-656],[-219,-655]],[[79874,65999],[1191,845],[564,200]],[[81629,67044],[251,-434],[1254,-900],[1661,-356],[314,-200]],[[85109,65154],[2006,-300],[1191,34],[565,-667],[-502,-122],[63,-1068],[1630,-733],[-126,-345],[565,-622],[-377,-1078],[972,-1123]],[[91096,59130],[-1724,311],[-533,-200],[-1598,0],[-627,-333],[-1035,-22],[-2539,300],[-2445,-300]],[[85109,65154],[188,589],[-627,412],[251,644],[1066,45],[250,322]],[[86237,67166],[1505,-122],[1850,-11],[407,-423],[1035,-177],[376,944],[1410,1957],[-282,644],[878,645]],[[93416,70623],[3824,-611],[-721,-334],[126,-489],[909,-800],[909,-11],[1066,-278],[470,-589],[-721,-1401],[-1285,-355],[877,-334],[63,-356],[-1316,-655],[-126,-278],[1693,-1056],[-596,-300],[-564,-989],[282,-1301],[-188,-389],[-972,-733],[-971,-289],[-1819,-267],[-1003,-778],[-658,-111],[-846,589],[-32,533],[-721,89]],[[66927,57585],[-533,-978],[-1160,-567],[-909,-1178],[-1504,-456],[-721,-855],[-2195,-23],[-31,-533],[0,-1434]],[[59874,51561],[-721,-478],[-1191,278],[-533,-367],[-1066,-189],[-31,634],[-502,556]],[[55830,51995],[-595,978],[627,311],[-784,367],[-690,956]],[[54388,54607],[376,578],[-533,122],[94,711],[502,700],[972,212],[721,800]],[[56520,57730],[1379,-323],[1662,-66],[689,189],[1693,-167],[1128,111]],[[63071,57474],[1442,-111],[1286,222],[1128,0]],[[70908,58786],[-1912,-312],[-815,-389],[-1254,-500]],[[63071,57474],[283,934],[-690,1133],[-909,823],[282,556],[-63,1011],[784,45],[-157,855],[1411,0],[1003,289],[314,612],[940,555],[1505,245],[94,1167],[-596,923],[-1254,33],[-470,256],[-125,633]],[[65423,67544],[971,-22],[408,922],[533,111]],[[67335,68555],[752,-422],[-407,-367],[1348,-811],[344,-467]],[[60187,45381],[-313,1345],[784,89],[0,645],[1222,544]],[[61880,48004],[0,-622],[753,-156],[2476,-1389],[-564,-556],[-282,-1111],[877,-900],[941,-1212],[846,-678],[0,-800],[-94,644],[-1567,1079],[-314,933],[-1410,756],[-753,-411],[-1160,389],[-1661,333],[-878,500],[1097,578]],[[62695,40991],[533,-156],[-282,-778],[-658,245],[407,689]],[[60720,43258],[-595,-500],[-690,167],[-439,934],[659,100],[1065,-701]],[[59874,51561],[627,-922],[1317,-956],[-314,-456],[470,-856],[-94,-367]],[[60187,45381],[-532,-278],[-1004,45],[-1880,1123],[-1348,322],[-2069,1089]],[[53354,47682],[376,467],[31,856],[-1316,944],[-251,678]],[[52194,50627],[282,256]],[[52476,50883],[627,67],[2727,1045]],[[34138,7169],[-377,-33],[-470,-1701],[-1536,845],[-533,644],[-1943,1067],[-1317,378],[-94,1012],[815,689]],[[28683,10070],[815,89],[847,-500],[658,411],[595,-400],[690,-45]],[[32288,9625],[909,-889],[1129,-311],[-188,-1256]],[[27774,5935],[-846,445],[282,500],[658,111],[314,-778],[-408,-278]],[[32288,9625],[-188,189]],[[32100,9814],[1505,600],[1504,178],[1192,701]],[[36301,11293],[219,-667],[1097,-478],[847,22],[658,333],[1849,-1422],[1035,-145],[1787,-711],[846,11]],[[44639,8236],[-345,-845],[753,-644]],[[45047,6747],[31,-356],[-909,-723],[-1254,-300],[-63,-633],[-1160,-278]],[[41692,4457],[-219,789],[-1129,523],[-783,-301],[-3260,534],[-721,333],[-439,756],[-1003,78]],[[35862,15538],[1191,-3123],[721,-967],[815,-700],[-219,-222],[-1317,655],[-376,578],[-32,1001],[-1003,600],[-188,956],[-470,255],[-815,-155]],[[34169,14416],[-878,200]],[[33291,14616],[314,489],[2257,433]],[[45047,6747],[689,-256],[1756,11],[501,-344],[1975,311],[1129,-278]],[[51097,6191],[-815,-756],[-1192,-200],[-658,-1467],[1285,-1023],[157,-1022]],[[49874,1723],[-3041,-723],[-282,-589],[-1473,-411],[-1599,911],[533,845],[658,145],[283,1122],[-502,334],[345,755],[-1285,178],[-784,-255],[-1035,422]],[[51097,6191],[470,500],[1003,-367]],[[52570,6324],[1003,-744],[1223,-423],[1975,-978],[-157,-1100],[-1223,-556],[-470,-478],[-63,-556],[-1379,-800],[-1222,178],[-408,-11],[-1034,956],[-941,-89]],[[36457,95131],[-533,-323],[-1943,-411],[-658,-978],[-2634,-489],[-31,567],[-2696,-356]],[[27962,93141],[-533,489],[-627,-200],[-251,-467],[126,-744],[-564,-1490],[-1630,-500]],[[24483,90229],[-1098,1267],[408,600],[-564,1523],[313,311],[-596,767],[847,311],[533,645],[0,634],[407,422],[941,111],[783,-344],[345,578],[-972,311],[659,467],[-690,200]],[[25799,98032],[-251,622],[188,678],[1787,-267],[1442,145],[815,600],[1254,189],[533,-389],[1379,-467],[188,-478],[1286,689],[1034,345],[690,-211],[1160,-1201],[815,-278],[188,-566],[-847,-1356],[-783,-478],[-220,-478]],[[24483,90229],[-345,-155],[-282,-834],[219,-589],[-502,-945],[-94,-645]],[[23479,87061],[-1159,423],[-533,778],[-1599,-356],[-408,89],[-1003,-934],[-1818,-577],[-721,-89],[-439,-867],[1223,-334],[439,-733],[-157,-967],[533,-212],[752,-1022],[-157,-489],[-721,-200],[-1536,267]],[[16175,81838],[-1191,-612],[157,-400],[-784,-311],[-345,-611],[408,-312],[-31,-911],[-1787,-256],[-941,345],[-282,622],[94,878],[-752,378],[533,789]],[[11254,81437],[-1097,556],[376,367],[-1724,911],[-220,378],[533,456],[-439,978],[188,834],[753,511],[-659,700],[63,1578],[-439,389],[502,734],[-63,945],[439,444],[1097,-22],[1097,-722],[1536,-156],[1819,211],[470,400],[-784,690],[251,489],[-220,766],[188,601],[-689,856],[-878,677]],[[13354,95008],[658,-200],[1317,467],[1317,123],[689,288],[909,-411],[1097,289],[439,389],[94,1323],[1223,511],[721,34],[1411,-401],[1755,256],[815,356]],[[11254,81437],[-1223,-333],[-1191,-56],[-2351,-566]],[[6489,80482],[-1693,844],[-627,612],[-376,744],[815,600],[-846,1190],[-784,644],[219,445],[-909,144],[-407,-422],[-909,456],[-126,478],[-846,978],[533,-356],[1128,-33],[1317,422],[1599,189],[94,278],[-470,1634],[-753,411],[847,756],[1003,500],[-63,1278],[-470,656],[1003,645],[251,522],[1661,456],[126,1022],[1128,-89],[1285,-466],[2665,-134],[470,122]],[[16175,81838],[345,-301],[-470,-689],[251,-833],[1724,311],[815,756],[972,-223]],[[19812,80859],[250,-733],[-250,-534],[407,-277],[1536,-323],[533,411],[627,-22],[596,-889]],[[23511,78492],[0,-1023],[-470,-333],[31,-889],[784,-267]],[[23856,75980],[-596,-1111],[-596,-478],[-94,-756],[-1536,-445],[-1285,34],[-125,-1334],[313,-556],[31,-1156],[533,-222],[126,-856]],[[20627,69100],[501,-678]],[[21128,68422],[-219,-967],[-721,-745],[157,-800],[-502,-889],[-407,-300]],[[19436,64721],[-1098,389],[-2727,2290],[-1442,389]],[[14169,67789],[345,1089],[125,945],[909,944],[1787,-44],[909,1000],[251,712],[-1128,511],[-251,-434],[-1285,-689],[-314,200],[-313,1090],[-815,600],[-189,455],[-1097,701],[815,855],[-1065,1090],[-1474,266],[-1128,1012],[-1442,689],[-157,467],[-627,222],[-658,678],[-878,334]],[[19436,64721],[250,-978],[815,-423],[784,56],[1756,-156]],[[23041,63220],[344,-700],[-282,-178],[1191,-700],[659,0],[251,-500],[846,245],[188,466],[1630,-11],[1317,-800],[940,-256],[188,-611],[-689,-200],[-189,-2079],[-501,-266],[533,-745]],[[29467,56885],[815,-789]],[[30282,56096],[-1003,-867],[-1286,44],[-1379,-233],[-1160,56],[-1504,-301],[-1286,101],[-1222,-289]],[[21442,54607],[-470,266],[-189,678],[-909,500],[-877,890],[-2320,889],[-2477,1189],[-1567,1556],[-1442,767],[-658,567],[-627,1267],[-314,900],[502,634],[909,478],[1223,-234],[219,701],[878,166],[1034,-200],[94,667],[-282,1501]],[[21379,36478],[846,467],[377,600],[1473,1212],[752,811],[157,678],[1097,223],[909,644],[282,612],[-909,533],[220,545],[-658,333],[344,723],[-971,-45],[-126,878],[-846,1423],[219,678]],[[24545,46793],[847,133],[1818,-278],[1661,245],[753,311],[1630,56]],[[31254,47260],[250,-1223],[377,-478],[-345,-700],[439,-589],[-784,-812],[-1191,-711],[-533,-911],[62,-612],[-783,-222],[-1317,-1256],[-219,-556],[-659,-722],[189,-934],[-847,-155],[-251,-389],[94,-801]],[[25736,36189],[-1097,-277],[-1755,22],[-1348,311],[-157,233]],[[24545,46793],[-1536,667],[-752,467],[-533,733],[-251,1023],[-690,300],[126,889],[1003,278]],[[21912,51150],[1661,-267],[283,367],[1253,-300],[2571,211],[470,667],[1881,111]],[[30031,51939],[0,-400],[1223,144]],[[31254,51683],[470,-489],[909,-444],[376,-645],[-533,-522],[-439,-901],[-439,-377],[-344,-1045]],[[30282,56096],[752,-122],[251,-556],[-157,-667],[972,-44],[596,-367]],[[32696,54340],[-502,-1212]],[[32194,53128],[-1442,34],[-721,-1223]],[[21912,51150],[-157,600],[188,856],[-439,1045],[-62,956]],[[18213,34778],[1128,244],[345,901],[1693,555]],[[25736,36189],[-94,-800],[-2319,-1667],[-690,-645],[0,-622],[-1129,-578],[596,-1000],[-501,-556],[94,-1912],[-283,-355]],[[21410,28054],[-1316,-389],[-1599,-34],[-1473,-344],[-376,-523]],[[16646,26764],[-1004,367],[-313,878],[972,489],[627,556],[595,55],[972,467],[408,734],[-502,422],[220,656],[438,378],[-564,556],[94,400],[690,355],[62,400],[-595,1001],[-533,300]],[[16646,26764],[313,-367],[-1442,-878],[-1755,-744]],[[13762,24775],[-972,344],[-502,-89]],[[12288,25030],[659,1190],[909,222],[-565,456],[878,578],[126,622],[-502,256],[1034,755],[1474,1890],[313,822],[533,1156],[-533,689],[220,445],[1379,667]],[[36457,95131],[878,-1267],[1348,-189]],[[38683,93675],[-658,-1001],[1066,-300],[-157,-444],[376,-856],[-1254,-522],[-596,-656],[-658,-89],[-815,-812]],[[35987,88995],[-2194,100],[-596,-122]],[[33197,88973],[-2288,1167],[-1066,111],[-627,389],[-972,1145],[-282,1356]],[[38683,93675],[721,233],[1348,-389],[1567,867],[1192,0],[1818,-333],[1473,44],[-94,-667],[-564,-133],[439,-1534],[0,-556],[1065,-622],[-1003,-1067],[-282,-1223],[345,-255],[-1003,-790],[-941,-311],[-564,-567],[502,-378]],[[44702,85994],[-1850,-822],[-972,-1123],[-940,-389],[-2288,156],[-690,-211],[-1129,-11]],[[36833,83594],[-188,778],[502,133],[658,845],[-31,478],[501,544],[-626,445],[-972,22],[-502,1134],[314,422],[-502,600]],[[44702,85994],[877,-233],[-219,-611],[376,-289],[-219,-534],[282,-478],[-1191,-811],[-690,-256],[-533,-655],[-94,-612]],[[43291,81515],[-1191,-122],[-1662,-1078],[-1598,-711],[-1787,-67],[-1756,-322],[-564,-434],[157,-345],[-658,-366],[-2696,-223]],[[31536,77847],[-157,612],[533,411],[251,789],[-1286,989],[502,256],[0,589],[-878,667]],[[30501,82160],[2790,367],[1944,689],[1598,378]],[[43291,81515],[-846,-756],[627,-277]],[[43072,80482],[-659,-601],[471,-922],[815,-22],[1254,-667],[-627,-1101],[282,-1067]],[[44608,76102],[-2038,-955],[345,-501],[-627,-200],[-439,-867],[-564,-533],[-1003,-267],[-470,-456]],[[39812,72323],[-1035,545],[-407,667],[-1568,78],[-1599,-189],[-627,567],[-1410,-523],[-1035,-133]],[[32131,73335],[-376,400],[-1003,200],[-157,689]],[[30595,74624],[-188,345],[784,856],[1975,211],[94,511],[-1379,467],[-1004,544],[659,289]],[[43072,80482],[2351,-634],[1379,889],[3605,1490],[1097,555],[1129,111],[721,1090],[1379,-245],[1850,1045],[595,144]],[[57178,84927],[-564,-844]],[[56614,84083],[-408,-723],[282,-789],[-282,-889],[1160,-1011]],[[57366,80671],[251,-501],[-815,-378],[-972,-22],[345,-878],[-940,-822],[407,-345],[1317,-278],[721,-611],[-1348,-467],[439,-411]],[[56771,75958],[-3417,-800]],[[53354,75158],[-847,44],[0,778],[-1034,1067],[-1129,-300],[-877,478],[-1975,44],[-1129,245],[-940,-534],[-157,-733],[-658,-145]],[[82507,83616],[-909,-122],[63,-612],[-753,-200],[-721,-533]],[[80187,82149],[-501,-223],[-1442,712],[-1066,-11],[-1693,667],[-407,466],[-941,156],[-909,-500]],[[73228,83416],[-1379,600],[470,956],[-752,511]],[[71567,85483],[-690,278],[251,434],[1630,277],[2539,-277],[1254,-345],[1473,-200],[314,-222],[1128,311],[596,-100],[1316,-1378],[1129,-645]],[[57178,84927],[2414,-1089],[1285,-389],[1881,-155],[533,-378],[-188,-445],[784,-244],[721,466],[1598,601],[1035,255],[1191,-122],[439,300],[157,700],[626,189],[565,612],[1348,255]],[[73228,83416],[-439,-834]],[[72789,82582],[-972,-211],[-626,300],[-1223,-522],[-1285,567],[-847,-423],[-470,367],[-784,56],[-407,-512],[125,-566],[-1504,-845],[-1505,122],[-31,478],[-847,411],[-815,22],[-1003,945],[-2226,845],[-501,-167],[-1254,634]],[[82507,83616],[940,-1067],[878,-278],[815,-811],[721,-400],[2821,-845],[1223,-967],[-63,-1356],[-783,-989],[0,-545],[156,-845]],[[89215,75513],[-3197,211],[-2288,23],[-784,289]],[[82946,76036],[784,255],[1097,701],[-408,300],[1003,1122],[-376,1167],[-3041,-66],[-1253,-178],[-565,567],[784,1389],[-784,856]],[[89215,75513],[251,-700],[-313,-1256],[1379,-611],[502,-578],[940,-400]],[[91974,71968],[-1317,-589],[-783,-112]],[[89874,71267],[-1756,312],[-439,-145],[-877,623],[-659,211],[-1786,-100]],[[84357,72168],[-533,878],[-815,-145]],[[83009,72901],[-94,645],[-627,934],[-1348,1122]],[[80940,75602],[815,423],[1191,11]],[[86237,67166],[-846,367],[-219,567],[501,1289],[1191,1123],[627,278],[2320,277],[63,200]],[[91974,71968],[502,-389],[156,-645],[784,-311]],[[13762,24775],[250,-145],[-846,-2201],[470,-555],[1285,-678],[-313,-1012],[1599,-11]],[[16207,20173],[-627,-467],[188,-700],[-345,-567]],[[15423,18439],[-2445,-289],[188,-744],[-439,-456],[-1787,622],[-940,1990],[501,789],[-219,567],[470,778],[753,845],[62,511],[627,133],[-658,901],[752,944]],[[16207,20173],[689,323],[1787,-601],[-407,-511],[376,-1311],[972,11],[783,244],[1693,-200],[784,133]],[[22884,18261],[595,-333],[32,-611],[-376,-667],[689,-734],[-62,-344]],[[23762,15572],[-533,-623],[564,-700],[-1035,-622]],[[22758,13627],[-1442,600],[-533,-356],[-721,211],[-219,623],[502,211],[-1066,745],[-596,633],[-1066,-300],[-1003,422],[-31,990],[-502,566],[-971,-44],[313,511]],[[28683,10070],[-658,-89],[-1317,278],[-721,1045],[-627,-212],[-1285,378],[-345,323],[94,567],[-627,1033],[-439,234]],[[23762,15572],[752,-367],[1661,-67],[815,667],[1411,89],[251,-945]],[[28652,14949],[877,-1156],[-250,-522],[1097,-1512],[627,-522],[313,-845],[784,-578]],[[44639,8236],[1505,33],[627,267],[1285,-178],[407,200],[2195,-489],[1912,-1745]],[[28652,14949],[815,211],[1787,145],[1034,-545],[1003,-144]],[[34169,14416],[-690,-356],[502,-1389],[501,-267],[909,-889],[910,-222]],[[22884,18261],[-282,378],[533,601],[1943,766],[878,879],[94,755],[690,456],[1222,122],[470,300],[690,956],[-627,267],[502,1078]],[[28997,24819],[971,-122],[753,-1301],[62,-822],[471,-2312],[971,-622],[784,-867],[627,-211],[752,422],[627,-889],[847,-2557]],[[21410,28054],[439,-1001],[1003,-1200],[721,-500],[-1128,-489],[313,-589],[1474,-267],[1160,55],[564,467],[2037,311],[1004,-22]],[[32602,26664],[-126,-822],[-1254,-289],[-376,978],[1756,133]],[[32163,28076],[376,-134],[282,-744],[-1097,300],[439,578]],[[32194,53128],[627,-533]],[[32821,52595],[-596,-156],[-971,-756]],[[32696,54340],[2163,-156],[877,467]],[[35736,54651],[721,-800],[126,-823]],[[36583,53028],[-1348,100],[-2414,-533]],[[35736,54651],[63,467]],[[35799,55118],[1850,-11],[752,1011]],[[38401,56118],[1536,-200],[2727,211]],[[42664,56129],[-94,-689],[345,-200],[-846,-845]],[[42069,54395],[-1725,134],[-313,-334],[-1097,234],[-1160,-234],[-439,-533],[31,-600]],[[37366,53062],[-783,-34]],[[42069,54395],[1097,-422],[-1254,-1023]],[[41912,52950],[-2320,278],[-2226,-166]],[[52476,50883],[-439,523],[-1411,555],[-501,467],[-1912,389],[-1066,623],[-1473,255],[-1254,-322],[-847,-523]],[[43573,52850],[-1661,100]],[[42664,56129],[0,45]],[[42664,56174],[2853,89]],[[45517,56263],[251,-801],[595,167],[1724,-100],[2351,-611],[1536,-111],[972,322],[878,-567],[564,45]],[[52194,50627],[-690,112],[-1191,-578],[-1850,-289],[-2382,366],[-313,-400],[-910,34],[126,-701],[-1066,-800],[-376,-1089]],[[43542,47282],[-1285,111],[-408,356],[972,800],[-596,534],[784,811],[-658,489],[815,689],[-408,634],[847,433],[-32,711]],[[53354,47682],[-1254,22],[-533,-344],[-2414,-178],[-4263,378],[-1348,-278]],[[12633,15305],[-251,-600],[-627,122],[-721,-278],[-219,656],[157,2045],[1912,-856],[-502,-744],[251,-345]],[[65423,67544],[-1160,545],[-2101,-23],[-1191,-133],[-1066,734]],[[59905,68667],[659,1278],[-1286,367],[1536,1311],[533,945],[-407,311],[-1191,122],[-1254,367],[-1630,11],[-1223,556],[-282,322],[-2477,256]],[[52883,74513],[471,645]],[[56771,75958],[1598,-178],[847,200],[752,-467],[1129,-200],[2194,-133],[784,1178]],[[64075,76358],[188,634],[1128,-167],[564,-934],[1474,-233],[1912,489]],[[69341,76147],[972,-611],[-376,-1212]],[[69937,74324],[-847,-878],[-1630,-667],[-1254,-922],[126,-1490],[1003,-1812]],[[80940,75602],[-533,145],[-1097,-500],[-1881,889],[31,278],[-1630,622]],[[75830,77036],[0,422],[-721,367],[-1411,378],[-940,11],[-1536,323],[-251,322],[533,467],[-157,622],[753,723],[658,88],[31,1823]],[[23041,63220],[595,478],[1066,-466],[2414,-378],[470,322],[846,-211]],[[28432,62965],[2947,-356],[1003,367],[1066,-267],[846,211]],[[34294,62920],[251,-1111]],[[34545,61809],[-94,-912],[-345,-577],[690,-556]],[[34796,59764],[345,-567],[-314,-1189],[-407,-334]],[[34420,57674],[-847,-255],[-2006,33],[-1285,-534],[-815,-33]],[[34294,62920],[1097,267],[-376,800],[471,367]],[[35486,64354],[658,-489],[940,-233]],[[37084,63632],[220,-612],[-314,-289],[502,-611],[0,-756]],[[37492,61364],[-1630,467],[-1317,-22]],[[28432,62965],[126,355],[846,434],[-846,822],[-220,478],[502,312],[3605,-200],[-282,644],[282,256]],[[32445,66066],[721,11],[1755,-900],[565,-823]],[[37492,61364],[470,-255]],[[37962,61109],[-188,-1556],[-909,-12],[-126,367],[-1943,-144]],[[46144,61575],[188,-1167],[-251,-300],[658,-400]],[[46739,59708],[-971,-889],[-1317,156],[-314,-389],[-1379,-667]],[[42758,57919],[-1066,189]],[[41692,58108],[-533,611],[-282,1200],[-595,401],[-1003,-156],[-596,289],[219,456]],[[38902,60909],[220,233],[1316,478],[816,745],[501,66],[596,-700],[909,-189],[439,422],[1661,201],[784,-590]],[[56520,57730],[-1097,478],[282,578],[-1066,344],[-1567,-311],[-220,-200],[-1536,767],[-878,-33],[-783,233],[-878,-245]],[[48777,59341],[-1536,523],[-502,-156]],[[46144,61575],[1003,-177],[846,511],[1223,378],[31,411],[-846,945],[-1191,178],[-32,1022],[282,423]],[[47460,65266],[1254,-590],[1944,267],[940,400],[2226,512],[1567,544],[-94,434],[1097,844],[533,-266],[1097,856],[784,44],[1097,356]],[[42664,56174],[94,1745]],[[48777,59341],[1254,-800],[-2414,-945],[125,-689],[-1316,-122],[-909,-522]],[[38401,56118],[-533,-11],[-1787,389],[-94,745]],[[35987,57241],[2445,0],[3260,867]],[[21128,68422],[502,22],[2351,-767],[1348,-633],[501,-33],[1819,711],[783,100],[596,-278],[940,-22],[721,-812],[721,-66],[1035,-578]],[[83009,72901],[-878,89],[-1317,-333],[-282,300],[-2821,111],[-1191,-489],[501,-511],[-282,-589],[-1097,-178],[-1317,100]],[[74325,71401],[-940,-11],[-376,489],[-941,556],[-1881,66],[126,1145],[-376,678]],[[69341,76147],[345,300],[1160,33],[1943,-400],[972,-22],[345,978],[909,378],[815,-378]],[[73009,66121],[282,556],[-1348,311],[-345,345],[470,511],[1223,256],[627,1311],[-188,1445],[595,545]],[[84357,72168],[-1505,-1056],[-1474,-478],[-31,-767],[-1066,-44],[-94,-1201],[1223,167],[376,-778],[815,-689],[-972,-278]],[[57366,80671],[1254,377],[1818,-211],[188,-756],[1035,-1267],[-32,-466],[972,-1234],[1474,-756]],[[37084,63632],[1411,1367],[2038,1045],[156,544]],[[40689,66588],[1724,-211],[1098,111],[877,-367],[1286,-244],[940,44],[846,-655]],[[38902,60909],[-940,200]],[[35987,57241],[-815,22]],[[35172,57263],[-752,411]],[[35799,55118],[-533,622],[-345,934],[251,589]],[[23856,75980],[470,-155],[1724,66],[313,-411],[1662,-556],[2037,0],[533,-300]],[[32131,73335],[-658,-912],[188,-155]],[[31661,72268],[-595,-411],[-659,-1390],[-752,-333],[-1191,-1312],[-784,-300],[-596,656],[-909,244],[-1003,-144],[-1191,133],[-909,-178],[-1442,256],[-1003,-389]],[[33197,88973],[-63,-1667],[-2445,-1834],[-1191,-500],[-1097,-1000],[-1348,-234],[-2853,-1745],[-721,-311],[784,-378],[1129,356]],[[25392,81660],[-533,-867],[-188,-934],[752,-711],[-439,-878],[-596,-156],[-877,378]],[[19812,80859],[1787,1356],[188,345],[-721,333],[-627,979],[-94,533],[-502,723],[1097,211],[1568,1367],[971,355]],[[25392,81660],[909,522],[1348,-67],[1003,-477],[501,389],[1348,133]],[[31661,72268],[376,-245],[314,-889],[501,-200],[972,-1256],[1160,-311],[376,211],[2508,-100],[1160,178],[1818,-145]],[[40846,69511],[940,-2056],[-1097,-867]],[[52883,74513],[-1818,222],[-1222,-600],[62,-500],[-1504,-1234],[-659,-1912],[189,-633],[532,-189],[-689,-689],[31,-667],[784,-367],[-345,-956],[31,-1022],[-815,-700]],[[40846,69511],[188,378],[-1661,434],[31,589],[784,767],[-376,644]]],"bbox":[97.37190070727684,5.638148649489111,105.6515814593983,20.444756867950616],"transform":{"scale":[0.00008279763549756962,0.00014806756286024367],"translate":[97.37190070727684,5.638148649489111]}}