{"type":"Topology","objects":{"a1":{"type":"GeometryCollection","geometries":[{"type":"Polygon","arcs":[[0,1,2,3]],"id":"TKM-359","properties":{"adm1_code":"TKM-359","iso_3166_2":"TM-L","name":"Chardzhou","admin":"Turkmenistan","adm0_a3":"TKM","type_en":"Province"}},{"type":"Polygon","arcs":[[-1,4,5]],"id":"TKM-360","properties":{"adm1_code":"TKM-360","iso_3166_2":"TM-M","name":"Mary","admin":"Turkmenistan","adm0_a3":"TKM","type_en":"Province"}},{"type":"Polygon","arcs":[[-2,-6,6,7,8]],"id":"TKM-352","properties":{"adm1_code":"TKM-352","iso_3166_2":"TM-A","name":"Ahal","admin":"Turkmenistan","adm0_a3":"TKM","type_en":"Province"}},{"type":"Polygon","arcs":[[-8,9,10]],"id":"TKM-351","properties":{"adm1_code":"TKM-351","iso_3166_2":"TM-B","name":"Balkan","admin":"Turkmenistan","adm0_a3":"TKM","type_en":"Province"}},{"type":"Polygon","arcs":[[-3,-9,-11,11]],"id":"TKM-353","properties":{"adm1_code":"TKM-353","iso_3166_2":"TM-D","name":"Tashauz","admin":"Turkmenistan","adm0_a3":"TKM","type_en":"Province"}}]}},"arcs":[[[86562,22315],[-8391,0],[-256,410],[-91,6059],[402,539],[1243,2479],[-91,561],[-3382,5800],[-457,409],[-2359,1315],[-621,820],[-2249,3514],[-5777,8862],[-2669,3945],[-1408,173]],[[60456,57201],[-3546,-324]],[[56910,56877],[-73,87],[-110,10564],[-146,345],[-1390,65],[-146,259],[-36,8473],[5155,43],[128,453],[36,2523]],[[60328,79689],[677,-87],[1280,-862],[1334,1833],[1298,-626],[1572,-1638],[658,-1445],[74,-1681],[438,-2243],[384,-711],[622,-2027],[1170,-992],[603,-3385],[-128,-754],[219,-1380],[988,-1553],[6234,-6382],[1627,-2781],[2906,-2997],[421,-237],[932,496],[384,-539],[402,-755],[1481,-1833],[2413,-1725],[1609,-2134],[2797,-2781],[969,-173],[969,647],[1170,-604],[1316,-1013],[530,-906],[933,-582],[822,-129],[567,-776],[-183,-1014],[-640,-1401],[0,-2070],[-182,-1337],[383,-948],[-201,-1122],[-402,-517],[-1481,453],[-621,237],[-585,819],[-1591,884],[-347,755],[-969,-582],[-329,-1186],[18,-1121],[-950,-1337],[-2998,-129],[-1792,-1273],[-347,-560],[128,-2027],[-348,-1143]],[[86562,22315],[-950,-3018],[91,-2091],[-201,-928],[-932,-1832],[-768,-324],[-494,-948],[-1005,-87],[-622,-927],[73,-1013],[-987,431],[-987,-711],[-1152,-194],[-640,-798],[-1188,-582],[-1536,43],[-274,-453],[695,-1488],[-37,-603],[-713,-539],[165,-1316],[-146,-1142],[-1134,-647],[-676,-798],[-1426,-1358],[-677,108],[-457,668],[-420,-345],[-695,-1423],[-347,712],[-238,1358],[-585,474],[-713,1078],[-804,367],[-859,-453],[-1353,172],[-476,281],[-841,1229]],[[63253,5218],[732,1078],[365,1832],[-804,1617],[951,798],[-531,906],[-54,668],[-55,7762],[-329,1164],[-3200,7848],[659,216],[548,-366],[384,-1919],[512,-453],[567,280],[201,1380],[-494,302],[-695,-302],[-639,1229],[-1317,129],[-512,2976],[403,1293],[-403,1855],[640,560],[-914,2566],[-1755,2695],[-1024,5908],[604,21],[347,2156],[695,259],[548,4032],[220,431],[1371,539],[182,2523]],[[63253,5218],[-530,1121],[-512,-173],[-274,712],[165,1272],[-55,1401],[-512,1704],[329,1444],[-493,3795],[237,2242],[-146,777],[-622,150],[-5173,-150],[-732,1746],[-749,1358],[-786,1984],[-841,323],[-731,820],[-2030,1013],[-969,1703],[-127,2286],[-458,539],[-530,-259],[-1170,1358],[-1298,626],[-1115,-302],[-1334,625],[-238,-625],[-768,-173],[-1170,626],[-164,1250],[-988,410],[-1115,776],[-1042,431],[-311,302],[-1371,22],[-1023,582],[-55,1487],[-878,2415],[-566,-21]],[[33108,40815],[-1280,1530],[-475,1143],[-1225,-194],[-860,410],[-91,1681],[329,540],[311,1832],[2157,10134],[859,992],[-822,4549],[438,733],[841,625]],[[33290,64790],[805,-798],[1407,928],[2852,-87],[841,173],[1700,711],[768,-107],[311,776],[4150,-1380],[859,-1208],[530,-172],[5613,-43],[146,-237],[0,-4205],[475,-970],[1390,518],[639,-1984],[1134,172]],[[33108,40815],[-713,-992],[-1481,496],[-622,582],[-1078,-453],[-1061,259],[-969,-1164],[19,-1122],[-951,0],[-1316,-194],[-1901,690],[-2011,-560],[-1426,-1380],[-640,-237],[-859,-1423],[-1061,-1078],[-493,-1423],[-19,-1768],[-1188,-1100],[-585,86],[-1188,-1013],[-1243,-518],[-1938,259],[-92,1639],[-530,3622],[-128,3773],[366,2286],[36,2285],[-255,1876],[255,2026],[439,1229],[366,1682],[-750,1660],[-877,345],[-512,1811],[-750,690],[92,1122],[-1316,-194],[-1225,625],[-348,-1208],[-566,1467],[621,1724],[1298,302],[1518,-927],[950,992],[-475,841],[-786,323],[-640,906],[-92,797],[969,2458],[-914,690],[-1042,-797],[-822,733],[-1390,-302],[-640,-388],[-1023,1423],[201,1315],[-494,1574],[274,2760],[896,2264],[-256,711],[914,3989],[384,-798],[677,-2372],[1572,22],[1060,-518],[421,324],[329,1703],[475,-345],[-37,-1056],[531,-1272],[-37,-798],[1005,0],[531,604],[511,-194],[1134,948],[969,0],[-256,2135],[621,323],[750,-862],[55,-539],[1152,366],[841,1660],[-1116,2976],[-1407,1531],[-622,388],[-1572,1789],[-329,776],[-165,2588],[-603,1983],[-256,2566],[-548,582],[-969,259],[-2157,-496],[-549,-345],[-1243,129],[-1133,-1379],[-969,-2868],[566,-992],[-36,-1617],[-585,-2328],[-695,495],[-1078,1229],[219,1488],[-1097,1509],[2303,3213],[1500,1746],[3053,1725],[4478,1143],[1042,-367],[3821,-3536],[1189,-1530],[310,-1790],[1042,-1984],[914,-2242],[896,-1099],[512,-1273],[567,-431],[896,87],[1700,776],[713,-22],[3912,-302]],[[28848,80594],[439,-2371],[420,-1165],[859,-1293],[896,-3407],[878,-1531],[694,-3277],[-347,-1682],[603,-1078]],[[28848,80594],[1828,-151],[1517,-452],[1024,1552],[-567,302],[-383,927],[-55,1207],[-366,1165],[92,1336],[-165,1531],[1170,1143],[658,1552],[1225,1208],[1664,-194],[1627,560],[603,2329],[-183,798],[622,840],[841,-431],[767,65],[567,819],[-1133,841],[-110,604],[1079,647],[1480,-561],[439,496],[402,1272],[1975,-3040],[1023,-367],[585,238],[622,-798],[256,-1466],[1627,-1057],[1499,324],[1243,-65],[1134,-1380],[-384,-1315],[73,-1962],[1115,-992],[-658,-1574],[749,-1962],[-585,-1164],[165,-1639],[1444,-1056],[805,-971],[877,-280],[841,388],[1426,130],[1005,-302]]],"bbox":[52.438410681970595,35.14768426861029,66.63585698733249,42.780567331545086],"transform":{"scale":[0.00014197588281244706,0.0000763295939252872],"translate":[52.438410681970595,35.14768426861029]}}