{"type":"Topology","objects":{"a1":{"type":"GeometryCollection","geometries":[{"type":"Polygon","arcs":[[0,1,2,3]],"id":"TUR-4839","properties":{"adm1_code":"TUR-4839","iso_3166_2":"TR-75","name":"Ardahan","admin":"Turkey","adm0_a3":"TUR","type_en":"Province"}},{"type":"Polygon","arcs":[[-3,4,5,6]],"id":"TUR-2298","properties":{"adm1_code":"TUR-2298","iso_3166_2":"TR-08","name":"Artvin","admin":"Turkey","adm0_a3":"TUR","type_en":"Province"}},{"type":"Polygon","arcs":[[7,8,9,10,11]],"id":"TUR-3044","properties":{"adm1_code":"TUR-3044","iso_3166_2":"TR-73","name":"Sirnak","admin":"Turkey","adm0_a3":"TUR","type_en":"Province"}},{"type":"Polygon","arcs":[[-12,12,13]],"id":"TUR-3047","properties":{"adm1_code":"TUR-3047","iso_3166_2":"TR-30","name":"Hakkari","admin":"Turkey","adm0_a3":"TUR","type_en":"Province"}},{"type":"Polygon","arcs":[[14,15,16]],"id":"TUR-4840","properties":{"adm1_code":"TUR-4840","iso_3166_2":"TR-76","name":"Iğdir","admin":"Turkey","adm0_a3":"TUR","type_en":"Province"}},{"type":"Polygon","arcs":[[17,18,19,20,21,22,-15]],"id":"TUR-2307","properties":{"adm1_code":"TUR-2307","iso_3166_2":"TR-04","name":"Agri","admin":"Turkey","adm0_a3":"TUR","type_en":"Province"}},{"type":"Polygon","arcs":[[-11,23,24,-19,25,-13]],"id":"TUR-3048","properties":{"adm1_code":"TUR-3048","iso_3166_2":"TR-65","name":"Van","admin":"Turkey","adm0_a3":"TUR","type_en":"Province"}},{"type":"Polygon","arcs":[[26,27,28,29]],"id":"TUR-2241","properties":{"adm1_code":"TUR-2241","iso_3166_2":"TR-39","name":"Kirklareli","admin":"Turkey","adm0_a3":"TUR","type_en":"Province"}},{"type":"Polygon","arcs":[[-29,30,31,32]],"id":"TUR-2240","properties":{"adm1_code":"TUR-2240","iso_3166_2":"TR-22","name":"Edirne","admin":"Turkey","adm0_a3":"TUR","type_en":"Province"}},{"type":"Polygon","arcs":[[-1,33,-16,-23,34]],"id":"TUR-3040","properties":{"adm1_code":"TUR-3040","iso_3166_2":"TR-36","name":"Kars","admin":"Turkey","adm0_a3":"TUR","type_en":"Province"}},{"type":"Polygon","arcs":[[-9,35,36,37,38]],"id":"TUR-3041","properties":{"adm1_code":"TUR-3041","iso_3166_2":"TR-47","name":"Mardin","admin":"Turkey","adm0_a3":"TUR","type_en":"Province"}},{"type":"Polygon","arcs":[[39,40,41,42,-37]],"id":"TUR-3017","properties":{"adm1_code":"TUR-3017","iso_3166_2":"TR-63","name":"Sanliurfa","admin":"Turkey","adm0_a3":"TUR","type_en":"Province"}},{"type":"Polygon","arcs":[[43,44]],"id":"TUR-4841","properties":{"adm1_code":"TUR-4841","iso_3166_2":"TR-79","name":"Kilis","admin":"Turkey","adm0_a3":"TUR","type_en":"Province"}},{"type":"Polygon","arcs":[[-41,45,-45,46,47,48,49]],"id":"TUR-3016","properties":{"adm1_code":"TUR-3016","iso_3166_2":"TR-27","name":"Gaziantep","admin":"Turkey","adm0_a3":"TUR","type_en":"Province"}},{"type":"Polygon","arcs":[[50,51,52,-47]],"id":"TUR-2289","properties":{"adm1_code":"TUR-2289","iso_3166_2":"TR-31","name":"Hatay","admin":"Turkey","adm0_a3":"TUR","type_en":"Province"}},{"type":"MultiPolygon","arcs":[[[-27,53,54]],[[55,56]]],"id":"TUR-2265","properties":{"adm1_code":"TUR-2265","iso_3166_2":"TR-34","name":"Istanbul","admin":"Turkey","adm0_a3":"TUR","type_en":"Province"}},{"type":"Polygon","arcs":[[-28,-55,57,58,-31]],"id":"TUR-2242","properties":{"adm1_code":"TUR-2242","iso_3166_2":"TR-59","name":"Tekirdag","admin":"Turkey","adm0_a3":"TUR","type_en":"Province"}},{"type":"MultiPolygon","arcs":[[[-32,-59,59]],[[60,61]],[[62]]],"id":"TUR-2239","properties":{"adm1_code":"TUR-2239","iso_3166_2":"TR-17","name":"Çanakkale","admin":"Turkey","adm0_a3":"TUR","type_en":"Province"}},{"type":"Polygon","arcs":[[-6,63,64,65]],"id":"TUR-2301","properties":{"adm1_code":"TUR-2301","iso_3166_2":"TR-53","name":"Rize","admin":"Turkey","adm0_a3":"TUR","type_en":"Province"}},{"type":"Polygon","arcs":[[-65,66,67,68,69]],"id":"TUR-2302","properties":{"adm1_code":"TUR-2302","iso_3166_2":"TR-61","name":"Trabzon","admin":"Turkey","adm0_a3":"TUR","type_en":"Province"}},{"type":"Polygon","arcs":[[-69,70,71,72,73,74]],"id":"TUR-2292","properties":{"adm1_code":"TUR-2292","iso_3166_2":"TR-28","name":"Giresun","admin":"Turkey","adm0_a3":"TUR","type_en":"Province"}},{"type":"Polygon","arcs":[[-74,75,76,77,78]],"id":"TUR-2293","properties":{"adm1_code":"TUR-2293","iso_3166_2":"TR-52","name":"Ordu","admin":"Turkey","adm0_a3":"TUR","type_en":"Province"}},{"type":"Polygon","arcs":[[-78,79,80,81,82,83]],"id":"TUR-2296","properties":{"adm1_code":"TUR-2296","iso_3166_2":"TR-55","name":"Samsun","admin":"Turkey","adm0_a3":"TUR","type_en":"Province"}},{"type":"Polygon","arcs":[[-83,84,85,86]],"id":"TUR-2294","properties":{"adm1_code":"TUR-2294","iso_3166_2":"TR-57","name":"Sinop","admin":"Turkey","adm0_a3":"TUR","type_en":"Province"}},{"type":"Polygon","arcs":[[-86,87,88,89,90,91]],"id":"TUR-2270","properties":{"adm1_code":"TUR-2270","iso_3166_2":"TR-37","name":"Kastamonu","admin":"Turkey","adm0_a3":"TUR","type_en":"Province"}},{"type":"Polygon","arcs":[[-91,92,93,94]],"id":"TUR-5521","properties":{"adm1_code":"TUR-5521","iso_3166_2":"TR-74","name":"Bartın","admin":"Turkey","adm0_a3":"TUR","type_en":"Province"}},{"type":"Polygon","arcs":[[-94,95,96,97,98]],"id":"TUR-3010","properties":{"adm1_code":"TUR-3010","iso_3166_2":"TR-67","name":"Zinguldak","admin":"Turkey","adm0_a3":"TUR","type_en":"Province"}},{"type":"Polygon","arcs":[[-98,99,100,101]],"id":"TUR-5519","properties":{"adm1_code":"TUR-5519","iso_3166_2":"TR-81","name":"Düzce","admin":"Turkey","adm0_a3":"TUR","type_en":"Province"}},{"type":"Polygon","arcs":[[-101,102,103,104,105,106]],"id":"TUR-2267","properties":{"adm1_code":"TUR-2267","iso_3166_2":"TR-54","name":"Sakarya","admin":"Turkey","adm0_a3":"TUR","type_en":"Province"}},{"type":"Polygon","arcs":[[-57,107,-106,108,109,110]],"id":"TUR-2266","properties":{"adm1_code":"TUR-2266","iso_3166_2":"TR-41","name":"Kocaeli","admin":"Turkey","adm0_a3":"TUR","type_en":"Province"}},{"type":"Polygon","arcs":[[-110,111,112]],"id":"TUR-5518","properties":{"adm1_code":"TUR-5518","iso_3166_2":"TR-77","name":"Yalova","admin":"Turkey","adm0_a3":"TUR","type_en":"Province"}},{"type":"Polygon","arcs":[[-105,113,114,115,116,-112,-109]],"id":"TUR-2264","properties":{"adm1_code":"TUR-2264","iso_3166_2":"TR-16","name":"Bursa","admin":"Turkey","adm0_a3":"TUR","type_en":"Province"}},{"type":"Polygon","arcs":[[-62,117,-116,118,119,120,121]],"id":"TUR-2238","properties":{"adm1_code":"TUR-2238","iso_3166_2":"TR-10","name":"Balikesir","admin":"Turkey","adm0_a3":"TUR","type_en":"Province"}},{"type":"Polygon","arcs":[[-121,122,123,124]],"id":"TUR-2230","properties":{"adm1_code":"TUR-2230","iso_3166_2":"TR-35","name":"Izmir","admin":"Turkey","adm0_a3":"TUR","type_en":"Province"}},{"type":"Polygon","arcs":[[-124,125,126,127,128]],"id":"TUR-2229","properties":{"adm1_code":"TUR-2229","iso_3166_2":"TR-09","name":"Aydin","admin":"Turkey","adm0_a3":"TUR","type_en":"Province"}},{"type":"Polygon","arcs":[[-128,129,130,131,132]],"id":"TUR-2278","properties":{"adm1_code":"TUR-2278","iso_3166_2":"TR-48","name":"Mugla","admin":"Turkey","adm0_a3":"TUR","type_en":"Province"}},{"type":"Polygon","arcs":[[-132,133,134,135,136,137,138]],"id":"TUR-2271","properties":{"adm1_code":"TUR-2271","iso_3166_2":"TR-07","name":"Antalya","admin":"Turkey","adm0_a3":"TUR","type_en":"Province"}},{"type":"Polygon","arcs":[[-138,139,140,141,142,143]],"id":"TUR-2285","properties":{"adm1_code":"TUR-2285","iso_3166_2":"TR-33","name":"Mersin","admin":"Turkey","adm0_a3":"TUR","type_en":"Province"}},{"type":"Polygon","arcs":[[-52,144,-143,145,146,147,148]],"id":"TUR-3018","properties":{"adm1_code":"TUR-3018","iso_3166_2":"TR-01","name":"Adana","admin":"Turkey","adm0_a3":"TUR","type_en":"Province"}},{"type":"Polygon","arcs":[[-97,149,150,151,152,153,-103,-100]],"id":"TUR-2268","properties":{"adm1_code":"TUR-2268","iso_3166_2":"TR-14","name":"Bolu","admin":"Turkey","adm0_a3":"TUR","type_en":"Province"}},{"type":"Polygon","arcs":[[-152,154,155,156,157,158,159]],"id":"TUR-3008","properties":{"adm1_code":"TUR-3008","iso_3166_2":"TR-06","name":"Ankara","admin":"Turkey","adm0_a3":"TUR","type_en":"Province"}},{"type":"Polygon","arcs":[[-104,-154,160,161,-114]],"id":"TUR-2263","properties":{"adm1_code":"TUR-2263","iso_3166_2":"TR-11","name":"Bilecik","admin":"Turkey","adm0_a3":"TUR","type_en":"Province"}},{"type":"Polygon","arcs":[[-153,-160,162,163,164,-161]],"id":"TUR-2269","properties":{"adm1_code":"TUR-2269","iso_3166_2":"TR-26","name":"Eskisehir","admin":"Turkey","adm0_a3":"TUR","type_en":"Province"}},{"type":"Polygon","arcs":[[-89,165,166,-155,-151,167]],"id":"TUR-3009","properties":{"adm1_code":"TUR-3009","iso_3166_2":"TR-18","name":"Çankiri","admin":"Turkey","adm0_a3":"TUR","type_en":"Province"}},{"type":"Polygon","arcs":[[-90,-168,-150,-96,-93]],"id":"TUR-5520","properties":{"adm1_code":"TUR-5520","iso_3166_2":"TR-78","name":"Karabük","admin":"Turkey","adm0_a3":"TUR","type_en":"Province"}},{"type":"Polygon","arcs":[[-77,168,169,170,-80]],"id":"TUR-2297","properties":{"adm1_code":"TUR-2297","iso_3166_2":"TR-60","name":"Tokat","admin":"Turkey","adm0_a3":"TUR","type_en":"Province"}},{"type":"Polygon","arcs":[[-73,171,172,173,174,175,-169,-76]],"id":"TUR-2295","properties":{"adm1_code":"TUR-2295","iso_3166_2":"TR-58","name":"Sivas","admin":"Turkey","adm0_a3":"TUR","type_en":"Province"}},{"type":"Polygon","arcs":[[-82,176,177,178,-166,-88,-85]],"id":"TUR-2291","properties":{"adm1_code":"TUR-2291","iso_3166_2":"TR-19","name":"Çorum","admin":"Turkey","adm0_a3":"TUR","type_en":"Province"}},{"type":"Polygon","arcs":[[-81,-171,179,-177]],"id":"TUR-2290","properties":{"adm1_code":"TUR-2290","iso_3166_2":"TR-05","name":"Amasya","admin":"Turkey","adm0_a3":"TUR","type_en":"Province"}},{"type":"Polygon","arcs":[[-115,-162,-165,180,181,182,-119]],"id":"TUR-2276","properties":{"adm1_code":"TUR-2276","iso_3166_2":"TR-43","name":"Kütahya","admin":"Turkey","adm0_a3":"TUR","type_en":"Province"}},{"type":"Polygon","arcs":[[-136,183,184,-163,-159,185,186,-141,187]],"id":"TUR-3011","properties":{"adm1_code":"TUR-3011","iso_3166_2":"TR-42","name":"Konya","admin":"Turkey","adm0_a3":"TUR","type_en":"Province"}},{"type":"Polygon","arcs":[[-137,-188,-140]],"id":"TUR-3012","properties":{"adm1_code":"TUR-3012","iso_3166_2":"TR-70","name":"Karaman","admin":"Turkey","adm0_a3":"TUR","type_en":"Province"}},{"type":"Polygon","arcs":[[-142,-187,188,189,190,-146]],"id":"TUR-3020","properties":{"adm1_code":"TUR-3020","iso_3166_2":"TR-51","name":"Nigde","admin":"Turkey","adm0_a3":"TUR","type_en":"Province"}},{"type":"Polygon","arcs":[[-147,-191,191,192,-175,193]],"id":"TUR-2287","properties":{"adm1_code":"TUR-2287","iso_3166_2":"TR-38","name":"Kayseri","admin":"Turkey","adm0_a3":"TUR","type_en":"Province"}},{"type":"Polygon","arcs":[[-135,194,195,-184]],"id":"TUR-2275","properties":{"adm1_code":"TUR-2275","iso_3166_2":"TR-32","name":"Isparta","admin":"Turkey","adm0_a3":"TUR","type_en":"Province"}},{"type":"Polygon","arcs":[[-120,-183,196,197,-126,-123]],"id":"TUR-2277","properties":{"adm1_code":"TUR-2277","iso_3166_2":"TR-45","name":"Manisa","admin":"Turkey","adm0_a3":"TUR","type_en":"Province"}},{"type":"Polygon","arcs":[[-127,-198,198,199,200,-130]],"id":"TUR-2274","properties":{"adm1_code":"TUR-2274","iso_3166_2":"TR-20","name":"Denizli","admin":"Turkey","adm0_a3":"TUR","type_en":"Province"}},{"type":"Polygon","arcs":[[-131,-201,201,-195,-134]],"id":"TUR-2273","properties":{"adm1_code":"TUR-2273","iso_3166_2":"TR-15","name":"Burdur","admin":"Turkey","adm0_a3":"TUR","type_en":"Province"}},{"type":"Polygon","arcs":[[-158,202,203,-189,-186]],"id":"TUR-3021","properties":{"adm1_code":"TUR-3021","iso_3166_2":"TR-68","name":"Aksaray","admin":"Turkey","adm0_a3":"TUR","type_en":"Province"}},{"type":"Polygon","arcs":[[-190,-204,204,205,-192]],"id":"TUR-2288","properties":{"adm1_code":"TUR-2288","iso_3166_2":"TR-50","name":"Nevsehir","admin":"Turkey","adm0_a3":"TUR","type_en":"Province"}},{"type":"Polygon","arcs":[[-170,-176,-193,-206,206,207,-178,-180]],"id":"TUR-3026","properties":{"adm1_code":"TUR-3026","iso_3166_2":"TR-66","name":"Yozgat","admin":"Turkey","adm0_a3":"TUR","type_en":"Province"}},{"type":"Polygon","arcs":[[-157,208,-207,-205,-203]],"id":"TUR-2286","properties":{"adm1_code":"TUR-2286","iso_3166_2":"TR-40","name":"Kirsehir","admin":"Turkey","adm0_a3":"TUR","type_en":"Province"}},{"type":"Polygon","arcs":[[-182,209,-199,-197]],"id":"TUR-3014","properties":{"adm1_code":"TUR-3014","iso_3166_2":"TR-64","name":"Usak","admin":"Turkey","adm0_a3":"TUR","type_en":"Province"}},{"type":"Polygon","arcs":[[-72,210,211,212,213,214,215,216,-172]],"id":"TUR-2300","properties":{"adm1_code":"TUR-2300","iso_3166_2":"TR-24","name":"Erzincan","admin":"Turkey","adm0_a3":"TUR","type_en":"Province"}},{"type":"Polygon","arcs":[[-215,217,218]],"id":"TUR-3045","properties":{"adm1_code":"TUR-3045","iso_3166_2":"TR-62","name":"Tunceli","admin":"Turkey","adm0_a3":"TUR","type_en":"Province"}},{"type":"Polygon","arcs":[[-164,-185,-196,-202,-200,-210,-181]],"id":"TUR-2272","properties":{"adm1_code":"TUR-2272","iso_3166_2":"TR-03","name":"Afyonkarahisar","admin":"Turkey","adm0_a3":"TUR","type_en":"Province"}},{"type":"Polygon","arcs":[[-156,-167,-179,-208,-209]],"id":"TUR-3019","properties":{"adm1_code":"TUR-3019","iso_3166_2":"TR-71","name":"Kinkkale","admin":"Turkey","adm0_a3":"TUR","type_en":"Province"}},{"type":"Polygon","arcs":[[-49,219,-148,-194,-174,220,221]],"id":"TUR-2283","properties":{"adm1_code":"TUR-2283","iso_3166_2":"TR-46","name":"K. Maras","admin":"Turkey","adm0_a3":"TUR","type_en":"Province"}},{"type":"Polygon","arcs":[[-21,222,223,224,225,226]],"id":"TUR-2310","properties":{"adm1_code":"TUR-2310","iso_3166_2":"TR-49","name":"Mus","admin":"Turkey","adm0_a3":"TUR","type_en":"Province"}},{"type":"Polygon","arcs":[[-2,-35,-22,-227,227,-213,228,-64,-5]],"id":"TUR-2299","properties":{"adm1_code":"TUR-2299","iso_3166_2":"TR-25","name":"Erzurum","admin":"Turkey","adm0_a3":"TUR","type_en":"Province"}},{"type":"Polygon","arcs":[[-173,-217,229,230,231,-221]],"id":"TUR-2284","properties":{"adm1_code":"TUR-2284","iso_3166_2":"TR-44","name":"Malatya","admin":"Turkey","adm0_a3":"TUR","type_en":"Province"}},{"type":"Polygon","arcs":[[-216,-219,232,233,-230]],"id":"TUR-2282","properties":{"adm1_code":"TUR-2282","iso_3166_2":"TR-23","name":"Elazig","admin":"Turkey","adm0_a3":"TUR","type_en":"Province"}},{"type":"Polygon","arcs":[[-20,-25,234,235,-223]],"id":"TUR-2311","properties":{"adm1_code":"TUR-2311","iso_3166_2":"TR-13","name":"Bitlis","admin":"Turkey","adm0_a3":"TUR","type_en":"Province"}},{"type":"Polygon","arcs":[[-214,-228,-226,236,-233,-218]],"id":"TUR-2308","properties":{"adm1_code":"TUR-2308","iso_3166_2":"TR-12","name":"Bingöl","admin":"Turkey","adm0_a3":"TUR","type_en":"Province"}},{"type":"Polygon","arcs":[[-48,-53,-149,-220]],"id":"TUR-4842","properties":{"adm1_code":"TUR-4842","iso_3166_2":"TR-80","name":"Osmaniye","admin":"Turkey","adm0_a3":"TUR","type_en":"Province"}},{"type":"Polygon","arcs":[[-42,-50,-222,-232,237]],"id":"TUR-2281","properties":{"adm1_code":"TUR-2281","iso_3166_2":"TR-02","name":"Adiyaman","admin":"Turkey","adm0_a3":"TUR","type_en":"Province"}},{"type":"Polygon","arcs":[[-38,-43,-238,-231,-234,-237,-225,238]],"id":"TUR-2309","properties":{"adm1_code":"TUR-2309","iso_3166_2":"TR-21","name":"Diyarbakir","admin":"Turkey","adm0_a3":"TUR","type_en":"Province"}},{"type":"Polygon","arcs":[[-39,-239,-224,-236,239]],"id":"TUR-3042","properties":{"adm1_code":"TUR-3042","iso_3166_2":"TR-72","name":"Batman","admin":"Turkey","adm0_a3":"TUR","type_en":"Province"}},{"type":"Polygon","arcs":[[-10,-240,-235,-24]],"id":"TUR-3043","properties":{"adm1_code":"TUR-3043","iso_3166_2":"TR-56","name":"Siirt","admin":"Turkey","adm0_a3":"TUR","type_en":"Province"}},{"type":"Polygon","arcs":[[-67,-229,-212,240]],"id":"TUR-3032","properties":{"adm1_code":"TUR-3032","iso_3166_2":"TR-69","name":"Bayburt","admin":"Turkey","adm0_a3":"TUR","type_en":"Province"}},{"type":"Polygon","arcs":[[-68,-241,-211,-71]],"id":"TUR-3031","properties":{"adm1_code":"TUR-3031","iso_3166_2":"TR-29","name":"Gümüshane","admin":"Turkey","adm0_a3":"TUR","type_en":"Province"}}]}},"arcs":[[[92854,84189],[-2562,-2648],[-624,-760],[-298,-4274],[-1234,-393]],[[88136,76114],[-623,2254],[-610,1705],[-109,1206]],[[86794,81279],[326,1520],[894,1652],[136,1075],[-353,2255],[-108,1573]],[[87689,89354],[705,2360],[1125,0],[-176,-1180],[990,-1075],[230,-865],[637,-1128],[556,-2228],[488,314],[597,-576],[13,-787]],[[86794,81279],[-1328,-184],[-353,-550],[-27,-1311],[-339,-1128],[-353,-2202],[-854,865],[-1328,-1363],[-366,734],[176,2438],[-841,393],[-406,525]],[[80775,79496],[81,655],[1274,3540],[-691,1547],[-285,2045]],[[81154,87283],[990,1258],[691,2150],[909,-419],[556,-997],[759,1259],[379,-315],[719,236],[1532,-1101]],[[92448,23597],[-516,105],[-935,944],[-773,-787],[-854,865],[-366,-786],[-732,-2832],[-1071,-603],[-27,1862],[-909,1284],[-881,-2097],[-596,-341]],[[84788,21211],[-421,1652],[-610,472],[136,1258],[881,1102],[68,1075],[-461,3356]],[[84381,30126],[732,-866],[1044,-209],[407,996],[691,-53],[1058,-681],[1979,-577],[393,1678]],[[90685,30414],[407,551],[976,-630],[515,105]],[[92583,30440],[-149,-2360],[258,-1914],[-244,-2569]],[[92583,30440],[692,26],[1003,603],[434,-288],[949,577],[352,1757],[841,52]],[[96854,33167],[894,-787],[380,-1415],[298,209],[475,-996],[-298,-1337],[244,-787],[-109,-2176],[1234,-2464],[-217,-944],[27,-1442],[-163,393],[-813,0],[-786,-1626],[-448,-367],[-190,-1022],[-379,105],[-285,1651],[312,1128],[-81,1520],[-814,944],[-407,-26],[-501,-1389],[-2169,288],[-610,970]],[[98169,60854],[-285,289],[-935,-525],[-787,420],[-515,-158],[-1356,1338],[-271,1074],[-691,682],[-678,-865],[-271,315],[-163,2648]],[[92217,66072],[203,1127],[1614,1101]],[[94034,68300],[1288,-1363],[623,-236],[1166,551],[665,-551],[732,-1206],[230,-970],[610,-1206],[475,-1495],[176,-996],[-1261,1993],[-556,-1075],[-13,-892]],[[98169,60854],[-204,-1075],[-67,-2228],[-705,-839],[-366,445],[-733,-157],[-67,-996]],[[96027,56004],[-732,-472],[-1058,524],[-474,-655],[-638,209],[-528,1102],[-773,445],[-420,-996],[-610,-420],[366,-943],[-14,-1600],[-732,-917]],[[90414,52281],[-963,-525],[-840,-1101]],[[88611,50655],[68,3723],[-732,2202],[-367,1862]],[[87580,58442],[217,1390],[122,2700],[-745,708],[149,1259],[949,1284]],[[88272,65783],[1017,-472],[1599,1075],[1329,-314]],[[90685,30414],[-217,1206],[244,3068],[-68,2412],[-1206,472]],[[89438,37572],[-271,236],[-82,1992],[-203,1338],[136,917],[894,1311],[665,2648],[664,1416],[163,1154],[-217,812],[-610,866],[-163,2019]],[[96027,56004],[162,-2203],[570,-865],[-41,-1757],[-217,-655],[285,-1652],[434,-734],[-136,-1940],[244,-1600],[-40,-3828],[705,-78],[189,-865],[-461,-1154],[-203,-2386],[-583,-2098],[-81,-1022]],[[13273,91085],[-258,-761]],[[13015,90324],[-1817,-498],[-1071,-655],[-433,-1731],[-638,-734],[-827,1599],[-1450,-157],[-787,-393]],[[5992,87755],[-162,708],[556,3120],[108,1520],[-353,4930]],[[6141,98033],[529,314],[570,1390],[650,-420],[516,551],[772,-1862],[583,-1048],[407,708],[1030,655],[1099,-341],[-231,-2386],[542,-2595],[665,-1914]],[[5992,87755],[95,-2517],[-583,-3776],[27,-1311],[339,-2045]],[[5870,78106],[-27,-1049]],[[5843,77057],[-2508,-917],[-1179,157],[-163,2019],[474,472],[651,2438],[515,708],[82,1049],[-271,918],[54,2621],[325,79],[759,1495],[502,419],[-203,3487],[-1383,1836],[217,1651],[786,131],[149,918],[366,1390],[1125,105]],[[92854,84189],[109,-1337],[759,-944],[556,-2910],[95,-1652],[-407,-2360],[-461,-1022],[312,-866],[-149,-1048],[501,-1652],[163,-1154],[-298,-944]],[[88272,65783],[-407,1705],[-556,1048],[-772,577],[-421,1285],[163,839],[759,603],[1112,1573],[-136,1599],[122,1102]],[[84788,21211],[-2170,-1258],[-1450,-158],[-1600,918],[-976,-341],[-963,-1206],[-474,-236],[-908,-1390]],[[76247,17540],[-217,289],[-475,2019],[-13,1625],[-583,1390],[-68,1888]],[[74891,24751],[501,1599],[1654,2805],[407,79],[312,1154],[583,288],[1830,-105],[326,367]],[[80504,30938],[596,-1206],[366,-1861],[570,-839],[799,393],[1546,2701]],[[76247,17540],[-1465,-1861],[-1125,-1023],[-1681,-786],[-1342,-525],[-800,656],[-1234,-236],[-840,918],[-556,1415],[-1248,1102],[-528,52],[-854,-1127]],[[64574,16125],[-95,1940],[-719,1730],[-149,3225],[231,1337],[461,1338],[352,183]],[[64655,25878],[813,-367],[394,839],[1274,551],[678,1809],[1166,419],[-27,761],[474,1625],[556,2989],[664,865]],[[70647,35369],[421,-524],[1016,-524],[651,-1495],[1437,-1678],[-27,-1730],[136,-1888],[366,-2124],[244,-655]],[[61944,13555],[-394,-629],[-1071,393],[-1193,-262],[-257,1783],[-1587,1180]],[[57442,16020],[1058,1730],[54,1075],[1275,-1652],[650,-1730],[163,236],[854,-1154],[448,-970]],[[64574,16125],[-1071,-1180],[-868,-446],[-691,-944]],[[57442,16020],[-1084,2123]],[[56358,18143],[678,2150],[718,2780]],[[57754,23073],[1139,1127],[149,-1416],[407,-314],[474,1232],[1641,1206],[881,446],[41,1678]],[[62486,27032],[1139,262],[610,-551],[420,-865]],[[57442,16020],[-298,-1285],[-352,-4038],[271,-2700],[325,-289],[82,-1232],[-868,-26],[-732,-734],[-14,-2517],[-461,-1023],[-379,-105],[-217,-2071],[-1275,1521],[339,1599],[-135,1101],[-787,3094],[-54,603],[1302,3304],[786,1232],[149,865],[-149,2281],[-678,1862],[-651,-734]],[[53646,16728],[-81,996],[420,1206],[326,-26]],[[54311,18904],[1152,-79],[366,-760],[529,78]],[[13273,91085],[935,-1469],[2739,-2884],[1057,-498],[-203,-1678],[-461,-2045],[-841,-629],[-1030,105],[-854,1022],[-1166,839],[-325,-79]],[[13124,83769],[-136,2124],[230,2255],[-203,2176]],[[18750,80492],[-1180,1704],[543,3671],[528,446],[2020,-970],[1383,-472]],[[22044,84871],[-176,-1914],[-1396,-1652],[-407,1258],[-285,53],[-1030,-2124]],[[13124,83769],[-855,-629],[-366,-1101],[-1071,656],[-1111,-368],[-272,-760],[-244,-1757],[-718,-2045],[-570,-1127],[-691,-341],[-434,-813]],[[6792,75484],[-162,2465],[-760,157]],[[6792,75484],[-1464,-1678],[-352,-1520],[-895,-1888],[-515,-656],[162,-734],[-759,-1416],[-81,1285],[271,1783],[-258,1180],[543,524],[583,1206],[840,1128],[393,0],[827,1442],[-244,917]],[[5247,59412],[-1098,-498],[-502,-629],[-1085,-341],[-433,577],[406,2071],[27,5060],[231,1049],[596,157],[421,1416],[81,1363],[488,315],[1220,3042],[1451,-184],[434,944],[1084,105],[176,-1416],[597,-760],[637,-105]],[[9978,71578],[-40,-839],[-624,-1233],[285,-1022],[-272,-1993],[177,-524],[-231,-1888],[-854,-1154],[-773,472],[-542,-131],[-1017,-1363],[-691,26],[-149,-2517]],[[1830,69218],[0,-341],[-1288,-786],[-542,472],[502,1284],[800,551],[528,-1180]],[[80775,79496],[-949,-1652],[-651,-341],[-149,-918],[-732,-393],[-854,-996]],[[77440,75196],[-14,2097],[-325,1914],[-380,3173]],[[76721,82380],[597,918],[474,-132],[746,892],[678,1573],[352,-157],[1586,1809]],[[77440,75196],[-1587,-498],[-881,341],[-542,1127],[-407,-682]],[[74023,75484],[-610,1547],[-230,-944],[-502,-157],[-1220,1127],[-637,2072],[-407,-289]],[[70417,78840],[-122,2858],[149,1940]],[[70444,83638],[651,-340],[813,970],[326,-184],[528,-1206],[719,-131],[664,-839],[732,288],[759,-944],[1085,1128]],[[70417,78840],[-624,-157],[-610,-1180],[-312,-1888],[-27,-1415],[759,-761],[366,-1285],[-786,-1310],[136,-3147]],[[69319,67697],[-895,-262]],[[68424,67435],[-1071,1023],[-542,-315],[-936,1363],[-610,5401]],[[65265,74907],[-488,1285],[108,2360],[-122,1494],[272,1783]],[[65035,81829],[908,-183],[230,-472],[1085,157],[515,760],[420,-314],[339,734],[760,655],[1152,472]],[[65265,74907],[-786,-681],[-136,-1285],[-434,53],[-501,-1102],[-583,708],[-285,1311]],[[62540,73911],[-271,1704],[-705,105],[-1193,1940],[-1085,27],[-1640,1730],[27,892]],[[57673,80309],[651,393],[894,1468],[787,2648]],[[60005,84818],[583,26],[691,-629],[570,-1049],[542,132],[244,1075],[678,78],[0,-996],[583,-1259],[447,131],[692,-498]],[[57673,80309],[-542,681],[-827,-577]],[[56304,80413],[-1044,2177],[-461,-1678],[-637,-866],[-407,472],[-1302,27],[-1274,2412],[-325,-131],[-1614,1048]],[[49240,83874],[-596,0],[-461,2911]],[[48183,86785],[352,944],[773,891],[190,-682],[813,-1337],[1098,420],[-176,2123],[-54,2491],[203,1075]],[[51382,92710],[624,-157],[1437,1206],[786,-105],[394,-1154],[67,-2648],[543,-1652],[1111,-1887],[638,917],[244,1233],[1138,-394],[773,-891],[285,-1809],[583,-551]],[[48183,86785],[-258,-1075],[-881,1022],[-895,315],[-135,393]],[[46014,87440],[108,3854],[502,1678],[-299,866],[-1708,550],[-339,315],[421,2176],[-28,891]],[[44671,97770],[611,-183],[786,446],[1098,-472],[1030,970],[299,1468],[406,-105],[421,-1127],[-41,-1731],[664,-2412],[380,-734],[1057,-1180]],[[46014,87440],[-272,-131],[-691,-2307],[-420,-1888],[379,-1127],[-122,-787],[-1193,-944]],[[43695,80256],[-434,131],[-650,918],[-190,760],[352,1337],[-311,577],[-854,-1049],[-1153,-1074],[-908,1442],[-868,681]],[[38679,83979],[-718,944],[-55,2255],[502,1363],[515,236],[-298,2203],[-380,629],[-691,-393],[-176,445]],[[37378,91661],[-55,1154],[339,551],[-393,2805]],[[37269,96171],[664,367],[2088,2176],[2861,-708],[678,131],[1111,-367]],[[37378,91661],[-800,-1258],[-231,-1154],[-623,-1232],[-1126,-262]],[[34598,87755],[109,1363],[-298,1914],[-611,996]],[[33798,92028],[678,1941],[461,131],[1356,1756],[976,315]],[[34598,87755],[-461,-1416],[-257,-2124],[0,-1416]],[[33880,82799],[-1830,341]],[[32050,83140],[-1275,289],[-1084,1468]],[[29691,84897],[284,813],[14,1809],[1328,1311],[1112,1704],[1369,1494]],[[32050,83140],[-339,-2071],[-1166,-524],[-258,-446],[-203,-1993],[-407,-708],[-502,-131],[-596,577],[-841,-79],[-434,367]],[[27304,78132],[14,2203],[-122,917],[475,1574],[-28,970]],[[27643,83796],[1112,157],[936,944]],[[27304,78132],[-325,-603],[-13,-1494],[-705,-341],[-475,-2412],[136,-1442]],[[25922,71840],[-665,131],[-379,865],[-624,79],[-718,-446],[-461,315],[-732,2281]],[[22343,75065],[-82,681]],[[22261,75746],[366,79],[976,1023],[217,996],[217,2360],[339,865],[678,393],[122,1547],[-475,970],[190,1233]],[[24891,85212],[1410,-787],[258,-472],[1084,-157]],[[22044,84871],[1329,-105],[691,1075],[827,-629]],[[22261,75746],[-705,604],[-1328,-997],[-597,184]],[[19631,75537],[41,2019]],[[19672,77556],[379,603],[299,-603],[1016,550],[-461,944],[-1233,-131],[-922,1573]],[[19631,75537],[-325,157],[-678,-996],[-787,839],[-528,157],[13,-1730]],[[17326,73964],[-325,104],[-651,1311],[1003,1442],[1546,341],[773,394]],[[22343,75065],[-489,-839],[-244,-1757],[163,-1285],[-596,-1678],[-136,-2386],[488,-1966],[-556,-79]],[[20973,65075],[-651,-236],[-542,499],[-257,-446],[-421,-2832],[-244,-419],[-149,-1783],[-285,-446],[-976,236],[-189,367]],[[17259,60015],[-285,472],[-692,0],[-352,708],[-122,1337],[-746,-26],[-1383,2386],[-189,1599],[-380,865],[-312,1652],[190,1154],[-271,1127],[583,1626]],[[13300,72915],[1749,-131],[488,-420],[705,603],[962,-629],[570,210],[244,1442],[-692,-26]],[[9978,71578],[1125,78],[407,787],[-949,2124],[393,550],[1098,-550],[245,-813],[-380,-1364],[1383,525]],[[17259,60015],[-367,-3015],[-447,-1757],[-759,-839],[-41,-1284]],[[15645,53120],[-447,183],[-488,-603],[-827,-236],[-339,-708],[-678,-131],[-271,1442],[-556,1442],[-597,-131],[95,1731],[-1125,131],[-841,943],[-393,-498]],[[9178,56685],[-678,1337],[-1260,-1809],[-285,-943],[-1125,-1941]],[[5830,53329],[-570,2176],[1342,2858],[-176,1573],[-1179,-524]],[[9178,56685],[380,-3146],[271,-1416],[-41,-839],[-474,-1075],[-624,-786],[-95,-1206],[-420,-1809],[800,-2544],[1057,-105],[244,-1232],[773,-1075],[149,-970],[475,-341],[217,1023],[813,-184],[353,-1363],[718,341],[773,-656],[597,-2910]],[[15144,36392],[-1614,-1390],[-1003,-26],[-1207,-787],[-1288,263],[-908,-1128],[-773,-419]],[[8351,32905],[-122,1599],[-637,105],[-271,734],[-597,420],[-447,-420],[-203,1652],[-339,1154],[-651,-210],[-149,-1521],[-868,1652],[-596,367],[-326,813],[1098,1284],[190,1049],[-569,865],[-285,2150],[339,918],[488,-419],[651,-2124],[-95,-1652],[800,-839],[827,236],[68,891],[-461,2596],[-502,341],[-176,1626],[515,550],[1017,1862],[-258,1075],[-434,-367],[-379,550],[-14,1311],[407,603],[-542,1573]],[[15144,36392],[705,-53]],[[15849,36339],[420,-1179],[135,-1993],[-176,-944],[678,-2150],[-366,-315],[-515,-1468],[-773,-131],[136,-1783]],[[15388,26376],[-678,210],[-719,1180],[-379,183],[-665,-1756],[-1003,-53],[-935,210],[-1180,1232],[-339,-236],[-393,-2019]],[[9097,25327],[-393,-970],[-719,105],[163,1888],[-217,1075],[136,839],[-421,1468],[638,892],[67,2281]],[[15388,26376],[94,-1520],[570,-368],[393,-2018],[1302,-2072],[149,-1992],[949,-1049],[623,2491]],[[19468,19848],[488,-1154],[624,210],[447,-1521]],[[21027,17383],[-569,-3146],[-27,-1862],[-488,-996],[-14,-865],[-610,-315],[-529,-2700]],[[18790,7499],[-447,734],[-257,1258],[-55,2150],[-488,577],[393,1206],[-732,996],[-488,-550],[-610,78],[-746,577],[-935,1521],[-149,-629],[-827,367],[81,-1364],[-474,-865],[-271,-1101],[-366,1835],[-1587,656],[-339,-1626],[-610,420],[-461,-498],[-203,1311],[963,471],[176,656],[596,-393],[204,393],[1206,-236],[55,2333],[759,0],[623,1783],[-1111,-445],[-556,209],[-1071,-655],[-326,183],[-1233,-236],[-231,577],[-922,-1022],[-176,1573],[393,918],[434,183],[461,-603],[420,603],[312,2281],[-325,-26],[-814,813],[41,1415]],[[21027,17383],[285,289],[488,1678],[366,2150],[936,1179],[1098,944],[312,-105],[447,-1075],[1803,53],[773,2333]],[[27535,24829],[461,-472],[1613,1128]],[[29609,25485],[434,-1075],[2088,-892],[1139,-2071],[501,-1468],[1017,-1888],[-95,-1652],[637,-341],[150,-2543]],[[35480,13555],[393,-2228],[637,-1521]],[[36510,9806],[-27,-2674],[-393,-2806]],[[36090,4326],[-1085,1337],[-895,2884],[-474,2019],[-393,918],[-1356,1075],[-163,498],[-1722,1940],[-339,708],[-2101,787],[-854,-131],[-475,655],[-610,-1730],[0,-4038],[-488,-2019],[231,-944],[-407,-1652],[-976,1102],[-569,-866],[-1221,-576],[-610,-1154],[-664,-26],[-339,1022],[-569,53],[-1221,1311]],[[36510,9806],[990,-79],[1098,525],[569,2438],[-610,865],[-339,2071],[1153,1338],[894,1599],[1288,708],[624,-53],[691,472],[502,918],[949,629]],[[44319,21237],[325,734],[1424,1705],[149,681]],[[46217,24357],[393,27],[705,760],[366,-210]],[[47681,24934],[366,-1835],[258,-472],[122,-2543],[773,-918],[-163,-996],[81,-2675],[-691,-1075]],[[48427,14420],[-854,1416],[-407,-52],[-719,-734],[-732,-1652],[-732,-1206],[-501,-1809],[-529,-970],[0,-1338],[-773,-629],[-312,393],[-366,-1337],[-800,-603],[-542,-760],[-2142,-210],[-230,-786],[-773,340],[-719,-1232],[-691,315],[-515,760]],[[53646,16728],[-664,-1547],[-1044,-551],[136,-2124],[-624,79],[-868,-1075],[-1599,2386],[-556,524]],[[47681,24934],[14,1101],[366,1547],[-190,2019],[163,577],[1044,-52],[691,1678]],[[49769,31804],[895,-184],[1125,-891],[271,314],[-122,2911],[1952,3198],[638,2517],[230,1311],[624,997],[705,0],[542,-2150]],[[56629,39827],[-447,-1652],[-488,-4877],[176,-2884],[-420,-996]],[[55450,29418],[-882,-79],[-894,-4693],[162,-2386],[448,-157],[257,-1390],[-230,-1809]],[[33880,82799],[705,-262],[-27,-865],[1111,-1285],[177,-1258]],[[35846,79129],[-95,-1337]],[[35751,77792],[-339,-525],[176,-2124],[-420,-1442],[-421,-524],[-718,236],[-447,-498],[-1410,-970],[-855,-26],[-474,-446],[-773,813],[-881,-210],[-949,1022],[-325,-2700],[-746,-1573]],[[27169,68825],[-664,393]],[[26505,69218],[-583,2622]],[[35751,77792],[827,-105],[1532,-1678],[434,-1469],[677,-1127],[516,-1573],[393,105],[271,917],[1030,-891]],[[41431,71971],[-135,-2202],[-41,-2963],[-990,-551],[-515,-4037],[136,-1364],[556,-1783],[203,-2281],[420,-1914]],[[41065,54876],[109,-891],[1016,-1626],[1031,-1180],[-41,-550]],[[43180,50629],[-176,-1049],[190,-2255],[-637,-1232],[-461,26],[-1329,-1180]],[[40767,44939],[-529,2465],[41,3592],[-285,1547],[-501,865],[-841,760],[-285,-1861],[-772,813],[-963,-1967],[-393,393],[-637,-970],[-1031,1049],[-813,-446],[-1383,2177]],[[32375,53356],[949,1651],[-312,1154],[41,2360],[-488,1992],[-299,2465],[28,1599],[-461,708],[-163,1652],[-1546,0],[-216,524],[-746,0],[-285,-524],[-569,393],[-841,-446],[-298,1941]],[[26505,69218],[-529,-52],[-420,-787],[-163,-1652],[-447,-1180],[-543,-262],[-474,-1127],[-55,-1626],[-515,-1730]],[[23359,60802],[-989,-498],[-1193,1625],[-272,1101],[68,2045]],[[32375,53356],[-136,-1180],[-718,-79]],[[31521,52097],[-1275,-26],[-393,708],[-637,2333],[-1532,-2019],[-488,892],[-515,-1101],[-786,-866],[-936,1888]],[[24959,53906],[-95,1023],[-515,1625],[-203,2203],[-787,2045]],[[43695,80256],[258,-996],[-176,-1259],[244,-2989],[312,-1730],[-353,-1783],[-624,-708]],[[43356,70791],[-488,105],[-1437,1075]],[[35846,79129],[1166,1730],[433,1285],[516,-105],[501,629],[217,1311]],[[62540,73911],[-583,-2307],[-908,-918],[-1370,-262],[-867,-603],[-597,184],[-393,-394],[-339,-2517],[-949,-1075],[-854,-105],[-1220,-576]],[[54460,65338],[-258,1022],[41,1521],[-217,498],[-922,-551],[-895,105],[-772,1626]],[[51437,69559],[352,1416],[569,524],[814,3094],[854,-184],[678,-786],[908,1284],[461,1023],[502,2491],[-380,1101],[109,891]],[[68424,67435],[-136,-1442],[-474,105],[-515,-551],[-732,236],[-163,-1835],[746,236],[-733,-2360],[-122,-2805],[475,-1075],[-420,-1128],[135,-2831],[-149,-970]],[[66336,53015],[-786,-997],[-1464,-393],[-760,-1022],[-447,-236],[-434,524],[-352,-760],[244,-2150],[-461,-1547],[-1180,-2124]],[[60696,44310],[-1166,-236],[-949,577],[-678,-420]],[[57903,44231],[543,4405],[434,2701],[-190,1415],[-407,525],[-935,183],[-475,-367],[-515,682],[-868,288],[-908,-157],[-1003,1678],[-529,367]],[[53050,55951],[434,970],[637,2229],[827,1704],[163,1311],[-502,2019],[-149,1154]],[[49240,83874],[-217,-1651],[-95,-2622],[407,-2072],[1031,-576],[664,-708],[135,-734],[-122,-1731],[-447,-1599],[-122,-1888]],[[50474,70293],[-705,-262],[-68,-1836],[-556,-1022],[-677,236],[-787,-892],[-935,-288],[-800,341],[-1017,-918],[-1112,-577]],[[43817,65075],[244,1862],[-67,1363],[-366,603],[-272,1888]],[[51437,69559],[-773,183],[-190,551]],[[24959,53906],[-366,-1337],[-610,-656],[-475,-3120],[-352,-1284],[-1085,-1547]],[[22071,45962],[0,1652],[-244,655],[-800,524],[-610,-314],[-217,-1626],[-962,-498],[-732,79],[-624,472],[-285,-577]],[[17597,46329],[28,996],[-285,1495],[41,970],[-421,1783],[-935,655],[-380,892]],[[29609,25485],[190,1835],[-203,1626],[393,681],[244,1574],[-136,2490],[109,1049],[881,1101],[27,525],[-1030,2123],[-732,1783],[-149,1154]],[[29203,41426],[921,1468],[855,2412],[67,1836],[570,2333],[-217,1154],[122,1468]],[[40767,44939],[-529,-1783],[-488,-3906],[-41,-1311],[434,-2779],[556,-1521],[854,288],[1234,105],[1207,839],[393,-131]],[[44387,34740],[244,-1494],[488,-551],[759,-2517],[54,-891],[-325,-1600],[-27,-1180],[637,-2150]],[[44319,21237],[-475,2072],[-1315,3487],[-135,2045],[-732,236],[-651,-1678],[-529,-498],[-1600,-367],[-488,-472],[-881,-2386],[-1125,-3671],[-109,-1626],[638,-419],[-95,-1495],[-1342,-2910]],[[44387,34740],[1722,6135]],[[46109,40875],[1043,263],[624,-892],[556,498]],[[48332,40744],[352,-2438],[312,-787],[854,-26],[109,-2412],[-190,-3277]],[[48332,40744],[813,2963],[-13,2202],[-610,2308],[393,3067]],[[48915,51284],[1193,-445],[813,1074],[1695,2596],[434,1442]],[[57903,44231],[-515,-2228],[-759,-2176]],[[27535,24829],[-420,839],[-461,1731],[-312,2045],[-312,472],[-691,157],[-922,2176],[-1125,-2071],[-380,-52],[-176,996]],[[22736,31122],[786,550],[230,2413],[1668,3670],[1315,1364],[1668,3775],[800,-1468]],[[17597,46329],[-596,-1232],[-339,-1416],[258,-472],[-41,-2727],[-298,-944],[488,-786]],[[17069,38752],[-488,-263],[-272,-1887],[-460,-263]],[[17069,38752],[596,-577],[556,445],[353,-524],[1003,1101],[773,-78],[352,498],[14,1914],[650,341]],[[21366,41872],[719,-420],[705,-2648],[-68,-1468],[-1817,-3356],[-13,-1626],[718,-524],[231,-970]],[[21841,30860],[-814,-1364],[-122,-681],[-664,-866],[244,-2648],[-895,-3749],[-122,-1704]],[[21841,30860],[895,262]],[[43180,50629],[610,-525],[271,-1075],[719,420]],[[44780,49449],[108,-2071],[-271,-1521],[82,-787],[881,-1258],[-149,-1573],[678,-1364]],[[44780,49449],[569,-1154],[244,2045],[1248,1390],[217,655],[-272,1259],[68,1049],[-230,1861],[772,446]],[[47396,57000],[651,-1652],[163,-1101],[420,-629],[285,-2334]],[[47396,57000],[-366,1206],[-488,472],[-718,2071],[-217,1049],[-651,184],[-529,1310],[-501,499]],[[43926,63791],[-109,1284]],[[41065,54876],[583,2412],[854,1626],[583,2963],[841,1914]],[[22071,45962],[-108,-1259],[-312,-760],[-285,-2071]],[[69319,67697],[610,-524],[1749,-2307],[1233,0],[868,655],[420,1259]],[[74199,66780],[841,262],[461,681],[854,-419]],[[76355,67304],[-203,-1757],[284,-341],[895,-26],[339,-1101],[176,-1468],[597,-1023],[-326,-2491]],[[78117,59097],[-338,263]],[[77779,59360],[-1627,262],[-299,288],[-1030,-813],[-691,630],[-787,-1128],[-1220,-288],[-800,288],[-1491,-865],[-231,-708],[-786,-996],[54,-1311],[-406,-446],[-258,-1127],[122,-1914]],[[68329,51232],[-298,-236]],[[68031,50996],[-339,944],[-1356,1075]],[[77779,59360],[-461,-866],[-380,132],[-475,-1285],[-488,-210],[-867,-1127],[-136,-3828]],[[74972,52176],[-718,-603],[81,-1180],[-217,-1442],[-800,-1285],[-881,-131],[-285,-682],[-1315,1495],[-1179,629],[-976,-315],[-217,525],[67,1337],[-203,708]],[[57754,23073],[-217,812],[-664,1075],[-1288,-629],[-447,2491],[312,1363],[0,1233]],[[60696,44310],[-298,-1232],[447,-813],[773,-420],[1437,-1625],[244,-1101],[-352,-2963],[-298,-1049],[-475,-3277]],[[62174,31830],[-746,-2019],[177,-1652],[881,-1127]],[[88611,50655],[-800,-1127],[-854,236],[-895,-892],[-176,-970],[-556,-551],[203,-1284],[-894,-1783],[-895,157],[-854,-918]],[[82890,43523],[-583,-314]],[[82307,43209],[-217,1809],[-624,1442]],[[81466,46460],[-502,2386],[163,1232],[366,1049],[27,1337],[-366,1363],[-149,1652],[176,970]],[[81181,56449],[841,341],[420,-236],[1125,-2753],[909,-498],[407,682],[650,262],[610,1154],[231,2018],[718,839],[488,184]],[[81181,56449],[-447,1573],[-719,525],[-664,1337],[-773,-944],[-461,157]],[[76355,67304],[1044,-157],[447,917],[949,866],[271,996],[-1179,1154],[-447,4116]],[[68031,50996],[-366,-53],[13,-4326],[-718,79],[-692,-2517],[122,-944],[570,-970],[1084,-865],[624,314],[393,-1232],[556,-603],[651,288]],[[70268,40167],[176,-943],[-176,-1469]],[[70268,37755],[-244,-655],[-719,-708],[-664,-262],[-1044,314],[95,1233],[-326,655],[-677,-236],[-705,-2229],[-407,-524],[-149,-1468],[-326,-708],[-799,-603],[-448,236],[-1681,-970]],[[74972,52176],[1803,2097],[163,-760],[-488,-1888],[27,-2333],[407,-1442],[-204,-1652],[-325,236],[-244,-1705],[271,-996],[81,-1416]],[[76463,42317],[-1748,-157],[-624,446],[-325,-1495],[-339,-393],[-800,-26],[-773,-577],[-868,341],[-718,-289]],[[89438,37572],[-258,-1442],[0,-1731],[-352,-603],[-1207,1914],[-976,839],[-1003,1757],[-895,-682],[-1098,603]],[[83649,38227],[-14,1862],[-312,3015],[-433,419]],[[81466,46460],[-1871,-2202],[-1342,288],[-800,-524],[-379,-1678],[-611,-27]],[[70268,37755],[556,210],[176,-839],[-353,-1757]],[[82307,43209],[27,-525],[-800,-786],[-325,-2753],[27,-2622],[-434,-2648],[-502,-1390],[204,-1547]],[[83649,38227],[-597,-2255],[-610,-393],[-135,-1783],[569,-1232],[949,-944],[556,-1494]],[[74199,66780],[-298,2071],[258,1966],[40,2334],[-176,2333]]],"bbox":[25.66311706476523,35.822432447955535,44.807607731739495,42.09923624313308],"transform":{"scale":[0.00019144682113795403,0.0000627686656384318],"translate":[25.66311706476523,35.822432447955535]}}