{"type":"Topology","objects":{"a1":{"type":"GeometryCollection","geometries":[{"type":"Polygon","arcs":[[0]],"id":"TUV+00?","properties":{"adm1_code":"TUV+00?","iso_3166_2":"TV-X01~","name":"Tuvalu","admin":"Tuvalu","adm0_a3":"TUV","type_en":null}}]}},"arcs":[[[0,0],[45454,99999],[54545,-7143],[-99999,-92856]]],"bbox":[179.19020050324082,-8.541437480361324,179.21875112652396,-8.51839729862759],"transform":{"scale":[2.855090879222599e-7,2.3040412137855167e-7],"translate":[179.19020050324082,-8.541437480361324]}}