{"type":"Topology","objects":{"a1":{"type":"GeometryCollection","geometries":[{"type":"Polygon","arcs":[[0]],"id":"UMI-5174","properties":{"adm1_code":"UMI-5174","iso_3166_2":"UM-67","name":"Johnston Atoll","admin":"United States Minor Outlying Islands","adm0_a3":"UMI","type_en":null}},{"type":"Polygon","arcs":[[1]],"id":"UMI-5173","properties":{"adm1_code":"UMI-5173","iso_3166_2":"UM-86","name":"Jarvis Island","admin":"United States Minor Outlying Islands","adm0_a3":"UMI","type_en":null}},{"type":"Polygon","arcs":[[2]],"id":"UMI-5171","properties":{"adm1_code":"UMI-5171","iso_3166_2":"UM-81","name":"Baker Island","admin":"United States Minor Outlying Islands","adm0_a3":"UMI","type_en":null}},{"type":"Polygon","arcs":[[3]],"id":"UMI-5172","properties":{"adm1_code":"UMI-5172","iso_3166_2":"UM-84","name":"Howland Island","admin":"United States Minor Outlying Islands","adm0_a3":"UMI","type_en":null}},{"type":"Polygon","arcs":[[4]],"id":"UMI-5179","properties":{"adm1_code":"UMI-5179","iso_3166_2":"UM-79","name":"Wake Atoll","admin":"United States Minor Outlying Islands","adm0_a3":"UMI","type_en":null}},{"type":"Polygon","arcs":[[5]],"id":"UMI-5176","properties":{"adm1_code":"UMI-5176","iso_3166_2":"UM-71","name":"Midway Islands","admin":"United States Minor Outlying Islands","adm0_a3":"UMI","type_en":null}},{"type":"Polygon","arcs":[[6]],"id":"UMI-5177","properties":{"adm1_code":"UMI-5177","iso_3166_2":"UM-76","name":"Navassa Island","admin":"United States Minor Outlying Islands","adm0_a3":"UMI","type_en":null}},{"type":"Polygon","arcs":[[7]],"id":"UMI-5178","properties":{"adm1_code":"UMI-5178","iso_3166_2":"UM-95","name":"Palmyra Atoll","admin":"United States Minor Outlying Islands","adm0_a3":"UMI","type_en":null}}]}},"arcs":[[[2281,59861],[-3,-40],[-2,17],[5,23]],[[5043,46],[6,12],[-1,-35],[-4,-23],[-1,46]],[[260,2043],[2,5],[-1,-23],[-1,18]],[[216,4120],[-2,40],[2,6],[0,-46]],[[99992,68768],[5,17],[2,-34],[-7,17]],[[6,99999],[-4,-40],[-2,34],[6,6]],[[29752,65747],[5,-5],[1,-64],[-4,0],[-2,69]],[[4453,21939],[0,-46],[-9,-6],[0,40],[9,12]]],"bbox":[-177.3785336803628,-0.38850460115065744,166.64349932588806,28.214235294021165],"transform":{"scale":[0.0034402547326098346,0.0002860302592543108],"translate":[-177.3785336803628,-0.38850460115065744]}}