{"type":"Topology","objects":{"a1":{"type":"GeometryCollection","geometries":[{"type":"Polygon","arcs":[[0,1,2,3]],"id":"URY-8","properties":{"adm1_code":"URY-8","iso_3166_2":"UY-PA","name":"Paysandú","admin":"Uruguay","adm0_a3":"URY","type_en":"Department"}},{"type":"Polygon","arcs":[[4,5]],"id":"URY-6","properties":{"adm1_code":"URY-6","iso_3166_2":"UY-AR","name":"Artigas","admin":"Uruguay","adm0_a3":"URY","type_en":"Department"}},{"type":"Polygon","arcs":[[6,-6,7,8,9,-1]],"id":"URY-10","properties":{"adm1_code":"URY-10","iso_3166_2":"UY-SA","name":"Salto","admin":"Uruguay","adm0_a3":"URY","type_en":"Department"}},{"type":"Polygon","arcs":[[10,11,12,-9]],"id":"URY-14","properties":{"adm1_code":"URY-14","iso_3166_2":"UY-RV","name":"Rivera","admin":"Uruguay","adm0_a3":"URY","type_en":"Department"}},{"type":"Polygon","arcs":[[13,14,15,16]],"id":"URY-22","properties":{"adm1_code":"URY-22","iso_3166_2":"UY-RO","name":"Rocha","admin":"Uruguay","adm0_a3":"URY","type_en":"Department"}},{"type":"Polygon","arcs":[[17,-17,18,19,20,21]],"id":"URY-16","properties":{"adm1_code":"URY-16","iso_3166_2":"UY-TT","name":"Treinta y Tres","admin":"Uruguay","adm0_a3":"URY","type_en":"Department"}},{"type":"Polygon","arcs":[[22,-22,23,24,-12]],"id":"URY-12","properties":{"adm1_code":"URY-12","iso_3166_2":"UY-CL","name":"Cerro Largo","admin":"Uruguay","adm0_a3":"URY","type_en":"Department"}},{"type":"Polygon","arcs":[[-15,25,26,27]],"id":"URY-20","properties":{"adm1_code":"URY-20","iso_3166_2":"UY-MA","name":"Maldonado","admin":"Uruguay","adm0_a3":"URY","type_en":"Department"}},{"type":"Polygon","arcs":[[-27,28,29,30,31,32]],"id":"URY-17","properties":{"adm1_code":"URY-17","iso_3166_2":"UY-CA","name":"Canelones","admin":"Uruguay","adm0_a3":"URY","type_en":"Department"}},{"type":"Polygon","arcs":[[-30,33,34]],"id":"URY-21","properties":{"adm1_code":"URY-21","iso_3166_2":"UY-MO","name":"Montevideo","admin":"Uruguay","adm0_a3":"URY","type_en":"Department"}},{"type":"Polygon","arcs":[[-31,-35,35,36,37,38]],"id":"URY-5","properties":{"adm1_code":"URY-5","iso_3166_2":"UY-SJ","name":"San José","admin":"Uruguay","adm0_a3":"URY","type_en":"Department"}},{"type":"Polygon","arcs":[[-37,39,40]],"id":"URY-4","properties":{"adm1_code":"URY-4","iso_3166_2":"UY-CO","name":"Colonia","admin":"Uruguay","adm0_a3":"URY","type_en":"Department"}},{"type":"Polygon","arcs":[[-41,41,42,43]],"id":"URY-11","properties":{"adm1_code":"URY-11","iso_3166_2":"UY-SO","name":"Soriano","admin":"Uruguay","adm0_a3":"URY","type_en":"Department"}},{"type":"Polygon","arcs":[[-3,44,45,-43,46]],"id":"URY-9","properties":{"adm1_code":"URY-9","iso_3166_2":"UY-RN","name":"Río Negro","admin":"Uruguay","adm0_a3":"URY","type_en":"Department"}},{"type":"Polygon","arcs":[[-2,-10,-13,-25,47,-45]],"id":"URY-15","properties":{"adm1_code":"URY-15","iso_3166_2":"UY-TA","name":"Tacuarembó","admin":"Uruguay","adm0_a3":"URY","type_en":"Department"}},{"type":"Polygon","arcs":[[-21,48,49,-46,-48,-24]],"id":"URY-13","properties":{"adm1_code":"URY-13","iso_3166_2":"UY-DU","name":"Durazno","admin":"Uruguay","adm0_a3":"URY","type_en":"Department"}},{"type":"Polygon","arcs":[[-38,-44,-50,50]],"id":"URY-7","properties":{"adm1_code":"URY-7","iso_3166_2":"UY-FS","name":"Flores","admin":"Uruguay","adm0_a3":"URY","type_en":"Department"}},{"type":"Polygon","arcs":[[-20,51,-32,-39,-51,-49]],"id":"URY-18","properties":{"adm1_code":"URY-18","iso_3166_2":"UY-FD","name":"Florida","admin":"Uruguay","adm0_a3":"URY","type_en":"Department"}},{"type":"Polygon","arcs":[[-16,-28,-33,-52,-19]],"id":"URY-19","properties":{"adm1_code":"URY-19","iso_3166_2":"UY-LA","name":"Lavalleja","admin":"Uruguay","adm0_a3":"URY","type_en":"Department"}}]}},"arcs":[[[7501,71023],[2484,776],[2095,-844],[974,-1452],[2776,-574],[2631,-1317],[1607,-304],[1218,-1149],[2386,-979],[4676,-304],[1657,304],[3555,-1081],[3556,-371],[1656,2094],[974,236]],[[39746,66058],[1413,-3208],[-731,-541],[-195,-2229],[-1169,-3883],[-2776,-2567],[-1023,-2769]],[[35265,50861],[-3117,1655],[-3800,135],[-2094,844],[-2728,-709],[-1217,-811],[-4141,-169],[-2094,-1857],[-3264,-439],[-535,-1013],[-3946,506],[-2192,1993],[-1510,-135]],[[4627,50861],[-146,912],[1851,2803],[-97,1215],[-1510,2027],[730,1857],[-389,4424],[2045,710],[1364,3478],[0,1824],[-974,912]],[[12031,85747],[-195,912],[-1461,3242],[682,2128],[3702,3208],[536,1452],[-341,1351],[584,203],[146,-169],[1267,-1722],[3409,67],[2679,-338],[2046,3411],[2776,507],[2338,-101],[2923,-2229],[5650,-5640],[2582,-1621],[2971,-3850],[1218,-946],[-98,-5674]],[[45445,79938],[-3117,2803],[-4335,1047],[-2825,-2060],[-2143,-1114],[-2192,-405],[-2144,371],[-3020,-709],[-7647,4154],[-1753,236],[-2436,2027],[-1802,-541]],[[7501,71023],[-438,1317],[1364,945],[438,1723],[1169,1519],[-146,1453],[1071,2296],[-1071,2263],[1948,844],[195,2364]],[[45445,79938],[146,-135]],[[45591,79803],[-1315,-2668],[-1997,-945],[536,-980]],[[42815,75210],[-536,-1857],[-2533,-2533],[-633,-1655],[633,-3107]],[[45591,79803],[2728,102],[1900,1384],[584,1317],[1510,102],[-49,1249],[1169,642],[2826,-2432],[1656,-1857],[292,-1419],[1461,-2127],[3215,-1993],[1120,1182],[1121,-1486],[2825,-1925],[4237,-743],[2046,-2296],[292,-1655]],[[74524,67848],[-974,-1385],[292,-2262],[-925,-2094],[195,-1216],[-877,-2195],[-1218,-270]],[[71017,58426],[-876,1283],[-3459,3816],[-4043,1047],[-4627,540],[-4773,-168],[-780,776],[-48,2601],[-780,1553],[-1851,1014],[-1315,3039],[-4530,2296],[-1120,-1013]],[[92303,37858],[-292,-2465],[438,-3073],[-487,-5201],[3020,-1891],[-1802,-1925],[-1218,-4661],[-3215,-2803],[-1315,-2837],[292,-1114],[-3896,-1993],[-2874,-2499],[-390,-1182],[-1705,-338],[-828,2094],[-1169,-1013],[682,-1587],[-4189,-2027]],[[73355,3343],[-97,3107],[682,2263],[-731,2162],[877,1013],[0,3884],[584,2195],[-389,3444]],[[74281,21411],[1023,1284],[1461,5099],[2241,1385],[389,1250],[1559,439]],[[80954,30868],[2581,1553],[3556,3141],[585,979],[4627,1317]],[[98635,44545],[-2192,-1823],[-487,-1757],[-2289,-1384],[-1364,-1723]],[[80954,30868],[-2046,979],[-974,1317],[-1266,-67],[-1705,-1588],[-1121,-270],[-3945,1047],[-2289,1216],[-1315,-574],[-1754,473],[-2338,-811]],[[62201,32590],[-438,777],[1071,1891],[-389,2736]],[[62445,37994],[1899,1925]],[[64344,39919],[49,1756],[3556,2060],[4140,371],[1948,1351],[3897,473],[4676,-608],[1315,1115],[2484,-1216],[6284,337],[2240,-810],[3702,-203]],[[74524,67848],[3653,-3276],[2582,-1756],[1266,608],[2533,-1283],[1949,-1925],[1071,-237],[1900,-3681],[438,-2297],[1608,-2262],[2727,-2364],[4335,-1689],[1413,-1553],[-1364,-1588]],[[64344,39919],[-2776,135],[-3069,2600],[-243,4593],[584,1959],[-438,1621]],[[58402,50827],[2289,743],[1851,-574],[1266,337],[3751,3243],[487,2161],[1072,2128],[1899,-439]],[[73355,3343],[-1364,-405],[-6332,-2938],[-2679,1756],[-3312,-270],[-2143,1959]],[[57525,3445],[-731,2229],[-1120,1486]],[[55674,7160],[3605,506],[2094,1621],[1607,135],[1851,1385],[2631,1047],[1217,3918],[1705,2668],[2143,641],[1754,2330]],[[57525,3445],[-2533,67],[-1753,541],[-3556,-34],[-1802,-608],[-2825,-1689]],[[45056,1722],[48,2196],[-2094,1114],[-1608,-743],[-876,844],[-1608,-304]],[[38918,4829],[-1656,1385],[-341,1452],[1364,1419],[-49,1925]],[[38236,11010],[975,1553],[2386,-405],[1656,270],[877,1452],[1656,1013],[1802,-540],[2972,980],[2386,303]],[[52946,15636],[1510,-3850],[-146,-2127],[1364,-2499]],[[45056,1722],[-2095,-709],[-3020,304],[-1705,1047],[682,1250]],[[38918,3614],[0,1215]],[[38918,3614],[-1558,743],[-2338,-34],[-1364,743],[-2825,506],[-2046,1284],[-4043,3546],[-877,304]],[[23867,10706],[1169,912],[536,2229],[-292,1384],[2825,1655],[-2533,3782]],[[25572,20668],[3507,-506],[2533,1587],[2825,1250],[2679,-1081]],[[37116,21918],[779,-3141],[-438,-2533],[341,-2634],[-828,-1182],[1266,-1418]],[[23867,10706],[-6965,-102],[-1607,473],[-3702,-912],[-1413,2027],[-3361,3782],[-2240,676],[-2290,3546],[-1851,2262]],[[438,22458],[2582,811],[1753,1114],[2728,-439],[828,-1215],[2728,0],[3653,-1554],[4920,878],[1899,-1047],[4043,-338]],[[438,22458],[-438,3648],[97,3478],[780,2128]],[[877,31712],[1802,979],[1364,1419],[3653,2127],[-585,1250],[3605,2026],[4091,-844],[1949,1250],[5747,-1858],[2144,-169]],[[24647,37892],[-390,-810],[-3556,-3952],[1461,-3816],[1559,-1148],[-146,-3310],[1997,-4188]],[[35265,50861],[-731,-3546],[-1266,-3682]],[[33268,43633],[-2582,-911],[-1363,-1993],[-4530,-709],[-146,-2128]],[[877,31712],[-390,1081],[1218,1823],[-341,2668],[1071,912],[2533,-34],[1851,1621],[536,2466],[-1364,1891],[-682,4998],[-682,1723]],[[58402,50827],[-3166,1013],[-1267,-1351],[-2094,-608],[-1364,338],[-1559,-2263],[-1802,372],[-1656,-1756],[-2923,-507],[-1022,-1992],[-2582,168],[-5699,-608]],[[62445,37994],[-2728,-1824],[-877,236],[-5991,-3377],[-1754,-135],[-3166,-1385],[-2581,34],[-1364,-1216],[-2874,338],[-584,946],[-2631,439],[98,-1250],[-2241,-540]],[[35752,30260],[-584,1553],[-2192,2466],[-2387,574],[-1412,1621],[-2679,169],[-1851,1249]],[[35752,30260],[2095,-5471],[-731,-2871]],[[62201,32590],[292,-1182],[-1705,-1317],[-584,-1216],[-1705,-979],[585,-1993],[-1072,-3546],[-828,-608],[-1169,-2330],[-1120,-979],[-1949,-2804]]],"bbox":[-58.439232593852964,-34.970171656228096,-53.11064808472902,-30.09717321954203],"transform":{"scale":[0.00005328637795501897,0.000048730471671577395],"translate":[-58.439232593852964,-34.970171656228096]}}