{"type":"Topology","objects":{"a1":{"type":"GeometryCollection","geometries":[{"type":"MultiPolygon","arcs":[[[0,1,2]],[[3]],[[4]],[[5]],[[6]],[[7]]],"id":"VEN-65","properties":{"adm1_code":"VEN-65","iso_3166_2":"VE-Y","name":"Delta Amacuro","admin":"Venezuela","adm0_a3":"VEN","type_en":"State"}},{"type":"Polygon","arcs":[[8,9,10,11,12,13,-1,14]],"id":"VEN-39","properties":{"adm1_code":"VEN-39","iso_3166_2":"VE-F","name":"Bolívar","admin":"Venezuela","adm0_a3":"VEN","type_en":"State"}},{"type":"Polygon","arcs":[[15,-9]],"id":"VEN-38","properties":{"adm1_code":"VEN-38","iso_3166_2":"VE-Z","name":"Amazonas","admin":"Venezuela","adm0_a3":"VEN","type_en":"State"}},{"type":"MultiPolygon","arcs":[[[16,17,18]],[[19,20,21,22]]],"id":"VEN-31","properties":{"adm1_code":"VEN-31","iso_3166_2":"VE-V","name":"Zulia","admin":"Venezuela","adm0_a3":"VEN","type_en":"State"}},{"type":"Polygon","arcs":[[-18,23,24,25,26]],"id":"VEN-28","properties":{"adm1_code":"VEN-28","iso_3166_2":"VE-S","name":"Táchira","admin":"Venezuela","adm0_a3":"VEN","type_en":"State"}},{"type":"Polygon","arcs":[[-11,27,-26,28,29]],"id":"VEN-25","properties":{"adm1_code":"VEN-25","iso_3166_2":"VE-C","name":"Apure","admin":"Venezuela","adm0_a3":"VEN","type_en":"State"}},{"type":"Polygon","arcs":[[-17,30,31,32,-24]],"id":"VEN-27","properties":{"adm1_code":"VEN-27","iso_3166_2":"VE-L","name":"Mérida","admin":"Venezuela","adm0_a3":"VEN","type_en":"State"}},{"type":"Polygon","arcs":[[-23,33,34,35,-32,36]],"id":"VEN-29","properties":{"adm1_code":"VEN-29","iso_3166_2":"VE-T","name":"Trujillo","admin":"Venezuela","adm0_a3":"VEN","type_en":"State"}},{"type":"Polygon","arcs":[[-21,37,38,39]],"id":"VEN-23","properties":{"adm1_code":"VEN-23","iso_3166_2":"VE-I","name":"Falcón","admin":"Venezuela","adm0_a3":"VEN","type_en":"State"}},{"type":"Polygon","arcs":[[-39,40,41,42,43]],"id":"VEN-36","properties":{"adm1_code":"VEN-36","iso_3166_2":"VE-U","name":"Yaracuy","admin":"Venezuela","adm0_a3":"VEN","type_en":"State"}},{"type":"Polygon","arcs":[[-42,44,45,46,47]],"id":"VEN-33","properties":{"adm1_code":"VEN-33","iso_3166_2":"VE-G","name":"Carabobo","admin":"Venezuela","adm0_a3":"VEN","type_en":"State"}},{"type":"Polygon","arcs":[[-46,48,49,50,51]],"id":"VEN-41","properties":{"adm1_code":"VEN-41","iso_3166_2":"VE-D","name":"Aragua","admin":"Venezuela","adm0_a3":"VEN","type_en":"State"}},{"type":"Polygon","arcs":[[-50,52,53,54,55]],"id":"VEN-42","properties":{"adm1_code":"VEN-42","iso_3166_2":"VE-X","name":"Vargas","admin":"Venezuela","adm0_a3":"VEN","type_en":"State"}},{"type":"Polygon","arcs":[[-51,-56,56,-54,57,58,59]],"id":"VEN-47","properties":{"adm1_code":"VEN-47","iso_3166_2":"VE-M","name":"Miranda","admin":"Venezuela","adm0_a3":"VEN","type_en":"State"}},{"type":"Polygon","arcs":[[-13,60,-59,61,62,63]],"id":"VEN-40","properties":{"adm1_code":"VEN-40","iso_3166_2":"VE-B","name":"Anzoátegui","admin":"Venezuela","adm0_a3":"VEN","type_en":"State"}},{"type":"MultiPolygon","arcs":[[[-63,64,65]],[[66]]],"id":"VEN-49","properties":{"adm1_code":"VEN-49","iso_3166_2":"VE-R","name":"Sucre","admin":"Venezuela","adm0_a3":"VEN","type_en":"State"}},{"type":"Polygon","arcs":[[-2,-14,-64,-66,67]],"id":"VEN-46","properties":{"adm1_code":"VEN-46","iso_3166_2":"VE-N","name":"Monagas","admin":"Venezuela","adm0_a3":"VEN","type_en":"State"}},{"type":"Polygon","arcs":[[68]],"id":"VEN-48","properties":{"adm1_code":"VEN-48","iso_3166_2":"VE-O","name":"Nueva Esparta","admin":"Venezuela","adm0_a3":"VEN","type_en":"State"}},{"type":"Polygon","arcs":[[69]],"id":"VEN-44","properties":{"adm1_code":"VEN-44","iso_3166_2":"VE-W","name":"Dependencias Federales","admin":"Venezuela","adm0_a3":"VEN","type_en":"Federal Dependency"}},{"type":"Polygon","arcs":[[70]],"id":"VEN+99?","properties":{"adm1_code":"VEN+99?","iso_3166_2":"VE-X01~","name":null,"admin":"Venezuela","adm0_a3":"VEN","type_en":null}},{"type":"Polygon","arcs":[[-12,-30,71,72,-47,-52,-60,-61]],"id":"VEN-45","properties":{"adm1_code":"VEN-45","iso_3166_2":"VE-J","name":"Guárico","admin":"Venezuela","adm0_a3":"VEN","type_en":"State"}},{"type":"Polygon","arcs":[[-43,-48,-73,73,74,75]],"id":"VEN-32","properties":{"adm1_code":"VEN-32","iso_3166_2":"VE-H","name":"Cojedes","admin":"Venezuela","adm0_a3":"VEN","type_en":"State"}},{"type":"Polygon","arcs":[[-55,-57]],"id":"VEN-43","properties":{"adm1_code":"VEN-43","iso_3166_2":"VE-A","name":"Distrito Capital","admin":"Venezuela","adm0_a3":"VEN","type_en":"Capital District"}},{"type":"Polygon","arcs":[[-25,-33,-36,76,-74,-72,-29]],"id":"VEN-26","properties":{"adm1_code":"VEN-26","iso_3166_2":"VE-E","name":"Barinas","admin":"Venezuela","adm0_a3":"VEN","type_en":"State"}},{"type":"Polygon","arcs":[[-22,-40,-44,-76,77,-34]],"id":"VEN-34","properties":{"adm1_code":"VEN-34","iso_3166_2":"VE-K","name":"Lara","admin":"Venezuela","adm0_a3":"VEN","type_en":"State"}},{"type":"Polygon","arcs":[[-35,-78,-75,-77]],"id":"VEN-35","properties":{"adm1_code":"VEN-35","iso_3166_2":"VE-P","name":"Portuguesa","admin":"Venezuela","adm0_a3":"VEN","type_en":"State"}}]}},"arcs":[[[96650,48277],[-1990,-22],[-459,-186],[-1435,-875],[-1052,1083],[-632,131],[-1607,-678],[-574,-120],[-536,383],[-1588,1596],[-230,449],[38,678],[-4515,175],[-479,109],[-2105,777]],[[79486,51777],[517,437],[670,0],[937,536],[517,33],[383,514],[727,328],[555,864],[-517,591],[230,667],[-727,350],[-383,-175],[-746,831],[-115,1072],[-498,394],[-402,831],[862,1181]],[[81496,60231],[248,88],[345,733],[-96,634],[440,536],[1263,-416],[1110,-886],[631,55],[1455,-328],[76,601],[785,-470],[268,110],[746,-711],[1531,-919],[574,55],[612,-525],[784,-307],[594,-776],[-287,-438],[-708,-229],[-479,-482],[-172,-787],[-689,-580],[-191,-973],[-402,-525],[-210,-842],[-498,-132],[-536,143],[-1282,-88],[172,-416],[479,-371],[631,0],[479,-547],[765,645],[1378,120],[57,394],[2162,230],[632,-361],[1071,-110],[651,668],[1282,-77],[1320,-437],[1512,-1794],[-249,-394],[-1071,-394],[-192,-721],[-803,-208],[-1034,-722]],[[91140,52860],[-192,-613],[-1684,-22],[326,372],[574,-175],[363,383],[613,55]],[[91848,55638],[516,-383],[-612,-580],[-612,-22],[708,985]],[[88384,52663],[555,-66],[96,-372],[-976,0],[325,438]],[[93149,53581],[937,-546],[-1416,-22],[479,568]],[[91618,54303],[670,285],[899,-22],[383,-514],[-613,-317],[-574,-689],[-1818,-33],[-612,-197],[77,634],[784,656],[804,197]],[[64370,23603],[134,535],[-230,1685],[-306,306],[-1760,241],[-1072,1159],[-727,1334],[-268,963],[-498,689],[230,251],[899,164],[58,493],[-345,240],[307,613],[-881,776],[-95,963],[-1512,-44],[-497,-470],[-517,120],[-230,919],[440,1509],[-401,438],[-1091,-66],[-325,-175],[-1225,-2089],[-919,-77],[-765,-350],[-402,329],[-153,667],[-363,273],[-1397,-1126],[-1187,-361],[-899,-33],[-1186,-481],[-421,65],[-421,580],[-785,-33],[-19,459],[383,843],[38,426],[-325,908],[-1531,98],[-440,449]],[[43666,36793],[38,33]],[[43704,36826],[957,492],[344,634],[766,416],[497,1804],[402,361],[-96,635],[192,415],[-402,1007],[708,612],[459,88],[1014,590],[1455,536],[1148,1597],[822,459]],[[51970,46472],[842,-54],[632,284],[1397,-33],[784,525],[651,645],[727,296],[765,0],[517,-219],[861,22]],[[59146,47938],[364,44],[1492,-274],[804,-426],[1014,-744],[287,55],[1473,710],[708,0],[306,460],[-478,350],[172,667],[1263,87],[498,482],[382,-66],[689,-645],[1321,-11],[612,361],[268,547],[1167,317],[1397,-77],[574,449],[612,0],[440,383],[727,284],[1455,-33],[708,-230],[899,700],[536,44]],[[78836,51372],[650,405]],[[96650,48277],[-784,-645],[-938,-22],[-593,-558],[-134,-678],[-957,-722],[957,-1302],[-306,-721],[708,-635],[536,416],[918,-241],[421,-317],[-153,-427],[-804,-656],[-937,-525],[-517,-109],[-746,-580],[-536,230],[-1033,-405],[-1454,-109],[-555,-799],[497,-1137],[-172,-547],[364,-591],[-58,-448],[-1091,-525],[-822,-1345],[4726,-4670],[555,-208],[478,-1160],[-95,-634],[-498,-547],[-631,-426],[-1015,-361],[-344,-842],[-459,-361],[-1033,-175],[-1072,207],[-268,-667],[-918,-33],[-440,-295],[-173,-744],[-727,-131],[-593,77],[-823,-514],[-727,-197],[-765,87],[-574,-372],[-594,-65],[-1416,525],[-574,11],[-555,-328],[-172,-580],[-803,33],[-708,-153],[-173,-810],[287,-765],[0,-821],[-344,-415],[-689,-241],[-784,252],[-995,1083],[-460,295],[-669,755],[-1034,317],[-325,-667],[-306,-88],[-823,536],[-918,-33],[-938,131],[-899,-459],[-498,208],[-459,1170],[-842,361],[-918,66],[-1665,-219],[-421,591]],[[64370,23603],[-383,371],[-670,132],[-76,-635],[536,-317],[478,-951],[976,-952],[708,-503],[823,-361],[880,-864],[38,-525],[-344,-634],[210,-1116],[-38,-853],[861,-1170],[785,-1608],[-364,-1553],[1607,-285],[938,55],[2354,-109],[172,-142],[-192,-1083],[-191,-580],[-1512,-317],[-1071,-766],[-1722,-186],[-421,-426],[-211,-1641],[-344,-459],[-1282,-875],[-364,-536],[-325,175],[230,700],[-326,66],[-1052,-580],[-383,-591],[-938,-558],[-803,154],[-861,-427],[-479,-437],[-842,-88],[-325,-1137],[-172,-219],[-919,-88],[-459,-492],[-459,-973],[-804,-219],[-191,547],[517,820],[-479,766],[-1205,-22],[-938,-438],[-746,-678],[-1340,-492],[-535,208],[-861,-33],[-460,284],[-3444,2800],[-57,689],[-364,657],[-19,514],[-325,645],[-19,438],[-632,1520],[-497,722],[95,776],[-363,142],[-345,952],[326,350],[-173,437],[-956,482],[-1168,1246],[-669,186],[-383,821],[-919,186],[-535,-99],[-96,394],[2832,2373],[421,153],[631,777],[39,284],[-727,525],[-498,1160],[-478,372],[-708,175],[-460,1104],[-172,744],[-497,886],[-134,634],[153,470],[-345,1007],[-267,142],[382,2176],[-95,208],[248,1280],[-229,306],[76,514],[-210,733],[249,536],[1186,700],[249,470],[-249,678],[57,591],[287,503],[861,820],[364,164],[57,460],[-478,503],[268,525]],[[15920,56688],[536,-394],[-19,-624],[-555,99],[-2851,-1838],[-459,-350],[-345,-645],[-650,-11],[-287,339],[-708,-393]],[[10582,52871],[-766,-854],[-1416,-361],[-134,711],[-650,-295],[-517,-722]],[[7099,51350],[-287,142],[-1626,1641],[-785,2712],[-325,547],[-804,-284],[-325,339],[-230,962],[-1224,-689],[-1378,-175],[-115,329],[498,415],[248,569],[727,1072],[402,251],[1091,1838],[-77,1072],[383,1170],[153,1684],[536,875],[651,755],[344,908],[957,973],[708,1170],[1645,230],[1837,3041],[268,240],[3846,886],[900,372],[-364,-613],[-957,-328],[-1224,-164],[-2105,-623],[-77,-525],[230,-875],[593,-1083],[651,-733],[861,-437],[-861,-175],[401,-383],[154,-798],[325,-438],[555,-328],[-268,-558],[-134,-1225],[-1110,-743],[-861,-1346],[-631,-339],[-460,-1050],[-593,-689],[268,-481],[670,-656],[229,-1039],[1742,-952],[-211,-1564],[536,-394],[1263,-76],[1779,569],[402,339]],[[17087,59553],[134,952],[-210,645],[-670,755],[-325,65],[-459,1138],[-708,448],[-804,1345],[57,536],[-440,274],[-38,1389],[632,284],[172,711],[-268,481],[1301,110]],[[15461,68686],[191,-438],[1244,-1061],[38,-853],[440,-733],[881,-557],[918,65],[306,-722],[574,-262]],[[20053,64125],[-382,-744],[-1014,-623],[-39,-372],[345,-394],[1071,-536]],[[20034,61456],[153,-743],[-1607,-1280],[-1493,120]],[[10582,52871],[880,-143],[344,-875],[-382,-426],[133,-372],[-554,-711],[-39,-405],[708,-131],[555,-645],[976,22],[593,-350],[19,-1160],[-191,-514],[344,-459]],[[13968,46702],[-57,-361],[842,-700],[-38,-230],[-2105,383],[-1301,-109],[19,-241]],[[11328,45444],[-249,-481],[-670,-317],[-746,0],[-880,503],[-976,-11],[-555,-274]],[[7252,44864],[-421,219],[-210,449],[134,415],[-153,525],[229,1225],[-268,766],[1129,1028],[-440,1017],[-153,842]],[[43704,36826],[-899,459],[-1167,241],[-804,32],[-612,-492],[-708,-153],[-938,88],[-1167,-318],[-1072,121],[-995,-164],[-363,-230],[-1436,350],[-478,-22],[-1225,219],[-1377,-908],[-479,438],[-880,-164],[-95,0],[-4803,5468],[-460,230],[-1186,-274],[-1052,471],[-440,43],[-421,471],[-919,87],[-1473,-240],[-440,-361],[-1627,-307],[-746,372],[-2736,230],[-881,-164],[-421,-284],[-975,131],[-211,44],[-651,360],[-535,843],[-77,896],[-306,361],[-1397,164]],[[11328,45444],[1492,-415],[1244,207],[1646,-54],[440,-339],[1244,-285],[535,-350],[670,-120],[440,164],[957,-186],[880,306],[651,602],[669,175],[498,930],[1225,262],[344,536],[555,295],[478,0],[517,328],[1052,274],[1168,700],[995,809],[822,-66],[862,88],[1167,-634],[631,131],[613,-591],[1148,33],[593,328],[1397,-120],[555,295],[956,-229],[1474,612],[746,33],[517,-186],[2047,-175],[459,-274]],[[43015,48528],[39,-273],[1492,-186],[804,-601],[650,-175],[613,164],[2143,-285],[1569,263],[1645,-602],[0,-361]],[[15920,56688],[498,678],[689,328]],[[17107,57694],[631,87],[402,-317],[478,-1159],[900,-503],[401,-449],[708,361],[345,-558]],[[20972,55156],[-325,-656],[-1397,-503],[-517,-372],[-536,-678],[-478,-295],[19,-339],[-765,-1007],[478,-1126],[-574,-930],[-1110,-886],[-1626,-1093],[-173,-569]],[[20034,61456],[0,350],[383,503],[325,-11],[268,-601],[555,-295],[383,164],[1358,-493],[364,-360],[612,-143],[459,-404],[-803,-569],[172,-711],[555,-580]],[[24665,58306],[-727,-1028],[536,-251],[-20,-624],[-382,-743],[-498,-154]],[[23574,55506],[-1818,88],[-784,-438]],[[17107,57694],[-230,1444],[210,415]],[[15461,68686],[1626,656],[1416,700],[1359,350],[1263,33],[1665,689],[803,131],[383,569],[670,-142],[-115,536],[784,-11],[957,-624],[498,361],[-326,1094],[-421,328],[-574,-241],[-842,-65],[-1071,-307],[-325,175],[191,700],[-670,919],[670,1597],[574,109],[804,471],[689,-263],[650,-962],[211,-1411],[784,-1750],[574,-481],[900,273],[918,-98],[785,284],[631,-142],[899,-405],[1474,-11],[1052,-601],[479,-99],[1262,-929],[498,-186],[1129,-1838],[-459,-361],[57,-689],[325,-733]],[[37638,66312],[-1817,22],[-842,635],[-1053,-22],[-803,-471]],[[33123,66476],[-288,252],[-1167,-109],[-2526,207],[-459,-109],[-363,306],[-938,153],[-918,-415],[-1321,-77],[-574,-306],[-823,44],[-650,-613],[-612,0],[-632,-503],[-574,-240],[-306,-558],[-919,-383]],[[37638,66312],[153,-262]],[[37791,66050],[-1014,-678],[-19,-897],[230,-645],[-421,-493],[38,-787],[325,-525]],[[36930,62025],[-861,-536],[-1358,394],[-976,-44],[-402,-722],[-880,33]],[[32453,61150],[382,481],[-401,525],[-1187,-426],[-38,459],[-593,634],[650,296],[154,328],[746,295],[-115,799],[-268,371],[268,755],[957,405],[115,404]],[[37791,66050],[919,-711],[899,0],[1014,-175]],[[40623,65164],[-38,-547],[402,-383],[1091,11],[76,-1936],[804,-251],[134,-285]],[[43092,61773],[-421,-568],[-670,-143],[-574,525],[-402,-43],[192,-602]],[[41217,60942],[-670,-54],[-1378,251],[-1110,711],[-268,383],[345,284],[-211,394],[-995,-886]],[[40623,65164],[670,230],[2851,306]],[[44144,65700],[364,-952],[899,121]],[[45407,64869],[249,-689],[574,-329],[-191,-678],[114,-339],[574,-382],[345,142],[478,-416],[785,22],[1550,-328]],[[49885,61872],[210,-941],[-287,-470],[77,-383],[497,-569],[-229,-645],[0,-689],[-766,-109],[-1492,437],[-881,0],[154,328],[688,252],[211,831],[-651,131],[-287,394],[-842,328],[-593,799],[-1186,43],[-632,405],[-784,-241]],[[44144,65700],[1627,87],[1167,372],[938,-11],[2525,153],[1684,-21]],[[52085,66280],[-306,-558],[-3827,11]],[[47952,65733],[-957,186],[-363,-646],[-727,-251]],[[45905,65022],[-498,-153]],[[45905,65022],[746,-306],[1129,142],[172,875]],[[52085,66280],[459,131],[938,-317],[38,-689],[1856,-1247],[2124,-831],[1129,-274]],[[58629,63053],[-172,-426],[-823,-493],[-995,-350]],[[56639,61784],[-765,-87],[-517,109],[-746,-186],[-1186,252],[-421,-120],[-1435,470],[-479,-252],[-1205,-98]],[[59146,47938],[-402,383],[-593,109],[77,536],[631,591],[210,481],[1187,1225],[402,1236],[-115,886],[210,328],[2029,11],[114,590],[421,328],[-708,689],[-344,121],[-230,656],[-899,514],[-574,11],[-727,744],[-38,689],[478,383],[-115,371],[-1244,427],[-325,525],[-421,-536],[-1512,733],[211,623],[-230,383],[0,809]],[[58629,63053],[1895,-306],[631,-339],[880,339],[1110,-88],[479,143],[229,437],[632,503],[708,33]],[[65193,63775],[593,-350],[153,-361],[650,-339],[728,-153],[688,55],[804,317],[708,-296]],[[69517,62648],[-823,-251],[134,-700],[861,-438],[-287,-700],[173,-448],[707,-1006],[-899,-886],[-38,-613],[478,-765],[995,175],[1072,-482],[1129,-864],[421,-164],[574,-1323],[516,-230],[2163,132],[-593,-602],[114,-722],[383,-284],[1818,-525],[421,-580]],[[65193,63775],[497,-33],[957,777],[0,175],[1435,590],[861,-229],[612,98],[919,-87],[1014,218],[-1206,503],[-899,175],[-1378,-65],[-688,-339],[-364,656],[172,208],[1053,-208],[440,186],[1148,-110],[1167,230],[1665,-230],[478,241],[1665,120],[517,307],[401,-153],[747,87],[822,-131],[1359,383],[4171,-493],[1263,329],[153,-547],[-937,-143],[-1110,44],[-708,-711],[-2411,241],[-1435,-241],[191,-820],[689,-197],[459,-558],[0,-536],[364,-546],[-230,-329],[-995,-10],[-268,-230],[-478,339],[-880,11]],[[76425,62747],[-383,590],[-383,132],[-459,-230],[-1416,459],[-784,471],[-574,-547],[-1359,-186],[-459,-492],[-1091,-296]],[[78989,64530],[-345,32],[-593,514],[115,296],[823,-842]],[[76425,62747],[631,-339],[536,54],[574,-240],[1167,481],[-57,700],[172,230],[632,-317],[803,-1729],[651,-1028],[-38,-328]],[[70282,69637],[383,-886],[-765,-776],[-1072,-110],[-976,657],[-363,-186],[-1359,186],[287,634],[1263,164],[134,-350],[976,-295],[459,787],[670,394],[363,-219]],[[60103,68434],[-134,-459],[-1225,262],[766,350],[593,-153]],[[71794,99955],[0,44],[38,-22],[-38,-22]],[[43015,48528],[-268,711],[-306,208],[-402,744],[-708,230],[-1951,1957]],[[39380,52378],[287,733],[-96,678],[364,1094],[440,350],[363,787],[-134,646],[-497,809],[172,963],[-306,689],[421,514],[612,87],[440,438],[-229,776]],[[39380,52378],[-804,449],[-2047,-11],[-1110,208]],[[35419,53024],[-804,568],[-96,274],[785,711],[-440,579],[325,1477],[-38,437],[-1550,1171],[-383,131],[-746,1794],[-38,481]],[[32434,60647],[19,503]],[[23574,55506],[1301,-1071],[1359,-635],[842,-186],[536,328],[1224,-689],[1340,-207],[803,-919],[364,-995],[1033,-733],[287,-361],[785,-492],[440,1465],[765,405],[555,711],[211,897]],[[32434,60647],[-651,-481],[-1071,-132],[-919,525],[-306,-732],[-383,-186],[-1186,-88],[-249,-328],[-19,-941],[-574,-207],[-1072,109],[-57,328],[497,514],[-363,197],[-746,-22],[-670,-897]]],"bbox":[-73.37899510457747,0.6565322132011318,-59.8148535338606,15.703416612600208],"transform":{"scale":[0.00013564277213489004,0.00015047034869747773],"translate":[-73.37899510457747,0.6565322132011318]}}