{"type":"Topology","objects":{"a1":{"type":"GeometryCollection","geometries":[{"type":"Polygon","arcs":[[0,1,2,3]],"id":"VNM-486","properties":{"adm1_code":"VNM-486","iso_3166_2":"VN-28","name":"Kon Tum","admin":"Vietnam","adm0_a3":"VNM","type_en":"Province"}},{"type":"Polygon","arcs":[[4,5,6,7]],"id":"VNM-4835","properties":{"adm1_code":"VNM-4835","iso_3166_2":"VN-72","name":"Đắk Nông","admin":"Vietnam","adm0_a3":"VNM","type_en":"Region"}},{"type":"Polygon","arcs":[[-5,8,9,10,11,12]],"id":"VNM-477","properties":{"adm1_code":"VNM-477","iso_3166_2":"VN-33","name":"Đắk Lắk","admin":"Vietnam","adm0_a3":"VNM","type_en":"Region"}},{"type":"Polygon","arcs":[[-3,13,14,15,-10,16]],"id":"VNM-478","properties":{"adm1_code":"VNM-478","iso_3166_2":"VN-30","name":"Gia Lai","admin":"Vietnam","adm0_a3":"VNM","type_en":"Region"}},{"type":"Polygon","arcs":[[-7,17,18,19,20,21]],"id":"VNM-484","properties":{"adm1_code":"VNM-484","iso_3166_2":"VN-58","name":"Bình Phước","admin":"Vietnam","adm0_a3":"VNM","type_en":"Province"}},{"type":"Polygon","arcs":[[-21,22,23,24,25]],"id":"VNM-444","properties":{"adm1_code":"VNM-444","iso_3166_2":"VN-37","name":"Tây Ninh","admin":"Vietnam","adm0_a3":"VNM","type_en":"Province"}},{"type":"Polygon","arcs":[[-25,26,27,28,29,30]],"id":"VNM-503","properties":{"adm1_code":"VNM-503","iso_3166_2":"VN-41","name":"Long An","admin":"Vietnam","adm0_a3":"VNM","type_en":"Province"}},{"type":"Polygon","arcs":[[31,-30,32,33,34]],"id":"VNM-500","properties":{"adm1_code":"VNM-500","iso_3166_2":"VN-45","name":"Ðong Tháp","admin":"Vietnam","adm0_a3":"VNM","type_en":"Province"}},{"type":"Polygon","arcs":[[-35,35,36,37]],"id":"VNM-498","properties":{"adm1_code":"VNM-498","iso_3166_2":"VN-44","name":"An Giang","admin":"Vietnam","adm0_a3":"VNM","type_en":"Province"}},{"type":"MultiPolygon","arcs":[[[-37,38,39,40,41,42]],[[43]]],"id":"VNM-502","properties":{"adm1_code":"VNM-502","iso_3166_2":"VN-47","name":"Kiên Giang","admin":"Vietnam","adm0_a3":"VNM","type_en":"Province"}},{"type":"Polygon","arcs":[[44,45,46]],"id":"VNM-450","properties":{"adm1_code":"VNM-450","iso_3166_2":"VN-71","name":"Điện Biên","admin":"Vietnam","adm0_a3":"VNM","type_en":"Province"}},{"type":"Polygon","arcs":[[-46,47,48,49,50,51,52,53]],"id":"VNM-455","properties":{"adm1_code":"VNM-455","iso_3166_2":"VN-05","name":"Son La","admin":"Vietnam","adm0_a3":"VNM","type_en":"Region"}},{"type":"Polygon","arcs":[[54,-53,55,56,57,58]],"id":"VNM-456","properties":{"adm1_code":"VNM-456","iso_3166_2":"VN-21","name":"Thanh Hóa","admin":"Vietnam","adm0_a3":"VNM","type_en":"Province"}},{"type":"Polygon","arcs":[[59,-59,60,61]],"id":"VNM-475","properties":{"adm1_code":"VNM-475","iso_3166_2":"VN-22","name":"Nghệ An","admin":"Vietnam","adm0_a3":"VNM","type_en":"Province"}},{"type":"Polygon","arcs":[[-62,62,63,64]],"id":"VNM-474","properties":{"adm1_code":"VNM-474","iso_3166_2":"VN-23","name":"Ha Tinh","admin":"Vietnam","adm0_a3":"VNM","type_en":"Region"}},{"type":"Polygon","arcs":[[-64,65,66,67]],"id":"VNM-476","properties":{"adm1_code":"VNM-476","iso_3166_2":"VN-24","name":"Quảng Bình","admin":"Vietnam","adm0_a3":"VNM","type_en":"Province"}},{"type":"Polygon","arcs":[[-67,68,69,70]],"id":"VNM-489","properties":{"adm1_code":"VNM-489","iso_3166_2":"VN-25","name":"Quảng Trị","admin":"Vietnam","adm0_a3":"VNM","type_en":"Province"}},{"type":"Polygon","arcs":[[-70,71,72,73,74]],"id":"VNM-490","properties":{"adm1_code":"VNM-490","iso_3166_2":"VN-26","name":"Thừa Thiên - Huế","admin":"Vietnam","adm0_a3":"VNM","type_en":"Province"}},{"type":"Polygon","arcs":[[-1,75,-74,76,77,78]],"id":"VNM-487","properties":{"adm1_code":"VNM-487","iso_3166_2":"VN-27","name":"Quàng Nam","admin":"Vietnam","adm0_a3":"VNM","type_en":"Province"}},{"type":"Polygon","arcs":[[79,80,81,82,83]],"id":"VNM-512","properties":{"adm1_code":"VNM-512","iso_3166_2":"VN-03","name":"Hà Giang","admin":"Vietnam","adm0_a3":"VNM","type_en":"Province"}},{"type":"Polygon","arcs":[[-81,84,85,86]],"id":"VNM-511","properties":{"adm1_code":"VNM-511","iso_3166_2":"VN-04","name":"Cao Bằng","admin":"Vietnam","adm0_a3":"VNM","type_en":"Province"}},{"type":"Polygon","arcs":[[87,-84,88,-49,89]],"id":"VNM-5483","properties":{"adm1_code":"VNM-5483","iso_3166_2":"VN-02","name":"Lào Cai","admin":"Vietnam","adm0_a3":"VNM","type_en":"Province"}},{"type":"Polygon","arcs":[[90,-90,-48,-45]],"id":"VNM-453","properties":{"adm1_code":"VNM-453","iso_3166_2":"VN-01","name":"Lai Chau","admin":"Vietnam","adm0_a3":"VNM","type_en":"Province"}},{"type":"Polygon","arcs":[[91,92,93,94,95,-86]],"id":"VNM-454","properties":{"adm1_code":"VNM-454","iso_3166_2":"VN-09","name":"Lạng Sơn","admin":"Vietnam","adm0_a3":"VNM","type_en":"Province"}},{"type":"MultiPolygon","arcs":[[[96,97,98,99,-93]],[[100]],[[101]]],"id":"VNM-429","properties":{"adm1_code":"VNM-429","iso_3166_2":"VN-13","name":"Quảng Ninh","admin":"Vietnam","adm0_a3":"VNM","type_en":"Province"}},{"type":"Polygon","arcs":[[102,103,104]],"id":"VNM-508","properties":{"adm1_code":"VNM-508","iso_3166_2":"VN-52","name":"Sóc Trăng","admin":"Vietnam","adm0_a3":"VNM","type_en":"Province"}},{"type":"Polygon","arcs":[[-29,105,106,107,-33]],"id":"VNM-4834","properties":{"adm1_code":"VNM-4834","iso_3166_2":"VN-46","name":"Tiền Giang","admin":"Vietnam","adm0_a3":"VNM","type_en":"Province"}},{"type":"MultiPolygon","arcs":[[[108]],[[109,110,111]]],"id":"VNM-495","properties":{"adm1_code":"VNM-495","iso_3166_2":"VN-43","name":"Bà Rịa - Vũng Tàu","admin":"Vietnam","adm0_a3":"VNM","type_en":"Province"}},{"type":"MultiPolygon","arcs":[[[-24,112,113,114,-27]],[[115]]],"id":"VNM-501","properties":{"adm1_code":"VNM-501","iso_3166_2":"VN-SG","name":"Hồ Chí Minh city","admin":"Vietnam","adm0_a3":"VNM","type_en":"City|Municipality|Thanh Pho"}},{"type":"Polygon","arcs":[[-12,116,117,118,119]],"id":"VNM-479","properties":{"adm1_code":"VNM-479","iso_3166_2":"VN-34","name":"Khánh Hòa","admin":"Vietnam","adm0_a3":"VNM","type_en":"Province"}},{"type":"Polygon","arcs":[[-42,120,121]],"id":"VNM-507","properties":{"adm1_code":"VNM-507","iso_3166_2":"VN-59","name":"Cà Mau","admin":"Vietnam","adm0_a3":"VNM","type_en":"Province"}},{"type":"Polygon","arcs":[[-41,122,-104,123,-121]],"id":"VNM-506","properties":{"adm1_code":"VNM-506","iso_3166_2":"VN-55","name":"Bạc Liêu","admin":"Vietnam","adm0_a3":"VNM","type_en":"Province"}},{"type":"Polygon","arcs":[[-40,124,125,126,-105,-123]],"id":"VNM-505","properties":{"adm1_code":"VNM-505","iso_3166_2":"VN-73","name":"Hau Giang","admin":"Vietnam","adm0_a3":"VNM","type_en":"Region"}},{"type":"Polygon","arcs":[[-108,127,128,129,130,-126,131]],"id":"VNM-510","properties":{"adm1_code":"VNM-510","iso_3166_2":"VN-49","name":"Vĩnh Long","admin":"Vietnam","adm0_a3":"VNM","type_en":"Province"}},{"type":"Polygon","arcs":[[-130,132]],"id":"VNM-509","properties":{"adm1_code":"VNM-509","iso_3166_2":"VN-51","name":"Trà Vinh","admin":"Vietnam","adm0_a3":"VNM","type_en":"Province"}},{"type":"Polygon","arcs":[[-107,133,-128]],"id":"VNM-504","properties":{"adm1_code":"VNM-504","iso_3166_2":"VN-50","name":"Bến Tre","admin":"Vietnam","adm0_a3":"VNM","type_en":"Province"}},{"type":"Polygon","arcs":[[-19,134,135,-110,136,-114,137]],"id":"VNM-497","properties":{"adm1_code":"VNM-497","iso_3166_2":"VN-39","name":"Đông Nam Bộ","admin":"Vietnam","adm0_a3":"VNM","type_en":"Region"}},{"type":"Polygon","arcs":[[-111,-136,138,139,140]],"id":"VNM-496","properties":{"adm1_code":"VNM-496","iso_3166_2":"VN-40","name":"Bình Thuận","admin":"Vietnam","adm0_a3":"VNM","type_en":"Province"}},{"type":"Polygon","arcs":[[-119,141,-140,142]],"id":"VNM-481","properties":{"adm1_code":"VNM-481","iso_3166_2":"VN-36","name":"Ninh Thuận","admin":"Vietnam","adm0_a3":"VNM","type_en":"Province"}},{"type":"Polygon","arcs":[[-11,-16,143,144,-117]],"id":"VNM-482","properties":{"adm1_code":"VNM-482","iso_3166_2":"VN-32","name":"Phú Yên","admin":"Vietnam","adm0_a3":"VNM","type_en":"Province"}},{"type":"Polygon","arcs":[[-15,145,146,-144]],"id":"VNM-485","properties":{"adm1_code":"VNM-485","iso_3166_2":"VN-31","name":"Bình Định","admin":"Vietnam","adm0_a3":"VNM","type_en":"Province"}},{"type":"Polygon","arcs":[[-2,-79,147,-146,-14]],"id":"VNM-488","properties":{"adm1_code":"VNM-488","iso_3166_2":"VN-29","name":"Quảng Ngãi","admin":"Vietnam","adm0_a3":"VNM","type_en":"Province"}},{"type":"Polygon","arcs":[[-73,148,-77]],"id":"VNM-491","properties":{"adm1_code":"VNM-491","iso_3166_2":"VN-DN","name":"Đà Nẵng","admin":"Vietnam","adm0_a3":"VNM","type_en":"City|Municipality|Thanh Pho"}},{"type":"Polygon","arcs":[[-57,149,150,151,152]],"id":"VNM-466","properties":{"adm1_code":"VNM-466","iso_3166_2":"VN-18","name":"Ninh Bình","admin":"Vietnam","adm0_a3":"VNM","type_en":"Province"}},{"type":"Polygon","arcs":[[-152,153,154,155]],"id":"VNM-468","properties":{"adm1_code":"VNM-468","iso_3166_2":"VN-67","name":"Nam Định","admin":"Vietnam","adm0_a3":"VNM","type_en":"Province"}},{"type":"Polygon","arcs":[[-155,156,157,158,159,160]],"id":"VNM-471","properties":{"adm1_code":"VNM-471","iso_3166_2":"VN-20","name":"Thái Bình","admin":"Vietnam","adm0_a3":"VNM","type_en":"Province"}},{"type":"Polygon","arcs":[[-98,161,-160,162]],"id":"VNM-4600","properties":{"adm1_code":"VNM-4600","iso_3166_2":"VN-HP","name":"Hải Phòng","admin":"Vietnam","adm0_a3":"VNM","type_en":"Province"}},{"type":"Polygon","arcs":[[-52,163,164,165,-150,-56]],"id":"VNM-459","properties":{"adm1_code":"VNM-459","iso_3166_2":"VN-14","name":"Hòa Bình","admin":"Vietnam","adm0_a3":"VNM","type_en":"Province"}},{"type":"Polygon","arcs":[[-82,166,167,168,169,170]],"id":"VNM-457","properties":{"adm1_code":"VNM-457","iso_3166_2":"VN-07","name":"Tuyên Quang","admin":"Vietnam","adm0_a3":"VNM","type_en":"Province"}},{"type":"Polygon","arcs":[[-50,-89,-83,-171,171]],"id":"VNM-458","properties":{"adm1_code":"VNM-458","iso_3166_2":"VN-06","name":"Yên Bái","admin":"Vietnam","adm0_a3":"VNM","type_en":"Province"}},{"type":"Polygon","arcs":[[-169,172,173,174]],"id":"VNM-464","properties":{"adm1_code":"VNM-464","iso_3166_2":"VN-70","name":"Vĩnh Phúc","admin":"Vietnam","adm0_a3":"VNM","type_en":"Province"}},{"type":"Polygon","arcs":[[-51,-172,-170,-175,175,-164]],"id":"VNM-469","properties":{"adm1_code":"VNM-469","iso_3166_2":"VN-68","name":"Phú Thọ","admin":"Vietnam","adm0_a3":"VNM","type_en":"Province"}},{"type":"Polygon","arcs":[[-165,-176,-174,176,177,178,179,180]],"id":"VNM-462","properties":{"adm1_code":"VNM-462","iso_3166_2":"VN-HN","name":"Ha Noi","admin":"Vietnam","adm0_a3":"VNM","type_en":"Province"}},{"type":"Polygon","arcs":[[-87,-96,181,-167]],"id":"VNM-451","properties":{"adm1_code":"VNM-451","iso_3166_2":"VN-53","name":"Đông Bắc","admin":"Vietnam","adm0_a3":"VNM","type_en":"Region"}},{"type":"Polygon","arcs":[[-158,182,-180,183,184]],"id":"VNM-461","properties":{"adm1_code":"VNM-461","iso_3166_2":"VN-66","name":"Đồng Bằng Sông Hồng","admin":"Vietnam","adm0_a3":"VNM","type_en":"Region"}},{"type":"Polygon","arcs":[[-179,185,186,-184]],"id":"VNM-463","properties":{"adm1_code":"VNM-463","iso_3166_2":"VN-56","name":"Bắc Ninh","admin":"Vietnam","adm0_a3":"VNM","type_en":"Province"}},{"type":"Polygon","arcs":[[-94,-100,187,-186,-178,188]],"id":"VNM-470","properties":{"adm1_code":"VNM-470","iso_3166_2":"VN-54","name":"Bắc Giang","admin":"Vietnam","adm0_a3":"VNM","type_en":"Province"}},{"type":"Polygon","arcs":[[-95,-189,-177,-173,-168,-182]],"id":"VNM-452","properties":{"adm1_code":"VNM-452","iso_3166_2":"VN-69","name":"Thái Nguyên","admin":"Vietnam","adm0_a3":"VNM","type_en":"Province"}},{"type":"Polygon","arcs":[[-99,-163,-159,-185,-187,-188]],"id":"VNM-460","properties":{"adm1_code":"VNM-460","iso_3166_2":"VN-61","name":"Hải Dương","admin":"Vietnam","adm0_a3":"VNM","type_en":"Province"}},{"type":"Polygon","arcs":[[-151,-166,-181,-183,-157,-154]],"id":"VNM-467","properties":{"adm1_code":"VNM-467","iso_3166_2":"VN-63","name":"Hà Nam","admin":"Vietnam","adm0_a3":"VNM","type_en":"Province"}},{"type":"Polygon","arcs":[[-20,-138,-113,-23]],"id":"VNM-483","properties":{"adm1_code":"VNM-483","iso_3166_2":"VN-57","name":"Bình Dương","admin":"Vietnam","adm0_a3":"VNM","type_en":"Province"}},{"type":"Polygon","arcs":[[-6,-13,-120,-143,-139,-135,-18]],"id":"VNM-480","properties":{"adm1_code":"VNM-480","iso_3166_2":"VN-35","name":"Lâm Đồng","admin":"Vietnam","adm0_a3":"VNM","type_en":"Province"}},{"type":"Polygon","arcs":[[-34,-132,-125,-39,-36]],"id":"VNM-499","properties":{"adm1_code":"VNM-499","iso_3166_2":"VN-CT","name":"Can Tho","admin":"Vietnam","adm0_a3":"VNM","type_en":"Province"}}]}},"arcs":[[[74310,46335],[990,-22],[1095,-669],[636,-34],[1166,-502],[1484,-33],[1237,-469],[177,-736],[848,-558],[706,212],[71,469],[1378,-56]],[[84098,43937],[1308,-569],[989,-725],[1131,-212],[954,-1260]],[[88480,41171],[-1696,-212],[-919,123],[-212,-748],[-1025,-580],[-2473,-691],[-4983,-770],[-1766,-524],[-672,-603],[-2226,-870]],[[72508,36296],[-212,435],[-1166,235],[-318,680],[530,803],[-141,558],[530,680],[918,90],[672,725],[212,1104],[-389,680],[848,480],[-1272,546],[-212,469],[777,123],[1025,22],[106,390],[990,692],[0,513],[-813,323],[-283,491]],[[73816,28131],[4098,34],[424,-870],[672,-424],[1131,-290],[-1025,-524],[671,-703],[672,-56],[1342,-658],[-141,-335]],[[81660,24305],[-1625,-178],[-177,-390],[1413,-871],[-388,-803],[-848,-345],[-1131,156],[-566,479],[-1201,-100],[-1131,390],[-1872,-814],[-1661,-290],[-707,56]],[[71766,21595],[71,379],[-495,747],[-1166,525],[-353,468],[-283,1662]],[[69540,25376],[1272,134],[1307,-513],[1343,613],[566,870],[106,904],[-318,747]],[[73816,28131],[-71,569],[-566,391],[-459,1104],[1378,1640]],[[74098,31835],[1626,479],[3356,78],[1414,257],[1025,11],[3498,-602],[954,-636],[530,-870],[565,-279],[1979,-245]],[[89045,30028],[883,-681],[1273,-457],[2968,-513]],[[94169,28377],[-1767,-480],[-707,-1338],[-2438,-34],[71,-1193]],[[89328,25332],[-1272,-201],[-954,178],[-1237,-379],[-1237,-33],[-1343,-569],[-1625,-23]],[[88480,41171],[671,-301]],[[89151,40870],[283,-937],[-742,-1629],[353,-948],[813,-558],[-106,-446],[1307,-1238],[248,-1283]],[[91307,33831],[-71,-859],[742,-1483],[-1979,-714],[-954,-747]],[[74098,31835],[177,212],[495,725],[-177,903],[-1131,1071],[-989,613],[35,937]],[[71766,21595],[-1449,-658],[318,-603]],[[70635,20334],[-2756,-613],[-813,-825],[-1095,-480]],[[65971,18416],[-3321,424],[-990,-190],[-389,770],[-1342,368],[-778,457]],[[59151,20245],[106,681],[-494,167]],[[58763,21093],[-495,468],[530,792],[-565,692],[3286,-34],[883,67],[1202,659],[1696,-12],[848,212],[2367,1216],[1025,223]],[[59151,20245],[-1166,-781],[-459,-635],[35,-480],[1131,-1004]],[[58692,17345],[-919,-970]],[[57773,16375],[-2615,-78]],[[55158,16297],[-141,568],[-1307,268],[-1237,658],[-989,190],[-778,580],[389,736],[-247,904],[-813,245],[353,402],[1555,11],[1095,859],[1908,-157],[1803,-490],[2014,22]],[[57773,16375],[1555,-391],[636,-491],[-389,-780],[2050,-658],[883,78],[460,-670]],[[62968,13463],[-1449,-502],[-318,-278]],[[61201,12683],[-389,-157],[-1837,12],[-142,379],[-1166,234],[-1130,547],[-1449,33],[-919,-290],[-1837,33]],[[52332,13474],[-1308,369],[-2897,1338],[-1767,982]],[[46360,16163],[1272,134],[1837,312],[1485,-1205],[954,391],[1166,-514],[1872,-245],[-388,848],[600,413]],[[42084,15761],[1590,-290],[1131,781],[1555,-89]],[[52332,13474],[-212,-490],[-1484,-926],[141,-290]],[[50777,11768],[-2014,714],[-1590,267]],[[47173,12749],[-1096,614],[-1378,335],[-459,780],[-848,0],[-813,525],[-495,758]],[[47173,12749],[-672,-301],[-848,-859],[-1413,-278],[-495,256],[-1237,-491]],[[42508,11076],[-4805,1238],[-2226,937]],[[35477,13251],[1766,67],[1237,748],[1308,334],[318,380],[-672,691],[318,502],[2332,-212]],[[42508,11076],[2474,-1059]],[[44982,10017],[1307,-625],[-212,-792],[-1943,-1026],[424,-658]],[[44558,6916],[-1166,134],[35,-614],[-389,-747]],[[43038,5689],[-3498,836],[-2049,-145],[-530,190]],[[36961,6570],[318,1372],[494,770],[1025,11],[1449,613],[177,357],[-1166,647],[-1379,45],[-1307,736],[-1343,100],[-1236,-513],[-354,781],[-1873,1071],[566,56],[813,613],[2014,45],[318,-23]],[[26714,12236],[70,-836],[-1025,-1473],[-388,870],[-636,725],[-1060,369],[1024,312],[990,569],[1025,-536]],[[2791,94879],[2509,11],[1873,-881],[1767,-513],[954,-1049],[848,-22],[601,-446],[1201,78],[1343,-424],[1731,-22],[778,457],[1060,-89],[212,-379],[1802,-1316]],[[19470,90284],[282,-1439],[-106,-435],[-1731,-1127],[-777,-257],[989,-948],[-389,-714],[212,-591],[-1625,56],[-1025,-803],[-247,-926]],[[15053,83100],[-1060,134],[-1060,580],[-742,736],[-848,190],[-354,491],[-530,580],[106,1818],[1060,546],[-353,1093],[-1131,-211],[-1060,234],[-883,-536],[-954,-22],[-212,881],[-601,770],[-1555,379],[71,435],[-1272,647],[-2226,759],[-954,513],[-495,636],[1343,89],[459,569],[989,468]],[[19470,90284],[-177,524],[459,468]],[[19752,91276],[1061,-201],[848,-959],[1696,-870],[1236,-89]],[[24593,89157],[1237,-234],[2085,-179],[1873,346],[565,-268],[-530,-1193],[636,-536],[1837,-334],[1520,323],[1979,-201],[1095,-368]],[[36890,86513],[495,-546],[106,-681],[494,-323]],[[37985,84963],[-388,-536],[2685,-1695],[-1413,-290],[-1590,-11],[-212,-692]],[[37067,81739],[-884,-346],[-2226,458]],[[33957,81851],[-1661,401],[-530,424],[-848,45],[-1307,736],[-1378,346],[-1838,189],[-1448,-390],[-2403,-446],[-212,-580],[-1272,-614],[-1202,502],[-1095,101],[-954,490],[-530,-178],[-2226,223]],[[38480,77445],[142,680],[-637,558],[-1236,312],[-2191,-55],[318,870],[-1449,490],[-1943,-11],[-990,190],[1166,647],[1343,0],[954,725]],[[37067,81739],[1343,-234],[1731,-112],[954,112],[2332,-915],[1979,-479],[1201,-123]],[[46607,79988],[2898,-1160],[3109,-803],[884,-78],[-212,-480]],[[53286,77467],[-919,-413],[-565,-1137],[-778,-313],[-777,-825],[141,-424],[-530,-959],[354,-814]],[[50212,72582],[-1449,189],[-1555,580],[-707,446],[-1837,201],[-778,435],[-954,-189],[-141,680],[-989,457],[-742,837],[600,535],[-3180,692]],[[41519,68131],[-777,547],[-2368,223],[-883,312],[-2050,100],[-2438,770],[-848,491],[-1095,89],[-601,379],[-1307,379],[-1520,536],[-1519,323],[-884,-33],[-1590,625],[1166,435],[1343,212],[672,479],[-248,513],[-742,279],[2509,669],[1272,-301],[1166,212],[1732,-569],[1590,112],[424,535],[2049,636],[-353,792],[1272,502],[989,67]],[[50212,72582],[-849,-257],[-106,-870],[-1272,-290],[-424,-547],[495,-624],[1484,-815],[-106,-747]],[[49434,68432],[-1201,-625],[-2156,179],[-1236,-67],[-1873,268],[-1449,-56]],[[49434,68432],[1025,-468],[2049,-1294],[1661,-759],[2368,-591],[1802,-658],[1554,-1015]],[[59893,63647],[-2296,78],[-672,-368],[-2191,100],[-1095,234],[-989,659],[-1732,22],[-3498,-636]],[[47420,63736],[-1731,1071],[-318,446],[-1131,-290],[-1520,658],[-1378,491],[106,312],[-1130,603],[282,647],[919,457]],[[59893,63647],[-989,-569],[318,-848],[-1272,123],[71,-457],[1696,-101],[1766,-1439],[1767,-914],[3286,-1183]],[[66536,58259],[-1413,-412],[-1166,-826],[-919,-123],[-2191,79],[-742,-145]],[[60105,56832],[-1766,435],[-283,479],[-1060,614],[-636,769],[-990,-223],[-2261,937],[-2367,1372],[-1520,446],[-1908,1517],[106,558]],[[66536,58259],[1449,-502],[283,-524],[1131,-691],[2650,-1071]],[[72049,55471],[-990,-703],[-954,-312],[-2190,-324],[812,-546],[-1413,-870],[70,-357]],[[67384,52359],[-1378,55],[-1448,759],[35,625],[-565,189],[-954,-703],[-1308,290],[-212,792],[-1237,346],[-212,313],[0,1807]],[[72049,55471],[2615,-1049],[954,-669],[1166,-223],[706,-1015],[1166,-246],[672,536],[883,-257],[601,-557],[1979,-168]],[[82791,51823],[-919,-67],[-2438,90],[-1343,-870]],[[78091,50976],[-954,-112],[-848,-368],[-813,513],[-883,-245],[-2262,0]],[[72331,50764],[-1802,55],[-812,447],[-1414,368],[-919,725]],[[74310,46335],[-1131,123],[-636,591],[-1060,-78],[-742,625],[-918,290],[-460,658],[-742,212],[212,602],[813,45],[2120,546],[742,502],[-177,313]],[[78091,50976],[2050,0],[671,-737],[1731,134],[1378,-56]],[[83921,50317],[1803,-825],[530,-825],[2226,-1473],[141,-502],[1025,-67],[777,-323]],[[90423,46302],[-1307,-89],[-4488,-670],[-813,-725],[707,-624],[-424,-257]],[[30530,95749],[2615,971],[1484,-168],[883,190],[1343,781],[-389,892],[989,524],[1025,-22],[1555,491],[2155,223],[248,368],[1307,-11],[1343,-346],[1237,-703],[176,-435]],[[46501,98504],[-494,-513],[-884,-156],[-1767,-993],[2015,-535],[1590,-1238]],[[46961,95069],[-919,-78],[-2156,134],[-1978,323],[-1555,-1283],[-459,-691],[-1237,-23],[-389,-580],[-1131,-669]],[[37137,92202],[-1060,78],[-1095,569],[-813,-45]],[[34169,92804],[-459,502],[-1520,491],[-600,1004],[459,279],[-1519,669]],[[46501,98504],[424,-301],[1696,-78],[2227,-937],[1236,156],[742,324],[1060,33],[1696,-234],[425,-558],[1130,-67],[1944,235],[388,245],[2439,-390],[883,-458],[71,-703],[-778,-791],[-989,211],[-530,-245],[-460,-1160]],[[60105,93786],[-1095,-178],[-1131,78],[-1130,357],[-1273,-235]],[[55476,93808],[-777,168],[-742,758],[-2367,-424],[-1272,168],[-743,847],[212,513],[-706,123],[-1025,-312],[-1095,-580]],[[19470,95448],[565,814],[778,212],[2968,-1517],[1625,-334],[530,1305],[672,435],[1908,279],[494,-647],[1520,-246]],[[34169,92804],[212,-580],[-1060,-490],[-1272,290],[-1272,-290],[813,-759],[-601,-613],[-2226,423],[-353,-457],[-1873,190],[-1237,323],[-883,-781],[530,-412],[-354,-491]],[[19752,91276],[707,993],[1060,245],[990,491],[388,513],[-742,380],[-1272,-12],[-883,235],[176,859],[-706,468]],[[2791,94879],[813,435],[813,926],[1272,-469],[2120,-178],[2085,-569],[636,-669],[1307,-335],[2085,681],[0,468],[1520,480],[777,747],[1237,-346],[35,-323],[954,-658],[1025,379]],[[60105,93786],[283,-480],[848,-67],[636,-669],[-318,-223],[424,-669],[-318,-658],[1025,78],[1908,-257],[777,-346],[1378,-167],[-247,-558],[848,-100],[1449,-547],[1378,23],[813,-714]],[[70989,88432],[-1237,-390],[0,-804],[-389,-200],[-2014,-324]],[[67349,86714],[-954,580],[-1025,0],[-1484,1004],[-883,-301],[-1590,413],[-954,-157],[-1378,-1059],[-1449,-45],[-813,368],[-1731,268],[35,357]],[[55123,88142],[1166,848],[-1519,747],[-389,959]],[[54381,90696],[247,826],[813,290],[919,1015],[-884,981]],[[70989,88432],[1519,223],[212,-335],[2085,56],[1767,357],[1519,-390],[1838,-781],[-1485,334],[-1378,-211],[-424,-625],[-1342,-234],[-707,-525],[-1732,34],[-1095,-156],[-35,-647],[-742,-1216],[-1484,-56],[-848,-446],[-1308,223],[-1625,-67],[-1060,-491],[-1166,402],[494,301],[-1201,301],[-1096,-89]],[[61695,84394],[-636,56]],[[61059,84450],[-2190,256],[1413,882]],[[60282,85588],[3781,-212],[1873,245],[494,792],[919,301]],[[67526,82922],[-1025,-458],[-1272,580],[1519,302],[778,-424]],[[74346,85710],[-1485,-781],[-1342,-245],[636,926],[636,535],[1555,-435]],[[51519,9158],[2332,-1149],[247,-368],[1414,-1026],[-36,-1172],[-4452,-769]],[[51024,4674],[-883,914],[-1484,-44],[-1272,234],[-318,279],[-106,1026]],[[46961,7083],[1448,201],[1979,535],[1131,1339]],[[61201,12683],[1731,211],[636,-513],[-176,-792],[-2403,90],[-2403,189]],[[58586,11868],[-1095,134],[-3181,-279],[-1625,156],[-459,-200]],[[52226,11679],[-1449,89]],[[68798,12872],[424,-178],[-1590,-781],[-106,457],[1272,502]],[[66784,14021],[1237,212],[494,424],[1202,279],[706,-424],[919,-112],[1343,748],[812,-302]],[[73497,14846],[919,-1238]],[[74416,13608],[-742,-412],[-2791,-480],[-742,-435],[-742,156],[0,223],[-566,301],[-2049,157],[-71,66],[71,837]],[[58692,17345],[1131,78],[2721,-1729],[1660,45]],[[64204,15739],[636,-502],[-141,-346],[-1095,-67],[-460,-323],[1096,-301],[742,66],[1236,-702]],[[66218,13564],[-1378,580],[-742,-156],[-742,379],[-424,-112],[424,-446],[-282,-178],[-106,-168]],[[64734,12839],[-459,-368],[-1095,557],[-106,536],[353,67],[106,167],[-459,435],[318,0],[459,-223],[530,-134],[-106,-368],[459,-669]],[[94169,28377],[918,134],[1237,502],[1732,44],[848,-134]],[[98904,28923],[-106,-390],[-990,-167],[-1343,-714],[0,-647],[1273,-491],[530,-457],[-742,-368],[-1025,211],[-36,-1048],[283,-647],[-177,-468],[1025,-681],[-1201,-134],[-990,-569],[1060,-513]],[[96465,21840],[-1236,67],[-1096,748],[-2120,312],[-919,1149],[-1236,390]],[[89858,24506],[-530,826]],[[43038,5689],[495,-736],[-495,-413],[707,-904],[1272,-635]],[[45017,3001],[-1237,-1149],[-1024,-536],[-1025,-134],[-1131,-714],[-3321,-468],[-1449,167],[1131,469],[247,468],[-1060,603],[495,814],[-36,725],[354,3324]],[[44558,6916],[2403,167]],[[51024,4674],[-4452,-859],[-1555,-814]],[[44982,10017],[3675,535]],[[48657,10552],[1979,-803]],[[50636,9749],[883,-591]],[[52226,11679],[2226,-346]],[[54452,11333],[1024,-803],[707,-290]],[[56183,10240],[-1413,-513],[-212,-391],[-1767,-368]],[[52791,8968],[-1272,591],[-883,190]],[[48657,10552],[600,413],[1131,-279],[848,22],[389,513],[-848,547]],[[56183,10240],[3145,-1462],[671,-669],[672,-156],[0,-613],[-1237,-692],[-1166,-33],[-2014,602],[-2544,1171],[-919,580]],[[58586,11868],[777,-245],[3287,-547],[1060,-290],[-106,-323],[-1661,-524],[-742,-636],[1131,-279],[-1167,-547],[-2968,1071],[-3392,1718],[-353,67]],[[70635,20334],[919,-33],[989,-480],[0,-490],[2191,-380]],[[74734,18951],[-530,-234],[-1873,-1963],[1697,-391],[459,-881],[-990,-636]],[[66784,14021],[-283,-67],[-71,0],[-212,-390]],[[64204,15739],[-636,624],[530,514],[707,-190],[1025,245],[282,391],[-565,636],[424,457]],[[74734,18951],[2014,-323],[3463,-89],[1096,-558],[848,424],[1307,167],[1166,424],[-212,770],[919,278],[1731,34],[884,-156],[565,401]],[[88515,20323],[1025,-111],[1024,-948],[1308,-134],[530,-435]],[[92402,18695],[-1626,-156],[-777,-815],[-2085,-11],[-848,-279],[-565,-580],[-1484,-290],[-248,-379],[-1201,-11],[-2049,-234],[-566,-335],[-918,-1149],[-1591,123],[-1342,-402],[-2686,-569]],[[96465,21840],[530,-357],[-1484,-1115],[-918,89],[-530,-457],[-142,-1093],[-1519,-212]],[[88515,20323],[-141,513],[1024,692],[-671,658],[601,904],[35,1015],[495,401]],[[91307,33831],[2084,-100],[1378,301],[1131,580],[989,179]],[[96889,34791],[425,-1116],[-460,-959],[1025,-346],[177,-558],[-177,-859],[2120,-1483],[-71,-424],[-1024,-123]],[[89151,40870],[1696,479],[954,90],[2933,-45]],[[94734,41394],[-35,-636],[742,-870],[0,-368],[706,-625],[1167,-2599],[565,-301],[-71,-792],[-919,-412]],[[90423,46302],[1060,-156],[1166,-803],[-353,-692],[601,-1182],[954,-1071],[918,-625],[-35,-379]],[[82791,51823],[-778,-624],[1343,-201],[565,-681]],[[46607,79988],[813,56],[1555,-279],[-142,535],[884,190],[954,-145]],[[50671,80345],[1484,-569]],[[52155,79776],[177,-368],[2614,-435],[-35,-613],[-530,-636]],[[54381,77724],[-1095,-257]],[[52155,79776],[247,558],[778,-34],[636,469],[1519,56]],[[55335,80825],[424,-447],[1838,-412],[1378,-525],[706,90]],[[59681,79531],[919,-458],[-2403,-189],[-1837,-971],[-1343,-524],[-636,335]],[[55335,80825],[-954,959]],[[54381,81784],[353,234],[1591,201]],[[56325,82219],[2190,156]],[[58515,82375],[707,-803],[1696,312]],[[60918,81884],[459,-212],[-812,-613],[353,-524],[-283,-536],[283,-636],[-1237,168]],[[61695,84394],[354,-402],[1060,-133],[-71,-915],[530,-491],[-1130,-268],[-318,-323],[-1202,22]],[[58515,82375],[1626,424],[-530,535],[1448,1116]],[[37985,84963],[460,-324],[2332,-702],[2968,-212],[-318,636]],[[43427,84361],[919,66],[1731,-234],[389,-491],[-353,-468],[1448,-569],[919,-848],[1449,-468]],[[49929,81349],[742,-1004]],[[46961,95069],[565,-826],[-1237,-881],[-424,-1260],[954,-1383]],[[46819,90719],[-318,-569],[-176,-1752],[777,-435]],[[47102,87963],[-1625,-323],[-1944,123]],[[43533,87763],[-1131,702],[-1660,580]],[[40742,89045],[-142,625],[-1413,870],[-212,558],[-1343,558],[-495,546]],[[40742,89045],[-2580,-568],[-459,-659],[424,-847],[-1237,-458]],[[47102,87963],[2191,-858],[424,-369]],[[49717,86736],[106,-1249],[-566,-435],[-1095,312],[-1943,45],[-1166,736]],[[45053,86145],[318,324],[-1485,758],[-353,536]],[[45053,86145],[-1944,-569],[318,-1215]],[[49717,86736],[2049,-234]],[[51766,86502],[318,-546]],[[52084,85956],[-212,-815],[954,-435],[71,-490]],[[52897,84216],[-1272,-168],[141,-1115],[1166,-603]],[[52932,82330],[-282,-178],[-2297,-268],[-424,-535]],[[54381,90696],[-1201,-178],[-1732,-647],[-1342,-257],[-354,1294],[-777,346],[-1237,-134],[-919,-401]],[[54381,81784],[-742,-112],[-707,658]],[[52897,84216],[2014,44]],[[54911,84260],[-177,-1372],[1591,-669]],[[52084,85956],[1131,-246],[2544,-201],[1131,-323]],[[56890,85186],[106,-825],[-1095,-179],[-990,78]],[[60282,85588],[-1201,267],[-990,-67],[-1201,-602]],[[51766,86502],[672,547],[1095,167],[283,469],[-424,713],[1413,90],[318,-346]]],"bbox":[102.11909070590696,8.565897456940817,109.46438742330628,23.319842402868062],"transform":{"scale":[0.00007345370171101033,0.00014754092486852114],"translate":[102.11909070590696,8.565897456940817]}}