{"type":"Topology","objects":{"a1":{"type":"GeometryCollection","geometries":[{"type":"MultiPolygon","arcs":[[[0]],[[1]],[[2]]],"id":"VUT-562","properties":{"adm1_code":"VUT-562","iso_3166_2":"VU-TAE","name":"Tafea","admin":"Vanuatu","adm0_a3":"VUT","type_en":"Province"}},{"type":"MultiPolygon","arcs":[[[3]],[[4]]],"id":"VUT-565","properties":{"adm1_code":"VUT-565","iso_3166_2":"VU-SEE","name":"Shefa","admin":"Vanuatu","adm0_a3":"VUT","type_en":"Province"}},{"type":"MultiPolygon","arcs":[[[5]],[[6]]],"id":"VUT-563","properties":{"adm1_code":"VUT-563","iso_3166_2":"VU-MAP","name":"Malampa","admin":"Vanuatu","adm0_a3":"VUT","type_en":"Province"}},{"type":"MultiPolygon","arcs":[[[7]],[[8]]],"id":"VUT-561","properties":{"adm1_code":"VUT-561","iso_3166_2":"VU-SAM","name":"Sanma","admin":"Vanuatu","adm0_a3":"VUT","type_en":"Province"}},{"type":"MultiPolygon","arcs":[[[9]],[[10]],[[11]]],"id":"VUT-564","properties":{"adm1_code":"VUT-564","iso_3166_2":"VU-PAM","name":"Penama","admin":"Vanuatu","adm0_a3":"VUT","type_en":"Province"}},{"type":"MultiPolygon","arcs":[[[12]],[[13]]],"id":"VUT-560","properties":{"adm1_code":"VUT-560","iso_3166_2":"VU-TOB","name":"Torba","admin":"Vanuatu","adm0_a3":"VUT","type_en":"Province"}}]}},"arcs":[[[98308,1710],[1691,-780],[-1998,-930],[-2768,654],[539,1006],[2536,50]],[[86240,11617],[1845,-730],[-1768,-1785],[-2306,302],[-2382,905],[-1768,1333],[768,2263],[3229,226],[384,-2162],[1998,-352]],[[83397,20141],[-2460,-780],[-7917,1660],[77,2841],[1460,930],[3382,-100],[999,-1509],[2383,-528],[-1383,-855],[2306,-578],[1153,-1081]],[[60030,39125],[-230,-1610],[-4305,-402],[-2229,603],[-999,1107],[-3151,855],[2536,1483],[1691,403],[3843,-227],[2844,-2212]],[[49500,52527],[-2152,1609],[999,1986],[922,50],[1845,-1760],[1845,0],[1768,-1156],[2767,-176],[-308,-1056],[-3535,930],[-4151,-427]],[[49192,59667],[-1229,-226],[-3844,729],[-2690,855],[154,579],[4227,628],[3075,1509],[1768,-2238],[2613,-855],[-922,-930],[-3152,-51]],[[38201,58561],[922,-578],[-3458,-931],[-3075,378],[-2998,-1333],[-1844,201],[-692,1609],[-1461,1434],[-230,2564],[-1614,1308],[-2690,-830],[-2537,1333],[1153,2916],[1230,378],[3228,-654],[1691,-1660],[154,-1056],[2613,-1156],[3459,-931],[4227,-1785],[1922,-1207]],[[20292,68770],[-3459,729],[1076,1257],[3152,-302],[-769,-1684]],[[18370,72064],[-1153,-679],[-4611,50],[-4535,-1207],[-5304,4149],[1076,1835],[-2383,4702],[-1460,1911],[999,2842],[1614,176],[2229,-2238],[1538,-754],[1537,-3043],[384,-1886],[3459,-50],[1307,779],[307,1911],[2460,-352],[999,-2112],[1460,-75],[1538,-2439],[-538,-930],[1768,-2414],[-2691,-176]],[[49269,72340],[923,-2841],[1383,-2338],[-230,-1811],[-1999,50],[-1998,4728],[845,1810],[1076,402]],[[41967,74251],[-2997,-1408],[-3075,0],[-1537,805],[3612,1710],[5150,653],[-1153,-1760]],[[46656,80537],[1307,327],[922,-3243],[615,-528],[-384,-2892],[-1461,0],[0,3646],[-999,2690]],[[29439,93386],[2613,-754],[-231,-805],[-2075,-1182],[-2844,25],[-692,1886],[3229,830]],[[27594,96781],[-1922,1734],[308,730],[2690,754],[1768,-1257],[-461,-1383],[-2383,-578]]],"bbox":[166.52151029913267,-20.25243271016815,169.8982703801703,-13.70737537051923],"transform":{"scale":[0.00003376793848976107,0.0000654512279087683],"translate":[166.52151029913267,-20.25243271016815]}}