{"type":"Topology","objects":{"a1":{"type":"GeometryCollection","geometries":[{"type":"Polygon","arcs":[[0,1]],"id":"WLF-4995","properties":{"adm1_code":"WLF-4995","iso_3166_2":"WF-SG","name":"Sigave","admin":"Wallis and Futuna","adm0_a3":"WLF","type_en":null}},{"type":"Polygon","arcs":[[-2,2]],"id":"WLF-4997","properties":{"adm1_code":"WLF-4997","iso_3166_2":"WF-AL","name":"Alo","admin":"Wallis and Futuna","adm0_a3":"WLF","type_en":null}},{"type":"Polygon","arcs":[[3]],"id":"WLF-4996","properties":{"adm1_code":"WLF-4996","iso_3166_2":"WF-UV","name":"`Uvea","admin":"Wallis and Futuna","adm0_a3":"WLF","type_en":null}}]}},"arcs":[[[2897,0],[-1512,745],[-1385,5067],[2645,-596]],[[2645,5216],[252,-5216]],[[2645,5216],[1133,-2086],[-881,-3130]],[[98488,99999],[1511,-5067],[-2771,-6706],[-881,4322],[2141,7451]]],"bbox":[-178.18573766591444,-14.313003004663258,-176.12490176711054,-13.208720008710415],"transform":{"scale":[0.00002060856507368975,0.000011042940388932322],"translate":[-178.18573766591444,-14.313003004663258]}}