{"type":"Topology","objects":{"a1":{"type":"GeometryCollection","geometries":[{"type":"Polygon","arcs":[[0]],"id":"WSB-5133","properties":{"adm1_code":"WSB-5133","iso_3166_2":"-99-X17~","name":"Akrotiri","admin":"Akrotiri Sovereign Base Area","adm0_a3":"WSB","type_en":null}}]}},"arcs":[[[99999,49382],[-29592,-49382],[-11224,66666],[-59183,-2469],[27551,35802],[20408,-25926],[40816,4939],[11224,-29630]]],"bbox":[32.76184021744618,34.568388270733394,33.016200315787216,34.70169217933575],"transform":{"scale":[0.0000025436264196745824,0.0000013330524165477406],"translate":[32.76184021744618,34.568388270733394]}}