{"type":"Topology","objects":{"a1":{"type":"GeometryCollection","geometries":[{"type":"Polygon","arcs":[[0,1,2,3,4,5]],"id":"ZMB-5511","properties":{"adm1_code":"ZMB-5511","iso_3166_2":"ZM-10","name":"Muchinga","admin":"Zambia","adm0_a3":"ZMB","type_en":"Province"}},{"type":"Polygon","arcs":[[-2,6,7,8]],"id":"ZMB-518","properties":{"adm1_code":"ZMB-518","iso_3166_2":"ZM-03","name":"Eastern","admin":"Zambia","adm0_a3":"ZMB","type_en":"Province"}},{"type":"Polygon","arcs":[[-6,9,10]],"id":"ZMB-515","properties":{"adm1_code":"ZMB-515","iso_3166_2":"ZM-05","name":"Northern","admin":"Zambia","adm0_a3":"ZMB","type_en":"Province"}},{"type":"Polygon","arcs":[[-8,11,12,13]],"id":"ZMB-520","properties":{"adm1_code":"ZMB-520","iso_3166_2":"ZM-09","name":"Lusaka","admin":"Zambia","adm0_a3":"ZMB","type_en":"Province"}},{"type":"Polygon","arcs":[[14,15,-13,16]],"id":"ZMB-522","properties":{"adm1_code":"ZMB-522","iso_3166_2":"ZM-07","name":"Southern","admin":"Zambia","adm0_a3":"ZMB","type_en":"Province"}},{"type":"Polygon","arcs":[[-15,17,18,19]],"id":"ZMB-523","properties":{"adm1_code":"ZMB-523","iso_3166_2":"ZM-01","name":"Western","admin":"Zambia","adm0_a3":"ZMB","type_en":"Province"}},{"type":"Polygon","arcs":[[20,21,-19,22]],"id":"ZMB-521","properties":{"adm1_code":"ZMB-521","iso_3166_2":"ZM-06","name":"North-Western","admin":"Zambia","adm0_a3":"ZMB","type_en":"Province"}},{"type":"Polygon","arcs":[[-5,23,-10]],"id":"ZMB-514","properties":{"adm1_code":"ZMB-514","iso_3166_2":"ZM-04","name":"Luapula","admin":"Zambia","adm0_a3":"ZMB","type_en":"Province"}},{"type":"Polygon","arcs":[[24,25,-21]],"id":"ZMB-517","properties":{"adm1_code":"ZMB-517","iso_3166_2":"ZM-08","name":"Copperbelt","admin":"Zambia","adm0_a3":"ZMB","type_en":"Province"}},{"type":"Polygon","arcs":[[-3,-9,-14,-16,-20,-22,-26,26]],"id":"ZMB-516","properties":{"adm1_code":"ZMB-516","iso_3166_2":"ZM-02","name":"Central","admin":"Zambia","adm0_a3":"ZMB","type_en":"Province"}}]}},"arcs":[[[87679,90479],[1288,0],[666,-350],[488,-917],[1665,-267],[400,-550],[1376,-683],[22,-601],[599,-366],[-155,-1001],[977,-433],[88,567],[644,-150],[355,-1251],[1044,-983],[244,-767],[-489,-1151],[67,-700],[710,-367],[1132,-1150],[-22,-884],[244,-867],[977,-1700],[-821,-867],[-644,-1134],[-577,-383],[-977,-100],[-266,-400],[22,-1201],[111,-600],[732,-1317],[-177,-584],[-1199,-1967],[-133,-1500],[599,-134],[178,-667]],[[96847,65054],[-755,-300],[-155,-767],[-932,-2034],[-3086,-1117],[-1598,-83],[-932,-1534],[-1199,184],[-311,-951],[-532,-517],[-467,-1067],[-177,-1433],[-422,-1934],[-444,-934],[-843,-550],[-45,-1017],[-1376,-867],[-666,-850],[-311,-1368],[-1021,-983],[-754,-34]],[[80821,46898],[-45,1118],[-510,983],[-134,2218],[-688,633],[-732,-200],[-533,-750],[-866,917],[-1465,166],[-843,634],[-200,1067],[311,984],[-733,783],[-377,-333],[-599,517],[-45,783],[-488,367],[44,1467],[-577,100],[-2375,1051],[-666,550],[-732,1484],[-1110,-417],[-577,-1184]],[[66881,59836],[0,33]],[[66881,59869],[133,717],[-333,650],[111,1234],[3884,734],[267,200],[1465,2201],[89,883]],[[72497,66488],[554,417],[222,617],[689,750],[665,367],[311,767],[910,1600],[1044,567],[421,567],[688,-117],[600,834],[-333,1250],[644,417],[577,-200],[510,1184],[1865,550],[-22,2517],[-289,334],[-1509,950],[-644,2284],[-644,1267],[-644,767],[800,1451],[1354,1100],[577,-417],[643,50],[578,-317],[199,684],[1310,-167],[1287,851],[999,166],[2642,-416],[-67,1017],[-755,2300]],[[96847,65054],[67,-2584],[-489,-1767],[-22,-667],[400,-583],[266,-1034],[466,-417],[622,217],[488,-567],[-1199,-1467],[-1021,-134],[-777,-900],[-288,384],[-910,-300],[-711,-1584],[45,-751],[510,-500],[-333,-2267],[244,-750],[-643,-1051],[-133,-583],[-267,-917],[-510,-867],[-777,-467],[732,-1267],[-399,-784],[843,-316],[999,-1384],[622,-534],[888,617],[421,-783],[-8346,-3301],[-4861,-1834],[-2109,-1151],[-5105,-1367],[-2819,-1184],[-1421,-817],[-888,-150]],[[70432,31243],[-89,1518],[-1309,1617]],[[69034,34378],[-489,650],[333,1667],[711,684],[910,1233],[577,484],[111,1067],[-977,500],[-311,917],[-466,300],[6615,17],[777,1117],[1154,1067],[222,884],[844,450],[1176,1233],[600,250]],[[72497,66488],[-67,267],[-2664,2251],[-1354,133],[-1243,-1567],[511,3801],[-89,767],[-844,1350],[-1220,734],[-2376,-1467],[-222,-250],[511,-1367],[-67,-634],[-1043,184],[-755,900],[-799,450],[666,900],[45,1301],[1598,1083],[488,1051],[-155,467],[422,1033],[643,550],[1754,1067],[888,-183],[421,367],[511,1300],[-266,950],[266,884],[-1110,1784],[-2353,734],[-666,800],[-821,400],[-311,984],[311,717],[-222,1417],[-1820,1100],[422,1534],[532,317],[444,1083],[466,1768],[755,1283],[599,217],[666,1250]],[[64949,98198],[6415,1151],[3663,650],[644,-1967],[1132,-1634],[621,-517],[733,-167],[755,367],[466,-433],[777,366],[1598,-1183],[111,-1067],[1021,-1051],[999,217],[1265,-417],[-155,-900],[532,-500],[444,250],[977,-234],[732,-650]],[[70432,31243],[89,-1267],[533,-1750],[688,-967],[177,-1184],[-199,-700],[266,-767],[-866,-33],[-754,-134],[-666,300],[-1021,-233],[-1488,317],[-1620,-517],[-511,100],[-666,-484],[-887,-100],[-1887,-1000],[-711,-600],[-510,-750],[-821,-117]],[[59578,21357],[-511,317],[-1221,-217],[-577,533],[-932,150],[-378,434],[-1132,533],[-1243,-333],[-1753,867],[-289,500],[-2131,334]],[[49411,24475],[355,900],[911,300],[221,634],[-332,950],[-1022,400],[755,750],[1465,-267],[1443,-550],[755,0],[732,1818],[244,166],[1421,-433],[1487,133],[666,267],[1066,1084],[2419,867],[710,-217],[1266,150],[399,1284],[1377,883],[1975,884],[1310,-100]],[[25571,5118],[444,1334],[-22,950],[666,1134],[-22,934],[599,733],[-44,450],[666,384],[355,717],[-311,1167],[67,850],[-1221,334],[-932,1250],[1220,1717],[1266,884],[577,1300],[599,817],[-799,867],[422,1234],[133,1084],[-866,100],[-333,400],[111,850],[-377,533],[355,601],[666,1867],[-178,417]],[[28612,28026],[12142,-384],[844,-150],[1132,-767],[-67,-433],[1998,-117],[222,-150],[444,-2217],[355,-117],[755,1601],[422,-101],[643,917],[777,-316],[244,-1067],[333,-450],[555,200]],[[59578,21357],[-733,-934],[89,-383],[-289,-2218],[178,-833],[-311,-834],[-755,-883],[-776,-117],[-3108,-1384],[-1421,-1234],[-777,-383],[-1309,-650],[-777,-717],[-1177,-2001],[-532,-1667],[-1332,-1434],[-2264,-2684],[-89,-750],[-844,-1017],[-1376,-417],[-1509,-817],[-2597,1284],[-711,33],[-1043,484],[-1909,-1134],[-999,283],[-111,651],[-1443,966],[-1598,-433],[-1354,133],[-644,484],[-599,383],[-444,701],[-1443,1283]],[[25571,5118],[-621,300],[-1820,384],[-799,-367],[-1576,550],[-1599,-50],[-6370,-1484],[-799,-150],[0,401],[-777,666],[-711,-66],[-266,650],[-888,733],[-644,1134],[-1043,467],[-1021,934],[-400,1017],[-1598,1417],[-910,1617],[-710,834],[-821,83],[-733,683],[-622,1418],[-821,2951],[0,5235],[-22,5451],[0,6102],[0,8253]],[[0,44281],[954,-667],[622,150],[577,650],[466,-250],[2176,-2067],[1553,-800],[178,767],[777,416],[1110,-650],[311,-567],[799,50],[199,-667],[933,-233],[-22,-934],[1132,317],[688,517],[888,267],[1220,700],[999,67],[1821,-134],[732,517],[1065,400],[555,-333],[1488,-150],[799,-284],[910,234],[422,-500],[377,-1167],[1065,-334],[1798,-917],[-355,-1817],[-710,-550],[-22,-734],[666,-833],[1287,166],[1066,417],[1154,-267],[843,200]],[[30521,35261],[-599,-1000],[0,-1017],[-466,-934],[266,-1450],[-444,-1184],[-643,-400],[-23,-1250]],[[47968,58986],[-665,-584],[-711,567],[-1287,-1034],[-1865,134],[-44,-1167],[200,-684],[-578,-217],[-488,-750],[-577,-267],[-333,-1117],[488,-633],[-199,-767],[421,-417],[1399,-750],[-222,-1150],[-733,-784],[-66,-1451],[-977,-1050],[-466,-1067],[-133,-1000],[532,-750]],[[41664,44048],[844,-1234],[-333,-717],[22,-1684],[555,-950],[-222,-800],[22,-1268],[-244,-366],[-1043,-50],[-599,-350],[-1266,66],[-1798,-2067],[-66,-534],[-1465,451],[-200,350],[-4728,666],[-622,-300]],[[0,44281],[0,7019],[4240,0],[6393,0],[6637,0],[-1155,2151],[555,2300],[866,1784],[-111,1084],[-488,834],[66,3184],[178,483],[-244,2201],[421,950],[0,651],[444,650],[-421,1234],[22,1450],[-222,167],[133,1334],[-311,1117],[1243,-484],[89,-1250],[1443,-67],[755,-717],[88,-1600],[-688,-1301],[511,-33],[643,-550],[1022,200],[932,1050],[1309,233],[999,501],[1532,100],[1332,600],[399,-850],[-399,-1151],[311,-867],[-134,-533],[444,-1134],[1110,-700],[289,-600],[910,466],[888,-716],[1065,66],[1243,-1133],[1465,33],[1132,-400],[999,300],[622,-500],[1332,-250],[444,-317],[532,483],[999,50],[777,951],[133,1233],[333,517],[-89,900],[1443,401],[244,-701],[222,-1734],[1599,-1133],[399,-817],[466,-1801],[577,-633]],[[66881,59869],[-1443,-617],[-555,251],[-799,-517],[-222,-934],[643,-583],[-199,-617],[-1754,533],[-333,350],[-1243,-283],[-688,183],[-733,1718],[-932,1150],[-2885,2384],[-378,784],[-399,1767],[-444,883],[22,734],[710,984],[289,1250],[22,1501],[621,1767],[111,917],[1177,1717],[-555,1250],[89,817],[-133,1451],[-511,767],[422,783],[44,1934],[378,1317],[-378,1751],[-932,2734],[-1265,717],[44,750],[1931,1401],[1421,1634],[1088,1717],[332,867],[-133,2100],[5638,1017]],[[47968,58986],[666,-600],[1044,50],[355,383],[888,-450],[199,-650],[1110,-100],[378,-517],[466,267],[444,-351],[865,-133],[711,-717],[754,-1750],[-310,-434],[932,-1550],[733,400],[1132,-1551],[444,-1350],[421,-267],[267,-1484],[510,-883],[622,83]],[[60599,47382],[-955,-1334],[-710,-417],[-444,-600],[-1310,-1217],[67,-1117],[-2042,-417],[-555,167],[-1887,-133],[-1687,-334],[-533,600],[-577,1651],[-1376,483],[-910,-1417],[-555,-33],[-244,-1000],[-577,-50],[-400,1600],[-732,117],[-3508,117]],[[60599,47382],[888,-467],[1176,817],[1221,534],[1065,767],[800,-684],[-578,-834],[222,-550],[644,-283],[821,333],[0,7353],[23,5468]]],"bbox":[21.980086661235333,-18.065261172729535,33.6728646513003,-8.194189027088527],"transform":{"scale":[0.0001169289491901416,0.00009871170857349581],"translate":[21.980086661235333,-18.065261172729535]}}