{"type":"Topology","objects":{"a1":{"type":"GeometryCollection","geometries":[{"type":"Polygon","arcs":[[0]],"id":"ALD-4819","properties":{"adm1_code":"ALD-4819","iso_3166_2":"AX-X11~","name":"Lumparland","admin":"Aland","adm0_a3":"ALD","type_en":null}},{"type":"Polygon","arcs":[[1]],"id":"ALD-4812","properties":{"adm1_code":"ALD-4812","iso_3166_2":"AX-X04~","name":"Eckerö","admin":"Aland","adm0_a3":"ALD","type_en":null}},{"type":"Polygon","arcs":[[2]],"id":"ALD-4820","properties":{"adm1_code":"ALD-4820","iso_3166_2":"AX-X12~","name":"Vårdö","admin":"Aland","adm0_a3":"ALD","type_en":null}},{"type":"Polygon","arcs":[[3]],"id":"ALD-4822","properties":{"adm1_code":"ALD-4822","iso_3166_2":"AX-X14~","name":"Kumlinge","admin":"Aland","adm0_a3":"ALD","type_en":null}},{"type":"Polygon","arcs":[[4,5]],"id":"ALD-4810","properties":{"adm1_code":"ALD-4810","iso_3166_2":"AX-X02~","name":"Jomala","admin":"Aland","adm0_a3":"ALD","type_en":null}},{"type":"Polygon","arcs":[[-6,6]],"id":"ALD-4817","properties":{"adm1_code":"ALD-4817","iso_3166_2":"AX-X09~","name":"Mariehamn","admin":"Aland","adm0_a3":"ALD","type_en":null}},{"type":"Polygon","arcs":[[7]],"id":"ALD-4824","properties":{"adm1_code":"ALD-4824","iso_3166_2":"AX-X16~","name":"Kökar","admin":"Aland","adm0_a3":"ALD","type_en":null}},{"type":"Polygon","arcs":[[8]],"id":"ALD-4814","properties":{"adm1_code":"ALD-4814","iso_3166_2":"AX-X06~","name":"Föglö","admin":"Aland","adm0_a3":"ALD","type_en":null}},{"type":"Polygon","arcs":[[9]],"id":"ALD-4821","properties":{"adm1_code":"ALD-4821","iso_3166_2":"AX-X13~","name":"Sottunga","admin":"Aland","adm0_a3":"ALD","type_en":null}},{"type":"Polygon","arcs":[[10]],"id":"ALD-4818","properties":{"adm1_code":"ALD-4818","iso_3166_2":"AX-X10~","name":"Lemland","admin":"Aland","adm0_a3":"ALD","type_en":null}},{"type":"Polygon","arcs":[[11]],"id":"ALD-4823","properties":{"adm1_code":"ALD-4823","iso_3166_2":"AX-X15~","name":"Brändö","admin":"Aland","adm0_a3":"ALD","type_en":null}}]}},"arcs":[[[48196,37764],[-492,-10272],[-4262,302],[1312,11481],[3442,-1511]],[[7869,52265],[1967,-11480],[-7869,-4229],[-1967,9063],[7869,6646]],[[57704,60724],[820,-3927],[-3115,-8761],[-819,13293],[3114,-605]],[[82458,54380],[-2459,5740],[4590,604],[-2131,-6344]],[[25082,30513],[-6394,8762],[8361,6646],[5738,-7553],[-4263,-9969]],[[28524,28399],[-1803,3625],[-1639,-1511]],[[28524,28399],[-3442,2114]],[[92786,1208],[-3279,-1208],[164,4230],[3115,-3022]],[[48360,7553],[3771,7855],[3770,-6949],[-7541,-906]],[[73770,35649],[-2787,302],[983,3626],[1804,-3928]],[[32787,23565],[10163,302],[-4426,-14199],[-5737,13897]],[[99507,99999],[492,-3021],[-2131,-1813],[-328,2417],[1967,2417]]],"bbox":[19.51435101405181,59.935628359581415,21.097612850664376,60.48036408485771],"transform":{"scale":[0.00001583277669389258,0.000005447411726880239],"translate":[19.51435101405181,59.935628359581415]}}