{"type":"Topology","objects":{"a1":{"type":"GeometryCollection","geometries":[{"type":"MultiPolygon","arcs":[[[0,1,2,3,4,5,6]],[[7,8,9,10,11,12]],[[13,14,15,16]]],"id":"ARE-341","properties":{"adm1_code":"ARE-341","iso_3166_2":"AE-FU","name":"Fujayrah","admin":"United Arab Emirates","adm0_a3":"ARE","type_en":"Emirate"}},{"type":"MultiPolygon","arcs":[[[-1,17,-13,18]],[[-3,19,20]],[[-10,21,22,23,24,25,26,27,28,29]],[[-5,30,-16,31]]],"id":"ARE-348","properties":{"adm1_code":"ARE-348","iso_3166_2":"AE-SH","name":"Sharjah","admin":"United Arab Emirates","adm0_a3":"ARE","type_en":"Emirate"}},{"type":"MultiPolygon","arcs":[[[-6,-32,-15,32,33,34,35,-22,-9,36]],[[-11,-30,37,38]]],"id":"ARE-338","properties":{"adm1_code":"ARE-338","iso_3166_2":"AE-RK","name":"Ras Al Khaymah","admin":"United Arab Emirates","adm0_a3":"ARE","type_en":"Emirate"}},{"type":"MultiPolygon","arcs":[[[-34,39,40]],[[-25,41,42]]],"id":"ARE-350","properties":{"adm1_code":"ARE-350","iso_3166_2":"AE-DU","name":"Dubay","admin":"United Arab Emirates","adm0_a3":"ARE","type_en":"Emirate"}},{"type":"Polygon","arcs":[[-4,-21,43,-17,-31]],"id":"ARE-344","properties":{"adm1_code":"ARE-344","iso_3166_2":"AE-X01~","name":"Neutral Zone","admin":"United Arab Emirates","adm0_a3":"ARE","type_en":"Emirate"}},{"type":"Polygon","arcs":[[-35,-41,44]],"id":"ARE-347","properties":{"adm1_code":"ARE-347","iso_3166_2":"AE-X02~","name":"Neutral Zone","admin":"United Arab Emirates","adm0_a3":"ARE","type_en":"Emirate"}},{"type":"MultiPolygon","arcs":[[[-24,45,-42]],[[46]]],"id":"ARE-349","properties":{"adm1_code":"ARE-349","iso_3166_2":"AE-AZ","name":"Abu Dhabi","admin":"United Arab Emirates","adm0_a3":"ARE","type_en":"Emirate"}},{"type":"Polygon","arcs":[[-29,47,-38]],"id":"ARE-339","properties":{"adm1_code":"ARE-339","iso_3166_2":"AE-UQ","name":"Umm Al Qaywayn","admin":"United Arab Emirates","adm0_a3":"ARE","type_en":"Emirate"}},{"type":"Polygon","arcs":[[-27,48]],"id":"ARE-346","properties":{"adm1_code":"ARE-346","iso_3166_2":"AE-AJ","name":"Ajman","admin":"United Arab Emirates","adm0_a3":"ARE","type_en":"Emirate"}}]}},"arcs":[[[99298,77454],[701,763]],[[99999,78217],[-431,-7341]],[[99568,70876],[-1671,-3384]],[[97897,67492],[-270,-333]],[[97627,67159],[-2210,3288]],[[95417,70447],[54,4814],[862,239]],[[96333,75500],[593,-477],[2372,2431]],[[97465,78503],[-593,-525]],[[96872,77978],[-2587,-2764],[-2534,238]],[[91751,75452],[-216,1621],[162,1477],[378,1382]],[[92075,79932],[1563,-1096],[1024,3575],[-2965,858],[-377,2335],[2156,1907],[1725,477]],[[95201,87988],[1456,-1287],[1186,381],[1240,-667],[646,-2288],[-107,-2955]],[[99622,81172],[-2157,-2669]],[[98543,66348],[-808,-1144]],[[97735,65204],[-431,668]],[[97304,65872],[431,572]],[[97735,66444],[808,-96]],[[99298,77454],[-1833,1049]],[[99622,81172],[377,-2955]],[[99568,70876],[431,-2574],[-1402,-1429]],[[98597,66873],[-700,619]],[[91751,75452],[-755,-5291],[539,-2049]],[[91535,68112],[-1617,-96],[-2264,-3288],[216,-4671]],[[87870,60057],[-2696,429]],[[85174,60486],[-161,5386],[-863,3050],[755,1573],[-1186,4242],[-3127,3051],[-2587,47]],[[78005,77835],[2048,2526]],[[80053,80361],[3612,-1048],[755,1573],[-2911,1382]],[[81509,82268],[431,1525]],[[81940,83793],[5121,-4194],[970,-2383],[1995,238],[539,1525]],[[90565,78979],[1510,953]],[[97627,67159],[108,-715]],[[97304,65872],[-1025,190],[-862,4385]],[[97735,65204],[-2156,-1382]],[[95579,63822],[-1348,-95]],[[94231,63727],[-1671,1811]],[[92560,65538],[-1025,2574]],[[96872,77978],[-539,-2478]],[[90565,78979],[-1779,3670],[-862,4385],[-1186,1049]],[[86738,88083],[2048,1525],[3558,4767],[1294,5290],[1779,334],[431,-1716],[-647,-10295]],[[95579,63822],[-1079,-2574],[-862,-143]],[[93638,61105],[593,2622]],[[85174,60486],[-5337,-3051],[-4420,-238],[-1294,1191],[-2749,9676]],[[71374,68064],[1617,1335],[3666,5767],[1348,2669]],[[98597,66873],[-54,-525]],[[93638,61105],[-970,715],[-1456,3670],[1348,48]],[[87870,60057],[377,-1478],[-1186,-2431],[270,-3861],[700,-2478],[-1132,-2765],[1941,-953],[1779,238],[1348,-4003],[-3936,-2145],[-3342,476],[-3073,-1573],[-754,-1143],[1401,-1621],[162,-3003],[-1240,-2717],[-647,-3622],[-1455,-2383],[-1132,-5625],[-1995,-4480],[-701,-3623],[-108,-8436],[-1725,-2431],[-20161,3479],[-14447,2479],[-17736,3050],[-916,668],[-6577,10820],[-13100,21734],[-485,5148],[2911,-1001],[1294,-1335],[808,-5052],[4421,-381],[916,-715],[3289,333],[2372,954],[6091,5290],[755,-1334],[3504,238],[2264,-429],[1078,810],[1402,-1286],[2048,1429],[1833,-2097],[3828,620],[2965,-2050],[5660,382],[2048,1191],[3558,1192],[1348,1716],[2803,1954],[1240,-477],[1294,1764],[808,3193],[1564,906],[2156,6387],[-485,1573],[1402,2097],[6199,4814]],[[43342,44566],[1401,2049],[2426,1001],[2372,-1859],[-701,-1763],[-3719,-191],[-1779,763]],[[81940,83793],[2318,668],[647,1763],[1833,1859]],[[80053,80361],[1456,1907]]],"bbox":[51.56891442743745,22.62040831452238,56.383587717464195,26.073144120050017],"transform":{"scale":[0.00004814721437241119,0.0000345277033323097],"translate":[51.56891442743745,22.62040831452238]}}