{"type":"Topology","objects":{"a1":{"type":"GeometryCollection","geometries":[{"type":"Polygon","arcs":[[0,1,2,3,4]],"id":"BDI-2644","properties":{"adm1_code":"BDI-2644","iso_3166_2":"BI-MY","name":"Muyinga","admin":"Burundi","adm0_a3":"BDI","type_en":"Province"}},{"type":"Polygon","arcs":[[-4,5,6]],"id":"BDI-2643","properties":{"adm1_code":"BDI-2643","iso_3166_2":"BI-KI","name":"Kirundo","admin":"Burundi","adm0_a3":"BDI","type_en":"Province"}},{"type":"Polygon","arcs":[[-3,7,8,9,10,-6]],"id":"BDI-2642","properties":{"adm1_code":"BDI-2642","iso_3166_2":"BI-NG","name":"Ngozi","admin":"Burundi","adm0_a3":"BDI","type_en":"Province"}},{"type":"Polygon","arcs":[[11,12,13]],"id":"BDI-2638","properties":{"adm1_code":"BDI-2638","iso_3166_2":"BI-CI","name":"Cibitoke","admin":"Burundi","adm0_a3":"BDI","type_en":"Province"}},{"type":"Polygon","arcs":[[14,-10,15,16,17,-13]],"id":"BDI-2640","properties":{"adm1_code":"BDI-2640","iso_3166_2":"BI-KY","name":"Kayanza","admin":"Burundi","adm0_a3":"BDI","type_en":"Province"}},{"type":"Polygon","arcs":[[18,19,-1,20]],"id":"BDI-2632","properties":{"adm1_code":"BDI-2632","iso_3166_2":"BI-CA","name":"Cankuzo","admin":"Burundi","adm0_a3":"BDI","type_en":"Province"}},{"type":"Polygon","arcs":[[21,22,23,24,-19]],"id":"BDI-2635","properties":{"adm1_code":"BDI-2635","iso_3166_2":"BI-RY","name":"Ruyigi","admin":"Burundi","adm0_a3":"BDI","type_en":"Province"}},{"type":"Polygon","arcs":[[25,26,27,28,-23]],"id":"BDI-2634","properties":{"adm1_code":"BDI-2634","iso_3166_2":"BI-RT","name":"Rutana","admin":"Burundi","adm0_a3":"BDI","type_en":"Province"}},{"type":"Polygon","arcs":[[29,-27,30]],"id":"BDI-2641","properties":{"adm1_code":"BDI-2641","iso_3166_2":"BI-MA","name":"Makamba","admin":"Burundi","adm0_a3":"BDI","type_en":"Province"}},{"type":"Polygon","arcs":[[31,-14,-18,32,33]],"id":"BDI-2636","properties":{"adm1_code":"BDI-2636","iso_3166_2":"BI-BB","name":"Bubanza","admin":"Burundi","adm0_a3":"BDI","type_en":"Province"}},{"type":"Polygon","arcs":[[34,-34,35,36,37,38,39]],"id":"BDI-4854","properties":{"adm1_code":"BDI-4854","iso_3166_2":"BI-BL","name":"Bujumbura Rural","admin":"Burundi","adm0_a3":"BDI","type_en":"Province"}},{"type":"Polygon","arcs":[[40,-40]],"id":"BDI-3364","properties":{"adm1_code":"BDI-3364","iso_3166_2":"BI-BM","name":"Bujumbura Mairie","admin":"Burundi","adm0_a3":"BDI","type_en":"Province"}},{"type":"Polygon","arcs":[[41,-38,42,43,-28,-30]],"id":"BDI-2637","properties":{"adm1_code":"BDI-2637","iso_3166_2":"BI-BR","name":"Bururi","admin":"Burundi","adm0_a3":"BDI","type_en":"Province"}},{"type":"Polygon","arcs":[[-9,44,-24,-29,-44,45,46,-16]],"id":"BDI-2639","properties":{"adm1_code":"BDI-2639","iso_3166_2":"BI-GI","name":"Gitega","admin":"Burundi","adm0_a3":"BDI","type_en":"Province"}},{"type":"Polygon","arcs":[[-17,-47,47,-36,-33]],"id":"BDI-3365","properties":{"adm1_code":"BDI-3365","iso_3166_2":"BI-MU","name":"Muramvya","admin":"Burundi","adm0_a3":"BDI","type_en":"Province"}},{"type":"Polygon","arcs":[[-37,-48,-46,-43]],"id":"BDI-5588","properties":{"adm1_code":"BDI-5588","iso_3166_2":"BI-MW","name":"Mwaro","admin":"Burundi","adm0_a3":"BDI","type_en":"Province"}},{"type":"Polygon","arcs":[[-2,-20,-25,-45,-8]],"id":"BDI-2633","properties":{"adm1_code":"BDI-2633","iso_3166_2":"BI-KR","name":"Karuzi","admin":"Burundi","adm0_a3":"BDI","type_en":"Province"}}]}},"arcs":[[[81214,70836],[-3955,-3147],[-4237,-6293]],[[73022,61396],[-5085,1689],[2401,5065],[-988,3530],[-4520,1228]],[[64830,72908],[-5932,5449]],[[58898,78357],[4661,2839],[6356,1842],[7344,4835],[565,5603],[-4237,6293]],[[73587,99769],[4096,230],[3531,-3070],[3672,-844],[-2542,-2916],[-2543,-5756],[-2542,-2686],[1836,-4528],[-1836,-5142],[3955,-4221]],[[58898,78357],[-5367,5909],[-4096,768]],[[49435,85034],[1412,8288],[-424,3607],[1836,2610],[10029,-4835],[3248,3223],[8051,1842]],[[64830,72908],[-5085,-3761],[-4237,-844],[-5932,-4221]],[[49576,64082],[-1554,1382]],[[48022,65464],[0,2225],[-4096,1151],[-1130,3761],[-8333,1535],[424,3760]],[[34887,77896],[3248,-767],[2684,2226],[4237,-154],[4379,5833]],[[13418,63315],[-424,2686],[-4237,1919],[-3672,3683],[-2119,4605],[-2966,614],[1130,4374],[847,4682],[5368,1074],[7909,-1995],[1836,-2379],[1695,-6293],[5650,844]],[[24435,77129],[2683,-4835]],[[27118,72294],[-6638,-1842],[-4520,-3300],[1554,-2379],[-4096,-1458]],[[24435,77129],[3248,-921],[7204,1688]],[[48022,65464],[-3390,-5679]],[[44632,59785],[-4096,-998],[-1836,2532],[-8051,2610]],[[30649,63929],[-3531,8365]],[[87852,50575],[-4378,3914],[-3955,537],[-989,2379],[-8192,2149]],[[70338,59554],[2684,1842]],[[81214,70836],[3248,1995],[9322,-4144],[5368,-77],[-1837,-3377],[2684,-5142],[-1836,-4758],[-8616,-2686],[-1695,-2072]],[[87852,50575],[141,-3146],[-7768,-3224],[-5226,-8902]],[[74999,35303],[-7909,3070],[-2966,-1459],[-3814,1612]],[[60310,38526],[-1554,5986],[424,3837],[-2401,3684]],[[56779,52033],[6356,1305],[7203,6216]],[[74999,35303],[424,-3914],[-3814,-77],[-5649,-6523],[-1695,-5142]],[[64265,19647],[-7345,-1228],[-4802,-3223],[-3955,3530]],[[48163,18726],[2543,7751],[0,3454]],[[50706,29931],[9604,8595]],[[20198,12740],[9039,537],[5791,2456],[7768,4911],[2543,538],[2824,-2456]],[[64265,19647],[-6780,-6524],[-2683,-4297],[-5509,-3377],[-5508,-921],[-3955,-4528],[-4802,691],[-12853,-154],[-1977,12203]],[[13135,55564],[-1271,4834],[1554,2917]],[[30649,63929],[-141,-4528],[-1836,-4298]],[[28672,55103],[-6780,1074],[-5649,-2532],[-3108,1919]],[[11723,49194],[1412,6370]],[[28672,55103],[3814,-5526]],[[32486,49577],[-424,-6907]],[[32062,42670],[-2119,-921],[-3107,-6983],[-9746,-614],[-5084,921]],[[12006,35073],[423,6446]],[[12429,41519],[4520,-77],[3814,2226],[1836,7291],[-3249,2609],[-7627,-4374]],[[12429,41519],[-706,7675]],[[20198,12740],[-1554,4451],[-6780,8979],[142,8903]],[[32062,42670],[3107,-3837],[4520,-537]],[[39689,38296],[3107,-461],[-847,-5602],[8757,-2302]],[[49576,64082],[5932,-6753],[1271,-5296]],[[39689,38296],[4378,1918],[-1977,2533],[5367,3223],[989,3377],[-2260,2226]],[[46186,51573],[-2542,3070],[988,5142]],[[46186,51573],[-13700,-1996]]],"bbox":[28.995753455274297,-4.461679586222601,30.8333753902279,-2.3172969577180567],"transform":{"scale":[0.000018376403113567163,0.000021444040725452704],"translate":[28.995753455274297,-4.461679586222601]}}