{"type":"Topology","objects":{"a1":{"type":"GeometryCollection","geometries":[{"type":"Polygon","arcs":[[0,1,2]],"id":"BEN-2170","properties":{"adm1_code":"BEN-2170","iso_3166_2":"BJ-AL","name":"Alibori","admin":"Benin","adm0_a3":"BEN","type_en":"Department"}},{"type":"Polygon","arcs":[[-1,3,4,5,6]],"id":"BEN-2169","properties":{"adm1_code":"BEN-2169","iso_3166_2":"BJ-BO","name":"Borgou","admin":"Benin","adm0_a3":"BEN","type_en":"Department"}},{"type":"Polygon","arcs":[[7,8,9,10]],"id":"BEN-2179","properties":{"adm1_code":"BEN-2179","iso_3166_2":"BJ-PL","name":"Plateau","admin":"Benin","adm0_a3":"BEN","type_en":"Department"}},{"type":"Polygon","arcs":[[-5,11,-11,12,13,14]],"id":"BEN-2171","properties":{"adm1_code":"BEN-2171","iso_3166_2":"BJ-CO","name":"Collines","admin":"Benin","adm0_a3":"BEN","type_en":"Department"}},{"type":"Polygon","arcs":[[15,16,17,18,-9]],"id":"BEN-2177","properties":{"adm1_code":"BEN-2177","iso_3166_2":"BJ-OU","name":"Ouémé","admin":"Benin","adm0_a3":"BEN","type_en":"Department"}},{"type":"Polygon","arcs":[[-2,-7,19,20]],"id":"BEN-2181","properties":{"adm1_code":"BEN-2181","iso_3166_2":"BJ-AK","name":"Atakora","admin":"Benin","adm0_a3":"BEN","type_en":"Department"}},{"type":"Polygon","arcs":[[-6,-15,21,-20]],"id":"BEN-2182","properties":{"adm1_code":"BEN-2182","iso_3166_2":"BJ-DO","name":"Donga","admin":"Benin","adm0_a3":"BEN","type_en":"Department"}},{"type":"Polygon","arcs":[[-10,-19,22,23,24,-13]],"id":"BEN-2178","properties":{"adm1_code":"BEN-2178","iso_3166_2":"BJ-ZO","name":"Zou","admin":"Benin","adm0_a3":"BEN","type_en":"Department"}},{"type":"Polygon","arcs":[[-24,25,26,27]],"id":"BEN-2176","properties":{"adm1_code":"BEN-2176","iso_3166_2":"BJ-KO","name":"Kouffo","admin":"Benin","adm0_a3":"BEN","type_en":"Department"}},{"type":"Polygon","arcs":[[-27,28,29]],"id":"BEN-2180","properties":{"adm1_code":"BEN-2180","iso_3166_2":"BJ-MO","name":"Mono","admin":"Benin","adm0_a3":"BEN","type_en":"Department"}},{"type":"Polygon","arcs":[[-18,30,31,-29,-26,-23]],"id":"BEN-2174","properties":{"adm1_code":"BEN-2174","iso_3166_2":"BJ-AQ","name":"Atlantique","admin":"Benin","adm0_a3":"BEN","type_en":"Department"}},{"type":"Polygon","arcs":[[-17,32,-31]],"id":"BEN-2175","properties":{"adm1_code":"BEN-2175","iso_3166_2":"BJ-LI","name":"Littoral","admin":"Benin","adm0_a3":"BEN","type_en":"Department"}}]}},"arcs":[[[99999,71420],[-12352,-692],[-7868,-771],[-7868,-320],[-6514,506],[-5245,-346],[-5161,186],[-6599,-399]],[[48392,69584],[423,107],[-169,5135],[3046,1916],[-2962,825],[-1607,1144],[-6514,5642]],[[40609,84353],[4314,2155],[4653,1783],[3215,3592],[2115,1810],[-1607,612],[-1438,2794],[4145,984],[4569,319],[4568,1304],[2454,293],[3045,-1597],[2369,-372],[1777,-1357],[6260,-2821],[1185,-1623],[6852,-1437],[3046,-2155],[-2961,-2262],[-1269,-1836],[592,-825],[5838,-4018],[1353,-373],[1608,-3432],[-762,-1331],[3469,-3140]],[[99999,71420],[-2623,-3645],[-3384,479],[-2622,-2422],[2961,-1995],[0,-533],[-1692,-958],[-423,-1649],[-2792,-1970],[-1946,107],[-4399,-1144],[677,-1677],[-3131,-1516],[-3722,-2502],[761,-2288],[-1946,-2608],[-3553,-1064],[-3130,239],[-3892,-319],[-507,-3938],[-931,-666]],[[63705,41351],[-17259,80]],[[46446,41431],[-254,745],[-4399,799],[-846,1091],[846,2448],[-2453,1170],[0,2342],[1184,905],[3553,585],[1269,4151],[-2622,2395],[338,3672]],[[43062,61734],[677,852],[5076,798],[-169,1677],[-2538,3113],[2284,1410]],[[63536,23363],[84,-1171],[2285,-1756],[-1608,-1117],[677,-3992],[-846,-958],[1184,-851],[-1861,-1145],[677,-1889],[-423,-1011],[1777,-1650],[-1523,-904],[-423,-2236]],[[63536,4683],[-3977,2502],[-676,1889],[-1608,1889],[-254,1623]],[[57021,12586],[1354,133],[-1015,2981],[-1608,505],[-1692,3380]],[[54060,19585],[-338,798],[2200,1251],[423,1729],[7191,0]],[[63705,41351],[592,-3938],[-1269,-1783],[-169,-1570],[1184,-1756],[-846,-1197],[-1184,-3965],[1777,-1597],[-254,-2182]],[[54060,19585],[-8206,1676],[-5161,213],[-2369,931],[-3299,533],[-7191,-160]],[[27834,22778],[85,10457],[-762,1570],[1269,1757],[-1100,1836]],[[27326,38398],[3469,-27],[3722,452],[7530,-2022],[3299,-213],[1692,426],[254,2049],[-846,2368]],[[63536,4683],[-254,-479],[-254,-1703],[-7106,-346]],[[55922,2155],[-593,772]],[[55329,2927],[508,1756],[-1269,559],[-508,4630],[-1438,1544]],[[52622,11416],[1523,1144],[2876,26]],[[43062,61734],[-9221,133],[-6430,-1516],[-6430,372],[-2284,-239]],[[18697,60484],[-423,665],[-10829,3566],[-7445,2421],[592,3193],[-169,2102],[2623,1650],[1269,3193],[2453,1384],[1861,-479],[2200,346],[-592,985],[1523,1862],[4483,27],[2623,878],[-338,1038],[2792,1410],[4737,-27],[1100,-1037],[3807,638],[5245,266],[2200,-452],[2200,240]],[[27326,38398],[-254,7450],[-1099,1411],[-4738,2501],[-1100,1118],[-254,1649],[-1692,958],[762,1171],[-254,5828]],[[52622,11416],[-9814,-27]],[[42808,11389],[-2707,372],[-3892,2449],[-761,1463],[-3299,2102],[-2369,2874],[-1946,719]],[[27834,21368],[0,1410]],[[42808,11389],[-1945,-3433]],[[40863,7956],[-4061,666],[-6938,-932],[-3130,506]],[[26734,8196],[-85,2581],[-761,372],[-1015,1437],[3046,80],[-85,8702]],[[40863,7956],[-1100,-1703],[0,-1889],[-1016,-1490],[931,-1703]],[[39678,1171],[-3299,-186],[-8630,-985],[423,506],[4823,505],[-1269,2422],[-1777,931],[-1100,1410],[-1946,639],[-169,1783]],[[55329,2927],[-3468,-958]],[[51861,1969],[-12183,-798]],[[55922,2155],[-4061,-186]]],"bbox":[0.769569073042021,6.214153192832612,3.837463320379811,12.398796261075177],"transform":{"scale":[0.00003067924926587056,0.00006184704915291718],"translate":[0.769569073042021,6.214153192832612]}}