{"type":"Topology","objects":{"a1":{"type":"GeometryCollection","geometries":[{"type":"Polygon","arcs":[[0,1,2,3,4,5,6]],"id":"BIH-2228","properties":{"adm1_code":"BIH-2228","iso_3166_2":"BA-BIH","name":"Herzegovina-Neretva","admin":"Bosnia and Herzegovina","adm0_a3":"BIH","type_en":"Canton"}},{"type":"Polygon","arcs":[[-7,7,8]],"id":"BIH-4808","properties":{"adm1_code":"BIH-4808","iso_3166_2":"BA-X07~","name":"Trebinje","admin":"Bosnia and Herzegovina","adm0_a3":"BIH","type_en":null}},{"type":"Polygon","arcs":[[-6,9,10,11,12,13,14,-8]],"id":"BIH-4807","properties":{"adm1_code":"BIH-4807","iso_3166_2":"BA-X06~","name":"Foča","admin":"Bosnia and Herzegovina","adm0_a3":"BIH","type_en":null}},{"type":"Polygon","arcs":[[15,16,17,18,19,20]],"id":"BIH-4802","properties":{"adm1_code":"BIH-4802","iso_3166_2":"BA-X02~","name":"Banja Luka","admin":"Bosnia and Herzegovina","adm0_a3":"BIH","type_en":null}},{"type":"Polygon","arcs":[[-21,21,22]],"id":"BIH-2225","properties":{"adm1_code":"BIH-2225","iso_3166_2":"BA-BIH","name":"Una-Sana","admin":"Bosnia and Herzegovina","adm0_a3":"BIH","type_en":"Canton"}},{"type":"Polygon","arcs":[[-17,23,24,25,26,27,28,29]],"id":"BIH-4801","properties":{"adm1_code":"BIH-4801","iso_3166_2":"BA-X01~","name":"Doboj","admin":"Bosnia and Herzegovina","adm0_a3":"BIH","type_en":null}},{"type":"MultiPolygon","arcs":[[[30,31,-27]],[[32,-25]]],"id":"BIH-3153","properties":{"adm1_code":"BIH-3153","iso_3166_2":"BA-SRP","name":"Posavina","admin":"Bosnia and Herzegovina","adm0_a3":"BIH","type_en":"Canton"}},{"type":"Polygon","arcs":[[-28,-32,33,34,35]],"id":"BIH-4803","properties":{"adm1_code":"BIH-4803","iso_3166_2":"BA-BRC","name":"Brčko Distrikt","admin":"Bosnia and Herzegovina","adm0_a3":"BIH","type_en":null}},{"type":"Polygon","arcs":[[36,37,38,-35]],"id":"BIH-4804","properties":{"adm1_code":"BIH-4804","iso_3166_2":"BA-X03~","name":"Bijeljina","admin":"Bosnia and Herzegovina","adm0_a3":"BIH","type_en":null}},{"type":"Polygon","arcs":[[-3,39,40,-22,-20,41]],"id":"BIH-2224","properties":{"adm1_code":"BIH-2224","iso_3166_2":"BA-BIH","name":"West Bosnia","admin":"Bosnia and Herzegovina","adm0_a3":"BIH","type_en":"Canton"}},{"type":"Polygon","arcs":[[42,-40,-2]],"id":"BIH-2227","properties":{"adm1_code":"BIH-2227","iso_3166_2":"BA-BIH","name":"West Herzegovina","admin":"Bosnia and Herzegovina","adm0_a3":"BIH","type_en":"Canton"}},{"type":"Polygon","arcs":[[-14,43,44,45,-38,46]],"id":"BIH-4805","properties":{"adm1_code":"BIH-4805","iso_3166_2":"BA-X04~","name":"Vlasenica","admin":"Bosnia and Herzegovina","adm0_a3":"BIH","type_en":null}},{"type":"Polygon","arcs":[[-4,-42,-19,47,48]],"id":"BIH-2226","properties":{"adm1_code":"BIH-2226","iso_3166_2":"BA-BIH","name":"Central Bosnia","admin":"Bosnia and Herzegovina","adm0_a3":"BIH","type_en":"Canton"}},{"type":"Polygon","arcs":[[-18,-30,49,-45,50,51,-48]],"id":"BIH-2889","properties":{"adm1_code":"BIH-2889","iso_3166_2":"BA-BIH","name":"Zenica-Doboj","admin":"Bosnia and Herzegovina","adm0_a3":"BIH","type_en":"Canton"}},{"type":"Polygon","arcs":[[-29,-36,-39,-46,-50]],"id":"BIH-2887","properties":{"adm1_code":"BIH-2887","iso_3166_2":"BA-BIH","name":"Tuzla","admin":"Bosnia and Herzegovina","adm0_a3":"BIH","type_en":"Canton"}},{"type":"MultiPolygon","arcs":[[[-13,52,53,-51,-44]],[[-11,54]]],"id":"BIH-4806","properties":{"adm1_code":"BIH-4806","iso_3166_2":"BA-X05~","name":"Sarajevo-romanija","admin":"Bosnia and Herzegovina","adm0_a3":"BIH","type_en":null}},{"type":"Polygon","arcs":[[-5,-49,-52,-54,55,-55,-10]],"id":"BIH-2890","properties":{"adm1_code":"BIH-2890","iso_3166_2":"BA-BIH","name":"Sarajevo","admin":"Bosnia and Herzegovina","adm0_a3":"BIH","type_en":"Canton"}},{"type":"Polygon","arcs":[[-12,-56,-53]],"id":"BIH-2891","properties":{"adm1_code":"BIH-2891","iso_3166_2":"BA-BIH","name":"Bosnian Podrinje","admin":"Bosnia and Herzegovina","adm0_a3":"BIH","type_en":"Canton"}}]}},"arcs":[[[67997,605],[-3726,1936],[-9381,6957],[-799,2662],[-3193,1089],[-1264,-1029],[-1863,1875],[2129,847],[-1664,3993]],[[48236,18935],[1664,4174],[-1730,4174],[3925,-605],[-1131,5203],[-1597,484],[-2461,4053],[1397,1513],[-1796,2238]],[[46507,40169],[-2196,3267],[-1397,181],[66,4114],[1664,121]],[[44644,47852],[6586,-1694],[4458,847],[2994,-2299]],[[58682,44706],[1331,-3448],[2328,-121],[1264,-2662],[2329,-1149],[2395,544]],[[68329,37870],[333,-5021],[-998,-484]],[[67664,32365],[-8383,242],[732,-8711],[-1730,-1936],[1663,-1694],[-1064,-5263],[665,-2964],[7851,-8712],[599,-2722]],[[67664,32365],[-200,-3448],[4059,-847],[3992,-3267]],[[75515,24803],[-1065,-3993],[466,-3811],[-4790,-1028],[399,-8228],[1796,-2722],[133,-2541],[-931,-1028],[-1796,-1452],[-1730,605]],[[68329,37870],[200,182]],[[68529,38052],[4923,1573]],[[73452,39625],[2861,-1936],[4924,302],[4391,2964],[-2794,2541]],[[82834,43496],[3127,1573],[3858,-1210],[134,6231]],[[89953,50090],[399,1150]],[[90352,51240],[5655,-7018],[1131,-3206],[-665,-4174],[-2994,1512],[-2861,-484],[-1464,-2057],[-7252,-907],[2528,-3569],[333,-4175],[-865,-907],[-2329,2904],[-6054,-4356]],[[16101,90501],[931,3206],[2595,3388],[2662,787],[5123,-1573],[3725,3690],[4924,-4053],[11510,-1755],[2861,1573],[2062,-1936]],[[52494,93828],[-665,-1391],[599,-5263],[-998,-4174],[1464,-3569],[2728,0]],[[55622,79431],[-1331,-2965],[2062,-3387],[67,-2783],[-4724,-3509]],[[51696,66787],[-5921,-363],[-2462,2783],[-6520,605],[0,-4900],[2861,-5263],[-400,-4175]],[[39254,55474],[-3060,545],[-532,2601],[-7918,4900],[-6986,6231]],[[20758,69751],[998,1694],[4791,-1694],[2528,121],[732,1997],[-67,5505],[-1264,3811],[-3193,3267],[-9515,1270],[-1397,3025],[1730,1754]],[[20758,69751],[-1197,-1815],[-5123,-907],[-1930,-1149]],[[12508,65880],[-2262,6291],[-5655,7260],[-2329,-847],[-2262,3327],[1464,2117],[-998,3327],[1730,9619],[4990,787],[5522,-6836],[3393,-424]],[[52494,93828],[1797,-1693],[3925,2903],[3992,-1694]],[[62208,93344],[2861,-3932],[4658,2118],[399,1331]],[[70126,92861],[732,-666]],[[70858,92195],[1197,-2964],[3127,-1210],[3061,-2238]],[[78243,85783],[-533,-1755]],[[77710,84028],[-6520,2420],[-3792,-423],[-1530,-3570],[-5123,-544],[1264,-2722],[5655,-2178],[732,-2602],[-2528,-242]],[[65868,74167],[-3859,121],[-3061,5143],[-3326,0]],[[70858,92195],[1397,787],[3925,-303],[2994,-3872],[932,-3629]],[[80106,85178],[-1863,605]],[[62208,93344],[2395,2178],[5523,-2661]],[[80106,85178],[3393,-484]],[[83499,84694],[-1663,-2904],[-2728,-1392]],[[79108,80398],[-1398,3630]],[[83499,84694],[1064,121],[4059,2177],[4657,-1088],[-732,-5929],[-3792,-7199]],[[88755,72776],[-2063,2057],[-1729,-968]],[[84963,73865],[-2063,2420],[-2661,-3388],[-2795,3085],[1664,4416]],[[46507,40169],[-865,-2359],[-5123,-1815],[-1132,786],[-4923,-1149]],[[34464,35632],[-6121,6594],[-2794,2359],[-932,2541],[-3859,4658],[-3127,3388],[-1996,847],[-2861,4597],[-266,5264]],[[39254,55474],[2063,-4537],[3327,-3085]],[[48236,18935],[-3792,2722],[-3127,4175],[-1597,3387],[532,3086],[-1197,1512],[-4591,1815]],[[89953,50090],[-2529,2844],[-5588,3448],[-4458,1028]],[[77378,57410],[732,1029]],[[78110,58439],[732,2419],[-998,5264],[2129,2177],[4657,2178],[333,3388]],[[88755,72776],[-1264,-726],[-599,-4961],[1796,-3569],[3793,-847],[931,-2662],[3992,-3690],[2595,-1996],[-1663,-1936],[-7984,-1149]],[[51696,66787],[1530,-2601],[0,-4114],[3394,-4295],[1530,-666],[4125,-5565]],[[62275,49546],[466,-1997],[-4059,-2843]],[[65868,74167],[199,-4779],[2329,-1270],[1131,-2904],[1996,-1028],[599,-3630],[5988,-2117]],[[77378,57410],[-3793,-2601]],[[73585,54809],[-2262,2178],[-4125,-1694],[-998,-2541],[-2661,-242],[-1264,-2964]],[[82834,43496],[-1797,1029],[-3593,-121],[-1663,-3267],[-1663,242]],[[74118,41379],[-4924,1996],[-865,3630],[3194,726],[66,4961],[1996,2117]],[[68529,38052],[599,3569],[4324,-1996]],[[74118,41379],[-666,-1754]]],"bbox":[15.71711811738922,42.558394150541176,19.61817146235427,45.27878132238922],"transform":{"scale":[0.00003901092355888608,0.000027204143759918055],"translate":[15.71711811738922,42.558394150541176]}}