{"type":"Topology","objects":{"a1":{"type":"GeometryCollection","geometries":[{"type":"MultiPolygon","arcs":[[[0,1,2,3]],[[4,5,6,7]]],"id":"BMU-5137","properties":{"adm1_code":"BMU-5137","iso_3166_2":"BM-HAM","name":"Hamilton","admin":"Bermuda","adm0_a3":"BMU","type_en":null}},{"type":"Polygon","arcs":[[-8,8,9,10]],"id":"BMU-5142","properties":{"adm1_code":"BMU-5142","iso_3166_2":"BM-SMI","name":"Smith's","admin":"Bermuda","adm0_a3":"BMU","type_en":null}},{"type":"Polygon","arcs":[[-10,11,12,13,14]],"id":"BMU-5136","properties":{"adm1_code":"BMU-5136","iso_3166_2":"BM-DEV","name":"Devonshire","admin":"Bermuda","adm0_a3":"BMU","type_en":null}},{"type":"Polygon","arcs":[[-14,15,16,17]],"id":"BMU-5139","properties":{"adm1_code":"BMU-5139","iso_3166_2":"BM-PEM","name":"Pembroke","admin":"Bermuda","adm0_a3":"BMU","type_en":null}},{"type":"Polygon","arcs":[[-17,18]],"id":"BMU-5134","properties":{"adm1_code":"BMU-5134","iso_3166_2":"BM-HA","name":"City of Hamilton","admin":"Bermuda","adm0_a3":"BMU","type_en":null}},{"type":"Polygon","arcs":[[-13,19,20,21]],"id":"BMU-5138","properties":{"adm1_code":"BMU-5138","iso_3166_2":"BM-PAG","name":"Paget","admin":"Bermuda","adm0_a3":"BMU","type_en":null}},{"type":"Polygon","arcs":[[-21,22,23,24]],"id":"BMU-5144","properties":{"adm1_code":"BMU-5144","iso_3166_2":"BM-WAR","name":"Warwick","admin":"Bermuda","adm0_a3":"BMU","type_en":null}},{"type":"Polygon","arcs":[[-24,25,26,27]],"id":"BMU-5143","properties":{"adm1_code":"BMU-5143","iso_3166_2":"BM-SOU","name":"Southampton","admin":"Bermuda","adm0_a3":"BMU","type_en":null}},{"type":"Polygon","arcs":[[-27,28]],"id":"BMU-5141","properties":{"adm1_code":"BMU-5141","iso_3166_2":"BM-SAN","name":"Sandys","admin":"Bermuda","adm0_a3":"BMU","type_en":null}},{"type":"MultiPolygon","arcs":[[[-4,29,-6]],[[-2,30],[31]]],"id":"BMU-5140","properties":{"adm1_code":"BMU-5140","iso_3166_2":"BM-SGE","name":"Saint George's","admin":"Bermuda","adm0_a3":"BMU","type_en":null}},{"type":"Polygon","arcs":[[-32]],"id":"BMU-5135","properties":{"adm1_code":"BMU-5135","iso_3166_2":"BM-SG","name":"City of Saint George","admin":"Bermuda","adm0_a3":"BMU","type_en":null}}]}},"arcs":[[[78160,60975],[-8046,12195]],[[70114,73170],[6897,-1220]],[[77011,71950],[5747,-8536]],[[82758,63414],[-4598,-2439]],[[73562,56097],[4598,4878]],[[78160,60975],[2299,-7317]],[[80459,53658],[-3448,-3659]],[[77011,49999],[-3449,6098]],[[77011,49999],[-13793,-14633]],[[63218,35366],[-4598,10975]],[[58620,46341],[2299,3658],[5747,1220],[6896,4878]],[[63218,35366],[-10345,-12196]],[[52873,23170],[-8046,3659]],[[44827,26829],[0,9756]],[[44827,36585],[13793,9756]],[[44827,26829],[-2299,0]],[[42528,26829],[0,4878],[-3448,-1220],[-1149,-4877]],[[37931,25610],[-6897,13414],[13793,-2439]],[[42528,26829],[-4597,-1219]],[[52873,23170],[-11494,-14633]],[[41379,8537],[-4598,9756]],[[36781,18293],[8046,8536]],[[41379,8537],[-12644,-8537]],[[28735,0],[-6896,3659]],[[21839,3659],[14942,14634]],[[28735,0],[-28735,8537]],[[0,8537],[8046,2439]],[[8046,10976],[13793,-7317]],[[0,8537],[1149,14633],[4598,17074],[4598,-8537],[-5747,-15853],[3448,-4878]],[[82758,63414],[-2299,-9756]],[[70114,73170],[20690,26829],[9195,-21951],[-16092,3658],[-6896,-9756]],[[90804,85365],[3448,3658],[-1149,4878],[-4598,-3658],[2299,-4878]]],"bbox":[-64.88129141102083,32.254495733759185,-64.65548193596297,32.38944536962825],"transform":{"scale":[0.0000022581173317518962,0.0000013495098537891673],"translate":[-64.88129141102083,32.254495733759185]}}