{"type":"Topology","objects":{"a1":{"type":"GeometryCollection","geometries":[{"type":"MultiPolygon","arcs":[[[0,1,2,3]],[[4]],[[5]],[[6]],[[7]],[[8]],[[9]],[[10]],[[11]],[[12]],[[13]],[[14]],[[15]],[[16]],[[17]],[[18]],[[19]],[[20]],[[21]],[[22]],[[23]],[[24]],[[25]],[[26]],[[27]],[[28]],[[29]],[[30]],[[31]],[[32]],[[33]],[[34]],[[35]],[[36]],[[37]],[[38]],[[39]]],"id":"CAN-633","properties":{"adm1_code":"CAN-633","iso_3166_2":"CA-BC","name":"British Columbia","admin":"Canada","adm0_a3":"CAN","type_en":"Province"}},{"type":"Polygon","arcs":[[-3,40,41,42]],"id":"CAN-632","properties":{"adm1_code":"CAN-632","iso_3166_2":"CA-AB","name":"Alberta","admin":"Canada","adm0_a3":"CAN","type_en":"Province"}},{"type":"Polygon","arcs":[[-42,43,44,45]],"id":"CAN-631","properties":{"adm1_code":"CAN-631","iso_3166_2":"CA-SK","name":"Saskatchewan","admin":"Canada","adm0_a3":"CAN","type_en":"Province"}},{"type":"Polygon","arcs":[[-45,46,47,48,49]],"id":"CAN-630","properties":{"adm1_code":"CAN-630","iso_3166_2":"CA-MB","name":"Manitoba","admin":"Canada","adm0_a3":"CAN","type_en":"Province"}},{"type":"MultiPolygon","arcs":[[[-49,50,51,52,53]],[[54,55]]],"id":"CAN-682","properties":{"adm1_code":"CAN-682","iso_3166_2":"CA-ON","name":"Ontario","admin":"Canada","adm0_a3":"CAN","type_en":"Province"}},{"type":"MultiPolygon","arcs":[[[56,57,58]],[[-52,59,-56,60,61,62]],[[63]],[[64]],[[65]],[[66]],[[67]],[[68]]],"id":"CAN-683","properties":{"adm1_code":"CAN-683","iso_3166_2":"CA-QC","name":"Québec","admin":"Canada","adm0_a3":"CAN","type_en":"Province"}},{"type":"MultiPolygon","arcs":[[[-58,69,70,71]],[[72]],[[73]]],"id":"CAN-684","properties":{"adm1_code":"CAN-684","iso_3166_2":"CA-NB","name":"New Brunswick","admin":"Canada","adm0_a3":"CAN","type_en":"Province"}},{"type":"MultiPolygon","arcs":[[[-1,74,75]],[[76]]],"id":"CAN-636","properties":{"adm1_code":"CAN-636","iso_3166_2":"CA-YT","name":"Yukon","admin":"Canada","adm0_a3":"CAN","type_en":"Territory"}},{"type":"MultiPolygon","arcs":[[[-47,77,78]],[[79]],[[80]],[[81]],[[82]],[[83]],[[84]],[[85]],[[86]],[[87]],[[88,89,90,91]],[[92]],[[93]],[[94]],[[95]],[[96]],[[97]],[[98]],[[99]],[[100]],[[101]],[[102]],[[103]],[[104]],[[105]],[[106]],[[107]],[[108]],[[109]],[[110]],[[111]],[[112]],[[113]],[[114]],[[115]],[[116]],[[117]],[[118]],[[119]],[[120]],[[121]],[[122]],[[123]],[[124]],[[125]],[[126]],[[127]],[[128]],[[129]],[[130]],[[131]],[[132]],[[133]],[[134]],[[135]],[[136]],[[137]],[[138]],[[139]],[[140]],[[141]],[[142]],[[143]],[[144]],[[145]],[[146]],[[147]],[[148]],[[149]],[[150]],[[151]],[[152]],[[153]],[[154]],[[155]],[[156]],[[157]],[[158]],[[159]],[[160]],[[161]],[[162,163,164,165]],[[166]],[[167]],[[168]],[[169]],[[170]],[[171]],[[172,173]],[[174]],[[175,176]],[[177]],[[178]],[[179]],[[180]],[[181]],[[182]],[[183]],[[184]],[[185]],[[186]],[[187]],[[188]],[[189]],[[190]],[[191]]],"id":"CAN-634","properties":{"adm1_code":"CAN-634","iso_3166_2":"CA-NU","name":"Nunavut","admin":"Canada","adm0_a3":"CAN","type_en":"Territory"}},{"type":"MultiPolygon","arcs":[[[-62,192]],[[193]],[[194]],[[195]],[[196]],[[197]],[[198]],[[199]],[[200]],[[201]],[[202]],[[203]],[[204]],[[205]],[[206]],[[207]]],"id":"CAN-686","properties":{"adm1_code":"CAN-686","iso_3166_2":"CA-NL","name":"Newfoundland and Labrador","admin":"Canada","adm0_a3":"CAN","type_en":"Province"}},{"type":"MultiPolygon","arcs":[[[-71,208]],[[209]]],"id":"CAN-685","properties":{"adm1_code":"CAN-685","iso_3166_2":"CA-NS","name":"Nova Scotia","admin":"Canada","adm0_a3":"CAN","type_en":"Province"}},{"type":"MultiPolygon","arcs":[[[-2,-76,210,-78,-44,-41]],[[-89,211]],[[-91,212]],[[213]],[[214]],[[-163,215]],[[-165,216]],[[217]],[[218]],[[219]],[[-174,220]],[[-177,221]]],"id":"CAN-635","properties":{"adm1_code":"CAN-635","iso_3166_2":"CA-NT","name":"Northwest Territories","admin":"Canada","adm0_a3":"CAN","type_en":"Territory"}},{"type":"Polygon","arcs":[[222]],"id":"CAN-687","properties":{"adm1_code":"CAN-687","iso_3166_2":"CA-PE","name":"Prince Edward Island","admin":"Canada","adm0_a3":"CAN","type_en":"Province"}}]}},"arcs":[[[2200,44215],[1627,0],[1615,0],[1078,0],[1615,0],[1615,0],[1078,0],[1078,0],[1078,0],[1075,0],[1077,0],[1616,0],[1618,0],[1075,0]],[[19445,44215],[1621,0],[1081,0],[1621,0]],[[23768,44215],[0,-1596],[0,-1966],[0,-1965],[0,-2014],[0,-1402],[0,-1406],[0,-1814],[0,-1216],[-3,-1525],[220,-285],[62,-243],[-174,32],[0,-230],[89,-36],[82,-222],[170,-92],[253,-51],[117,-358],[282,-178],[21,214],[182,-95],[211,-405],[65,-334],[103,56],[111,-179],[124,-357],[-50,-120],[120,-325],[38,-306],[168,75],[79,211],[114,-143],[153,-52],[18,-178],[-91,-124],[76,-190],[185,-171],[244,12],[117,-206],[253,-322],[126,-473],[94,-31],[115,218],[76,28],[123,-397],[103,-92],[109,-270],[106,-107],[-6,-171],[76,-182],[232,-203],[12,-187],[129,-131],[100,-8],[220,-278],[106,-428],[208,-147],[36,-231],[141,-210],[102,99],[109,-63],[165,-374],[91,-131],[61,-572],[85,-325],[-44,-219],[68,-270],[-68,-357],[-61,-123],[196,-100],[-32,-293],[138,-203],[106,-314],[173,-43],[88,-223],[112,-107],[-18,-135]],[[30484,17656],[-1263,0],[-983,0],[-1119,0],[-1381,0],[-1492,0],[-1242,0],[-995,0],[-1357,0],[-223,218],[-97,-218],[-62,0],[-138,330],[41,226],[-79,123],[38,163],[-38,167],[-3,448],[-273,-198],[20,-195],[-94,-107],[-461,318],[-111,262],[47,246],[97,123],[-130,139],[-138,-143],[-264,-36],[-370,453],[144,671],[-115,219],[-290,43],[-112,-31],[-76,262],[-297,147],[-144,-100],[-211,-43],[-150,214],[-132,-123],[-326,60],[70,178],[-47,163],[229,56],[91,-32],[270,91],[103,219],[109,437],[-73,266],[-62,-20],[64,-377],[-117,-88],[38,-175],[-111,-194],[-274,-8],[-158,83],[-82,119],[20,131],[-235,-4],[-114,-83],[-100,219],[-112,-72],[-208,159],[-185,-294],[-124,107],[-334,187],[-118,147],[32,278],[-149,-56],[-159,171],[-15,159],[309,202],[-185,48],[17,147],[127,179],[35,282],[61,95],[171,67],[308,32],[379,-59],[12,51],[-450,92],[-328,-72],[-224,91],[44,-186],[-88,-377],[-120,-44],[-82,345],[-83,171],[-20,342],[50,250],[185,75],[53,322],[182,163],[135,186],[85,20],[141,286],[-76,242],[-256,-107],[-50,-127],[-346,-246],[-244,218],[-85,401],[-162,-452],[-106,147],[115,178],[-18,239],[133,464],[-15,223],[-156,-108],[-176,60],[-53,107],[-76,644],[-173,150],[-200,263],[-6,341],[-73,91],[193,167],[-41,246],[27,298],[105,100],[-61,238],[-127,-219],[-284,-262],[-133,-214],[-14,-445],[-106,-123],[-584,874],[-285,452],[-9,513],[-188,119],[53,123],[-47,238],[-212,-24],[33,528],[97,76],[-30,159],[191,155],[76,381],[130,210],[73,310],[118,207],[199,460],[-114,243],[-71,-259],[12,-222],[-267,-667],[-115,198],[100,259],[135,194],[-76,465],[-82,294],[20,234],[-56,123],[124,417],[3,226],[-62,199],[-376,91],[-103,266],[-170,72],[-217,266],[-297,83],[-549,453],[-241,-16],[-100,385],[18,112],[-268,154],[86,409],[-350,128],[123,281],[-146,358],[-215,369],[-414,922],[-179,309],[-103,334],[-235,349],[-100,413],[-185,203],[-276,457],[-399,258],[-200,317],[3,187],[-182,171],[-167,282],[-256,75],[-185,358],[88,301],[-276,374],[-249,226],[-500,-302],[-379,-111],[-20,-326],[-217,-59],[3,-421],[-168,-322],[-258,-12],[-500,-389],[-158,-194],[-212,802],[-1119,1243],[-105,317],[-417,274]],[[14807,23760],[53,-159],[-82,-84],[-161,155],[-80,342],[168,230],[100,-306],[2,-178]],[[14558,24582],[-94,218],[70,195],[182,75],[53,-190],[-94,-346],[-117,48]],[[11324,25181],[-132,-266],[0,350],[132,-84]],[[14775,25312],[9,-182],[-179,16],[70,166],[100,0]],[[14435,24963],[-56,203],[67,198],[97,-4],[-3,-222],[-105,-175]],[[14458,25424],[-85,-195],[-250,64],[85,194],[250,-63]],[[14605,25491],[47,151],[108,-16],[59,-230],[-185,-44],[-29,139]],[[15574,25940],[38,-183],[-79,-147],[-200,-127],[-214,-238],[-62,-322],[-214,-123],[9,314],[67,270],[350,282],[108,195],[197,79]],[[14015,26007],[-33,-397],[-91,80],[-29,349],[153,-32]],[[14079,26389],[103,-298],[-71,-127],[-229,190],[12,199],[185,36]],[[10681,26667],[109,16],[3,-235],[-206,68],[94,151]],[[14364,25948],[-76,-123],[-65,357],[-15,516],[147,-127],[41,-433],[-32,-190]],[[13662,26393],[6,-207],[-153,-8],[-141,246],[-120,326],[38,159],[176,-203],[194,-313]],[[11192,25328],[-70,-115],[-132,52],[-100,135],[-341,695],[-226,206],[-65,183],[-220,250],[-235,453],[220,20],[-97,182],[-308,32],[-41,270],[191,-47],[346,71],[183,191],[126,27],[12,-206],[91,-52],[102,-214],[-8,-330],[-86,-103],[-179,-24],[24,-341],[117,-60],[77,-381],[279,-215],[94,-377],[214,44],[65,-99],[-33,-247]],[[13806,26603],[-141,-67],[-147,162],[-135,473],[-15,210],[112,155],[15,521],[196,-24],[227,-286],[79,-28],[109,-345],[5,-421],[-82,-568],[-167,-16],[6,341],[111,393],[-111,12],[-62,-512]],[[13251,27584],[-32,274],[155,222],[59,-464],[-182,-32]],[[13683,28307],[-18,-191],[-214,-20],[-36,108],[144,405],[124,-302]],[[12743,27894],[-6,-159],[-217,-4],[-165,345],[-155,179],[-103,16],[-135,298],[-109,107],[38,191],[265,-143],[326,-294],[261,-536]],[[13395,28255],[9,584],[111,135],[247,79],[-47,-337],[-109,20],[-129,-183],[-82,-298]],[[11991,28982],[132,167],[173,-127],[53,-322],[-273,131],[-85,151]],[[12167,29478],[62,60],[188,-167],[226,-270],[176,-345],[385,-560],[-141,-159],[-26,-171],[-94,-20],[-106,226],[-156,167],[-23,195],[-129,337],[-112,-43],[-76,306],[-118,51],[-56,393]],[[11947,29693],[-112,-171],[-146,191],[320,254],[182,-294],[-138,-326],[-115,147],[9,199]],[[9533,27826],[9,68],[-209,194],[50,127],[206,-11],[14,115],[-464,266],[42,234],[-285,671],[120,354],[-56,147],[53,143],[232,-88],[209,32],[85,-56],[35,-186],[156,143],[123,31],[167,-289],[39,-271],[-141,-250],[-153,-35],[-170,-143],[161,-135],[253,127],[-38,178],[129,286],[-59,342],[244,16],[232,186],[20,-305],[-202,-505],[-71,-393],[-9,-234],[39,-397],[-115,-251],[-244,-55],[-199,-199],[-203,143]],[[11612,31198],[-38,-131],[-211,-231],[52,421],[197,-59]],[[11965,31643],[-36,103],[235,333],[118,-4],[-124,-301],[-193,-131]],[[19956,17128],[-144,-143],[-85,282],[111,-8],[118,-131]],[[16884,18430],[-6,-143],[-153,56],[-9,242],[112,44],[56,-199]],[[18490,19475],[115,16],[244,-119],[170,-441],[-206,194],[-105,167],[-218,183]],[[16232,19574],[47,-381],[-71,-91],[-144,83],[-117,155],[15,218],[-80,127],[227,119],[88,-63],[35,-167]],[[18079,20432],[112,63],[41,-242],[-129,8],[-24,171]],[[17885,20186],[-141,246],[-29,238],[67,119],[124,-151],[-50,-234],[29,-218]],[[18232,20551],[-82,167],[173,20],[-6,-143],[70,-104],[-99,-111],[-56,171]],[[18332,20638],[129,147],[29,-238],[-158,91]],[[17730,20813],[52,330],[139,-127],[135,-401],[-100,31],[-85,207],[-141,-40]],[[16279,21707],[249,329],[141,52],[100,-215],[-117,-206],[-191,-24],[-182,64]],[[20009,16457],[38,-175],[-171,52],[-132,-282],[-111,-36],[-144,119],[-124,8],[-563,365],[-315,135],[-170,179],[-314,199],[-103,170],[203,243],[44,210],[-203,24],[-85,-103],[-165,75],[-138,-163],[-149,119],[-130,203],[41,310],[-155,222],[-135,-95],[-135,361],[23,151],[-235,-111],[-161,52],[-118,-104],[-70,88],[9,417],[126,119],[-33,182],[-140,48],[-50,401],[-133,36],[-202,-119],[-223,8],[-97,190],[73,302],[-226,-91],[-141,234],[-144,-28],[-41,143],[-150,-226],[-129,143],[138,214],[-115,266],[-102,0],[58,298],[368,48],[-3,175],[-276,-163],[-253,-92],[-176,187],[-118,191],[-97,413],[373,218],[221,-8],[425,-226],[115,-159],[232,-210],[490,-183],[347,-171],[109,32],[279,-80],[182,-143],[243,-95],[171,36],[173,-139],[100,-453],[144,-258],[50,-226],[335,-481],[-33,-250],[132,-361],[80,-16],[202,-215],[209,-47],[226,-112],[100,-154],[132,-44],[26,-207],[136,-59],[61,-183],[-23,-135],[208,-361],[62,-485],[170,-39],[77,-298]],[[23768,44215],[708,0],[1412,0],[708,0],[1415,0],[1413,0],[1416,0],[707,0],[1413,0],[708,0],[1415,0]],[[35083,44215],[0,-1660],[0,-1656],[0,-1659],[0,-2490],[0,-1656],[0,-2490],[0,-1660],[0,-1660],[0,-1656],[0,-1660],[0,-2490],[0,-2486],[0,-1660],[0,-1676]],[[35083,17656],[-640,0],[-993,0],[-995,0],[-746,0],[-1225,0]],[[35083,44215],[1131,0],[1698,0],[1130,0],[1131,0],[1131,0],[1697,0],[1131,0]],[[44132,44215],[0,-2466],[0,-1370],[0,-1370],[0,-1370],[0,-1759],[0,-1759],[70,-1553],[68,-1549],[67,-1553],[68,-1548],[91,-2069],[67,-1553],[44,-1033],[92,-2069],[91,-2069],[64,-1469]],[[44854,17656],[-711,0],[-992,0],[-1334,0],[-657,0],[-996,0],[-1242,0],[-746,0],[-996,0],[-995,0],[-1102,0]],[[44132,44215],[1527,0],[1530,0],[1016,0],[1019,0],[1019,0],[1019,0],[1016,0]],[[52278,44215],[30,-536],[-53,-305],[117,-687],[-58,-163],[-41,-679],[129,-84],[0,-159],[235,-234],[97,-258],[287,139],[300,-32],[185,84],[596,-80],[65,-183],[6,-373],[188,-647],[173,-445],[59,-508],[340,-1005],[36,-226],[-36,-318],[-97,-286],[-141,-250],[438,155],[65,-107],[293,95],[224,131],[831,361],[505,-83],[857,-612],[491,-115],[382,-202],[123,19]],[[58904,36622],[-605,-786],[-960,-1290],[-793,-1085],[-740,-1044],[-693,-1009],[-726,-1092],[-772,-1187],[-135,-187],[-799,-1012],[-799,-1037],[0,-1080],[0,-1898],[-3,-1676],[0,-1454],[0,-1255],[-6,-965]],[[51873,18565],[0,-865],[-17,-44],[-746,0],[-1575,0],[-913,0],[-746,0],[-1245,0],[-996,0],[-781,0]],[[58904,36622],[250,-238],[94,-147],[167,-107],[208,-266],[376,-230],[403,-838],[152,-191],[194,-131],[411,-131],[89,8],[663,-449],[435,-155],[252,-182],[274,-382],[326,-162],[29,-139],[203,-20],[378,-119],[435,123],[168,-44],[170,115],[182,-107],[302,-95],[297,-44],[226,36],[135,-44],[118,-179],[164,60],[241,-72],[203,-230],[29,-385],[59,-127],[-129,-620],[-121,-464],[-12,-378],[68,-186],[147,-207],[132,-611],[-106,-501],[80,-429],[35,-361],[-135,-135],[-59,-266],[-15,-346],[218,-198],[138,-211],[79,-286],[114,-111],[121,-242],[167,-187],[-20,-337],[-188,-179],[264,-8],[138,-266],[264,-206],[203,-100],[65,-222],[161,-135],[209,-342],[85,-424],[88,-143],[12,-290],[-174,-100],[-164,-270],[44,-99],[185,306],[162,127],[311,-111],[411,-417],[44,-139],[212,-294]],[[69571,22362],[0,-1700],[0,-2176],[0,-2176],[2,-2097],[-70,-278],[153,-425],[14,-453],[159,-381],[144,-254],[76,-290],[94,-159],[56,-254],[238,-318],[67,-155],[423,-170],[238,-8],[511,-191],[215,-167],[202,-278],[9,-127],[165,-258],[196,-123],[38,191],[150,20],[47,-326],[56,-80],[68,-305],[240,-143],[103,-119],[135,115],[197,-12],[191,-282],[120,-12],[77,147],[393,214],[85,80],[262,47],[132,100],[182,-12],[150,55],[282,-198],[-94,-620],[147,-230]],[[75424,8554],[-165,-183],[-38,-131],[-211,-222]],[[75010,8018],[-177,28],[-293,-207],[-162,-147],[-484,-683],[-194,-417],[-223,-147],[-127,-167],[-29,-146],[-126,-80],[-156,-242],[-388,-1060],[-50,-48],[-784,8],[-1304,8],[-552,-401],[138,-493],[-12,-397],[36,-202],[132,-155],[-3,-143],[-115,-211],[-843,-639],[-546,-413],[-308,-103],[-858,-278],[-810,-802],[-488,-481],[-323,8],[-405,405],[-71,218],[-32,263],[35,468],[100,219],[270,210],[177,338],[79,31],[73,183],[30,413],[79,397],[3,163],[291,1203],[8,151],[-164,1521],[-162,1521],[-111,1017],[-62,190],[-693,648],[-320,317],[-173,4],[194,528],[-168,298],[-255,8],[-124,-143],[-158,342],[-21,353],[-59,207],[53,222],[-97,48],[-123,-107],[-132,23],[-79,-131],[-109,44],[-209,381],[-120,640],[-711,639],[-1277,1112],[-875,739],[-1061,889],[-67,12],[-267,-115],[-790,-655],[-180,27],[-343,44],[-112,-67],[-88,59],[-106,219],[-120,35],[-399,-75],[-288,40],[-62,286],[-91,19],[-167,-139],[-235,-254],[-171,-67],[-167,28],[-132,119],[-82,214],[-218,99],[-97,259],[-126,35],[-167,-95],[14,-147],[-108,-40],[-159,513],[-203,0],[65,218],[-267,107],[-109,92],[-314,31],[-220,-79],[-44,-135],[-300,-64],[-135,290],[-402,40],[-91,147],[-191,-32],[-127,64],[-135,194],[0,258],[-111,608],[-21,306],[-173,155],[-203,31]],[[69571,22414],[-171,226],[-88,329],[79,286],[-26,175],[206,195]],[[69571,23625],[0,-1211]],[[75010,8018],[270,163],[85,190],[288,215],[108,-4],[180,250],[229,230],[146,-43],[62,119],[-20,186],[70,163],[53,346],[173,250],[135,492],[112,36],[123,171],[229,79],[68,171],[197,270],[252,147],[94,254],[206,107],[185,235],[147,-88],[467,274],[164,231],[208,51],[80,100],[417,258],[164,254],[221,480],[135,131],[50,243],[258,369],[285,536],[3,107],[117,250],[135,92],[306,488],[282,338],[91,8],[229,230],[67,139],[124,64],[167,210],[276,143],[470,389],[138,24],[347,219],[561,385],[108,24],[347,178],[382,44],[358,99],[681,-115],[397,-230],[246,-270],[197,-282],[-91,-155],[-258,127],[285,-377],[132,-235],[-109,-23],[-23,-139],[91,-100],[-147,-246],[-244,-75],[-182,-155],[-85,-290],[-147,-64],[-88,-123],[-338,-274],[-164,-24],[-83,119],[-317,155],[-191,191],[-161,-234],[-197,43],[-279,-20],[-29,-119],[-341,-147]],[[83914,15253],[-109,-71],[-26,-179],[-123,80],[-147,-100],[-135,24],[-33,-111],[-290,214],[-6,143],[-567,0],[0,-166],[-300,0],[-11,-894],[-188,-294],[-238,-178],[-338,-171]],[[81403,13550],[9,306],[-188,99],[-53,-48],[-837,-1775],[-76,-687],[-130,-147],[-102,-353],[41,-171],[-77,-167],[-5,-175],[61,-186],[-176,-310],[12,-151],[-206,-191],[-111,-190],[-42,-246],[-123,-191],[-3,-199],[-132,52],[-150,-63],[-64,-128],[-171,96],[-117,-123],[-124,-548],[-901,-8],[-1187,-16],[-731,-8],[-810,-4]],[[69571,22362],[0,52]],[[69571,23625],[-45,214],[103,60],[138,198],[115,-75],[-24,-250],[156,35],[138,-210],[141,-127],[100,175],[0,329],[-153,119],[-97,326],[197,111],[-59,254],[165,72],[41,190],[135,124],[67,222],[-32,218],[68,159],[-24,302],[-126,123],[-173,310],[32,298],[-29,214],[-121,119],[-100,358],[85,317],[-47,437],[-52,171],[-141,135],[205,111],[-138,159],[41,175],[-50,155],[56,214],[-132,632],[-94,135],[-161,83],[26,119],[-147,151],[-88,540],[12,103],[-165,282],[218,151],[584,230],[106,136],[543,289],[270,270],[423,322],[165,250],[449,521],[141,198],[-56,83],[135,179],[435,699],[129,536],[35,346],[-14,377],[26,457],[-62,595],[30,135],[-65,445],[-244,826],[-2,151],[-227,457],[-82,230],[-208,302],[-65,20],[-167,286],[-150,143],[-488,282],[21,83],[-285,230],[-53,131],[-267,88],[85,266],[-97,544],[288,36],[23,226],[174,131],[29,246],[323,203],[56,278],[-126,182],[164,131],[24,199],[-94,147],[381,-12],[59,282],[135,12],[-91,246],[100,302],[-70,83],[-238,-19],[-53,150],[150,247],[-106,123],[-79,226],[-124,155],[171,187],[-271,337],[253,278],[-285,84],[-67,103],[-315,-103],[36,182],[399,528],[68,350],[-39,536],[203,24],[-115,365],[-120,183],[-141,4],[-164,468],[-91,676],[11,313],[147,227],[100,39],[505,437],[364,-99],[226,-8],[238,-80],[185,-127],[711,-250],[156,-99],[379,-44],[188,52],[364,-115],[243,-211],[97,171],[326,0],[156,171],[159,12],[179,115],[123,214],[229,40],[112,-210],[217,-60],[191,-139],[15,-123],[152,-179],[185,-107],[165,20],[150,-119],[17,-382],[423,-150],[267,-493],[44,83],[344,-146],[118,-183],[-162,-87],[-185,-278],[208,-116],[-29,-238],[341,-306],[185,44],[332,-226],[199,27],[180,-127],[317,163],[241,-99],[52,-485],[168,-119],[108,231],[147,131],[44,254],[130,36],[170,-477],[6,-199],[-382,-278],[35,-309],[-158,-72],[88,-155],[-3,-313],[170,-259],[-9,-297],[-329,-235],[-446,52],[147,-151],[138,-32],[311,52],[50,-179],[153,-51],[-77,-417],[156,-64],[-56,-179],[-138,-103],[-76,-167],[97,-83],[53,-361],[205,131],[215,-88],[11,-234],[-320,-103],[85,-699],[-129,-215],[-132,-4],[-41,151],[-355,-131],[-118,-139],[238,-127],[106,-238],[208,234],[47,143],[135,76],[124,186],[138,72],[314,8],[217,47],[165,-59],[317,-274],[12,-389],[88,-132],[76,-297],[-123,-469],[70,-32],[132,691],[279,-59],[-38,-211],[279,28],[-58,-218],[91,-195],[208,79],[344,231],[108,32],[133,254],[375,-4],[-14,230],[85,282],[94,32],[88,310],[311,-302],[9,127],[144,333],[135,64],[250,314],[-85,206],[-30,262],[226,-8],[-41,243],[150,4],[47,123],[-26,278],[-133,480],[144,203],[317,202],[24,262],[106,175],[82,274],[-6,155],[123,135],[0,123],[359,-147]],[[86531,44950],[-356,-95],[109,-219],[170,-135],[-246,-190],[-21,-183],[194,-56],[-9,-139],[-161,-154],[44,-290],[-124,-84],[-11,-238],[252,-278],[291,191],[64,-108],[-152,-115],[-53,-365],[56,-433],[141,-79],[-56,-219],[-273,115],[-68,84],[-167,-171],[47,-199],[135,72],[153,-131],[290,-8],[56,-246],[153,-72],[161,171],[159,16],[132,119],[150,-83],[123,-207],[-56,-87],[-558,-100],[-82,-214],[80,-159],[158,96],[82,-195],[-185,-123],[-211,-231],[-85,-289],[-168,-76],[-14,-298],[205,-47],[9,-163],[135,-413],[209,-56],[20,-127],[247,-135],[41,-83],[-144,-183],[0,-246],[65,-187],[-147,-143],[106,-238],[-59,-302],[-85,-79],[-50,-318],[50,-111],[-159,-131],[-126,-354],[205,-349],[-6,-151],[-182,-258],[18,-274],[170,-24],[-91,-393],[165,-12],[197,-91],[143,-131],[-299,-191],[88,-290],[79,-99],[-64,-235],[91,-75],[-80,-445],[394,-83],[-185,-139],[-118,-187],[124,-103],[-59,-377],[29,-223],[-32,-182],[-238,91],[-11,-270],[-89,-115],[197,-322],[-191,-111],[-243,71],[-77,191],[-314,203],[-132,-163],[-218,27],[9,187],[-205,274],[-182,68],[-135,-255],[-294,-87],[41,-171],[-288,-51],[-135,222],[-35,195],[-238,55],[-220,191],[-379,619],[-126,-83],[-71,-282],[115,-290],[-77,-107],[138,-326],[-147,-170],[-226,158],[-88,207],[-320,294],[26,143],[-182,-4],[15,-163],[179,-389],[203,-250],[-79,-282],[-121,-108],[-9,-206],[-258,266],[-12,-258],[-273,-151],[123,-572],[-114,-83],[-77,-290],[221,-266],[103,-207],[-59,-175],[185,-174],[100,-306],[332,-127],[158,-238],[-135,-151],[53,-139],[-24,-457],[-208,115],[-150,8],[-97,-123],[94,-572],[297,-226],[197,-274],[123,107],[-12,143],[126,75],[36,338],[85,8],[141,234],[70,-83],[85,-373],[-129,-8],[80,-259],[-86,-357],[65,-556],[-147,-55],[121,-465],[123,32],[-41,313],[252,-282],[-11,-190],[108,-76],[191,119],[106,-51],[53,-151],[252,0],[115,-179],[-38,-127],[132,-75],[103,-223],[173,-31],[85,-92],[112,123],[191,-123],[179,-317],[211,182],[74,175],[-62,191],[-32,357],[144,32],[-18,325],[109,40],[-65,219],[6,198],[88,199],[-71,448],[30,247],[64,111],[570,155],[220,-211],[36,-111],[-491,-75],[-161,-100],[-144,-254],[123,-290],[226,-43],[68,-259],[50,-464],[-80,-88],[1069,0],[1263,0],[1378,0],[1315,0],[1404,0],[1084,0],[0,-1401]],[[94939,23510],[-103,0],[-67,214],[-212,-52],[-70,-79],[-194,-44],[-88,68],[-259,-322],[-291,-127],[-249,95],[-229,-254],[61,-67],[-129,-187],[-261,-155],[-50,-607],[-150,27],[-88,-166],[-235,-159],[-194,-441],[-249,-91],[-94,-167],[38,-155],[-241,-143],[-100,83],[-158,-99],[-168,32],[-114,-84],[-206,0],[-126,76],[-109,-131],[-109,59],[-158,-103],[-165,36],[-458,-238],[-144,286],[-417,55],[-129,111],[-120,-51],[-473,67],[-367,-12],[-85,-119],[-218,-44],[-76,108],[-106,-32],[-132,123],[-302,4],[-177,-95],[-117,8],[-253,127],[-179,-96],[-294,-19],[-417,115],[-543,-159],[-217,87],[-132,-163],[-130,-71],[-223,12],[-61,151],[-147,-115],[-24,-143],[-117,-52],[-88,-199],[-232,-158],[-109,-386],[-97,8],[-59,-222],[15,-147],[-68,-159],[-17,-369],[-147,-290],[-408,-60],[-88,-83],[-147,36],[-203,-56],[-64,-353],[-165,-64],[-53,99],[-296,-297],[-12,-239],[-159,-16],[-232,-309],[-91,-64],[-85,-377],[-94,-20],[-68,-306],[-179,-409],[-235,-321],[-161,-12],[-212,293],[-182,-11],[-252,242],[-77,-28],[-352,155],[3,-175],[302,4],[215,-119],[141,-151],[153,20],[117,-76],[62,-154],[152,-84],[-67,-321],[-156,-521],[-302,-429],[-41,-242],[-297,-159],[-112,-436],[-135,-318],[-273,-234],[-264,-390],[-47,-147],[-138,-143],[-124,-8],[-261,-146],[-211,39],[-197,-234],[-197,-99],[-32,-199],[-232,-163],[-159,-246],[-273,-87],[-170,-131],[-30,-243],[-155,-83],[-150,-484],[-232,-354],[-206,-48],[-88,-75],[-173,-342],[-191,-190],[132,-246],[-217,-84],[-53,-115],[-167,-123]],[[81359,42119],[41,-88],[-188,-274],[-138,385],[285,-23]],[[75979,9344],[111,250],[194,116],[-164,-346],[-141,-20]],[[76384,9733],[-50,-548],[-88,-95],[-197,60],[15,135],[129,123],[53,151],[138,174]],[[79388,12926],[-20,-210],[-191,-199],[-62,104],[273,305]],[[86772,19582],[-121,40],[-97,147],[68,99],[358,95],[214,-127],[644,-163],[467,-214],[79,-103],[405,-223],[168,-278],[138,-59],[67,-123],[364,-143],[253,-493],[-170,-198],[-80,35],[-417,-39],[-291,170],[-199,24],[-464,207],[-209,194],[-349,183],[-62,298],[-141,214],[-182,175],[-443,282]],[[83106,40383],[30,-278],[-118,-12],[-3,266],[91,24]],[[83914,15253],[126,-27],[391,214],[141,-167],[329,-198],[173,-40],[88,-143],[59,-298],[67,-131],[171,32],[129,191],[176,139],[206,71],[41,-143],[185,60],[161,-223],[-82,-87],[-153,-302],[27,-183],[-103,-460],[-94,-48],[-91,-175],[-235,-246],[573,-28],[20,-250],[-111,-238],[44,-250],[173,-231],[-9,-270],[121,-377],[-15,-206],[126,-227],[297,-12],[114,-167],[147,48],[238,-111],[-106,-199],[-179,12],[24,-170]],[[87083,10413],[-132,-68],[-130,-310]],[[86821,10035],[-82,131],[-82,-238],[-188,83],[-103,-178],[-91,-298],[-144,16],[-126,-183],[-361,-238],[-262,-314],[-267,-163],[-144,-127],[-147,183],[-102,-16],[-68,-242],[-270,-231],[-71,175],[-287,-218],[-185,83],[-42,219],[-85,-52],[-76,-171],[-100,195],[-76,59],[-129,-91],[-133,282],[50,254],[-70,254],[76,100],[-29,186],[-238,64],[-159,151],[33,309],[-21,965],[-18,1950],[-176,389],[-264,346],[-118,63],[-96,-158],[-174,-4],[-120,-131],[-132,-20],[-165,-115],[-150,143],[-26,103]],[[83893,7363],[80,174],[79,-329],[-132,-32],[-27,187]],[[86560,14995],[-100,-302],[-117,135],[44,132],[173,35]],[[2200,44215],[-138,243],[123,480],[-32,115],[-596,-31],[-112,-60],[-214,-246],[-112,-48],[-461,254],[-123,-178],[-506,186],[-26,60],[0,1056],[0,2109],[0,2466],[0,1755],[0,1410],[0,1406],[0,2462],[-3,2462],[0,1410],[0,1406],[0,2108],[0,2463],[408,-84],[476,-40],[347,52],[246,-111],[629,-147],[214,-258],[212,-115],[146,-183],[367,-131],[247,-214],[1022,-465],[226,0],[373,-175],[247,84]],[[5160,65716],[0,-914],[0,-1946],[44,-178],[244,-211],[-12,-373],[120,-270],[-152,-266],[9,-294],[67,-147],[1712,0],[699,-44],[303,-453],[-80,-174],[59,-167],[206,-234],[-179,-294],[-68,-310],[264,-40],[21,-337],[-53,-461],[214,-44],[335,191],[235,4],[-82,-246],[211,12],[159,214],[118,32],[243,-215],[-188,-91],[-64,-143],[226,-175],[170,-270],[41,-182],[-105,-96],[-53,-250],[-197,-167],[-65,-210],[-179,-135],[212,-171],[-33,-131],[226,-83],[-179,-302],[12,-191],[-76,-214],[282,-16],[302,-175],[232,-341],[188,-84],[-141,-226],[212,-139],[217,111],[26,115],[294,-95],[159,-238],[73,-421],[188,-238],[38,-191],[220,-91],[206,-227],[300,-143],[11,-369],[130,-8],[170,-357],[-109,-251],[-238,-139],[270,-321],[53,-219],[262,-47],[-171,-532],[274,-421],[29,-167],[338,-242],[-121,-207],[100,-107],[-106,-135],[203,-497],[153,48],[264,-183],[88,147],[156,0],[170,-194],[223,-469],[106,32],[150,-413],[496,-429],[250,28],[191,-139],[79,-207],[76,-460],[-67,-346],[150,16],[55,-651],[256,-76],[170,155],[135,-91],[335,91],[303,167],[126,-119],[443,-111],[185,155],[329,27],[47,235],[294,-52],[100,-365],[-138,-167],[26,-191],[150,-206],[32,-183],[226,-44],[24,-313],[244,-560],[182,-239]],[[2141,67511],[276,-147],[-344,-123],[-99,107],[167,163]],[[44132,44215],[0,985],[0,1958],[-3,2232],[0,2502],[0,1719],[6,806],[-2235,390],[-1375,230],[-1377,234],[-1175,195],[-1730,278],[-273,83],[-411,290],[-1192,1331],[-82,43],[-1014,-4],[-1022,4],[-772,505],[-1389,905],[-1131,739],[-1336,873],[-1333,870],[-1125,735],[-1122,734],[-999,652],[-44,55],[0,2137],[0,1580]],[[22998,67276],[453,-357],[320,-147],[238,0],[1268,-294],[215,-234],[493,-250],[758,-179],[232,-139],[229,47],[854,-198],[138,131],[-255,151],[170,87],[649,-20],[426,-194],[253,-68],[279,-270],[246,-91],[168,-266],[197,-84],[164,-317],[170,-100],[-170,-230],[-317,-163],[-129,80],[-438,-16],[-67,-270],[-321,-24],[-79,-238],[135,-84],[-455,-178],[282,-147],[188,-167],[370,32],[443,-183],[256,4],[355,-111],[614,36],[311,-92],[702,20],[106,155],[159,-44],[346,88],[379,-104],[12,116],[276,139],[308,-143],[303,226],[376,210],[508,44],[-27,-274],[182,48],[153,-151],[-21,-219],[200,-75],[100,135],[426,-56],[164,-456],[-105,-108],[179,-178],[135,99],[9,334],[155,79],[177,-465],[511,-365],[114,-274],[15,-278],[-297,64],[-85,-128],[117,-250],[-26,-151],[159,-67],[185,-203],[149,-309],[479,-628],[85,44],[-411,520],[-106,274],[-114,727],[311,-215],[270,397],[-320,310],[-147,385],[83,310],[-459,465],[56,389],[317,222],[-290,143],[44,211],[508,-123],[570,202],[126,199],[361,91],[247,338],[176,-48],[170,147],[253,-16],[56,163],[-206,365],[-235,-115],[-490,-159],[-59,-254],[97,-75],[-132,-199],[-135,183],[-323,-28],[-138,-171],[-811,80],[-47,-155],[179,-151],[-294,-84],[-393,-43],[-135,79],[61,199],[-466,12],[249,301],[215,390],[141,147],[537,75],[581,115],[558,282],[597,215],[85,91],[505,-191],[317,-345],[-79,-175],[147,-286],[-141,-194],[191,-72],[50,-159],[255,-206],[97,127],[255,-175],[206,-36],[-82,-230],[217,-254],[188,55],[191,-79],[305,-4],[397,266],[214,-51],[-29,-227],[320,-218],[153,0],[208,-270],[353,-80],[238,-139],[126,123],[214,24],[129,-167],[335,-87],[94,131],[220,84],[335,-48],[270,234],[623,-4],[97,-67],[355,24],[388,-80],[194,-171],[382,-27],[628,242],[-414,353],[-18,246],[250,-35],[317,-318],[171,-369],[170,-135],[323,-147],[73,-100],[599,187],[-170,131],[103,107],[-118,298],[-117,-63],[-355,321],[-259,-99],[-341,-222],[-240,294],[-74,174],[150,235],[-191,115],[-67,302],[129,87],[270,-167],[109,143],[343,103],[-246,215],[173,111],[220,-91],[264,-4],[191,-88],[282,-286],[97,-258],[267,103],[227,-162],[-347,-354],[264,-75],[41,182],[144,131],[441,195],[-82,-254],[-6,-262],[-147,-620],[53,-194],[-335,-366],[159,-262],[243,-59],[-129,-227],[170,-230],[385,361],[223,-47],[-53,-131],[-258,-262],[329,63],[200,-147],[100,250],[-162,521],[85,79],[-158,310],[-262,175],[171,234],[-42,218],[180,290],[214,123],[420,-95],[590,516],[147,60],[9,250],[285,246],[458,215],[-209,115],[174,603],[-65,243],[-297,131],[-167,-243],[-73,-381],[-344,-83],[-253,79],[97,322],[232,330],[130,23],[108,235],[-214,55],[97,433],[241,72],[243,-131],[-79,-151],[200,-56],[305,318],[-164,47],[117,259],[-94,111],[-355,-108],[-65,-123],[-443,44],[-226,298],[-44,155],[-356,-167],[-605,278],[-273,234],[-367,8],[-156,191],[3,218],[-164,32],[-262,306],[-96,333],[11,195],[344,560],[76,187],[-235,154],[-246,330],[146,489],[-85,238],[118,107],[29,226],[250,294],[255,68],[370,-298],[212,167],[-88,151],[97,147],[-388,63],[-156,103],[112,179],[399,230],[215,-4],[88,552],[766,127],[162,-135],[-153,-421],[549,44],[385,-206],[-120,-119],[211,-183],[473,-266],[56,-179],[199,-91],[150,-501],[-56,-595],[100,-223],[232,-294],[411,-154],[294,-723],[303,75],[41,-310],[161,-198],[-511,-56],[-305,219],[-185,-100],[-50,-178],[411,-24],[191,-155],[-364,-357],[-320,-143],[-365,-278],[450,-8],[417,-338],[340,-107],[253,171],[173,202],[197,-67],[162,-306],[514,56],[246,-108],[-44,-107],[-364,-198],[-9,-263],[-258,-91],[411,-318],[50,-222],[202,-262],[-41,-425],[-91,-206],[85,-80],[-32,-242],[-97,-123],[276,-167],[100,-314],[306,334],[-3,131],[188,246],[-124,191],[291,488],[-65,238],[86,310],[143,115],[241,378],[150,71],[291,-107],[241,-361],[543,-370],[255,-294],[118,-349],[-32,-135],[132,-338],[44,-333],[-173,-314],[-276,167],[-247,16],[141,-362],[-103,-365],[141,-481],[109,-230],[196,-151],[362,-445],[199,-170],[33,-219],[144,-238],[185,151],[229,47],[0,271],[205,123],[106,-108],[208,12],[15,576],[-47,167],[159,298],[296,357],[256,231],[15,313],[193,517],[-17,579],[73,215],[502,-16],[300,103],[-209,171],[253,254],[-35,191],[258,-20],[-50,186],[-511,112],[-144,162],[-211,632],[82,258],[-94,203],[238,333],[344,36],[378,115],[403,12],[349,-230],[315,-127],[449,-72],[117,68],[767,-88],[-50,-250],[117,-183],[-766,104],[1031,-282],[50,-445],[279,103],[270,-24],[470,-194],[-30,-211],[-214,-234],[-150,-24],[-20,-206],[138,-104],[243,-8],[150,-214],[-38,-326],[-411,-302],[-438,-190],[-53,155],[-229,-96],[-367,88],[80,-199],[170,-135],[0,-210],[97,-111],[-35,-187],[232,-83],[-65,-278],[88,-235],[505,-512],[212,-143],[246,-405],[-129,-425],[-73,-457],[-124,-238],[-484,-48],[-262,-500],[-211,-99],[-297,-397],[-426,-32],[-17,-131],[-388,-350],[-226,52],[6,131],[-129,238],[-191,48],[-188,210],[126,382],[-135,23],[-132,-210],[-150,36],[32,266],[-193,115],[47,214],[-717,-15],[-235,-116],[94,-198],[214,87],[77,175],[302,-16],[59,-270],[232,-167],[47,-186],[182,11],[-73,-222],[279,-282],[308,-671],[-317,12],[-264,290],[-218,-48],[-59,171],[-211,-76],[288,-373],[-1005,234],[-61,465],[-106,211],[-379,-120],[-437,-39],[-547,16],[-11,-163],[-180,-24],[191,-278],[315,-60],[552,-305],[-135,-155],[0,-151],[-247,-127],[-15,-107],[-235,-84],[-85,-242],[15,-171],[-94,-155],[-162,-75],[-141,-183],[-164,-48],[-150,-174],[29,-163],[-343,-175],[-617,8],[-314,171],[-138,206],[-253,227],[-38,147],[-297,143],[-140,-16],[-417,345],[-397,258],[-167,-282],[-235,147],[-291,-75],[-112,107],[-884,103],[-146,68],[-212,-68],[429,-250],[56,203],[610,-111],[647,-211],[252,-163],[276,-270],[112,-274],[238,-151],[161,-266],[479,-36],[561,-79],[420,-32],[426,20],[370,-91],[123,-231],[-41,-206],[-156,-135],[-223,-489],[-329,-579],[-185,-88],[-109,-202],[-44,-254],[-138,-143],[-26,-215],[-203,-99],[-578,-413],[-502,159],[-438,-32],[-297,203],[-132,-100],[147,-262],[-341,12],[24,-191],[141,-150],[-226,-398],[-649,-198],[-262,8],[-293,131],[-156,163],[-429,115],[-335,4],[-370,67],[-149,127],[-279,76],[-39,91],[-320,80],[-111,99],[-353,143],[-135,-99],[-191,4],[135,-270],[130,-80],[358,151],[658,-310],[114,88],[138,-175],[323,-87],[-170,-215],[-285,-139],[71,-87],[546,353],[232,95],[185,-162],[32,-155],[306,-195],[337,-75],[62,-151],[194,-107],[109,-215],[5,-361],[53,-135],[-205,-314],[-232,28],[-191,-131],[-173,-231],[-100,-31],[-608,143],[-206,-104],[-197,100],[-135,-123],[282,-306],[347,-68],[-97,-262],[-314,76],[-282,-175],[-235,-60],[20,-218],[124,-183],[-3,-143],[-212,0],[-332,-147],[-61,-119],[211,-67],[-299,-262],[-147,-231],[-182,103],[-6,-202],[226,-250],[-605,-461],[-167,-250],[170,-314],[-226,-115],[29,-103],[-264,-806],[-124,-108],[-67,-361],[-91,-143],[-32,-250],[-182,-175],[73,-198],[-109,-302],[9,-389],[-112,-255]],[[41315,64766],[71,-170],[-256,-115],[-279,142],[-182,223],[197,91],[235,-20],[214,-151]],[[44481,65378],[15,-230],[-168,-231],[-522,203],[352,393],[323,-135]],[[46164,65461],[-179,-198],[-291,123],[-12,536],[259,83],[197,-242],[26,-302]],[[46349,66137],[38,-326],[-246,123],[-12,203],[220,0]],[[45286,67098],[-150,-183],[-161,63],[-138,259],[135,99],[314,-238]],[[50296,67090],[-94,190],[552,12],[53,-179],[-56,-297],[-455,274]],[[50986,66951],[-76,147],[100,262],[332,67],[282,-230],[-36,-330],[-138,-135],[-279,334],[-185,-115]],[[51812,65600],[-253,-293],[-176,39],[-241,-67],[-85,-286],[-132,36],[-335,-350],[-256,-79],[-584,258],[-138,-88],[-455,112],[-227,210],[-261,107],[-126,-51],[-185,159],[14,206],[-302,-183],[-388,203],[50,226],[-170,64],[-238,-298],[-267,143],[-197,365],[112,191],[208,91],[341,-47],[332,154],[343,362],[-223,218],[12,278],[258,24],[44,322],[124,230],[334,238],[282,-210],[227,-76],[284,-230],[373,-445],[409,-167],[355,-274],[302,-420],[-29,-219],[126,-167],[24,-218],[311,-131],[197,151],[206,-88]],[[46000,69528],[-344,151],[-12,186],[203,128],[161,-175],[-8,-290]],[[35077,74996],[0,552]],[[35077,75548],[432,-167],[-147,-83],[426,-266],[218,-8],[358,-389],[264,-99],[50,-147],[-82,-346],[144,-381],[138,-183],[-3,-329],[258,-100],[-120,-162],[9,-203],[332,-278],[367,60],[472,468],[-417,282],[-17,262],[-165,36],[-17,262],[88,127],[-200,409],[21,242],[-303,763],[-15,393],[-161,199],[279,250],[-79,186],[123,96],[396,-64],[556,-321],[188,270],[208,8],[164,-195],[232,-95],[271,-251],[458,-83],[249,-246],[312,-481],[-141,-115],[296,-528],[-94,-107],[362,-632],[-91,-154],[226,-406],[26,-202],[147,-80],[347,-552],[-33,-218],[144,-353],[-244,-92],[42,-274],[-212,-222],[65,-111],[549,-425],[91,-274],[206,-100],[343,-345],[467,-60],[156,183],[147,-131],[8,-195],[500,-218],[517,-377],[293,95],[126,-425],[371,20],[293,83],[77,-381],[-39,-190],[100,-314],[-103,-346],[-411,36],[-117,211],[-311,-183],[-362,282],[-238,107],[-70,-135],[-320,-127],[106,-131],[-24,-302],[-311,-67],[-423,194],[-159,187],[-205,-44],[-36,-139],[532,-250],[3,-361],[555,115],[94,163],[206,55],[258,-47],[129,-155],[-335,-378],[109,-166],[217,162],[200,-162],[3,-171],[-220,-373],[-479,-100],[-156,-151],[-555,-155],[-167,100],[-250,-143],[-655,198],[-267,40],[-62,143],[-220,0],[-164,-187],[-599,80],[-150,131],[382,234],[-611,127],[-103,127],[-382,56],[-361,-64],[-235,92],[156,242],[-50,282],[-300,238],[-182,-155],[-26,-155],[-221,-31],[42,-298],[-115,-187],[-162,-59],[-187,-270],[-159,-76],[-526,-127],[-678,16],[-27,-175],[-437,-322],[-450,-107],[-314,-135],[-681,-32],[-167,-127],[-262,100],[-423,-167],[-147,79],[-158,-147],[-317,60],[-1193,-83],[-188,-112],[-167,28],[-391,-51],[159,198],[-279,135],[-138,290],[-209,214],[-17,263],[111,135],[3,218],[-147,258],[133,91],[-620,120],[-303,91],[-516,-87],[-197,71],[-182,-95],[-887,139],[-746,389],[15,266],[-324,52],[56,131]],[[27324,67495],[250,-40],[-576,619],[24,274],[1295,0],[1307,0],[2179,0],[26,-405],[256,0],[170,187],[-3,218],[1049,0],[1782,0],[-3,1676],[0,2296],[-3,1957]],[[35077,74277],[0,92],[0,67],[0,251],[0,198],[0,111]],[[77007,60466],[-65,107],[229,639],[150,88],[361,95],[179,377],[-200,135],[-76,481],[-100,258],[-167,155],[62,226],[-271,155],[-97,175],[50,218],[-102,361],[-238,247],[-247,-4],[-349,99],[-250,238],[208,235],[47,254],[-188,238],[-237,-48],[240,-337],[-299,-60],[-253,36],[-185,290],[-326,270],[-61,119],[220,131],[-21,139],[-337,-24],[85,179],[223,52],[-91,143],[-273,-179],[-171,-270],[-323,302],[-11,-211],[-124,-119],[-373,-147],[-100,-115],[-340,-187],[-341,-39],[-53,202],[159,278],[-135,119],[14,207],[244,103],[491,-119],[202,175],[215,11],[55,167],[-129,314],[-311,210],[-288,104],[-200,-28],[-267,341],[179,266],[273,-91],[53,119],[-299,60],[-291,-310],[-379,99],[-111,195],[299,0],[0,318],[-314,0],[-385,107],[-217,-91],[0,865],[-238,195],[-294,-151],[-267,36],[-311,329],[-91,250],[-224,-31],[-243,127],[-265,-80],[-196,-174],[493,-199],[179,40],[229,-322],[115,-429],[-38,-198],[-215,-92],[-614,-23],[-282,-88],[-173,254],[-420,139],[-182,-39],[-208,127],[-520,39],[-71,88],[-558,20],[188,-235],[232,-24],[470,-591],[-194,-48],[-396,282],[-338,302],[-173,-12],[-414,345],[-823,342],[33,-119],[646,-230],[417,-342],[188,-87],[-168,-171],[-302,-111],[-358,63],[-529,262],[-162,139],[-701,-155],[-459,96],[-699,47],[-290,147],[-473,104],[26,-187],[-493,-87],[-552,282],[-314,297],[-103,215],[-247,0],[-197,345],[-191,-194],[256,-84],[-35,-166],[-476,75],[-482,-187],[-202,139],[82,96],[-209,147],[-625,166],[-241,195],[-191,373],[-250,187],[-170,314],[250,182],[-373,266],[373,-39],[114,-112],[547,56],[305,-103],[56,-127],[487,-56],[232,64],[373,-32],[147,151],[-587,314],[-197,309],[-164,-139],[-620,60],[-1357,222],[-167,207],[-18,587],[203,259],[-347,365],[123,179],[3,194],[262,131],[-226,318],[147,353],[88,501],[214,123],[-23,151],[299,381],[9,393],[296,497],[212,135],[200,278],[308,250],[737,460],[1187,314],[787,20],[308,-56],[725,-47],[253,-155],[-79,-195],[-708,-373],[-511,-508],[-288,-521],[-470,-651],[21,-413],[402,-341],[82,-266],[-167,-215],[-68,-246],[59,-477],[317,-508],[185,-135],[529,-540],[352,-171],[256,-36],[114,-369],[-387,-24],[-388,-206],[-176,67],[-311,-83],[-262,-230],[-675,-191],[158,-56],[429,72],[585,345],[320,60],[329,-48],[381,12],[-117,-194],[-9,-374],[235,104],[-73,321],[29,453],[112,349],[193,100],[-208,504],[-203,-119],[-414,83],[-223,219],[21,135],[-350,321],[-311,88],[508,178],[82,378],[232,119],[294,-24],[288,262],[-271,95],[-367,28],[-194,119],[-211,413],[56,572],[123,254],[435,-67],[-15,151],[-411,36],[82,206],[491,60],[170,-84],[352,32],[-707,282],[91,218],[314,163],[937,278],[414,219],[540,174],[376,167],[884,4],[590,-52],[341,-428],[12,-525],[94,-182],[555,-183],[106,-183],[-103,-401],[205,-242],[159,-52],[56,-198],[-326,-234],[53,-592],[-362,-294],[-41,-147],[124,-230],[-303,-24],[300,-266],[411,159],[35,147],[-132,170],[490,521],[335,11],[235,-266],[297,247],[176,-127],[208,-350],[-226,-461],[259,64],[167,564],[-56,139],[279,79],[39,382],[182,194],[449,250],[426,139],[807,-31],[227,-112],[41,-139],[514,-95],[522,-40],[608,-206],[9,-99],[282,-481],[-138,-310],[937,-127],[132,-262],[-161,-357],[-326,-52],[-218,-155],[121,-190],[399,190],[426,99],[349,-27],[-428,-525],[326,116],[141,-88],[-103,-278],[244,4],[208,-274],[323,-103],[-29,290],[270,67],[-85,151],[217,115],[44,219],[144,24],[1007,-318],[185,-143],[341,-449],[-255,-246],[-115,-226],[-470,95],[-208,-68],[-156,-289],[-197,-211],[217,-115],[-196,-175],[434,80],[412,198],[302,36],[194,361],[414,187],[167,-87],[138,-342],[-223,-234],[109,-266],[432,170],[364,191],[158,-56],[-205,-293],[-27,-195],[441,286],[437,16],[118,-135],[834,-338],[73,-210],[-182,-298],[-296,-123],[-332,-40],[-517,-139],[-382,-194],[141,-68],[538,131],[566,40],[71,-151],[-320,-465],[299,-31],[132,277],[238,28],[15,374],[188,230],[393,-131],[297,-282],[338,-445],[150,-564],[-262,-32],[-452,159],[-303,-16],[-237,-158],[-141,-183],[-271,-103],[658,-310],[244,44],[637,-40],[497,-302],[111,-135],[24,-238],[-127,-123],[-223,103],[-426,40],[-367,-40],[-587,326],[132,-223],[-520,-75],[482,-131],[429,-227],[-347,-163],[-103,-325],[-302,20],[-276,-139],[111,-84],[479,-155],[-267,-143],[484,-246],[303,88],[402,-167],[276,-48],[194,-127],[-85,-127],[-414,75],[-520,-154],[291,-72],[203,119],[179,4],[340,-238],[150,-44],[-62,-333],[318,119],[255,-56],[112,-302],[208,-107],[253,-230],[56,250],[352,60],[-176,-540],[97,-8],[111,357],[268,127],[0,119],[246,88],[276,-163],[-191,-107],[-176,-215],[38,-143],[221,-24],[238,119],[358,-246],[70,-278],[171,8],[-47,-278],[138,-119],[61,-222],[-85,-123],[-387,-16],[70,-159],[323,107],[141,-99],[361,8],[176,-64],[282,290],[153,-83],[59,-199],[-94,-135],[-217,-79],[23,-231],[-135,-353],[502,198],[338,-47],[106,-107],[261,91],[-18,183],[180,95],[155,-60],[-70,-218],[255,67],[265,-246],[343,-468],[35,-179],[-188,-139],[-158,8],[97,-441],[-332,-71],[-170,-116],[-321,259],[-437,27],[282,-210],[-206,-227],[414,-258],[247,-242],[-537,-99],[138,-362],[-232,-87],[-94,-310],[-215,-166],[-126,131],[-300,0],[-179,-127],[-53,-143],[-267,-12],[200,-239],[-82,-151],[105,-818],[-285,-274],[-114,116],[-144,289],[-214,80],[-118,139],[-323,71],[-82,-234],[-220,119],[44,199],[-238,99],[35,349],[-229,-95],[-47,282],[-203,135],[-9,167],[-173,119],[-56,211],[171,357],[502,218],[-62,171],[-484,-226],[-573,-68],[-68,389],[-214,60],[-203,310],[-249,36],[85,146],[-294,72],[-132,524],[-126,-119],[-473,20],[267,-266],[-6,-147],[-176,-234],[-132,59],[-176,274],[-279,115],[-35,-131],[167,-290],[-53,-91],[358,-282],[162,-63],[-9,-278],[147,-155],[-723,-131],[-129,59],[-114,223],[38,238],[-461,222],[9,-119],[273,-48],[29,-218],[-179,-24],[-62,-202],[226,-16],[47,-314],[191,-95],[65,-171],[-65,-159],[532,143],[205,-83],[-179,-342],[420,-119],[-120,-449],[79,-155],[182,32],[-35,-314],[176,-59],[185,-223],[500,-174],[220,-346],[132,-51],[82,361],[273,-302],[-6,-262],[-143,-111],[-12,-211],[305,-67],[423,-20],[-15,-143],[-196,-302],[-44,-246],[261,-266],[-132,-147],[305,-20],[294,36],[18,-127],[-279,-191],[-109,-167],[67,-119],[288,-91],[194,-234],[-62,-195],[86,-663],[-168,-111],[-158,210],[-77,377],[-103,207],[-190,-52],[44,-234],[170,-397],[-135,-91],[238,-263],[61,-210],[-70,-214],[226,-131],[-294,-100],[-243,215],[-115,-151],[273,-564],[-235,-227],[-205,334],[88,195],[-373,91],[-71,210],[-249,44],[-191,167],[-153,-119],[-258,139],[-115,167],[-203,-96],[-129,306],[-217,151],[-9,147],[-258,79],[-294,294],[-38,191],[-176,270],[-141,44],[35,-290],[-97,-163],[-285,333],[-317,151],[-109,183],[-487,48],[188,-497],[405,-433],[291,-516],[97,12],[296,-187],[188,36],[118,-250],[373,-298],[246,-417],[0,-111],[235,-52],[253,-182],[123,-278],[159,-227],[164,-107],[-26,-159],[217,0],[65,-103],[-226,-266],[26,-155],[176,-306],[-367,-95],[-317,119],[-68,139],[-179,127],[-511,195],[-117,-48],[-82,171],[-309,20],[-346,131],[-649,91],[-461,334],[-74,-20],[-473,421],[-161,250],[100,214],[-144,108],[-502,-104],[-194,16],[-285,270],[-382,72],[-203,242],[-23,199],[-388,-72],[-141,179],[-217,123],[-88,266],[23,234],[-379,52],[50,119],[397,-67],[464,341],[-347,64],[21,238],[-297,214],[-117,-226],[-438,-16],[-3,242],[-314,211],[-314,548],[-35,171],[-203,83],[-50,222],[-147,56],[-144,-79],[-108,297],[97,207],[-62,242],[-496,-91],[55,-159],[-129,-76],[-47,-305],[-132,27],[126,584],[-94,139],[-235,-43],[-290,19],[-180,263],[156,246],[-191,8],[-147,-147],[83,-199],[370,-337],[-200,-64],[123,-250],[-199,-119],[-241,127],[-353,47],[-138,136],[-393,166],[-47,-290],[-129,-198],[-558,-76],[44,-158],[-464,39],[44,-254],[-373,163],[-130,103],[-246,-147],[-36,179],[-317,151],[-108,-84],[-288,207],[47,91],[-244,290],[-3,401],[129,151],[-79,342],[206,230],[376,230],[126,-8],[232,135],[-226,302],[88,326],[226,32],[164,-139],[294,35],[173,-47],[1043,-477],[20,-131],[324,-194],[44,-239],[-209,-262],[256,-83],[-39,544],[-176,258],[-270,199],[97,139],[188,-76],[376,-55],[126,59],[144,238],[120,48],[417,-131],[180,167],[188,278],[337,20],[232,-183],[203,79],[-209,413],[-44,266],[-332,195],[-220,302],[-241,250],[-58,155],[144,187],[296,178],[417,389],[291,215],[141,274],[264,155],[171,16]],[[86542,44986],[-261,131],[-123,222],[246,64],[238,-286],[-100,-131]],[[82739,45415],[38,-195],[-126,-202],[-408,-326],[-135,151],[223,786],[276,0],[132,-214]],[[71015,46229],[-105,-183],[-388,-115],[85,167],[408,131]],[[86181,47476],[-155,67],[-576,532],[65,151],[431,88],[373,-84],[77,-143],[-83,-147],[30,-206],[-162,-258]],[[85203,48544],[-123,-83],[-150,103],[173,171],[100,-191]],[[85726,48850],[91,75],[229,-163],[150,-297],[-85,-80],[-276,135],[-109,330]],[[69841,49692],[11,-298],[-149,-453],[-130,-266],[-35,-214],[-229,-417],[-117,-8],[-109,242],[-258,218],[-121,378],[79,500],[435,659],[308,24],[136,-99],[179,-266]],[[86701,50315],[-18,-151],[-223,-230],[-373,119],[-47,111],[138,219],[168,-48],[191,60],[164,-80]],[[75797,50661],[-115,-163],[-291,75],[-314,203],[126,79],[188,-163],[253,20],[153,-51]],[[80070,50526],[11,-155],[-149,-56],[-362,48],[-155,190],[3,112],[-162,313],[-126,-4],[-156,211],[476,-111],[335,-183],[285,-365]],[[66549,51423],[373,-151],[-118,-298],[9,-250],[-203,-198],[-182,-72],[-144,-274],[-223,-182],[-141,-207],[-440,-322],[-165,183],[-156,-32],[-287,-226],[-89,397],[-179,207],[3,230],[218,186],[182,318],[38,306],[252,250],[200,-202],[135,12],[297,210],[358,-28],[262,143]],[[71814,52150],[-123,-350],[-335,-135],[-302,298],[-365,433],[-14,143],[405,107],[388,-51],[158,-84],[188,-361]],[[87033,52265],[-194,-20],[-185,350],[-85,349],[161,123],[147,-659],[156,-143]],[[72775,52626],[123,-23],[-138,-255],[-317,92],[-347,369],[-147,72],[24,246],[314,-20],[464,-282],[24,-199]],[[86125,53373],[86,214],[193,76],[100,-151],[-47,-155],[235,-135],[-108,-115],[-224,230],[-235,36]],[[71321,53786],[26,115],[400,68],[-130,-239],[-296,56]],[[85382,55192],[-161,-4],[279,345],[185,-55],[-303,-286]],[[89103,58087],[147,-167],[-197,-131],[-196,207],[246,91]],[[68819,53306],[-320,-96],[-147,-218],[-200,-143],[-276,-306],[-493,238],[-206,64],[-106,131],[-173,16],[-217,131],[-461,-16],[-42,270],[183,135],[-39,171],[-161,119],[-350,36],[-273,-72],[-61,119],[179,266],[-38,179],[-597,-194],[-164,-235],[91,-202],[-32,-386],[-171,-3],[-317,-358],[-249,16],[-136,-175],[-85,-389],[-123,-187],[-414,-293],[-361,-171],[-268,16],[-141,274],[-23,421],[56,198],[-12,421],[-200,91],[-558,-158],[-235,59],[-188,-32],[-235,-234],[-223,-16],[-123,72],[-56,182],[53,171],[317,481],[796,417],[-21,190],[-173,306],[24,250],[-71,64],[59,512],[220,695],[-76,115],[91,262],[-33,461],[165,913],[103,239],[373,357],[138,32],[0,-310],[182,99],[141,-67],[38,-242],[129,-231],[-296,-175],[270,-202],[64,-254],[194,-334],[118,334],[188,333],[158,-182],[323,-199],[-91,-119],[153,-175],[288,-107],[338,-8],[167,-63],[65,-243],[149,-210],[367,-167],[191,-238],[188,-80],[206,48],[170,-183],[106,0],[311,-377],[88,-56],[65,-623],[141,-167],[-44,-147],[-320,-135],[-68,-178],[582,107],[94,87],[355,-115],[194,230],[214,-254],[200,-115],[29,-123],[353,-365]],[[63368,58714],[323,-417],[162,-480],[-159,-195],[-144,76],[-26,178],[-282,243],[-83,448],[36,155],[173,-8]],[[63964,58913],[0,115],[458,-183],[426,-329],[-123,-250],[373,-231],[205,4],[50,-155],[-135,-111],[-126,99],[-367,64],[132,151],[-209,83],[-99,-103],[-209,64],[21,337],[-80,159],[-261,139],[-56,147]],[[88933,61558],[0,-68],[-376,-270],[-73,115],[170,191],[279,32]],[[87676,61891],[65,-131],[-350,12],[156,195],[129,-76]],[[87406,62368],[-317,16],[94,305],[223,-321]],[[76543,63130],[-59,-151],[-1122,8],[-270,187],[-156,310],[24,190],[543,32],[614,-147],[241,-16],[123,-99],[62,-314]],[[84534,64171],[-24,-266],[-379,91],[403,175]],[[61585,64222],[191,-202],[-29,-262],[67,-338],[-44,-274],[-208,-282],[-270,155],[-133,318],[121,238],[-156,107],[82,254],[185,278],[194,8]],[[74648,63936],[30,-150],[-177,-378],[133,-329],[-24,-640],[-185,-290],[-182,-178],[-135,8],[-429,-251],[-402,28],[-441,-99],[-393,36],[-91,79],[-132,362],[-162,683],[123,389],[379,683],[215,266],[440,175],[247,-92],[191,115],[355,-75],[520,-187],[120,-155]],[[70261,64302],[111,-96],[-264,-285],[-156,135],[41,301],[268,-55]],[[75400,64461],[79,178],[241,-290],[-79,-214],[-241,326]],[[70595,64743],[-190,-147],[-174,182],[218,76],[79,254],[238,-91],[-171,-274]],[[74860,64917],[58,235],[168,-68],[120,-226],[-346,59]],[[74869,64536],[-53,-187],[-561,374],[-15,310],[150,226],[308,-123],[62,-239],[182,-206],[-73,-155]],[[57151,66518],[-171,67],[-141,183],[174,75],[138,-325]],[[70070,65640],[-153,-103],[-208,67],[-30,155],[250,378],[255,47],[130,107],[149,425],[141,115],[332,36],[112,-202],[-273,-179],[-109,-306],[-314,-445],[-282,-95]],[[57430,66653],[-294,79],[235,250],[176,-151],[-117,-178]],[[72769,66923],[20,-238],[-302,-251],[-56,-151],[-308,4],[-138,290],[29,298],[279,139],[156,-95],[320,4]],[[83236,67364],[152,-84],[-361,-135],[-70,103],[279,116]],[[82707,67221],[-350,174],[371,259],[182,-132],[-203,-301]],[[70845,67495],[0,115],[285,131],[226,-246],[-170,-167],[-220,-48],[-262,-178],[-194,186],[138,207],[197,0]],[[69060,67463],[41,-234],[-318,-8],[6,206],[-672,207],[343,198],[224,0],[373,-135],[340,215],[300,-100],[67,-202],[-299,-183],[-405,36]],[[64687,67741],[-21,198],[323,-63],[-100,-183],[-202,48]],[[56058,67808],[-108,-115],[-203,163],[264,99],[47,-147]],[[61013,68321],[-218,115],[-47,194],[247,20],[335,-79],[173,67],[156,-166],[9,-159],[-309,-36],[-346,44]],[[78637,70803],[179,-80],[-100,-182],[-212,-20],[-558,-183],[-126,234],[209,56],[38,258],[197,32],[373,-115]],[[77001,72010],[155,-167],[-220,-71],[-6,-167],[-285,36],[-97,405],[206,95],[247,-131]],[[77244,72355],[89,-147],[-121,-170],[-314,135],[132,167],[214,15]],[[49885,74953],[-109,99],[288,282],[123,-282],[-302,-99]],[[49712,75918],[296,131],[273,-338],[-99,-214],[-315,-96],[-188,167],[33,350]],[[37245,77010],[467,83],[53,-123],[-411,-68],[-109,108]],[[41101,77105],[203,-151],[-89,-282],[9,-286],[-185,-341],[-288,-266],[9,-108],[-249,-218],[-321,24],[-276,218],[-249,282],[-179,84],[-15,230],[-438,294],[-602,171],[500,544],[995,59],[382,88],[244,-36],[549,-306]],[[68005,77049],[112,274],[276,127],[255,-35],[238,-147],[197,32],[567,-183],[537,0],[238,52],[708,31],[311,-143],[494,-123],[243,-115],[197,-369],[317,-92],[197,-242],[71,-218],[284,-68],[-70,-317],[244,-68],[-9,-230],[-220,-72],[-1131,96],[-118,63],[-845,40],[-535,-111],[-602,-239],[-446,12],[-429,215],[-258,476],[61,183],[-47,270],[-713,127],[-94,385],[111,143],[-141,246]],[[50560,74297],[21,-95],[-470,-306],[185,-87],[79,-326],[-50,-115],[42,-401],[-77,-183],[-202,-95],[-253,16],[-138,-250],[-426,-207],[-255,4],[-320,103],[-462,-19],[379,-294],[-196,-294],[-370,-282],[-324,20],[-135,174],[-326,-55],[-199,472],[-212,231],[-123,317],[-176,207],[-194,20],[-467,460],[32,88],[-247,222],[-328,40],[-309,306],[-229,-123],[-496,115],[-141,413],[-273,111],[-461,286],[-144,167],[-15,194],[305,552],[420,115],[397,-166],[-62,-119],[320,-195],[271,-413],[475,-52],[135,131],[367,-23],[144,321],[274,64],[-53,317],[-406,413],[91,330],[-531,-187],[-488,235],[-308,262],[120,190],[256,143],[352,-8],[356,-206],[61,199],[-370,43],[-246,302],[235,214],[660,72],[341,214],[341,-250],[208,-32],[338,-226],[531,60],[738,131],[596,178],[349,-75],[344,-302],[-44,-266],[-761,-338],[570,-87],[-147,-202],[-605,-215],[-47,-99],[-540,-465],[91,-159],[320,159],[367,-16],[458,-182],[-41,-211],[405,-480],[253,95],[291,-175],[149,-425]],[[47248,77649],[-159,167],[329,79],[391,183],[252,0],[403,155],[508,59],[91,-119],[-185,-226],[-379,-242],[-773,-112],[-478,56]],[[57383,77812],[108,-48],[-358,-496],[-752,-826],[-364,-612],[-405,-611],[-353,-282],[-246,-52],[-276,76],[-876,127],[-851,-56],[-35,-83],[446,-104],[12,-151],[252,-154],[109,-251],[-250,-309],[-144,-44],[-243,-389],[-71,-223],[-291,-91],[-458,-24],[-446,-119],[-47,250],[111,76],[-141,230],[89,643],[-203,199],[0,151],[-317,222],[-85,246],[52,310],[-108,195],[155,365],[-23,548],[-94,179],[82,322],[-129,107],[317,321],[226,-35],[256,-215],[202,52],[-540,480],[79,286],[235,40],[364,183],[391,71],[687,8],[112,91],[446,12],[535,-111],[778,-357],[338,107],[928,-52],[796,-202]],[[48957,79134],[264,370],[276,-64],[-132,-206],[-408,-100]],[[51644,79424],[15,-230],[-417,91],[-171,115],[347,151],[226,-127]],[[42282,80894],[-6,-155],[-256,-171],[-408,-111],[-540,123],[-227,131],[262,536],[308,206],[309,8],[349,-166],[85,-306],[124,-95]],[[53823,80278],[-23,-548],[-171,-151],[-954,-63],[-308,7],[-412,143],[39,96],[-285,178],[-670,52],[-223,191],[-350,75],[-226,310],[153,314],[449,139],[-111,83],[150,286],[279,230],[572,246],[438,100],[570,-96],[1013,-814],[-91,-151],[126,-206],[-62,-195],[97,-226]],[[50273,81469],[-91,-119],[-344,-12],[-109,278],[397,167],[326,64],[147,135],[425,-219],[-367,-226],[-317,202],[-67,-270]],[[43145,82260],[-514,-36],[85,190],[235,183],[940,211],[138,-187],[-335,-60],[-129,-222],[-420,-79]],[[52637,82772],[191,-516],[-385,-44],[-188,155],[-32,345],[414,60]],[[43489,82808],[-1269,-251],[-38,215],[461,107],[989,163],[100,-187],[-243,-47]],[[70278,83121],[38,-182],[-320,-163],[-152,-250],[-497,16],[511,365],[224,218],[196,-4]],[[42085,82907],[-629,103],[-123,155],[185,171],[978,159],[816,91],[209,-203],[12,-178],[-347,-187],[-458,-79],[-643,-32]],[[41421,83955],[-197,56],[-91,266],[341,147],[370,20],[159,-227],[751,-258],[224,-131],[-356,-202],[-617,-36],[-560,20],[-24,345]],[[49312,81664],[-340,127],[-227,-127],[-223,-361],[6,-171],[402,-147],[86,-163],[-394,-345],[-810,-92],[-232,48],[-782,-80],[-775,92],[-76,361],[-171,99],[335,139],[-479,179],[121,219],[599,71],[-273,171],[655,163],[-135,147],[-456,27],[-948,-123],[-438,-20],[-696,-147],[-379,-15],[-264,-104],[-161,115],[99,322],[482,461],[761,131],[-362,393],[188,234],[-408,88],[77,464],[255,111],[449,-51],[370,-230],[-47,-199],[761,-381],[352,-350],[171,203],[-549,464],[38,124],[508,35],[-367,219],[-403,-20],[-326,238],[268,195],[520,214],[472,-95],[294,44],[379,-386],[396,378],[450,27],[317,-87],[173,-163],[464,-111],[-141,-397],[326,-397],[-170,-497],[94,-210],[-370,-306],[534,-95],[0,-433]],[[45086,84229],[-94,155],[306,215],[387,59],[335,-111],[-934,-318]],[[58079,84591],[-209,-278],[38,-314],[-270,0],[-570,552],[44,187],[620,119],[347,-266]],[[35077,83372],[0,627]],[[35077,83999],[509,345],[67,223],[353,242],[493,87],[338,-305],[-271,-314],[83,-429],[308,-52],[297,-278],[-426,-444],[114,-119],[564,27],[238,-222],[-82,-210],[399,79],[364,-72],[497,417],[302,0],[655,-174],[282,-239],[138,-560],[-117,-226],[-224,-91],[92,-159],[-59,-258],[-265,-231],[65,-182],[-235,-143],[41,-163],[-848,-131],[-279,-191],[-573,48],[-197,95],[-825,-159],[-267,334],[-194,40],[-285,-199],[-320,-103],[-253,-214],[-479,-12]],[[35077,80056],[0,1671]],[[35077,81727],[1255,-127],[-112,183],[182,131],[-303,306],[-669,139],[-41,183],[-312,-8],[0,75],[647,222],[58,207],[-182,242],[-329,127],[-194,-35]],[[69526,80389],[185,-278],[-625,-139],[-338,-143],[97,-325],[-117,-112],[-315,-35],[-649,39],[-232,-43],[-528,-247],[-497,124],[-428,4],[-356,95],[-238,377],[-229,179],[-182,-493],[-622,-83],[-244,-87],[-473,39],[-743,-67],[-1436,-60],[-1178,-31],[-264,59],[-725,48],[-56,151],[176,468],[-150,231],[-217,-147],[-12,-139],[-382,-40],[-70,-270],[-326,-131],[-582,-48],[-851,274],[-218,274],[-381,-51],[149,-266],[-470,39],[-120,159],[-449,159],[-50,449],[-159,286],[215,47],[-555,282],[44,381],[185,330],[334,214],[-193,366],[85,183],[-94,158],[-259,80],[-246,226],[-18,238],[-320,282],[-226,322],[-523,-171],[-540,-95],[-135,60],[-749,-36],[-218,-96],[-396,24],[408,227],[-896,159],[-323,242],[-38,202],[-405,270],[-420,20],[628,250],[-605,203],[0,91],[567,151],[32,80],[623,127],[394,-40],[261,-139],[772,-79],[77,-128],[370,-71],[467,79],[590,-484],[-135,-401],[396,182],[291,-83],[608,60],[170,107],[638,71],[487,-87],[232,-171],[265,-55],[140,-370],[1301,-266],[118,-127],[-211,-155],[-1219,-16],[-796,52],[-94,-83],[1195,-235],[-117,-83],[502,-155],[179,-159],[555,-258],[-67,-385],[176,-354],[396,-19],[-167,309],[361,119],[282,-238],[97,-198],[561,250],[273,-92],[161,175],[288,-51],[379,-286],[223,4],[435,-151],[209,290],[804,95],[288,195],[855,139],[420,246],[452,-40],[100,-103],[387,-40],[526,195],[332,55],[1377,-155],[-196,-278],[308,-67],[578,63],[482,-182],[94,-151],[391,-131],[167,-187],[-144,-512],[-346,-95],[-39,-104],[-537,-139],[279,-198],[473,178],[249,-99]],[[63186,86346],[-182,314],[346,-16],[226,-199],[-390,-99]],[[58096,86096],[-147,-207],[-343,-159],[-940,247],[-311,246],[35,504],[326,100],[652,-72],[599,-345],[129,-314]],[[41424,85703],[-405,-199],[-555,230],[-332,239],[-259,389],[-155,461],[-197,198],[191,68],[458,-112],[576,-444],[-6,-302],[235,24],[420,-274],[29,-278]],[[54032,86791],[-176,-84],[-80,-294],[-373,-119],[-590,96],[-1877,4],[-355,274],[76,274],[826,254],[299,-159],[332,111],[1001,-44],[514,20],[453,-143],[-50,-190]],[[43627,87025],[-77,131],[132,226],[855,4],[488,-119],[287,-194],[-214,-100],[-464,28],[-261,-123],[-438,36],[-308,111]],[[35077,87891],[479,-111],[-117,-199],[-362,-95]],[[35077,87486],[0,405]],[[43116,88312],[138,-143],[-306,-211],[-223,163],[391,191]],[[35077,89309],[743,-366],[100,-183],[-91,-254],[-546,-143],[-206,80]],[[35077,88443],[0,866]],[[75186,89535],[440,-131],[-185,-115],[-408,103],[153,143]],[[49894,87156],[-220,32],[126,282],[-397,83],[-452,199],[97,135],[813,-40],[80,135],[-1016,266],[-344,381],[-329,112],[6,202],[370,80],[-326,186],[-44,310],[235,107],[790,-51],[1025,-270],[229,-143],[76,-219],[414,-115],[235,91],[658,-170],[329,-219],[-614,-286],[544,-329],[-194,-330],[-358,0],[-488,-167],[-628,-99],[-303,36],[-314,-199]],[[40052,90313],[180,401],[331,72],[1625,155],[678,-175],[581,-516],[-64,-219],[1148,227],[388,-251],[361,-107],[-250,-266],[341,-115],[438,119],[599,-210],[-82,-239],[572,-95],[-279,-699],[265,-32],[155,-198],[441,-318],[29,-453],[-185,-119],[-696,-59],[-162,-88],[-760,195],[-250,365],[30,195],[-262,250],[-1271,214],[-432,-111],[-253,76],[24,258],[-1034,-143],[-326,-191],[-587,76],[-400,210],[-226,393],[426,143],[684,-151],[611,-35],[18,401],[111,246],[-625,-20],[-326,56],[417,226],[-253,250],[-426,-71],[-141,-227],[-511,-87],[400,445],[-311,103],[-509,-99],[-232,218]],[[46226,92474],[102,234],[318,131],[405,-95],[344,55],[276,-119],[190,-282],[-70,-175],[132,-246],[-147,-202],[-587,123],[-12,214],[-308,119],[-552,-47],[-91,290]],[[51089,94050],[781,115],[-26,-210],[-755,95]],[[50217,92585],[-97,250],[391,-16],[390,-167],[963,-95],[365,28],[340,274],[-969,-76],[-1040,326],[-279,36],[353,234],[596,99],[-373,163],[35,246],[1184,48],[458,-119],[226,151],[-341,115],[-20,167],[-502,151],[-409,27],[18,235],[288,266],[417,119],[828,-119],[-29,198],[954,-27],[241,166],[-132,143],[-634,-20],[-699,131],[235,255],[792,-76],[441,32],[972,-222],[464,-227],[135,-298],[635,-544],[67,-155],[429,-111],[79,-325],[914,-96],[572,20],[303,-167],[-229,-397],[249,-262],[497,-183],[516,-51],[-637,464],[30,211],[240,151],[870,-68],[141,-560],[-508,-99],[102,-171],[787,8],[303,-456],[-247,-612],[996,48],[302,-191],[541,24],[193,-302],[538,-381],[-670,-314],[-1124,-234],[-124,-231],[-370,-131],[-417,-266],[-258,-329],[-365,47],[-158,338],[12,310],[-259,-16],[65,-663],[255,-151],[-120,-330],[-212,-40],[-434,354],[-165,-147],[232,-278],[-246,-600],[-318,-8],[-340,382],[-347,230],[-337,389],[-162,-83],[138,-294],[214,-99],[86,-417],[-215,-12],[-267,250],[-220,28],[-24,-465],[-599,0],[-816,115],[-288,127],[-291,-43],[-203,186],[-743,322],[80,171],[1295,123],[-1040,127],[-781,-8],[-529,385],[-70,159],[-446,326],[67,95],[699,131],[182,226],[670,-27],[355,55],[728,-8],[1533,135],[-584,76],[-1181,-112],[-610,96],[70,159],[734,-20],[843,127],[59,87],[-1187,-95],[-467,79],[-1033,-59],[-329,-191],[-426,40],[-259,179],[-646,-195],[-249,159],[-526,91],[-135,195],[173,202],[1002,123],[-50,175],[-479,-83],[-746,12],[-487,369],[-294,103],[-91,473]],[[90428,98101],[-256,-322],[-1069,-421],[-2393,-719],[-1119,24],[-561,-258],[-2056,-83],[1149,-151],[5,-76],[-1574,-305],[-446,-147],[-1049,-171],[-132,-135],[1918,317],[664,143],[1406,211],[253,71],[1345,139],[126,-166],[-290,-219],[-802,-294],[-667,-99],[-772,-453],[-1818,-675],[-966,-540],[-273,-337],[-329,-100],[-893,-27],[558,-199],[-282,-179],[-608,48],[-852,-211],[-26,-127],[990,183],[182,-195],[-247,-170],[-758,-119],[526,-120],[-261,-250],[-1234,-306],[-778,112],[-162,242],[-1318,206],[-699,-107],[1650,-230],[241,-234],[53,-239],[-214,-119],[-717,-55],[-91,-88],[-752,0],[-376,-186],[-1110,150],[106,-214],[-1099,16],[-258,250],[-326,-12],[200,-306],[-159,-107],[1604,-107],[1674,-24],[-353,-163],[370,-198],[-716,-108],[-758,124],[-376,293],[-1266,-11],[-963,-52],[2179,-131],[-41,-115],[-608,31],[-511,-47],[-655,-159],[21,-83],[1116,158],[1077,-131],[42,-202],[496,-32],[602,-119],[-115,-461],[-152,-258],[-1266,-87],[56,-84],[1098,-218],[-587,-425],[-640,115],[-467,20],[-247,-171],[716,-127],[688,-47],[-362,-350],[-373,127],[-346,-179],[-388,-99],[-308,103],[-822,-11],[-344,55],[-279,-131],[508,-230],[-79,-203],[355,-317],[-279,-128],[-38,-182],[-308,-231],[-600,16],[-355,-222],[-578,71],[-370,-99],[-476,36],[-438,99],[-658,338],[-355,115],[-71,-215],[608,-270],[-734,-79],[-50,-258],[309,44],[584,210],[1084,-187],[807,68],[453,-199],[6,-159],[-362,-270],[-32,-127],[573,-4],[-109,-198],[276,-36],[212,306],[502,167],[196,-139],[24,-235],[203,-111],[-62,-381],[-273,-68],[-147,-262],[-405,-167],[-130,235],[-182,51],[-264,-369],[-159,-20],[-226,-286],[-229,48],[-616,-214],[-106,43],[-541,-198],[-484,131],[364,484],[-537,318],[-174,-163],[-605,28],[-390,-227],[-588,-27],[-340,182],[-200,-143],[-470,60],[-405,294],[-226,-36],[17,-218],[-543,16],[-256,-76],[614,-202],[-11,-72],[-899,-59],[-50,75],[-849,147],[-246,-4],[-426,254],[-147,-318],[-420,80],[-65,163],[-543,-274],[-875,139],[53,234],[-920,-159],[-549,342],[267,293],[-132,410],[925,377],[482,298],[925,-60],[388,246],[-244,290],[-376,48],[-117,202],[155,119],[-411,306],[-202,64],[8,389],[1119,250],[391,-40],[714,-230],[273,-194],[217,-505],[432,-250],[887,-40],[925,112],[502,238],[537,480],[417,560],[-478,-186],[-303,-417],[-537,-421],[-458,-64],[-285,60],[-482,-32],[-85,171],[-505,166],[105,334],[-149,179],[-385,186],[675,274],[130,437],[-326,-103],[-282,-207],[-837,-131],[3,255],[-347,95],[-270,-207],[-814,16],[6,783],[370,234],[244,397],[373,230],[966,56],[579,206],[611,-111],[1086,-79],[661,-274],[423,-80],[203,-182],[411,-28],[-728,393],[-109,211],[661,-64],[710,91],[86,270],[-946,-226],[-491,135],[-795,-16],[-691,52],[-534,202],[279,258],[388,-35],[205,-195],[326,48],[-508,270],[-211,24],[-180,532],[-443,179],[-159,313],[-340,151],[-614,44],[-664,135],[0,445],[156,87],[-309,183],[-64,250],[232,401],[614,44],[655,-167],[778,24],[951,-68],[764,-425],[1066,-496],[232,-294],[429,-350],[235,100],[564,28],[-849,274],[-35,337],[232,111],[-808,155],[-875,544],[-244,223],[1325,162],[425,20],[1425,147],[340,131],[1146,56],[288,159],[-1334,-12],[646,210],[975,199],[1158,127],[546,131],[-1099,44],[-963,-115],[-44,373],[473,222],[708,433],[1227,361],[-108,52],[-1513,-361],[-555,-274],[-62,-191],[-472,-24],[-253,-421],[-267,-242],[-1815,-484],[-1918,-211],[-291,115],[670,370],[-819,-104],[-576,100],[9,-433],[-673,-119],[-332,51],[-487,-67],[-599,91],[-529,-12],[-714,163],[224,270],[851,556],[682,183],[2763,274],[-2987,-183],[-813,-163],[-573,-373],[-505,-250],[-238,-247],[-934,116],[-1453,480],[129,179],[972,111],[899,-44],[1039,60],[773,187],[546,254],[784,174],[-458,92],[-714,-143],[-731,-274],[-981,-135],[-532,24],[-2226,-163],[-402,139],[-194,250],[420,183],[673,4],[-608,218],[772,167],[400,218],[1074,84],[-525,123],[-1257,-238],[-946,-271],[-546,215],[1040,318],[-870,194],[-367,-167],[-1066,60],[273,246],[787,258],[872,139],[676,-87],[564,56],[-121,150],[649,267],[770,111],[1172,-131],[907,-12],[541,-92],[1054,-39],[-2235,353],[-135,199],[1330,59],[364,107],[-467,429],[1193,40],[-270,-135],[1439,-191],[384,-289],[414,166],[644,-123],[919,-306],[1774,-369],[179,143],[-1213,187],[-2012,671],[729,707],[737,-104],[599,-234],[326,60],[-1104,560],[114,95],[1789,-159],[-520,238],[220,183],[925,87],[397,-234],[646,-16],[643,131],[805,-143],[660,-460],[749,-187],[-875,679],[-813,262],[1415,155],[1222,-28],[969,-95],[617,-183],[772,354],[429,71],[1092,0],[165,-194],[752,214],[1277,16],[232,-175],[2135,-178],[470,-92],[881,24],[44,-119],[-998,-298],[-1339,-206],[-215,-131],[1331,67],[1800,445],[813,139],[432,-167],[1477,-12],[-232,-262],[779,-298],[-115,-135],[1680,-119],[558,-381]],[[69054,35050],[-138,91],[111,211],[288,95],[35,-139],[-296,-258]],[[68904,43648],[-24,150],[100,124],[182,-40],[-155,-215],[-103,-19]],[[69711,25114],[86,-123],[-18,-167],[-88,-60],[-235,0],[-38,116],[293,234]],[[68167,27131],[103,-429],[-130,-47],[-276,71],[-293,223],[-206,39],[-546,274],[-127,119],[206,378],[517,119],[341,-64],[276,-413],[135,-270]],[[70434,34970],[-185,8],[91,187],[18,262],[76,187],[106,-36],[17,-314],[-38,-226],[-85,-68]],[[69541,34669],[-44,162],[-320,-647],[-179,139],[326,632],[211,250],[162,-80],[53,278],[144,493],[117,-20],[100,-429],[-65,-322],[-102,-47],[-186,-568],[-129,-238],[-199,43],[111,354]],[[86040,54616],[97,-195],[-126,-87],[-97,274],[126,8]],[[67168,66935],[179,-163],[-390,-8],[-77,175],[288,-4]],[[86531,44950],[129,-107],[20,-262],[-58,-207],[261,-47],[106,-334],[-77,-310],[53,-234],[209,32],[17,-203],[247,-246],[-88,-326],[311,-63],[180,-318],[-80,-230],[285,-147],[-35,-131],[147,-266],[188,-175],[91,-369],[-100,-179],[-273,-222],[188,-183],[255,167],[232,16],[-85,-215],[38,-107],[-47,-469],[-473,-51],[124,-143],[440,167],[103,-171],[212,-151],[79,-223],[106,96],[85,-195],[-85,-159],[149,-123],[135,-377],[-170,-68],[-38,-107],[-244,-71],[-100,-227],[391,68],[244,-191],[-88,-258],[32,-242],[382,-24],[164,-95],[44,-318],[-179,-28],[-170,-266],[6,-103],[-183,-87],[130,-143],[-197,-223],[97,-171],[29,-194],[-249,59],[167,-321],[229,-227],[-138,-67],[-88,99],[-285,4],[162,-194],[58,39],[382,-83],[197,71],[26,-305],[-88,-52],[91,-270],[311,-99],[6,-191],[135,52],[188,-28],[21,-191],[176,-115],[132,187],[74,-80],[44,-226],[-121,-56],[156,-206],[12,-143],[-85,-211],[64,-91],[-73,-258],[-38,-322],[196,203],[394,4],[129,210],[118,-115],[-159,-322],[488,0],[73,-103],[129,282],[276,-151],[38,-178],[-58,-143],[132,-131],[29,-163],[229,-191],[332,-56],[209,4],[73,-139],[329,-4],[203,-254],[246,40],[109,-139],[-41,-218],[-306,-32],[147,-155],[-167,-111],[-256,24],[-317,-72],[-73,-250],[-247,-52],[-294,-210],[-170,4],[-590,-238],[108,-76],[685,258],[176,167],[150,36],[-218,-370],[-117,-55],[-170,44],[-133,-191],[-273,-99],[-358,-262],[-294,63],[-123,-127],[-235,-91],[-3,-509],[79,-162],[-343,-235],[270,-107],[85,48],[191,341],[397,135],[161,234],[329,84],[62,67],[-53,199],[208,230],[38,119],[368,175],[346,119],[-220,187],[47,143],[164,87],[247,8],[546,-159],[71,64],[123,-147],[76,-330],[100,-151],[-14,-146],[120,-207],[-50,-131],[-346,-218],[143,-155],[71,-231],[150,147],[3,171],[170,258],[399,32],[-3,-195],[230,-103],[446,-91],[-38,-84],[38,-270],[203,-147],[50,-103],[-15,-329],[88,-116],[-156,-131],[-79,-166],[135,-239],[27,-222],[-168,-36],[-111,-123],[143,-306],[-152,-167],[76,-131],[294,-51],[105,-123],[-196,-326],[129,-210],[23,-263],[-141,-214],[-88,-40],[-53,-194],[-205,-151],[-106,-159],[-144,-36],[-273,-302],[-103,-16],[-35,-154],[-141,-235],[-144,-39],[-17,-116],[-150,-15]],[[98307,14396],[-38,-262],[-94,75],[132,187]],[[98936,15718],[50,-111],[-47,-151],[-353,60],[-58,186],[179,-16],[73,-59],[62,12],[94,79]],[[97447,19010],[170,0],[197,238],[15,-166],[-268,-203],[-114,131]],[[98134,19062],[-35,230],[70,131],[174,60],[85,-199],[-112,-123],[-182,-99]],[[96736,22028],[53,-91],[-132,-167],[-47,151],[126,107]],[[99999,14118],[-115,-469],[-64,-52],[-94,-504],[17,-183],[-99,-567],[-100,-136],[-41,-166],[-165,-76],[-61,191],[-121,51],[-85,-170],[-120,-111],[-77,91],[24,262],[-38,179],[41,163],[-50,190],[147,334],[-68,91],[-279,-480],[-261,-374],[-156,52],[-12,135],[53,290],[273,885],[-14,199],[41,175],[-144,675],[-144,71],[-358,-814],[-80,-278],[-85,64],[-176,-115],[-121,43],[-141,-242],[-93,-298],[-27,-234],[-109,-88],[-67,-250],[-188,-127],[-194,88],[-67,-84],[-230,4],[-111,84],[-32,158],[123,255],[208,47],[224,107],[29,100],[182,210],[53,346],[79,119],[267,119],[109,119],[-47,143],[-202,-52],[-344,215],[-106,-143],[82,-143],[-47,-234],[-193,-40],[-36,127],[-149,-119],[-309,187],[209,154],[-47,243],[-74,147],[-91,-135],[-100,-16],[-111,-159],[-173,-64],[-321,52],[-120,-226],[-82,-4],[-150,135],[-156,-48],[-238,155],[-255,24],[-79,-96],[-121,131],[-129,-12],[-282,104],[-147,-92],[-76,40],[-314,-75],[-221,-112],[-176,12],[-214,-95],[-215,127],[21,350],[-132,293],[179,326],[270,258],[314,441],[59,163],[156,194],[17,128],[-208,115],[-153,-68],[-270,-28],[-179,-99],[32,199],[267,290],[24,-163],[176,-104],[123,88],[21,302],[138,349],[50,326],[65,123],[349,91],[38,211],[-144,206],[0,250],[50,171],[185,270],[109,84],[-18,282],[373,1107],[174,767],[179,401],[-33,155],[185,95],[212,310],[-3,258],[91,72],[41,230],[76,59],[0,251],[86,186],[258,227],[438,282],[240,238],[56,-175],[-53,-131],[241,0],[-56,131],[241,115],[121,-59],[-94,-461],[-85,4],[-59,-206],[-212,119],[-182,-16],[-58,-310],[190,32],[147,-115],[-26,-274],[-147,-370],[-235,-472],[-53,-191],[-120,-175],[-56,-198],[-165,-270],[-108,-433],[-244,-409],[24,-187],[-94,-357],[-91,-72],[176,-194],[273,488],[62,-16],[129,370],[188,278],[94,-143],[-6,-207],[129,76],[267,-266],[171,111],[-6,-183],[-156,-191],[-106,-51],[-102,-199],[35,-123],[-82,-139],[334,-532],[71,199],[482,186],[32,-198],[-97,-187],[-12,-302],[191,72],[352,59],[224,509],[105,-127],[-29,-183],[247,55],[249,135],[409,-274],[255,-301],[-126,-278],[-50,-199],[-191,-135],[-38,-127],[-126,-44],[49,-409],[-76,-47],[59,-231],[164,191],[50,-123],[-223,-223],[144,-43],[288,-215],[120,393],[82,-27],[94,-211],[133,266],[132,60],[47,-135],[-86,-409],[-146,-195],[-188,16],[-38,-183],[-174,-111],[-111,-171],[-130,60],[-102,-8],[-68,111],[-41,-143],[41,-222],[250,-12],[70,-179],[-135,-452],[-120,-270],[273,-402],[144,370],[-24,127],[153,341],[100,310],[147,119],[132,16],[88,195],[97,-68],[-212,-460],[-11,-155],[-124,-290],[18,-159],[-97,-219],[147,-393],[229,306],[56,127],[70,433],[109,-79],[-18,-207],[74,-44],[-27,-218],[56,-83]],[[94067,31710],[-171,-147],[-152,16],[-80,218],[323,175],[-61,-226],[141,-36]],[[90516,34669],[-188,-28],[47,282],[194,-107],[-53,-147]],[[90058,35463],[-56,-131],[-279,107],[256,111],[79,-87]],[[89814,36607],[188,262],[126,-231],[-55,-190],[32,-215],[-91,-159],[-220,286],[20,247]],[[89832,37981],[-268,-4],[144,298],[124,-294]],[[89562,38390],[64,-191],[-153,-123],[-97,151],[186,163]],[[89506,38823],[114,194],[165,-135],[-103,-187],[-176,128]],[[89473,38894],[-199,107],[73,131],[138,40],[53,-167],[-65,-111]],[[96266,28513],[179,-39],[-35,-199],[-208,115],[64,123]],[[87083,10413],[155,-28],[112,-219],[156,-103],[85,68],[176,4],[-12,-132],[294,-206],[135,103],[165,8],[211,-47],[203,-203],[100,-155],[111,163],[115,52],[390,448],[36,-448],[111,-124],[200,-91],[50,139],[117,28],[168,-342],[97,-87],[-36,-151],[-135,-59],[-70,-167],[355,12],[185,-100],[-112,-214],[-293,16],[-68,-163],[-199,-40],[-83,-143],[-193,32],[-83,-163],[-144,-4],[-23,-99],[-408,-195],[-62,-139],[-117,36],[-127,-147],[-161,-51],[-44,-163],[-97,55],[-109,-107],[-109,135],[-182,-262],[-155,12],[-21,-127],[-170,167],[73,-354],[-29,-107],[-188,-44],[-100,143],[-141,-8],[-18,262],[-126,44],[-82,-202],[-112,-44],[-144,-195],[18,-297],[-253,-608],[-99,-52],[-18,-147],[-170,-107],[3,-242],[-83,-36],[-167,-306],[-71,60],[-173,-151],[-88,52],[-20,-262],[-133,-143],[-232,-68],[-126,167],[9,242],[-156,362],[-61,-199],[-180,16],[-55,365],[26,262],[-70,247],[76,301],[32,274],[91,223],[212,290],[-109,63],[176,274],[629,624],[58,91],[359,353],[167,128],[232,87],[182,222],[-20,-298],[161,-214],[124,262],[329,155],[123,111],[288,-4],[-150,171],[-388,8],[-147,36],[-279,-28],[-85,-84],[-211,116],[-112,-64],[-50,-155],[-246,64],[117,321],[209,179],[246,365],[56,199],[120,103]],[[91567,9932],[-135,-87],[-41,-120],[-182,-154],[-373,-187],[-29,67],[-291,36],[-138,-115],[-97,95],[-135,-79],[-135,345],[-38,433],[-59,366],[73,79],[21,175],[191,234],[126,346],[94,162],[256,834],[111,108],[188,456],[162,-71],[-33,-238],[203,-124],[-44,-575],[-182,-596],[94,-203],[-209,-377],[-100,-95],[-129,-366],[-167,-51],[-24,-230],[-135,-100],[59,-194],[117,127],[244,-92],[18,191],[338,445],[-347,-195],[-65,139],[180,171],[0,187],[164,317],[141,191],[203,-199],[102,40],[227,-167],[35,-174],[-65,-151],[85,-96],[-32,-163],[-129,-146],[-170,-12],[52,-187]],[[5160,65716],[426,-60],[211,-83],[279,-211],[303,44],[-294,270],[-273,32],[-138,266],[282,103],[-220,111],[-36,282],[147,211],[303,83],[261,-135],[135,20],[-73,286],[147,155],[581,8],[147,135],[114,285],[212,60],[114,-330],[376,-131],[-343,-353],[-33,-187],[473,175],[83,143],[493,36],[255,250],[-23,183],[117,166],[244,-12],[138,207],[464,-131],[44,95],[294,103],[250,255],[411,159],[194,-120],[161,449],[314,111],[385,40],[444,-155],[161,254],[156,96],[279,-243],[-221,-313],[-1098,-560],[-226,-179],[-194,-286],[-161,163],[-473,-151],[-188,16],[-356,-99],[-179,-298],[30,-127],[-247,-108],[-496,-143],[-153,-305],[-335,-223],[-6,-218],[-276,-377],[376,47],[203,127],[481,-139],[138,143],[-179,131],[-238,-103],[-79,107],[-35,366],[555,186],[558,326],[138,206],[-123,80],[305,171],[191,-96],[302,147],[215,-39],[41,-405],[208,345],[332,302],[135,298],[194,20],[526,186],[109,88],[487,19],[18,-286],[188,-83],[772,747],[-68,262],[294,218],[132,-16],[461,135],[-505,135],[-164,207],[-21,163],[135,270],[168,20],[546,-390],[349,-369],[306,-608],[188,-563],[517,-584],[346,-270],[253,-48],[302,-179],[323,159],[12,167],[-299,357],[52,223],[382,127],[3,179],[150,290],[-103,250],[358,79],[-35,175],[361,-24],[24,-167],[-129,-123],[-36,-250],[118,-139],[-118,-298],[494,-171],[-126,-75],[-97,-234],[-182,-151],[-9,-254],[317,-52],[109,79],[584,-8],[214,302],[203,-16],[85,433],[-64,230],[235,163],[531,-87],[502,40],[690,-123],[702,-346],[144,-163]],[[35077,74996],[-255,167],[-288,36],[-223,214],[-24,195],[790,-60]],[[27324,67495],[-446,282],[-217,544],[96,139],[444,198],[514,84],[540,135],[2091,230],[168,-83],[446,-44],[188,52],[1007,-203],[370,262],[365,-107],[249,-4],[171,234],[-274,-20],[-296,151],[-82,195],[-500,79],[-158,100],[-229,-8],[-318,198],[-399,-12],[-179,119],[-306,60],[-220,-119],[-185,47],[-182,-103],[-831,-79],[-385,-76],[-167,64],[-350,-68],[-220,147],[-396,-16],[-459,-71],[-434,59],[-241,-51],[-138,214],[-543,350],[-253,325],[27,116],[666,357],[367,36],[429,139],[220,-8],[106,123],[1022,246],[-161,123],[343,159],[-91,91],[-408,-115],[-417,-51],[-303,-112],[-258,12],[-570,-155],[-690,12],[-167,131],[205,255],[391,-24],[12,139],[-344,190],[-317,-170],[-150,154],[-391,12],[-243,-87],[-100,357],[94,386],[346,286],[80,214],[622,207],[3,198],[-343,87],[-185,199],[91,199],[364,301],[367,159],[305,235],[256,285],[537,124],[285,162],[996,366],[217,35],[1116,441],[361,-119],[276,-298],[68,-214],[-100,-369],[32,-417],[-379,-124],[42,-373],[493,171],[94,-52],[405,270],[-182,60],[241,326],[226,194],[200,56],[543,-131],[182,-112],[335,-43],[596,-219],[97,-131],[279,-67],[-79,-381],[-232,-135],[-80,-167],[-384,-231],[270,-131],[103,235],[191,91],[361,-44],[405,393],[552,-107],[267,-167]],[[29060,76811],[-153,-187],[-335,-174],[-798,-235],[-855,-468],[-200,-28],[-737,-409],[-763,-330],[-506,-290],[-32,-238],[-129,-194],[-38,-251],[-491,-282],[-478,-27],[0,-322],[-268,-290],[56,-635],[-150,-382],[-135,-123],[-405,-151],[-485,-119],[-314,215],[-517,-501],[-534,-210],[-191,-211],[-344,-4],[-173,108],[-206,286],[-211,516],[-209,194],[-290,382],[-676,250],[-646,330],[-44,95],[-587,-76],[79,314],[-35,163],[511,826],[270,183],[129,333],[-103,314],[294,151],[326,71],[-3,127],[-297,96],[-120,174],[214,223],[256,572],[429,290],[11,297],[321,251],[-124,174],[-296,28],[-59,175],[-306,365],[36,111],[-127,350],[-235,202],[755,131],[690,56],[197,56],[770,31],[572,84],[608,143],[508,-111],[223,-211],[882,-345],[558,-131],[584,-40],[85,-286],[311,91],[80,223],[746,147],[734,-120],[623,-349],[1069,-862],[311,-131],[367,-405]],[[26273,82573],[-168,-377],[-769,-568],[-899,234],[86,143],[384,243],[420,389],[544,159],[61,115],[482,218],[223,-91],[-135,-266],[-229,-199]],[[35077,83372],[-428,178],[-15,231],[443,218]],[[35077,80056],[-384,-135],[-743,-433],[-464,-115],[-279,-163],[-658,-131],[-223,-84],[-664,-39],[-758,115],[-543,294],[-303,282],[232,182],[547,183],[290,12],[435,246],[355,107],[832,52],[323,-52],[249,64],[599,397],[86,183],[-329,35],[-147,-194],[-347,-88],[-431,0],[-324,-71],[-393,127],[-185,-155],[-1166,-123],[-59,302],[176,377],[-296,64],[-171,-342],[-276,-377],[-587,-234],[-267,75],[23,234],[-261,8],[-350,-317],[-511,166],[-428,350],[-253,-151],[-840,190],[-185,223],[535,453],[1312,8],[511,250],[-120,139],[-476,-163],[-1224,-8],[-33,143],[388,373],[2273,191],[21,103],[-1522,-103],[-572,75],[-6,151],[270,76],[-261,155],[202,250],[411,103],[365,-44],[-97,246],[58,183],[412,223],[1201,111],[276,-76],[129,-194],[-53,-163],[200,-318],[687,183],[408,16],[270,-163],[365,-83],[-94,-147],[173,-183],[576,-195],[82,-127],[-458,-127],[784,-79],[150,-242],[-56,-239],[155,-214],[861,111],[106,-79],[469,11]],[[29609,84658],[-3,119],[458,175],[667,40],[379,-151],[64,-151],[-425,-115],[-670,12],[-470,71]],[[24540,83308],[-414,-258],[217,-135],[-420,-429],[-449,-64],[-261,32],[114,302],[-373,135],[30,318],[-335,12],[29,-366],[-537,-166],[-65,107],[-399,139],[-317,-44],[-338,-230],[-347,111],[282,298],[-12,99],[-417,95],[250,199],[53,214],[244,131],[470,72],[464,0],[396,580],[323,43],[623,286],[314,461],[297,226],[499,227],[109,230],[531,175],[728,0],[368,71],[704,-250],[420,75],[-152,199],[91,179],[572,214],[714,-321],[423,-271],[-593,-254],[-362,-39],[30,-374],[440,-166],[-217,-179],[-21,-167],[168,-314],[-488,-282],[-496,-20],[-352,-115],[158,-413],[-473,-230],[-528,159],[-212,186],[88,664],[185,190],[-652,36],[44,-492],[-728,-108],[338,-218],[88,-211],[-94,-131],[-311,-91],[29,-194],[-388,-143],[-82,210]],[[30910,87327],[-41,-234],[-652,-135],[-631,353],[-294,242],[364,56],[132,123],[638,-79],[185,-199],[299,-127]],[[35077,87486],[-249,-80],[-699,-71],[138,-250],[670,39],[82,-361],[-203,-310],[-731,-222],[-452,47],[-937,-254],[-409,108],[-146,202],[-403,40],[-276,139],[-61,345],[76,167],[-156,163],[94,234],[1099,266],[655,40],[185,83],[922,92],[801,-12]],[[35077,88443],[-370,-103],[-575,71],[-356,183],[-317,-282],[-390,-8],[-450,258],[-655,-123],[-346,-127],[-311,151],[138,170],[1204,362],[379,-20],[446,139],[164,155],[635,198],[326,32],[478,-190]],[[89391,11552],[-32,-119],[-153,-135],[-158,-32],[-147,-309],[-159,51],[-12,-147],[147,-234],[-79,-56],[-21,-206],[-261,-16],[-176,187],[17,143],[-91,186],[-123,76],[-144,-155],[-446,186],[-179,235],[-24,131],[-144,115],[-61,-56],[-165,40],[29,310],[-138,218],[-173,-16],[-38,131],[53,183],[111,163],[44,187],[203,285],[88,-309],[-132,-274],[173,-203],[121,-202],[-56,-215],[76,-163],[97,-27],[21,278],[82,19],[347,-166],[155,-163],[273,-16],[494,123],[376,28],[205,-56]]],"bbox":[-141.0050396175947,41.67628433559227,-52.627883000122566,83.1173426382575],"transform":{"scale":[0.0008837804039787611,0.000414414727173924],"translate":[-141.0050396175947,41.67628433559227]}}