{"type":"Topology","objects":{"a1":{"type":"GeometryCollection","geometries":[{"type":"Polygon","arcs":[[0,1]],"id":"CHL-2694","properties":{"adm1_code":"CHL-2694","iso_3166_2":"CL-AP","name":"Arica y Parinacota","admin":"Chile","adm0_a3":"CHL","type_en":"Region"}},{"type":"Polygon","arcs":[[-1,2,3,4]],"id":"CHL-2693","properties":{"adm1_code":"CHL-2693","iso_3166_2":"CL-TA","name":"Tarapacá","admin":"Chile","adm0_a3":"CHL","type_en":"Region"}},{"type":"Polygon","arcs":[[-4,5,6,7]],"id":"CHL-2695","properties":{"adm1_code":"CHL-2695","iso_3166_2":"CL-AN","name":"Antofagasta","admin":"Chile","adm0_a3":"CHL","type_en":"Region"}},{"type":"Polygon","arcs":[[-7,8,9,10]],"id":"CHL-2696","properties":{"adm1_code":"CHL-2696","iso_3166_2":"CL-AT","name":"Atacama","admin":"Chile","adm0_a3":"CHL","type_en":"Region"}},{"type":"Polygon","arcs":[[-10,11,12,13]],"id":"CHL-2697","properties":{"adm1_code":"CHL-2697","iso_3166_2":"CL-CO","name":"Coquimbo","admin":"Chile","adm0_a3":"CHL","type_en":"Region"}},{"type":"Polygon","arcs":[[14,15,16]],"id":"CHL-2698","properties":{"adm1_code":"CHL-2698","iso_3166_2":"CL-RM","name":"Región Metropolitana de Santiago","admin":"Chile","adm0_a3":"CHL","type_en":"Region"}},{"type":"MultiPolygon","arcs":[[[17,-17,18,19,-13]],[[20]]],"id":"CHL-2699","properties":{"adm1_code":"CHL-2699","iso_3166_2":"CL-VS","name":"Valparaíso","admin":"Chile","adm0_a3":"CHL","type_en":"Region"}},{"type":"Polygon","arcs":[[21,22,23,24]],"id":"CHL-2705","properties":{"adm1_code":"CHL-2705","iso_3166_2":"CL-ML","name":"Maule","admin":"Chile","adm0_a3":"CHL","type_en":"Region"}},{"type":"Polygon","arcs":[[25,-25,26,-19,-16]],"id":"CHL-2703","properties":{"adm1_code":"CHL-2703","iso_3166_2":"CL-LI","name":"Libertador General Bernardo O'Higgins","admin":"Chile","adm0_a3":"CHL","type_en":"Region"}},{"type":"Polygon","arcs":[[-23,27,28,29]],"id":"CHL-20010","properties":{"adm1_code":"CHL-20010","iso_3166_2":"CL-NB","name":"Ñuble","admin":"Chile","adm0_a3":"CHL","type_en":"Region"}},{"type":"Polygon","arcs":[[30,31,32,33]],"id":"CHL-2700","properties":{"adm1_code":"CHL-2700","iso_3166_2":"CL-AR","name":"La Araucanía","admin":"Chile","adm0_a3":"CHL","type_en":"Region"}},{"type":"Polygon","arcs":[[34,-34,35,-29]],"id":"CHL-2702","properties":{"adm1_code":"CHL-2702","iso_3166_2":"CL-BI","name":"Bío-Bío","admin":"Chile","adm0_a3":"CHL","type_en":"Region"}},{"type":"Polygon","arcs":[[36,37,38,-32]],"id":"CHL-2701","properties":{"adm1_code":"CHL-2701","iso_3166_2":"CL-LR","name":"Los Ríos","admin":"Chile","adm0_a3":"CHL","type_en":"Region"}},{"type":"MultiPolygon","arcs":[[[39,40,41,-38]],[[42]],[[43]]],"id":"CHL-2704","properties":{"adm1_code":"CHL-2704","iso_3166_2":"CL-LL","name":"Los Lagos","admin":"Chile","adm0_a3":"CHL","type_en":"Region"}},{"type":"MultiPolygon","arcs":[[[44,45,46,-41]],[[47]],[[48]],[[49]],[[50]],[[51]],[[52]],[[53]],[[54]],[[55]],[[56]],[[57]],[[58]],[[59]],[[60]],[[61]],[[62]],[[63]],[[64]],[[65]],[[66]],[[67]],[[68]],[[69]],[[70]],[[71]],[[72]],[[73]],[[74]],[[75]],[[76]],[[77]],[[78]],[[79]],[[80]],[[81]],[[82]],[[83]],[[84]],[[85]],[[86]],[[87]],[[88]],[[89]],[[90]],[[91]],[[92]]],"id":"CHL-2691","properties":{"adm1_code":"CHL-2691","iso_3166_2":"CL-AI","name":"Aisén del General Carlos Ibáñez del Campo","admin":"Chile","adm0_a3":"CHL","type_en":"Region"}},{"type":"MultiPolygon","arcs":[[[-46,93]],[[94]],[[95]],[[96]],[[97]],[[98]],[[99]],[[100]],[[101]],[[102]],[[103]],[[104]],[[105]],[[106]],[[107]],[[108]],[[109]],[[110]],[[111]],[[112]],[[113]],[[114]],[[115]],[[116]],[[117]],[[118]],[[119]],[[120]],[[121]],[[122]],[[123]],[[124]],[[125]],[[126]],[[127]],[[128]],[[129]],[[130]],[[131]],[[132]],[[133]],[[134]],[[135]],[[136]],[[137]],[[138]],[[139]],[[140]],[[141]],[[142]],[[143]],[[144]]],"id":"CHL-2692","properties":{"adm1_code":"CHL-2692","iso_3166_2":"CL-MA","name":"Magallanes y Antártica Chilena","admin":"Chile","adm0_a3":"CHL","type_en":"Region"}}]}},"arcs":[[[94039,96238],[-205,-271],[-265,-138],[-247,35],[-380,146],[-224,13],[-235,103],[-302,0],[-518,-151],[-465,-288],[-132,-39]],[[91066,95648],[-206,1042],[19,357],[108,499],[-211,280],[175,43],[428,8],[380,177],[248,280],[187,426],[-169,645],[90,198],[314,9],[404,387],[78,-379],[272,-279],[54,-121],[79,-447],[506,-164],[-169,-267],[127,-245],[54,-430],[103,-207],[-18,-318],[72,-379],[133,-293],[-85,-232]],[[94039,96238],[163,-284],[242,-155],[271,-267],[84,-150],[392,-271],[109,-151],[-145,-99],[-157,-241],[-265,-344],[-18,-129],[338,-293],[30,-164],[-109,-352],[-434,-91],[115,-159],[-12,-207],[120,-258],[-211,-163],[193,-332],[410,-219],[67,-108],[-211,-262],[0,-340],[96,-142]],[[95107,91057],[-90,-383],[-193,-69],[-332,-370],[-760,-250],[-519,-211],[-374,-68],[-247,133],[-465,9],[-235,-160],[-344,5]],[[91548,89693],[-72,271],[30,292],[-193,504],[84,275],[-181,512],[0,556],[91,206],[-60,215],[138,258],[-66,121],[84,392],[-78,662],[18,258],[-151,323],[36,159],[-60,323],[-145,288],[43,340]],[[95107,91057],[265,-86],[483,-848],[36,-116],[-12,-637],[211,-568],[24,-430],[248,-271],[42,-297],[90,-211],[-24,-267],[199,-555],[-78,-392],[36,-305],[241,-147],[525,-8],[821,185],[416,-469],[-12,-82],[-537,-1833],[-205,-702],[-55,-77],[-1508,-689],[-542,-236],[-163,-267],[-193,-35],[-91,-206],[-157,-86],[-156,-413],[42,-241],[175,-99],[84,-319],[175,-215],[-30,-86],[-272,-60],[-132,-344]],[[95053,79645],[-380,-228],[-658,-9],[0,-297],[-181,-400],[-844,-82],[-296,82],[-332,-30],[-398,-228],[-301,-31],[-97,99],[-217,-43],[-289,-232],[-296,9],[-356,-259],[-193,-279]],[[90215,77717],[-30,224],[-145,284],[42,374],[133,172],[-36,224],[277,219],[43,181],[156,112],[18,396],[-138,232],[60,336],[-115,146],[-126,491],[48,331],[-66,211],[96,288],[-24,129],[121,702],[-61,262],[61,220],[6,335],[217,349],[-18,366],[-199,107],[-97,-163],[-157,56],[49,228],[-31,469],[73,116],[12,366],[133,129],[126,-228],[181,125],[175,344],[-36,336],[78,249],[6,362],[55,262],[126,1179],[115,375],[-6,516],[115,146],[96,418]],[[95053,79645],[-121,-379],[6,-194],[115,-163],[-12,-237],[138,-237],[193,-886],[-6,-224],[-362,-327],[-48,-400],[61,-245],[579,-835],[42,-147],[-67,-309],[-434,-86],[-157,-224],[-307,146],[-193,-17],[-187,-284],[-6,-189],[-109,-263],[-187,-142],[-42,-267],[-151,-275],[-96,-301],[-91,-401],[-302,-193],[-271,-560],[-163,39],[-42,-181],[-338,-348],[-48,-426],[-151,-203],[12,-447],[-169,-387],[6,-362],[-247,-116],[-277,-353],[-31,-224],[175,-576],[-12,-215],[103,-138]],[[91856,68069],[-368,-73],[-435,146],[-343,357],[-109,207],[-241,938],[-229,120],[-133,-43],[-151,-198],[-422,-116],[-109,-404],[-410,69],[-151,275],[-301,120],[-217,-73]],[[88237,69394],[0,461],[-85,249],[85,250],[223,120],[205,323],[-24,241],[102,254],[139,103],[84,224],[79,1084],[96,190],[139,542],[290,116],[48,336],[-127,318],[36,194],[-66,357],[205,112],[54,185],[139,133],[-78,289],[84,258],[127,99],[90,538],[-30,133],[145,465],[-66,404],[84,345]],[[91856,68069],[18,-577],[-127,-314],[296,-176],[-127,-487],[-295,-219],[-272,112],[-6,-276],[-157,-146],[-235,-749],[-48,-628],[-97,-207],[-229,65],[-133,-198],[-72,-344],[-54,-646],[247,-645],[133,-189],[265,-35],[169,-206],[-79,-198],[-253,-65],[115,-202],[6,-185]],[[90921,61554],[-302,13],[-114,163],[-314,129],[-175,164],[-265,39],[-290,111],[-199,-150],[-217,107],[-465,-232],[-199,108],[-277,-409]],[[88104,61597],[84,563],[-72,366],[54,164],[-126,482],[-230,1153],[30,456],[-120,512],[-12,431],[84,714],[85,237],[283,-69],[169,301],[145,39],[0,267],[-67,142],[290,215],[-84,318],[0,344],[84,138],[-115,207],[67,271],[-157,361],[-259,185]],[[91446,59350],[12,-348],[211,-297],[241,159],[217,-133],[61,-233],[-254,-740],[85,-168],[-127,-176],[12,-426],[121,-73],[-37,-409],[91,-267],[-181,-107],[-320,0]],[[91578,56132],[-229,284],[-133,271],[-289,73],[-91,198],[-205,181],[-301,-91],[-525,-64],[-6,-181],[-404,-383],[-453,21],[-265,207],[-139,-47],[-464,215],[-157,-47],[-217,180]],[[87700,56949],[277,151],[181,202],[278,103],[-49,177],[127,146],[0,422],[-193,206],[12,250],[881,732],[344,189],[410,73],[151,-146],[138,103],[296,-254],[199,-39],[241,-223],[350,297],[103,12]],[[90921,61554],[24,-181],[151,-90],[24,-237],[169,-159],[-18,-431],[96,-361],[326,-284],[-79,-263],[-168,-198]],[[87700,56949],[-356,99]],[[87344,57048],[145,409],[283,146],[72,168],[37,409],[-151,172],[78,198],[-114,499],[175,392],[181,43],[114,336],[-72,202],[114,77],[127,323],[-72,284],[150,430],[-307,461]],[[519,74937],[-30,-99],[-489,-151],[72,233],[133,94],[314,-77]],[[90824,54187],[-30,-362],[-362,-112],[-42,-232],[199,-43],[66,-383],[91,-121],[-36,-400],[150,-404],[-144,-142],[90,-465],[-114,-215],[-97,-86],[-271,30],[-266,-289],[-36,-404],[-205,-47],[-193,86],[-103,-190],[-217,-21]],[[89304,50387],[-96,163],[-205,22],[-598,-43],[-1043,525],[-434,267],[-326,-190],[-447,22],[-265,335],[-470,125],[-236,-107]],[[85184,51506],[49,262],[422,375],[-6,309],[-109,327],[272,198],[114,332],[272,409],[307,236],[103,603],[199,327]],[[86807,54884],[368,-233],[289,-64],[193,-198],[224,77],[452,-26],[278,224],[319,65],[537,-250],[344,0],[302,-219],[380,0],[331,-73]],[[91578,56132],[-24,-293],[-211,-318],[-181,-177],[-54,-288],[-151,-134],[90,-137],[-223,-598]],[[86807,54884],[102,266],[25,667],[120,91],[0,409],[-72,133],[362,598]],[[89304,50387],[-78,-103],[12,-396],[-205,-43],[-121,-396],[85,-112],[48,-469],[114,-108]],[[89159,48760],[-488,26],[-223,142],[-284,-77],[-127,-164],[-367,34],[-296,-116],[-802,-94],[-145,64],[12,198],[157,168],[-284,133],[-163,151],[-355,-9],[-193,603],[-411,241],[-48,387],[-181,52]],[[84961,50499],[151,340],[-12,335],[84,332]],[[89328,46041],[0,-319],[103,-417],[289,-271],[-60,-426],[-217,-155],[-187,8],[-416,-163],[-441,-327],[-30,-237],[67,-551],[-139,-516],[-187,-258],[48,-216],[-277,39]],[[87881,42232],[-97,271],[-271,78],[-320,-586],[-308,-142],[-356,0],[-156,82],[-199,-51],[-139,159],[-260,129],[-567,99],[-410,-13],[55,478],[-218,111],[-488,-55]],[[84147,42792],[60,116],[-145,697],[-181,422],[-168,593],[-115,130],[-97,421]],[[83501,45171],[314,125],[284,-56],[-31,306],[157,137],[284,370],[-175,237],[84,405],[163,215],[-114,267],[108,159],[205,-43],[320,82],[332,-26],[434,-95],[72,-211],[296,-284],[302,-120],[301,-267],[253,34],[169,-107],[350,13],[91,-86],[54,-379],[193,4],[344,142],[169,190],[217,73],[223,-26],[428,-189]],[[89159,48760],[-132,-133],[0,-159],[-139,-203],[193,-396],[-24,-383],[-115,-94],[-6,-207],[229,-615],[181,-327],[-18,-202]],[[83501,45171],[-42,142],[139,530],[48,331],[-96,417],[-278,456],[-102,99],[-24,371],[168,172],[-18,262],[-138,129],[66,422],[84,120],[326,-206],[428,56],[169,138],[85,219],[66,637],[-30,258],[362,56],[102,241],[-66,241],[145,47],[66,190]],[[87881,42232],[-181,-60],[6,-271],[211,-534],[-133,-206],[-6,-233],[-271,48],[-55,-340],[338,-340],[-90,-190],[-199,-34],[-133,-349]],[[87368,39723],[-350,-241],[-899,-64],[-301,8],[-447,142],[-386,250],[-247,443],[-483,0],[-585,151],[-500,0],[-187,60]],[[82983,40472],[30,258],[175,168],[-55,439],[386,142],[266,220],[-6,284],[247,292],[133,245],[-12,272]],[[87368,39723],[18,-150],[-241,-271],[108,-340],[139,-228],[-42,-190],[36,-125],[-48,-499],[-73,-310],[37,-348],[84,-177],[-169,-142],[157,-430],[151,-211],[54,-344],[78,-224],[-150,-120],[-344,-95],[-211,60],[-199,-314],[150,-275],[43,-319],[-187,-103],[-61,-163],[85,-706],[-85,-353],[121,-211],[205,-108],[344,-34],[271,-151],[-18,-275],[-350,-69],[-84,-353],[151,-215],[350,-146],[42,-198],[-266,-228],[368,-439],[-199,-310]],[[87633,30609],[-114,116],[-803,159],[-277,371],[-205,167],[-386,-103],[-995,211],[-230,-99]],[[84623,31431],[157,284],[-120,90],[-200,332],[61,378],[404,211],[-54,357],[163,207],[241,26],[30,262],[-217,185],[-54,568],[96,306],[332,0],[-187,323],[-115,361],[441,151],[144,-69],[193,-254],[-30,637],[60,206],[-126,91],[-145,-211],[-368,47],[-181,91],[-108,193],[506,478],[-247,456],[-241,133],[-242,35],[-356,-267],[121,-293],[-332,-228],[-374,31],[-349,-78],[-338,121],[-97,198],[18,232],[-241,69],[-133,378],[30,233],[-180,469],[-67,473],[217,147],[-90,137],[120,517],[260,318],[-121,280],[79,430]],[[83761,34581],[-495,215],[193,168],[302,-383]],[[81619,32606],[-156,56],[144,417],[254,202],[-6,276],[150,90],[-6,306],[103,249],[-145,624],[109,297],[-12,267],[217,224],[-6,486],[169,207],[271,-69],[410,215],[356,-78],[12,-331],[199,-250],[-96,-219],[235,-129],[30,-164],[-313,-180],[-405,-112],[-60,-443],[-187,90],[-48,-271],[259,-155],[151,-194],[271,-125],[55,-202],[-362,-43],[368,-568],[-537,-107],[-54,-224],[163,-138],[-19,-267],[-452,-107],[-965,266],[-97,104]],[[87633,30609],[-259,-163],[121,-302],[-61,-125],[24,-348],[893,4],[531,-69],[199,-266],[-271,-336],[-55,-310],[-169,-64],[-374,154],[-313,-99],[-362,61],[-157,-86],[-446,94],[-97,-73],[18,-275],[447,-155],[301,39],[133,-108],[265,-13],[211,-348],[368,-323],[67,-168],[-229,-211],[-230,-77],[-42,-289],[-434,-34],[-121,-103],[-78,-439],[126,-310],[181,-69],[127,-224],[-90,-77],[-278,-297],[-338,-103],[350,-241],[30,-388],[157,-331],[-6,-443],[-392,-276],[-181,-13],[-84,-352],[126,-168],[-199,-112],[320,-332],[-115,-172],[-223,95],[-115,-297],[-259,-250],[-368,-51],[-36,-461],[-265,-383],[-199,-434],[150,-207],[314,-198],[78,-370],[-36,-193],[-253,-302],[-332,-133],[-90,-151],[72,-279],[-18,-457],[-350,-322],[-621,-198],[-374,-521],[0,-159]],[[84322,16998],[-2081,1330]],[[82241,18328],[-242,99],[-313,-65],[-199,340],[452,327],[332,-202],[133,357],[-616,206],[-132,323],[-290,78],[-163,241],[-265,81],[6,142],[253,117],[235,-61],[821,-47],[235,-125],[163,69],[295,-172],[399,-138],[253,48],[-253,210],[-145,289],[175,344],[-302,65],[-501,-177],[-259,56],[-90,129],[-284,-43],[-223,56],[-778,0],[-254,164],[230,155],[60,202],[446,13],[175,112],[-374,133],[-54,125],[284,206],[193,323],[428,-9],[422,426],[-145,211],[-229,-21],[-289,318],[-55,220],[-404,38],[-199,-90],[-290,35],[-72,-250],[-271,215],[-133,-34],[-374,249],[-157,203],[-271,30],[-549,-52],[199,-654],[-465,-125],[-362,422],[6,383],[157,176],[278,48],[301,202],[-6,129],[441,331],[144,-34],[115,258],[308,0],[567,603],[54,374],[567,86],[362,-17],[235,56],[290,-448],[193,-168],[-12,-322],[241,30],[259,-246],[-54,-331],[-452,-516],[150,-99],[218,51],[205,409],[374,288],[-157,306],[72,241],[-96,331],[241,254],[151,396],[-199,9],[138,688],[441,310],[277,103],[109,-167],[344,-207],[356,-52],[6,198],[-290,-30],[-639,400],[-169,-94],[-302,47],[54,198],[308,120],[-235,310],[133,177],[536,26],[278,228],[193,34],[241,211],[193,21],[-6,246],[103,460],[-573,327],[12,112],[-290,125],[-205,163],[-332,95],[12,168],[338,163],[-18,164],[181,219],[193,366],[-145,82]],[[79285,18633],[-320,-374],[-319,-69],[-91,206],[447,39],[283,198]],[[79309,18822],[-30,-163],[-386,-211],[42,241],[-320,-73],[-114,125],[163,378],[187,-86],[175,112],[193,-64],[90,-259]],[[81300,19076],[151,99],[235,-189],[-290,-95],[-96,185]],[[82186,19012],[-362,224],[121,81],[320,-163],[-79,-142]],[[81245,19352],[350,172],[260,-362],[-91,-103],[-519,293]],[[81233,18741],[-66,-237],[-217,-47],[-296,163],[-458,26],[-151,86],[-48,215],[199,228],[295,35],[49,361],[307,4],[187,-361],[-30,-422],[229,-51]],[[81131,19425],[-139,228],[109,293],[343,-237],[13,-202],[-326,-82]],[[79701,19485],[6,99],[-229,504],[428,-108],[127,69],[440,-164],[-24,-520],[-452,-259],[-296,379]],[[79725,18547],[-132,-112],[-230,323],[-36,219],[115,198],[-223,86],[-217,-86],[-218,104],[79,378],[-151,388],[483,202],[253,-413],[151,-444],[241,-339],[66,-345],[-181,-159]],[[79442,20195],[151,288],[277,130],[332,-43],[163,180],[199,9],[54,-189],[-108,-142],[193,-439],[-706,198],[-163,107],[-223,-133],[-169,34]],[[81432,20428],[-205,55],[248,203],[349,86],[730,-194],[266,39],[-30,-228],[-664,21],[-470,-94],[-224,112]],[[79647,20707],[-350,190],[561,206],[157,-323],[-368,-73]],[[80341,21021],[-169,-167],[-230,223],[127,73],[272,-129]],[[81306,22687],[259,77],[85,-120],[-278,-190],[-66,233]],[[82223,22829],[229,-73],[-211,-233],[-181,-90],[-199,181],[144,232],[218,-17]],[[83037,25363],[90,-142],[-138,-215],[-453,314],[236,142],[265,-99]],[[83073,25695],[-12,-254],[-247,60],[78,220],[181,-26]],[[80648,26000],[85,-107],[-121,-366],[-356,-301],[-356,25],[-90,543],[139,60],[380,-47],[319,193]],[[82995,26035],[-266,-452],[-193,150],[459,302]],[[82566,26164],[-96,-297],[-145,-116],[-139,232],[109,198],[271,-17]],[[81107,26607],[-67,-417],[-271,17],[90,331],[248,69]],[[82229,26306],[-97,267],[193,146],[278,-155],[-25,-275],[-349,17]],[[81227,26198],[109,142],[-79,185],[157,396],[302,-64],[199,-409],[-314,-254],[-301,-108],[-73,112]],[[83170,26968],[187,-111],[-24,-250],[-194,-465],[-319,289],[108,340],[242,197]],[[82663,26878],[36,-237],[-374,117],[-78,245],[416,-125]],[[81601,27227],[-84,-164],[-260,121],[-24,180],[260,9],[108,-146]],[[82802,27416],[-6,-215],[-429,-13],[-271,77],[-91,185],[230,125],[193,-172],[374,13]],[[81758,27567],[-78,-224],[-248,120],[133,237],[193,-133]],[[83019,27549],[-229,-73],[-411,26],[-181,241],[-229,-73],[-157,155],[103,176],[682,121],[313,-112],[151,-198],[-42,-263]],[[81770,28255],[187,198],[507,-90],[127,-108],[-350,-142],[-278,17],[-193,125]],[[82560,28664],[218,13],[168,-383],[-174,-73],[-200,172],[-12,271]],[[79858,28642],[139,-279],[-181,-56],[-211,284],[253,51]],[[83314,28780],[-54,-224],[-235,22],[-30,176],[319,26]],[[81601,28617],[-295,-52],[-133,189],[229,95],[199,-232]],[[81276,29064],[-6,-163],[-356,21],[36,177],[326,-35]],[[82566,29081],[121,-172],[-320,-56],[-621,-228],[-295,284],[12,181],[313,60],[561,0],[229,-69]],[[83188,28957],[-217,-168],[-199,202],[96,288],[229,43],[169,-271],[-78,-94]],[[81945,29439],[91,-177],[-441,-34],[-54,124],[404,87]],[[81481,29297],[-302,51],[-54,134],[561,215],[193,-194],[-459,-99],[61,-107]],[[83833,29189],[193,-47],[85,335],[603,306],[223,-241],[320,-35],[108,-163],[-211,-280],[-54,-193],[-724,-530],[-253,-73],[-350,306],[18,116],[-157,357],[199,142]],[[82144,30131],[169,173],[205,-211],[-344,-104],[-30,142]],[[84189,30695],[-102,241],[307,43],[-78,-318],[-127,34]],[[82060,31177],[229,82],[181,-86],[241,103],[235,-258],[-361,-17],[-181,-108],[-393,164],[49,120]],[[80497,31681],[-18,189],[411,21],[162,-210],[-458,-104],[-97,104]],[[80883,20798],[290,-43],[6,-142],[-380,12],[84,173]],[[79321,23707],[410,-35],[-36,-219],[-374,254]],[[84322,16998],[169,-60],[-109,-82],[-724,-9],[-12,-176],[-205,-181],[-84,-224],[156,-258],[-48,-168],[175,-176],[-253,-452],[217,-232],[-115,-310],[483,-336],[108,-249],[31,-504],[162,-219],[37,-284],[187,-56],[736,396],[374,-125],[259,172],[476,-125],[-84,-293],[175,-197],[-72,-504],[-236,-163],[30,-181],[290,-181],[-127,-176],[-90,-465],[-229,-202],[229,-82],[163,-310],[482,-198],[266,-237],[96,-318],[3330,-34],[1236,-9],[1086,-327],[634,-17],[476,-108],[434,-168],[851,-146],[18,-125],[-615,108],[-435,8],[-536,250],[-242,13],[-579,-228],[-30,-250],[-410,-379],[-404,112],[-1104,-396],[-459,-219],[-150,133],[-308,-172],[-223,-219],[-66,-215],[54,-233],[-326,-602],[-84,-418],[126,-546],[-78,-430],[-145,-142],[-452,-168],[-248,-13],[-331,133],[-386,13],[-513,237],[-434,69],[-537,327],[-392,456],[66,198],[332,232],[428,-64],[271,116],[338,-78],[857,314],[193,18],[301,284],[127,245],[187,9],[-121,279],[-181,65],[-657,-207],[-875,-374],[-247,-284],[-169,-39],[-464,271],[-97,-499],[-326,-163],[-36,-327],[278,-336],[-368,-17],[-465,211],[-42,163],[-320,47],[-748,370],[139,138],[368,73],[211,271],[-163,607],[465,142],[133,164],[217,-91],[114,-236],[579,215],[350,258],[724,-112],[513,30],[350,95],[-218,224],[-434,-18],[-350,69],[-319,-43],[-91,99],[-561,-13],[-199,-322],[-561,331],[-289,-56],[-163,108],[-127,-336],[247,39],[272,-121],[-254,-236],[-500,-211],[120,-160],[0,-340],[-380,-189],[-488,65],[-151,232],[241,211],[-585,318],[567,-8],[61,288],[-417,99],[-416,-288],[-139,387],[362,366],[-313,86],[241,267],[-115,120],[73,177],[-380,374],[108,103],[392,-443],[230,112],[223,-172],[265,103],[314,254],[446,65],[54,232],[157,82],[248,-117],[-18,-206],[205,-103],[187,-250],[-224,-551],[314,237],[48,336],[-428,395],[-24,198],[326,18],[181,107],[-133,198],[96,125],[-126,198],[-441,344],[-193,-34],[212,-267],[331,-73],[-36,-185],[-344,-112],[-241,185],[-344,-4],[133,-233],[-525,-211],[-72,-370],[-326,-224],[-519,293],[-253,594],[362,-73],[-374,434],[-61,-210],[-518,413],[-73,555],[501,112],[6,176],[-157,172],[-301,-21],[-127,99],[-374,17],[-42,353],[-211,64],[-43,233],[350,176],[537,-47],[199,241],[12,288],[344,181],[-205,150],[-235,-309],[36,-164],[-320,-232],[-223,21],[-193,155],[-253,413],[84,121],[-229,202],[392,151],[-802,206],[-43,215],[-440,138],[-24,108],[277,180],[748,48],[-265,236],[229,151],[272,-207],[452,-34],[-440,297],[-416,108],[60,197],[-54,426],[205,173],[416,68],[295,-77],[25,155],[-374,21],[-109,207],[90,379],[248,279],[-133,69],[-253,-322],[-163,-667],[-489,395],[73,142],[-49,525],[-108,254],[139,116],[-121,379],[187,293],[157,-82],[241,82],[314,-60]],[[94848,2487],[-31,-228],[-307,-86],[-652,-77],[-1019,228],[-670,193],[-663,-163],[-374,-17],[-857,198],[-343,-155],[-133,236],[-434,91],[-242,206],[-132,-159],[-296,56],[54,280],[-313,34],[-6,-219],[-169,-95],[-646,219],[-157,-163],[-325,21],[-91,194],[139,159],[501,276],[259,-250],[235,177],[754,13],[410,-52],[181,86],[169,258],[640,-189],[337,-233],[386,-142],[55,121],[-410,129],[-350,426],[-531,13],[-145,60],[-145,349],[1418,-555],[283,13],[296,189],[229,-129],[266,43],[392,-95],[235,-219],[205,155],[760,-349],[175,73],[-422,327],[-784,263],[-616,159],[-404,194],[-301,718],[114,194],[597,211],[531,56],[676,297],[96,189],[-78,245],[-748,-4],[-639,-108],[-163,-99],[-549,-64],[-507,400],[127,775],[410,-129],[253,129],[109,266],[-392,108],[-43,349],[338,8],[296,-284],[211,-17],[205,172],[205,22],[332,344],[-72,215],[90,129],[386,155],[103,-52],[343,-439],[199,-116],[513,112],[404,220],[278,-220],[-12,-1398],[-6,-1399],[-12,-1403],[-6,-1403],[0,-43]],[[97791,0],[-410,39],[30,198],[308,-104],[72,-133]],[[98998,1252],[-91,-159],[-380,17],[157,254],[314,-112]],[[99999,1476],[-181,-189],[-302,137],[230,112],[253,-60]],[[96344,323],[-338,-121],[-290,147],[36,241],[-814,163],[-295,-4],[-314,-108],[-235,198],[259,452],[-718,39],[-253,73],[-278,-189],[435,-396],[-217,-138],[-320,0],[-36,215],[-362,112],[-567,392],[-416,163],[337,237],[1068,82],[247,98],[1128,31],[229,86],[682,26],[223,-155],[24,-168],[-452,-125],[-78,-211],[422,17],[332,-279],[-447,-18],[447,-262],[561,-598]],[[96609,1325],[-458,31],[-175,94],[-67,568],[-331,-30],[-43,181],[941,43],[507,-78],[169,35],[808,-22],[278,-99],[283,-275],[-60,-310],[-428,-301],[-332,34],[-18,203],[-187,116],[-248,-43],[-90,-194],[-549,47]],[[91005,1747],[-506,-64],[-272,81],[-199,-120],[-326,168],[-313,64],[12,224],[440,-73],[664,-35],[500,-245]],[[91916,1971],[-60,258],[597,82],[1019,-168],[61,-103],[-1321,-168],[-296,99]],[[90710,2367],[-368,-138],[-61,172],[429,-34]],[[89407,2152],[-187,-56],[-507,206],[-84,-185],[-326,159],[235,142],[489,-38],[380,-228]],[[90800,4088],[368,-73],[-102,-146],[-441,90],[175,129]],[[86355,4372],[132,-86],[-145,-366],[-289,-8],[-205,137],[428,164],[79,159]],[[84304,4389],[-314,-129],[-103,254],[417,-125]],[[87899,4372],[-61,250],[453,107],[374,-129],[205,-413],[470,129],[49,-434],[-284,-297],[-422,163],[-199,185],[-278,95],[-349,-56],[-115,172],[157,228]],[[87006,4049],[-495,375],[-66,297],[525,56],[199,185],[271,-177],[236,56],[36,-650],[-290,-34],[-48,-409],[-368,301]],[[90637,5594],[-42,-142],[115,-357],[-67,-219],[266,-319],[-236,-138],[-398,293],[-144,-52],[241,-253],[66,-409],[-338,90],[-319,194],[-145,224],[6,486],[422,142],[-30,224],[344,198],[259,38]],[[82802,5960],[223,-73],[-139,-189],[-241,120],[157,142]],[[83809,6111],[-223,-99],[223,-207],[-211,-107],[-259,215],[90,223],[380,-25]],[[85812,4381],[-302,64],[-362,-198],[-271,177],[289,137],[-72,121],[223,172],[-169,194],[-187,-125],[-398,95],[-78,-207],[132,-232],[-374,25],[-241,435],[133,99],[-260,189],[-585,164],[73,176],[235,-13],[332,108],[-109,224],[591,-73],[-66,202],[295,56],[230,-116],[144,-263],[507,-4],[597,-250],[-199,-107],[579,-142],[109,-125],[-145,-267],[-181,99],[-133,-370],[-337,-245]],[[84237,6360],[-253,-90],[-241,181],[-326,-104],[-103,293],[-530,267],[-109,133],[-483,-120],[-404,34],[-337,159],[-43,147],[-398,133],[60,189],[-416,250],[175,90],[398,-271],[224,-232],[367,-125],[163,43],[706,-151],[139,-154],[362,8],[253,-155],[265,-60],[531,-465]],[[82772,7974],[-169,116],[-501,-26],[-133,211],[314,60],[169,168],[-127,181],[314,56],[507,-172],[-242,-233],[103,-77],[-235,-284]],[[80835,8787],[-332,104],[0,296],[525,65],[121,-155],[-133,-323],[-181,13]],[[82928,8817],[-536,323],[-181,280],[615,-241],[102,-362]],[[82114,8766],[-151,81],[-66,517],[-290,8],[97,216],[416,-254],[392,-327],[-398,-241]],[[83073,9321],[-380,237],[-507,223],[85,267],[627,-396],[175,-331]],[[80654,9695],[-253,-34],[181,482],[326,-69],[-205,-185],[-49,-194]],[[79930,10117],[-138,9],[150,400],[200,-30],[-73,-280],[-139,-99]],[[81384,10212],[-157,361],[429,-146],[518,-297],[-114,-185],[-229,17],[-447,250]],[[80329,9803],[-212,-134],[-199,151],[67,194],[241,167],[296,581],[102,-387],[-295,-572]],[[82524,10483],[-241,-134],[-428,224],[374,267],[295,-357]],[[81939,11305],[-133,357],[205,8],[127,-365],[-199,0]],[[80015,11559],[-308,-315],[55,-215],[-169,-180],[-248,-74],[-6,246],[211,120],[12,482],[181,108],[272,-172]],[[82874,11748],[36,-276],[-332,155],[296,121]],[[80678,11460],[-138,-168],[-380,271],[289,138],[103,167],[446,18],[121,-207],[-103,-301],[-338,82]],[[81420,12131],[-12,-245],[-350,133],[-66,194],[428,-82]],[[81499,12471],[-579,-155],[18,-121],[-615,99],[-49,233],[79,193],[591,-103],[175,456],[362,-310],[-97,-146],[115,-146]],[[80292,12953],[-126,181],[506,55],[-36,-124],[223,-181],[-72,-172],[-356,47],[-139,194]],[[79780,13745],[-31,-142],[-349,-254],[24,-327],[-362,77],[-109,172],[61,181],[223,43],[-157,198],[700,52]],[[81674,12854],[-477,271],[-151,254],[260,292],[-398,108],[205,151],[175,-138],[217,52],[120,-315],[139,-124],[199,-547],[-289,-4]],[[80576,13779],[108,284],[296,22],[-72,-224],[-332,-82]],[[79979,14278],[-326,-236],[-211,137],[-440,-56],[144,465],[296,-202],[169,-17],[163,223],[-411,117],[-223,228],[175,94],[447,-211],[422,-68],[271,-289],[-247,0],[-229,-185]],[[79032,15625],[-392,-232],[-25,279],[169,61],[-138,254],[241,189],[362,-121],[332,-477],[78,-237],[-374,65],[-253,219]],[[80298,17450],[-42,-512],[-392,301],[-259,-39],[-67,146],[314,228],[446,-124]],[[78772,17006],[-175,48],[61,202],[386,172],[114,228],[248,-232],[-242,-241],[-162,0],[-230,-177]],[[79569,17613],[-230,129],[-531,-56],[-241,52],[79,284],[717,-17],[206,-392]],[[79828,17729],[-205,-64],[-127,185],[85,293],[307,-216],[-60,-198]],[[79611,15634],[-42,189],[-181,159],[-25,207],[-380,594],[97,137],[386,43],[169,-81],[428,69],[169,-121],[175,426],[121,125],[-350,254],[0,232],[-223,159],[150,254],[531,215],[320,-146],[217,26],[-12,-374],[133,-207],[-79,-245],[109,-211],[30,-529],[-84,-358],[-121,-129],[271,-473],[-30,-314],[-120,-375],[-411,-254],[-247,-8],[-235,99],[-103,258],[73,314],[-85,267],[61,211],[-73,211],[-199,38],[115,-374],[-6,-323],[-115,-137],[-283,-56],[-151,228]],[[79876,18599],[54,-160],[-132,-309],[-260,167],[338,302]],[[82826,10164],[223,39],[36,-331],[-235,-13],[-24,305]],[[80142,14287],[-13,-383],[-162,-112],[-296,39],[121,206],[350,250]],[[81408,16043],[-36,469],[157,-43],[187,-267],[-308,-159]]],"bbox":[-109.454005378476,-55.75076985279511,-66.42562057951997,-17.50735962931968],"transform":{"scale":[0.00043028815087106897,0.00038243792661402044],"translate":[-109.454005378476,-55.75076985279511]}}