{"type":"Topology","objects":{"a1":{"type":"GeometryCollection","geometries":[{"type":"Polygon","arcs":[[0,1,2,3]],"id":"CMR-803","properties":{"adm1_code":"CMR-803","iso_3166_2":"CM-SU","name":"Sud","admin":"Cameroon","adm0_a3":"CMR","type_en":"Province"}},{"type":"Polygon","arcs":[[4,5]],"id":"CMR-1462","properties":{"adm1_code":"CMR-1462","iso_3166_2":"CM-EN","name":"Extrême-Nord","admin":"Cameroon","adm0_a3":"CMR","type_en":"Province"}},{"type":"Polygon","arcs":[[6,7,-5,8]],"id":"CMR-1483","properties":{"adm1_code":"CMR-1483","iso_3166_2":"CM-NO","name":"Nord","admin":"Cameroon","adm0_a3":"CMR","type_en":"Province"}},{"type":"Polygon","arcs":[[9,10,11,12,13,14,-7]],"id":"CMR-1482","properties":{"adm1_code":"CMR-1482","iso_3166_2":"CM-AD","name":"Adamaoua","admin":"Cameroon","adm0_a3":"CMR","type_en":"Province"}},{"type":"Polygon","arcs":[[-14,15,16,17]],"id":"CMR-1477","properties":{"adm1_code":"CMR-1477","iso_3166_2":"CM-NW","name":"Nord-Ouest","admin":"Cameroon","adm0_a3":"CMR","type_en":"Province"}},{"type":"Polygon","arcs":[[-17,18,19,20,21,22]],"id":"CMR-799","properties":{"adm1_code":"CMR-799","iso_3166_2":"CM-SW","name":"Sud-Ouest","admin":"Cameroon","adm0_a3":"CMR","type_en":"Province"}},{"type":"Polygon","arcs":[[-3,23,-11,24]],"id":"CMR-1481","properties":{"adm1_code":"CMR-1481","iso_3166_2":"CM-ES","name":"Est","admin":"Cameroon","adm0_a3":"CMR","type_en":"Province"}},{"type":"MultiPolygon","arcs":[[[-22,25]],[[-1,26,-20,27,28]]],"id":"CMR-1476","properties":{"adm1_code":"CMR-1476","iso_3166_2":"CM-LT","name":"Littoral","admin":"Cameroon","adm0_a3":"CMR","type_en":"Province"}},{"type":"Polygon","arcs":[[-13,29,-28,-19,-16]],"id":"CMR-798","properties":{"adm1_code":"CMR-798","iso_3166_2":"CM-OU","name":"Ouest","admin":"Cameroon","adm0_a3":"CMR","type_en":"Province"}},{"type":"Polygon","arcs":[[-2,-29,-30,-12,-24]],"id":"CMR-1480","properties":{"adm1_code":"CMR-1480","iso_3166_2":"CM-CE","name":"Centre","admin":"Cameroon","adm0_a3":"CMR","type_en":"Province"}}]}},"arcs":[[[18522,14127],[1248,663],[540,763],[-34,619],[911,706],[743,187],[742,-432]],[[22672,16633],[-135,-288],[641,-1440],[1147,86],[4420,879],[1349,100],[371,-547],[2463,-14],[540,-403],[371,-864],[1417,-1181],[4184,86],[2024,547],[708,1066],[1451,533],[506,633],[2834,-936],[506,-460],[877,230],[439,1123],[2733,1757],[540,-86],[775,-792]],[[52833,16662],[-236,-1052],[675,-763],[911,-590],[810,-835],[337,-821],[34,-994],[944,-677],[3104,-432],[1519,58],[843,-317],[709,144],[1551,-475],[2463,1051],[135,-533],[405,-6019]],[[67037,4407],[-4757,28],[34,476],[-709,489],[-1417,115],[-674,-302],[-3577,130],[-742,-245],[-1754,173],[-1788,345],[-1215,-86],[-641,202],[-1721,-260],[-1315,87],[-4521,-58],[-1080,331],[-4150,-172],[-371,-1181],[-11875,0],[-2834,0],[-2598,0],[-1552,403],[-810,461],[-135,677],[270,302],[34,1627],[675,1685],[33,1109],[1046,1757],[-506,1282],[135,345]],[[73987,72854],[-34,691],[-1788,302],[-1653,951],[-3239,172],[-303,-964],[-1316,-317],[-1383,-101],[-743,461]],[[63528,74049],[574,331],[843,2995],[844,1599],[2395,2304],[68,648],[843,461],[709,849],[1417,965],[2361,-331],[1485,547],[1147,720],[2935,994],[371,1167],[-978,777],[573,562],[439,1166],[-270,994],[877,1195],[-1586,648],[-438,720],[-1215,259],[-2665,58],[-472,230],[-34,1397],[-1485,4666],[4623,29],[809,-706],[101,-1008],[1485,-1094],[1181,-331],[978,-792],[810,-130],[978,-2549],[-33,-677],[-34,-907],[810,-461],[607,144],[371,-475],[304,-1123],[-270,-216],[877,-1037],[-540,-735],[236,-734],[641,-735],[-978,-1008],[-68,-1080],[-337,-417],[0,-1440],[67,-749],[574,-850],[-169,-921],[1080,-1484],[-135,-893],[1046,-302],[776,-806],[303,-721],[3037,-2030],[1889,-778],[-3137,-518],[-743,-14],[-2159,475],[-1383,-29],[-641,-274],[-2126,87],[-2125,-317],[-3813,634],[-3171,-144]],[[87651,49121],[-978,-115],[-810,-475],[-1282,-216],[-4285,-1325],[-1586,461],[-1214,820],[-1586,29],[-303,1195],[-1249,793],[-1585,1512],[-2261,158],[-1181,720],[-1484,-230],[-810,86],[-1957,-576],[-1889,893],[-911,129],[-573,-878],[-2025,-72],[-1282,432],[-2092,202],[-2361,633],[-506,1512],[-1788,260],[-2463,1512],[-709,604]],[[48481,57185],[-101,1729],[1518,403],[776,561],[-337,864],[1383,245],[979,-158],[1315,475],[776,850],[709,14],[405,634],[303,1656],[-67,677],[843,1137],[135,648],[-472,706],[1552,806],[2766,591],[877,2275],[-641,605],[439,893],[34,936],[1855,317]],[[73987,72854],[-1383,-1484],[-1080,-619],[-776,-893],[1147,-605],[3712,-2837],[371,-662],[5769,-3096],[675,-29],[1248,-706],[169,-475],[1012,-158],[1956,-1570],[372,-504],[1754,-2491],[1248,-2592],[1586,-418],[-202,-1411],[-878,-951],[-809,-749],[168,-417],[-2395,-1066]],[[87651,49121],[-810,-965],[-1855,-3211],[-1552,-907],[-1518,-2261],[-304,-792],[-844,-692],[-1821,-604],[-540,0],[-1350,-965]],[[77057,38724],[-1046,57],[-3812,-446],[-1316,173],[-2530,-447],[-11437,-29]],[[56916,38032],[-4690,15],[-1079,878],[-1654,821],[-944,87],[-1249,-317],[-1012,86],[-1180,691],[-1620,-532],[-810,-44],[-2226,-1080],[-4218,-662]],[[36234,37975],[270,518],[-371,1080],[169,677],[-1417,331]],[[34885,40581],[202,1268]],[[35087,41849],[1519,14],[910,317],[338,850],[1214,360],[810,1339],[-438,518],[1113,936],[1518,576],[877,648],[945,274],[-1316,1210],[34,561],[1586,1296],[1552,1253],[-203,691],[607,951],[1856,1670],[-135,1253],[607,619]],[[34885,40581],[-1248,-489],[-1046,72],[-203,-1167],[-371,-317],[-1687,-590],[-1889,144],[-1181,-1555],[-3610,-375],[-202,-518],[-1721,346],[-1046,-476]],[[20681,35656],[-1552,303],[-742,-259],[-3171,1008],[-911,691],[67,979],[2261,821],[270,1152],[-911,1901],[-540,461]],[[15452,42713],[1012,2088],[1350,129],[3171,1801],[1552,-1081],[3340,29],[1383,1613],[3003,-993],[573,-1124],[1654,-432],[674,-590],[68,-1095],[472,-1094],[1383,-115]],[[20681,35656],[-405,-648],[-1349,-907],[-675,-1440],[-506,-259]],[[17746,32402],[-1451,-519],[270,-849],[945,-980],[-776,-504],[-304,-619],[338,-417],[-1012,-778],[-68,-461],[-843,-749],[-878,-389],[-742,-748],[-67,-1296],[-911,-965],[-101,-476],[1214,-216],[405,-460],[-776,-548]],[[12989,21428],[-641,-230]],[[12348,21198],[-810,-965],[-776,-389]],[[10762,19844],[-607,620],[-2092,216],[-1990,734],[270,1022],[-945,879],[-337,1238],[438,605],[-708,648],[-1080,-533],[-843,332],[-304,-692],[-1619,-86],[-945,518],[236,922],[574,360],[371,1037],[101,576],[2024,2218],[540,216],[641,2390],[0,720],[574,936],[-979,720],[574,418],[-101,835],[1754,792],[1889,1354],[1788,965],[709,835],[1248,360],[844,691],[2024,908],[641,115]],[[52833,16662],[507,806],[67,879],[-978,403],[-371,720],[674,389],[1249,244],[1821,1009],[-371,619],[574,1368],[-169,489],[607,461],[405,936],[1215,605],[1687,-129],[1417,216],[371,1958],[-675,965],[-1822,562],[0,633],[-1855,1483],[-371,735],[1282,144],[1180,1627],[34,375],[-911,1281],[-1585,1772],[101,820]],[[77057,38724],[-438,-519],[1079,-965],[1350,116],[405,-504],[202,-1109],[-506,-1008],[337,-850],[-270,-1008],[-978,-1152],[1316,-490],[506,-720],[-34,-1137],[540,-1729],[-135,-446],[337,-1224],[810,-677],[2868,-1238],[945,-1210],[371,-1339],[1180,-533],[-1315,-317],[-844,87],[742,-1225],[1148,-1108],[1180,-836],[6782,-4853],[1687,-101],[877,-1051],[573,15],[877,-1008],[-438,-677],[34,-720],[641,-1023],[-270,-662],[540,-1282],[843,-1123],[-506,-475],[-709,100],[-506,-1872],[911,-1181],[304,-964],[-1147,-706],[-574,864],[-1754,360],[-1653,1008],[-3644,591],[-1754,-461],[-1485,936],[-1079,86],[-776,-489],[-1687,230],[-1181,792],[-574,-259],[-1585,288],[-1856,907],[-303,-389],[-1552,-245],[-1282,303],[-709,-159],[-7861,44]],[[12348,21198],[1012,-763],[-944,-144],[-135,-591],[-1519,144]],[[18522,14127],[-607,231],[-1316,1238],[-1822,907],[-202,1844],[-473,518],[405,576],[911,-130],[-641,1297],[-1484,230],[-304,590]],[[17746,32402],[-67,-634],[1450,-288],[237,-1080],[843,-662],[776,-1095],[1856,1339],[1484,72],[742,-1166],[911,-403]],[[25978,28485],[-236,-389],[-1484,-879],[134,-547],[1384,432],[0,-792],[-1080,-950],[641,-533],[1248,-446],[878,28],[1180,692],[878,-72],[607,936],[1316,0],[-34,-1066],[1080,-1469],[1518,-979],[-911,-447],[-4285,-950],[-877,-1123],[0,-1095],[-776,-533],[-1687,836],[-1012,-432],[-675,-1772],[-1113,-302]],[[36234,37975],[-438,-605],[675,-1051],[-473,-634],[-809,-417],[-270,-548],[236,-936],[-338,-979],[-1349,-864],[-68,-778],[-910,-619],[-743,-1526],[-1046,-72],[-877,475],[-708,-447],[-1788,-576],[-1350,87]]],"bbox":[8.50419247157555,1.6538429368187337,16.1972876907881,13.081773076753905],"transform":{"scale":[0.00007693172150934061,0.00011428044420379375],"translate":[8.50419247157555,1.6538429368187337]}}