{"type":"Topology","objects":{"a1":{"type":"GeometryCollection","geometries":[{"type":"MultiPolygon","arcs":[[[0,1,2]],[[3,4]]],"id":"CYP-3463","properties":{"adm1_code":"CYP-3463","iso_3166_2":"CY-03","name":"Larnaca","admin":"Cyprus","adm0_a3":"CYP","type_en":"District"}},{"type":"Polygon","arcs":[[5,-4]],"id":"CYP-3466","properties":{"adm1_code":"CYP-3466","iso_3166_2":"CY-04","name":"Famagusta","admin":"Cyprus","adm0_a3":"CYP","type_en":"District"}},{"type":"Polygon","arcs":[[-2,6,7,8]],"id":"CYP-3464","properties":{"adm1_code":"CYP-3464","iso_3166_2":"CY-01","name":"Nicosia","admin":"Cyprus","adm0_a3":"CYP","type_en":"District"}},{"type":"Polygon","arcs":[[-1,9,10,-7]],"id":"CYP-3489","properties":{"adm1_code":"CYP-3489","iso_3166_2":"CY-02","name":"Limassol","admin":"Cyprus","adm0_a3":"CYP","type_en":"District"}},{"type":"Polygon","arcs":[[-8,-11,11]],"id":"CYP-3465","properties":{"adm1_code":"CYP-3465","iso_3166_2":"CY-05","name":"Paphos","admin":"Cyprus","adm0_a3":"CYP","type_en":"District"}}]}},"arcs":[[[57142,12865],[0,11696],[-8270,19006]],[[48872,43567],[7669,2339],[8872,12865],[4661,0],[-300,14912]],[[69774,73683],[10977,-2631],[1203,-10819],[-2707,-4970],[-2857,-21930],[-19248,-20468]],[[89322,65204],[3910,-7017]],[[93232,58187],[-301,-585],[-3609,7602]],[[89322,65204],[4512,11988],[6165,-877],[-150,-13450],[-6617,-4678]],[[48872,43567],[-4361,2047],[-4211,11695],[-12481,-9649]],[[27819,47660],[-6165,1755],[752,12280],[-3760,14328],[1203,7894],[-3609,11696]],[[16240,95613],[1955,1170],[2256,1462],[4210,-878],[8271,-18420],[13985,16081],[5413,3801],[7218,-4970],[4963,6140],[5263,-26316]],[[57142,12865],[-11579,-3508],[-3308,-9357],[-1654,7017],[-6015,-1169],[-3007,6140],[-4060,-8479],[-6918,1169]],[[20601,4678],[7218,42982]],[[20601,4678],[-8571,8187],[-4662,8187],[-1955,17252],[-3007,6432],[-2406,37427],[4962,-9941],[4512,3216],[6766,20175]]],"bbox":[32.286861666462414,34.63421736140123,34.01287661949087,35.197056086611155],"transform":{"scale":[0.000017260322133505872,0.000005628443536534653],"translate":[32.286861666462414,34.63421736140123]}}