{"type":"Topology","objects":{"a1":{"type":"GeometryCollection","geometries":[{"type":"Polygon","arcs":[[0,1,2,3,4]],"id":"DOM-1964","properties":{"adm1_code":"DOM-1964","iso_3166_2":"DO-15","name":"Monte Cristi","admin":"Dominican Republic","adm0_a3":"DOM","type_en":"Province"}},{"type":"Polygon","arcs":[[-5,5,6,7]],"id":"DOM-1966","properties":{"adm1_code":"DOM-1966","iso_3166_2":"DO-05","name":"Dajabón","admin":"Dominican Republic","adm0_a3":"DOM","type_en":"Province"}},{"type":"Polygon","arcs":[[-7,8,9,10,11]],"id":"DOM-1972","properties":{"adm1_code":"DOM-1972","iso_3166_2":"DO-07","name":"La Estrelleta","admin":"Dominican Republic","adm0_a3":"DOM","type_en":"Province"}},{"type":"Polygon","arcs":[[-11,12,13,14,15]],"id":"DOM-1971","properties":{"adm1_code":"DOM-1971","iso_3166_2":"DO-10","name":"Independencia","admin":"Dominican Republic","adm0_a3":"DOM","type_en":"Province"}},{"type":"Polygon","arcs":[[-15,16,17]],"id":"DOM-1973","properties":{"adm1_code":"DOM-1973","iso_3166_2":"DO-16","name":"Pedernales","admin":"Dominican Republic","adm0_a3":"DOM","type_en":"Province"}},{"type":"Polygon","arcs":[[18,19,20]],"id":"DOM-1987","properties":{"adm1_code":"DOM-1987","iso_3166_2":"DO-11","name":"La Altagracia","admin":"Dominican Republic","adm0_a3":"DOM","type_en":"Province"}},{"type":"Polygon","arcs":[[-21,21,22,23,24]],"id":"DOM-1986","properties":{"adm1_code":"DOM-1986","iso_3166_2":"DO-08","name":"El Seybo","admin":"Dominican Republic","adm0_a3":"DOM","type_en":"Province"}},{"type":"Polygon","arcs":[[-24,25,26,27,28]],"id":"DOM-1980","properties":{"adm1_code":"DOM-1980","iso_3166_2":"DO-30","name":"Hato Mayor","admin":"Dominican Republic","adm0_a3":"DOM","type_en":"Province"}},{"type":"Polygon","arcs":[[-28,29,30,31,32]],"id":"DOM-1983","properties":{"adm1_code":"DOM-1983","iso_3166_2":"DO-20","name":"Samaná","admin":"Dominican Republic","adm0_a3":"DOM","type_en":"Province"}},{"type":"Polygon","arcs":[[-32,33,34,35]],"id":"DOM-1982","properties":{"adm1_code":"DOM-1982","iso_3166_2":"DO-14","name":"María Trinidad Sánchez","admin":"Dominican Republic","adm0_a3":"DOM","type_en":"Province"}},{"type":"Polygon","arcs":[[-35,36,37,38,39,40,41]],"id":"DOM-1967","properties":{"adm1_code":"DOM-1967","iso_3166_2":"DO-09","name":"Espaillat","admin":"Dominican Republic","adm0_a3":"DOM","type_en":"Province"}},{"type":"Polygon","arcs":[[-2,42,-41,43,44]],"id":"DOM-1965","properties":{"adm1_code":"DOM-1965","iso_3166_2":"DO-18","name":"Puerto Plata","admin":"Dominican Republic","adm0_a3":"DOM","type_en":"Province"}},{"type":"Polygon","arcs":[[-14,45,46,47,-17]],"id":"DOM-1970","properties":{"adm1_code":"DOM-1970","iso_3166_2":"DO-04","name":"Barahona","admin":"Dominican Republic","adm0_a3":"DOM","type_en":"Province"}},{"type":"Polygon","arcs":[[-47,48,49,50,51,52,53]],"id":"DOM-1974","properties":{"adm1_code":"DOM-1974","iso_3166_2":"DO-02","name":"Azua","admin":"Dominican Republic","adm0_a3":"DOM","type_en":"Province"}},{"type":"Polygon","arcs":[[-53,54,55,56]],"id":"DOM-1977","properties":{"adm1_code":"DOM-1977","iso_3166_2":"DO-17","name":"Peravia","admin":"Dominican Republic","adm0_a3":"DOM","type_en":"Province"}},{"type":"Polygon","arcs":[[-56,57,58,59,60,61]],"id":"DOM-1984","properties":{"adm1_code":"DOM-1984","iso_3166_2":"DO-21","name":"San Cristóbal","admin":"Dominican Republic","adm0_a3":"DOM","type_en":"Province"}},{"type":"Polygon","arcs":[[-61,62,63,64,65,66]],"id":"DOM-1394","properties":{"adm1_code":"DOM-1394","iso_3166_2":"DO-32","name":"Santo Domingo","admin":"Dominican Republic","adm0_a3":"DOM","type_en":"Province"}},{"type":"Polygon","arcs":[[-66,67]],"id":"DOM-1985","properties":{"adm1_code":"DOM-1985","iso_3166_2":"DO-01","name":"Distrito Nacional","admin":"Dominican Republic","adm0_a3":"DOM","type_en":"National District"}},{"type":"Polygon","arcs":[[-23,68,69,-64,70,-26]],"id":"DOM-1396","properties":{"adm1_code":"DOM-1396","iso_3166_2":"DO-23","name":"San Pedro de Macorís","admin":"Dominican Republic","adm0_a3":"DOM","type_en":"Province"}},{"type":"Polygon","arcs":[[-20,71,-69,-22]],"id":"DOM-1988","properties":{"adm1_code":"DOM-1988","iso_3166_2":"DO-12","name":"La Romana","admin":"Dominican Republic","adm0_a3":"DOM","type_en":"Province"}},{"type":"Polygon","arcs":[[-3,-45,72,73]],"id":"DOM-1392","properties":{"adm1_code":"DOM-1392","iso_3166_2":"DO-27","name":"Valverde","admin":"Dominican Republic","adm0_a3":"DOM","type_en":"Province"}},{"type":"Polygon","arcs":[[-4,-74,74,75,-9,-6]],"id":"DOM-1391","properties":{"adm1_code":"DOM-1391","iso_3166_2":"DO-26","name":"Santiago Rodríguez","admin":"Dominican Republic","adm0_a3":"DOM","type_en":"Province"}},{"type":"Polygon","arcs":[[-39,76,77,78,79,80,-51,81,82]],"id":"DOM-1975","properties":{"adm1_code":"DOM-1975","iso_3166_2":"DO-13","name":"La Vega","admin":"Dominican Republic","adm0_a3":"DOM","type_en":"Province"}},{"type":"Polygon","arcs":[[-38,83,-77]],"id":"DOM-1968","properties":{"adm1_code":"DOM-1968","iso_3166_2":"DO-19","name":"Hermanas","admin":"Dominican Republic","adm0_a3":"DOM","type_en":"Province"}},{"type":"Polygon","arcs":[[-31,84,85,-78,-84,-37,-34]],"id":"DOM-1979","properties":{"adm1_code":"DOM-1979","iso_3166_2":"DO-06","name":"Duarte","admin":"Dominican Republic","adm0_a3":"DOM","type_en":"Province"}},{"type":"Polygon","arcs":[[-40,-83,86,-75,-73,-44]],"id":"DOM-1390","properties":{"adm1_code":"DOM-1390","iso_3166_2":"DO-25","name":"Santiago","admin":"Dominican Republic","adm0_a3":"DOM","type_en":"Province"}},{"type":"Polygon","arcs":[[-13,87,-49,-46]],"id":"DOM-1969","properties":{"adm1_code":"DOM-1969","iso_3166_2":"DO-03","name":"Bahoruco","admin":"Dominican Republic","adm0_a3":"DOM","type_en":"Province"}},{"type":"Polygon","arcs":[[-10,-76,-87,-82,-50,-88]],"id":"DOM-1393","properties":{"adm1_code":"DOM-1393","iso_3166_2":"DO-22","name":"San Juan","admin":"Dominican Republic","adm0_a3":"DOM","type_en":"Province"}},{"type":"Polygon","arcs":[[-59,88,-80,89,90]],"id":"DOM-1976","properties":{"adm1_code":"DOM-1976","iso_3166_2":"DO-28","name":"Monseñor Nouel","admin":"Dominican Republic","adm0_a3":"DOM","type_en":"Province"}},{"type":"Polygon","arcs":[[-79,-86,91,-90]],"id":"DOM-1395","properties":{"adm1_code":"DOM-1395","iso_3166_2":"DO-24","name":"Sánchez Ramírez","admin":"Dominican Republic","adm0_a3":"DOM","type_en":"Province"}},{"type":"Polygon","arcs":[[-52,-81,-89,-58,-55]],"id":"DOM-1978","properties":{"adm1_code":"DOM-1978","iso_3166_2":"DO-31","name":"San José de Ocoa","admin":"Dominican Republic","adm0_a3":"DOM","type_en":"Province"}},{"type":"Polygon","arcs":[[-27,-71,-63,-60,-91,-92,-85,-30]],"id":"DOM-1981","properties":{"adm1_code":"DOM-1981","iso_3166_2":"DO-29","name":"Monte Plata","admin":"Dominican Republic","adm0_a3":"DOM","type_en":"Province"}}]}},"arcs":[[[6936,87587],[-284,2680],[354,4584],[2619,3385],[3892,564],[4034,-2539],[3680,-705]],[[21231,95556],[708,-2680],[1698,-846]],[[23637,92030],[-1344,-9238]],[[22293,82792],[-2619,705],[-3680,-353]],[[15994,83144],[-3255,3244],[-2831,-564],[-2972,1763]],[[15994,83144],[-920,-3385],[-1132,-7122]],[[13942,72637],[-2336,-635],[-2123,-2821]],[[9483,69181],[-2618,2610],[-779,2045],[1982,3737],[-1132,10014]],[[13942,72637],[4388,-4655]],[[18330,67982],[-213,-2609],[-1911,-1058],[-1769,988],[-1274,-4725],[-1627,-494],[-1274,-2962],[-71,-5289],[2477,-6982]],[[12668,44851],[-6794,1481]],[[5874,46332],[1840,4232],[-425,4231],[-1344,4866],[3821,6699],[-283,2821]],[[12668,44851],[-1699,-775],[-636,-2892],[778,-3737],[5874,-3667],[2406,493],[2406,-2821]],[[21797,31452],[-2335,-2397],[-2548,352],[779,-4795],[-1911,-1834]],[[15782,22778],[-8139,6770]],[[7643,29548],[-424,1693],[-4813,4161],[71,2750],[-2477,3738],[1203,1551],[3114,0],[1415,2680],[142,211]],[[15782,22778],[849,-705],[-283,-6629],[2831,-1481],[424,-3314]],[[19603,10649],[-2264,-7476],[-1416,-3173],[-2689,5712],[-3185,3385],[-707,5853],[-3185,3668],[0,5712],[1486,5218]],[[87685,58956],[1203,-706],[4388,-6487],[6086,-6700],[637,-3385],[-3043,-6770],[-283,-2609],[-3256,846],[-2264,-7123],[-2336,-282],[-2901,7264],[-1416,1269]],[[84500,34273],[1345,4937],[-2265,6276]],[[83580,45486],[-71,1834],[2690,2327],[566,2468],[-354,4937],[1274,1904]],[[83580,45486],[-1203,-705],[-1698,-3949],[-1416,-1270]],[[79263,39562],[-2689,3950],[-1699,916]],[[74875,44428],[850,3174],[-354,3526],[-2477,5430],[3043,1622],[142,2539]],[[76079,60719],[1910,1269],[2690,-2750],[1698,1974],[5308,-2256]],[[74875,44428],[-2689,-5077],[-2052,5641],[-849,6347]],[[69285,51339],[2123,2962],[-5733,4232],[-1274,1692]],[[64401,60225],[496,3949]],[[64897,64174],[5449,423],[1769,-2538],[3964,-1340]],[[64401,60225],[-3184,3315]],[[61217,63540],[2123,3949],[-2973,775]],[[60367,68264],[425,4514]],[[60792,72778],[1062,-705],[5237,2256],[2830,-282],[2761,-1692],[4812,-353],[-2619,-4302],[-4458,282],[-5025,1622],[-495,-5430]],[[60367,68264],[-5590,2539],[-3468,3879],[-708,4654],[-1911,1763]],[[48690,81099],[213,2328],[2618,1198],[495,2469]],[[52016,87094],[1416,1763],[2548,0],[1344,-1763],[-141,-4443],[991,-4584],[2618,-5289]],[[48690,81099],[-566,71]],[[48124,81170],[-1415,2609],[-2053,-2609],[-2194,70],[-637,-7757]],[[41825,73483],[-1344,1834],[-2689,282]],[[37792,75599],[1840,6417]],[[39632,82016],[1415,5642],[2619,423],[707,2327]],[[44373,90408],[1982,-2398],[4600,-1551],[1061,635]],[[21231,95556],[3114,1481],[2902,2962],[4671,-1481],[1203,-2186],[4458,-3667],[5167,352],[1627,-2609]],[[39632,82016],[-1699,776],[-1345,3949],[-2760,-1622],[-2830,2186]],[[30998,87305],[-7361,4725]],[[21797,31452],[567,2539],[4529,4514]],[[26893,38505],[-779,-5219],[2265,-1128],[-141,-3950]],[[28238,28208],[-3256,1763],[-425,-2609],[1062,-4302],[-3892,-9943],[-2124,-2468]],[[26893,38505],[-142,1763],[-2547,1128],[-1345,1975]],[[22859,43371],[2902,2679],[-71,3738],[2052,705],[212,4302],[2336,4513]],[[30290,59308],[1415,-1481],[283,-3949],[3893,-5430],[-425,-2468]],[[35456,45980],[1345,-4514],[3538,-3596],[1133,-3174]],[[41472,34696],[-213,-3949],[-2477,-2115]],[[38782,28632],[142,4372],[-779,1622],[-2760,776],[-1557,-3526],[-2335,-283],[-3255,-3385]],[[41472,34696],[3326,3809]],[[44798,38505],[3326,-2962],[-920,-2751],[2406,-5782]],[[49610,27010],[-5874,141],[-4246,-1411],[-708,2892]],[[44798,38505],[-566,2679],[778,6629]],[[45010,47813],[2689,3526]],[[47699,51339],[2265,-3032]],[[49964,48307],[1203,-8604],[3256,-4866]],[[54423,34837],[-1699,-3808],[-3114,-4019]],[[49964,48307],[1274,-1763],[3043,-1199],[3326,1693],[2477,-4373],[5096,2610],[920,-565]],[[66100,44710],[-1062,-5500],[2619,-2186],[-213,-2469]],[[67444,34555],[-2618,212],[-2052,1763],[-4954,635]],[[57820,37165],[-3185,987],[425,-2891]],[[55060,35261],[-637,-424]],[[57820,37165],[-2760,-1904]],[[79263,39562],[-778,-2256],[990,-3385]],[[79475,33921],[-4104,2327],[-7927,-1693]],[[66100,44710],[3185,6629]],[[84500,34273],[-1698,564],[-3327,-916]],[[30998,87305],[-1133,-6840],[-3043,-1693],[-1557,1128]],[[25265,79900],[-2052,494],[-920,2398]],[[25265,79900],[142,-2397],[-3043,-1199],[-1628,-2398],[283,-6770]],[[21019,67136],[-2689,846]],[[41825,73483],[921,-2821],[1910,-1199]],[[44656,69463],[2194,-3385]],[[46850,66078],[-2972,-3173]],[[43878,62905],[-849,1692],[-2124,-1622],[-636,-4513],[-1628,-1975],[-213,-2961],[1557,-2821]],[[39985,50705],[-2052,-4725],[-2477,0]],[[30290,59308],[-708,1622]],[[29582,60930],[-71,1834],[3397,2398],[3185,5289],[-1769,3103],[3468,2045]],[[48124,81170],[-425,-2468],[-1910,-1763],[-1133,-7476]],[[61217,63540],[-3256,-141],[-1203,-1905]],[[56758,61494],[283,2328],[-4883,2186],[-5308,70]],[[29582,60930],[-2689,0],[-2973,2398],[-353,1693],[-2548,2115]],[[12668,44851],[5237,-2186],[3963,1552],[991,-846]],[[45010,47813],[-2760,706],[-2265,2186]],[[43878,62905],[637,-3174],[3963,-6135]],[[48478,53596],[-779,-2257]],[[56758,61494],[-920,-5571],[-2194,-70],[-5166,-2257]]],"bbox":[-72.00077865336226,17.604231605633785,-68.33332131707773,19.93787286980833],"transform":{"scale":[0.0000366749401122464,0.00002333664600820554],"translate":[-72.00077865336226,17.604231605633785]}}