{"type":"Topology","objects":{"a1":{"type":"GeometryCollection","geometries":[{"type":"Polygon","arcs":[[0,1,2]],"id":"ETH-3129","properties":{"adm1_code":"ETH-3129","iso_3166_2":"ET-SN","name":"Southern Nations, Nationalities and Peoples","admin":"Ethiopia","adm0_a3":"ETH","type_en":"Administrative State"}},{"type":"Polygon","arcs":[[3,4,5,6,7]],"id":"ETH-3134","properties":{"adm1_code":"ETH-3134","iso_3166_2":"ET-SO","name":"Somali","admin":"Ethiopia","adm0_a3":"ETH","type_en":"Administrative State"}},{"type":"Polygon","arcs":[[-7,8,9,10,11]],"id":"ETH-3111","properties":{"adm1_code":"ETH-3111","iso_3166_2":"ET-AF","name":"Afar","admin":"Ethiopia","adm0_a3":"ETH","type_en":"Administrative State"}},{"type":"Polygon","arcs":[[-10,12,13,14,15]],"id":"ETH-3109","properties":{"adm1_code":"ETH-3109","iso_3166_2":"ET-AM","name":"Amhara","admin":"Ethiopia","adm0_a3":"ETH","type_en":"Administrative State"}},{"type":"Polygon","arcs":[[-11,-16,16]],"id":"ETH-3110","properties":{"adm1_code":"ETH-3110","iso_3166_2":"ET-TI","name":"Tigray","admin":"Ethiopia","adm0_a3":"ETH","type_en":"Administrative State"}},{"type":"MultiPolygon","arcs":[[[-14,17,18]],[[19]],[[20]]],"id":"ETH-3132","properties":{"adm1_code":"ETH-3132","iso_3166_2":"ET-BE","name":"Benshangul-Gumaz","admin":"Ethiopia","adm0_a3":"ETH","type_en":"Administrative State"}},{"type":"Polygon","arcs":[[-1,21,22]],"id":"ETH-3130","properties":{"adm1_code":"ETH-3130","iso_3166_2":"ET-GA","name":"Gambela Peoples","admin":"Ethiopia","adm0_a3":"ETH","type_en":"Administrative State"}},{"type":"Polygon","arcs":[[-2,-23,23,-18,-13,-9,-6,24,-4,25],[-20],[-21],[26],[27]],"id":"ETH-3131","properties":{"adm1_code":"ETH-3131","iso_3166_2":"ET-OR","name":"Oromiya","admin":"Ethiopia","adm0_a3":"ETH","type_en":"Administrative State"}},{"type":"Polygon","arcs":[[-5,-25]],"id":"ETH-3135","properties":{"adm1_code":"ETH-3135","iso_3166_2":"ET-DD","name":"Dire Dawa","admin":"Ethiopia","adm0_a3":"ETH","type_en":"Administrative State"}},{"type":"Polygon","arcs":[[-27]],"id":"ETH-3133","properties":{"adm1_code":"ETH-3133","iso_3166_2":"ET-AA","name":"Addis Ababa","admin":"Ethiopia","adm0_a3":"ETH","type_en":"Administrative State"}},{"type":"Polygon","arcs":[[-28]],"id":"ETH-3136","properties":{"adm1_code":"ETH-3136","iso_3166_2":"ET-HA","name":"Harari People","admin":"Ethiopia","adm0_a3":"ETH","type_en":"Administrative State"}}]}},"arcs":[[[8035,32186],[710,-431],[658,215],[761,-14],[780,-516],[588,143],[485,502],[1039,158],[779,516],[797,-416],[814,115],[381,2223],[-35,359],[-571,459],[-52,530]],[[15169,36029],[-139,1205],[658,890],[104,545],[537,315],[641,43],[363,-617],[1126,588],[311,488],[-502,631],[260,603],[589,0],[329,-1033],[-312,-889],[121,-316],[831,-660],[295,-745],[121,-861],[537,-100],[779,-646],[1074,-502],[1264,-387],[1160,-990],[900,-301],[1247,86],[1506,1033],[416,444],[277,1549],[-208,1119],[0,889],[208,775],[-277,832],[623,186],[295,-459],[554,0],[-156,818],[87,1377],[-780,473],[0,975],[485,388],[312,-560],[1680,-229],[1264,401],[1281,273],[346,-273],[208,-989],[520,71],[398,1062],[554,502],[675,-402],[243,-1979],[-658,-129],[225,-1305],[-156,-603],[-1126,-2252],[35,-1434],[-589,-459],[-554,-1449],[-918,-745],[-346,-1105],[554,-516],[624,172],[571,918],[1264,-674],[398,172],[572,-1147],[-173,-1621],[1368,-976],[606,-114],[1039,-1205],[242,-1334],[-242,-918],[277,-904],[-935,-86],[-884,1664],[-640,603],[-468,-15],[-1039,258],[-571,-243],[-191,-718],[70,-1004],[-347,-358],[-588,-1334],[640,-889],[-485,-416],[-571,-43],[-935,2094],[17,602],[658,144],[-121,545],[208,645],[433,201],[156,688],[-243,273],[-606,-29],[-987,1019],[-1022,0],[-432,-947],[363,-1033],[-138,-903],[-381,-1062],[104,-989],[1177,-574],[294,-1148],[468,-487],[17,-431],[-1004,-760],[35,-1506],[-260,-746],[-17,-961],[-1438,545],[-415,-415],[-1472,-861],[-346,-29],[-918,359],[-1610,-158],[-347,-674],[-311,-1305],[242,-1062],[-225,-961],[-797,-1448],[-225,-703],[-485,-416]],[[24415,8950],[-207,100],[-2286,-57],[-329,115],[-1212,-58],[-745,689],[-86,846],[-901,1262],[-225,789],[35,1822],[329,889],[-191,531],[173,789],[-969,602],[-399,-158],[-606,488],[-519,28],[-727,-688],[-451,674],[52,746],[-1091,961],[-121,674],[-640,1234],[-191,975],[87,488],[-104,631],[-364,502],[-363,961],[-70,918],[-329,760],[-329,1707],[-658,803],[-744,201],[-139,1204],[-433,388],[-935,286],[-675,847],[-17,287]],[[40692,990],[35,157],[1368,918],[225,373],[1108,2568],[-69,717],[346,1506],[295,516],[1039,3170],[190,1692],[346,1420],[658,2023],[624,1190],[242,144],[918,-388],[485,173],[1506,243],[398,187],[1057,1233],[1454,1162],[-225,746],[-156,2840],[121,1334],[-173,1362],[416,990],[727,1076],[624,315],[1471,-1047],[780,-373],[1090,-1448],[520,702],[242,588],[468,474],[364,-258],[831,516],[623,1735],[-35,560],[693,1520],[329,1650],[-138,616],[-2044,1033],[-156,1219],[503,1736],[-225,1061],[86,2109],[191,917],[467,918],[17,947],[1161,1492],[450,157],[346,-745],[1178,-402],[207,-359],[191,-1463],[277,-860],[433,-373],[225,359],[450,1592],[849,416],[52,1549],[-485,1018],[156,1162],[-1005,1248],[-537,1190],[-484,2008],[-433,1119],[-676,774],[52,847],[-346,473]],[[62389,55034],[-260,373],[-658,100],[-1091,-1262],[-813,416],[-1039,-316],[-174,-1448]],[[58354,52897],[-658,344],[-484,-43],[-624,-416],[-1073,373],[-537,-57],[-398,-459],[-1074,-761],[-1091,-444],[-208,789],[347,516],[-1143,-100]],[[51411,52639],[277,1563],[589,1176],[1212,1477],[-433,1033],[952,4748],[52,932],[745,1018],[294,1076],[294,244],[2650,-29],[502,230]],[[58545,66107],[1264,-431],[762,359],[883,29],[918,258],[346,-72],[589,459],[866,258],[796,-201],[294,-602],[676,-158],[329,172],[-191,-688],[-502,-402],[-467,-846],[-329,-1018],[-347,-230],[312,-946],[554,-875],[69,-789],[312,-1090],[814,-803],[744,-1693],[797,-330],[312,-1678],[242,-545],[658,-746],[329,-1133],[866,-674],[485,0],[2424,-2854],[260,-201],[3480,-1492],[6459,-2768],[3931,-1721],[5454,-2381],[398,-258],[6667,0],[-2978,-3758],[-3186,-4002],[-3931,-4948],[-3533,-4719],[-2787,-3973],[-3845,-5493],[-207,-101],[-2096,158],[-4190,316],[-831,-345],[-2113,-631],[-2718,-1692],[-1074,-1133],[-294,-1076],[-295,-574],[-536,-373],[-3290,-731],[-1091,-14],[-433,-216],[-970,-917],[-260,-804],[-329,-243],[-900,415],[-1818,-415],[-1420,-115],[-675,229],[-728,1076],[-779,602],[-831,1133],[-416,-358],[-2129,-1076],[-104,-229],[-1212,-545],[-2252,-1435],[-675,-1807],[-1143,-1405],[-259,-818],[-676,502],[-831,29],[-86,229],[-780,-129],[-606,359]],[[51411,52639],[-572,-431],[-554,-114],[-814,-918],[-450,-947],[-519,-688],[-156,-718],[-554,-344],[-225,-545],[-537,-545],[-87,1363],[-519,57],[-208,990],[-710,172]],[[45506,49971],[554,1133],[0,402],[-641,688],[468,574],[156,1276],[-243,832],[243,430],[571,-200],[658,1477],[0,703],[-485,430],[87,674],[727,-57],[-34,918],[381,2538],[-156,631],[34,947],[-294,559],[312,1048],[-225,702],[450,1019],[-52,875],[-364,1090],[-433,602],[-104,1205],[-484,1520],[-641,961],[0,1262],[-346,545],[-35,632],[-381,1391],[69,961]],[[45298,77739],[173,315],[-121,990],[104,803],[485,889],[104,804],[-312,760],[-589,358],[52,1306],[243,272],[-191,1076],[-346,631],[139,875],[-122,1004],[225,789],[468,373],[-191,1047],[156,1190],[-190,1664],[-208,717],[-433,115],[156,674],[-190,602],[294,603],[450,114],[1074,-157],[242,760]],[[46770,96313],[693,86],[1143,-531],[519,-602],[450,-545],[1091,-689],[797,-186],[865,-588],[1403,-2037],[987,-2223],[208,-258],[2043,-1678],[1212,-1277],[710,-1176],[520,-1434],[346,-631],[1264,-890],[1610,-2682],[-588,-1262],[-1282,-2194],[-814,-1650],[-259,-459],[-866,-803],[-381,-1721],[260,-2424],[-18,-1678],[-138,-674]],[[45506,49971],[-294,-301],[17,-1779],[-277,-416],[-1229,-789],[-866,588],[-606,-416],[-295,646],[-17,817],[571,1205],[70,545],[-502,215],[-260,1090],[831,43],[589,402],[-312,818],[-589,100],[-779,1520],[-762,445],[-1229,316],[-416,272],[-346,746],[-69,918],[-745,631],[900,860],[295,1750],[-104,445],[-779,172],[-1559,-100],[-433,-1822],[-242,-272],[-1004,-129],[-416,-574],[-1351,-703],[-1229,-961],[-623,-143],[-624,602],[-433,731],[-1818,918],[-415,72],[-243,516],[52,804],[-450,0],[-450,358]],[[27065,60111],[-2217,588],[-1073,86],[-208,689],[-866,86],[-294,502],[-139,860],[433,1277],[-537,445],[173,745],[1005,1478],[-208,559],[17,775],[312,1004],[-675,803],[259,559],[-692,1219],[0,1363],[-208,14],[-797,-918],[-398,-28],[-138,832],[-503,1004],[-692,903],[-1108,287],[-329,-803],[-1143,-1219],[-883,-201],[-658,545],[-433,975]],[[15065,74540],[467,574],[243,1061],[381,459],[121,603],[1247,2682],[571,789],[2182,444],[623,43],[139,976],[-191,875],[797,3729],[987,1821],[104,918],[277,875]],[[23013,90389],[571,-1405],[1212,-502],[1386,-1463],[917,-144],[935,517],[710,-545],[1247,-72],[1126,617],[432,1004],[416,157],[727,-229],[1126,-617],[519,488],[953,-101],[675,115],[364,488],[329,-387],[-156,-646],[952,301],[468,-57],[207,-861],[278,-157],[1662,-2152],[121,-990],[537,-86],[744,173],[174,-244],[207,-1736],[-484,-1147],[536,-3070],[676,-129],[242,301],[831,-43],[35,-674],[606,459],[1004,187]],[[23013,90389],[121,387],[-139,1492],[589,2367],[277,258],[1212,344],[1316,-244],[399,-358],[450,186],[329,1191],[1143,315],[675,-932],[537,-1320],[606,-717],[2164,6641],[780,-1348],[1593,-631],[519,-1277],[693,-774],[1194,172],[1732,502],[762,645],[208,703],[433,-100],[536,-675],[347,-1047],[398,416],[658,-43],[814,373],[173,373],[554,-487],[831,-87],[295,29],[969,-717],[589,287]],[[27065,60111],[-277,-746],[-901,230],[-900,574],[-589,-388],[-242,-473],[-485,115],[208,1004],[-451,-29],[-606,-688],[-571,-1076],[-987,-818],[-329,115],[17,-2352],[-86,-889],[969,-1263],[52,-487],[-277,-1320],[-970,-1649],[-346,789],[-294,-15],[-416,933],[-640,28],[-468,1306],[-381,-58],[-1229,1865],[-1351,1735],[-381,344],[-1489,15],[-225,703],[-849,86],[191,-545],[-398,-1578],[-260,-617],[-745,-1047],[-969,603],[-555,-187],[-138,-1606],[-260,-1521],[-277,-659],[-312,-144],[-1558,144]],[[7290,50545],[-87,2180],[-17,674],[208,1291],[831,3012],[537,760],[138,1362],[-329,1908],[35,674],[1056,2008],[987,732],[1091,-1191],[589,-129],[156,516],[485,502],[121,632],[-260,401],[450,1664],[-225,1047],[831,2395],[-173,861],[17,1076],[260,573],[416,287],[433,230],[225,530]],[[23030,53313],[156,-1406],[-450,-14],[-156,688],[450,732]],[[20502,49067],[762,-158],[294,-602],[-675,-904],[-675,115],[-18,760],[312,789]],[[8035,32186],[-1091,1376],[-156,1349],[-831,1090],[-485,215],[-624,846],[-536,301],[-433,-57],[-728,559],[-692,-258],[-779,531],[-1264,172],[-416,1018],[121,230],[1316,2582],[-294,559],[86,875],[520,473],[727,-215],[1593,258],[641,-789],[398,-28],[450,430],[987,229],[658,761],[243,602]],[[7446,45295],[363,-344],[555,387],[727,-430],[900,-1062],[676,-430],[571,-860],[589,-216],[363,-616],[1264,14],[503,-373],[-1213,-703],[329,-545],[-415,-774],[35,-1148],[675,-789],[260,-889],[675,-301],[-208,-674],[589,-187],[485,674]],[[7446,45295],[34,215],[-190,5035]],[[58354,52897],[1161,14],[519,258],[589,-272],[467,588],[-86,660],[900,401],[485,488]],[[40692,990],[-1298,-43],[-1161,401],[-398,301],[-1091,259],[-727,-230],[-1420,201],[-502,-72],[-433,316],[-398,674],[-5766,4848],[-641,774],[-1143,531],[-1299,0]],[[38961,49454],[-797,15],[-364,-732],[208,-645],[866,-789],[398,502],[208,818],[-208,817],[-311,14]],[[61766,50401],[155,1520],[-952,187],[-346,-660],[-87,-688],[849,-72],[381,-287]]],"bbox":[32.990245203711595,3.404896748582999,47.97932242737977,14.878907251985652],"transform":{"scale":[0.00014989227115939333,0.00011474125244655099],"translate":[32.990245203711595,3.404896748582999]}}