{"type":"Topology","objects":{"a1":{"type":"GeometryCollection","geometries":[{"type":"MultiPolygon","arcs":[[[0]],[[1]],[[2]]],"id":"FJI-2618","properties":{"adm1_code":"FJI-2618","iso_3166_2":"FJ-E","name":"Eastern","admin":"Fiji","adm0_a3":"FJI","type_en":"Division"}},{"type":"Polygon","arcs":[[3,4]],"id":"FJI-2620","properties":{"adm1_code":"FJI-2620","iso_3166_2":"FJ-W","name":"Western","admin":"Fiji","adm0_a3":"FJI","type_en":"Division"}},{"type":"Polygon","arcs":[[-5,5]],"id":"FJI-2617","properties":{"adm1_code":"FJI-2617","iso_3166_2":"FJ-C","name":"Central","admin":"Fiji","adm0_a3":"FJI","type_en":"Division"}},{"type":"MultiPolygon","arcs":[[[6]],[[7]],[[8]]],"id":"FJI-2619","properties":{"adm1_code":"FJI-2619","iso_3166_2":"FJ-N","name":"Northern","admin":"Fiji","adm0_a3":"FJI","type_en":"Division"}},{"type":"Polygon","arcs":[[9]],"id":"FJI-2658","properties":{"adm1_code":"FJI-2658","iso_3166_2":"FJ-R","name":"Rotuma","admin":"Fiji","adm0_a3":"FJI","type_en":"Division"}}]}},"arcs":[[[99563,3029],[19,-862],[-44,-517],[-9,763],[-37,-1182],[-19,-1182],[-28,-49],[16,1527],[15,-222],[20,1404],[43,788],[24,-468]],[[99817,17335],[-10,-1354],[-16,2069],[26,-715]],[[99659,22876],[13,-1502],[-15,-271],[-8,1108],[10,665]],[[99383,13987],[-53,837],[-33,148],[-38,788],[-24,2290],[9,1502],[25,418],[0,1108],[18,99],[-13,1527],[65,2782],[58,1330],[26,-591],[32,714],[31,172],[10,690],[21,-542],[10,-1404],[41,-1797]],[[99568,24058],[-6,-1699],[-29,295],[-51,-369],[-24,1354],[-12,-1354],[4,-1034],[-15,-1872],[10,-1354],[-19,-714],[-34,246],[-12,-1083],[15,-985],[-12,-1502]],[[99568,24058],[42,-1502],[-9,-1552],[19,-1649],[-11,-911],[29,-1404],[-5,-763],[-34,-862],[-25,-222],[-18,616],[-36,-665],[-30,-1527],[-36,-246],[-50,-25],[-21,641]],[[0,35484],[23,1378],[17,25],[10,-1305],[-20,-1305],[-25,-985],[-5,-468],[0,2660]],[[99999,32849],[-23,-542],[-6,886],[20,1207],[9,1108],[0,-2659]],[[99999,44718],[-41,-1823],[-32,-2511],[-39,-1207],[-7,-1280],[-23,-1232],[17,-886],[41,1748],[7,690],[36,1428],[28,123],[-17,-1724],[3,-1526],[-8,-788],[-20,788],[-44,-419],[-13,-640],[-83,-271],[15,1133],[-24,615],[-26,-492],[-14,-1010],[-21,-517],[-5,-1477],[-40,985],[-17,-690],[-6,-1108],[-27,-320],[-29,3275],[-24,-517],[-8,813],[16,837],[8,1329],[31,-788],[46,1823],[19,1132],[39,247],[51,837],[25,-148],[35,1330],[8,812],[19,-123],[58,1379],[26,-763],[15,788],[25,443],[0,-295]],[[99200,99827],[-3,-370],[-19,25],[4,517],[18,-172]]],"bbox":[-180,-19.158024077815497,180,-12.474725647764132],"transform":{"scale":[0.0036000360003600037,0.00006683365263704003],"translate":[-180,-19.158024077815497]}}