{"type":"Topology","objects":{"a1":{"type":"GeometryCollection","geometries":[{"type":"Polygon","arcs":[[0,1,2,3,4]],"id":"GIN-5636","properties":{"adm1_code":"GIN-5636","iso_3166_2":"GN-FA","name":"Faranah","admin":"Guinea","adm0_a3":"GIN","type_en":"Prefecture"}},{"type":"Polygon","arcs":[[5,6,7,8,9,10,11,12]],"id":"GIN-5643","properties":{"adm1_code":"GIN-5643","iso_3166_2":"GN-KD","name":"Kindia","admin":"Guinea","adm0_a3":"GIN","type_en":"Prefecture"}},{"type":"Polygon","arcs":[[13,-13,14,15,16,17]],"id":"GIN-5653","properties":{"adm1_code":"GIN-5653","iso_3166_2":"GN-MM","name":"Mamou","admin":"Guinea","adm0_a3":"GIN","type_en":"Prefecture"}},{"type":"Polygon","arcs":[[18,-18,19,20,-2]],"id":"GIN-5632","properties":{"adm1_code":"GIN-5632","iso_3166_2":"GN-DB","name":"Dabola","admin":"Guinea","adm0_a3":"GIN","type_en":"Prefecture"}},{"type":"Polygon","arcs":[[21,22,-7]],"id":"GIN-5637","properties":{"adm1_code":"GIN-5637","iso_3166_2":"GN-FO","name":"Forécariah","admin":"Guinea","adm0_a3":"GIN","type_en":"Prefecture"}},{"type":"Polygon","arcs":[[-5,23,24,25]],"id":"GIN-5640","properties":{"adm1_code":"GIN-5640","iso_3166_2":"GN-GU","name":"Guéckédou","admin":"Guinea","adm0_a3":"GIN","type_en":"Prefecture"}},{"type":"Polygon","arcs":[[26,27,28,29,30,31]],"id":"GIN-5641","properties":{"adm1_code":"GIN-5641","iso_3166_2":"GN-K","name":"Kankan","admin":"Guinea","adm0_a3":"GIN","type_en":"Prefecture"}},{"type":"Polygon","arcs":[[-32,32,33,34]],"id":"GIN-5654","properties":{"adm1_code":"GIN-5654","iso_3166_2":"GN-MD","name":"Mandiana","admin":"Guinea","adm0_a3":"GIN","type_en":"Prefecture"}},{"type":"Polygon","arcs":[[35,36,37,38,39,-28]],"id":"GIN-5627","properties":{"adm1_code":"GIN-5627","iso_3166_2":"GN-BE","name":"Beyla","admin":"Guinea","adm0_a3":"GIN","type_en":"Prefecture"}},{"type":"Polygon","arcs":[[-37,40,41]],"id":"GIN-5650","properties":{"adm1_code":"GIN-5650","iso_3166_2":"GN-LO","name":"Lola","admin":"Guinea","adm0_a3":"GIN","type_en":"Prefecture"}},{"type":"Polygon","arcs":[[42,43,44]],"id":"GIN-5646","properties":{"adm1_code":"GIN-5646","iso_3166_2":"GN-KN","name":"Koundara","admin":"Guinea","adm0_a3":"GIN","type_en":"Prefecture"}},{"type":"Polygon","arcs":[[45,46,47,48,-43,49]],"id":"GIN-5652","properties":{"adm1_code":"GIN-5652","iso_3166_2":"GN-ML","name":"Mali","admin":"Guinea","adm0_a3":"GIN","type_en":"Prefecture"}},{"type":"Polygon","arcs":[[-25,50,51,-39,52,53,54]],"id":"GIN-5651","properties":{"adm1_code":"GIN-5651","iso_3166_2":"GN-MC","name":"Macenta","admin":"Guinea","adm0_a3":"GIN","type_en":"Prefecture"}},{"type":"Polygon","arcs":[[-54,55,56]],"id":"GIN-5659","properties":{"adm1_code":"GIN-5659","iso_3166_2":"GN-YO","name":"Yomou","admin":"Guinea","adm0_a3":"GIN","type_en":"Prefecture"}},{"type":"Polygon","arcs":[[-38,-42,57,-56,-53]],"id":"GIN-5655","properties":{"adm1_code":"GIN-5655","iso_3166_2":"GN-NZ","name":"Nzérékoré","admin":"Guinea","adm0_a3":"GIN","type_en":"Prefecture"}},{"type":"Polygon","arcs":[[-44,-49,58,59,60,61]],"id":"GIN-5639","properties":{"adm1_code":"GIN-5639","iso_3166_2":"GN-GA","name":"Gaoual","admin":"Guinea","adm0_a3":"GIN","type_en":"Prefecture"}},{"type":"Polygon","arcs":[[-61,62,63,64]],"id":"GIN-5629","properties":{"adm1_code":"GIN-5629","iso_3166_2":"GN-BK","name":"Boke","admin":"Guinea","adm0_a3":"GIN","type_en":"Prefecture"}},{"type":"Polygon","arcs":[[-34,65,66,67]],"id":"GIN-5657","properties":{"adm1_code":"GIN-5657","iso_3166_2":"GN-SI","name":"Siguiri","admin":"Guinea","adm0_a3":"GIN","type_en":"Prefecture"}},{"type":"Polygon","arcs":[[68,69,70,71,-46]],"id":"GIN-5645","properties":{"adm1_code":"GIN-5645","iso_3166_2":"GN-KB","name":"Koubia","admin":"Guinea","adm0_a3":"GIN","type_en":"Prefecture"}},{"type":"Polygon","arcs":[[-16,72,-70,73,74]],"id":"GIN-5658","properties":{"adm1_code":"GIN-5658","iso_3166_2":"GN-TO","name":"Tougué","admin":"Guinea","adm0_a3":"GIN","type_en":"Prefecture"}},{"type":"Polygon","arcs":[[-17,-75,75,-67,76,-20]],"id":"GIN-5634","properties":{"adm1_code":"GIN-5634","iso_3166_2":"GN-DI","name":"Dinguiraye","admin":"Guinea","adm0_a3":"GIN","type_en":"Prefecture"}},{"type":"Polygon","arcs":[[-64,77,78,79,80]],"id":"GIN-5628","properties":{"adm1_code":"GIN-5628","iso_3166_2":"GN-BF","name":"Boffa","admin":"Guinea","adm0_a3":"GIN","type_en":"Prefecture"}},{"type":"Polygon","arcs":[[-9,81,82,83,84,-80,85,86]],"id":"GIN-5635","properties":{"adm1_code":"GIN-5635","iso_3166_2":"GN-DU","name":"Dubréka","admin":"Guinea","adm0_a3":"GIN","type_en":"Prefecture"}},{"type":"Polygon","arcs":[[-84,87]],"id":"GIN-5630","properties":{"adm1_code":"GIN-5630","iso_3166_2":"GN-C","name":"Conakry","admin":"Guinea","adm0_a3":"GIN","type_en":"Administrative Zone"}},{"type":"Polygon","arcs":[[-8,-23,88,-82]],"id":"GIN-5631","properties":{"adm1_code":"GIN-5631","iso_3166_2":"GN-CO","name":"Coyah","admin":"Guinea","adm0_a3":"GIN","type_en":"Prefecture"}},{"type":"Polygon","arcs":[[-4,89,-30,90,-51,-24]],"id":"GIN-5644","properties":{"adm1_code":"GIN-5644","iso_3166_2":"GN-KS","name":"Kissidougou","admin":"Guinea","adm0_a3":"GIN","type_en":"Prefecture"}},{"type":"Polygon","arcs":[[-29,-40,-52,-91]],"id":"GIN-5642","properties":{"adm1_code":"GIN-5642","iso_3166_2":"GN-KE","name":"Kérouané","admin":"Guinea","adm0_a3":"GIN","type_en":"Prefecture"}},{"type":"Polygon","arcs":[[-10,-87,91,-78,-63,-60,92,93]],"id":"GIN-5660","properties":{"adm1_code":"GIN-5660","iso_3166_2":"GN-TE","name":"Télimélé","admin":"Guinea","adm0_a3":"GIN","type_en":"Prefecture"}},{"type":"Polygon","arcs":[[-48,94,95,-93,-59]],"id":"GIN-5649","properties":{"adm1_code":"GIN-5649","iso_3166_2":"GN-LE","name":"Lélouma","admin":"Guinea","adm0_a3":"GIN","type_en":"Prefecture"}},{"type":"Polygon","arcs":[[-12,96,97,-71,-73,-15]],"id":"GIN-5633","properties":{"adm1_code":"GIN-5633","iso_3166_2":"GN-DL","name":"Dalaba","admin":"Guinea","adm0_a3":"GIN","type_en":"Prefecture"}},{"type":"Polygon","arcs":[[-47,-72,-98,98,-95]],"id":"GIN-5648","properties":{"adm1_code":"GIN-5648","iso_3166_2":"GN-LA","name":"Labé","admin":"Guinea","adm0_a3":"GIN","type_en":"Prefecture"}},{"type":"Polygon","arcs":[[-11,-94,-96,-99,-97]],"id":"GIN-5656","properties":{"adm1_code":"GIN-5656","iso_3166_2":"GN-PI","name":"Pita","admin":"Guinea","adm0_a3":"GIN","type_en":"Prefecture"}},{"type":"Polygon","arcs":[[-3,-21,-77,-66,-33,-31,-90]],"id":"GIN-5647","properties":{"adm1_code":"GIN-5647","iso_3166_2":"GN-KO","name":"Kouroussa","admin":"Guinea","adm0_a3":"GIN","type_en":"Prefecture"}},{"type":"Polygon","arcs":[[-79,-92,-86]],"id":"GIN-5638","properties":{"adm1_code":"GIN-5638","iso_3166_2":"GN-FR","name":"Fria","admin":"Guinea","adm0_a3":"GIN","type_en":"Prefecture"}}]}},"arcs":[[[60496,33724],[-2064,662],[280,2016],[700,2045],[-2450,2708],[35,1053],[-1539,2587],[-560,1625],[-1050,1534],[-979,842],[-525,2016],[-3394,210]],[[48950,51022],[770,3159],[210,4182],[1749,1263],[1155,151],[1924,2467],[1854,872],[980,-872],[2099,60],[735,932]],[[60426,63236],[455,-1263],[1680,-1595],[1819,482],[910,-361],[1364,-2076],[-1189,-1324],[70,-2918],[-1820,-3068],[455,-1896],[-595,-812],[-35,-1263],[-630,-783],[-34,-2346]],[[62876,44013],[384,-2648],[-35,-3158],[-1189,-1986]],[[62036,36221],[-245,-1263],[-1295,-1234]],[[40063,48977],[-1120,60],[-840,782],[-2309,-572],[-1120,-661],[-385,-2648],[-874,-1173]],[[33415,44765],[-1470,782],[-2869,-211],[-2239,-2196]],[[26837,43140],[-245,1595],[-595,1023],[-1085,722],[315,1925],[-105,1595],[-875,1113]],[[24247,51113],[1050,1684],[665,331],[0,1444],[560,963],[-280,2978]],[[26242,58513],[3219,1204]],[[29461,59717],[1259,932],[1190,-902],[875,1053]],[[32785,60800],[1679,1474],[1470,-2166]],[[35934,60108],[-140,-2768],[210,-1143],[2449,-361],[1400,-2888],[-245,-2497],[455,-1474]],[[47095,51022],[-4338,-30],[-175,-1293],[-2519,-722]],[[35934,60108],[1889,1654],[1050,211],[1295,2076],[979,992],[2799,783],[560,1684],[-455,1956]],[[44051,69464],[2030,511],[2169,2527],[385,1384],[1749,632],[490,842]],[[50874,75360],[770,-2587],[-2344,-2196]],[[49300,70577],[-875,0],[-1540,-1805],[140,-2557],[525,-542],[-245,-11101],[-455,-2196],[245,-1354]],[[48950,51022],[-1855,0]],[[49300,70577],[105,-632],[3009,-60],[735,-1113],[1539,-90],[2589,2346],[1750,421]],[[59027,71449],[-105,-1023],[-1225,-1594],[-385,-1203],[-805,-572],[350,-1173],[2380,-1053],[1189,-1595]],[[33415,44765],[-1330,-4242],[-910,-872],[-909,-1655],[-1645,-180],[-945,-3219],[-1189,-963],[-1225,602],[-1259,-632],[349,1504],[-559,1053],[-70,3008],[-1155,-1083],[-350,1535],[-1085,1444],[350,2196]],[[21483,43261],[2275,1233],[1504,-1354],[1575,0]],[[62036,36221],[630,-692],[-105,-1143],[1959,-2708],[1260,-1173],[1539,211],[1435,1083],[2834,-782]],[[71588,31017],[-315,-1324],[-1540,-1324],[-140,-1173],[630,-3490]],[[70223,23706],[-1189,-361],[-1085,-993],[-665,1535],[-1224,180],[-1365,-632],[-1435,61],[-1749,-2798],[-875,-512],[-1154,1685],[419,2196],[980,1685],[1120,1113],[-1610,2677],[-140,2287],[280,1775],[-35,120]],[[93421,50210],[385,-1925],[-525,-4904],[105,-1143],[1120,-2136]],[[94506,40102],[-1050,60],[-2309,-1203],[-2135,842]],[[89012,39801],[35,2557],[-1294,1926],[-1365,782],[-1889,270],[-945,1053],[-1889,-180],[-2100,-1715],[-559,-3851]],[[79006,40643],[-1680,752],[-2764,-150],[-1050,1414],[-2764,301],[-1644,2106]],[[69104,45066],[1399,601],[980,1324],[35,963],[1015,1384],[139,1805],[-384,842],[0,2858],[489,1474],[210,2798],[2100,3008],[1189,2227],[665,481]],[[76941,64831],[2869,-1264],[2659,-270],[245,-2979],[630,-992],[2030,-1023],[314,-1986],[700,-932],[3289,-993],[525,-2196],[665,-993],[2554,-993]],[[76941,64831],[420,2136]],[[77361,66967],[1400,1594],[2274,1143],[1994,2106],[490,1805],[420,3641],[1190,3309],[524,722]],[[85653,81287],[945,-2798],[1575,-752],[1504,-1023],[315,-2286],[-1050,180],[-1889,-2978],[-980,-2287],[210,-812],[1890,572],[455,1263],[1854,30],[770,-962],[105,-2317],[-490,-2045],[385,-512],[210,-3610],[909,-2076],[1260,60],[280,-1233],[1329,-361],[700,-1474],[-350,-1775],[-594,-1384],[-1015,-602],[-560,-1895]],[[94506,40102],[1084,-211],[1680,452],[-875,-4122],[1295,-752],[1154,-1233],[-2274,-1174],[-385,-1143],[-175,-3069],[2100,-601],[1504,-2617],[35,-3039],[350,-1173],[-1470,210],[-1714,722],[-945,1294],[-3114,-90],[-665,-692],[210,-1354],[-419,-2437],[1119,-993],[1295,-541],[944,391],[0,-1745],[665,-1113],[-1364,-120]],[[94541,14952],[-2834,3189],[-2030,391]],[[89677,18532],[-1469,992],[-700,1414],[-1960,181],[-2379,-1113]],[[83169,20006],[735,3038],[-630,3129],[-875,2016],[0,3971]],[[82399,32160],[1155,1083],[2099,932],[805,2227],[630,601],[1330,2527],[594,271]],[[94541,14952],[-805,-2527],[350,-1294],[-350,-1805],[-1365,-3099],[-1014,843],[-2450,-572],[-839,782],[-245,1595]],[[87823,8875],[735,1354],[-525,3128],[1434,3460],[210,1715]],[[33730,94283],[-2975,-2226],[-384,-1565]],[[30371,90492],[-910,-1263],[-875,-30],[-770,-1203],[-2589,-31],[-910,1324],[-874,301],[140,1203],[-630,1324],[-875,632],[-1609,120],[-1260,-902],[-525,1053]],[[18684,93020],[420,3369],[-840,1504],[-35,2106],[4374,-211],[595,-240],[3814,-241],[-70,-2196],[1364,-903],[910,1294],[1889,-1865],[1680,-181],[945,-1173]],[[48670,90131],[-35,-1413],[-980,-3069],[-595,-782],[-489,-2136],[-2415,-271],[-2029,-1113],[-1645,180],[-1644,1204],[-1575,-30]],[[37263,82701],[-2484,-30]],[[34779,82671],[-4129,-61]],[[30650,82610],[35,2076],[350,1023],[-594,1835],[209,1956],[-279,992]],[[33730,94283],[1014,542],[1330,-632],[595,-933],[2274,812],[1539,1083],[1260,-361],[665,512],[2379,-602],[1575,602],[1714,271],[1715,-512],[-875,-932],[105,-1144],[-840,-1805],[490,-1053]],[[71588,31017],[2414,-722],[910,210],[1364,1023],[805,1203],[350,1745]],[[77431,34476],[665,-150],[665,-2948],[1224,-181],[2414,963]],[[83169,20006],[-385,-421],[-944,-2979],[-805,-1083]],[[81035,15523],[-1680,-2707],[-2344,-2678]],[[77011,10138],[-945,1986],[210,2737],[-804,2708],[-630,391],[245,1384],[-910,2286],[-1400,1835],[-874,-330],[-805,691],[-875,-120]],[[81035,15523],[735,-722],[455,-2286],[1294,-4061],[2134,-813]],[[85653,7641],[-35,-2045],[-1819,-2979],[105,-1353],[-2379,-572],[-980,-692],[-1365,1745],[-349,1504],[-1365,722],[-1400,30],[-664,-902],[1819,4572],[-210,2467]],[[87823,8875],[-1610,90],[-560,-1324]],[[30650,82610],[70,-661],[1330,-2196],[-1295,-1775],[-1749,-1535],[-805,-2346],[280,-1625]],[[28481,72472],[-980,60],[-1819,-692],[-945,181],[-245,3430],[-1749,571],[-2099,30],[-1085,-722],[-1050,90],[-1329,-692]],[[17180,74728],[-1400,1565],[-315,1985],[-1539,873],[455,1895]],[[14381,81046],[1889,1053],[1959,271],[70,5355],[-1609,1624],[-1645,1053],[280,1294],[1400,1053],[1329,-361],[630,632]],[[17180,74728],[629,-2316],[-139,-1594],[-595,-632],[-630,-2798],[-1715,-511],[-2099,-3520]],[[12631,63357],[-1784,-1264],[-1750,-120],[-1749,-1564]],[[7348,60409],[-1050,-632],[-630,1263],[420,1354],[-2204,2347],[595,1293],[-700,903],[-560,1865],[-770,481],[-979,-3159],[-805,-511],[-665,1564],[805,1625],[839,1263],[1295,3340],[455,2106],[1365,2617],[559,602],[2240,60],[1189,872],[2065,1896],[3569,-512]],[[77361,66967],[-3989,-60],[-665,180],[-1119,2076],[-840,933],[-105,2256],[-455,2587],[-1119,1143],[-980,211]],[[68089,76293],[70,3068],[-525,1775],[-1155,1535],[-769,1624],[2869,2738],[1434,1745]],[[70013,88778],[2205,-632],[559,1715],[735,932],[2799,1595],[805,-181],[700,1775],[-1400,2016],[1225,752],[2344,-542],[1610,-1113],[874,-1474],[-419,-1173],[279,-1324],[805,-331],[-175,-1925],[1435,-963],[315,-1805],[-665,-4663],[1609,-150]],[[48670,90131],[1609,-1714]],[[50279,88417],[105,-6137],[-140,-692],[-2309,-783],[-350,-1083],[-979,-992],[-2380,-1384],[-2624,-2076],[-140,-632]],[[41462,74638],[-665,90]],[[40797,74728],[-664,1956],[-2625,5114],[-245,903]],[[44051,69464],[-1014,60],[-315,3038],[-875,783],[-385,1293]],[[50279,88417],[1295,-813],[945,452]],[[52519,88056],[245,-1565],[629,-812],[-244,-4242],[-1050,-1775],[945,-1835],[-1610,-1384],[-560,-1083]],[[52519,88056],[350,1053],[1154,1323],[280,963],[1925,-60],[1434,-1895],[-70,-1324],[1330,-2437],[874,331],[420,1083],[1330,1564],[70,1174],[875,60],[874,1083],[1540,692],[2799,-1294],[2309,-1594]],[[68089,76293],[-1470,-60],[-1399,1444],[-1050,270],[-1050,-1263],[735,-2347],[-420,-1684],[-2344,-60],[-1330,1113],[-629,-121],[-105,-2136]],[[12631,63357],[1540,-512],[2414,903],[700,932],[2519,-481]],[[19804,64199],[-175,-2948],[-1435,-1143],[-1049,-1745],[-140,-1835]],[[17005,56528],[-1260,-3279],[1715,-2317],[1294,-722]],[[18754,50210],[-1259,-1835],[-805,211],[-1365,1925],[-2799,1624],[-2694,3129],[-1505,-30],[0,1925],[-979,1354],[0,1896]],[[24247,51113],[-1504,-121],[-1085,-1715],[0,-3008],[-734,-1534],[174,-2317]],[[21098,42418],[-979,843],[-735,-512]],[[19384,42749],[-420,572]],[[18964,43321],[665,1354],[0,1323],[-1645,873],[770,3339]],[[17005,56528],[874,0],[3639,-1023],[1050,331],[1505,2166],[1119,391]],[[25192,58393],[1050,120]],[[19384,42749],[-455,-361],[-385,121],[420,812]],[[21483,43261],[-385,-843]],[[62876,44013],[2204,-90],[1154,1774],[1995,181],[875,-812]],[[79006,40643],[-245,-3309],[-1085,-902],[-245,-1956]],[[25192,58393],[210,2136],[-175,1504],[-2624,1895],[-2799,271]],[[28481,72472],[1260,-3309]],[[29741,69163],[-1050,-1865],[280,-4362],[-420,-1114],[910,-2105]],[[34779,82671],[525,-3881],[-385,-512],[-455,-3399]],[[34464,74879],[-1679,271],[-1365,-2257],[-839,-3489],[-840,-241]],[[32785,60800],[70,2647],[350,1053],[1679,1715],[700,210],[770,2136],[1714,1384],[1645,60],[-630,1866],[805,2888]],[[39888,74759],[909,-31]],[[39888,74759],[-1540,-482],[-245,-1293],[-2169,-873],[-945,542],[-525,2226]]],"bbox":[-15.081217871536609,7.203235280116743,-7.66324684032557,12.673632714613362],"transform":{"scale":[0.00007418045211663155,0.000054704521390180084],"translate":[-15.081217871536609,7.203235280116743]}}