{"type":"Topology","objects":{"a1":{"type":"GeometryCollection","geometries":[{"type":"Polygon","arcs":[[0,1,2,3,4,5]],"id":"GMB-2151","properties":{"adm1_code":"GMB-2151","iso_3166_2":"GM-M","name":"Central River","admin":"Gambia","adm0_a3":"GMB","type_en":"Division"}},{"type":"Polygon","arcs":[[-5,6]],"id":"GMB-5513","properties":{"adm1_code":"GMB-5513","iso_3166_2":"GM-N","name":"North Bank","admin":"Gambia","adm0_a3":"GMB","type_en":"Division"}},{"type":"Polygon","arcs":[[7,-1]],"id":"GMB-2152","properties":{"adm1_code":"GMB-2152","iso_3166_2":"GM-U","name":"Upper River","admin":"Gambia","adm0_a3":"GMB","type_en":"Division"}},{"type":"Polygon","arcs":[[8,9,10,-3]],"id":"GMB-2154","properties":{"adm1_code":"GMB-2154","iso_3166_2":"GM-L","name":"Lower River","admin":"Gambia","adm0_a3":"GMB","type_en":"Division"}},{"type":"Polygon","arcs":[[11,12,13,-10]],"id":"GMB-5512","properties":{"adm1_code":"GMB-5512","iso_3166_2":"GM-W","name":"West Coast","admin":"Gambia","adm0_a3":"GMB","type_en":"Division"}},{"type":"Polygon","arcs":[[-13,14]],"id":"GMB-2153","properties":{"adm1_code":"GMB-2153","iso_3166_2":"GM-B","name":"Banjul","admin":"Gambia","adm0_a3":"GMB","type_en":"Independent City"}}]}},"arcs":[[[78706,59694],[-1896,-8278],[-1121,-17212]],[[75689,34204],[-1379,3922],[-4569,654],[-1638,6971],[-7845,11329],[-4052,12418],[-1465,-4139]],[[54741,65359],[-3879,-8279]],[[50862,57080],[-87,0]],[[50775,57080],[-1982,5447],[-604,12636],[-3965,1089]],[[44224,76252],[1034,8932],[2414,8279],[3017,1307],[1207,-5228],[5690,10457],[6034,-3704],[1810,-3485],[1897,-15033],[2500,-4357],[4741,5446],[2069,-4793],[2069,-14379]],[[50775,57080],[-1034,-5447],[-4397,7190],[-3017,2396],[-2414,-5228],[-2069,1525],[-2586,-4575],[-10689,-3268],[-1724,1960],[-5949,-14814],[-6637,1961],[86,12418],[-1207,4357],[-173,13507],[15776,-217],[18879,-218],[604,7625]],[[78706,59694],[4310,-7843],[7931,12854],[4138,2832],[2845,-9586],[2069,-9803],[-1034,-12419],[-6811,-5010],[-4827,-8933],[-6466,1743],[-2500,7408],[-2672,3267]],[[54741,65359],[-1207,-5882],[-259,-11765],[-3879,-8279],[-5862,3050],[-3103,-4139],[-6466,-1961],[-517,-12200]],[[33448,24183],[-4914,4139],[-3707,-3486],[-2241,4140]],[[22586,28976],[-2586,7625],[2241,11547],[5517,-2179],[4138,3704],[2845,-872],[3534,5229],[2931,-654],[1121,5447],[3448,-2397],[3707,-6753],[1380,7407]],[[33448,24183],[-86,-11329],[-2328,-654],[-25775,872],[-2673,-13072],[-1120,3268],[-259,19390],[-1207,13507],[2241,8715]],[[2241,44880],[1983,-8715],[3621,6100]],[[7845,42265],[1638,-12418],[4138,-4575],[5431,9150],[948,-9150],[2586,3704]],[[2241,44880],[2759,12200],[2069,-2396],[776,-12419]]],"bbox":[-16.83059242543311,13.06531580408695,-13.819799424661682,13.82070461950029],"transform":{"scale":[0.00003010823109002519,0.000007553963693770342],"translate":[-16.83059242543311,13.06531580408695]}}