{"type":"Topology","objects":{"a1":{"type":"GeometryCollection","geometries":[{"type":"Polygon","arcs":[[0,1,2]],"id":"GNB-777","properties":{"adm1_code":"GNB-777","iso_3166_2":"GW-GA","name":"Gabú","admin":"Guinea Bissau","adm0_a3":"GNB","type_en":"Region"}},{"type":"Polygon","arcs":[[-1,3,4,5]],"id":"GNB-778","properties":{"adm1_code":"GNB-778","iso_3166_2":"GW-TO","name":"Tombali","admin":"Guinea Bissau","adm0_a3":"GNB","type_en":"Region"}},{"type":"Polygon","arcs":[[6,-2,-6,7,8,9]],"id":"GNB-776","properties":{"adm1_code":"GNB-776","iso_3166_2":"GW-BA","name":"Bafatá","admin":"Guinea Bissau","adm0_a3":"GNB","type_en":"Region"}},{"type":"Polygon","arcs":[[-10,10,11,12,13,14]],"id":"GNB-772","properties":{"adm1_code":"GNB-772","iso_3166_2":"GW-OI","name":"Oio","admin":"Guinea Bissau","adm0_a3":"GNB","type_en":"Region"}},{"type":"Polygon","arcs":[[-14,15,16]],"id":"GNB-771","properties":{"adm1_code":"GNB-771","iso_3166_2":"GW-CA","name":"Cacheu","admin":"Guinea Bissau","adm0_a3":"GNB","type_en":"Region"}},{"type":"MultiPolygon","arcs":[[[-13,17,18,-16]],[[19]]],"id":"GNB-5500","properties":{"adm1_code":"GNB-5500","iso_3166_2":"GW-BM","name":"Biombo","admin":"Guinea Bissau","adm0_a3":"GNB","type_en":"Region"}},{"type":"Polygon","arcs":[[-12,20,-18]],"id":"GNB-769","properties":{"adm1_code":"GNB-769","iso_3166_2":"GW-BS","name":"Bissau","admin":"Guinea Bissau","adm0_a3":"GNB","type_en":"Autonomous Sector"}},{"type":"Polygon","arcs":[[-5,21,22,23,-8]],"id":"GNB-773","properties":{"adm1_code":"GNB-773","iso_3166_2":"GW-QU","name":"Quinara","admin":"Guinea Bissau","adm0_a3":"GNB","type_en":"Region"}},{"type":"MultiPolygon","arcs":[[[-23,24]],[[25]],[[26]],[[27]],[[28]],[[29]],[[30]]],"id":"GNB-770","properties":{"adm1_code":"GNB-770","iso_3166_2":"GW-BL","name":"Bolama","admin":"Guinea Bissau","adm0_a3":"GNB","type_en":"Region"}}]}},"arcs":[[[74936,36184],[-2456,4605]],[[72480,40789],[1016,7237],[254,8834],[-1100,3290],[1693,8740],[-1016,10902],[-2371,2162],[4403,8741],[169,6390],[2287,2726]],[[77815,99811],[20067,-94],[85,-6579],[2032,-4699],[-1016,-10526],[-1524,-1974],[-3218,1128],[-3387,-3290],[-677,-4041],[3980,-3289],[3895,-5075],[-170,-16730],[-4742,-845],[-4572,-3290],[-8637,1598],[-4995,-5921]],[[74936,36184],[-2879,-2726],[-5419,-188],[-1355,-1879],[-3302,-8177],[-1101,-6579],[-3133,-10432],[-2032,-3947],[-2117,-2256],[-1016,3195],[593,4230],[-1778,1691],[-2456,-5263],[-1355,2538],[2117,4887],[-4996,1128],[-1608,2537],[-170,8365],[2710,1880],[1863,2913]],[[47502,28101],[2540,3008],[3471,-3760],[4319,2350],[1863,8083],[2286,6297]],[[61981,44079],[3133,-5828],[7366,2538]],[[60626,99999],[17189,-188]],[[61981,44079],[-3133,4041]],[[58848,48120],[-3980,3007],[-762,2162],[2540,5545]],[[56646,58834],[1186,4417],[-2371,2256],[-1355,5263],[1016,2538],[3641,-1128],[254,4417],[-1185,3477],[-85,5545],[3556,3102],[-1608,2913],[1185,5170],[-254,3195]],[[56646,58834],[-2794,1692],[-4488,-4418],[-4657,3008],[-4487,-1504],[-1609,-2161]],[[38611,55451],[-2540,3853]],[[36071,59304],[-1355,3759]],[[34716,63063],[423,6579],[-3302,5639],[7621,9023],[3556,470],[-339,8270]],[[42675,93044],[6435,6767],[2541,188],[8975,0]],[[34716,63063],[-1355,-1315]],[[33361,61748],[-2709,563],[-4657,-1315],[-1609,-4230],[-4996,-1879],[-2625,1409],[-3810,5170],[-1101,10808],[-3471,-376],[-3387,5451],[-2794,2913],[-2202,0],[1947,1316],[4488,-470],[4911,1504],[4827,4511],[4657,658],[3810,-1598],[2963,282],[6690,-94],[8382,6673]],[[36071,59304],[-1524,-4887],[-170,-4324]],[[34377,50093],[-5080,-3195],[-4488,1128],[1440,7143],[1947,4511],[5165,2068]],[[18374,53853],[5589,1598],[-1101,-7425],[-1778,-752],[-2371,3007],[-339,3572]],[[38611,55451],[-4234,-5358]],[[47502,28101],[-2287,-2349],[-1354,1503],[-2117,-3289],[-1270,3289],[3048,7237],[1355,-376],[1947,4605],[-1524,4418]],[[45300,43139],[-2794,-188]],[[42506,42951],[-4064,3101],[3641,8647],[8128,-846],[3302,3947],[678,-7800],[2794,-2820],[1863,940]],[[45300,43139],[-85,-4418],[-4064,0],[1355,4230]],[[22184,10902],[-846,-4699],[-3726,188],[-1947,3759],[2624,1504],[2202,4417],[1693,-5169]],[[34970,21428],[-2540,-7048],[-1270,3101],[1693,3759],[2117,188]],[[18120,16729],[-3387,564],[1609,4229],[2286,-470],[-508,-4323]],[[14818,32424],[-3810,376],[84,2632],[4742,282],[-1016,-3290]],[[23031,33364],[2286,5451],[1524,-1597],[254,-7143],[-4487,-1974],[-1524,2726],[1947,2537]],[[40982,40225],[-593,-3947],[-1947,-2444],[-2625,470],[3387,5545],[1778,376]]],"bbox":[-16.729367488338227,10.927516084649199,-13.664068752207982,12.67856989641345],"transform":{"scale":[0.000030653293894241394,0.00001751071322477476],"translate":[-16.729367488338227,10.927516084649199]}}