{"type":"Topology","objects":{"a1":{"type":"GeometryCollection","geometries":[{"type":"Polygon","arcs":[[0,1,2,3]],"id":"GRD-5072","properties":{"adm1_code":"GRD-5072","iso_3166_2":"GD-03","name":"Saint George","admin":"Grenada","adm0_a3":"GRD","type_en":"Parish"}},{"type":"Polygon","arcs":[[-4,4,5]],"id":"GRD-5071","properties":{"adm1_code":"GRD-5071","iso_3166_2":"GD-02","name":"Saint David","admin":"Grenada","adm0_a3":"GRD","type_en":"Parish"}},{"type":"Polygon","arcs":[[-3,6,7,8,9,-5]],"id":"GRD-5070","properties":{"adm1_code":"GRD-5070","iso_3166_2":"GD-01","name":"Saint Andrew","admin":"Grenada","adm0_a3":"GRD","type_en":"Parish"}},{"type":"Polygon","arcs":[[-9,10,11]],"id":"GRD-5075","properties":{"adm1_code":"GRD-5075","iso_3166_2":"GD-06","name":"Saint Patrick","admin":"Grenada","adm0_a3":"GRD","type_en":"Parish"}},{"type":"Polygon","arcs":[[-8,12,13,-11]],"id":"GRD-5074","properties":{"adm1_code":"GRD-5074","iso_3166_2":"GD-05","name":"Saint Mark","admin":"Grenada","adm0_a3":"GRD","type_en":"Parish"}},{"type":"Polygon","arcs":[[-2,14,-13,-7]],"id":"GRD-5073","properties":{"adm1_code":"GRD-5073","iso_3166_2":"GD-04","name":"Saint John","admin":"Grenada","adm0_a3":"GRD","type_en":"Parish"}},{"type":"Polygon","arcs":[[15]],"id":"GRD-5069","properties":{"adm1_code":"GRD-5069","iso_3166_2":"GD-10","name":"Carriacou and Petite Martinique","admin":"Grenada","adm0_a3":"GRD","type_en":"Dependency"}}]}},"arcs":[[[20472,1967],[-14173,-1967],[-6299,19016]],[[0,19016],[19685,0]],[[19685,19016],[3149,-5246]],[[22834,13770],[-2362,-11803]],[[22834,13770],[15748,-2950]],[[38582,10820],[-18110,-8853]],[[19685,19016],[7086,9508]],[[26771,28524],[2363,4263]],[[29134,32787],[15747,-656]],[[44881,32131],[-6299,-21311]],[[29134,32787],[-7874,8524]],[[21260,41311],[23621,-9180]],[[26771,28524],[-15747,4918]],[[11024,33442],[10236,7869]],[[0,19016],[11024,14426]],[[97637,87540],[-11811,4262],[7874,8197],[6299,-656],[-2362,-11803]]],"bbox":[-61.75110489470154,12.015341807935073,-61.421474971341226,12.51728862427727],"transform":{"scale":[0.00000329633219692512,0.000005019518358605562],"translate":[-61.75110489470154,12.015341807935073]}}