{"type":"Topology","objects":{"a1":{"type":"GeometryCollection","geometries":[{"type":"Polygon","arcs":[[0,1,2,3,4]],"id":"GUY-671","properties":{"adm1_code":"GUY-671","iso_3166_2":"GY-MA","name":"Mahaica-Berbice","admin":"Guyana","adm0_a3":"GUY","type_en":"Region"}},{"type":"Polygon","arcs":[[5,6,7,8,9,10,11]],"id":"GUY-676","properties":{"adm1_code":"GUY-676","iso_3166_2":"GY-PM","name":"Pomeroon-Supenaam","admin":"Guyana","adm0_a3":"GUY","type_en":"Region"}},{"type":"Polygon","arcs":[[-2,12,13,-11,14]],"id":"GUY-672","properties":{"adm1_code":"GUY-672","iso_3166_2":"GY-PT","name":"Potaro-Siparuni","admin":"Guyana","adm0_a3":"GUY","type_en":"Region"}},{"type":"Polygon","arcs":[[-1,15,-13]],"id":"GUY-674","properties":{"adm1_code":"GUY-674","iso_3166_2":"GY-UD","name":"Upper Demerara-Berbice","admin":"Guyana","adm0_a3":"GUY","type_en":"Region"}},{"type":"Polygon","arcs":[[-6,16,17]],"id":"GUY-675","properties":{"adm1_code":"GUY-675","iso_3166_2":"GY-BA","name":"Barima-Waini","admin":"Guyana","adm0_a3":"GUY","type_en":"Region"}},{"type":"MultiPolygon","arcs":[[[-8,18,19]],[[20,21,22]]],"id":"GUY-678","properties":{"adm1_code":"GUY-678","iso_3166_2":"GY-DE","name":"Demerara-Mahaica","admin":"Guyana","adm0_a3":"GUY","type_en":"Region"}},{"type":"Polygon","arcs":[[-7,-18,23,-19]],"id":"GUY-680","properties":{"adm1_code":"GUY-680","iso_3166_2":"GY-CU","name":"Cuyuni-Mazaruni","admin":"Guyana","adm0_a3":"GUY","type_en":"Region"}},{"type":"Polygon","arcs":[[-3,-15,-10,24,-23,25,26]],"id":"GUY-673","properties":{"adm1_code":"GUY-673","iso_3166_2":"GY-UT","name":"Upper Takutu-Upper Essequibo","admin":"Guyana","adm0_a3":"GUY","type_en":"Region"}},{"type":"Polygon","arcs":[[-22,27,28,-26]],"id":"GUY-677","properties":{"adm1_code":"GUY-677","iso_3166_2":"GY-EB","name":"East Berbice-Corentyne","admin":"Guyana","adm0_a3":"GUY","type_en":"Region"}},{"type":"Polygon","arcs":[[-4,-27,-29,29]],"id":"GUY-679","properties":{"adm1_code":"GUY-679","iso_3166_2":"GY-ES","name":"Essequibo Islands-West Demerara","admin":"Guyana","adm0_a3":"GUY","type_en":"Region"}}]}},"arcs":[[[58770,3617],[318,1138],[1855,1496],[1007,1608],[1589,1786],[3286,6028],[1378,1808],[424,1407],[-265,1741],[424,893],[1590,1429],[-1272,2389],[-2120,2032],[-318,2054],[-742,2433],[-2650,2948],[-1006,2254],[106,1117],[-795,1875],[-1537,1518]],[[60042,41571],[1219,2657],[2013,2545]],[[63274,46773],[4399,268],[1431,2947],[2490,1943],[1007,1763],[2544,2747],[424,1808],[1431,3974],[-1537,1384]],[[75463,63607],[-106,1429],[1325,558],[530,804],[-530,1161],[2014,558],[106,960]],[[78802,69077],[1112,804],[3604,-1384],[2491,-2032],[636,-2768],[-954,-2032],[424,-1273],[-1749,-2076],[-371,-1116],[-1166,-871],[1855,-1049],[954,-1050],[-954,-558],[-1166,380],[-530,-1965],[-3551,-469],[-4716,-22],[-848,-737],[-1802,-179],[-1377,-1250],[1642,-2433],[-1748,-2702],[-636,-558],[-212,-1741],[-2120,-1787],[742,-2210],[1855,-1116],[1801,-1876],[477,-1428],[2120,-737],[1643,-1228],[-265,-1652],[1908,-603],[4027,201],[1696,-290],[212,-2836],[1378,-1451],[-583,-781],[1219,-2054],[3020,-2322],[689,-1943],[1272,-937],[954,-1787],[1166,-580],[530,-1295],[1961,-1853],[2543,-156],[2014,-1027],[-1908,-491],[-1325,424],[-3391,-849],[-2332,603],[-1855,0],[-1907,1384],[-2703,-982],[-2120,268],[-1802,-915],[-742,-1161],[-1960,-1452],[-1590,-156],[-3074,112],[-2332,-759],[-1748,22],[-742,-1808],[-2491,22],[-795,670],[-1484,-112],[-1483,447],[-1643,-1630],[-1802,-268]],[[21038,80932],[2809,-736],[2544,-402],[1166,603],[1484,-157],[1483,1117],[1113,111],[2915,-1049],[2173,-357],[1907,-1251],[3233,-602],[1219,915],[2332,-469]],[[45416,78655],[-371,-1518],[2013,-514],[2226,268],[795,-1205],[1484,22],[424,-714]],[[51987,74994],[424,-603],[-265,-1541],[4292,-937]],[[56438,71913],[265,-960]],[[56703,70953],[583,-1675],[-212,-2969],[212,-2188],[-742,-960],[-159,-2970],[-1166,-2277],[-3444,-558]],[[51775,57356],[-901,759],[-1272,89],[-3074,1273],[-2172,1831],[-1378,-291],[-2173,-1339],[-2279,357],[-1960,-1027],[318,-1786],[-1696,-313],[-1855,246],[-3498,-335],[-1483,-1786],[-2014,-1183]],[[26338,53851],[-848,1183],[-1696,335],[-2438,-1005],[-1748,179],[-742,-447],[-4452,536],[-1325,-156],[-13089,9533],[2279,2746],[3020,1072],[159,915],[-1007,1206],[477,1116],[-1377,2322],[1536,1630],[4028,223],[2862,826],[1483,-469],[2067,1184],[1431,223],[2597,1072],[2225,1339],[424,871],[-1166,647]],[[60042,41571],[-2226,514],[-1749,-558],[-795,-782],[-4239,-2567],[-1537,223],[-2279,2300],[-1642,-425],[-4823,0],[-1802,871],[530,715],[212,1808],[-636,1295],[-1166,-67],[-1907,-1674],[-1431,-23]],[[34552,43201],[-2226,1050],[-2385,357],[-583,402],[-2331,-179],[-2173,1005],[1537,580],[1113,1585],[-53,849],[1060,4041],[-2173,960]],[[51775,57356],[-848,-1183],[1325,-1340],[-530,-2925],[1060,-3349],[1219,-44],[1059,-1250],[2332,-670],[4081,-90],[1801,268]],[[58770,3617],[424,-1608],[-795,-915],[-3339,201],[-1801,-1094],[-1272,-201],[-1325,424],[-1484,1273],[-5511,893],[-1590,1295],[-5193,3460],[-1378,-89],[-848,603],[742,848],[-2120,313],[-318,937],[477,4667],[-3286,1295],[-53,1339],[-1907,3193],[106,2210],[689,2836],[900,736],[0,1005],[1802,2567],[106,1362],[-848,938],[530,759],[1696,402],[1537,848],[424,916],[1325,647],[265,1117],[1059,446],[-2755,2009],[371,737],[-1908,938],[0,1139],[1060,1138]],[[21038,80932],[-2543,492],[-1484,-849],[-1961,1295],[848,1474],[-2650,2656],[2650,1474],[371,1384],[1643,1139],[2597,45],[2172,1317],[2862,1473],[2226,424],[530,1474],[2967,804],[689,804],[-4186,3661],[1801,-893],[1166,-1183],[1325,-670],[1113,759],[4293,-1719],[1854,-558],[5883,-2501],[2967,-1741],[4876,-3595]],[[53047,87898],[-2173,-1496],[-2809,-781],[-1537,-1407],[583,-937],[-954,-603],[-1112,-2300],[371,-1719]],[[51987,74994],[3656,1674],[424,960],[2332,938]],[[58399,78566],[-636,-424],[-954,-1876],[-371,-4353]],[[57127,71578],[318,2366],[2120,2501],[1325,848],[2543,-44],[2014,-893]],[[65447,76356],[-53,-1943],[-1325,-1764],[-1272,-1094],[-53,-1228],[742,-937],[-371,-1072],[265,-1585]],[[63380,66733],[-1642,290],[-901,1965],[-2120,1273],[-1590,1317]],[[53047,87898],[2437,-1094],[1908,-1786],[1643,-1049],[477,-871],[-53,-2657],[-371,-1429],[-689,-446]],[[56703,70953],[424,625]],[[63380,66733],[1961,134],[1113,-491]],[[66454,66376],[212,-1451],[3339,-581],[847,-804],[1325,-402],[3286,469]],[[65447,76356],[2173,89],[3127,-1474]],[[70747,74971],[688,-2299],[-1165,-224],[53,-1027],[-1219,-200],[-1696,-1251],[-1113,-1853],[159,-1741]],[[70747,74971],[6465,-3884],[1590,-2010]]],"bbox":[-61.379946792020235,1.186456393077151,-56.48221714335152,8.557668820607333],"transform":{"scale":[0.0000489777862645498,0.00007371286140391586],"translate":[-61.379946792020235,1.186456393077151]}}