{"type":"Topology","objects":{"a1":{"type":"GeometryCollection","geometries":[{"type":"Polygon","arcs":[[0,1,2]],"id":"HND-653","properties":{"adm1_code":"HND-653","iso_3166_2":"HN-OC","name":"Ocotepeque","admin":"Honduras","adm0_a3":"HND","type_en":"Department"}},{"type":"Polygon","arcs":[[-2,3,4,5,6]],"id":"HND-652","properties":{"adm1_code":"HND-652","iso_3166_2":"HN-LE","name":"Lempira","admin":"Honduras","adm0_a3":"HND","type_en":"Department"}},{"type":"Polygon","arcs":[[-6,7,8,9,10]],"id":"HND-648","properties":{"adm1_code":"HND-648","iso_3166_2":"HN-IN","name":"Intibucá","admin":"Honduras","adm0_a3":"HND","type_en":"Department"}},{"type":"Polygon","arcs":[[-10,11,12,13,14]],"id":"HND-649","properties":{"adm1_code":"HND-649","iso_3166_2":"HN-LP","name":"La Paz","admin":"Honduras","adm0_a3":"HND","type_en":"Department"}},{"type":"Polygon","arcs":[[-14,15,16,17]],"id":"HND-645","properties":{"adm1_code":"HND-645","iso_3166_2":"HN-VA","name":"Valle","admin":"Honduras","adm0_a3":"HND","type_en":"Department"}},{"type":"Polygon","arcs":[[18,19,20,21,22,23]],"id":"HND-642","properties":{"adm1_code":"HND-642","iso_3166_2":"HN-OL","name":"Olancho","admin":"Honduras","adm0_a3":"HND","type_en":"Department"}},{"type":"Polygon","arcs":[[-24,24,25]],"id":"HND-640","properties":{"adm1_code":"HND-640","iso_3166_2":"HN-GD","name":"Gracias a Dios","admin":"Honduras","adm0_a3":"HND","type_en":"Department"}},{"type":"Polygon","arcs":[[-20,26,27,28]],"id":"HND-662","properties":{"adm1_code":"HND-662","iso_3166_2":"HN-EP","name":"El Paraíso","admin":"Honduras","adm0_a3":"HND","type_en":"Department"}},{"type":"Polygon","arcs":[[-17,29,-28,30]],"id":"HND-661","properties":{"adm1_code":"HND-661","iso_3166_2":"HN-CH","name":"Choluteca","admin":"Honduras","adm0_a3":"HND","type_en":"Department"}},{"type":"Polygon","arcs":[[31,32,33,34,35]],"id":"HND-647","properties":{"adm1_code":"HND-647","iso_3166_2":"HN-CR","name":"Cortés","admin":"Honduras","adm0_a3":"HND","type_en":"Department"}},{"type":"Polygon","arcs":[[-5,36,37,-36,38,-8]],"id":"HND-650","properties":{"adm1_code":"HND-650","iso_3166_2":"HN-SB","name":"Santa Bárbara","admin":"Honduras","adm0_a3":"HND","type_en":"Department"}},{"type":"Polygon","arcs":[[39,-37,-4,-1]],"id":"HND-651","properties":{"adm1_code":"HND-651","iso_3166_2":"HN-CP","name":"Copán","admin":"Honduras","adm0_a3":"HND","type_en":"Department"}},{"type":"Polygon","arcs":[[-23,40,41,42,-25]],"id":"HND-638","properties":{"adm1_code":"HND-638","iso_3166_2":"HN-CL","name":"Colón","admin":"Honduras","adm0_a3":"HND","type_en":"Department"}},{"type":"Polygon","arcs":[[-33,43,-42,44]],"id":"HND-637","properties":{"adm1_code":"HND-637","iso_3166_2":"HN-AT","name":"Atlántida","admin":"Honduras","adm0_a3":"HND","type_en":"Department"}},{"type":"Polygon","arcs":[[45]],"id":"HND-641","properties":{"adm1_code":"HND-641","iso_3166_2":"HN-IB","name":"Islas de la Bahía","admin":"Honduras","adm0_a3":"HND","type_en":"Department"}},{"type":"Polygon","arcs":[[-9,-39,-35,46,47,-12]],"id":"HND-646","properties":{"adm1_code":"HND-646","iso_3166_2":"HN-CM","name":"Comayagua","admin":"Honduras","adm0_a3":"HND","type_en":"Department"}},{"type":"Polygon","arcs":[[-22,48,-47,-34,-45,-41]],"id":"HND-643","properties":{"adm1_code":"HND-643","iso_3166_2":"HN-YO","name":"Yoro","admin":"Honduras","adm0_a3":"HND","type_en":"Department"}},{"type":"Polygon","arcs":[[-13,-48,-49,-21,-29,-30,-16]],"id":"HND-639","properties":{"adm1_code":"HND-639","iso_3166_2":"HN-FM","name":"Francisco Morazán","admin":"Honduras","adm0_a3":"HND","type_en":"Department"}}]}},"arcs":[[[3457,50190],[1957,287],[1625,-4628],[1582,-764],[1500,382]],[[10121,45467],[-209,-3053],[-3123,-2863],[-625,-1240],[125,-2624]],[[6289,35687],[-916,2910],[-5123,2958],[-250,48],[1874,4580],[1375,238],[208,3769]],[[10121,45467],[-750,4914],[1957,191],[-333,2624],[500,3244]],[[11495,56440],[1458,239],[1083,-3578],[708,1240],[1332,-1002],[584,-2576],[-334,-2195]],[[16326,48568],[375,-2385],[-625,-2386],[-1541,-477],[-624,-1956],[1166,-1670],[0,-2910],[1499,-954],[-125,-4008],[-2582,-3149]],[[13869,28673],[-2166,1336],[-916,-95],[-791,2576],[-1583,0],[-708,2433],[-1416,764]],[[16326,48568],[4332,286]],[[20658,48854],[1707,-1526],[1833,-5296]],[[24198,42032],[-1083,-1288],[-4998,-8874],[250,-2576]],[[18367,29294],[-916,-2052],[-3582,-1956],[0,3387]],[[24198,42032],[2541,-2147],[916,-2385],[-3041,-1384],[750,-2385],[2666,-1575]],[[28030,32156],[291,-3817],[-791,-3578]],[[27530,24761],[-1666,334]],[[25864,25095],[-1333,2004],[-1916,-668],[-999,-716],[-1166,3292],[-2083,287]],[[27530,24761],[-42,-2099],[2999,-2624]],[[30487,20038],[666,-954],[334,-2672],[791,-2672],[-458,-1765]],[[31820,11975],[-1083,811],[-583,-1813],[-1041,-95],[-1208,1956],[-1583,-1861],[-1541,1384],[1291,1049],[167,1670],[-1000,954],[542,4580],[708,3197],[-625,1288]],[[70012,51097],[-542,-2099],[167,-1956],[-2082,-3388],[-875,-2290],[250,-2815],[-2083,-811],[-1166,-2051],[-625,-2243],[-2082,-2671]],[[60974,30773],[-833,3053],[-2291,1527],[-1416,-477],[-1083,-1432],[-1124,1479],[-583,2052],[-1958,381],[-1457,2100],[-1958,-1575],[-1208,143],[-1499,2147],[-3082,1670]],[[42482,41841],[-458,4437],[-1666,2624],[-1375,6680],[417,1240],[-1291,2195]],[[38109,59017],[1624,1908],[500,2624],[-83,2385],[1457,1193],[1666,-381],[542,1717],[1707,1288],[2458,-1622],[2249,2338]],[[50229,70467],[1332,-1097],[1791,524],[1083,1050],[1541,3006],[1749,1574],[2541,-1431],[1624,-2481],[2333,-2004],[1791,-4198],[2498,-2004],[1500,-2863]],[[70012,60543],[0,-9446]],[[70012,60543],[0,26670]],[[70012,87213],[5164,-3244],[292,-2958],[2915,143],[208,1479],[2708,-573],[5622,-8492],[-1291,525],[-1583,-3054],[667,-2051],[1999,-1765],[583,-1479],[1624,668],[-2707,2385],[1333,907],[2124,-2863],[83,-1908],[2166,1049],[167,1145],[3457,-859],[833,-1049],[458,-2386],[1166,-2958],[1999,-1383],[-2124,-430],[-2041,1384],[-1124,-1384],[-6581,-5963],[-2457,-525],[-2582,-1288],[-833,1192],[-833,-2576],[-792,239],[-2332,-1622],[-708,1192],[-2791,430],[-1124,3769],[-2124,334],[-1541,-2147]],[[60974,30773],[-2207,-2290],[-750,-2147],[42,-1861],[-1292,668],[-4373,5725],[-1416,-2242],[-1582,-3531],[-459,-2004],[-1582,-811],[-2083,1002],[-2998,-429],[-708,-1765]],[[41566,21088],[-2583,-1336],[-1707,-3912],[-1083,-144],[-1250,1289],[-458,3053]],[[34485,20038],[1333,-334],[750,3626],[749,-286],[667,2051],[83,3435],[1166,1050],[333,6679],[1208,3101],[1708,2481]],[[30487,20038],[125,2481],[1083,-143],[416,-1766],[2374,-572]],[[41566,21088],[125,-2004],[999,-9399],[-500,-1336],[-1332,716],[-1541,-1527],[-584,-4914],[-1582,-2624],[-625,477],[-3665,-429],[333,858],[-1999,2911],[-292,2242],[-1207,2863],[2124,3053]],[[14369,73663],[1832,2768],[584,1669],[1541,1527],[1624,-906],[1416,2767],[1541,811],[416,1431],[2874,1527]],[[26197,85257],[-1041,-3674],[125,-2099]],[[25281,79484],[-542,-1431],[917,-1813],[-1083,-2911],[291,-1145],[-916,-3530],[-916,-1479],[41,-3054],[2499,-1526],[542,-3531]],[[26114,59064],[-83,-1574],[-1666,-1765],[-1916,-2863],[-375,954]],[[22074,53816],[-167,1861],[-916,906],[375,3197],[-1250,3149],[750,1670],[-999,1813],[-125,2814],[-1541,1527],[-209,2052],[-2707,1431],[-916,-573]],[[11495,56440],[-916,764],[916,3578],[-541,2862],[-1291,3626]],[[9663,67270],[4706,6393]],[[22074,53816],[0,-1240],[-1333,-1336],[-83,-2386]],[[3457,50190],[-1291,3579],[624,2290],[0,2385],[667,2195],[2790,2004],[3416,4627]],[[50229,70467],[-42,2576],[-666,954],[-1625,287],[-708,1192]],[[47188,75476],[916,2577],[-1249,2242],[83,1193]],[[46938,81488],[1000,-573],[3790,3626],[2291,143],[1499,2386],[1416,620],[1791,-811],[1499,-2004],[1916,-1097],[3790,429],[2832,2958],[1250,48]],[[26197,85257],[1791,-764],[1749,-2767],[1000,-191],[1624,1670],[3124,-1526],[3165,-1002],[1208,47],[1708,1241],[1166,-525],[3123,477],[1083,-429]],[[47188,75476],[-3457,621],[-2290,-1575],[-1208,525],[-2166,-573],[-1333,-1956],[-1749,-1574],[-3748,1002],[-375,1956],[-2749,-716],[-1000,1766],[-416,2862],[-1416,1670]],[[44231,95801],[1208,2099],[3165,2099],[333,-477],[-2873,-2529],[-1833,-1192]],[[26114,59064],[1666,0],[1208,1098],[1332,-2147],[459,-2052],[1124,811],[2041,-1192]],[[33944,55582],[-292,-5630],[-2165,-2195],[-1042,-3053],[1333,-3674],[-1333,-2147],[458,-2958],[-2290,-2194],[-583,-1575]],[[38109,59017],[-2124,477],[-1042,-621],[-999,-3291]]],"bbox":[-89.36215312074174,12.979737986218765,-83.13033071138636,16.42918233721302],"transform":{"scale":[0.00006231884728202656,0.000034494788457827137],"translate":[-89.36215312074174,12.979737986218765]}}