{"type":"Topology","objects":{"a1":{"type":"GeometryCollection","geometries":[{"type":"Polygon","arcs":[[0,1,2]],"id":"HRV-1609","properties":{"adm1_code":"HRV-1609","iso_3166_2":"HR-20","name":"Medimurska","admin":"Croatia","adm0_a3":"HRV","type_en":"County"}},{"type":"Polygon","arcs":[[3,4,5,6,7]],"id":"HRV-1606","properties":{"adm1_code":"HRV-1606","iso_3166_2":"HR-10","name":"Viroviticko-Podravska","admin":"Croatia","adm0_a3":"HRV","type_en":"County"}},{"type":"Polygon","arcs":[[8,-8,9,10,11,-1]],"id":"HRV-1608","properties":{"adm1_code":"HRV-1608","iso_3166_2":"HR-06","name":"Koprivničko-Križevačka","admin":"Croatia","adm0_a3":"HRV","type_en":"County"}},{"type":"Polygon","arcs":[[12,13,14,-5,15]],"id":"HRV-1603","properties":{"adm1_code":"HRV-1603","iso_3166_2":"HR-14","name":"Osjecko-Baranjska","admin":"Croatia","adm0_a3":"HRV","type_en":"County"}},{"type":"Polygon","arcs":[[16,17]],"id":"HRV-1592","properties":{"adm1_code":"HRV-1592","iso_3166_2":"HR-18","name":"Istarska","admin":"Croatia","adm0_a3":"HRV","type_en":"County"}},{"type":"MultiPolygon","arcs":[[[18]],[[19,20]],[[21]]],"id":"HRV-1490","properties":{"adm1_code":"HRV-1490","iso_3166_2":"HR-19","name":"Dubrovacko-Neretvanska","admin":"Croatia","adm0_a3":"HRV","type_en":"County"}},{"type":"Polygon","arcs":[[22,23,24,25,26,27]],"id":"HRV-1587","properties":{"adm1_code":"HRV-1587","iso_3166_2":"HR-03","name":"Sisacko-Moslavacka","admin":"Croatia","adm0_a3":"HRV","type_en":"County"}},{"type":"Polygon","arcs":[[-14,28,29,-27,30]],"id":"HRV-1602","properties":{"adm1_code":"HRV-1602","iso_3166_2":"HR-12","name":"Brodsko-Posavska","admin":"Croatia","adm0_a3":"HRV","type_en":"County"}},{"type":"Polygon","arcs":[[-23,31,32,33,34,35,36]],"id":"HRV-1583","properties":{"adm1_code":"HRV-1583","iso_3166_2":"HR-04","name":"Karlovacka","admin":"Croatia","adm0_a3":"HRV","type_en":"County"}},{"type":"Polygon","arcs":[[37,38,39,40,41,-33]],"id":"HRV-1493","properties":{"adm1_code":"HRV-1493","iso_3166_2":"HR-13","name":"Zadarska","admin":"Croatia","adm0_a3":"HRV","type_en":"County"}},{"type":"Polygon","arcs":[[-13,42,-29]],"id":"HRV-1605","properties":{"adm1_code":"HRV-1605","iso_3166_2":"HR-16","name":"Vukovarsko-Srijemska","admin":"Croatia","adm0_a3":"HRV","type_en":"County"}},{"type":"MultiPolygon","arcs":[[[-21,43,44,-39,45]],[[46]],[[47]],[[48]]],"id":"HRV-1492","properties":{"adm1_code":"HRV-1492","iso_3166_2":"HR-17","name":"Splitsko-Dalmatinska","admin":"Croatia","adm0_a3":"HRV","type_en":"County"}},{"type":"Polygon","arcs":[[-2,-12,49,50,51]],"id":"HRV-1610","properties":{"adm1_code":"HRV-1610","iso_3166_2":"HR-05","name":"Varaždinska","admin":"Croatia","adm0_a3":"HRV","type_en":"County"}},{"type":"Polygon","arcs":[[-51,52,53,54,55]],"id":"HRV-1582","properties":{"adm1_code":"HRV-1582","iso_3166_2":"HR-02","name":"Krapinsko-Zagorska","admin":"Croatia","adm0_a3":"HRV","type_en":"County"}},{"type":"Polygon","arcs":[[-11,56,-24,-37,57,-55,58,-53,-50]],"id":"HRV-1588","properties":{"adm1_code":"HRV-1588","iso_3166_2":"HR-01","name":"Zagrebacka","admin":"Croatia","adm0_a3":"HRV","type_en":"County"}},{"type":"MultiPolygon","arcs":[[[-17,59,-35,60,61]],[[62]],[[63]]],"id":"HRV-1586","properties":{"adm1_code":"HRV-1586","iso_3166_2":"HR-08","name":"Primorsko-Goranska","admin":"Croatia","adm0_a3":"HRV","type_en":"County"}},{"type":"Polygon","arcs":[[-40,-45,64]],"id":"HRV-1491","properties":{"adm1_code":"HRV-1491","iso_3166_2":"HR-15","name":"Šibensko-Kninska","admin":"Croatia","adm0_a3":"HRV","type_en":"County"}},{"type":"MultiPolygon","arcs":[[[-34,-42,65,-61]],[[66]]],"id":"HRV-1584","properties":{"adm1_code":"HRV-1584","iso_3166_2":"HR-09","name":"Licko-Senjska","admin":"Croatia","adm0_a3":"HRV","type_en":"County"}},{"type":"Polygon","arcs":[[-7,67,-25,-57,-10]],"id":"HRV-1607","properties":{"adm1_code":"HRV-1607","iso_3166_2":"HR-07","name":"Bjelovarsko-bilogorska","admin":"Croatia","adm0_a3":"HRV","type_en":"County"}},{"type":"Polygon","arcs":[[-54,-59]],"id":"HRV-1589","properties":{"adm1_code":"HRV-1589","iso_3166_2":"HR-21","name":"Grad Zagreb","admin":"Croatia","adm0_a3":"HRV","type_en":"City"}},{"type":"Polygon","arcs":[[-6,-15,-31,-26,-68]],"id":"HRV-1604","properties":{"adm1_code":"HRV-1604","iso_3166_2":"HR-12","name":"Brodsko-Posavska","admin":"Croatia","adm0_a3":"HRV","type_en":"County"}}]}},"arcs":[[[56884,95653],[-750,-1954],[-1192,519]],[[54942,94218],[-4457,-80],[-2074,438],[-1368,1396]],[[47043,95972],[-795,2592],[486,677],[662,359],[176,80],[486,319],[3001,-1037],[2427,-917],[882,-1236],[2516,-1156]],[[64474,86323],[4855,-1077],[1103,-2033],[4236,-1436]],[[74668,81777],[750,-1634],[2295,-2273]],[[77713,77870],[-3486,-3868],[-3883,1077],[-2295,1475],[-1457,-40]],[[66592,76514],[1060,2433],[-1810,638],[-1853,2472],[-2339,1594]],[[61650,83651],[1324,2712],[1500,-40]],[[56884,95653],[353,-1276],[1633,-2472],[2383,-2113],[1368,-40],[1853,-3429]],[[61650,83651],[-3972,3390],[-662,1634],[-2118,-757],[-839,-2951]],[[54059,84967],[-1544,80],[-1412,1156],[-2736,1196]],[[48367,87399],[-133,2393],[1633,279],[2560,1674],[2736,1037],[-221,1436]],[[93335,73325],[-2074,837],[-1588,-1555],[-2251,-518],[-397,-1715],[-2030,-718],[397,-2392]],[[85392,67264],[-3575,1276],[-2118,-478],[-2030,1116]],[[77669,69178],[88,2073],[3707,3270],[-1897,1036],[265,1516],[-2119,797]],[[74668,81777],[3001,-478],[2207,319],[3398,-1037],[2736,1795],[1721,2272],[2515,-119],[1368,598],[-971,-2791],[2119,-3549],[-971,-1196],[485,-1954],[1324,-997],[-265,-1315]],[[10282,74042],[1457,-1674],[-45,-5622],[574,-399]],[[12268,66347],[-1368,-2033],[177,-1835],[-1501,-279],[-1765,-3827],[-1898,0],[-1500,3349],[-2206,2552],[-795,1834],[0,2312],[-1412,4745],[1280,1276],[1191,-718],[1721,80],[2207,-957],[1677,2153],[2162,-957],[44,0]],[[83715,3429],[132,-1954],[883,-1475],[-4369,3429],[-397,1475],[-2383,758],[-486,957],[-4104,2950],[-1324,-279],[-4898,1755],[-4060,2711],[662,917],[2559,-1077],[2163,-1674],[2295,-439],[838,678],[2118,-718],[530,-1754],[6222,-4585],[2472,-1276],[1147,-399]],[[66945,17703],[2516,-1794],[1103,-2632],[-1412,-558],[-1103,399],[-2560,2911]],[[65489,16029],[1456,1674]],[[61517,13397],[-397,-1356],[-2294,319],[-2075,-638],[-3618,838],[1412,1315],[1721,-677],[3575,518],[1676,-319]],[[38923,67344],[-2780,359],[617,5183],[2339,-638],[0,3030]],[[39099,75278],[2074,-1196],[3001,758],[-1059,1834],[1677,1276],[1545,-917],[1015,1116],[-89,2073],[3443,878]],[[50706,81100],[88,-1037],[1986,-1435],[2956,-1276],[2339,-3230]],[[58075,74122],[2251,-2392],[2030,-718]],[[62356,71012],[-1677,-3190],[706,-1156]],[[61385,66666],[-3266,2671],[-2471,-2432],[-3398,1037],[-1765,-518],[-1721,-2233],[-618,-2113],[-2251,279],[-3662,4505],[-3310,-518]],[[85392,67264],[0,-2552]],[[85392,64712],[-927,-518],[-485,439],[-3663,1754],[-1589,-1435],[-2648,1116],[-2603,-1914],[-1192,1116],[-1368,1276],[-1897,-1036],[-7635,1156]],[[62356,71012],[1191,797],[2383,160],[3178,-2671],[2118,-439],[706,-1794],[2957,2512],[2780,-399]],[[38923,67344],[-1148,-6340]],[[37775,61004],[-1323,319],[-1545,-1674]],[[34907,59649],[-1721,1116],[-1501,2472],[-3089,2392],[-3177,-40]],[[25419,65589],[-662,638],[0,2871],[1015,1436],[1589,-838],[1677,1954],[88,1515]],[[29126,73165],[1500,319],[-573,2951],[1191,2352]],[[31244,78787],[1192,638],[2294,-2193],[3001,-399],[1368,-1555]],[[37775,61004],[662,-2193],[-970,-1395],[1500,-2193],[1545,558],[3751,-4785],[1500,-4146],[177,-3469],[1897,-3031],[1324,-558],[2074,-2233]],[[51235,37559],[-3001,-996]],[[48234,36563],[-2030,-200],[-1324,638],[-88,1994],[-1942,-319],[-617,-1595],[-1589,-917],[-1103,718],[-1677,-1715],[-3310,199]],[[34554,35366],[-1368,1077],[-1809,2552],[-3663,4107],[220,2033],[2119,120],[220,1953]],[[30273,47208],[574,1117],[2824,-1037],[2074,239],[-441,1914],[1059,917],[-1500,2074],[-794,2990],[1456,2233],[-618,1994]],[[93335,73325],[-485,-1276],[2206,-2233],[3134,-1515],[1809,-1555],[-4325,-239],[-971,-1874],[45,-2353],[794,-837],[-1986,-2113],[-706,-80],[-2251,319],[-618,2392],[-1985,2552],[-2604,199]],[[65489,16029],[-838,1196],[-4104,2711],[-3310,4027],[-4325,1037],[-3266,2432],[-1632,40],[-3178,-957],[-2339,-160]],[[42497,26355],[530,2233],[1986,2074],[1147,-280],[1942,957],[265,1635],[1147,1316],[-1280,2273]],[[51235,37559],[2560,-3070],[618,-1674],[1853,-1555],[4060,-4346],[3045,-1197],[794,-996],[-353,-2034],[1059,-2233],[2074,-2751]],[[46381,15869],[-530,-917],[-2074,-558],[88,1754],[2516,-279]],[[54059,17225],[-4192,1036],[1501,1396],[2118,-279],[573,-2153]],[[50794,21013],[-1324,797],[1191,1595],[3310,-160],[2074,-558],[618,-1954],[-3707,-199],[-2162,479]],[[48367,87399],[-1721,878]],[[46646,88277],[-177,3070],[-4854,159],[-1412,1595]],[[40203,93101],[44,0],[662,319],[1279,439],[927,638],[662,1355],[3266,120]],[[46646,88277],[-2075,-2193]],[[44571,86084],[-2868,-1436],[-441,558]],[[41262,85206],[-1986,1157],[-2516,-200]],[[36760,86163],[309,1675],[-1191,837],[-574,1515],[618,1356],[883,479],[2074,797],[1324,279]],[[54059,84967],[-88,-2033],[-3265,-1834]],[[31244,78787],[-1721,1077],[1368,957],[1677,558],[2074,1156],[1942,199],[176,3429]],[[41262,85206],[-2119,-558],[-750,-1036],[1280,-1436],[-1236,-2631],[2516,-1874],[750,2272],[4413,3230],[-1545,2911]],[[10282,74042],[1721,598],[2604,-478],[1633,1156],[397,1316],[1324,2033],[1589,-2272],[88,-877],[3619,-1555],[1632,518],[1501,-399],[1235,-1076],[1501,159]],[[25419,65589],[-2162,-2153]],[[23257,63436],[-486,1436],[-3310,2472],[-2515,2512],[-3089,1316],[-971,-1555],[-618,-3270]],[[16990,54385],[-1456,-119],[-1633,4306],[-485,2632],[2559,-2233],[309,-3469],[706,-1117]],[[20565,61204],[-2251,1953],[-2824,1555],[1500,997],[839,2911],[1765,-2113],[0,-1795],[2515,-2671],[-1544,-837]],[[42497,26355],[-1632,2153],[220,1994],[-6531,4864]],[[30273,47208],[-3618,4147],[-1368,997],[-1677,2711],[-309,4147],[662,2392],[-706,1834]],[[23168,51913],[3531,-2352],[2912,-2951],[-2692,0],[-3751,5303]],[[66592,76514],[-220,-1475],[-6796,-239],[-1501,-678]]],"bbox":[13.513529102169429,42.416861605605334,19.394957498504,46.54434559047823],"transform":{"scale":[0.00005881487211206682,0.00004127525260125497],"translate":[13.513529102169429,42.416861605605334]}}