{"type":"Topology","objects":{"a1":{"type":"GeometryCollection","geometries":[{"type":"Polygon","arcs":[[0,1,2]],"id":"HTI-1386","properties":{"adm1_code":"HTI-1386","iso_3166_2":"HT-NE","name":"Nord-Est","admin":"Haiti","adm0_a3":"HTI","type_en":"Department"}},{"type":"Polygon","arcs":[[-1,3,4,5,6]],"id":"HTI-1385","properties":{"adm1_code":"HTI-1385","iso_3166_2":"HT-CE","name":"Centre","admin":"Haiti","adm0_a3":"HTI","type_en":"Department"}},{"type":"MultiPolygon","arcs":[[[-5,7,8,9,10,11]],[[12]]],"id":"HTI-1388","properties":{"adm1_code":"HTI-1388","iso_3166_2":"HT-OU","name":"Ouest","admin":"Haiti","adm0_a3":"HTI","type_en":"Department"}},{"type":"Polygon","arcs":[[13,14,15,-9]],"id":"HTI-1389","properties":{"adm1_code":"HTI-1389","iso_3166_2":"HT-SE","name":"Sud-Est","admin":"Haiti","adm0_a3":"HTI","type_en":"Department"}},{"type":"Polygon","arcs":[[-15,16,17,18]],"id":"HTI-1362","properties":{"adm1_code":"HTI-1362","iso_3166_2":"HT-SD","name":"Sud","admin":"Haiti","adm0_a3":"HTI","type_en":"Department"}},{"type":"Polygon","arcs":[[-18,19,20]],"id":"HTI-1359","properties":{"adm1_code":"HTI-1359","iso_3166_2":"HT-GA","name":"Grand'Anse","admin":"Haiti","adm0_a3":"HTI","type_en":"Department"}},{"type":"MultiPolygon","arcs":[[[21]],[[22,23,24]]],"id":"HTI-1361","properties":{"adm1_code":"HTI-1361","iso_3166_2":"HT-NO","name":"Nord-Ouest","admin":"Haiti","adm0_a3":"HTI","type_en":"Department"}},{"type":"Polygon","arcs":[[-2,-7,25,-24,26]],"id":"HTI-1387","properties":{"adm1_code":"HTI-1387","iso_3166_2":"HT-ND","name":"Nord","admin":"Haiti","adm0_a3":"HTI","type_en":"Department"}},{"type":"Polygon","arcs":[[-6,-12,27,-25,-26]],"id":"HTI-1384","properties":{"adm1_code":"HTI-1384","iso_3166_2":"HT-AR","name":"L'Artibonite","admin":"Haiti","adm0_a3":"HTI","type_en":"Department"}},{"type":"Polygon","arcs":[[-10,-16,-19,-21,28]],"id":"HTI-1360","properties":{"adm1_code":"HTI-1360","iso_3166_2":"HT-NI","name":"Nippes","admin":"Haiti","adm0_a3":"HTI","type_en":"Department"}}]}},"arcs":[[[96262,60765],[-4832,239],[-3281,2472]],[[88149,63476],[-4558,11164],[0,2393],[2188,4705]],[[85779,81738],[2734,957],[7475,-1037],[365,-3030],[1458,-11324],[-2552,-4226],[1003,-2313]],[[96262,60765],[3372,-2951],[365,-3189],[-4922,-7576],[1732,-5502],[546,-4785],[-2370,-4785],[-182,-239]],[[94803,31738],[-5469,3030],[-5561,-1834],[-2735,1196],[-6381,6619]],[[74657,40749],[3282,-80],[1459,3669],[182,6140],[-729,8373],[1549,3030]],[[80400,61881],[2826,-2073],[4923,3668]],[[94803,31738],[-1823,-3030],[-4011,0],[-1550,-1755],[3191,-4226],[-91,-3110],[6198,-4705],[547,-1914]],[[97264,12998],[-3099,-717],[-1823,1515],[-5378,159],[-6017,1755],[-5925,0],[-4831,2472],[-2006,-2074],[-5469,-2552],[-2097,-1913],[-2370,877],[-4922,-80],[-912,1994]],[[52415,14434],[-2279,2870],[183,3669]],[[50319,20973],[2552,558],[8022,-1994],[2370,1515],[2096,4546],[7019,-319],[2644,-798],[1003,6779],[-7840,5582],[-2461,5024],[-3099,2631]],[[62625,44497],[1094,1436],[6563,-718],[4375,-4466]],[[43208,41307],[-1367,2313],[3464,2073],[12397,-6858],[1368,-5183],[-8022,1914],[-7840,5741]],[[97264,12998],[-1914,-5901],[0,-6459],[-5378,7017],[-5014,2632],[-4193,-638],[-8751,0],[-6108,-1914],[-5013,-399],[-4558,-1754],[-4284,1994]],[[52051,7576],[-183,1914]],[[51868,9490],[547,4944]],[[52051,7576],[-4103,398],[-8842,3270],[-2917,0],[-4193,-1994],[-2644,1755],[-5469,-4546],[-2188,-6459],[-3372,5582],[-7566,7416],[-2918,957],[-2278,-1355],[-4285,3668]],[[1276,16268],[3920,159],[9024,1914],[6290,-1914],[456,2074],[3829,877]],[[24795,19378],[6472,80],[3008,-4546],[6837,1595],[7110,-558],[2461,-2791],[1185,-3668]],[[1276,16268],[-1276,3269],[1276,2393],[1003,6299],[5925,3031],[3373,-559],[4649,-2711],[2005,-80],[5652,-2870],[2461,79]],[[26344,25119],[-1549,-5741]],[[57611,99999],[6381,-2791],[-2552,-1435],[-3647,1594],[-182,2632]],[[48040,77671],[-3464,1036],[-2188,-1196],[-4467,558],[-2005,4307],[1185,2551],[3099,2712],[7110,4146],[5834,-398],[7019,1595],[7475,-3350]],[[67638,89632],[-3919,-3349]],[[63719,86283],[-3282,-1276],[-2188,-2472],[-2643,-558],[-5652,797],[-1914,-5103]],[[80400,61881],[-1549,7098],[-2735,2551],[-1367,3828],[-1915,-2073],[-2370,239],[-2005,2392],[-2006,6858],[-2734,3509]],[[67638,89632],[5834,-3349],[2370,-2632],[6655,-239],[3282,-1674]],[[62625,44497],[-3738,5263],[3373,2472],[-3008,6220],[2643,9410],[-3099,3828],[-7110,4625],[-3646,1356]],[[26344,25119],[4740,-2232],[2735,1275],[5561,-558],[2917,-1355],[4193,-80],[3829,-1196]]],"bbox":[-74.48987390141383,18.025537785907886,-71.64259810671876,20.089279778344334],"transform":{"scale":[0.000028473042677377427,0.000020637626300627485],"translate":[-74.48987390141383,18.025537785907886]}}