{"type":"Topology","objects":{"a1":{"type":"GeometryCollection","geometries":[{"type":"Polygon","arcs":[[0,1,2],[3]],"id":"HUN-3169","properties":{"adm1_code":"HUN-3169","iso_3166_2":"HU-SZ","name":"Szabolcs-Szatmár-Bereg","admin":"Hungary","adm0_a3":"HUN","type_en":"County"}},{"type":"Polygon","arcs":[[4,5,6,7,8,9],[10]],"id":"HUN-3171","properties":{"adm1_code":"HUN-3171","iso_3166_2":"HU-BE","name":"Békés","admin":"Hungary","adm0_a3":"HUN","type_en":"County"}},{"type":"Polygon","arcs":[[-1,11,-9,12,13],[14]],"id":"HUN-3173","properties":{"adm1_code":"HUN-3173","iso_3166_2":"HU-HB","name":"Hajdú-Bihar","admin":"Hungary","adm0_a3":"HUN","type_en":"County"}},{"type":"MultiPolygon","arcs":[[[15,16,17,-5]],[[-7,18,19,20,21,22]]],"id":"HUN-3172","properties":{"adm1_code":"HUN-3172","iso_3166_2":"HU-CS","name":"Csongrád","admin":"Hungary","adm0_a3":"HUN","type_en":"County"}},{"type":"Polygon","arcs":[[23,24,25,26,27,28],[29]],"id":"HUN-3156","properties":{"adm1_code":"HUN-3156","iso_3166_2":"HU-GS","name":"Gyor-Moson-Sopron","admin":"Hungary","adm0_a3":"HUN","type_en":"County"}},{"type":"Polygon","arcs":[[-28,30]],"id":"HUN-4904","properties":{"adm1_code":"HUN-4904","iso_3166_2":"HU-SN","name":"Sopron","admin":"Hungary","adm0_a3":"HUN","type_en":"Urban county"}},{"type":"Polygon","arcs":[[-26,31,32,33],[34]],"id":"HUN-3138","properties":{"adm1_code":"HUN-3138","iso_3166_2":"HU-VA","name":"Vas","admin":"Hungary","adm0_a3":"HUN","type_en":"County"}},{"type":"Polygon","arcs":[[-22,35,36,37,38,39,40,41,42,43]],"id":"HUN-3161","properties":{"adm1_code":"HUN-3161","iso_3166_2":"HU-BK","name":"Bács-Kiskun","admin":"Hungary","adm0_a3":"HUN","type_en":"County"}},{"type":"Polygon","arcs":[[-17,44,-20,45]],"id":"HUN-4916","properties":{"adm1_code":"HUN-4916","iso_3166_2":"HU-SD","name":"Szeged","admin":"Hungary","adm0_a3":"HUN","type_en":"Urban county"}},{"type":"Polygon","arcs":[[-33,46,47,48,49,50],[51]],"id":"HUN-3159","properties":{"adm1_code":"HUN-3159","iso_3166_2":"HU-ZA","name":"Zala","admin":"Hungary","adm0_a3":"HUN","type_en":"County"}},{"type":"Polygon","arcs":[[-48,52,53,54,55,56,-50,57],[58]],"id":"HUN-3157","properties":{"adm1_code":"HUN-3157","iso_3166_2":"HU-SO","name":"Somogy","admin":"Hungary","adm0_a3":"HUN","type_en":"County"}},{"type":"Polygon","arcs":[[-37,59,-56,60],[61]],"id":"HUN-3155","properties":{"adm1_code":"HUN-3155","iso_3166_2":"HU-BA","name":"Baranya","admin":"Hungary","adm0_a3":"HUN","type_en":"County"}},{"type":"Polygon","arcs":[[-2,-14,62,63,64,65,66,67,68,69]],"id":"HUN-3168","properties":{"adm1_code":"HUN-3168","iso_3166_2":"HU-BZ","name":"Borsod-Abaúj-Zemplén","admin":"Hungary","adm0_a3":"HUN","type_en":"County"}},{"type":"Polygon","arcs":[[-69,70,71,72,73,74]],"id":"HUN-3166","properties":{"adm1_code":"HUN-3166","iso_3166_2":"HU-NO","name":"Nógrád","admin":"Hungary","adm0_a3":"HUN","type_en":"County"}},{"type":"Polygon","arcs":[[75,-74]],"id":"HUN-4921","properties":{"adm1_code":"HUN-4921","iso_3166_2":"HU-ST","name":"Salgótarján","admin":"Hungary","adm0_a3":"HUN","type_en":"Urban county"}},{"type":"Polygon","arcs":[[-24,76,77,78,79,80,81]],"id":"HUN-3163","properties":{"adm1_code":"HUN-3163","iso_3166_2":"HU-KE","name":"Komárom-Esztergom","admin":"Hungary","adm0_a3":"HUN","type_en":"County"}},{"type":"Polygon","arcs":[[-41,82,83,84,85,86,-78,87,-72,88,89,90,91,-43,92]],"id":"HUN-3164","properties":{"adm1_code":"HUN-3164","iso_3166_2":"HU-PE","name":"Pest","admin":"Hungary","adm0_a3":"HUN","type_en":"County"}},{"type":"Polygon","arcs":[[-8,-23,-44,-92,93,-90,94,-63,-13]],"id":"HUN-3175","properties":{"adm1_code":"HUN-3175","iso_3166_2":"HU-JN","name":"Jász-Nagykun-Szolnok","admin":"Hungary","adm0_a3":"HUN","type_en":"County"}},{"type":"Polygon","arcs":[[-40,95,96,-54,97,-81,98,-79,-87,99,-83],[100]],"id":"HUN-3162","properties":{"adm1_code":"HUN-3162","iso_3166_2":"HU-FE","name":"Fejér","admin":"Hungary","adm0_a3":"HUN","type_en":"County"}},{"type":"Polygon","arcs":[[-25,-82,-98,-53,-47,-32],[101]],"id":"HUN-3158","properties":{"adm1_code":"HUN-3158","iso_3166_2":"HU-VE","name":"Veszprém","admin":"Hungary","adm0_a3":"HUN","type_en":"County"}},{"type":"Polygon","arcs":[[-38,-61,-55,-97],[102]],"id":"HUN-3165","properties":{"adm1_code":"HUN-3165","iso_3166_2":"HU-TO","name":"Tolna","admin":"Hungary","adm0_a3":"HUN","type_en":"County"}},{"type":"Polygon","arcs":[[-91,-94]],"id":"HUN-4918","properties":{"adm1_code":"HUN-4918","iso_3166_2":"HU-SK","name":"Szolnok","admin":"Hungary","adm0_a3":"HUN","type_en":"Urban county"}},{"type":"Polygon","arcs":[[-85,103]],"id":"HUN-3160","properties":{"adm1_code":"HUN-3160","iso_3166_2":"HU-BU","name":"Budapest","admin":"Hungary","adm0_a3":"HUN","type_en":"Capital City"}},{"type":"Polygon","arcs":[[-84,-100,-86,-104]],"id":"HUN-4907","properties":{"adm1_code":"HUN-4907","iso_3166_2":"HU-ED","name":"Érd","admin":"Hungary","adm0_a3":"HUN","type_en":"Urban county"}},{"type":"Polygon","arcs":[[-64,-95,-89,-71,-68,104,-66,105]],"id":"HUN-3174","properties":{"adm1_code":"HUN-3174","iso_3166_2":"HU-HE","name":"Heves","admin":"Hungary","adm0_a3":"HUN","type_en":"County"}},{"type":"Polygon","arcs":[[-65,-106]],"id":"HUN-4920","properties":{"adm1_code":"HUN-4920","iso_3166_2":"HU-EG","name":"Eger","admin":"Hungary","adm0_a3":"HUN","type_en":"Urban county"}},{"type":"Polygon","arcs":[[-67,-105]],"id":"HUN-4922","properties":{"adm1_code":"HUN-4922","iso_3166_2":"HU-MI","name":"Miskolc","admin":"Hungary","adm0_a3":"HUN","type_en":"Urban county"}},{"type":"Polygon","arcs":[[-6,-18,-46,-19]],"id":"HUN-4917","properties":{"adm1_code":"HUN-4917","iso_3166_2":"HU-HV","name":"Hódmezôvásárhely","admin":"Hungary","adm0_a3":"HUN","type_en":"Urban county"}},{"type":"Polygon","arcs":[[-39,-96]],"id":"HUN-4925","properties":{"adm1_code":"HUN-4925","iso_3166_2":"HU-DU","name":"Dunaújváros","admin":"Hungary","adm0_a3":"HUN","type_en":"Urban county"}},{"type":"Polygon","arcs":[[-42,-93]],"id":"HUN-4915","properties":{"adm1_code":"HUN-4915","iso_3166_2":"HU-KM","name":"Kecskemét","admin":"Hungary","adm0_a3":"HUN","type_en":"Urban county"}},{"type":"Polygon","arcs":[[-80,-99]],"id":"HUN-4906","properties":{"adm1_code":"HUN-4906","iso_3166_2":"HU-TB","name":"Tatabánya","admin":"Hungary","adm0_a3":"HUN","type_en":"Urban county"}},{"type":"Polygon","arcs":[[-30]],"id":"HUN-4905","properties":{"adm1_code":"HUN-4905","iso_3166_2":"HU-GY","name":"Gyôr","admin":"Hungary","adm0_a3":"HUN","type_en":"Urban county"}},{"type":"Polygon","arcs":[[-35]],"id":"HUN-4903","properties":{"adm1_code":"HUN-4903","iso_3166_2":"HU-SH","name":"Szombathely","admin":"Hungary","adm0_a3":"HUN","type_en":"Urban county"}},{"type":"Polygon","arcs":[[-52]],"id":"HUN-4910","properties":{"adm1_code":"HUN-4910","iso_3166_2":"HU-ZE","name":"Zalaegerszeg","admin":"Hungary","adm0_a3":"HUN","type_en":"Urban county"}},{"type":"Polygon","arcs":[[-49,-58]],"id":"HUN-4911","properties":{"adm1_code":"HUN-4911","iso_3166_2":"HU-NK","name":"Nagykanizsa","admin":"Hungary","adm0_a3":"HUN","type_en":"Urban county"}},{"type":"Polygon","arcs":[[-102]],"id":"HUN-4909","properties":{"adm1_code":"HUN-4909","iso_3166_2":"HU-VM","name":"Veszprém","admin":"Hungary","adm0_a3":"HUN","type_en":"Urban county"}},{"type":"Polygon","arcs":[[-59]],"id":"HUN-4912","properties":{"adm1_code":"HUN-4912","iso_3166_2":"HU-KV","name":"Kaposvár","admin":"Hungary","adm0_a3":"HUN","type_en":"Urban county"}},{"type":"Polygon","arcs":[[-62]],"id":"HUN-4913","properties":{"adm1_code":"HUN-4913","iso_3166_2":"HU-PS","name":"Pécs","admin":"Hungary","adm0_a3":"HUN","type_en":"Urban county"}},{"type":"Polygon","arcs":[[-103]],"id":"HUN-4914","properties":{"adm1_code":"HUN-4914","iso_3166_2":"HU-SS","name":"Szekszárd","admin":"Hungary","adm0_a3":"HUN","type_en":"Urban county"}},{"type":"Polygon","arcs":[[-101]],"id":"HUN-4908","properties":{"adm1_code":"HUN-4908","iso_3166_2":"HU-SF","name":"Székesfehérvár","admin":"Hungary","adm0_a3":"HUN","type_en":"Urban county"}},{"type":"Polygon","arcs":[[-11]],"id":"HUN-4919","properties":{"adm1_code":"HUN-4919","iso_3166_2":"HU-BC","name":"Békéscsaba","admin":"Hungary","adm0_a3":"HUN","type_en":"Urban county"}},{"type":"Polygon","arcs":[[-15]],"id":"HUN-4924","properties":{"adm1_code":"HUN-4924","iso_3166_2":"HU-DE","name":"Debrecen","admin":"Hungary","adm0_a3":"HUN","type_en":"Urban county"}},{"type":"Polygon","arcs":[[-4]],"id":"HUN-4923","properties":{"adm1_code":"HUN-4923","iso_3166_2":"HU-NY","name":"Nyíregyháza","admin":"Hungary","adm0_a3":"HUN","type_en":"Urban county"}}]}},"arcs":[[[89326,65113],[-880,3320],[-2946,2446],[-1377,-1398],[-2219,1281],[-1645,2330],[268,3844],[-1186,466],[-3060,-699],[-2296,1805]],[[73985,78508],[345,1631],[1721,1398],[1760,-699],[1530,5300],[3137,-350],[2295,2330],[1454,524],[1989,2271],[1186,3204]],[[89402,94117],[1645,58],[1263,-5708],[1836,0],[1760,-5008],[2142,524],[1262,-1514],[689,-4485],[-1951,-4310],[-2678,-2388],[-1607,1049],[-688,-1573],[-2142,-932],[-1416,-4309],[-191,-408]],[[84850,79557],[-1224,1630],[-1569,-291],[-612,-5475],[3214,-1164],[841,2621],[-650,2679]],[[69165,18404],[-1224,4601],[-1530,-291]],[[66411,22714],[-191,2213]],[[66220,24927],[574,3261],[-689,991],[115,6581],[-2410,1747]],[[63810,37507],[-77,2213],[4246,2038],[-76,3262],[1798,4310],[2525,3494]],[[72226,52824],[1836,-1922],[2257,-1281],[230,-4601],[1453,-2621],[1684,466],[1989,2330]],[[81675,45195],[191,-2738],[-842,-2912],[-1300,-1922],[-268,-4309],[-880,-932],[-1607,-1456],[-1032,-4951],[535,-2155],[-1530,-1106],[-191,-2330],[-1684,-2912],[-3902,932]],[[74789,32789],[497,3786],[-2104,2679],[-1224,-2912],[383,-3669],[2448,116]],[[89326,65113],[-2449,-3203],[192,-3495],[-2028,-3378],[-535,-4018],[-1225,-3262],[-1606,-2562]],[[72226,52824],[497,4019],[-765,7804],[-1377,1107],[-918,2795]],[[69663,68549],[1071,175],[1989,4659],[1262,5125]],[[80374,68258],[-956,699],[-957,-4951],[1339,-3494],[1913,-2213],[1989,932],[995,1863],[344,3553],[-1071,2621],[-1645,-1864],[-1033,4077],[-918,-1223]],[[69165,18404],[-1224,-3320],[-1415,-1397],[-4782,524],[-574,-1282],[-1913,1573]],[[59257,14502],[192,1281],[2104,2505]],[[61553,18288],[2983,-466],[1875,4892]],[[66220,24927],[-1837,3028],[-2410,-407],[-535,-2912],[-1071,-175],[420,-4135]],[[60787,20326],[-3022,0],[842,-2271],[-77,-3786]],[[58530,14269],[-2830,233],[-1225,-815],[-1147,1048]],[[53328,14735],[-880,3378],[574,3785],[2333,641],[459,2271],[-880,2505],[536,2096],[1798,583],[268,3844],[956,3611]],[[58492,37449],[1071,-1165],[1684,932],[1071,-1049],[1492,1340]],[[26396,71112],[191,-4310],[-229,-6232]],[[26358,60570],[-2296,990],[-1300,-1165],[-3940,-291],[-2487,-1514]],[[16335,58590],[-2219,1980],[-1568,-1514],[-1569,815],[-1109,-1106],[-1989,1514]],[[7881,60279],[879,2679],[-841,3553],[-1071,291]],[[6848,66802],[1874,291],[459,2039]],[[9181,69132],[1186,-758],[3787,932],[-229,4834],[841,4368],[766,1573],[1683,58],[1607,-932],[1491,-3261],[3635,-4077],[2448,-757]],[[24062,70296],[-2142,-524],[-1109,-2795],[1224,-1748],[3060,2155],[-1033,2912]],[[6848,66802],[-2219,1106],[2984,3145],[1568,-1921]],[[16335,58590],[497,-2970],[-574,-2330],[345,-6406],[-1798,-757]],[[14805,46127],[-2104,-2330],[-5050,-2097],[-1645,-4077],[-1301,-699],[-688,-3203]],[[4017,33721],[0,59],[-995,2912],[191,640],[268,1281],[-459,466],[-1760,408],[-726,-58],[-536,175],[2028,3028],[650,1980],[2372,990],[1071,3728],[-1416,1805],[842,3728],[-650,2038],[2984,3378]],[[8340,54630],[-1951,-583],[650,-3727],[1607,-175],[-306,4485]],[[53328,14735],[-2372,175],[-2525,-4601],[-1186,-408],[-535,-1456],[-1684,116],[-2371,-1922],[-1263,0],[-1186,-873]],[[40206,5766],[459,3727],[-994,3145]],[[39671,12638],[841,4426],[1071,758],[-344,4659],[421,4251],[-918,4135],[2142,3320],[-1109,4951]],[[41775,39138],[573,2446],[-153,2737]],[[42195,44321],[153,1340]],[[42348,45661],[4400,4193],[956,-990],[-382,-2912],[3328,2621],[1721,-3670]],[[52371,44903],[-1339,-1339],[1378,-5941],[1071,699],[421,2738],[994,1514]],[[54896,42574],[1454,1398],[880,-816],[1492,2039],[1033,-1456]],[[59755,43739],[76,-1456],[-2295,-4019],[956,-815]],[[59257,14502],[-727,-233]],[[60787,20326],[766,-2038]],[[14805,46127],[574,-2505],[191,-7979],[-191,-2446],[1224,-582]],[[16603,32615],[115,-4660],[-689,-3203],[-1645,-699]],[[14384,24053],[-1109,4893],[-1110,-1573],[77,-4077],[1912,-407]],[[14154,22889],[-114,-2272],[-2449,-466]],[[11591,20151],[-306,1864],[-2180,1689],[-765,1805],[-2104,1340],[-230,1514],[-1913,3262],[459,931],[-535,1165]],[[10558,36750],[1531,640],[-268,2738],[-1836,815],[573,-4193]],[[16603,32615],[1186,2446],[2333,582],[2984,2097],[6083,5766],[1530,-699]],[[30719,42807],[612,-2272],[0,-3436]],[[31331,37099],[-995,-757],[-1683,-8969],[880,-5125]],[[29533,22248],[-650,-1747],[-1684,-350],[-1836,-3552],[-1836,-1282],[-191,-3261],[-880,-757],[382,-3961],[957,-2213],[-765,-1281]],[[23030,3844],[-957,2970],[-4208,1573],[-1607,5008],[-1185,59],[-2066,3086],[-1416,3611]],[[14154,22889],[230,1164]],[[24789,24636],[-994,-2738],[497,-4018],[1071,175],[995,2679],[-574,4135],[-995,-233]],[[40206,5766],[-2180,175],[-1492,-3320],[-2372,-2621],[-2946,1514],[-1913,-466],[-2601,699],[-3672,2097]],[[29533,22248],[3022,1398],[1033,-2213],[536,-4310],[1186,1281],[1300,-874],[1569,-3843],[1492,-1049]],[[33435,11124],[-612,4019],[-1836,-350],[-880,-1339],[-115,-2971],[1989,-1514],[1454,2155]],[[69663,68549],[-689,-291]],[[68974,68258],[-2410,1048],[-2372,6348]],[[64192,75654],[-382,3145]],[[63810,78799],[1033,3029]],[[64843,81828],[2180,932],[2028,-2796],[1836,1340],[-1110,5183],[-1721,1281],[-3520,-3902]],[[64536,83866],[-803,1398],[-2907,-2097],[-1837,1689]],[[58989,84856],[-841,1282]],[[58148,86138],[1415,2446],[2028,233],[1454,2912],[1415,4543],[229,2213],[4438,1514],[4820,-2796],[4629,2563],[2793,-4310],[1683,-3494],[2946,1106],[2218,117],[804,990],[382,-58]],[[58989,84856],[-1645,-1630],[651,-2912],[-1071,-2330],[-2831,-2388],[-2678,-5008]],[[51415,70588],[-1798,-1107],[-153,2330],[-1071,2213],[-4323,932],[-1836,2096],[-383,4776]],[[41851,81828],[1263,349],[3022,-174],[3022,932],[1109,3669],[1760,1281],[2104,-2388]],[[54131,85497],[-803,-3844],[1147,-349],[1722,2970]],[[56197,84274],[1951,1864]],[[54131,85497],[2066,-1223]],[[26396,71112],[5165,58],[4667,1398],[2065,-524],[1837,1921]],[[40130,73965],[1568,-3261],[-880,-2621],[-1300,-990],[-1339,-2737]],[[38179,64356],[-2487,-233]],[[35692,64123],[-1683,2329],[-383,-2271],[1301,-1805]],[[34927,62376],[-2372,-3495],[-1301,1980],[-1262,-815],[-383,-2854]],[[29609,57192],[-1683,-582],[-1606,1980],[38,1980]],[[42348,45661],[-1300,4135],[344,5416]],[[41392,55212],[689,2330]],[[42081,57542],[2869,-292],[2372,3087],[344,1340],[-3520,4310],[-2333,-1224],[650,-4484],[-268,-1456]],[[42195,58823],[-2027,-1747]],[[40168,57076],[-650,3844],[-1339,3436]],[[40130,73965],[-995,1340],[77,2854],[1262,3145],[1377,524]],[[51415,70588],[1377,-5009]],[[52792,65579],[115,-2039],[4667,-7396],[344,-2854]],[[57918,53290],[498,-3436]],[[58416,49854],[-77,-1689],[1416,-4426]],[[54896,42574],[-2525,2329]],[[58416,49854],[2410,-1864],[1186,699],[-765,2563],[191,2213],[-1913,3087],[-1607,-3262]],[[52792,65579],[2908,2038],[1874,291],[344,-2795],[2563,874],[1339,-4194],[1263,-2096],[4667,5241],[1224,3320]],[[42195,44321],[-1683,-641],[38,-3145],[1225,-1397]],[[41775,39138],[-1339,-1107],[-1454,-3028],[-1607,-874],[-1033,2737],[-956,-1339],[-2448,1980],[-1607,-408]],[[30719,42807],[535,1456],[192,4950],[-1760,4252],[-77,3727]],[[34927,62376],[765,1747]],[[40168,57076],[1224,-1864]],[[35424,54222],[-956,175],[-1530,-2679],[1492,-4893],[1377,466],[803,2388],[-229,3844],[-957,699]],[[28194,46534],[-191,3728],[-918,2271],[-1569,-4659],[804,-2796],[1874,1456]],[[39441,21898],[-459,1922],[-1645,-1689],[1071,-2446],[1033,2213]],[[42081,57542],[114,1281]],[[64536,83866],[307,-2038]],[[63810,78799],[-536,2447],[-1339,-1340],[115,-5358],[2142,1106]]],"bbox":[16.093467242485644,45.74287641159742,22.878133539051646,48.56859012851399],"transform":{"scale":[0.0000678473414390744,0.000028257419743363108],"translate":[16.093467242485644,45.74287641159742]}}