{"type":"Topology","objects":{"a1":{"type":"GeometryCollection","geometries":[{"type":"Polygon","arcs":[[0,1,2]],"id":"IND-20012","properties":{"adm1_code":"IND-20012","iso_3166_2":"IN-LA","name":"Ladakh","admin":"India","adm0_a3":"IND","type_en":"Union Territory"}},{"type":"Polygon","arcs":[[3,4,5]],"id":"IND-3299","properties":{"adm1_code":"IND-3299","iso_3166_2":"IN-AR","name":"Arunachal Pradesh","admin":"India","adm0_a3":"IND","type_en":"State"}},{"type":"Polygon","arcs":[[6,7]],"id":"IND-3259","properties":{"adm1_code":"IND-3259","iso_3166_2":"IN-SK","name":"Sikkim","admin":"India","adm0_a3":"IND","type_en":"State"}},{"type":"MultiPolygon","arcs":[[[-7,8,9,10,11,12,13,14]],[[15]],[[16]]],"id":"IND-3257","properties":{"adm1_code":"IND-3257","iso_3166_2":"IN-WB","name":"West Bengal","admin":"India","adm0_a3":"IND","type_en":"State"}},{"type":"Polygon","arcs":[[-5,17,18,19,20,21,22,23,-10,24]],"id":"IND-2477","properties":{"adm1_code":"IND-2477","iso_3166_2":"IN-AS","name":"Assam","admin":"India","adm0_a3":"IND","type_en":"State"}},{"type":"Polygon","arcs":[[25,26,27]],"id":"IND-3254","properties":{"adm1_code":"IND-3254","iso_3166_2":"IN-UT","name":"Uttarakhand","admin":"India","adm0_a3":"IND","type_en":"State"}},{"type":"Polygon","arcs":[[-4,28,29,-18]],"id":"IND-2479","properties":{"adm1_code":"IND-2479","iso_3166_2":"IN-NL","name":"Nagaland","admin":"India","adm0_a3":"IND","type_en":"State"}},{"type":"Polygon","arcs":[[-19,-30,30,31]],"id":"IND-2478","properties":{"adm1_code":"IND-2478","iso_3166_2":"IN-MN","name":"Manipur","admin":"India","adm0_a3":"IND","type_en":"State"}},{"type":"Polygon","arcs":[[-20,-32,32,33]],"id":"IND-3300","properties":{"adm1_code":"IND-3300","iso_3166_2":"IN-MZ","name":"Mizoram","admin":"India","adm0_a3":"IND","type_en":"State"}},{"type":"Polygon","arcs":[[-21,-34,34]],"id":"IND-3301","properties":{"adm1_code":"IND-3301","iso_3166_2":"IN-TR","name":"Tripura","admin":"India","adm0_a3":"IND","type_en":"State"}},{"type":"Polygon","arcs":[[-23,35]],"id":"IND-2489","properties":{"adm1_code":"IND-2489","iso_3166_2":"IN-ML","name":"Meghalaya","admin":"India","adm0_a3":"IND","type_en":"State"}},{"type":"Polygon","arcs":[[36,37,38,39,40,41,42]],"id":"IND-3249","properties":{"adm1_code":"IND-3249","iso_3166_2":"IN-PB","name":"Punjab","admin":"India","adm0_a3":"IND","type_en":"State"}},{"type":"Polygon","arcs":[[-43,43,44,45,46,47]],"id":"IND-3250","properties":{"adm1_code":"IND-3250","iso_3166_2":"IN-RJ","name":"Rajasthan","admin":"India","adm0_a3":"IND","type_en":"State"}},{"type":"Polygon","arcs":[[-47,48,49,50,51,52,53,54]],"id":"IND-3264","properties":{"adm1_code":"IND-3264","iso_3166_2":"IN-GJ","name":"Gujarat","admin":"India","adm0_a3":"IND","type_en":null}},{"type":"Polygon","arcs":[[-1,55,-28,56,-39,57]],"id":"IND-2429","properties":{"adm1_code":"IND-2429","iso_3166_2":"IN-HP","name":"Himachal Pradesh","admin":"India","adm0_a3":"IND","type_en":"Union Territory"}},{"type":"Polygon","arcs":[[-2,-58,-38,58]],"id":"IND-2431","properties":{"adm1_code":"IND-2431","iso_3166_2":"IN-JK","name":"Jammu and Kashmir","admin":"India","adm0_a3":"IND","type_en":"Union Territory"}},{"type":"Polygon","arcs":[[-14,59,60,61]],"id":"IND-3258","properties":{"adm1_code":"IND-3258","iso_3166_2":"IN-BR","name":"Bihar","admin":"India","adm0_a3":"IND","type_en":"State"}},{"type":"Polygon","arcs":[[-27,62,-61,63,64,65,-45,66,67,68]],"id":"IND-3253","properties":{"adm1_code":"IND-3253","iso_3166_2":"IN-UP","name":"Uttar Pradesh","admin":"India","adm0_a3":"IND","type_en":"State"}},{"type":"Polygon","arcs":[[69,70,71,72,73]],"id":"IND-2441","properties":{"adm1_code":"IND-2441","iso_3166_2":"IN-AP","name":"Andhra Pradesh","admin":"India","adm0_a3":"IND","type_en":"State"}},{"type":"Polygon","arcs":[[-12,74,-73,75,76,77]],"id":"IND-2444","properties":{"adm1_code":"IND-2444","iso_3166_2":"IN-OR","name":"Odisha","admin":"India","adm0_a3":"IND","type_en":"State"}},{"type":"MultiPolygon","arcs":[[[-54,78]],[[-51,79]]],"id":"IND-2445","properties":{"adm1_code":"IND-2445","iso_3166_2":"IN-DH","name":"Dadra and Nagar Haveli and Daman and Diu","admin":"India","adm0_a3":"IND","type_en":"Union Territory"}},{"type":"Polygon","arcs":[[-50,80,81,82,83,84,85,-52,-80]],"id":"IND-2447","properties":{"adm1_code":"IND-2447","iso_3166_2":"IN-MH","name":"Maharashtra","admin":"India","adm0_a3":"IND","type_en":"State"}},{"type":"Polygon","arcs":[[-85,86,87]],"id":"IND-3265","properties":{"adm1_code":"IND-3265","iso_3166_2":"IN-GA","name":"Goa","admin":"India","adm0_a3":"IND","type_en":"State"}},{"type":"Polygon","arcs":[[-71,88,89,90,-87,-84,91]],"id":"IND-2446","properties":{"adm1_code":"IND-2446","iso_3166_2":"IN-KA","name":"Karnataka","admin":"India","adm0_a3":"IND","type_en":"State"}},{"type":"Polygon","arcs":[[-90,92,93,94,95]],"id":"IND-2442","properties":{"adm1_code":"IND-2442","iso_3166_2":"IN-KL","name":"Kerala","admin":"India","adm0_a3":"IND","type_en":"State"}},{"type":"MultiPolygon","arcs":[[[-95,96]],[[97,98]],[[99,100]]],"id":"IND-3262","properties":{"adm1_code":"IND-3262","iso_3166_2":"IN-PY","name":"Puducherry","admin":"India","adm0_a3":"IND","type_en":"Union Territory"}},{"type":"Polygon","arcs":[[-70,101,-101,102,-99,103,-93,-89]],"id":"IND-3263","properties":{"adm1_code":"IND-3263","iso_3166_2":"IN-TN","name":"Tamil Nadu","admin":"India","adm0_a3":"IND","type_en":"State"}},{"type":"Polygon","arcs":[[104]],"id":"IND-2443","properties":{"adm1_code":"IND-2443","iso_3166_2":"IN-LD","name":"Lakshadweep","admin":"India","adm0_a3":"IND","type_en":"Union Territory"}},{"type":"MultiPolygon","arcs":[[[105]],[[106]],[[107]],[[108]],[[109]],[[110]]],"id":"IND-2474","properties":{"adm1_code":"IND-2474","iso_3166_2":"IN-AN","name":"Andaman and Nicobar","admin":"India","adm0_a3":"IND","type_en":"Union Territory"}},{"type":"Polygon","arcs":[[-13,-78,111,-64,-60]],"id":"IND-3256","properties":{"adm1_code":"IND-3256","iso_3166_2":"IN-JH","name":"Jharkhand","admin":"India","adm0_a3":"IND","type_en":"State"}},{"type":"Polygon","arcs":[[-68,112]],"id":"IND-2428","properties":{"adm1_code":"IND-2428","iso_3166_2":"IN-DL","name":"Delhi","admin":"India","adm0_a3":"IND","type_en":"Union Territory"}},{"type":"Polygon","arcs":[[-41,113]],"id":"IND-2427","properties":{"adm1_code":"IND-2427","iso_3166_2":"IN-CH","name":"Chandigarh","admin":"India","adm0_a3":"IND","type_en":"Union Territory"}},{"type":"Polygon","arcs":[[-46,-66,114,-81,-49]],"id":"IND-3261","properties":{"adm1_code":"IND-3261","iso_3166_2":"IN-MP","name":"Madhya Pradesh","admin":"India","adm0_a3":"IND","type_en":"State"}},{"type":"Polygon","arcs":[[-65,-112,-77,115,-82,-115]],"id":"IND-3260","properties":{"adm1_code":"IND-3260","iso_3166_2":"IN-CT","name":"Chhattisgarh","admin":"India","adm0_a3":"IND","type_en":"State"}},{"type":"Polygon","arcs":[[-40,-57,-69,-113,-67,-44,-42,-114]],"id":"IND-2430","properties":{"adm1_code":"IND-2430","iso_3166_2":"IN-HR","name":"Haryana","admin":"India","adm0_a3":"IND","type_en":"State"}},{"type":"Polygon","arcs":[[-72,-92,-83,-116,-76]],"id":"IND-20011","properties":{"adm1_code":"IND-20011","iso_3166_2":"IN-TG","name":"Telangana","admin":"India","adm0_a3":"IND","type_en":"State"}}]}},"arcs":[[[34996,89658],[-374,-80],[116,321],[240,183],[-27,402],[-391,-235],[-471,-104],[-365,-200],[-240,298],[-35,235],[-240,384],[-472,488],[-622,-333],[-658,-178],[-729,207],[-614,344],[-738,602]],[[29376,91992],[-320,539],[-542,522],[-827,253],[-35,539],[-241,505],[-320,166],[-169,212],[-497,-63],[-472,356],[-266,464],[-267,35],[-400,246],[-320,316],[-89,648]],[[24611,96730],[898,-207],[569,23],[676,413],[168,189],[338,-57],[480,86],[472,230],[524,-86],[338,74],[311,247],[134,390],[480,-35],[311,230],[124,430],[2570,1342],[285,-224],[355,224],[240,-149],[-186,-637],[435,-745],[62,-390],[223,-333],[213,-660],[365,-281],[773,-109],[498,-264],[169,-195],[533,-263],[63,-425],[-249,-206],[-587,-276],[-36,-298],[169,-424],[80,-448],[-44,-665],[151,-321],[480,-407],[454,-195],[560,11],[551,-57],[116,-86],[-107,-321],[-178,-161],[142,-488],[712,-848],[-605,-677],[-427,201],[-115,-207],[-596,-212],[-71,-281],[-507,-155],[-587,401],[-204,614],[-285,-206],[-622,-46],[-231,-132]],[[92770,69171],[-35,493],[-116,264],[80,378],[-169,201]],[[92530,70507],[294,57],[551,321],[240,379],[178,86],[338,-155],[533,195],[356,-34],[356,309],[-98,293],[-338,46],[27,333],[-285,217],[-98,339],[427,516],[222,447],[-853,-11],[-587,-310],[-471,-109],[-320,92],[-1254,-442],[-507,-240],[-1111,-373],[-418,0],[-374,189],[0,-424],[-898,-694],[-462,-448],[-71,-355],[-453,-316],[-801,-206],[-293,143],[-1218,-120],[-703,338],[-391,52],[-249,-167],[-1431,-367],[-445,35]],[[81923,70123],[-106,361],[-205,270],[62,252],[267,447],[-213,499],[-160,86],[-854,-40],[-240,63],[-213,235],[-54,390],[160,207],[9,470],[347,-166],[329,11],[133,-269],[303,-17],[124,154],[258,-28],[605,361],[213,-275],[347,235],[586,-23],[374,218],[178,264],[-276,418],[427,316],[240,-17],[427,315],[800,207],[-80,315],[347,310],[106,292],[445,235],[613,0],[809,115],[223,-74],[222,562],[880,309],[338,316],[-267,258],[63,172],[373,207],[454,86],[346,309],[249,-126],[249,-407],[934,-92],[489,-155],[115,-126],[489,-80],[409,109],[98,493],[258,138],[427,-109],[98,424],[409,-57],[311,126],[640,29],[222,-385],[551,-46],[-177,-252],[-480,-218],[71,-585],[177,12],[409,321],[312,-149],[177,-379],[232,-269],[71,-345],[-338,-74],[9,-155],[-569,-574],[-116,-206],[231,-143],[658,240],[534,-40],[738,-350],[622,109],[711,-522],[-53,-516],[169,-160],[-80,-448],[-373,18],[-561,-522],[-240,-81],[-409,-378],[-26,-138],[142,-596],[791,-975],[-266,-127],[-658,276],[-18,241],[-347,355],[-587,40],[-267,-212],[-346,17],[-916,-137],[-436,-235],[-427,-568],[-382,-115],[-240,-304],[-329,-138],[-71,-155],[-347,-45],[-338,-413],[-498,-149]],[[70463,70914],[-241,86],[-497,6],[-240,-212],[-312,-104],[-426,178],[-392,6],[-391,390]],[[67964,71264],[107,252],[-45,603],[303,504],[169,471],[-143,298],[27,315],[862,109],[427,161],[365,269],[435,-177],[276,-207],[-18,-235],[143,-292],[-161,-660],[-222,-379],[107,-481],[409,-322],[-53,-120],[-347,-138],[-142,-321]],[[70463,70914],[320,-178],[204,-418],[231,-230],[365,-109],[124,-206],[303,-40],[302,114],[329,-23],[462,-114],[854,-362],[355,75]],[[74312,69423],[107,-660],[-204,-711],[-160,-69],[-187,-355],[-240,-69]],[[73628,67559],[-329,-155],[142,-304],[-418,-195],[-444,-6],[-756,476],[-302,861],[-321,195],[-195,-236],[489,-361],[-302,-115],[-152,138],[-329,-138],[-515,637],[-1040,568],[0,-327],[373,-109],[116,-264],[-436,-224],[-205,-372],[-498,-230],[-302,-808],[178,-465],[347,103],[658,-527],[9,-213],[364,-321],[400,-115],[436,121],[240,-591],[453,-103],[-266,-465],[-392,-28],[-631,109],[-578,-69],[-18,-425],[-346,-613],[-276,17],[-142,229],[-302,-103],[88,-252],[-400,-689],[214,-183],[186,-344],[898,-436],[249,-189],[898,-98],[-17,-338],[-187,-127],[-9,-246],[178,-189],[-45,-362],[-204,-195],[-205,-11],[-142,-350],[-44,-402],[613,-636],[169,0],[-284,-608],[89,-184],[444,-23],[391,-178],[-355,-378],[-27,-384],[347,-408],[-125,-372],[142,-626],[178,-464],[-44,-144],[249,-607],[0,-287],[-80,-155],[80,-511],[-231,-91],[302,-1033],[-276,-46],[-409,241],[-409,-407],[-266,493],[62,396],[-45,470],[-222,35],[-196,-367],[-8,-276],[195,-212],[-151,-482],[-284,35],[-80,281],[-267,-218],[-498,-143],[-231,441],[80,419],[-169,287],[-54,602],[-302,-264],[-275,-516],[-472,-373],[-444,-258],[-774,-149]],[[66159,51620],[-142,218],[-98,384],[-453,98],[-151,120],[-143,373],[-266,57],[-178,-224],[-231,224],[-18,327],[-525,195],[-507,333]],[[63447,53725],[320,241],[36,453],[-249,183],[107,264],[-471,207],[-80,269],[-650,361],[54,551],[124,212],[-1049,86],[-427,431],[-444,40],[-205,338],[223,545],[-223,229],[569,98],[18,241],[187,80],[267,-155],[-45,-201],[320,-177],[418,206],[45,207],[373,246],[649,201],[525,103],[35,321],[231,327],[694,-338],[293,-17],[258,143],[116,402],[-169,212],[258,103],[124,-195],[516,161],[-9,269],[293,-23],[63,184],[248,51],[-106,293],[311,166],[267,643],[-27,212],[293,92],[63,286],[-143,304],[80,631],[-115,356],[-214,172],[9,430]],[[67208,64169],[187,224],[-240,550],[640,339],[302,46],[9,424],[-462,339],[-160,275],[-205,103],[89,476],[507,470],[347,167],[347,321],[400,178],[-54,321],[-302,252],[0,167],[-364,-35]],[[68249,68786],[275,717],[-44,350],[-267,511],[-364,390],[115,510]],[[68124,51941],[134,361],[195,213],[53,-574],[-115,-275],[-267,51],[0,224]],[[70125,52692],[124,-46],[-89,-418],[-204,195],[169,269]],[[92530,70507],[-497,-344],[-392,63],[-400,-482],[-373,-252],[-703,-224],[-435,-625],[-516,-52],[-107,-384],[-578,-654],[-115,-505],[53,-327],[-293,-309],[-427,-92],[107,252],[-205,195],[-249,-137],[107,-172],[-445,-373],[-186,-258],[-649,-528],[417,-551],[-26,-269]],[[86618,64479],[-187,-235],[-711,-1480],[-222,-6],[-125,-355],[-142,-918],[-89,-155]],[[85142,61330],[-649,-75],[-285,327],[-160,-384],[-240,-229],[-18,-201],[-462,-367],[-124,0],[-125,373],[-409,-6]],[[82670,60768],[-267,92],[134,459],[-125,361],[-249,149]],[[82163,61829],[285,820],[-54,339],[116,97],[445,-229],[329,91],[26,224],[-338,270]],[[82972,63441],[614,516],[827,258],[-54,424],[-693,522],[18,304],[-249,264],[-471,356],[-232,-126],[-506,-132],[-9,418],[169,385],[-107,252],[267,218],[-329,115],[-836,-172],[-329,177],[-249,-143],[-116,-281],[-471,206],[-364,-453],[-392,-189],[-373,-367],[-151,-6],[-98,465],[-285,-103],[-417,361],[-756,69],[-374,-109],[-88,132],[-463,149],[-373,6],[-169,-104],[-649,-86],[-551,-550],[-107,-385],[204,-367],[-364,-154],[-71,-282],[-232,-74]],[[74143,64955],[89,682],[-177,626],[160,327],[-267,464],[-151,390],[-169,115]],[[74312,69423],[792,69],[302,315],[702,207],[703,-385],[444,-46],[783,41],[231,17],[631,63],[267,-98],[285,109],[168,224],[232,-17],[160,-235],[622,23],[311,172],[827,5],[151,236]],[[36747,85316],[329,212],[285,413],[204,-80],[365,-379],[222,-579],[222,-178],[98,-264],[276,-80],[186,-206],[712,86],[329,-63],[240,-247],[347,-149],[195,-218],[365,0],[213,-207],[-222,-223],[293,-339],[934,-367],[178,23],[506,-258],[196,-247],[667,-229],[71,-201],[-551,-97],[-18,-184],[-605,-510],[-284,-80],[-329,-494],[-365,-166],[-53,-184],[107,-349],[-587,-654],[222,-522],[-151,-448],[-347,-103],[-115,-459],[-223,-218],[134,-327]],[[40793,76741],[-249,-292],[-160,-6],[-374,241],[-9,178],[-337,103],[-152,-120],[-382,-6],[-213,103],[-276,-103],[-249,419],[-258,5],[-435,281],[-134,218],[-258,132],[-355,-86],[-285,304],[-507,241],[641,361],[0,150],[-347,80],[-560,292],[-560,643],[-338,137],[-525,649],[-249,-75],[125,-465],[-9,-298],[-276,-183],[-427,223],[-524,-206],[-160,287],[-125,476],[0,344],[303,539],[293,235],[27,161],[-614,281],[-302,241],[-258,-41]],[[32275,82184],[267,218],[506,264],[-240,276],[98,120],[-222,545],[284,487],[63,413],[462,430],[338,-5],[836,413],[284,0],[454,-247],[275,40],[729,-80],[258,-298],[427,143],[-347,413]],[[92770,69171],[-142,63],[-293,-218],[-267,-448],[80,-292],[-62,-505],[169,-183],[-27,-316],[178,-258],[-480,-379],[35,-642],[-169,-69],[-373,-539],[-302,-247],[-391,-160]],[[90726,64978],[-329,155],[35,676],[-818,-602],[-391,-57],[-391,69],[-240,132],[-765,-35],[18,-338],[-445,-413],[-249,-425],[-533,339]],[[90726,64978],[-143,-178],[-195,-522],[89,-252],[382,-121],[71,-390],[-187,-476],[-186,-264],[-36,-235],[-249,-143],[-142,-379],[-222,-177],[-169,-419],[-240,-379],[-347,-1124],[-187,-264],[-18,-223],[-453,218],[-391,97],[-276,-34],[-205,206],[-444,52],[-178,-155],[-356,-17],[-311,413],[-222,-150]],[[86111,60062],[-187,75],[-489,-40],[-373,172],[80,1061]],[[86111,60062],[187,-447],[62,-585],[196,-321],[-160,-1164],[-36,-643],[-258,-384],[-356,120],[-195,-166],[124,-430],[-329,-379],[-26,-281],[115,-269],[-18,-362],[232,-436],[9,-487],[-276,-172],[-222,17],[-9,-281],[-187,-206],[36,-236],[-427,104],[-498,430],[-125,-52],[-71,-396],[-258,-149],[-133,528],[142,143],[-204,1136],[-80,700],[-178,235],[-53,373],[-169,103],[-169,946],[98,408],[-205,550],[-151,568],[18,327]],[[82537,58904],[44,436],[160,74],[27,1182],[-98,172]],[[82537,58904],[-267,-132],[-107,229],[-311,-252],[-187,-40],[-311,143],[89,-671],[-507,-447],[-160,-333],[178,-636],[-347,-356],[-542,-17],[-249,705],[-320,270],[-53,-287],[-187,-132],[-80,562],[-169,574],[-302,504],[9,442],[177,57],[116,310],[-45,224],[321,292],[186,373],[400,-40],[400,57],[241,178],[489,207],[186,-224],[143,384],[-36,207],[187,189],[284,-23],[258,132],[9,379],[133,97]],[[82972,63441],[-284,241],[-285,57],[-435,258],[-311,63],[-934,-51],[-231,-144],[-329,115],[-320,-92],[-809,241],[-1032,-161],[-391,-51],[-284,97],[-810,-5],[-471,-64],[-800,213],[-765,298],[-338,29],[-35,344],[35,126]],[[19810,81559],[-45,201],[-284,390],[302,184],[400,579],[364,252],[356,430],[214,390],[248,-23],[401,241],[284,327],[-329,413],[89,448],[276,476],[-196,602],[-222,344],[258,447],[453,385],[293,-23],[161,286],[426,23],[294,230],[213,-69],[320,178],[338,69],[222,390],[-204,246]],[[24442,88975],[311,12],[382,-121],[374,333],[249,11],[204,230],[356,178]],[[26318,89618],[222,-299],[-756,-550],[-231,-52],[54,-384],[-134,-275],[365,-63],[587,-270],[293,-436],[-142,-143],[507,-843],[302,-792],[400,-97],[338,378],[204,-350],[436,-143],[284,-969],[427,-316]],[[29474,84014],[223,-229],[-63,-184]],[[29634,83601],[-382,-29],[249,-361],[178,12]],[[29679,83223],[195,-167],[63,-872],[-516,167],[-133,-327],[-374,-218],[71,-459],[-320,-206],[-356,195],[-551,-92],[-311,-551],[169,-298],[-925,-459],[-240,40],[-347,281],[-231,-183],[-391,-46],[-542,143],[-454,-522],[-62,-281],[-204,-46],[-214,442],[222,207],[-168,304],[-285,-46],[-107,241],[-266,-64],[-321,287],[-275,103],[-382,-57],[-205,-189],[-462,115]],[[21757,80665],[-2054,114],[-62,190],[249,361],[-80,229]],[[21757,80665],[106,-299],[-275,-218],[133,-218],[329,-34],[-89,-476],[89,-419],[-222,-97],[258,-379],[124,103],[382,6],[214,132],[293,-86],[214,-327],[249,6],[222,-166],[231,120],[258,-57],[267,137],[213,-149],[9,-510],[204,-287],[214,-98],[-98,-241],[365,-992],[364,-424],[409,-310],[231,-97],[480,-494],[18,-258],[-240,-166],[107,-310],[-214,-464],[240,-264],[738,0],[-124,235],[-53,516],[355,69],[347,275],[293,23],[338,-671],[356,161],[-36,241],[721,499],[284,-367],[-62,-316],[62,-631],[-133,-413],[249,-189],[231,447],[818,6]],[[31226,73214],[222,-935],[391,-545],[507,-212],[169,-424],[-222,-247],[-267,-75],[391,-476],[-569,-240],[169,-247],[445,172],[222,166],[925,-91],[453,149],[391,-35],[-80,-396]],[[34373,69778],[-338,-97],[-71,-390],[-231,40],[-373,-109],[-249,-310],[-391,-240],[-338,-81],[-641,-378],[-364,-81],[-391,-378],[-294,-17],[-142,-184],[-596,-304],[-622,-631],[-258,23],[-364,-264],[-232,-447],[249,-901],[347,-286],[436,-161],[462,-80],[569,155],[418,5],[187,270],[347,-92],[17,-505],[125,-172],[-196,-344],[-533,46],[-640,-138],[-472,-189],[71,-476],[-346,-206],[231,-270],[400,-80],[249,-230],[71,-240],[-80,-224],[-320,-132],[-213,218],[-258,-23],[35,-683],[258,-413],[-71,-206],[-356,-75],[-382,276],[-284,114],[-98,-200],[-294,172],[-773,46],[-338,177],[-53,-676],[-409,-293],[0,-229],[-338,-230],[-418,-126],[-267,-310],[-347,86],[-71,201],[-302,224],[169,350],[284,-161],[374,23],[258,413],[-196,247],[160,212],[-204,602],[195,247],[285,69],[-18,292],[-196,413],[-186,212],[-374,-137],[-693,-121],[-836,75],[-107,132],[498,671],[-284,292],[-347,0],[-134,-218],[-35,-310],[-356,-86],[-355,195],[-214,-11],[80,-413],[471,-40],[-35,-321],[-329,-98],[-213,241],[-321,-734],[463,-310],[-276,-269],[-27,-356],[374,-69],[80,-355],[258,-356],[-205,-470],[0,-373],[107,-361],[-231,-471],[-169,-178],[-596,-246],[-267,-218],[-115,-407],[418,-86],[195,-161],[-355,-235],[-463,-172],[-391,6],[-133,-98]],[[21099,56581],[-311,413],[-427,126],[-9,195],[-498,390],[-196,-92],[-311,356],[-347,-69],[-320,126],[9,459],[-373,356],[-516,344],[9,367],[205,178],[-241,573],[-364,-309],[-196,269],[-249,161],[-124,224],[195,458],[-142,585],[-329,-34],[-142,-361],[-213,-104],[-507,75],[-276,275],[-382,161],[-187,-35],[-773,253],[-45,137],[-560,167],[-169,183],[-347,-160],[-675,51],[-338,-68],[-365,103],[-329,-17],[-249,-127],[-435,-34],[-667,195]],[[9905,62351],[-560,1078],[-116,482],[-462,510],[-267,505],[36,706],[-223,264],[-391,-115],[-400,-12],[-329,86],[-169,310],[-347,333],[-169,344],[45,413],[187,281],[97,665],[-9,557],[-346,200],[-827,-28],[-534,338],[-533,201],[-134,252],[143,849],[240,482],[933,774],[205,298],[373,362],[249,671],[338,344],[525,419],[391,97],[356,-143],[249,-236],[26,-263],[240,-396],[418,-143],[276,57],[809,367],[551,138],[854,23],[1031,286],[107,511],[329,453],[551,442],[169,315],[204,700],[427,482],[1778,831],[516,717],[622,1078],[472,1360],[640,298],[622,126],[712,539]],[[21099,56581],[142,-562],[213,-12],[107,-235],[-284,-533],[-356,-149],[-382,-321],[-329,17],[-134,-149],[303,-235],[373,-6],[9,-212],[-578,-190],[53,-338],[240,-470],[-44,-385]],[[20432,52801],[-231,-40],[-489,-258],[-374,-103],[-17,-339],[80,-309],[-258,-138],[231,-361],[604,166],[667,-34],[303,97],[44,-206],[-631,-218],[-187,46],[-320,-247],[-142,-356],[-409,-40],[-71,-223],[-285,-327],[320,-224],[276,-293],[115,-315],[18,-379],[-338,-344],[-62,-246],[-311,-155],[-774,407],[-240,-29],[187,-459],[-338,-590],[116,-344],[-107,-322],[-311,52],[-98,-189],[-267,-81]],[[17133,46400],[-426,150],[17,218],[223,120],[-214,258],[-524,-378],[177,-327]],[[16386,46441],[-604,-98],[-214,-92]],[[15568,46251],[134,723],[240,344]],[[15942,47318],[213,46],[-115,264]],[[16040,47628],[151,298],[-18,230],[205,527],[-205,126],[27,218],[-196,213],[-178,384],[54,310],[-667,476],[-107,430],[151,344],[454,269],[160,379],[-623,40],[-284,98],[107,436],[-196,430],[124,677],[312,189],[391,-161],[142,184],[-444,195],[-365,34],[-258,-172],[-933,138],[382,-310],[-36,-367],[-169,-235],[-444,-98],[142,-327],[-9,-332],[160,-281],[285,-207],[-187,-602],[-471,-579],[0,-385],[-391,-241],[-223,-22],[-560,-339],[-151,0],[-462,-258],[-107,52],[-302,-304],[-498,-126],[-605,-293],[-462,-103],[-116,-92],[-453,-29],[-1023,373],[-702,413],[-969,786],[-818,981],[-640,636],[-205,115],[-311,361],[-960,792],[-694,780],[-169,315],[98,385],[791,-23],[-106,-316],[133,-120],[507,195],[427,63],[133,155],[311,-126],[436,407],[160,-172],[596,390],[738,91],[480,758],[195,435],[516,419],[-205,367],[-231,-206],[0,-430],[-444,40],[-1494,-344],[-400,-390],[-445,51],[-853,247],[-338,34],[-685,379],[-595,241],[-596,384],[-480,447],[35,367],[-471,287],[-53,608],[444,218],[454,459],[-889,-402],[-285,-395],[-507,28],[205,276],[-258,292],[62,293],[240,218],[614,218],[1004,-6],[0,1130],[249,137],[321,-34],[302,-224],[240,109],[338,-103],[453,98],[969,-29],[365,-304],[338,-92],[693,12],[276,126],[195,361],[463,86],[596,253],[497,74],[-8,-476],[213,-161],[453,-34],[329,115],[-35,143],[267,195],[266,-17],[267,275],[-329,103],[-80,413],[80,195],[267,184]],[[34996,89658],[231,-350],[35,-688],[187,-81],[471,-590],[320,-253],[-249,-677],[205,-355],[302,-212],[-409,-339],[214,-229],[-80,-384],[160,-161],[364,-23]],[[32275,82184],[-969,270],[-534,270],[9,441],[-124,201],[-383,189],[-329,430],[-471,29]],[[26318,89618],[258,350],[-45,544],[-355,436],[71,138],[498,-92],[444,356],[391,132],[267,338],[356,172],[551,121],[231,-149],[391,28]],[[24442,88975],[-356,230],[-587,241],[-400,-75],[-240,103],[-382,-51],[-214,132],[-115,315],[71,470],[-445,75],[-702,269],[18,522],[-125,127],[-444,109],[-525,481],[0,322],[356,263],[178,517],[-54,195],[-569,344],[0,384],[205,241],[364,57],[338,195],[107,218],[-151,172],[-969,-5],[-205,258],[391,390],[-213,372],[-285,12],[-266,224],[302,510],[213,166],[125,362],[542,74],[560,276],[436,-18],[862,-263],[1210,-207],[711,35],[427,-287]],[[67208,64169],[-195,132],[-436,52],[-258,200],[-186,-137],[-214,-362],[-400,-23],[-89,-355],[-275,-35],[-232,-321],[9,-418],[-142,-367],[-98,-517],[-427,58],[-124,-287],[-454,201],[-186,-144],[-400,46],[-312,-281],[-186,-487],[-560,326],[53,408],[-471,17],[-196,470],[-222,75],[-409,-46],[-285,252],[-284,-5],[-338,-425],[53,-275],[-293,-40],[-178,-195],[-462,28],[-383,-80],[-373,-195],[-720,-287],[-240,86],[-311,430],[-383,-229],[-106,-195],[-232,69],[-240,-304],[-160,0],[-551,499],[-18,281],[-720,-92],[-178,413],[-427,-275],[-453,-23],[-311,-109],[-596,80]],[[52609,61783],[27,608],[-71,201],[-267,109],[-240,246],[-9,505],[-125,207],[45,367],[169,218],[1334,728],[444,298],[818,717],[240,-28],[89,-276],[293,35],[-35,292],[204,81],[392,-224],[382,160],[18,184],[-249,218],[-383,92],[-160,178],[-382,-29],[-382,470],[-294,126],[-249,482],[667,178],[-26,390],[-525,229],[-240,-57],[-125,275],[463,115],[151,293],[978,-29],[-267,361],[-204,46],[-18,407],[-320,6],[-267,166],[-160,476],[-293,362],[17,200],[-302,436]],[[53747,71602],[231,356],[365,17],[178,195],[498,-241],[222,-223],[978,-167],[276,-436],[-54,-613],[551,-46],[418,-207],[98,-200],[311,-190],[409,29],[107,-321],[320,-81],[231,81],[836,332],[302,-149],[89,-556],[374,-281],[649,287],[462,-184],[471,35],[774,-316],[702,-373],[276,63],[480,310],[364,207],[143,-517],[178,-131],[284,51],[374,-195],[195,230],[329,17],[365,-161],[213,115],[320,0],[89,143],[347,29],[151,-178],[320,-138],[231,293],[45,298]],[[40793,76741],[551,-309],[400,-390],[258,-12],[373,218],[392,-212],[453,-361],[311,-63],[54,-155],[542,-224],[498,-178],[115,-304],[285,-441],[302,126],[214,-287],[533,-338],[258,-64],[569,-390],[409,230],[258,-40],[1200,-792],[427,-11],[507,74],[266,-699],[427,-29],[462,-149],[418,0],[587,-390],[231,269],[-35,184],[782,-17],[907,-385]],[[52609,61783],[-409,-109],[178,-476],[-400,-774]],[[51978,60424],[-454,-683],[-400,-114],[-427,11],[-560,298]],[[50137,59936],[-418,585],[187,161],[116,602],[-116,115],[0,459],[258,51],[-124,356],[-276,183],[-231,-97],[-676,92],[-9,-247],[-418,-34],[54,223],[-978,551],[-258,40],[-258,172],[-222,402],[-792,149],[-169,419],[-604,-150],[-400,46],[-18,-246],[-196,-258],[9,-184],[-293,-224],[-338,201],[-365,63],[-391,-40],[276,751],[-178,86],[-302,-453],[-249,-40],[-232,270],[-222,-373],[-187,-92],[-586,6],[-80,166],[542,407],[-98,230],[-231,120],[-151,465],[-311,-6],[-231,-218],[-374,-69],[-276,-212],[-284,-74],[36,-333],[-694,-17],[-409,97],[-249,-252],[-445,149],[294,384],[-445,12],[-89,-333],[-542,103],[-293,-69],[-143,218],[-311,-218],[-26,316],[177,138],[63,281],[-116,418],[-231,-246],[-356,-29],[-71,-281],[-453,235],[-276,-510],[320,-453],[107,-603],[311,-522],[-53,-447],[115,-195],[267,57],[178,-114],[258,-769],[-436,-568],[-276,172],[-311,52],[-569,407],[-356,-384],[-186,143],[62,230],[-249,160],[-160,276],[116,177],[-9,379],[-125,356],[-187,246],[569,551],[107,568],[-364,785],[240,184],[133,310],[649,80],[534,172],[133,172],[-53,402],[240,177],[498,935],[35,591],[329,264],[-115,499],[-178,258],[-134,430],[-320,57],[-169,178],[-346,121],[-445,-138],[-347,121],[-302,206],[-293,11],[-303,-109]],[[31226,73214],[498,281],[186,29],[160,264],[-204,252],[213,723],[-213,212],[107,275],[-107,144],[-480,298]],[[31386,75692],[-98,172],[133,195],[-106,333],[-267,218],[-98,326]],[[30950,76936],[-9,419],[-186,465],[-45,522],[71,430],[-293,579],[80,310],[320,505],[169,602],[187,212],[978,837],[53,367]],[[41433,23235],[-196,-69],[-355,51],[-472,-166],[-17,-172],[-481,-247],[-106,-252],[-303,46],[-97,189],[-329,-23],[-98,138],[-320,29],[-98,-390],[-365,-304],[-222,51],[-302,-355],[-285,-35],[-462,201],[-711,-115],[-311,-241],[-214,-740],[-560,-510],[-231,29],[-418,413]],[[34480,20763],[196,292],[444,367],[338,488],[178,648],[-640,166],[-107,189],[89,712],[-658,74],[-391,339],[98,384],[-223,264],[-382,-190],[-142,299],[-303,91],[0,-229],[-195,-183],[-480,-201],[-320,-218],[-196,-6],[-62,333],[-143,172],[-311,6],[-480,189],[-169,-184],[98,-229],[-338,-132],[-258,120],[178,431],[-258,372],[27,172],[-240,264],[169,184],[178,-115],[71,-315],[400,-213],[613,18],[143,-356],[195,189],[-213,316],[142,384],[338,103],[-18,339],[-267,-98],[-364,121],[-71,132],[-498,-18],[-222,-338],[-472,92],[-160,309],[240,385],[-346,74],[-267,304],[-36,356],[63,333],[133,108],[80,442],[-356,235],[151,367],[632,-252],[453,52],[160,332],[-71,614],[-276,149],[-88,918],[293,183],[-205,396],[27,321],[374,304],[284,58],[756,-81]],[[31795,31895],[667,-183],[720,-23],[124,86],[685,-298],[507,407],[71,195],[489,269],[347,35],[275,-132],[169,52],[356,-138],[364,126],[0,201],[623,424],[480,-97],[178,91],[71,299],[-89,200],[18,368],[178,263],[480,63],[338,190],[737,166],[107,121],[454,-69],[257,-258],[294,378],[98,293],[-240,166],[257,356],[489,212],[205,-126],[240,-471],[534,-241],[311,0],[-107,241],[71,253],[-382,5],[-311,138],[400,459],[311,115],[267,-213],[551,-114],[160,126],[53,252],[338,218],[525,109],[240,258],[667,167],[204,172],[222,757],[321,441],[506,241],[-53,264]],[[46572,38709],[560,321],[409,149],[302,-17],[374,-160],[311,177],[71,390],[-142,138],[178,338],[17,425],[285,378],[178,-40],[27,-309],[302,-339],[-36,-281],[667,396],[-9,206],[338,-28],[89,-190],[462,127],[-9,275],[160,195],[-222,241],[36,160],[338,408],[249,-58],[666,448],[-231,206],[45,264],[284,-143],[231,304],[276,68],[142,207],[320,-448],[329,-5],[178,-488],[160,-189],[587,40],[276,-103],[569,74],[231,299],[258,177],[44,304],[169,0],[400,236],[187,212],[284,-155]],[[56912,42919],[-204,-52],[80,-258],[-382,-390],[-303,-487],[-409,-488],[-480,-384],[-178,-275],[-293,-253],[-231,-361],[-1040,-459],[-552,-327],[-622,-665],[-45,-166],[-613,-746],[-516,-218],[-658,-419],[-613,-212],[-836,-499],[-596,-614],[-160,-350],[54,-217],[329,-195],[-196,-803],[-356,-236],[-720,-367],[-453,-114],[-338,-184],[-916,132],[-267,-69],[-338,98],[-240,-167],[-320,-980],[0,-190],[-533,-482],[-302,23],[-276,-367],[-187,476],[-293,58],[-756,-230],[-373,-206],[-338,-356],[-303,-820],[-284,-465],[-133,-739],[8,-276],[196,-1078],[169,-143],[124,-344],[-80,-769],[-177,-356],[9,-327],[133,-556],[249,-516],[-54,-499],[232,-591],[-36,-52],[-276,454],[-364,57],[-116,-224],[214,-327],[480,-114]],[[66159,51620],[-462,-178],[-489,-34],[-471,-270],[-498,-516],[-276,-528],[27,-327],[364,-808],[178,-672],[-276,-120],[-506,-384],[-143,-172],[-106,-620],[-249,-172],[-463,-178],[-88,-315],[-329,-453],[-356,-189],[-649,-230],[-222,-17],[-925,-258],[-667,-258],[71,642],[-364,98],[-836,-585],[-391,-769],[258,-138],[-383,-361],[-676,-528],[-320,-361]],[[46572,38709],[-622,-390],[-338,-34],[-294,69]],[[45318,38354],[169,252],[338,1336],[347,103],[338,230],[178,281],[409,373],[-36,264],[231,223],[578,218],[107,453],[186,155],[0,321],[-266,803],[71,494],[-471,458],[35,413],[-35,488],[-240,69],[-107,183],[-356,224],[-18,184],[169,281],[240,200],[365,-298],[178,115],[231,-253],[222,-68],[205,-431],[311,172],[685,-149],[-18,-258],[364,190],[45,619],[-285,-40],[-667,269],[63,322],[-45,940],[-275,448],[88,349],[-88,712],[382,-52],[373,379],[365,699],[524,6],[489,75],[392,-224],[266,40],[143,161],[275,648],[285,-75],[71,218],[-187,350],[80,270],[320,493],[98,310],[285,97],[53,304],[-196,143],[107,482],[205,327],[435,230],[374,304],[355,80],[178,241],[-89,344]],[[54147,54849],[329,-138],[276,-396],[560,-217],[373,22],[374,322],[702,17],[231,80],[365,-103],[542,287],[116,-385],[-45,-395],[-346,-580],[418,-17],[426,-258],[312,321],[346,132],[436,-201],[436,-109],[391,184],[-27,-407],[169,-86],[276,120],[204,293],[-35,487],[71,516],[-160,373],[346,195],[214,-195],[569,-269],[338,-322],[409,23],[684,-418]],[[15942,47318],[98,310]],[[17133,46400],[-17,-235],[-561,-28],[-169,304]],[[20432,52801],[258,-97],[275,74],[418,270],[267,-270],[9,-436],[89,-326],[667,-402],[640,0],[524,-201],[285,-407],[622,-195],[765,-34],[302,51],[649,-11],[223,57],[702,-109],[160,-304],[44,-304],[-115,-143],[267,-230],[337,-40],[516,115],[214,252],[391,75],[142,172],[-71,315],[329,247],[187,310],[35,264],[418,143],[382,264],[303,103],[346,-80],[392,258],[444,-17],[311,-253],[9,-539],[-338,23],[-80,-178],[169,-258],[329,-137],[463,-18],[257,149],[285,-86],[542,138],[392,212],[168,184],[756,195],[45,-344],[293,63],[169,-103],[462,-75],[712,120],[62,218],[1005,287],[80,201],[595,-75],[409,-246],[63,-241],[337,109],[507,23],[142,-190],[570,52],[622,316],[418,-207],[373,-465],[712,-418],[186,86]],[[42873,50708],[-186,-379],[-481,-264],[-169,-585],[152,-235],[249,-46],[71,-768],[-240,-224],[97,-143],[312,28],[0,-957],[-303,-201],[-382,-121],[9,-304],[356,-40],[97,-304],[-89,-441],[-249,68],[-115,-166],[382,-287],[98,-246],[373,-224],[134,-292],[400,-155],[213,-224],[-44,-195],[-258,-86],[98,-201],[-400,-287],[-125,201],[-213,-6],[-142,253],[-365,-264],[-249,-287],[-107,-407],[-320,-476],[249,-453],[-240,-253],[-18,-223]],[[41468,41514],[-613,-58],[-302,310],[-143,281],[-97,648],[-240,98],[275,310],[-44,149],[124,659],[-124,281],[-223,92],[-240,298],[-204,35],[-676,-247],[-400,12],[-249,154],[-284,29],[-232,-442],[-480,299],[-115,-23],[-516,378],[-89,258],[-231,184],[-231,-6],[-614,172],[-195,-86],[-320,230],[-214,-6],[214,-625],[-169,-144],[-107,-562],[-213,-74],[-223,-299],[-26,-384],[-356,0],[-249,201],[-240,34],[-222,-361],[-80,-373],[-276,-264],[44,-183],[232,-149],[275,-402],[-258,-92],[-195,-367],[-267,-120],[-80,-344],[-302,-75],[-303,-585],[160,-252]],[[32150,40103],[-302,-92],[-391,241],[-160,379],[-231,-173],[-9,-269],[-382,-275],[-107,-201],[-471,-58],[-196,-126],[-27,-590],[-160,-316],[-338,52],[54,-253],[-169,-120],[-107,-298],[-284,223],[-276,6],[-418,-470],[-231,-69],[71,-924],[-453,127],[-400,-40],[-543,-178],[-222,315],[-294,-143],[-586,332],[-205,-367],[231,-504],[-53,-218],[142,-235],[-106,-408],[-214,144],[-347,-178],[-284,69],[-391,-86],[-45,-201],[-258,-115],[-426,293],[-285,-6],[-124,-212],[-267,-132],[71,-264],[-240,-34],[-382,-201],[-63,-356],[-373,-195],[-116,253],[-320,74],[-266,-355],[-205,-52],[187,-488],[-142,-120],[204,-212],[293,-132],[63,-505],[-178,-46],[35,-361],[-249,-419],[-80,-384],[-373,-126],[-124,137],[-321,-338],[27,-97]],[[20334,30806],[-373,-98],[-169,69],[-116,310],[-329,177],[-382,-172]],[[18965,31092],[-196,92],[-18,235],[-177,298],[-329,316],[-151,264],[-18,327],[-214,590],[18,241],[-222,379],[9,637],[-160,544],[44,471],[-115,631],[-125,309],[53,172],[-231,385],[54,223],[-169,218],[-36,637],[-195,545],[-161,252],[-124,448],[-18,751],[-231,252],[-71,258],[116,396],[-232,436],[-9,310],[258,201],[-106,235],[329,304],[-169,258],[-178,-224],[-231,218],[-178,734],[53,281],[-142,425],[169,206],[-267,281],[-9,482],[-222,338],[53,385],[151,418]],[[20334,30806],[436,-41],[106,-384],[-80,-160],[232,-643],[-214,-178],[178,-172],[-116,-315],[-62,-493],[-515,-241]],[[20299,28179],[-187,120],[-18,258],[-400,293],[116,281],[-196,636],[-18,322],[-311,91],[-329,700],[9,212]],[[34480,20763],[-222,57],[-374,247],[-186,-138],[-365,229],[-320,-57],[-125,-482],[-222,-126],[-311,-34],[-142,-390],[178,-327],[-205,-442],[-302,-229],[71,-236],[596,-5],[346,-293],[-329,-522],[-622,-155],[-196,-401],[-275,-98],[-320,115],[-472,-80],[-133,-126],[-293,241],[-303,-92],[-222,-333],[-80,-275],[-240,57],[-498,-34],[-187,46],[-62,223],[-231,18],[-169,-167]],[[28265,16954],[-89,270],[-249,11],[-480,385],[-213,0],[-205,372],[-320,-126],[-391,80],[-240,207],[-54,201],[-453,120],[-320,230],[-374,430],[-124,11],[-267,608],[-213,235],[71,224],[-320,-6],[-258,276],[-489,189],[-53,143],[-311,-28]],[[22913,20786],[44,223],[-169,109],[-347,1635],[-346,1761],[-374,608],[-133,596],[-125,207],[-124,596],[-134,327],[-151,52],[-160,631],[-524,275],[-71,373]],[[32150,40103],[169,-677],[-124,-155],[196,-292],[0,-213],[-409,-395],[88,-230],[-213,-114],[-178,-287],[276,-184],[311,6],[53,-321],[-773,-924],[311,-625],[-107,-378],[0,-425],[-80,-321],[107,-126],[-27,-316],[-213,-240],[-391,-264],[124,-149],[827,-155],[18,-218],[-169,-132],[-27,-906],[-124,-167]],[[28265,16954],[-258,-264],[-338,46],[54,-436],[515,-149],[303,-178],[124,-252],[-302,-275],[71,-98],[605,12],[266,-247],[-98,-711],[445,-201],[240,-338],[-53,-350],[-187,-161],[-44,-682],[115,-442],[294,-258],[204,-17],[267,224],[435,195],[294,-494],[-178,-527],[116,-339],[-116,-355],[36,-333],[-169,-528],[266,-195],[258,81],[205,-276],[-303,-694],[-195,-625],[-302,-424],[124,-373],[160,-121],[-44,-258],[-196,-309],[89,-293],[258,-298],[-391,-660],[-187,-183]],[[30648,5168],[-391,292],[-400,534],[-632,762],[-178,276],[-346,327],[204,206],[-302,103],[-516,1125],[-178,585],[-115,1107],[204,-385],[196,-74],[-125,-551],[347,-80],[151,132],[-284,206],[-134,631],[45,235],[-125,253],[-275,218],[-116,435],[-213,12],[-18,224],[-427,1198],[-444,878],[-311,1153],[-472,1124],[-266,189],[-294,769],[-516,596],[-186,115],[-125,287],[54,218]],[[24460,18268],[-98,200],[-187,0],[0,-275]],[[24175,18193],[-98,0],[-213,648],[-605,1147],[-346,798]],[[24460,18268],[-285,-75]],[[40019,14563],[0,-597]],[[40019,13966],[-275,275],[-214,81],[116,263],[373,-22]],[[40028,17958],[-133,-424]],[[39895,17534],[-285,28],[-142,557],[356,-293],[204,132]],[[41433,23235],[231,-132],[71,-287],[-53,-522],[-160,-459],[-80,-809],[-116,-556],[-249,-700],[-1004,-1577],[-45,-235]],[[39895,17534],[-89,-224],[-116,-665],[116,-528],[124,-121],[116,-808],[-27,-625]],[[40019,13966],[54,-1497],[-36,-338],[-320,-86],[-614,132],[-160,97],[-462,6],[-320,-201],[-231,-350],[142,-459],[-267,-229],[-364,-585],[-391,-470],[-232,-671],[71,-201],[525,-568],[-445,75],[-391,-109],[-764,-362],[-578,-80],[-249,-138],[-471,-390],[-214,-367],[-9,-338],[-133,-327],[-27,-631],[-222,-402],[-880,-504],[-187,-190],[-373,-63],[-454,-281],[-667,184],[-311,195],[-391,350]],[[16831,5277],[18,-23],[-62,-138],[-72,-57],[-35,-12],[-18,35],[71,28],[45,41],[35,57],[18,69]],[[88227,774],[36,-223],[-143,-551],[-257,23],[-329,642],[-232,69],[0,373],[89,218],[472,206],[177,-143],[187,-614]],[[87578,1979],[-293,-390],[-98,384],[284,109],[107,-103]],[[86547,4021],[-214,-270],[-213,252],[62,178],[231,52],[134,-212]],[[84431,8466],[71,-299],[-347,-51],[-80,246],[187,218],[169,-114]],[[83657,13834],[36,-321],[-196,-201],[124,-143],[-213,-253],[-382,236],[-89,694],[187,263],[337,161],[196,-436]],[[85257,22592],[0,-527],[-115,-345],[-187,12],[-204,-189],[204,-413],[-27,-287],[116,-281],[-62,-258],[62,-379],[-178,-281],[-311,-17],[222,-350],[-71,-413],[-418,-453],[-115,-430],[178,-92],[26,-241],[-124,-545],[18,-315],[-134,-390],[-320,264],[-98,476],[-151,80],[-71,533],[356,494],[-9,344],[524,252],[-53,356],[-205,183],[9,826],[134,178],[-80,545],[222,178],[27,568],[151,435],[-18,694],[382,717],[285,69],[62,-568],[-195,-269],[168,-161]],[[54147,54849],[89,183],[667,379],[124,287],[427,355],[-213,390],[-605,6],[-89,298],[-204,213],[35,573],[-80,252],[-231,-45],[18,367],[213,275],[-80,275],[-231,-28],[-62,-207],[-427,75],[-204,315],[44,212],[-133,281],[-480,408],[-116,453],[-276,195],[-355,63]],[[31386,75692],[-196,-35],[-258,-269],[-320,149],[-106,183],[-676,-34],[-125,241],[383,379],[-36,412],[445,236],[453,-18]],[[29634,83601],[45,-378]],[[50137,59936],[-115,-246],[-374,-155],[-26,-138],[-409,-241],[-1556,92],[-480,132],[-347,-155],[-196,23],[-329,287],[-204,-178],[222,-499],[-329,-447],[178,-276],[347,207],[560,-126],[284,-367],[365,-98],[320,-292],[-214,-671],[-195,17],[-427,-201],[-27,-338],[-249,-224],[-266,-103],[-71,-660],[-338,-189],[-89,-201],[-356,-109],[-418,-287],[-151,190],[-471,-167],[-196,121],[-195,-276],[-9,-367],[-329,-350],[-125,-298],[-231,-40],[-284,-510],[9,-362],[-116,-252],[-258,-212],[-27,-838],[-142,-424]],[[45318,38354],[-506,-12],[-338,115],[-347,-212],[-205,229],[-26,430],[-143,425],[-293,384],[-276,126],[-257,625],[-383,448],[-275,206],[-320,-40],[-312,189],[-169,247]]],"bbox":[68.16461308858626,6.801677827042994,97.35632764003145,35.49493272188309],"transform":{"scale":[0.00029192006471509904,0.00028693541830258397],"translate":[68.16461308858626,6.801677827042994]}}