{"type":"Topology","objects":{"a1":{"type":"GeometryCollection","geometries":[{"type":"Polygon","arcs":[[0,1,2]],"id":"IRQ-3046","properties":{"adm1_code":"IRQ-3046","iso_3166_2":"IQ-DA","name":"Dihok","admin":"Iraq","adm0_a3":"IRQ","type_en":"Province"}},{"type":"Polygon","arcs":[[-1,3,4,5,6,7]],"id":"IRQ-3050","properties":{"adm1_code":"IRQ-3050","iso_3166_2":"IQ-AR","name":"Arbil","admin":"Iraq","adm0_a3":"IRQ","type_en":"Province"}},{"type":"Polygon","arcs":[[8,9,10,11]],"id":"IRQ-3222","properties":{"adm1_code":"IRQ-3222","iso_3166_2":"IQ-BA","name":"Al-Basrah","admin":"Iraq","adm0_a3":"IRQ","type_en":"Province"}},{"type":"Polygon","arcs":[[12,13,14,-9,15]],"id":"IRQ-3223","properties":{"adm1_code":"IRQ-3223","iso_3166_2":"IQ-MU","name":"Al-Muthannia","admin":"Iraq","adm0_a3":"IRQ","type_en":"Province"}},{"type":"Polygon","arcs":[[-5,16,17,18,19]],"id":"IRQ-3242","properties":{"adm1_code":"IRQ-3242","iso_3166_2":"IQ-SU","name":"As-Sulaymaniyah","admin":"Iraq","adm0_a3":"IRQ","type_en":"Province"}},{"type":"Polygon","arcs":[[-18,20,21,22,23,24,25]],"id":"IRQ-3243","properties":{"adm1_code":"IRQ-3243","iso_3166_2":"IQ-DI","name":"Diyala","admin":"Iraq","adm0_a3":"IRQ","type_en":"Province"}},{"type":"Polygon","arcs":[[-22,26,27,28,29,30]],"id":"IRQ-3227","properties":{"adm1_code":"IRQ-3227","iso_3166_2":"IQ-WA","name":"Wasit","admin":"Iraq","adm0_a3":"IRQ","type_en":"Province"}},{"type":"Polygon","arcs":[[-11,31,-28,32]],"id":"IRQ-3226","properties":{"adm1_code":"IRQ-3226","iso_3166_2":"IQ-MA","name":"Maysan","admin":"Iraq","adm0_a3":"IRQ","type_en":"Province"}},{"type":"Polygon","arcs":[[33,34,-25,35,36,37,38,39]],"id":"IRQ-3471","properties":{"adm1_code":"IRQ-3471","iso_3166_2":"IQ-AN","name":"Al-Anbar","admin":"Iraq","adm0_a3":"IRQ","type_en":"Province"}},{"type":"Polygon","arcs":[[-13,40,-39,41,42,43]],"id":"IRQ-3061","properties":{"adm1_code":"IRQ-3061","iso_3166_2":"IQ-NA","name":"An-Najaf","admin":"Iraq","adm0_a3":"IRQ","type_en":"Province"}},{"type":"Polygon","arcs":[[-2,-8,44,-34,45]],"id":"IRQ-3051","properties":{"adm1_code":"IRQ-3051","iso_3166_2":"IQ-NI","name":"Ninawa","admin":"Iraq","adm0_a3":"IRQ","type_en":"Province"}},{"type":"Polygon","arcs":[[-7,46,-19,-26,-35,-45]],"id":"IRQ-3052","properties":{"adm1_code":"IRQ-3052","iso_3166_2":"IQ-SD","name":"Sala ad-Din","admin":"Iraq","adm0_a3":"IRQ","type_en":"Province"}},{"type":"Polygon","arcs":[[-6,-20,-47]],"id":"IRQ-3049","properties":{"adm1_code":"IRQ-3049","iso_3166_2":"IQ-TS","name":"At-Ta'mim","admin":"Iraq","adm0_a3":"IRQ","type_en":"Province"}},{"type":"Polygon","arcs":[[-24,47,-36]],"id":"IRQ-3063","properties":{"adm1_code":"IRQ-3063","iso_3166_2":"IQ-BG","name":"Baghdad","admin":"Iraq","adm0_a3":"IRQ","type_en":"Province"}},{"type":"Polygon","arcs":[[-23,-31,48,-43,49,-37,-48]],"id":"IRQ-3472","properties":{"adm1_code":"IRQ-3472","iso_3166_2":"IQ-BB","name":"Babil","admin":"Iraq","adm0_a3":"IRQ","type_en":"Province"}},{"type":"Polygon","arcs":[[-14,-44,-49,-30,50]],"id":"IRQ-3224","properties":{"adm1_code":"IRQ-3224","iso_3166_2":"IQ-QA","name":"Al-Qādisiyyah","admin":"Iraq","adm0_a3":"IRQ","type_en":"Province"}},{"type":"Polygon","arcs":[[-10,-15,-51,-29,-32]],"id":"IRQ-3225","properties":{"adm1_code":"IRQ-3225","iso_3166_2":"IQ-DQ","name":"Dhi-Qar","admin":"Iraq","adm0_a3":"IRQ","type_en":"Province"}},{"type":"Polygon","arcs":[[-38,-50,-42]],"id":"IRQ-3062","properties":{"adm1_code":"IRQ-3062","iso_3166_2":"IQ-KA","name":"Karbala'","admin":"Iraq","adm0_a3":"IRQ","type_en":"Province"}}]}},"arcs":[[[54243,99266],[319,-1267],[-1570,-1465],[-1197,-891]],[[51795,95643],[-1623,415],[-319,-851],[825,-257],[-213,-1288],[-718,-237],[-1490,376],[-1277,871],[-559,-19],[-1569,-2000],[-1756,-198],[-825,-456],[-798,119],[-1356,970],[-958,-39],[-1117,1901],[-745,495],[-399,792]],[[36898,96237],[-186,574],[2101,455],[1437,2139],[718,594],[1676,-653],[1516,594],[1836,-713],[1011,-79],[1197,-733],[4256,-218],[985,1050],[798,19]],[[54243,99266],[1596,-713],[159,-1148],[-611,-852],[558,-1247],[745,-79],[372,772],[878,277],[1543,1228],[1596,0],[320,-297],[0,-753],[1170,-653],[27,-1663],[-532,-1149],[1702,-594],[399,-634],[-266,-2079]],[[63899,89682],[-505,-574],[-798,139],[-1889,-495],[-452,99],[-1171,-951],[639,-1247],[984,-713],[-718,-951],[1463,-950],[771,-852],[1251,-792],[-2235,-534],[-1250,217]],[[59989,82078],[-2128,-297],[-1277,-415],[-1118,237],[-1356,-792],[-1065,733],[-1862,-1485],[320,-832],[-612,-1208],[-1330,-396],[-453,-693],[-1144,-357],[-984,377]],[[46980,76950],[160,1564],[-426,1624]],[[46714,80138],[-133,693],[665,931],[53,1128],[-372,555],[1303,534],[692,1545],[1197,1386],[825,554],[1117,1604],[1463,1624],[1410,0],[1650,1505],[-346,772],[-2102,852],[-585,891],[-1756,931]],[[79808,733],[266,2732],[585,1248],[186,3069],[825,4555],[-160,1128],[-1011,1485],[-558,2495]],[[79941,17445],[3352,931],[1596,-257],[372,396],[-26,1148],[319,1703],[26,3505]],[[85580,24871],[133,733],[745,653],[1889,396],[2873,-515]],[[91220,26138],[-26,-2891],[3378,-20],[133,-217],[-27,-6159],[1490,-455],[426,-1228],[745,0],[1277,-1247],[-133,-773],[718,-1861],[798,-475],[-106,-396],[-1916,396],[-1277,752],[-1755,139],[-932,-515],[-2234,1149],[-585,118],[-3219,-79],[-1650,-693],[-904,-891],[-1570,-4099],[-1064,-2099],[-1436,-2099],[-1543,-1762]],[[51742,9030],[2394,4257],[1836,5386],[931,1446],[1197,693],[1383,1703],[745,1445],[772,4238]],[[61000,28198],[2580,-1743],[213,1267],[1144,2991],[-639,792],[2501,554],[2501,-495],[1809,-594],[744,178]],[[71853,31148],[373,-950],[-506,-416],[320,-1089],[-719,-891],[772,-456],[-692,-1921],[479,-990],[-638,-257],[-213,-1149],[133,-1683],[5054,-673],[1623,-574],[1623,-2713],[479,59]],[[79808,733],[-293,-337],[-1091,-238],[-718,-158],[-9444,871],[-7369,693],[-266,99],[-8885,7367]],[[63899,89682],[1038,-1386],[1303,20],[612,-2119],[53,-1049],[453,-634],[-346,-931],[479,-396],[1436,337],[1490,-871],[745,-1248],[984,-237],[665,316],[1862,258],[1277,-713],[985,376],[319,-693],[-772,-673],[-2048,-297],[-426,-396],[27,-1030],[-346,-931],[1649,-2534],[399,-1129],[-345,-713],[-1251,-851],[-984,317],[-585,-793],[-53,-1366],[-559,-59]],[[71960,70257],[-160,1247],[-638,1248],[-1836,-3030],[-931,-2238],[-931,-415],[-1117,-1307],[-639,257],[266,1149],[-239,1544],[-559,555],[-798,-159],[-931,733]],[[63447,69841],[-133,1307],[-904,594],[-2075,198],[-1038,1049]],[[59297,72989],[1277,614],[718,1703],[-133,555],[612,1227],[-505,733],[239,2099],[-958,970],[-558,1188]],[[71960,70257],[-1224,-1010],[-505,-1168],[612,-812],[133,-1228],[-2049,475],[27,-1168],[-878,-594],[319,-990],[1117,-614],[-239,-2198],[-825,-713],[-345,-911],[665,-673],[1782,-3089],[665,-574],[1649,-40],[825,-1624]],[[73689,53326],[-505,-970],[-2528,-1802],[-931,-1545],[-984,-851],[-3804,1089],[-3033,59],[-1543,-1742],[-612,693],[-665,-812]],[[59084,47445],[-372,2040]],[[58712,49485],[399,2316],[-1197,733],[-719,20],[-798,-634]],[[56397,51920],[-345,654]],[[56052,52574],[1516,1663],[346,1842],[-346,495],[559,2039],[-665,773],[-932,237],[852,1802],[1383,1129],[-319,931],[452,2851],[1117,-634],[852,971],[26,930],[1118,733],[345,792],[1091,713]],[[73689,53326],[718,-1525],[1224,-1306],[133,-1109],[-1277,-1010],[798,-277],[-239,-1288],[1809,60],[2101,-812],[1251,-832]],[[80207,45227],[-559,-673],[-665,-2000],[-53,-1307],[-346,-970],[346,-495],[-426,-1228],[160,-554],[1250,-535],[319,-515],[-266,-1822],[-1383,317],[-1277,-39]],[[77307,35406],[-2660,-20],[-2394,-753],[-1011,80]],[[71242,34713],[-426,1445],[-1516,555],[-1570,1762],[80,891],[-1969,713]],[[65841,40079],[-1516,1247],[-825,2337],[-1090,792],[-1623,594],[-1463,99],[-293,614],[53,1683]],[[85580,24871],[-2873,99],[-984,713],[-106,1188],[-1357,1188],[-80,1762],[-1702,1802],[-187,1050],[-1064,1881],[80,852]],[[80207,45227],[4682,-3940],[638,-396],[1330,277],[958,-317],[772,-990],[-240,-475],[1144,-1644],[-160,-614],[905,-554],[904,-1089],[1676,-3010],[-1569,-4257],[-27,-2080]],[[24767,73346],[1543,-139],[2421,-574],[4150,-1624],[2101,139],[878,-337],[2235,297]],[[38095,71108],[80,-2812],[399,-1742],[1995,-1584],[771,-278],[1224,674],[319,-2139],[1064,-2911],[692,-930],[3059,-2812],[1650,-377],[2181,-792],[1729,40],[825,-594],[878,-1980],[1091,-297]],[[56397,51920],[-532,-930],[107,-931],[532,-416]],[[56504,49643],[-506,-614],[-1090,396],[-2395,357],[-611,-416],[1809,-931],[425,-1604],[851,-950],[-106,-1149]],[[54881,44732],[-1756,535],[-2048,-99],[-825,-396],[-1915,-1683],[-1862,-416],[-1011,-475],[319,-733],[2394,-2416],[2208,-1683]],[[50385,37366],[1064,-1030],[-425,-990],[-1517,-871],[-1356,-396],[-665,-555],[-1730,-2633],[-239,-1149],[-1064,-2356],[-107,-1287],[-665,-2218],[-1037,-1743],[-133,-1049],[-1437,-3188]],[[41074,17901],[-7262,6356],[-5400,3248],[-6305,3762],[-5214,3109],[-559,218],[-3485,673],[-8938,1525],[-107,-40],[1490,1525],[-585,1307],[-1942,-535],[-692,2000],[798,258],[-2873,10534],[6784,4000],[7528,4436],[5321,3109],[2500,653],[532,515],[2129,4099],[133,594],[-160,4099]],[[51742,9030],[-4017,3326],[-6651,5545]],[[50385,37366],[5720,1663],[718,436]],[[56823,39465],[0,-1564],[559,-832],[1277,871],[1356,-693]],[[60015,37247],[-186,-1168],[-1011,-654],[-159,-653],[345,-1703],[107,-2059],[-1117,-377],[186,-693],[851,-911],[1969,-831]],[[46714,80138],[-771,-812],[-3884,-2139],[159,-1366],[532,-535],[266,-1346],[665,-1208],[-505,-178],[-3671,-20],[-1171,-257],[-239,-1169]],[[24767,73346],[718,4039],[479,693],[559,1228],[-213,2436],[-1038,2237],[373,3743],[904,1683],[506,396],[3831,753],[558,336],[4496,4535],[958,812]],[[46980,76950],[-931,-575],[1038,-950],[186,-1426],[1090,-1227],[4283,-2476],[2208,-1010],[1650,-1405],[1170,2396],[1357,1524],[266,1188]],[[58712,49485],[-2208,158]],[[65841,40079],[-2713,-1505],[-1809,-1723],[-1304,396]],[[56823,39465],[-239,1485],[-772,1703],[399,1703],[-1330,376]],[[71242,34713],[-80,-733],[691,-2832]]],"bbox":[38.77563968536637,29.06343056363616,48.5321663145904,37.37435326044961],"transform":{"scale":[0.0000975662419546598,0.00008311005806871518],"translate":[38.77563968536637,29.06343056363616]}}