{"type":"Topology","objects":{"a1":{"type":"GeometryCollection","geometries":[{"type":"Polygon","arcs":[[0,1,2,3,4]],"id":"ITA-5442","properties":{"adm1_code":"ITA-5442","iso_3166_2":"IT-AO","name":"Aoste","admin":"Italy","adm0_a3":"ITA","type_en":"Province"}},{"type":"Polygon","arcs":[[-1,5,6,7,8]],"id":"ITA-5437","properties":{"adm1_code":"ITA-5437","iso_3166_2":"IT-VB","name":"Verbano-Cusio-Ossola","admin":"Italy","adm0_a3":"ITA","type_en":"Province"}},{"type":"Polygon","arcs":[[-7,9,10,11,12,13]],"id":"ITA-5451","properties":{"adm1_code":"ITA-5451","iso_3166_2":"IT-VA","name":"Varese","admin":"Italy","adm0_a3":"ITA","type_en":"Province"}},{"type":"Polygon","arcs":[[14,15,16,17,-11]],"id":"ITA-5452","properties":{"adm1_code":"ITA-5452","iso_3166_2":"IT-CO","name":"Como","admin":"Italy","adm0_a3":"ITA","type_en":"Province"}},{"type":"Polygon","arcs":[[-16,18,19,20,21,22,23]],"id":"ITA-5444","properties":{"adm1_code":"ITA-5444","iso_3166_2":"IT-SO","name":"Sondrio","admin":"Italy","adm0_a3":"ITA","type_en":"Province"}},{"type":"Polygon","arcs":[[24,25,26,-20]],"id":"ITA-5459","properties":{"adm1_code":"ITA-5459","iso_3166_2":"IT-BZ","name":"Bozen","admin":"Italy","adm0_a3":"ITA","type_en":"Province"}},{"type":"Polygon","arcs":[[27,28,29]],"id":"ITA-5369","properties":{"adm1_code":"ITA-5369","iso_3166_2":"IT-IM","name":"Imperia","admin":"Italy","adm0_a3":"ITA","type_en":"Province"}},{"type":"Polygon","arcs":[[-28,30,31,32,33]],"id":"ITA-5441","properties":{"adm1_code":"ITA-5441","iso_3166_2":"IT-CN","name":"Cuneo","admin":"Italy","adm0_a3":"ITA","type_en":"Province"}},{"type":"Polygon","arcs":[[-4,34,35,36,37,-32,38]],"id":"ITA-5434","properties":{"adm1_code":"ITA-5434","iso_3166_2":"IT-TO","name":"Turin","admin":"Italy","adm0_a3":"ITA","type_en":"Province"}},{"type":"Polygon","arcs":[[39,40,41,42,43,44]],"id":"ITA-5366","properties":{"adm1_code":"ITA-5366","iso_3166_2":"IT-RN","name":"Rimini","admin":"Italy","adm0_a3":"ITA","type_en":"Province"}},{"type":"Polygon","arcs":[[-40,45,-44,46,47,48,49]],"id":"ITA-5428","properties":{"adm1_code":"ITA-5428","iso_3166_2":"IT-PU","name":"Pesaro e Urbino","admin":"Italy","adm0_a3":"ITA","type_en":"Province"}},{"type":"Polygon","arcs":[[-26,50,51,52,53,54,55]],"id":"ITA-5467","properties":{"adm1_code":"ITA-5467","iso_3166_2":"IT-BL","name":"Belluno","admin":"Italy","adm0_a3":"ITA","type_en":"Province"}},{"type":"Polygon","arcs":[[-52,56,57,58,59,60]],"id":"ITA-5455","properties":{"adm1_code":"ITA-5455","iso_3166_2":"IT-UD","name":"Udine","admin":"Italy","adm0_a3":"ITA","type_en":"Province"}},{"type":"Polygon","arcs":[[-58,61,62,63]],"id":"ITA-5457","properties":{"adm1_code":"ITA-5457","iso_3166_2":"IT-GO","name":"Gorizia","admin":"Italy","adm0_a3":"ITA","type_en":"Province"}},{"type":"Polygon","arcs":[[-63,64]],"id":"ITA-5458","properties":{"adm1_code":"ITA-5458","iso_3166_2":"IT-TS","name":"Trieste","admin":"Italy","adm0_a3":"ITA","type_en":"Province"}},{"type":"MultiPolygon","arcs":[[[-60,65,66,67,68]],[[69,70,71]]],"id":"ITA-5461","properties":{"adm1_code":"ITA-5461","iso_3166_2":"IT-VE","name":"Venezia","admin":"Italy","adm0_a3":"ITA","type_en":"Province"}},{"type":"Polygon","arcs":[[-67,72,-72,73,74,75,76]],"id":"ITA-5463","properties":{"adm1_code":"ITA-5463","iso_3166_2":"IT-PD","name":"Padova","admin":"Italy","adm0_a3":"ITA","type_en":"Province"}},{"type":"Polygon","arcs":[[-71,77,78,79,80,-74]],"id":"ITA-5462","properties":{"adm1_code":"ITA-5462","iso_3166_2":"IT-RO","name":"Rovigo","admin":"Italy","adm0_a3":"ITA","type_en":"Province"}},{"type":"Polygon","arcs":[[-79,81,82,83,84,85]],"id":"ITA-5363","properties":{"adm1_code":"ITA-5363","iso_3166_2":"IT-FE","name":"Ferrara","admin":"Italy","adm0_a3":"ITA","type_en":"Province"}},{"type":"Polygon","arcs":[[-83,86,87,88,89]],"id":"ITA-5364","properties":{"adm1_code":"ITA-5364","iso_3166_2":"IT-RA","name":"Ravenna","admin":"Italy","adm0_a3":"ITA","type_en":"Province"}},{"type":"Polygon","arcs":[[-42,90,91,-88,92]],"id":"ITA-5365","properties":{"adm1_code":"ITA-5365","iso_3166_2":"IT-FC","name":"Forlì-Cesena","admin":"Italy","adm0_a3":"ITA","type_en":"Province"}},{"type":"Polygon","arcs":[[-48,93,94,95]],"id":"ITA-5427","properties":{"adm1_code":"ITA-5427","iso_3166_2":"IT-AN","name":"Ancona","admin":"Italy","adm0_a3":"ITA","type_en":"Province"}},{"type":"Polygon","arcs":[[-95,96,97,98,99]],"id":"ITA-5429","properties":{"adm1_code":"ITA-5429","iso_3166_2":"IT-MC","name":"Macerata","admin":"Italy","adm0_a3":"ITA","type_en":"Province"}},{"type":"Polygon","arcs":[[-98,100,101]],"id":"ITA-5430","properties":{"adm1_code":"ITA-5430","iso_3166_2":"IT-FM","name":"Fermo","admin":"Italy","adm0_a3":"ITA","type_en":"Province"}},{"type":"Polygon","arcs":[[-99,-102,102,103,104,105]],"id":"ITA-5431","properties":{"adm1_code":"ITA-5431","iso_3166_2":"IT-AP","name":"Ascoli Piceno","admin":"Italy","adm0_a3":"ITA","type_en":"Province"}},{"type":"Polygon","arcs":[[-104,106,107,108,109]],"id":"ITA-5419","properties":{"adm1_code":"ITA-5419","iso_3166_2":"IT-TE","name":"Teramo","admin":"Italy","adm0_a3":"ITA","type_en":"Province"}},{"type":"Polygon","arcs":[[-108,110,111,112]],"id":"ITA-5418","properties":{"adm1_code":"ITA-5418","iso_3166_2":"IT-PE","name":"Pescara","admin":"Italy","adm0_a3":"ITA","type_en":"Province"}},{"type":"Polygon","arcs":[[-112,113,114,115,116]],"id":"ITA-5421","properties":{"adm1_code":"ITA-5421","iso_3166_2":"IT-CH","name":"Chieti","admin":"Italy","adm0_a3":"ITA","type_en":"Province"}},{"type":"Polygon","arcs":[[-115,117,118,119,120,121]],"id":"ITA-5401","properties":{"adm1_code":"ITA-5401","iso_3166_2":"IT-CB","name":"Campobasso","admin":"Italy","adm0_a3":"ITA","type_en":"Province"}},{"type":"Polygon","arcs":[[-119,122,123,124,125,126]],"id":"ITA-5404","properties":{"adm1_code":"ITA-5404","iso_3166_2":"IT-FG","name":"Foggia","admin":"Italy","adm0_a3":"ITA","type_en":"Province"}},{"type":"Polygon","arcs":[[-124,127,128,129]],"id":"ITA-5405","properties":{"adm1_code":"ITA-5405","iso_3166_2":"IT-BT","name":"Barletta-Andria Trani","admin":"Italy","adm0_a3":"ITA","type_en":"Province"}},{"type":"Polygon","arcs":[[-129,130,131,132,133,134]],"id":"ITA-5403","properties":{"adm1_code":"ITA-5403","iso_3166_2":"IT-BA","name":"Bari","admin":"Italy","adm0_a3":"ITA","type_en":"Province"}},{"type":"Polygon","arcs":[[-132,135,136,137]],"id":"ITA-5406","properties":{"adm1_code":"ITA-5406","iso_3166_2":"IT-BR","name":"Brindisi","admin":"Italy","adm0_a3":"ITA","type_en":"Province"}},{"type":"Polygon","arcs":[[-137,138,139]],"id":"ITA-5407","properties":{"adm1_code":"ITA-5407","iso_3166_2":"IT-LE","name":"Lecce","admin":"Italy","adm0_a3":"ITA","type_en":"Province"}},{"type":"Polygon","arcs":[[-133,-138,-140,140,141]],"id":"ITA-5408","properties":{"adm1_code":"ITA-5408","iso_3166_2":"IT-TA","name":"Taranto","admin":"Italy","adm0_a3":"ITA","type_en":"Province"}},{"type":"Polygon","arcs":[[-134,-142,142,143,144]],"id":"ITA-5389","properties":{"adm1_code":"ITA-5389","iso_3166_2":"IT-MT","name":"Matera","admin":"Italy","adm0_a3":"ITA","type_en":"Province"}},{"type":"Polygon","arcs":[[-144,145,146,147,148,149]],"id":"ITA-5391","properties":{"adm1_code":"ITA-5391","iso_3166_2":"IT-CS","name":"Cosenza","admin":"Italy","adm0_a3":"ITA","type_en":"Province"}},{"type":"Polygon","arcs":[[-147,150,151]],"id":"ITA-5392","properties":{"adm1_code":"ITA-5392","iso_3166_2":"IT-KR","name":"Crotene","admin":"Italy","adm0_a3":"ITA","type_en":"Province"}},{"type":"Polygon","arcs":[[-148,-152,152,153,154,155]],"id":"ITA-5393","properties":{"adm1_code":"ITA-5393","iso_3166_2":"IT-CZ","name":"Catanzaro","admin":"Italy","adm0_a3":"ITA","type_en":"Province"}},{"type":"Polygon","arcs":[[-154,156,157]],"id":"ITA-5395","properties":{"adm1_code":"ITA-5395","iso_3166_2":"IT-RC","name":"Reggio Calabria","admin":"Italy","adm0_a3":"ITA","type_en":"Province"}},{"type":"Polygon","arcs":[[-155,-158,158]],"id":"ITA-5394","properties":{"adm1_code":"ITA-5394","iso_3166_2":"IT-VV","name":"Vibo Valentia","admin":"Italy","adm0_a3":"ITA","type_en":"Province"}},{"type":"Polygon","arcs":[[-125,-130,-135,-145,-150,159,160,161]],"id":"ITA-5390","properties":{"adm1_code":"ITA-5390","iso_3166_2":"IT-PZ","name":"Potenza","admin":"Italy","adm0_a3":"ITA","type_en":"Province"}},{"type":"Polygon","arcs":[[-161,162,163,164]],"id":"ITA-5400","properties":{"adm1_code":"ITA-5400","iso_3166_2":"IT-SA","name":"Salerno","admin":"Italy","adm0_a3":"ITA","type_en":"Province"}},{"type":"Polygon","arcs":[[-164,165,166,167,168]],"id":"ITA-5397","properties":{"adm1_code":"ITA-5397","iso_3166_2":"IT-NA","name":"Napoli","admin":"Italy","adm0_a3":"ITA","type_en":"Province"}},{"type":"Polygon","arcs":[[-121,169,-167,170,171,172,173]],"id":"ITA-5396","properties":{"adm1_code":"ITA-5396","iso_3166_2":"IT-CE","name":"Caserta","admin":"Italy","adm0_a3":"ITA","type_en":"Province"}},{"type":"Polygon","arcs":[[-172,174,175,176]],"id":"ITA-5426","properties":{"adm1_code":"ITA-5426","iso_3166_2":"IT-LT","name":"Latina","admin":"Italy","adm0_a3":"ITA","type_en":"Province"}},{"type":"Polygon","arcs":[[-176,177,178,179,180,181]],"id":"ITA-5422","properties":{"adm1_code":"ITA-5422","iso_3166_2":"IT-RM","name":"Roma","admin":"Italy","adm0_a3":"ITA","type_en":"Province"}},{"type":"Polygon","arcs":[[-179,182,183,184,185,186]],"id":"ITA-5423","properties":{"adm1_code":"ITA-5423","iso_3166_2":"IT-VT","name":"Viterbo","admin":"Italy","adm0_a3":"ITA","type_en":"Province"}},{"type":"Polygon","arcs":[[-184,187,188,189,190]],"id":"ITA-5379","properties":{"adm1_code":"ITA-5379","iso_3166_2":"IT-GR","name":"Grosseto","admin":"Italy","adm0_a3":"ITA","type_en":"Province"}},{"type":"MultiPolygon","arcs":[[[-189,191,192]],[[193]]],"id":"ITA-5380","properties":{"adm1_code":"ITA-5380","iso_3166_2":"IT-LI","name":"Livorno","admin":"Italy","adm0_a3":"ITA","type_en":"Province"}},{"type":"Polygon","arcs":[[-190,-193,194,195,196,197]],"id":"ITA-5381","properties":{"adm1_code":"ITA-5381","iso_3166_2":"IT-PI","name":"Pisa","admin":"Italy","adm0_a3":"ITA","type_en":"Province"}},{"type":"Polygon","arcs":[[-196,198,199,200,201,202,203]],"id":"ITA-5383","properties":{"adm1_code":"ITA-5383","iso_3166_2":"IT-LU","name":"Lucca","admin":"Italy","adm0_a3":"ITA","type_en":"Province"}},{"type":"Polygon","arcs":[[-200,204,205,206,207]],"id":"ITA-5382","properties":{"adm1_code":"ITA-5382","iso_3166_2":"IT-MS","name":"Massa-Carrara","admin":"Italy","adm0_a3":"ITA","type_en":"Province"}},{"type":"Polygon","arcs":[[-206,208,209,210]],"id":"ITA-5370","properties":{"adm1_code":"ITA-5370","iso_3166_2":"IT-SP","name":"La Spezia","admin":"Italy","adm0_a3":"ITA","type_en":"Province"}},{"type":"Polygon","arcs":[[-210,211,212,213,214,215]],"id":"ITA-5367","properties":{"adm1_code":"ITA-5367","iso_3166_2":"IT-GE","name":"Genova","admin":"Italy","adm0_a3":"ITA","type_en":"Province"}},{"type":"Polygon","arcs":[[-29,-34,216,217,-213,218]],"id":"ITA-5368","properties":{"adm1_code":"ITA-5368","iso_3166_2":"IT-SV","name":"Savona","admin":"Italy","adm0_a3":"ITA","type_en":"Province"}},{"type":"Polygon","arcs":[[219,220,221]],"id":"ITA-5409","properties":{"adm1_code":"ITA-5409","iso_3166_2":"IT-TP","name":"Trapani","admin":"Italy","adm0_a3":"ITA","type_en":"Province"}},{"type":"Polygon","arcs":[[222,223,224,225]],"id":"ITA-5411","properties":{"adm1_code":"ITA-5411","iso_3166_2":"IT-ME","name":"Messina","admin":"Italy","adm0_a3":"ITA","type_en":"Province"}},{"type":"Polygon","arcs":[[-221,226,-226,227,228,229]],"id":"ITA-5410","properties":{"adm1_code":"ITA-5410","iso_3166_2":"IT-PA","name":"Palermo","admin":"Italy","adm0_a3":"ITA","type_en":"Province"}},{"type":"Polygon","arcs":[[-222,-230,230,231]],"id":"ITA-5417","properties":{"adm1_code":"ITA-5417","iso_3166_2":"IT-AG","name":"Agrigento","admin":"Italy","adm0_a3":"ITA","type_en":"Province"}},{"type":"Polygon","arcs":[[-229,232,233,234,235,-231]],"id":"ITA-5416","properties":{"adm1_code":"ITA-5416","iso_3166_2":"IT-CL","name":"Caltanissetta","admin":"Italy","adm0_a3":"ITA","type_en":"Province"}},{"type":"Polygon","arcs":[[-235,236,237,238]],"id":"ITA-5415","properties":{"adm1_code":"ITA-5415","iso_3166_2":"IT-RG","name":"Ragusa","admin":"Italy","adm0_a3":"ITA","type_en":"Province"}},{"type":"Polygon","arcs":[[-238,239,240]],"id":"ITA-5414","properties":{"adm1_code":"ITA-5414","iso_3166_2":"IT-SR","name":"Siracusa","admin":"Italy","adm0_a3":"ITA","type_en":"Province"}},{"type":"Polygon","arcs":[[-224,241,-240,-237,-234,242]],"id":"ITA-5413","properties":{"adm1_code":"ITA-5413","iso_3166_2":"IT-CT","name":"Catania","admin":"Italy","adm0_a3":"ITA","type_en":"Province"}},{"type":"Polygon","arcs":[[243,244,245]],"id":"ITA-5371","properties":{"adm1_code":"ITA-5371","iso_3166_2":"IT-CI","name":"Carbonia-Iglesias","admin":"Italy","adm0_a3":"ITA","type_en":"Province"}},{"type":"Polygon","arcs":[[246,247,248,249]],"id":"ITA-5374","properties":{"adm1_code":"ITA-5374","iso_3166_2":"IT-SS","name":"Sassari","admin":"Italy","adm0_a3":"ITA","type_en":"Province"}},{"type":"Polygon","arcs":[[-249,250,251,252,253,254]],"id":"ITA-5376","properties":{"adm1_code":"ITA-5376","iso_3166_2":"IT-NU","name":"Nuoro","admin":"Italy","adm0_a3":"ITA","type_en":"Province"}},{"type":"Polygon","arcs":[[-248,255,-251]],"id":"ITA-5375","properties":{"adm1_code":"ITA-5375","iso_3166_2":"IT-OT","name":"Olbia-Tempio","admin":"Italy","adm0_a3":"ITA","type_en":"Province"}},{"type":"Polygon","arcs":[[-250,-255,256,257,258]],"id":"ITA-5373","properties":{"adm1_code":"ITA-5373","iso_3166_2":"IT-OR","name":"Oristrano","admin":"Italy","adm0_a3":"ITA","type_en":"Province"}},{"type":"Polygon","arcs":[[-245,259,-258,260]],"id":"ITA-5372","properties":{"adm1_code":"ITA-5372","iso_3166_2":"IT-VS","name":"Medio Campidano","admin":"Italy","adm0_a3":"ITA","type_en":"Province"}},{"type":"Polygon","arcs":[[-246,-261,-257,-254,261,262]],"id":"ITA-5378","properties":{"adm1_code":"ITA-5378","iso_3166_2":"IT-CA","name":"Cagliari","admin":"Italy","adm0_a3":"ITA","type_en":"Province"}},{"type":"Polygon","arcs":[[-253,263,-262]],"id":"ITA-5377","properties":{"adm1_code":"ITA-5377","iso_3166_2":"IT-OG","name":"Ogliastra","admin":"Italy","adm0_a3":"ITA","type_en":"Province"}},{"type":"Polygon","arcs":[[-225,-243,-233,-228]],"id":"ITA-5412","properties":{"adm1_code":"ITA-5412","iso_3166_2":"IT-EN","name":"Enna","admin":"Italy","adm0_a3":"ITA","type_en":"Province"}},{"type":"Polygon","arcs":[[-120,-127,264,-168,-170]],"id":"ITA-5398","properties":{"adm1_code":"ITA-5398","iso_3166_2":"IT-BN","name":"Benevento","admin":"Italy","adm0_a3":"ITA","type_en":"Province"}},{"type":"Polygon","arcs":[[-33,-38,265,-217]],"id":"ITA-5440","properties":{"adm1_code":"ITA-5440","iso_3166_2":"IT-AT","name":"Asti","admin":"Italy","adm0_a3":"ITA","type_en":"Province"}},{"type":"Polygon","arcs":[[-23,266,267,268,269,270]],"id":"ITA-5443","properties":{"adm1_code":"ITA-5443","iso_3166_2":"IT-BG","name":"Bergamo","admin":"Italy","adm0_a3":"ITA","type_en":"Province"}},{"type":"Polygon","arcs":[[-22,271,272,273,274,-267]],"id":"ITA-5445","properties":{"adm1_code":"ITA-5445","iso_3166_2":"IT-BS","name":"Brescia","admin":"Italy","adm0_a3":"ITA","type_en":"Province"}},{"type":"Polygon","arcs":[[-268,-275,275,276,277,278,279]],"id":"ITA-5447","properties":{"adm1_code":"ITA-5447","iso_3166_2":"IT-CR","name":"Cremona","admin":"Italy","adm0_a3":"ITA","type_en":"Province"}},{"type":"Polygon","arcs":[[-80,-86,280,281,-276,-274,282]],"id":"ITA-5446","properties":{"adm1_code":"ITA-5446","iso_3166_2":"IT-MN","name":"Mantova","admin":"Italy","adm0_a3":"ITA","type_en":"Province"}},{"type":"Polygon","arcs":[[-13,283,-269,-280,284,285,286]],"id":"ITA-5450","properties":{"adm1_code":"ITA-5450","iso_3166_2":"IT-MI","name":"Milano","admin":"Italy","adm0_a3":"ITA","type_en":"Province"}},{"type":"Polygon","arcs":[[-17,-24,-271,287]],"id":"ITA-5453","properties":{"adm1_code":"ITA-5453","iso_3166_2":"IT-LC","name":"Lecco","admin":"Italy","adm0_a3":"ITA","type_en":"Province"}},{"type":"Polygon","arcs":[[-12,-18,-288,-270,-284]],"id":"ITA-5454","properties":{"adm1_code":"ITA-5454","iso_3166_2":"IT-MB","name":"Monza e Brianza","admin":"Italy","adm0_a3":"ITA","type_en":"Province"}},{"type":"Polygon","arcs":[[-279,288,289,-285]],"id":"ITA-5448","properties":{"adm1_code":"ITA-5448","iso_3166_2":"IT-LO","name":"Lodi","admin":"Italy","adm0_a3":"ITA","type_en":"Province"}},{"type":"Polygon","arcs":[[-185,-191,-198,290,291,292,293]],"id":"ITA-5388","properties":{"adm1_code":"ITA-5388","iso_3166_2":"IT-SI","name":"Siena","admin":"Italy","adm0_a3":"ITA","type_en":"Province"}},{"type":"Polygon","arcs":[[-41,-50,294,-292,295,-91]],"id":"ITA-5387","properties":{"adm1_code":"ITA-5387","iso_3166_2":"IT-AR","name":"Arezzo","admin":"Italy","adm0_a3":"ITA","type_en":"Province"}},{"type":"Polygon","arcs":[[-89,-92,-296,-291,-197,-204,296,297,298]],"id":"ITA-5386","properties":{"adm1_code":"ITA-5386","iso_3166_2":"IT-FI","name":"Firenze","admin":"Italy","adm0_a3":"ITA","type_en":"Province"}},{"type":"Polygon","arcs":[[-2,-9,299,300,301,-36,302]],"id":"ITA-5436","properties":{"adm1_code":"ITA-5436","iso_3166_2":"IT-VC","name":"Vercelli","admin":"Italy","adm0_a3":"ITA","type_en":"Province"}},{"type":"Polygon","arcs":[[-286,-290,303,304,-301,305]],"id":"ITA-5449","properties":{"adm1_code":"ITA-5449","iso_3166_2":"IT-PV","name":"Pavia","admin":"Italy","adm0_a3":"ITA","type_en":"Province"}},{"type":"Polygon","arcs":[[-105,-110,306,-180,-187,307,308]],"id":"ITA-5424","properties":{"adm1_code":"ITA-5424","iso_3166_2":"IT-RI","name":"Rieti","admin":"Italy","adm0_a3":"ITA","type_en":"Province"}},{"type":"Polygon","arcs":[[-8,-14,-287,-306,-300]],"id":"ITA-5438","properties":{"adm1_code":"ITA-5438","iso_3166_2":"IT-NO","name":"Novara","admin":"Italy","adm0_a3":"ITA","type_en":"Province"}},{"type":"Polygon","arcs":[[-37,-302,-305,309,-214,-218,-266]],"id":"ITA-5439","properties":{"adm1_code":"ITA-5439","iso_3166_2":"IT-AL","name":"Alessandria","admin":"Italy","adm0_a3":"ITA","type_en":"Province"}},{"type":"Polygon","arcs":[[-21,-27,-56,310,311,-272]],"id":"ITA-5460","properties":{"adm1_code":"ITA-5460","iso_3166_2":"IT-TN","name":"Trento","admin":"Italy","adm0_a3":"ITA","type_en":"Province"}},{"type":"Polygon","arcs":[[-55,312,-76,313,-311]],"id":"ITA-5465","properties":{"adm1_code":"ITA-5465","iso_3166_2":"IT-VI","name":"Vicenza","admin":"Italy","adm0_a3":"ITA","type_en":"Province"}},{"type":"Polygon","arcs":[[-75,-81,-283,-273,-312,-314]],"id":"ITA-5464","properties":{"adm1_code":"ITA-5464","iso_3166_2":"IT-VR","name":"Verona","admin":"Italy","adm0_a3":"ITA","type_en":"Province"}},{"type":"Polygon","arcs":[[-54,314,-68,-77,-313]],"id":"ITA-5466","properties":{"adm1_code":"ITA-5466","iso_3166_2":"IT-TV","name":"Treviso","admin":"Italy","adm0_a3":"ITA","type_en":"Province"}},{"type":"Polygon","arcs":[[-215,-310,-304,-289,-278,315]],"id":"ITA-5361","properties":{"adm1_code":"ITA-5361","iso_3166_2":"IT-PC","name":"Piacenza","admin":"Italy","adm0_a3":"ITA","type_en":"Province"}},{"type":"Polygon","arcs":[[-207,-211,-216,-316,-277,316]],"id":"ITA-5360","properties":{"adm1_code":"ITA-5360","iso_3166_2":"IT-PR","name":"Parma","admin":"Italy","adm0_a3":"ITA","type_en":"Province"}},{"type":"Polygon","arcs":[[-201,-208,-317,-282,317]],"id":"ITA-5359","properties":{"adm1_code":"ITA-5359","iso_3166_2":"IT-RE","name":"Reggio Emilia","admin":"Italy","adm0_a3":"ITA","type_en":"Province"}},{"type":"Polygon","arcs":[[-85,318,319,-202,-318,-281]],"id":"ITA-5358","properties":{"adm1_code":"ITA-5358","iso_3166_2":"IT-MO","name":"Modena","admin":"Italy","adm0_a3":"ITA","type_en":"Province"}},{"type":"Polygon","arcs":[[-84,-90,-299,320,321,-319]],"id":"ITA-5362","properties":{"adm1_code":"ITA-5362","iso_3166_2":"IT-BO","name":"Bologna","admin":"Italy","adm0_a3":"ITA","type_en":"Province"}},{"type":"Polygon","arcs":[[-203,-320,-322,322,-297]],"id":"ITA-5384","properties":{"adm1_code":"ITA-5384","iso_3166_2":"IT-PT","name":"Pistoia","admin":"Italy","adm0_a3":"ITA","type_en":"Province"}},{"type":"Polygon","arcs":[[-186,-294,323,-308]],"id":"ITA-5433","properties":{"adm1_code":"ITA-5433","iso_3166_2":"IT-TR","name":"Terni","admin":"Italy","adm0_a3":"ITA","type_en":"Province"}},{"type":"Polygon","arcs":[[-49,-96,-100,-106,-309,-324,-293,-295]],"id":"ITA-5432","properties":{"adm1_code":"ITA-5432","iso_3166_2":"IT-PG","name":"Perugia","admin":"Italy","adm0_a3":"ITA","type_en":"Province"}},{"type":"Polygon","arcs":[[-173,-177,-182,324,325]],"id":"ITA-5425","properties":{"adm1_code":"ITA-5425","iso_3166_2":"IT-FR","name":"Frosinone","admin":"Italy","adm0_a3":"ITA","type_en":"Province"}},{"type":"Polygon","arcs":[[-126,-162,-165,-169,-265]],"id":"ITA-5399","properties":{"adm1_code":"ITA-5399","iso_3166_2":"IT-AV","name":"Avellino","admin":"Italy","adm0_a3":"ITA","type_en":"Province"}},{"type":"Polygon","arcs":[[-109,-113,-117,326,-325,-181,-307]],"id":"ITA-5420","properties":{"adm1_code":"ITA-5420","iso_3166_2":"IT-AQ","name":"L'Aquila","admin":"Italy","adm0_a3":"ITA","type_en":"Province"}},{"type":"Polygon","arcs":[[-53,-61,-69,-315]],"id":"ITA-5456","properties":{"adm1_code":"ITA-5456","iso_3166_2":"IT-PN","name":"Pordenone","admin":"Italy","adm0_a3":"ITA","type_en":"Province"}},{"type":"Polygon","arcs":[[-116,-122,-174,-326,-327]],"id":"ITA-5402","properties":{"adm1_code":"ITA-5402","iso_3166_2":"IT-IS","name":"Isernia","admin":"Italy","adm0_a3":"ITA","type_en":"Province"}},{"type":"Polygon","arcs":[[-3,-303,-35]],"id":"ITA-5435","properties":{"adm1_code":"ITA-5435","iso_3166_2":"IT-BI","name":"Biella","admin":"Italy","adm0_a3":"ITA","type_en":"Province"}},{"type":"Polygon","arcs":[[-298,-323,-321]],"id":"ITA-5385","properties":{"adm1_code":"ITA-5385","iso_3166_2":"IT-PO","name":"Prato","admin":"Italy","adm0_a3":"ITA","type_en":"Province"}}]}},"arcs":[[[10262,89070],[44,-205]],[[10306,88865],[65,-1090],[437,-726]],[[10808,87049],[-284,-1216]],[[10524,85833],[-1114,-379],[-1703,253],[-1353,-632],[-2599,-553]],[[3755,84522],[-786,427],[-174,1247],[-1005,395],[-502,790],[153,600],[1419,410],[437,537],[1354,-426],[1506,253],[1507,742],[1288,-537],[1310,110]],[[10262,89070],[1135,569],[284,774],[764,442],[175,663],[-437,632],[961,458],[1616,1358],[480,-142],[-131,-1769],[1485,-1232],[1070,-142]],[[17664,90681],[-88,-916],[-1070,-916],[44,-868]],[[16550,87981],[-1157,410],[-677,-268],[-240,-663]],[[14476,87460],[-240,773],[-1136,901],[-1943,-427],[-851,158]],[[17664,90681],[873,-394],[-546,-806],[852,-347],[327,-1137]],[[19170,87997],[328,-901],[-131,-805],[1069,95]],[[20436,86386],[-65,-363]],[[20371,86023],[-1048,-64],[-764,-458],[-1114,-110]],[[17445,85391],[-480,1263],[-677,1058],[262,269]],[[19170,87997],[786,-79],[480,600],[-480,505],[0,995],[1354,1279],[524,569]],[[21834,91866],[1812,-158],[-131,-537]],[[23515,91171],[-1026,-253],[-349,-1642],[567,-979],[-698,-1122]],[[22009,87175],[-459,-647],[-1114,-142]],[[21834,91866],[371,742],[-65,1690],[1484,63],[109,-1169],[917,-742],[961,0],[1878,758],[546,-142],[677,-1311],[982,411],[-568,632],[350,821],[-917,300],[65,837],[546,726],[786,174],[873,-726],[1310,-48]],[[32139,94882],[372,-489],[1091,-395]],[[33602,93998],[-43,-758],[-765,-316]],[[32794,92924],[-698,63],[-1070,-679],[-240,-537],[-939,-474],[-66,-1105]],[[29781,90192],[-611,316],[-1900,-443],[-2074,79],[-829,-394]],[[24367,89750],[-939,900],[87,521]],[[32139,94882],[66,742],[-742,474],[480,790],[218,1042],[633,-189],[1136,158],[764,-664],[2031,-205],[807,1374],[546,411],[1310,300],[2380,126],[1267,-269],[1659,632],[1594,395],[589,-111],[-764,-710],[699,-1090],[611,-110],[22,-774],[851,-743],[830,-331]],[[49126,96130],[-2161,-774],[-961,695],[-655,-1232],[-1594,-332]],[[43755,94487],[-1245,32],[-742,-1169],[-1004,-252],[-743,-758],[-589,79],[-633,-553],[-721,505],[371,521],[110,1248],[-1332,458],[-1813,-821],[-807,521],[-1005,-300]],[[8908,71320],[437,410],[2205,-142]],[[11550,71588],[-87,-932],[1157,-774]],[[12620,69882],[-1441,-837],[-2227,-600],[-1616,16],[-196,695],[1288,1232],[480,932]],[[8908,71320],[-546,852],[-2052,-537],[-2926,1153],[-305,-63],[-983,1121],[328,790],[-677,648],[851,1484],[830,521]],[[3428,77289],[2423,695],[1420,-205],[939,679],[1244,-190],[393,269],[1201,31]],[[11048,78568],[677,-379],[895,-31],[1135,-964],[-567,-679],[436,-931]],[[13624,75584],[-371,-1074],[-1135,-1074],[65,-1200],[-633,-648]],[[10524,85833],[0,-663],[1223,-822],[0,-426]],[[11747,83922],[-459,-584],[131,-758],[611,-790],[765,-126]],[[12795,81664],[-197,-442]],[[12598,81222],[-830,94],[-1135,-410],[371,-379],[-393,-1437],[437,-522]],[[3428,77289],[-459,1295],[-982,79],[-1157,695],[-44,821],[-524,142],[-262,916],[895,316],[895,-252],[983,758],[851,79],[262,1010],[568,837],[-699,537]],[[48711,69440],[-589,-237],[-546,-963]],[[47576,68240],[-1550,-95]],[[46026,68145],[524,1611],[1375,300],[1092,1295],[0,695]],[[49017,72046],[1463,-1311],[1026,-553]],[[51506,70182],[-196,-868],[-808,-379],[-350,489],[-917,348]],[[49235,69772],[66,189],[0,158],[-546,32],[-87,-47],[-262,-379],[43,-64],[262,-221]],[[48711,69440],[175,-16],[196,64],[110,221],[43,63]],[[51506,70182],[1638,-710],[1921,-1406]],[[55065,68066],[-830,-237],[-917,-1152],[-1768,-1390]],[[51550,65287],[-1288,-300],[-787,789],[-1615,316],[-961,679]],[[46899,66771],[-87,348],[1375,663],[-611,458]],[[49126,96130],[1703,-221],[633,-111]],[[51462,95798],[88,-1026],[-786,-174],[-1376,-1074]],[[49388,93524],[-1397,-1295],[1026,-600],[371,-916],[-655,-663]],[[48733,90050],[-786,379],[-1157,-743],[-1943,-489],[-306,-663],[-1048,-32]],[[43493,88502],[-983,995]],[[42510,89497],[241,1121],[1550,300],[611,616],[-982,742],[-415,679],[720,1169],[-480,363]],[[51462,95798],[699,-300],[1965,-110],[1397,-443],[2075,111],[1877,-426],[-131,-537],[-720,-206],[-1703,-1295],[109,-947],[852,47],[982,-300],[109,-111],[-1004,-916],[-502,-663]],[[57467,89702],[-481,-1121],[153,-1579]],[[57139,87002],[-2445,426],[-524,-537],[218,-584]],[[54388,86307],[-1026,1832]],[[53362,88139],[-568,1137],[612,2827],[-110,695],[-1375,268],[-1354,-174],[-1179,632]],[[57467,89702],[1179,-205],[109,-379],[-131,-316],[-218,-900],[131,-111]],[[58537,87791],[-44,-189]],[[58493,87602],[-633,-695],[-721,95]],[[58537,87791],[938,-347],[655,-269],[961,-1042],[-196,-300],[-1332,-95],[720,237],[-589,821],[-1201,806]],[[54388,86307],[-1266,-221],[-1376,-727],[-2467,-932],[-393,711],[-1419,-647],[-546,-1485],[-502,-158]],[[46419,82848],[-1441,1011],[43,711],[917,1216]],[[45938,85786],[1179,-585],[1027,442],[1419,980],[1179,158],[87,963]],[[50829,87744],[2533,395]],[[46855,82674],[393,-742],[634,-300]],[[47882,81632],[-1114,-489],[-349,-537],[-1572,821]],[[44847,81427],[218,442],[1397,47],[393,758]],[[46419,82848],[436,-174]],[[44847,81427],[-1026,-48],[-721,-379],[-2817,316]],[[40283,81316],[-109,1153],[677,127]],[[40851,82596],[983,-206],[109,1374],[1092,964],[-808,1421],[1441,489]],[[43668,86638],[1113,-726],[1157,-126]],[[47882,81632],[458,-1216],[1266,-916],[-698,-1169],[-437,-268]],[[48471,78063],[-830,679],[-174,695],[-1157,0],[-1223,458],[-1616,-63],[-1616,-758],[-1550,489]],[[40305,79563],[-1899,1090],[131,395]],[[38537,81048],[1026,-142],[720,410]],[[48471,78063],[-851,474],[-372,-1264],[197,-773]],[[47445,76500],[-786,-632],[-917,-126],[-524,442],[-1812,-411]],[[43406,75773],[43,632],[-1026,142],[-568,584],[-2620,1027]],[[39235,78158],[350,631],[-655,759]],[[38930,79548],[1375,15]],[[47445,76500],[393,-2590],[568,-1264]],[[48406,72646],[-1398,-126],[-1572,1105],[-1157,-1437],[-1135,127],[-328,-601]],[[42816,71714],[-568,-126],[-1069,426]],[[41179,72014],[1331,1485],[612,16],[546,726],[-655,1074],[393,458]],[[46026,68145],[-1114,127],[-2118,1026]],[[42794,69298],[-567,1058],[589,774],[0,584]],[[48406,72646],[611,-600]],[[55065,68066],[655,-458],[3035,-1374],[262,-821]],[[59017,65413],[-2948,-632],[-1659,206],[-742,-1169],[-1332,-979]],[[52336,62839],[-895,1658],[109,790]],[[59017,65413],[830,-1753]],[[59847,63660],[-1201,-237],[-1267,-1089],[66,-1185],[-983,63],[-1048,-947],[197,-442]],[[55611,59823],[-131,-427]],[[55480,59396],[-502,-221],[-983,884],[-1135,443],[-153,1184],[-480,442],[109,711]],[[59847,63660],[917,-2163]],[[60764,61497],[-612,94],[-1943,-805],[-1201,-221],[-87,-664],[-852,222],[-458,-300]],[[60764,61497],[436,-1580]],[[61200,59917],[-1615,-410],[-262,-411],[-1267,-95],[-851,-1010],[-786,-127]],[[56419,57864],[-590,537],[-611,-95]],[[55218,58306],[458,316],[-196,774]],[[61200,59917],[328,-995],[1091,-1911],[655,-647]],[[63274,56364],[-1331,79],[-459,-379],[-961,-48],[-502,-726]],[[60021,55290],[-1965,237],[-961,821],[-349,711]],[[56746,57059],[-327,805]],[[63274,56364],[896,-821]],[[64170,55543],[-765,-190],[-786,-1074],[437,-789],[-349,-1406]],[[62707,52084],[-546,-110],[-1092,852],[-786,-110],[393,1121],[-655,1453]],[[64170,55543],[1091,-711],[1441,-1405],[1332,-632],[393,-790]],[[68427,52005],[-174,-616],[-2140,-2274]],[[66113,49115],[-480,584],[-1267,664],[-437,-285]],[[63929,50078],[-938,127],[-284,1879]],[[68427,52005],[1922,-647],[1266,-758]],[[71615,50600],[-306,-980],[0,-979],[-764,-1026],[-699,0],[22,-900],[502,-427]],[[70370,46288],[-1419,-537],[-1877,-505],[-765,142]],[[66309,45388],[-1091,521]],[[65218,45909],[982,1548],[-87,1658]],[[71615,50600],[2555,-237],[1375,205],[1376,-63],[2118,221],[960,-237],[437,-1232],[-1376,-1074],[-873,-379],[-284,-600],[677,-1184]],[[78580,46020],[-87,-316],[502,-1785],[-1376,-947]],[[77619,42972],[-720,-300],[-1485,47],[-306,-521]],[[75108,42198],[-1244,458],[-1026,-16],[-677,458],[371,1042],[-917,158]],[[71615,44298],[-611,585],[196,900],[-830,505]],[[78580,46020],[415,-253],[4410,-1848]],[[83405,43919],[-371,-805],[-895,347],[-502,-331],[-677,-1737],[-480,-585]],[[80480,40808],[-655,-63],[-1114,442],[371,632],[-1463,1153]],[[83405,43919],[415,-268],[3887,-1200],[1855,-980],[961,-837]],[[90523,40634],[-611,-584],[305,-805]],[[90217,39245],[-829,158],[-895,-490],[-1900,-126],[-1157,300],[-590,-158]],[[84846,38929],[-808,410],[-1026,0],[-851,-426],[-1267,1185]],[[80894,40098],[-414,710]],[[90523,40634],[721,-600],[2292,-789],[786,-521],[1376,-411],[262,-900],[524,-379]],[[96484,37034],[-1310,-821],[-1223,-506]],[[93951,35707],[-1572,806],[-1070,236],[-175,1011],[-917,1485]],[[96484,37034],[1703,-1137],[1135,-1264],[677,-1468],[-699,-885],[-349,-1026],[-87,-980],[-1441,253],[-1179,695],[-546,711],[-88,1295],[-589,537],[-109,758],[-1245,363]],[[93667,34886],[284,821]],[[93667,34886],[-2118,95],[-2532,979],[305,932],[-1681,158],[-611,-253],[-939,-979]],[[86091,35818],[-1288,1547],[43,1564]],[[86091,35818],[-1070,-1722],[-808,-884]],[[84213,33212],[-1878,95],[-152,-711]],[[82183,32596],[-44,979],[-633,1185],[-1201,173],[-677,2211],[197,506],[-524,710],[742,379],[-197,964],[1048,395]],[[84213,33212],[-371,-695],[284,-774],[-1179,-1547],[218,-1106],[917,-616],[1048,-47],[808,-648],[1463,-710]],[[87401,27069],[-459,-727],[-917,-521],[-1048,95],[284,-1374],[-1288,-206]],[[83973,24336],[-961,-379],[-153,-868],[-1834,379],[-1397,-521]],[[79628,22947],[-524,2842],[-327,885],[-1070,1200],[-524,1263],[-197,1674],[-306,537]],[[76680,31348],[939,790],[786,-32],[1005,-931],[2314,237],[459,1184]],[[87401,27069],[1157,-695],[-306,-664],[197,-1216],[-175,-1152],[415,-822],[-393,-726],[-873,-221],[-1092,221]],[[86331,21794],[-153,821],[-1659,758],[-546,963]],[[86331,21794],[-1397,-490],[-983,-600],[-589,-884],[283,-2464]],[[83645,17356],[-1244,474],[-44,363]],[[82357,18193],[-742,1027],[327,1026],[-655,506],[-676,-95]],[[80611,20657],[65,837],[-1048,1453]],[[83645,17356],[-109,-489],[-786,-648],[-1070,-458],[-1441,-1516],[-655,-1864],[-2773,-221],[-807,395],[-328,1343],[197,1295],[1157,347],[1070,2179]],[[78100,17719],[1419,474],[1266,-553],[350,-537],[960,95],[-327,616],[589,379]],[[78100,17719],[-590,1485],[1332,632],[1004,-48],[765,869]],[[76680,31348],[-829,1169]],[[75851,32517],[393,1106],[764,1026],[-655,1011],[-961,568],[-873,2117],[-917,726],[-306,869]],[[73296,39940],[219,758],[851,15],[611,411],[131,1074]],[[75851,32517],[-939,300],[-1048,-805],[-1070,347],[-175,411],[-1135,931],[-786,48],[-1048,632],[196,884],[546,616],[-917,1690],[-1157,995],[-1747,-616],[-611,110]],[[65960,38060],[939,600],[-480,869],[676,663]],[[67095,40192],[808,16],[502,-411],[1223,16],[2773,-805],[131,616],[764,316]],[[65960,38060],[-764,95],[786,916],[-1507,1042],[-764,-363],[-1266,348],[-371,963]],[[62074,41061],[1113,395],[1114,-300],[349,552],[1332,-221],[480,300]],[[66462,41787],[350,-31]],[[66812,41756],[283,-1564]],[[66309,45388],[-218,-774],[-568,-616],[22,-1753],[917,-458]],[[62074,41061],[-1332,2021],[-895,853]],[[59847,43935],[502,158],[567,790]],[[60916,44883],[-109,805],[874,490]],[[61681,46178],[655,-727],[676,964],[852,0],[1354,-506]],[[59847,43935],[-1267,158],[-677,-221],[-1594,616],[-1004,-111],[-1354,-537],[-545,995],[-721,664],[-1004,205]],[[51681,45704],[-153,411],[-1288,884],[1222,174],[1572,1295],[721,-1264],[699,-316],[611,379]],[[55065,47267],[764,-537],[437,-1216],[851,-15],[393,521],[699,-379],[502,-806],[830,158],[415,-331],[960,221]],[[51681,45704],[-1288,363],[-1463,1643],[-874,694],[-873,316],[-764,1611],[-1943,1295],[-765,-47],[-720,1216]],[[42991,52795],[851,31],[612,664],[829,-695],[874,-95],[1288,284],[1375,63],[721,1043]],[[49541,54090],[699,-174],[196,-979],[590,-269],[589,379],[830,-773],[1397,94]],[[53842,52368],[-22,-805],[590,-79],[1681,-726]],[[56091,50758],[-961,-964],[-851,95],[-633,-411],[87,-584],[1092,-963],[240,-664]],[[42991,52795],[-699,1137],[-1725,916]],[[40567,54848],[393,568],[764,79],[-21,1201],[698,94],[983,711],[175,837],[-524,584]],[[43035,58922],[1200,490]],[[44235,59412],[721,-900],[-371,-442],[873,-616],[1026,284],[677,-269],[371,-1310],[1441,-853],[109,-332]],[[49082,54974],[459,-884]],[[40567,54848],[-633,316],[-1790,316],[196,773],[-1659,1817],[-830,521],[-1354,379],[393,868],[-611,443]],[[34279,60281],[699,1105],[-590,505]],[[34388,61891],[153,364],[1485,158]],[[36026,62413],[1244,142],[175,-853],[2358,-48],[-22,-805],[764,-442],[481,253],[873,-301],[197,-1421],[939,-16]],[[34279,60281],[-1026,189],[-699,-189],[393,1989],[-262,1137],[-655,1169],[-1004,1011],[-218,821]],[[30808,66408],[1462,553],[219,-2259],[415,-789],[1157,-95],[65,-916],[-349,-537],[611,-474]],[[32074,59365],[-895,-774],[-1594,-253],[-306,616],[1310,16],[1114,631],[371,-236]],[[30808,66408],[-262,2274]],[[30546,68682],[1331,79],[503,-663],[1943,300]],[[34323,68398],[698,-648],[961,-363],[-655,-553],[262,-1452],[764,-190]],[[36353,65192],[437,-663],[-415,-553],[-349,-1563]],[[30546,68682],[-437,995],[-546,537]],[[29563,70214],[742,1042],[-393,506],[44,710],[524,569]],[[30480,73041],[830,47],[1004,-489]],[[32314,72599],[109,-363],[1070,-585]],[[33493,71651],[764,-300],[284,-600],[-568,-537],[-131,-1011],[634,-537]],[[34476,68666],[-153,-268]],[[29563,70214],[-982,711]],[[28581,70925],[240,426],[-1332,727],[-393,789],[-1354,1011]],[[25742,73878],[1223,1137],[829,-47],[1158,-1137],[546,-95]],[[29498,73736],[982,-695]],[[28581,70925],[-546,-48],[-1005,616],[-611,-284],[-2183,1311]],[[24236,72520],[436,647],[-502,427],[-218,821]],[[23952,74415],[1026,142],[764,-679]],[[24236,72520],[-2358,1326],[-852,95],[-2555,616],[-851,-32],[-786,-410]],[[16834,74115],[-371,410],[524,616],[-721,269]],[[16266,75410],[415,679],[1856,-253],[371,758],[677,411],[1594,-979],[458,316]],[[21637,76342],[1791,-190],[633,-410]],[[24061,75742],[-328,-790],[219,-537]],[[13624,75584],[131,-127]],[[13755,75457],[1048,-142],[1463,95]],[[16834,74115],[-1397,-742],[-481,-1058],[-1463,-869],[-873,-1564]],[[52685,8781],[-1637,-111],[-874,727],[-895,426],[-524,1106],[655,2053],[611,584],[1245,521],[1485,-948],[633,158]],[[53384,13297],[611,-868],[-873,-1058],[1201,-695],[-503,-284]],[[53820,10392],[-1026,-506],[-109,-1105]],[[63515,13124],[786,-111],[1332,332],[676,-48],[1027,364],[829,726],[1463,284],[1528,-568],[743,268],[568,585],[1310,142],[938,631],[612,-552],[-721,-1485],[-895,-1042],[-1113,-1627]],[[72598,11023],[-612,632],[-764,300],[-983,-111],[-436,616],[-808,64],[-590,-316],[-174,-1074]],[[68231,11134],[-1157,-95],[-568,584],[-633,-631],[-437,552],[-1092,-205]],[[64344,11339],[-21,774],[-808,1011]],[[53384,13297],[786,458],[262,948],[895,-142],[873,426],[677,-1121],[1026,63],[284,-521],[874,-521],[1179,-269],[1921,727],[1354,-221]],[[64344,11339],[-131,-1311],[-764,-300],[-327,-537]],[[63122,9191],[-415,253],[-917,-569],[-590,222],[-196,663],[-590,489],[-677,-410]],[[59737,9839],[-1113,-379],[-1288,31],[-1834,-173],[-219,426],[-1070,205],[-393,443]],[[59737,9839],[743,-521],[-721,-427],[-415,-821],[459,-647],[830,47],[371,-742],[1157,-790],[-240,-853],[415,-710]],[[62336,4375],[-1223,-127],[-1790,853],[-961,805],[-961,237],[-1485,916],[-873,885],[-1244,63],[-437,616],[-677,158]],[[63122,9191],[65,-1279],[-546,-521],[109,-790],[1485,-47],[721,-347]],[[64956,6207],[305,-1169],[699,-474],[-240,-774]],[[65720,3790],[-917,-505]],[[64803,3285],[-1747,1074],[-720,16]],[[65720,3790],[1070,32],[1135,632],[742,94]],[[68667,4548],[350,-868],[567,-490],[219,-1042],[-546,-553],[895,-284],[262,-885]],[[70414,426],[-1004,269],[-852,-300],[-1026,521],[-1441,379],[-786,1453],[-502,537]],[[68667,4548],[-65,727],[611,600],[-415,442],[786,900],[1594,-489]],[[71178,6728],[1048,-711],[-283,-742],[1244,-1737],[-1310,-790],[-677,-1390],[350,-1074],[-525,-284],[-611,426]],[[72598,11023],[-808,-2305],[-568,-695],[-44,-1295]],[[64956,6207],[1834,536],[65,869],[-284,869],[1223,126],[699,-505],[524,900],[-1005,963],[219,1169]],[[16659,22031],[-436,979],[-459,63],[-1113,1611],[458,505],[-437,916],[197,648]],[[14869,26753],[1113,316],[1070,-964],[350,-31]],[[17402,26074],[480,-1627],[786,-1137],[-306,-395],[-1310,-110],[-393,-774]],[[14825,36023],[-677,1595],[-808,-79],[-633,521],[437,664],[-502,331],[851,1737],[633,-568],[1769,-221],[1026,663],[1419,426]],[[18340,41092],[1310,111],[503,-1627],[-66,-995],[1376,-300],[65,-1058]],[[21528,37223],[590,-316],[-633,-1279],[-1551,-521],[-502,537],[-1135,-95],[-1550,-426]],[[16747,35123],[-765,900],[-1157,0]],[[21528,37223],[1092,127],[873,995],[1267,347],[1484,-284]],[[26244,38408],[22,-537],[633,-821],[-655,-1359],[-1048,-1105],[22,-363]],[[25218,34223],[-808,-79],[-873,-1090],[-1070,-584],[-175,-1201]],[[22292,31269],[-698,-236],[-328,-601]],[[21266,30432],[0,316],[-1310,521],[-153,1295],[502,174],[-371,1248],[-305,142],[-1638,-158],[-808,237],[-436,916]],[[18340,41092],[1813,1801],[1113,395],[612,900],[2641,-1358],[-21,-806],[371,-395],[-109,-868],[917,-395],[-175,-537],[742,-1421]],[[21266,30432],[-808,-126],[-502,-537]],[[19956,29769],[-589,174],[-743,-1074],[-1397,-316],[-1092,616]],[[16135,29169],[-371,221],[262,474],[175,790],[-524,568],[-808,-63],[22,1390],[764,521],[-262,1074],[22,947],[-655,348],[65,584]],[[14869,26753],[546,1247],[-153,1738],[611,-537],[262,-32]],[[19956,29769],[459,-79],[-131,-1090],[-393,-884],[87,-663],[-633,-742],[-1245,31],[-698,-268]],[[22292,31269],[-65,-631],[699,-727],[371,-1200],[2074,-979]],[[25371,27732],[-22,-616],[-633,-2369],[-87,-932],[-896,-158],[-895,695],[-786,285],[-720,-380],[-743,253],[-502,-632],[218,-916],[-218,-536],[-1485,-1106],[-1943,711]],[[25218,34223],[218,-774],[655,-585],[-327,-868],[22,-1358],[-393,-2038],[-22,-868]],[[71615,44298],[-1288,-31],[-219,-916],[241,-663],[-1332,-664],[-1987,127],[-218,-395]],[[12598,81222],[131,-695],[1354,205],[699,-1042],[-131,-948],[1069,-932],[-1288,-742],[-677,-1611]],[[29781,90192],[284,-506],[-720,-489],[109,-869],[-590,-758],[88,-647],[-1201,-490],[-612,-821],[284,-1469]],[[27423,84143],[-2729,300],[-458,521]],[[24236,84964],[-131,1280]],[[24105,86244],[-110,252]],[[23995,86496],[-283,743],[152,884],[612,995],[-109,632]],[[32794,92924],[524,-1042],[-262,-1106],[-829,-1311],[480,-616],[44,-726],[458,-442],[1267,505],[982,-142]],[[35458,88044],[-1681,-2148],[131,-1832]],[[33908,84064],[-371,-347],[-939,252],[-917,-1484],[-655,-474]],[[31026,82011],[-2598,869],[-917,537],[-88,726]],[[31026,82011],[611,-505],[197,-679],[1004,-111],[44,-979],[-306,-458]],[[32576,79279],[-742,616],[-546,0],[-1397,600],[-939,-95]],[[28952,80400],[-721,885],[-873,47]],[[27358,81332],[-1485,1248],[-2009,1105],[44,695]],[[23908,84380],[328,584]],[[38930,79548],[-786,-158],[-677,284],[-1659,-458]],[[35808,79216],[-1747,711],[-393,-458],[-1092,-190]],[[33908,84064],[371,-853],[2424,-1310],[698,-901],[1136,48]],[[20371,86023],[437,-301],[1703,-505],[1310,584],[284,443]],[[23908,84380],[-1113,-1327]],[[22795,83053],[-1005,143],[-1485,-237],[-524,-363],[-1266,1373]],[[18515,83969],[-1070,1422]],[[23995,86496],[-1419,-63],[-567,742]],[[27358,81332],[-1681,-568],[-1158,552]],[[24519,81316],[-1921,1185],[197,552]],[[36353,65192],[197,663],[633,158],[1201,-489],[1725,584]],[[40109,66108],[1157,-916],[0,-569],[1026,-694],[786,-806],[1114,-726],[589,126]],[[44781,62523],[-305,-490],[502,-726],[-371,-1690]],[[44607,59617],[-372,-205]],[[46899,66771],[-589,-1232],[-830,-694],[808,-569],[218,-900],[-1135,-205],[-590,-648]],[[40109,66108],[917,379],[851,1058],[-240,569],[437,852],[720,332]],[[34476,68666],[1069,-173],[918,158]],[[36463,68651],[807,-16],[655,410],[524,2417]],[[38449,71462],[1616,1216],[1114,-664]],[[14476,87460],[-350,-727],[699,-868],[109,-1753],[896,-1059]],[[15830,83053],[371,-1421]],[[16201,81632],[-1267,379],[-589,-316],[-1550,-31]],[[11747,83922],[720,-253],[1266,1216],[153,1517],[-829,758],[-874,-190],[-1375,79]],[[24519,81316],[-1004,-300],[-1026,-1958],[437,-679],[-393,-1248],[-896,-142]],[[21637,76989],[-524,1295],[-2161,1769],[-1791,237],[-960,1342]],[[15830,83053],[283,490],[961,-458],[1441,884]],[[56746,57059],[-327,-284],[-1267,110],[-436,-458],[371,-1326],[-131,-601],[1288,-1358],[-699,-647],[-1135,426],[-568,-553]],[[49082,54974],[524,-174],[1594,1153],[1376,727],[175,426]],[[52751,57106],[2117,348],[350,852]],[[21637,76989],[0,-647]],[[42510,89497],[-1593,268],[-1813,-900],[-1244,-2100]],[[37860,86765],[-2140,158],[197,647],[-459,474]],[[43493,88502],[-480,-379],[742,-774],[-87,-711]],[[40851,82596],[-1070,868],[-240,1216],[-1681,2085]],[[48733,90050],[175,-727],[655,-410],[393,-822],[873,-347]],[[28952,80400],[-612,-726],[66,-853],[-939,-600],[-1092,-995],[-1070,-379],[-1244,-1105]],[[32576,79279],[-327,-253],[-524,-3111],[-2227,-2179]],[[35808,79216],[-612,-1027],[22,-1405],[-371,-979],[-1485,-1832],[-524,-127],[-524,-1247]],[[39235,78158],[-1375,-221],[-437,-1280],[437,-442],[-109,-631],[-1048,-869],[436,-332],[-196,-979],[-524,-726],[-786,-16],[-415,-1121]],[[35218,71541],[-917,458],[-808,-348]],[[38449,71462],[-1288,-127]],[[37161,71335],[-1048,-237],[-895,443]],[[37161,71335],[-262,-931],[-109,-1595],[-327,-158]],[[44607,59617],[1135,648],[1965,-221],[218,-253],[-240,-1358],[1245,-537],[436,395],[1048,-474],[917,-774],[1005,648],[415,-585]],[[56091,50758],[611,-427],[284,-695],[1463,-584],[568,395],[830,-537],[1244,-300],[459,-348]],[[61550,48262],[393,-568],[131,-964],[-393,-552]],[[63929,50078],[-720,-600],[262,-521],[-1921,-695]]],"bbox":[6.630233379716088,36.65846189943697,18.51767471034816,47.07920695215435],"transform":{"scale":[0.00011887560206234135,0.00010420849261209992],"translate":[6.630233379716088,36.65846189943697]}}