{"type":"Topology","objects":{"a1":{"type":"GeometryCollection","geometries":[{"type":"Polygon","arcs":[[0,1,2,3,4]],"id":"JAM-1379","properties":{"adm1_code":"JAM-1379","iso_3166_2":"JM-06","name":"Saint Ann","admin":"Jamaica","adm0_a3":"JAM","type_en":"Parish"}},{"type":"Polygon","arcs":[[-5,5,6,7,8]],"id":"JAM-1375","properties":{"adm1_code":"JAM-1375","iso_3166_2":"JM-07","name":"Trelawny","admin":"Jamaica","adm0_a3":"JAM","type_en":"Parish"}},{"type":"Polygon","arcs":[[-8,9,10,11,12]],"id":"JAM-1374","properties":{"adm1_code":"JAM-1374","iso_3166_2":"JM-08","name":"Saint James","admin":"Jamaica","adm0_a3":"JAM","type_en":"Parish"}},{"type":"Polygon","arcs":[[-12,13,14]],"id":"JAM-1371","properties":{"adm1_code":"JAM-1371","iso_3166_2":"JM-09","name":"Hanover","admin":"Jamaica","adm0_a3":"JAM","type_en":"Parish"}},{"type":"Polygon","arcs":[[-11,15,16,-14]],"id":"JAM-1376","properties":{"adm1_code":"JAM-1376","iso_3166_2":"JM-10","name":"Westmoreland","admin":"Jamaica","adm0_a3":"JAM","type_en":"Parish"}},{"type":"Polygon","arcs":[[-7,17,18,-16,-10]],"id":"JAM-1373","properties":{"adm1_code":"JAM-1373","iso_3166_2":"JM-11","name":"Saint Elizabeth","admin":"Jamaica","adm0_a3":"JAM","type_en":"Parish"}},{"type":"Polygon","arcs":[[-6,19,20,-18]],"id":"JAM-1372","properties":{"adm1_code":"JAM-1372","iso_3166_2":"JM-12","name":"Manchester","admin":"Jamaica","adm0_a3":"JAM","type_en":"Parish"}},{"type":"Polygon","arcs":[[-4,21,22,-20]],"id":"JAM-1370","properties":{"adm1_code":"JAM-1370","iso_3166_2":"JM-13","name":"Clarendon","admin":"Jamaica","adm0_a3":"JAM","type_en":"Parish"}},{"type":"Polygon","arcs":[[-3,23,24,25,-22]],"id":"JAM-1380","properties":{"adm1_code":"JAM-1380","iso_3166_2":"JM-14","name":"Saint Catherine","admin":"Jamaica","adm0_a3":"JAM","type_en":"Parish"}},{"type":"Polygon","arcs":[[-25,26,27,28,29,30,31]],"id":"JAM-1382","properties":{"adm1_code":"JAM-1382","iso_3166_2":"JM-02","name":"Saint Andrew","admin":"Jamaica","adm0_a3":"JAM","type_en":"Parish"}},{"type":"Polygon","arcs":[[-31,32]],"id":"JAM-1377","properties":{"adm1_code":"JAM-1377","iso_3166_2":"JM-01","name":"Kingston","admin":"Jamaica","adm0_a3":"JAM","type_en":"Parish"}},{"type":"Polygon","arcs":[[-29,33,34]],"id":"JAM-1383","properties":{"adm1_code":"JAM-1383","iso_3166_2":"JM-03","name":"Saint Thomas","admin":"Jamaica","adm0_a3":"JAM","type_en":"Parish"}},{"type":"Polygon","arcs":[[-28,35,36,-34]],"id":"JAM-1378","properties":{"adm1_code":"JAM-1378","iso_3166_2":"JM-04","name":"Portland","admin":"Jamaica","adm0_a3":"JAM","type_en":"Parish"}},{"type":"Polygon","arcs":[[-2,37,-36,-27,-24]],"id":"JAM-1381","properties":{"adm1_code":"JAM-1381","iso_3166_2":"JM-05","name":"Saint Mary","admin":"Jamaica","adm0_a3":"JAM","type_en":"Parish"}}]}},"arcs":[[[40865,94671],[8894,-2049],[6250,-6352],[3125,614]],[[59134,86884],[962,-11475],[2403,-9836]],[[62499,65573],[-3726,-5123],[-6129,-1844]],[[52644,58606],[-7813,2049],[-5168,-820]],[[39663,59835],[1803,22336],[-601,12500]],[[39663,59835],[-4928,5123],[-2043,-2049]],[[32692,62909],[-6490,1640]],[[26202,64549],[2163,33811]],[[28365,98360],[12500,-3689]],[[26202,64549],[-5289,-4918]],[[20913,59631],[-1202,12499]],[[19711,72130],[-3966,14549],[361,4304]],[[16106,90983],[4447,9016],[7812,-1639]],[[19711,72130],[-4927,1230],[-3366,4098],[-5769,0],[-1923,-5532],[-3726,614]],[[0,72540],[721,8607],[4688,9426],[10697,410]],[[20913,59631],[-1923,-5328],[-1322,-12705]],[[17668,41598],[-5048,18442],[-7091,-819],[-5289,3688],[-240,9631]],[[32692,62909],[240,-11270],[3246,-34016]],[[36178,17623],[-7332,-410],[-5409,11885],[-240,8402],[-5529,4098]],[[39663,59835],[5168,-28278],[962,-9016],[-1683,-5533]],[[44110,17008],[-7932,615]],[[52644,58606],[3485,-37500]],[[56129,21106],[-3726,-21106],[-4928,12090],[-3365,4918]],[[62499,65573],[1923,205],[3847,-11885]],[[68269,53893],[-842,-15164],[1923,-4303]],[[69350,34426],[-3005,-16393],[-1923,-3484],[-6370,8607],[-1923,-2050]],[[68269,53893],[5649,-1230]],[[73918,52663],[721,-5942],[4928,-2254]],[[79567,44467],[600,-11271],[-1923,-6557]],[[78244,26639],[-3245,2869]],[[74999,29508],[-2524,5328],[-1442,-3074]],[[71033,31762],[-1683,2664]],[[74999,29508],[-3966,2254]],[[79567,44467],[4326,-5943],[3847,1844],[4927,-5737],[4087,205]],[[96754,34836],[3245,-10041],[-5529,-5533],[-10096,-1229],[-4086,1639],[-2044,6967]],[[73918,52663],[2283,15984]],[[76201,68647],[3245,-5123],[12981,-8811],[4327,-19877]],[[59134,86884],[8053,-614],[240,-4099],[5890,-12909],[2884,-615]]],"bbox":[-78.34680355585034,17.716141059769086,-76.1873382311591,18.519255965916614],"transform":{"scale":[0.000021594869195604357,0.000008031229373769014],"translate":[-78.34680355585034,17.716141059769086]}}