{"type":"Topology","objects":{"a1":{"type":"GeometryCollection","geometries":[{"type":"Polygon","arcs":[[0]],"id":"KAS+00?","properties":{"adm1_code":"KAS+00?","iso_3166_2":"-99-X06~","name":"Kashmir","admin":"Siachen Glacier","adm0_a3":"KAS","type_en":null}}]}},"arcs":[[[99999,71778],[-73350,-71778],[-26649,99999],[11675,-10429],[13959,-921],[6599,-8895],[14213,-1227],[15736,-11657],[9645,1841],[14720,-3681],[13452,6748]]],"bbox":[76.77651927527563,35.109832541476294,77.79915069105488,35.64633963041909],"transform":{"scale":[0.000010226416421956664,0.00000536512454067339],"translate":[76.77651927527563,35.109832541476294]}}