{"type":"Topology","objects":{"a1":{"type":"GeometryCollection","geometries":[{"type":"Polygon","arcs":[[0,1,2,3]],"id":"KOR-2496","properties":{"adm1_code":"KOR-2496","iso_3166_2":"KR-42","name":"Gangwon","admin":"South Korea","adm0_a3":"KOR","type_en":"Province"}},{"type":"MultiPolygon","arcs":[[[-3,4,5,6,7,8],[9]],[[10]]],"id":"KOR-2498","properties":{"adm1_code":"KOR-2498","iso_3166_2":"KR-41","name":"Gyeonggi","admin":"South Korea","adm0_a3":"KOR","type_en":"Province"}},{"type":"MultiPolygon","arcs":[[[11]],[[-6,12,13,14,15,16,17]]],"id":"KOR-2502","properties":{"adm1_code":"KOR-2502","iso_3166_2":"KR-44","name":"South Chungcheong","admin":"South Korea","adm0_a3":"KOR","type_en":"Province"}},{"type":"MultiPolygon","arcs":[[[-8,18]],[[19]]],"id":"KOR-2495","properties":{"adm1_code":"KOR-2495","iso_3166_2":"KR-28","name":"Incheon","admin":"South Korea","adm0_a3":"KOR","type_en":"Metropolitan City"}},{"type":"Polygon","arcs":[[-17,20,21,22,23,24]],"id":"KOR-2499","properties":{"adm1_code":"KOR-2499","iso_3166_2":"KR-45","name":"North Jeolla","admin":"South Korea","adm0_a3":"KOR","type_en":"Province"}},{"type":"MultiPolygon","arcs":[[[-24,25,26],[27]],[[28]]],"id":"KOR-2506","properties":{"adm1_code":"KOR-2506","iso_3166_2":"KR-46","name":"South Jeolla","admin":"South Korea","adm0_a3":"KOR","type_en":"Metropolitan City"}},{"type":"MultiPolygon","arcs":[[[-23,29,30,31,32,33,-26]],[[34]],[[35]]],"id":"KOR-2505","properties":{"adm1_code":"KOR-2505","iso_3166_2":"KR-48","name":"South Gyeongsang","admin":"South Korea","adm0_a3":"KOR","type_en":"Province"}},{"type":"Polygon","arcs":[[-33,36]],"id":"KOR-2507","properties":{"adm1_code":"KOR-2507","iso_3166_2":"KR-26","name":"Busan","admin":"South Korea","adm0_a3":"KOR","type_en":"Metropolitan City"}},{"type":"Polygon","arcs":[[-31,37,38]],"id":"KOR-2508","properties":{"adm1_code":"KOR-2508","iso_3166_2":"KR-31","name":"Ulsan","admin":"South Korea","adm0_a3":"KOR","type_en":"Metropolitan City"}},{"type":"Polygon","arcs":[[-1,39,-38,-30,-22,40],[41]],"id":"KOR-2509","properties":{"adm1_code":"KOR-2509","iso_3166_2":"KR-47","name":"North Gyeongsang","admin":"South Korea","adm0_a3":"KOR","type_en":"Metropolitan City"}},{"type":"Polygon","arcs":[[42]],"id":"KOR-2510","properties":{"adm1_code":"KOR-2510","iso_3166_2":"KR-49","name":"Jeju","admin":"South Korea","adm0_a3":"KOR","type_en":"Province"}},{"type":"Polygon","arcs":[[-10]],"id":"KOR-2497","properties":{"adm1_code":"KOR-2497","iso_3166_2":"KR-11","name":"Seoul","admin":"South Korea","adm0_a3":"KOR","type_en":"Capital Metropolitan City"}},{"type":"Polygon","arcs":[[-15,43,44]],"id":"KOR-2503","properties":{"adm1_code":"KOR-2503","iso_3166_2":"KR-30","name":"Daejeon","admin":"South Korea","adm0_a3":"KOR","type_en":"Metropolitan City"}},{"type":"Polygon","arcs":[[-14,45,-44]],"id":"KOR-5129","properties":{"adm1_code":"KOR-5129","iso_3166_2":"KR-50","name":"Sejong","admin":"South Korea","adm0_a3":"KOR","type_en":"Special self-governing city"}},{"type":"Polygon","arcs":[[-2,-41,-21,-16,-45,-46,-13,-5]],"id":"KOR-2494","properties":{"adm1_code":"KOR-2494","iso_3166_2":"KR-43","name":"North Chungcheong","admin":"South Korea","adm0_a3":"KOR","type_en":"Province"}},{"type":"Polygon","arcs":[[-28]],"id":"KOR-2500","properties":{"adm1_code":"KOR-2500","iso_3166_2":"KR-29","name":"Gwangju","admin":"South Korea","adm0_a3":"KOR","type_en":"Metropolitan City"}},{"type":"Polygon","arcs":[[-42]],"id":"KOR-2504","properties":{"adm1_code":"KOR-2504","iso_3166_2":"KR-27","name":"Daegu","admin":"South Korea","adm0_a3":"KOR","type_en":"Metropolitan City"}}]}},"arcs":[[[95291,62985],[-2243,-91],[-1644,819],[-75,3004],[-3363,394],[-2092,1426],[-1047,1942],[-7399,1274],[-1345,-1790],[-3064,485]],[[73019,70448],[-4111,971],[-2466,-212],[-2915,2063],[-3737,516],[-4409,-971],[-1420,1244],[-2018,-577],[-8969,-1031]],[[42974,72451],[6428,6978],[-6129,1547],[-2242,213],[523,1334],[-598,2124],[2541,1639],[-3438,1243],[-1569,2064],[-4484,424],[-3438,-182],[-2691,850],[-3363,1729]],[[24514,92414],[5531,1729],[6278,213],[2765,-425],[8146,546],[1345,-576],[6876,182],[3812,940],[2765,1821],[150,2154],[2616,1001],[5680,-6189],[2018,-2670],[8370,-6311],[4036,-2275],[2466,-3216],[5232,-4096],[2392,-4703],[672,-3155],[972,-1547],[-1345,-2852]],[[42974,72451],[-2541,-2154],[-1495,-91],[-2466,-1730],[-3513,-667]],[[32959,67809],[-3662,849],[-4933,-364]],[[24364,68294],[-3512,1305],[598,1213],[-2990,122],[-1495,1395],[-1270,2397],[3812,-576],[896,1335],[-2615,212],[-374,1305]],[[17414,77002],[2167,1213],[-2690,2003],[-2840,-61]],[[14051,80157],[-1196,1092],[-897,2700],[4484,364],[-523,1002],[-75,2002],[2766,759],[5157,3610],[747,728]],[[28849,80187],[-748,2397],[-1943,-61],[-4409,-2154],[-822,-1517],[2316,-910],[6428,546],[1345,1305],[-2167,394]],[[11360,81037],[-2840,91],[-1196,3398],[1645,698],[2765,-1335],[-374,-2852]],[[8371,60072],[-1794,-394],[-822,2639],[1345,516],[1271,-2761]],[[32959,67809],[2317,-2094],[-2690,-2214]],[[32586,63501],[-4111,849],[-673,-940],[150,-2792],[1868,-880],[2018,274]],[[31838,60012],[2018,-1760],[748,-2336],[3811,1062],[972,1517]],[[39387,58495],[-449,-3125],[2616,-334],[523,-1821],[1271,-1061]],[[43348,52154],[-1420,-668],[-3961,-121],[-2691,2063],[-6502,-789],[-1420,1396],[-5979,-728],[-1271,-820]],[[20104,52487],[-3438,-880],[-4558,4036],[1046,1608],[-2093,2093],[-822,2215],[-1345,1213],[-6353,1851],[-2093,1153],[2840,1911],[3065,-879],[2317,1395],[-1495,1851],[1868,152],[1495,-1487],[2466,1153],[4260,30],[2392,-667],[1794,-1608],[2914,667]],[[17414,77002],[-3588,1153],[225,2002]],[[12930,79520],[-3438,-1730],[-2541,850],[4185,1183],[1794,-303]],[[43348,52154],[3886,-1002],[3513,577]],[[50747,51729],[1046,-2215]],[[51793,49514],[-1345,-971],[-2765,-576],[-1869,-1244],[-2167,-3914],[1644,-2518],[-2018,-2033]],[[43273,38258],[-3513,1062],[-1868,-789],[-4858,182],[-3886,-303],[-2616,2670],[-1644,-850],[-3214,1456],[-2167,-576],[-1196,-1669],[-5232,-728],[449,1669],[-4261,-395]],[[9267,39987],[-523,456],[2766,3367],[-1346,1153],[3737,1365],[3887,3156],[-3438,91],[-150,758],[3961,1092],[1943,1062]],[[43273,38258],[822,-2215],[4111,-2730],[448,-941]],[[48654,32372],[-1719,61],[-2989,-1123],[1719,-1062],[2167,-212],[-747,-1699],[-3214,-728],[-1569,880],[-2093,2548],[-3588,-2275],[598,-1123],[2691,-1608],[-5306,-3094],[-2691,1881],[1943,3216],[-4110,-546],[-3962,-1457],[-448,-1335],[-3139,-2214],[-2167,576],[-5232,-1153],[-673,-1244],[-2092,-546],[-1495,1062],[299,2943],[-4783,1122],[-1570,1335],[598,1972],[2093,0],[1345,1760],[-1046,3155],[2167,941],[-2466,2215],[-75,1517],[2167,1850]],[[25112,37560],[-4709,-91],[748,-880],[3363,-667],[598,1638]],[[7623,23908],[-971,-1639],[-3887,-910],[-2765,1426],[4634,1851],[2989,-728]],[[51793,49514],[1495,-1092],[4559,-637],[2691,-1608],[74,-1699],[3513,-61],[2317,-576],[2317,333],[3213,-971],[5083,-273],[3512,1123],[2766,-212]],[[83333,43841],[-150,-1942],[1719,-122],[5904,-2791]],[[90806,38986],[-2018,-2791]],[[88788,36195],[-2989,1972],[-2392,-607],[-1420,-1941]],[[81987,35619],[-1270,-941],[-11286,394],[-1793,-576],[1046,-1153],[-1719,-819],[-150,-2245],[-6053,1760],[-523,-880],[-4111,667],[-1271,1305],[-3736,-941],[-2467,182]],[[56277,29763],[-224,-1972],[-5530,243],[-1121,2730],[2167,0],[1644,-1153],[3064,152]],[[75859,30764],[-3737,-2639],[-3737,2639],[5904,2154],[1570,-2154]],[[88788,36195],[-2242,-273],[-3512,-1365],[-1047,1062]],[[83333,43841],[2615,1608],[4186,-31],[1195,-940],[5008,-61]],[[96337,44417],[-150,-1790],[-2765,-1123],[75,-1820],[-2691,-698]],[[95291,62985],[523,-3853],[-1570,-1578],[-149,-2215],[1494,-3792],[3139,1274],[1271,-910],[-1495,-1426],[-2167,-6068]],[[50747,51729],[2616,1608],[-523,2306],[-3438,1335],[1644,3458],[-2541,1153],[1868,1821],[4634,1426],[897,1061],[4185,31],[1046,1001],[2990,-1305],[2392,516],[1195,2245],[5307,2063]],[[75635,48816],[149,2185],[-1569,789],[-3289,-183],[-2765,-3185],[5979,-728],[1495,1122]],[[23916,5097],[-149,-849],[-2840,-2246],[-10688,-1486],[-3961,182],[-1345,-698],[-3289,1274],[972,1942],[3064,1638],[5007,1032],[8820,819],[4409,-1608]],[[31838,60012],[3812,424]],[[35650,60436],[3737,-1941]],[[32586,63501],[-972,-2033],[4260,152],[-224,-1184]]],"bbox":[126.11459181981388,33.20078891210923,129.58738581553126,38.62510598313838],"transform":{"scale":[0.00003472828724004622,0.00005424371314742298],"translate":[126.11459181981388,33.20078891210923]}}