{"type":"Topology","objects":{"a1":{"type":"GeometryCollection","geometries":[{"type":"Polygon","arcs":[[0,1,2]],"id":"LBN-3059","properties":{"adm1_code":"LBN-3059","iso_3166_2":"LB-NA","name":"An Nabatiyah","admin":"Lebanon","adm0_a3":"LBN","type_en":"Province"}},{"type":"Polygon","arcs":[[3,4,5,-1]],"id":"LBN-3060","properties":{"adm1_code":"LBN-3060","iso_3166_2":"LB-JA","name":"South Lebanon","admin":"Lebanon","adm0_a3":"LBN","type_en":"Province"}},{"type":"Polygon","arcs":[[-2,-6,6,7,8]],"id":"LBN-3022","properties":{"adm1_code":"LBN-3022","iso_3166_2":"LB-BI","name":"Beqaa","admin":"Lebanon","adm0_a3":"LBN","type_en":"Province"}},{"type":"Polygon","arcs":[[-8,9,10]],"id":"LBN-3023","properties":{"adm1_code":"LBN-3023","iso_3166_2":"LB-AS","name":"North Lebanon","admin":"Lebanon","adm0_a3":"LBN","type_en":"Province"}},{"type":"Polygon","arcs":[[-5,11,12,13,-10,-7]],"id":"LBN-3025","properties":{"adm1_code":"LBN-3025","iso_3166_2":"LB-JL","name":"Mount Lebanon","admin":"Lebanon","adm0_a3":"LBN","type_en":"Province"}},{"type":"Polygon","arcs":[[-13,14]],"id":"LBN-3024","properties":{"adm1_code":"LBN-3024","iso_3166_2":"LB-BA","name":"Beirut","admin":"Lebanon","adm0_a3":"LBN","type_en":"Province"}}]}},"arcs":[[[12305,2535],[173,2536],[8492,8418],[-6932,5983],[6932,6390],[7279,1420],[-346,-7100],[7452,2942]],[[35355,23124],[5372,2941],[8666,-3854]],[[49393,22211],[-1560,-710],[-14558,-10041],[-3639,2333],[-4680,-11967],[-9878,-1826],[-2773,2535]],[[12305,2535],[-12305,-608],[4679,4969],[6413,17749],[5199,3448],[1906,4665]],[[18197,32758],[6586,-1115],[7972,2129],[1213,-5882]],[[33968,27890],[1387,-4766]],[[33968,27890],[10399,18357],[12305,11359],[3813,9838]],[[60485,67444],[12478,12880],[3466,6186],[5373,2333]],[[81802,88843],[5892,-101],[7452,-5173],[-1039,-3245],[4332,-4564],[1560,-5375],[-7626,-6897],[-6585,-2637],[-8146,-8316],[2773,-2333],[-17331,-3448],[-6932,-7099],[-1733,-3753],[6239,-2028],[347,-3347],[-5720,-1521],[-4159,-5984],[-1733,-811]],[[60485,67444],[-10745,2434],[-7453,-305],[-6239,1927]],[[36048,71500],[10745,14807],[6413,1217],[5372,3753],[-866,6795],[9532,-1217],[9878,-101],[4160,3245],[4332,-5172],[-3812,-5984]],[[18197,32758],[6586,13185],[347,3854]],[[25130,49797],[4332,2535]],[[29462,52332],[4506,5274],[2253,7809],[-173,6085]],[[25130,49797],[-694,2231],[5026,304]]],"bbox":[35.105586837874284,33.05761063990671,36.60319680463732,34.68029772486871],"transform":{"scale":[0.000014976249430124667,0.000016227033119951154],"translate":[35.105586837874284,33.05761063990671]}}