{"type":"Topology","objects":{"a1":{"type":"GeometryCollection","geometries":[{"type":"Polygon","arcs":[[0,1,2,3,4,5,6]],"id":"LIE-4893","properties":{"adm1_code":"LIE-4893","iso_3166_2":"LI-09","name":"Triesen","admin":"Liechtenstein","adm0_a3":"LIE","type_en":null}},{"type":"MultiPolygon","arcs":[[[7,-6,8,9]],[[10,11,12,13,14]],[[15,16,17,18,19,20]]],"id":"LIE-4896","properties":{"adm1_code":"LIE-4896","iso_3166_2":"LI-07","name":"Schaan","admin":"Liechtenstein","adm0_a3":"LIE","type_en":null}},{"type":"MultiPolygon","arcs":[[[21,-10,22,-12]],[[-4,23,24,-14,25]]],"id":"LIE-4892","properties":{"adm1_code":"LIE-4892","iso_3166_2":"LI-10","name":"Triesenberg","admin":"Liechtenstein","adm0_a3":"LIE","type_en":null}},{"type":"MultiPolygon","arcs":[[[26,-15,27]],[[28,-1]]],"id":"LIE-4894","properties":{"adm1_code":"LIE-4894","iso_3166_2":"LI-01","name":"Balzers","admin":"Liechtenstein","adm0_a3":"LIE","type_en":null}},{"type":"MultiPolygon","arcs":[[[29,-28,-25,-17]],[[30,-21,31]]],"id":"LIE-4901","properties":{"adm1_code":"LIE-4901","iso_3166_2":"LI-05","name":"Planken","admin":"Liechtenstein","adm0_a3":"LIE","type_en":null}},{"type":"Polygon","arcs":[[32,-32,33,34,35]],"id":"LIE-4902","properties":{"adm1_code":"LIE-4902","iso_3166_2":"LI-02","name":"Eschen","admin":"Liechtenstein","adm0_a3":"LIE","type_en":null}},{"type":"Polygon","arcs":[[36,-36,37]],"id":"LIE-4900","properties":{"adm1_code":"LIE-4900","iso_3166_2":"LI-04","name":"Mauren","admin":"Liechtenstein","adm0_a3":"LIE","type_en":null}},{"type":"Polygon","arcs":[[38,-38,39]],"id":"LIE-4899","properties":{"adm1_code":"LIE-4899","iso_3166_2":"LI-08","name":"Schellenberg","admin":"Liechtenstein","adm0_a3":"LIE","type_en":null}},{"type":"Polygon","arcs":[[-40,-35,40,41]],"id":"LIE-4898","properties":{"adm1_code":"LIE-4898","iso_3166_2":"LI-06","name":"Ruggell","admin":"Liechtenstein","adm0_a3":"LIE","type_en":null}},{"type":"MultiPolygon","arcs":[[[-3,42,-18,-24]],[[-5,-26,-13,-23,-9]]],"id":"LIE-4895","properties":{"adm1_code":"LIE-4895","iso_3166_2":"LI-11","name":"Vaduz","admin":"Liechtenstein","adm0_a3":"LIE","type_en":null}},{"type":"Polygon","arcs":[[-20,43,-41,-34]],"id":"LIE-4897","properties":{"adm1_code":"LIE-4897","iso_3166_2":"LI-03","name":"Gamprin","admin":"Liechtenstein","adm0_a3":"LIE","type_en":null}}]}},"arcs":[[[39622,0],[-20754,18254]],[[18868,18254],[5660,16666]],[[24528,34920],[11321,794]],[[35849,35714],[24528,-19841],[5660,0]],[[66037,15873],[11321,-794]],[[77358,15079],[3773,-11904]],[[81131,3175],[-5660,-3175],[-35849,0]],[[92452,10317],[-11321,-7142]],[[77358,15079],[9434,1587]],[[86792,16666],[5660,-6349]],[[96225,31746],[3774,-5556]],[[99999,26190],[-16981,0]],[[83018,26190],[-11321,-793]],[[71697,25397],[-9433,19047]],[[62264,44444],[33961,-12698]],[[54716,57936],[0,-4762]],[[54716,53174],[-3773,-2381]],[[50943,50793],[-37736,-2381]],[[13207,48412],[-7547,19841]],[[5660,68253],[33962,-1587]],[[39622,66666],[15094,-8730]],[[99999,26190],[-7547,-15873]],[[86792,16666],[-3774,9524]],[[35849,35714],[15094,15079]],[[50943,50793],[11321,-6349]],[[71697,25397],[-5660,-9524]],[[66037,50793],[30188,-19047]],[[62264,44444],[3773,6349]],[[39622,0],[-39622,3968],[18868,14286]],[[54716,53174],[11321,-2381]],[[62264,65079],[-7548,-7143]],[[39622,66666],[22642,-1587]],[[56603,74602],[5661,-9523]],[[39622,66666],[-13207,14286]],[[26415,80952],[3773,793]],[[30188,81745],[26415,-7143]],[[47169,86507],[9434,-11905]],[[30188,81745],[16981,4762]],[[41509,93650],[5660,-7143]],[[30188,81745],[11321,11905]],[[26415,80952],[-11321,2380]],[[15094,83332],[16981,16667],[9434,-6349]],[[24528,34920],[-11321,13492]],[[5660,68253],[9434,15079]]],"bbox":[9.477509174411153,47.05616677042062,9.615071268411924,47.26352840602428],"transform":{"scale":[0.0000013756346963546704,0.0000020736370924075336],"translate":[9.477509174411153,47.05616677042062]}}