{"type":"Topology","objects":{"a1":{"type":"GeometryCollection","geometries":[{"type":"Polygon","arcs":[[0,1,2]],"id":"LTU-1074","properties":{"adm1_code":"LTU-1074","iso_3166_2":"LT-UT","name":"Utenos","admin":"Lithuania","adm0_a3":"LTU","type_en":"County"}},{"type":"Polygon","arcs":[[3,4,5,6,-1]],"id":"LTU-1075","properties":{"adm1_code":"LTU-1075","iso_3166_2":"LT-VL","name":"Vilniaus","admin":"Lithuania","adm0_a3":"LTU","type_en":"County"}},{"type":"Polygon","arcs":[[-5,7,8,9]],"id":"LTU-1067","properties":{"adm1_code":"LTU-1067","iso_3166_2":"LT-AL","name":"Alytaus","admin":"Lithuania","adm0_a3":"LTU","type_en":"County"}},{"type":"Polygon","arcs":[[-2,-7,10,11,12]],"id":"LTU-1071","properties":{"adm1_code":"LTU-1071","iso_3166_2":"LT-PN","name":"Panevezio","admin":"Lithuania","adm0_a3":"LTU","type_en":"County"}},{"type":"Polygon","arcs":[[13,14,15,16]],"id":"LTU-936","properties":{"adm1_code":"LTU-936","iso_3166_2":"LT-TE","name":"Telšiai","admin":"Lithuania","adm0_a3":"LTU","type_en":"County"}},{"type":"Polygon","arcs":[[-16,17,18]],"id":"LTU-935","properties":{"adm1_code":"LTU-935","iso_3166_2":"LT-KL","name":"Klaipedos","admin":"Lithuania","adm0_a3":"LTU","type_en":"County"}},{"type":"Polygon","arcs":[[-12,19,20,-14,21]],"id":"LTU-1072","properties":{"adm1_code":"LTU-1072","iso_3166_2":"LT-SA","name":"Šiauliai","admin":"Lithuania","adm0_a3":"LTU","type_en":"County"}},{"type":"Polygon","arcs":[[-9,22,23,24]],"id":"LTU-1070","properties":{"adm1_code":"LTU-1070","iso_3166_2":"LT-MR","name":"Marijampoles","admin":"Lithuania","adm0_a3":"LTU","type_en":"County"}},{"type":"Polygon","arcs":[[-15,-21,25,-24,26,-18]],"id":"LTU-1073","properties":{"adm1_code":"LTU-1073","iso_3166_2":"LT-TA","name":"Taurages","admin":"Lithuania","adm0_a3":"LTU","type_en":"County"}},{"type":"Polygon","arcs":[[-6,-10,-25,-26,-20,-11]],"id":"LTU-1069","properties":{"adm1_code":"LTU-1069","iso_3166_2":"LT-KU","name":"Kauno","admin":"Lithuania","adm0_a3":"LTU","type_en":"County"}}]}},"arcs":[[[99500,52994],[-1859,1030],[-3129,-1674],[-2359,129],[-10249,3863],[-1542,-4765],[2358,-2962],[-1088,-2962],[-1769,644],[-4671,-1739],[-2222,580],[-1678,2447],[1995,3799],[-3220,4057],[-4716,3026],[-318,3155],[-2403,2318]],[[62630,63940],[1542,5860],[1995,1674],[3220,773],[1859,-1675],[4445,3284],[1905,-1996],[5487,1932],[2812,7212]],[[85895,81004],[3809,-4250],[817,-2061],[952,-2060],[3492,-2576],[1995,-450],[0,-3864],[-1088,-1996],[-1542,-7019],[5669,-1481],[-499,-2253]],[[99500,52994],[-1859,-1932],[-953,-2898],[-4716,1031],[-1315,-1288],[-1134,-4636],[-1179,-1417],[-3402,-386],[-2176,-3027],[-998,-3541],[-272,-4057],[544,-4185],[-1678,-1868],[-544,-3863],[-1451,-2962],[2902,-1030],[1587,-3477],[-816,-3349],[-1905,-708],[-2403,1159],[1043,2898],[-1452,2575],[-1768,-1931],[-3084,-194],[-2132,-4314],[-3854,451]],[[66485,10045],[-1406,3155],[2494,3542],[1451,5344],[-4716,-1803],[-1451,1739],[-3719,-387],[-318,4057]],[[58820,25692],[1406,3541],[-181,2576],[2494,1159],[544,3413],[2495,2833],[-4354,3863],[1723,2447],[-1950,2705],[-2585,7662],[454,3027]],[[58866,58918],[1678,1352],[2086,3670]],[[66485,10045],[-1180,-1996],[681,-2898],[-5125,-2382],[-2630,-2769],[-2132,258],[-952,2253],[-2721,-837],[-2222,708],[-4808,-1931],[-2766,1545],[181,3284],[-1088,5731],[-1723,2254]],[[40000,13265],[226,3026],[3402,5924],[1723,2060],[1995,-1481]],[[47346,22794],[2631,0],[1406,2512],[4807,965],[2630,-579]],[[58866,58918],[-1134,1931],[-5216,1610],[-3219,3348]],[[49297,65807],[2312,2640],[363,4894],[-1224,2061],[1768,3090],[-680,3606],[1724,6311],[498,4314]],[[54058,92723],[2585,1481],[2812,-1352],[2177,1931],[1859,2640],[3356,2576],[3538,-9594],[4807,-1481],[5261,-644],[2539,-4057],[2903,-3219]],[[26757,97810],[-2041,-2640],[-1496,-6117],[1859,-2383],[3447,1095],[-1361,-3413],[136,-3284],[1588,-386],[-2313,-4894],[-1089,-773],[-816,-4958]],[[24671,70057],[-3129,322],[-3674,-966],[-680,-1996],[-2630,-322]],[[14558,67095],[-1452,1996],[-907,4186],[-1950,-387],[-861,9402],[2766,4442],[2766,1095],[1497,3606],[-1451,4701],[1088,1545]],[[16054,97681],[318,193],[1950,1095],[2086,-1031],[6349,-128]],[[14558,67095],[-1134,-1481],[1270,-5022],[2630,-966],[-2222,-4765],[2313,-1996],[725,-2061],[3765,-1996],[-499,-2575]],[[21406,46233],[-2993,-1546],[-6078,3864],[-2539,2511],[-1769,64],[-1723,3027],[-2449,-902],[-771,10625],[-1406,6568],[-1179,2253],[-499,5023],[136,7791],[2404,451],[680,3091],[1723,2382],[2721,1610],[4399,2253],[3991,2383]],[[49297,65807],[-4082,-3734],[-1814,2833],[-1270,-1095],[-2313,1932],[-3673,258],[-1633,-2318],[-2676,-1353],[-1043,1095],[-2857,-1352]],[[27936,62073],[-136,1932],[-2222,2961],[-907,3091]],[[26757,97810],[1814,-1481],[3129,1867],[1678,193],[1043,-3091],[2721,1353],[3629,-129],[2403,-1030],[1633,1030],[4580,-902],[1905,-772],[2766,-2125]],[[40000,13265],[-3810,3026],[-2494,2769],[-2857,708],[-771,-1417],[-1497,3799],[0,4572],[771,5989],[1905,2124],[-454,4508],[-3038,2511],[-1089,4185]],[[26666,46039],[1270,-257],[6259,1867],[5532,-1352],[1633,322]],[[41360,46619],[2404,-1159],[-817,-2447],[-1768,-1159],[3855,-3219],[725,-5345],[0,-6375],[1678,-1481],[-91,-2640]],[[27936,62073],[2767,-3477],[1133,-3606],[2449,-1224],[2585,644],[5624,-2447],[-1134,-5344]],[[26666,46039],[-5260,194]]],"bbox":[21.04570262651316,53.88758065447459,26.76880483918646,56.44339509965306],"transform":{"scale":[0.00005723159444267739,0.000025558400035785057],"translate":[21.04570262651316,53.88758065447459]}}