{"type":"Topology","objects":{"a1":{"type":"GeometryCollection","geometries":[{"type":"MultiPolygon","arcs":[[[0,1,2,3]],[[4]],[[5]],[[6]]],"id":"MMR-3273","properties":{"adm1_code":"MMR-3273","iso_3166_2":"MM-16","name":"Rakhine","admin":"Myanmar","adm0_a3":"MMR","type_en":"State"}},{"type":"Polygon","arcs":[[-1,7,8,9]],"id":"MMR-3274","properties":{"adm1_code":"MMR-3274","iso_3166_2":"MM-14","name":"Chin","admin":"Myanmar","adm0_a3":"MMR","type_en":"State"}},{"type":"Polygon","arcs":[[10,11,12]],"id":"MMR-3296","properties":{"adm1_code":"MMR-3296","iso_3166_2":"MM-11","name":"Kachin","admin":"Myanmar","adm0_a3":"MMR","type_en":"State"}},{"type":"Polygon","arcs":[[-12,13,14,15,-9,16]],"id":"MMR-3302","properties":{"adm1_code":"MMR-3302","iso_3166_2":"MM-01","name":"Sagaing","admin":"Myanmar","adm0_a3":"MMR","type_en":"Division"}},{"type":"Polygon","arcs":[[17,18,19,20,-14,-11]],"id":"MMR-3277","properties":{"adm1_code":"MMR-3277","iso_3166_2":"MM-17","name":"Shan","admin":"Myanmar","adm0_a3":"MMR","type_en":"State"}},{"type":"Polygon","arcs":[[-19,21,22]],"id":"MMR-2473","properties":{"adm1_code":"MMR-2473","iso_3166_2":"MM-12","name":"Kayah","admin":"Myanmar","adm0_a3":"MMR","type_en":"State"}},{"type":"Polygon","arcs":[[-20,-23,23,24,25,26,27,28]],"id":"MMR-3266","properties":{"adm1_code":"MMR-3266","iso_3166_2":"MM-13","name":"Kayin","admin":"Myanmar","adm0_a3":"MMR","type_en":"State"}},{"type":"MultiPolygon","arcs":[[[-25,29,30,31]],[[-27,32,33]],[[34]]],"id":"MMR-3270","properties":{"adm1_code":"MMR-3270","iso_3166_2":"MM-15","name":"Mon","admin":"Myanmar","adm0_a3":"MMR","type_en":"State"}},{"type":"MultiPolygon","arcs":[[[35,-31]],[[36]],[[37]],[[38]],[[39]],[[40]],[[41]],[[42]]],"id":"MMR-3279","properties":{"adm1_code":"MMR-3279","iso_3166_2":"MM-05","name":"Tanintharyi","admin":"Myanmar","adm0_a3":"MMR","type_en":"Division"}},{"type":"MultiPolygon","arcs":[[[-3,43,44,45,46]],[[47]],[[48]]],"id":"MMR-3275","properties":{"adm1_code":"MMR-3275","iso_3166_2":"MM-07","name":"Ayeyarwady","admin":"Myanmar","adm0_a3":"MMR","type_en":"Division"}},{"type":"Polygon","arcs":[[-46,49,50]],"id":"MMR-3269","properties":{"adm1_code":"MMR-3269","iso_3166_2":"MM-06","name":"Yangon","admin":"Myanmar","adm0_a3":"MMR","type_en":"Division"}},{"type":"Polygon","arcs":[[-28,-34,51,-50,-45,52,53]],"id":"MMR-3268","properties":{"adm1_code":"MMR-3268","iso_3166_2":"MM-02","name":"Bago","admin":"Myanmar","adm0_a3":"MMR","type_en":"Division"}},{"type":"Polygon","arcs":[[-2,-10,-16,54,-53,-44]],"id":"MMR-3276","properties":{"adm1_code":"MMR-3276","iso_3166_2":"MM-03","name":"Magway","admin":"Myanmar","adm0_a3":"MMR","type_en":"Division"}},{"type":"Polygon","arcs":[[-15,-21,-29,-54,-55]],"id":"MMR-3267","properties":{"adm1_code":"MMR-3267","iso_3166_2":"MM-04","name":"Mandalay","admin":"Myanmar","adm0_a3":"MMR","type_en":"Division"}}]}},"arcs":[[[5163,61318],[1557,-820],[606,-511],[1038,97],[2279,-185],[289,-670],[1153,-670],[2337,-644],[1557,-44],[779,274],[-317,740],[1038,80],[606,-573],[1124,-327]],[[19209,58065],[0,-643],[1068,-265],[1730,-1313],[577,-644],[548,-299],[87,-503],[778,-361],[-86,-705],[461,-468],[693,-1498],[1125,-776],[432,-1111],[1240,-396],[404,-432],[779,-397],[87,-300],[-837,-123],[779,-502],[-490,-494],[317,-370],[-144,-371],[807,-581]],[[29564,45513],[491,-432],[115,-520],[-346,-1349],[490,-414],[-231,-653],[-807,-564],[-116,-846],[-490,-503],[-2077,485]],[[26593,40717],[-173,432],[462,388],[-577,705],[-462,212],[-201,617],[-404,379],[519,282],[-144,370],[-923,1058],[-87,379],[-1211,626],[-750,1402],[-894,564],[-894,-36],[-116,847],[260,238],[-346,864],[-866,-415],[202,-1093],[-490,-344],[-1990,600],[-894,520],[-1933,1322],[-144,423],[779,203],[634,-150],[606,-520],[1471,-379],[1471,344],[634,467],[-28,414],[-779,44],[-1933,776],[-519,582],[-1038,309],[1182,714],[-1557,0],[-837,255],[-865,71],[-432,599],[-1125,-220],[-923,88],[-462,-379],[-1125,9],[-807,493],[490,335],[-202,476],[-721,-141],[-836,-467],[-981,406],[288,308],[1154,265],[-692,440],[-87,476],[-1990,-326],[-1269,582],[-952,758],[-807,168],[-1298,1939],[-981,608],[87,758],[576,538],[981,238],[1096,-529],[1125,-9],[404,-546],[894,264]],[[17450,47884],[0,-494],[-1125,-158],[-1644,863],[1385,379],[1355,-202],[29,-388]],[[19959,51181],[-57,-282],[-1212,-450],[-923,106],[-1471,1031],[981,335],[1010,-441],[663,36],[1009,-335]],[[14768,53279],[-721,17],[-375,582],[1096,-255],[0,-344]],[[5163,61318],[-548,996],[-173,1278],[202,820],[-202,485],[836,229],[231,609],[404,79],[1615,-661],[1385,-159],[-116,361],[606,318],[29,432],[721,-27],[894,265],[-29,749],[-750,670],[58,555],[-375,415],[86,432],[1068,581],[-404,662],[634,255],[1154,-185],[837,591],[115,987],[519,1789],[-634,494],[-202,899],[-606,688],[721,229],[1009,-635],[1154,27],[577,238],[1442,-80],[664,-317],[894,53],[1269,-150],[1471,-335]],[[21719,74955],[432,-855],[-288,-1049],[-1096,-44],[58,-767],[-548,-88],[202,-1393],[-289,-811],[231,-564],[-58,-732]],[[20363,68652],[433,-1701],[-289,-353],[318,-722],[-318,-591],[347,-485],[-491,-361],[0,-547],[1298,-1093],[-1067,-1710],[865,-309],[29,-766],[-750,-847],[1067,-1146],[-1269,-220],[-1327,264]],[[60801,75026],[-144,-229],[-1817,-212],[-1846,-432],[-2307,-317],[-866,8],[-173,283],[-2423,264],[1183,397],[288,432],[-346,458],[-605,-132],[-1125,335],[-635,617]],[[49985,76498],[-750,573],[29,564],[519,335],[-2567,450],[-2105,-230],[-1096,512],[-375,440],[-1269,168],[-577,229],[-1068,1366],[2135,397],[461,203],[-951,652],[-289,1225],[58,468],[836,97],[1500,634],[-663,582],[-433,688],[952,758],[-116,599],[-1557,1314],[58,255],[1211,185],[29,582],[-865,397],[173,220],[1442,388],[57,309],[779,185],[750,564],[1212,-115],[2538,124],[952,123],[2076,9],[1183,547]],[[54254,92295],[865,193],[-2567,1499],[-461,917],[86,211],[1327,582],[779,124],[1817,802],[1211,-27],[260,688],[-548,247],[173,793],[692,362],[577,8],[86,520],[923,785],[952,-256],[952,27],[462,-564],[634,-203],[1125,62],[1038,-468],[0,-291],[1356,-379],[-87,-916],[779,-397],[318,-917],[1009,-1022],[981,105],[173,644],[1817,-388],[1298,-141],[-58,-1023],[317,-440],[-346,-688],[462,-970],[0,-714],[404,-484],[57,-785],[-375,-458],[-57,-697],[-664,-520],[548,-731],[-1788,-371],[404,-661],[1240,-555],[-923,-423],[-1125,202],[-519,-229],[-1442,-1225],[-606,-71],[-1413,318],[-577,-635],[115,-564],[-721,-414],[-1730,-565],[-721,300],[-952,-917],[-375,-88],[0,-608],[490,-723],[-923,18],[-1442,-450],[29,-793],[-202,-891],[1327,45],[894,-864],[-144,-820],[-2106,-970],[1442,-405]],[[49985,76498],[-923,-97],[-1961,-397],[1038,-211],[577,-785],[-663,-661],[-664,-282],[-490,-617],[-837,-353]],[[46062,73095],[-1413,-35],[-779,194],[-461,493],[-1529,-952],[-375,-573],[721,-1022],[-115,-2063],[-606,-158],[58,-415],[779,-599],[-260,-838],[548,-326],[-288,-326],[230,-978],[491,-715],[-318,-317],[-1701,-379],[-375,-643],[-692,-424],[-1298,0],[-1039,609],[-2019,-177],[-432,-528]],[[35189,62923],[-1039,282],[-57,273],[-1010,599],[-1125,-70],[-2307,97],[-1760,-106],[-923,53],[-1240,-273],[-1067,299],[231,891],[-116,352],[-634,291],[-750,-18],[-433,829],[606,679],[-894,899],[-750,388],[-375,423],[-1183,-159]],[[21719,74955],[58,344],[605,405],[1125,1728],[779,582],[548,644],[721,273],[461,582],[808,220],[115,361],[606,406],[606,732],[-231,599],[-1240,185],[-289,388],[635,802],[461,273],[1270,247],[980,379],[1212,829],[548,106],[-116,987],[1558,582],[-577,396],[86,485],[-548,282],[202,776],[-259,450],[865,687],[952,335],[461,-97],[1616,229],[1096,635],[1125,71],[230,238],[1067,211],[779,467],[1240,177],[1385,872],[1413,362],[2971,211],[1125,-26],[865,326],[1904,-62],[1125,-546],[57,-370],[2135,-423]],[[60801,75026],[2711,828],[3231,512],[1644,-97],[721,149],[1211,-35],[895,-247],[1471,247],[1672,115],[-115,-318],[-2134,-608],[0,-925],[1269,-150],[865,-882],[-836,-388],[202,-273],[836,-185],[404,-802],[-577,-626],[1846,-106],[548,-317],[1384,-44],[202,-185],[1471,326],[606,-273],[836,-9],[606,-626],[-1154,-71],[-173,-423],[-1182,-740],[519,-591],[29,-608],[-837,-450],[-1298,-1110],[0,-388],[981,-159],[1240,-18],[808,141],[2163,-211],[577,-247],[606,150],[923,-265],[490,212],[837,-62],[259,-440],[-490,-600],[317,-696],[1471,-203],[375,-291],[-288,-538],[1096,-546],[1528,520],[635,18],[836,-388],[1817,70],[923,256],[1039,590],[894,274],[1269,185],[836,264],[1183,-802],[-173,-317],[-173,-212],[-1558,-573],[-2336,-582],[-750,80],[-404,-820],[-577,-476],[-1038,-229],[-317,-758],[1038,-247],[-1067,-176],[-1442,132],[-1038,-300],[-866,-414],[-692,-802],[-548,-1235],[-1269,371],[-490,308],[-1154,-150],[-750,-476],[-1327,-114],[-1644,211],[-173,-537],[231,-494],[-750,-282],[-1615,-203],[-1298,317],[-664,-26],[-1125,-406],[-86,-1049],[-404,-308],[-1009,-229],[-837,326],[-634,-229],[-1212,-97],[-1211,-370],[-606,158],[-433,-97],[-2451,106],[-1183,370],[-1038,71],[-116,-811],[-1528,-362]],[[63282,52009],[-202,344],[-2683,273],[-548,300],[260,459],[-779,396],[-750,-106],[-605,318],[-1241,-274],[-576,406],[-693,123],[-346,-1401],[-1817,-556],[-865,-678],[375,-326],[-318,-432],[-663,-362]],[[51831,50493],[-260,538],[-1297,335],[-289,238]],[[49985,51604],[-288,414],[-952,106],[1038,458],[-1327,917],[-951,62],[-779,864],[1067,238],[-260,335],[952,405],[-692,1173],[231,458],[577,379],[-1068,564],[606,441],[692,9],[202,405],[-1240,291],[-2423,406],[-519,458],[317,485],[1500,132],[-490,397],[-462,1128],[606,432],[1298,71],[1356,229],[1355,643],[1904,485],[-1442,1384],[-2971,529],[0,317],[-837,758],[-951,177],[173,476],[-1039,837],[-404,512],[693,220],[2278,18],[866,193],[1009,9],[865,600],[-432,202],[-2135,371],[-1557,-124],[-1500,177],[-577,625],[490,776],[1154,635],[144,414]],[[63282,52009],[-231,-414],[-923,-511],[433,-520],[57,-1014],[-923,-397],[-778,-599],[692,-326],[432,-1296],[-86,-221],[-1471,-149],[-1211,-335],[-1039,26],[-490,282]],[[57744,46535],[-779,723],[-2077,88],[-1672,1534],[-347,705],[-750,265],[-288,643]],[[57744,46535],[779,-776],[115,-379],[836,-361],[375,335],[837,-115],[-202,-352],[721,-512],[779,-943],[-750,-476],[346,-590],[577,-485],[1557,-670],[808,-265],[606,-537],[577,-177],[144,-370],[1327,-546],[1038,-803],[1356,-211],[980,-864],[-750,-679],[1010,-555],[173,-362],[750,-476],[288,-864],[289,-158],[1182,546],[231,344],[1038,-405],[-230,-565],[-837,-793],[-1644,35],[-836,-749],[-116,-749],[-317,-864],[260,-1190],[-87,-529],[-952,159],[-807,-133],[-202,-555],[-1125,185],[-837,-379]],[[67031,28702],[-259,467],[-635,282],[-1961,1464],[-837,220],[116,291],[-491,679],[-28,582],[259,431],[-432,485],[2019,97],[721,-150],[692,203],[-577,617],[-808,318],[-259,484],[-721,9],[-692,326],[-1298,371]],[[61840,35878],[-404,79]],[[61436,35957],[-491,141],[-1124,679],[-58,344],[-606,476],[-317,784],[663,529],[-230,317],[144,591],[-866,934],[145,300],[-779,529],[-1154,-132],[-548,-291]],[[56215,41158],[-634,1031],[288,371],[-779,802],[577,581],[202,468],[-692,291],[-144,520],[-1356,370],[-404,353],[144,802],[-576,308],[-1298,-247],[-1241,27],[-951,767],[288,247],[-173,440],[634,247],[-1701,846],[86,494],[-836,696],[-29,318],[-692,582]],[[46928,51472],[1182,53],[1471,-150],[404,229]],[[67031,28702],[-461,-502],[288,-714]],[[66858,27486],[-807,0],[-1183,564],[-1240,-106],[-317,-529],[-866,-529]],[[62445,26886],[231,423],[-231,529],[145,626],[-722,494],[-173,388],[750,361],[-577,1058],[-173,1278],[-403,370],[-1212,520],[-115,379],[519,238],[346,856],[-260,819],[289,371],[981,282]],[[61436,35957],[-1010,-229],[-2336,-80],[-721,618],[-923,352],[-808,1199],[173,405],[-1096,732],[-346,635],[-1817,661],[-231,441]],[[52321,40691],[87,775],[750,71],[1644,-467],[86,-229],[1327,317]],[[60167,35111],[-202,-1032],[-1240,415],[288,335],[-375,458],[750,335],[952,-150],[-173,-361]],[[66858,27486],[577,-1005],[606,-450],[1327,-608],[1442,-1234],[2278,-943],[2135,-706],[807,-705],[837,-397],[173,-537],[433,-212],[57,-758],[404,-829],[-173,-678],[144,-476],[-923,-221],[-115,-705],[634,-238],[231,-811],[490,-582],[693,-370],[1413,-529],[-202,-538],[779,-1128],[115,-696],[894,35],[-317,-573],[606,-265],[-202,-431],[836,-424],[-259,-484],[-837,-512],[-1009,-176],[-144,-538],[-693,-643],[-1355,-961],[-346,-476],[-779,-370],[-1558,-441],[-317,-714],[-1038,-194],[-1269,-529],[-202,-353],[490,-546],[-490,-917],[-577,-679],[-1183,-969],[-750,-71],[-346,943],[433,855],[-404,468],[29,564],[-404,846],[1298,300],[635,767],[865,53],[-58,925],[606,917],[-692,643],[778,2001],[-923,-423],[-836,256],[1211,1252],[-173,449],[-778,230],[-29,299],[-866,714],[1385,185],[260,265],[-1068,344],[202,696],[750,811],[-1182,1693],[-58,863],[-1096,521],[-548,1040],[-808,458],[-663,573],[-606,229],[116,450],[-606,379],[-433,-952],[-634,53],[0,943],[-462,714],[519,661],[-1298,1058],[-173,608],[-1500,1560],[-519,776]],[[68012,1005],[-577,-476],[-1384,-529],[86,529],[1414,555],[461,-79]],[[67810,10384],[490,-370],[-519,-1340],[-807,-79],[-173,370],[605,485],[-29,335],[433,599]],[[70666,10402],[230,-406],[-57,-564],[-548,-317],[-664,9],[-663,749],[0,388],[1702,141]],[[71444,11283],[-1413,-414],[-404,670],[750,9],[1067,-265]],[[65791,12456],[-634,114],[375,441],[576,-167],[-317,-388]],[[65445,13417],[-606,-300],[-778,300],[749,194],[635,-194]],[[69916,14580],[-29,-546],[-808,-644],[-1009,-123],[375,934],[-346,459],[317,396],[1500,-476]],[[29564,45513],[837,290],[1124,-220],[808,27],[260,440],[490,71]],[[33083,46121],[2567,-1287],[750,-1058],[-58,-414],[491,-221],[-346,-1013],[634,-494],[1471,-282],[1096,-635]],[[39688,40717],[-634,-873],[173,-502],[1009,-467],[1212,-1146],[-375,-459],[375,-414],[-174,-1014],[-634,-396],[808,-388],[1240,-150]],[[42688,34908],[548,-361],[-952,-468],[-1096,-79],[-1413,-344],[-721,-511],[-289,-538],[-1557,-776],[-1414,-467],[-1211,124],[-58,529],[-1211,-327],[-519,212],[-116,414],[-1557,-696],[-1298,97],[-231,961],[-577,0],[-721,-564],[-692,-9],[-1067,573],[865,440],[404,415],[57,467],[-432,397],[-1414,26],[-115,-529],[-865,-617],[-750,-132],[-231,-282],[-1125,-106],[-346,361],[87,609],[490,1234],[144,802],[635,-53],[375,926],[432,467],[-259,529],[952,335],[-87,546],[606,635],[0,564],[663,194],[-29,811]],[[29478,32519],[144,-291],[-404,-432],[-894,80],[1154,643]],[[27632,34071],[-375,-785],[-548,-335],[-1125,-247],[-750,-317],[-231,502],[1067,309],[1414,873],[548,0]],[[39688,40717],[1731,987],[1903,512],[346,-379],[2019,-1613],[462,-882],[750,-714],[-29,-450],[1990,27],[1587,-88],[1240,-468]],[[51687,37649],[231,-238],[-520,-581],[-836,-362],[-519,-502],[-692,-309],[-1991,-211],[-1903,634],[-231,-229],[1009,-617],[-576,-388],[-1846,-238],[-1125,300]],[[52321,40691],[-375,-529],[664,-397],[-664,-388],[664,-784],[-346,-706],[-577,-238]],[[33083,46121],[-1009,485],[201,564],[923,264],[548,476],[-259,512],[1009,343],[289,485],[836,71],[577,326],[1240,194],[2135,88],[980,-62],[318,855],[-606,714]],[[40265,51436],[952,-97],[865,177],[1788,-326],[606,352],[2452,-70]],[[35189,62923],[-145,-776],[-461,-62],[-1615,-740],[-1558,-89],[-173,-255],[-1586,-141],[-491,-423],[173,-1023],[981,-344],[1096,-44],[923,-300],[-288,-476],[115,-784],[2452,361],[2048,529],[807,44],[865,-220],[87,-432],[952,-776],[432,-652],[-57,-520],[836,-749],[-461,-706],[346,-908],[-1010,-1225],[289,-643],[519,-133]]],"bbox":[92.17568726973849,9.861084815830353,101.17432462635452,28.530214929226744],"transform":{"scale":[0.00008998727343889467,0.00018669316806564458],"translate":[92.17568726973849,9.861084815830353]}}