{"type":"Topology","objects":{"a1":{"type":"GeometryCollection","geometries":[{"type":"Polygon","arcs":[[0]],"id":"MNP-4937","properties":{"adm1_code":"MNP-4937","iso_3166_2":"MP-X01~","name":"Rota","admin":"Northern Mariana Islands","adm0_a3":"MNP","type_en":null}},{"type":"Polygon","arcs":[[1]],"id":"MNP-4938","properties":{"adm1_code":"MNP-4938","iso_3166_2":"MP-X02~","name":"Tinian","admin":"Northern Mariana Islands","adm0_a3":"MNP","type_en":null}},{"type":"Polygon","arcs":[[2]],"id":"MNP-4939","properties":{"adm1_code":"MNP-4939","iso_3166_2":"MP-X03~","name":"Saipan","admin":"Northern Mariana Islands","adm0_a3":"MNP","type_en":null}},{"type":"Polygon","arcs":[[3]],"id":"MNP-4940","properties":{"adm1_code":"MNP-4940","iso_3166_2":"MP-X04~","name":"Northern Islands","admin":"Northern Mariana Islands","adm0_a3":"MNP","type_en":null}}]}},"arcs":[[[10332,1741],[738,-1741],[-11070,891],[10332,850]],[[73431,23643],[2583,-2186],[-8487,-1336],[-4059,2186],[9963,1336]],[[93357,28461],[-7011,-3198],[-5904,1619],[12915,1579]],[[90774,99999],[9225,-1174],[-13653,-891],[4428,2065]]],"bbox":[145.1319024376176,14.11035261843874,145.8352859748668,18.1752989671772],"transform":{"scale":[0.000007033905711548924,0.00004064986998608445],"translate":[145.1319024376176,14.11035261843874]}}