{"type":"Topology","objects":{"a1":{"type":"GeometryCollection","geometries":[{"type":"Polygon","arcs":[[0,1,2,3]],"id":"MOZ-1927","properties":{"adm1_code":"MOZ-1927","iso_3166_2":"MZ-L","name":"Maputo","admin":"Mozambique","adm0_a3":"MOZ","type_en":"Province"}},{"type":"Polygon","arcs":[[4,5,6]],"id":"MOZ-1198","properties":{"adm1_code":"MOZ-1198","iso_3166_2":"MZ-P","name":"Cabo Delgado","admin":"Mozambique","adm0_a3":"MOZ","type_en":"Province"}},{"type":"Polygon","arcs":[[-6,7,8,9],[10]],"id":"MOZ-1199","properties":{"adm1_code":"MOZ-1199","iso_3166_2":"MZ-A","name":"Niassa","admin":"Mozambique","adm0_a3":"MOZ","type_en":"Province"}},{"type":"Polygon","arcs":[[11,12,13,14]],"id":"MOZ-1190","properties":{"adm1_code":"MOZ-1190","iso_3166_2":"MZ-T","name":"Tete","admin":"Mozambique","adm0_a3":"MOZ","type_en":"Province"}},{"type":"Polygon","arcs":[[-14,15,16,17,18]],"id":"MOZ-1192","properties":{"adm1_code":"MOZ-1192","iso_3166_2":"MZ-B","name":"Manica","admin":"Mozambique","adm0_a3":"MOZ","type_en":"Province"}},{"type":"Polygon","arcs":[[-1,19,-18,20,21]],"id":"MOZ-1207","properties":{"adm1_code":"MOZ-1207","iso_3166_2":"MZ-G","name":"Gaza","admin":"Mozambique","adm0_a3":"MOZ","type_en":"Province"}},{"type":"Polygon","arcs":[[-9,22,23,24,-12,25]],"id":"MOZ-1906","properties":{"adm1_code":"MOZ-1906","iso_3166_2":"MZ-Q","name":"Zambezia","admin":"Mozambique","adm0_a3":"MOZ","type_en":"Province"}},{"type":"Polygon","arcs":[[-3,26]],"id":"MOZ-5854","properties":{"adm1_code":"MOZ-5854","iso_3166_2":"MZ-L","name":"Maputo","admin":"Mozambique","adm0_a3":"MOZ","type_en":"Province"}},{"type":"Polygon","arcs":[[-17,27,28,-21]],"id":"MOZ-1925","properties":{"adm1_code":"MOZ-1925","iso_3166_2":"MZ-I","name":"Inhambane","admin":"Mozambique","adm0_a3":"MOZ","type_en":"Province"}},{"type":"Polygon","arcs":[[-13,-25,29,-28,-16]],"id":"MOZ-1905","properties":{"adm1_code":"MOZ-1905","iso_3166_2":"MZ-S","name":"Sofala","admin":"Mozambique","adm0_a3":"MOZ","type_en":"Province"}},{"type":"MultiPolygon","arcs":[[[-5,30,-23,-8]],[[31]]],"id":"MOZ-1200","properties":{"adm1_code":"MOZ-1200","iso_3166_2":"MZ-N","name":"Nampula","admin":"Mozambique","adm0_a3":"MOZ","type_en":"Province"}}]}},"arcs":[[[16089,15769],[1318,392],[3052,-402],[830,-452],[903,-231],[1221,-90],[98,-784],[1000,-873],[123,-282],[976,-432],[-146,-341],[48,-1155],[562,-161],[195,-874],[1074,-181],[98,-863]],[[27441,9040],[-2441,-1005],[-977,-843],[-317,-744],[-733,-653]],[[22973,5795],[-1001,272],[-317,-513]],[[21655,5554],[1245,-873],[293,-583],[757,-80],[464,-412],[537,301],[244,643],[562,50],[-220,-974],[-122,-1698],[-220,-672],[0,-1176],[-5102,-80],[-2246,121],[48,1576],[-97,503],[-440,522],[-195,793],[391,824],[-220,663],[-1026,502],[-341,1055],[732,823],[-220,1045],[196,653],[-25,3023],[0,2772],[-561,894]],[[96996,81478],[-683,10],[-318,321],[-1587,-201],[-1294,201],[-879,-341],[-1635,-995],[-1001,0],[-537,-251],[-830,-100],[-1050,-312],[-293,-291],[-1416,-382],[-879,-371],[-1001,70],[-586,-392],[-659,-110],[-1221,-492],[-1245,-231],[-1416,-40],[-1294,140]],[[77172,77711],[-561,312],[-757,753],[-928,1245],[-513,965],[-122,652],[-659,392],[928,623],[683,1014],[-781,61],[-1367,331],[171,422],[122,1195],[244,613],[24,934],[-146,472],[1367,844],[318,843],[1147,563],[146,512],[757,623],[147,753],[-391,402],[0,633],[488,1084],[367,322]],[[77856,94274],[1513,844],[1001,70],[1270,582],[1562,51],[611,120],[805,-211],[708,121],[1831,954],[2613,341],[1196,473],[1147,331],[1441,653],[830,572],[976,302],[782,522],[903,-211],[342,-1145],[-782,-392],[1099,-361],[-1001,-824],[513,-723],[-440,-332],[25,-361],[-1489,-794],[1147,-602],[-439,-894],[48,-482],[586,-1206],[-49,-341],[489,-623],[-366,-783],[268,-382],[-342,-382],[391,-853],[-488,-573],[756,-281],[0,-412],[806,-954],[-806,-362],[-195,-482],[464,-402],[-269,-853],[123,-422],[-49,-1215],[-391,-874]],[[77172,77711],[-1465,-211],[-879,-422],[-1587,-190],[-610,-262],[-757,452],[-952,-291],[-757,50],[-952,-753],[-732,0],[-1441,-944],[-976,-342],[-635,61],[-708,-372],[-928,-251],[-1001,-482],[-537,-573],[-1123,-823]],[[61132,72358],[-24,-342],[-1367,-1075],[-1880,-452],[-830,-1124],[-757,241],[-3394,-21]],[[52880,69585],[25,252],[-489,1255],[25,392],[1074,1587],[-391,70],[-97,1276],[-977,753],[-2124,1718],[-635,763],[-3491,2641],[-2075,1146],[-2099,150],[-538,543],[-366,472],[49,1014],[-513,2883],[-1318,2943],[220,612],[1733,1668],[391,602],[24,864],[415,131],[2954,-20],[5005,-61],[733,-140],[756,170],[367,513],[659,120],[586,372],[1049,-131],[782,-432],[1367,-452],[317,-743],[733,-50],[927,171],[1099,0],[659,-302],[977,111],[732,281],[708,573],[2100,-141],[586,-382],[1123,-211],[1001,71],[903,-251],[708,301],[1343,231],[1294,462],[854,1466],[586,221],[1465,161],[586,-141],[952,21],[854,-503],[1368,-331]],[[42114,90688],[-342,-592],[708,-71],[220,543],[-586,120]],[[47753,59391],[74,-804],[341,-653],[-73,-1918],[-73,-251]],[[48022,55765],[-928,331],[-1098,613],[-196,462],[-1098,1657],[-562,653],[-439,854],[-855,442],[-1635,432]],[[41211,61209],[-1783,612],[-1757,191],[-806,362],[-1099,70],[-952,452],[-879,804],[-2197,30],[-806,-181],[-586,-452],[0,-492],[-1147,-844],[-806,-1577],[-1172,-552],[-146,-774],[-781,-1024]],[[26294,57834],[-391,723],[-146,603],[-1172,1416],[976,723],[342,824],[-708,-191],[-1538,20],[-562,663],[-3588,904],[-733,70],[-1855,-20],[-977,90],[-464,543],[-1635,813],[-1587,71],[-1074,201],[-1368,853],[-1367,161],[-1318,-402],[-1099,392],[-4272,-20],[-49,2230],[-293,462],[220,422],[-196,713],[-756,582],[-586,1055],[-98,763],[977,91],[1562,492],[3101,713],[5615,824],[2319,693],[5347,1104],[9179,1989],[733,-291],[97,-583],[611,-452],[781,-914],[806,-391],[879,-713],[952,441],[512,-251],[1075,261],[1538,-50],[244,251],[976,91],[1538,321],[342,-161],[415,-512],[708,-482],[49,-753],[342,-593],[49,-643],[341,-502],[-341,-442],[97,-874],[98,-431],[-830,-864],[-659,-422],[97,-573],[-146,-432],[-586,-512],[-903,-392],[-122,-582],[1440,-904],[220,-301],[-244,-603],[586,-653],[732,-50],[1221,-1145],[732,-251],[1465,-1045],[1098,-693],[855,-20],[293,-281],[-122,-593],[-733,-462],[440,-532],[1977,-30]],[[41211,61209],[-1221,-954],[-1709,-513],[-562,-723],[-24,-472],[-391,-733],[-73,-623],[-415,-653],[293,-894],[-24,-783],[1123,-412],[24,-884],[-488,-813],[-928,-282],[-854,261],[-196,312],[-732,191],[-171,-342],[-1001,-562],[195,-774],[342,-462],[-1392,-964],[0,-442],[1197,-261],[1660,-1175],[-952,-2160],[-25,-1627],[-683,-120],[244,-442],[-25,-673],[757,-452],[-610,-372],[-1050,-291],[-244,-261],[-806,412],[-1342,-322],[-1050,-552],[195,-583],[415,-171],[293,-552],[-171,-783],[2344,-1507],[1269,-281],[147,-211],[49,-1256],[1074,-160],[952,-442],[-781,-985],[-122,-602]],[[35742,33859],[-635,-81],[-537,-502],[-3052,70],[-708,-90],[-830,-392],[-1196,-181]],[[28784,32683],[-708,91],[-928,-322],[-293,-331],[-805,171],[-611,502],[-1147,30],[-1074,502],[-1148,91],[-1099,462]],[[20971,33879],[-1000,1064],[1220,945],[269,502],[-269,1285],[415,744],[1270,40],[830,884],[1025,773],[391,1125],[635,442],[512,-10],[-49,643],[269,874],[-1294,602],[-732,201],[73,1055],[-562,90],[49,613],[562,482],[317,1014],[-415,553],[-1196,80],[0,1105],[903,261],[928,20],[317,372],[-464,1165],[1172,422],[-73,271],[439,542],[-781,613],[195,502],[-317,633],[171,1396],[391,151],[73,1296],[-659,502],[708,703]],[[16089,15769],[-537,683],[-122,1226],[-171,281],[-904,492],[-927,1517],[-904,582],[-244,472],[147,1577],[-2417,4530],[97,111],[1343,582],[4932,3315],[4248,2852],[341,-110]],[[28784,32683],[-1025,-924],[-196,-331],[147,-723],[952,-733],[635,-312],[390,-663],[-146,-663],[146,-924],[-488,-201],[-220,-793],[122,-311],[1270,-1045],[1074,-492],[1099,-834],[73,-341],[1514,-1025],[292,-783],[-268,-352],[976,-1265],[-488,-352],[586,-311],[-268,-382],[-74,-1979],[635,-20],[98,-1496],[1172,-1196],[1025,81],[1367,281],[-24,-372],[781,-592],[-1538,-512],[244,-462],[1172,-101],[293,-301]],[[40112,12254],[-2515,-613],[-537,-50],[-4004,-884],[-1367,-422],[-1123,-231],[-3125,-1014]],[[61132,72358],[4712,-41],[537,-341],[415,-603],[586,-321],[1367,532],[1441,-663],[1538,322],[464,-292],[2343,-683],[513,-542],[1685,-221],[1660,-964],[1245,-332],[1221,-883],[512,-945],[684,-803],[-171,-573],[1074,-1426],[122,-402],[-610,-331],[73,-492],[464,-171],[830,-934],[0,-291]],[[83837,60958],[-366,-683],[-1123,-71],[-904,-301],[-1464,-90],[-1148,-211],[-3515,-914],[-1709,-513],[-1245,-170],[-1734,-683],[-293,0],[-3125,-1115],[-1391,-573],[-1197,-763],[-683,-713],[-1172,331],[98,-422],[732,-281],[-854,-864],[-464,-180],[-1929,-1336],[-757,-302],[-1269,-1235],[0,-522],[-537,-181],[-611,151],[-464,-633],[-927,-111],[-122,563]],[[55664,49136],[-147,1185],[293,572],[-586,935],[-659,371],[-977,271],[-683,693],[-904,533],[-1416,211],[-1440,843],[-171,422],[-952,593]],[[47753,59391],[49,703],[-195,361],[0,1547],[-977,462],[-390,533],[781,331],[220,512],[195,784],[391,381],[708,412],[1440,0],[1587,211],[684,291],[244,774],[97,221],[293,2671]],[[22973,5795],[-634,-361],[-684,120]],[[35742,33859],[1465,-61],[683,332],[1123,-141],[928,733],[2002,473],[513,-232],[1367,653],[2246,442]],[[46069,36058],[-513,-1135],[122,-793],[366,-131],[391,-1004],[1123,-1165],[-24,-784],[366,-643],[268,-1285],[-293,-1567],[513,-573],[635,211],[-342,513],[269,944],[732,150],[415,-1637],[-464,-944],[-24,-763],[293,-1326],[757,-221],[-1148,-1426],[25,-854],[-537,-1004],[-147,-1316],[-415,-121],[269,-763],[1416,-131],[-562,-1054],[73,-452],[-1758,-1617],[-1879,-1356],[-4297,-1316],[-1587,-241]],[[55664,49136],[-977,-593],[-488,-110],[-2393,-965],[-586,-311],[-781,-814],[-2246,-1546],[-2002,-1125],[-562,-131],[-1757,-844],[-537,473],[-611,-503],[-73,-964],[244,-663],[-1001,-321],[684,-231],[-586,-733],[586,-1246],[757,-301],[268,-432],[1343,-362],[97,-582],[1026,-774]],[[96996,81478],[513,-472],[-366,-442],[293,-462],[146,-724],[415,-492],[147,-592],[-367,-653],[98,-502],[708,231],[464,-533],[-1148,-1346],[1294,533],[757,-372],[-293,-904],[342,-562],[-98,-593],[-464,-120],[-390,-613],[-708,-332],[390,-592],[-1684,-291],[-195,-372],[659,-131],[732,151],[196,-331],[-977,-1346],[-24,-312],[-1392,-673],[-586,-612],[-1880,-1226],[-561,-904],[-1050,-964],[-1685,-331],[-122,-563],[513,-372],[-977,-110],[-512,-512],[-1538,-633],[-1661,-542],[-2148,-904]],[[91186,64594],[293,-282],[-367,-532],[-659,121],[-97,441],[830,252]]],"bbox":[30.215643722828247,-26.860027685951522,40.84685762900051,-10.475167018728811],"transform":{"scale":[0.00010631320219374457,0.00016385024517467887],"translate":[30.215643722828247,-26.860027685951522]}}