{"type":"Topology","objects":{"a1":{"type":"GeometryCollection","geometries":[{"type":"MultiPolygon","arcs":[[[0]],[[1,2]],[[3]],[[4]],[[5]]],"id":"MYS-1186","properties":{"adm1_code":"MYS-1186","iso_3166_2":"MY-12","name":"Sabah","admin":"Malaysia","adm0_a3":"MYS","type_en":"State"}},{"type":"Polygon","arcs":[[6,7]],"id":"MYS-1141","properties":{"adm1_code":"MYS-1141","iso_3166_2":"MY-09","name":"Perlis","admin":"Malaysia","adm0_a3":"MYS","type_en":"State"}},{"type":"MultiPolygon","arcs":[[[-7,8,9,10,11]],[[12]]],"id":"MYS-1140","properties":{"adm1_code":"MYS-1140","iso_3166_2":"MY-02","name":"Kedah","admin":"Malaysia","adm0_a3":"MYS","type_en":"State"}},{"type":"Polygon","arcs":[[13,14,15,16]],"id":"MYS-1144","properties":{"adm1_code":"MYS-1144","iso_3166_2":"MY-03","name":"Kelantan","admin":"Malaysia","adm0_a3":"MYS","type_en":"State"}},{"type":"Polygon","arcs":[[-10,17,-16,18,19,20,21]],"id":"MYS-1137","properties":{"adm1_code":"MYS-1137","iso_3166_2":"MY-08","name":"Perak","admin":"Malaysia","adm0_a3":"MYS","type_en":"State"}},{"type":"MultiPolygon","arcs":[[[22,-2]],[[23]]],"id":"MYS-1187","properties":{"adm1_code":"MYS-1187","iso_3166_2":"MY-13","name":"Sarawak","admin":"Malaysia","adm0_a3":"MYS","type_en":"State"}},{"type":"MultiPolygon","arcs":[[[-11,-22,24]],[[25]]],"id":"MYS-1139","properties":{"adm1_code":"MYS-1139","iso_3166_2":"MY-07","name":"Pulau Pinang","admin":"Malaysia","adm0_a3":"MYS","type_en":"State"}},{"type":"Polygon","arcs":[[-20,26,27,28],[29],[30]],"id":"MYS-1148","properties":{"adm1_code":"MYS-1148","iso_3166_2":"MY-10","name":"Selangor","admin":"Malaysia","adm0_a3":"MYS","type_en":"State"}},{"type":"Polygon","arcs":[[-28,31,32,33,34]],"id":"MYS-1146","properties":{"adm1_code":"MYS-1146","iso_3166_2":"MY-05","name":"Negeri Sembilan","admin":"Malaysia","adm0_a3":"MYS","type_en":"State"}},{"type":"Polygon","arcs":[[-34,35,36]],"id":"MYS-1145","properties":{"adm1_code":"MYS-1145","iso_3166_2":"MY-04","name":"Melaka","admin":"Malaysia","adm0_a3":"MYS","type_en":"State"}},{"type":"MultiPolygon","arcs":[[[-33,37,38,-36]],[[39]]],"id":"MYS-1143","properties":{"adm1_code":"MYS-1143","iso_3166_2":"MY-01","name":"Johor","admin":"Malaysia","adm0_a3":"MYS","type_en":"State"}},{"type":"Polygon","arcs":[[-15,40,41,-38,-32,-27,-19]],"id":"MYS-1147","properties":{"adm1_code":"MYS-1147","iso_3166_2":"MY-06","name":"Pahang","admin":"Malaysia","adm0_a3":"MYS","type_en":"State"}},{"type":"Polygon","arcs":[[-14,42,-41]],"id":"MYS-1149","properties":{"adm1_code":"MYS-1149","iso_3166_2":"MY-11","name":"Terengganu","admin":"Malaysia","adm0_a3":"MYS","type_en":"State"}},{"type":"Polygon","arcs":[[43]],"id":"MYS-4833","properties":{"adm1_code":"MYS-4833","iso_3166_2":"MY-15","name":"Labuan","admin":"Malaysia","adm0_a3":"MYS","type_en":"Federal Territory"}},{"type":"Polygon","arcs":[[-30]],"id":"MYS-4831","properties":{"adm1_code":"MYS-4831","iso_3166_2":"MY-14","name":"Kuala Lumpur","admin":"Malaysia","adm0_a3":"MYS","type_en":"Federal Territory"}},{"type":"Polygon","arcs":[[-31]],"id":"MYS-4832","properties":{"adm1_code":"MYS-4832","iso_3166_2":"MY-16","name":"Putrajaya","admin":"Malaysia","adm0_a3":"MYS","type_en":"Federal Territory"}}]}},"arcs":[[[93023,50822],[-1046,101],[-305,784],[305,810],[423,-329],[623,-1366]],[[81453,50645],[-40,1340],[225,1215],[-397,1062],[-185,1796],[-14,1366],[503,3668],[-172,2049],[-1032,51]],[[80341,63192],[688,1619],[27,2175],[-371,228],[-662,1467],[238,1619],[742,1771],[172,1189],[450,-1341],[450,-101],[450,582],[225,1265],[132,1594],[676,1467],[79,1366],[384,2175],[53,1139],[251,1087],[596,1468],[146,1037],[794,1771],[728,3415],[119,2428],[397,2075],[437,-582],[133,-2378],[-411,-2935],[238,-708],[755,1948],[410,1897],[-119,1215],[252,1264],[331,177],[516,-834],[-93,-1721],[411,-3212],[291,-51],[397,-1113],[344,759],[239,-961],[423,-279],[530,-2023],[-106,-2075],[-252,51],[-344,-1189],[305,-1568],[-53,-1847],[516,-810],[132,683],[516,51],[451,1442],[225,202],[278,-1138],[278,-1897],[-345,-835],[-609,76],[-79,-658],[212,-1315],[463,505],[358,-379],[264,1695],[437,354],[755,-481],[926,-1745],[729,-2074],[1204,-1847],[583,-278],[609,531],[357,-1265],[-40,-2479],[-569,-1442],[-2422,-2504],[-490,430],[-384,-633],[-411,1366],[-370,304],[-331,-936],[-384,-203],[-410,-1264],[423,-1948],[583,-1594],[569,-582],[794,-1467],[225,-1164],[-516,-1290],[-1072,-303],[-1006,-633],[-676,-1037],[-569,405],[-423,1163],[-411,329],[-291,1088],[-331,-658],[238,-1492],[-437,-1923],[-794,607],[-278,911],[-715,1442],[-264,-304],[-940,-50],[-292,228],[-608,-228],[-477,556],[-159,-404],[-953,-228],[-516,-455],[-411,1366],[-423,-430],[-530,354],[-529,-1670],[-186,784],[-542,481],[-305,-1088],[-437,-657],[-476,-1442]],[[90785,90943],[199,-1442],[-649,-531],[450,1973]],[[88403,99999],[-106,-1594],[-411,532],[517,1062]],[[89263,99797],[384,202],[185,-734],[-39,-1189],[-225,-607],[-848,-1012],[0,2227],[543,1113]],[[3614,87249],[-66,-1087],[-768,-2404],[-79,-607]],[[2701,83151],[-358,2808],[199,3871],[159,76],[423,-178],[185,-1720],[305,-759]],[[3614,87249],[1377,-1214],[331,683],[476,-1189],[93,-1796],[437,-961],[331,582],[542,-405],[-145,-1720],[212,-759],[-120,-2555],[-278,-329],[-225,-1923]],[[6645,75663],[-13,-1745],[-185,-607],[66,-1063],[-371,-1315],[-172,-1923],[-397,-303],[-384,-1746],[-662,-1948],[-264,835]],[[4263,65848],[278,177],[-172,4958],[39,1240],[-913,303]],[[3495,72526],[-53,1544],[159,2175],[-133,3112],[-450,2580],[-317,1214]],[[1178,84745],[-145,-911],[-331,203],[-398,-860],[-52,1416],[-252,1113],[596,-50],[331,657],[251,-1568]],[[14654,76928],[-794,-2605],[93,-1189],[-40,-2884],[225,-784],[-132,-2910],[582,-1138],[-132,-557],[39,-2377],[662,-1012],[106,-1240]],[[15263,60232],[-317,-1164],[-424,-278],[-583,658],[-304,-1113],[-728,-25],[-424,1770],[-317,-379],[-503,253],[-53,-1189],[-292,25],[-569,936],[-26,-1467],[-570,-1138],[-608,455],[-398,-354],[-423,607]],[[8724,57829],[-186,1062],[239,532],[106,1745],[264,1088],[-26,1442],[198,2934],[186,1366],[450,1316],[265,-405],[384,455],[26,1872],[-424,506],[-13,2328],[159,1492]],[[10352,75562],[516,-405],[583,1822],[26,1265],[199,1087],[516,1265],[66,2505],[464,-911],[185,531],[596,-632],[317,-886],[623,-3617],[211,-658]],[[6645,75663],[676,-2074],[622,936],[119,1341],[1284,1644],[397,202],[437,-2175],[172,25]],[[8724,57829],[13,-1493],[-199,-1290],[490,-683],[146,-2605],[596,-2100],[-120,-1189],[331,-3567]],[[9981,44902],[-516,-1467],[-437,1113],[-463,683],[0,-1391],[-463,-456],[-848,1594],[-476,278],[-318,1037],[-490,-303]],[[5970,45990],[-609,379],[-13,1898],[305,480],[0,987],[-503,1214],[-239,-152],[-212,2226],[-132,304],[344,3263],[-172,607],[27,1442],[-133,2910],[-635,834],[-450,2682],[198,556]],[[3746,65620],[517,228]],[[81453,50645],[-146,-2277],[-371,-1518],[265,-632],[-198,-2302],[-14,-1569],[265,-2530],[-423,-1290],[-173,-2327],[173,-734],[-265,-1947],[-636,-608],[-503,759],[-887,-3263],[186,-1037],[-212,-582],[-27,-1771],[530,-278],[159,-1543],[-331,-152],[-794,-1872],[-265,-961],[-715,-734],[-132,-1745],[132,-1518],[331,-152],[-66,-1897],[-622,-633],[-199,-607],[-13,-1973],[-225,-1442],[-318,-961],[26,-1037],[-344,-506],[-516,1037],[-980,-987],[-781,380],[-728,-329],[-516,-1594],[-821,-1644],[-264,152],[-477,1113],[-543,-329],[-370,885],[-848,582],[-344,658],[-596,-253],[252,1872],[-252,506],[-609,202],[-436,-480],[-1523,252],[-370,-683],[-517,-303],[-595,-835],[26,-1239],[-437,-3289],[-966,-632],[-437,-1619],[-304,-253],[-556,581],[-596,-506],[-953,253],[-781,936],[-1761,-1189],[-357,-1366],[-861,-227],[-304,-658],[-675,911],[-358,1189],[-450,101],[-40,683],[-437,2100],[-397,252],[-595,1493],[-225,1391],[-450,380],[-212,961],[-636,1644],[-185,987],[26,1923],[-503,809],[-92,1138],[503,2151],[92,834],[40,-2251],[397,-1493],[795,-1214],[211,-1062],[1218,152],[225,-304],[795,531],[622,-1012],[291,-885],[291,126],[622,-834],[583,303],[649,-986],[397,-1164],[556,-911],[119,506],[-662,1164],[-212,1214],[159,1872],[503,76],[-199,1417],[398,2757],[185,1847],[-132,1087],[0,1670],[119,2100],[238,455],[556,-1214],[424,506],[-212,1695],[172,3035],[463,1240],[715,1265],[966,556],[781,101],[2860,2277],[781,481],[1257,1214],[450,1138],[40,911],[1059,3162],[159,1164],[424,1366],[225,1619],[304,582],[1231,3212],[1073,4200],[225,3238],[39,1796],[609,-607],[649,-1240],[265,-2530],[-80,-784],[702,-76],[291,-1770],[556,-1898],[463,329],[464,1366],[251,1948],[-119,632],[225,886],[-278,2150],[-26,1796],[-172,1796],[688,1240],[357,101],[173,1088],[238,-1063],[26,-3061],[397,-3668],[1086,-1037],[93,860],[-358,1594],[0,2504],[-331,2884],[-317,1290],[264,633],[821,-734],[318,911]],[[59888,23678],[-212,-481],[-317,1417],[53,1290],[-93,2555],[410,-76],[14,-2681],[145,-2024]],[[3746,65620],[146,1088],[-13,1720],[-225,1139],[0,1897],[-159,1062]],[[3270,70705],[172,-506],[-278,-2378],[-477,152],[-13,1948],[212,986],[384,-202]],[[9981,44902],[146,-683],[569,-809],[238,-1189],[-251,-1619],[13,-1822],[331,-1290],[437,-455]],[[11464,37035],[159,-709],[79,-2732],[-516,-2732],[-530,76],[67,-1922],[-252,-2201]],[[10471,26815],[-913,1012],[-728,2428],[-583,481],[-13,936],[450,1391],[-251,1897],[-120,2302],[-516,1291],[-450,1770],[-357,2277],[-570,1138],[-211,936],[-371,456],[132,860]],[[10445,36200],[-477,-354],[212,-1543],[331,-810],[172,2252],[-238,455]],[[10259,31115],[252,835],[-291,557],[39,-1392]],[[11464,37035],[1972,-1973],[437,-203],[397,-1366],[1033,-2125],[185,-809]],[[15488,30559],[-370,-3162],[-172,-3238]],[[14946,24159],[-1099,1012],[-556,-380],[-463,430],[-517,-455],[-476,-1088]],[[11835,23678],[-675,430],[-27,911],[-344,1492],[-318,304]],[[14946,24159],[-411,-1113],[-159,-2454],[0,-1493]],[[14376,19099],[-1522,1898],[-1019,2681]],[[15488,30559],[556,-683],[900,-3061],[861,-1012],[1046,987],[1244,-2227],[-26,1189],[185,2226]],[[20254,27978],[649,-733],[370,-1518],[-13,-936],[569,-1897],[172,-1341],[-26,-936],[728,-3668],[0,-961],[384,-1417],[304,-2479],[199,-2934],[-80,-1215],[-304,-329],[-569,456],[-490,3390],[-13,-2277],[-172,-430],[-689,860],[-807,-531],[-411,-1366],[-489,-962],[-305,1063],[-159,1669],[-238,1088],[-821,1113],[-860,1594],[-530,506],[-662,1720],[-423,-202],[-358,1442],[-834,2352]],[[23219,29749],[-53,-1088],[-410,481],[278,2125],[185,-1518]],[[15263,60232],[146,-809],[781,-633],[199,-961],[-199,-1012],[225,-1189],[450,76],[252,-1164],[-67,-961],[-397,-961],[-92,-1720],[1019,-1139],[662,-1467],[291,-1543],[185,556],[-158,2808],[185,1063],[503,-177]],[[19248,50999],[-238,-810],[211,-2175],[-278,-1290],[-26,-1341],[-199,-683],[331,-2429],[397,-1366],[-278,-2226],[146,-2504],[-106,-3719],[199,-1720],[847,-2758]],[[14654,76928],[781,-2201],[914,-2175],[437,-430],[820,-2479],[517,-2454],[185,-1316],[966,-5236],[106,-3769],[-92,-962],[225,-2327],[-265,-2580]],[[79467,69390],[53,-1139],[-503,-379],[146,1214],[304,304]]],"bbox":[99.66892812596882,0.8507280306712204,119.27541978788906,7.356287915919452],"transform":{"scale":[0.00019606687728797534,0.00006505624941497647],"translate":[99.66892812596882,0.8507280306712204]}}