{"type":"Topology","objects":{"a1":{"type":"GeometryCollection","geometries":[{"type":"Polygon","arcs":[[0,1]],"id":"NAM-3338","properties":{"adm1_code":"NAM-3338","iso_3166_2":"NA-KA","name":"Karas","admin":"Namibia","adm0_a3":"NAM","type_en":"Region"}},{"type":"Polygon","arcs":[[2,3,4,5,6,7]],"id":"NAM-3347","properties":{"adm1_code":"NAM-3347","iso_3166_2":"NA-KU","name":"Kunene","admin":"Namibia","adm0_a3":"NAM","type_en":"Region"}},{"type":"Polygon","arcs":[[-3,8,9,10]],"id":"NAM-3350","properties":{"adm1_code":"NAM-3350","iso_3166_2":"NA-OS","name":"Omusati","admin":"Namibia","adm0_a3":"NAM","type_en":"Region"}},{"type":"Polygon","arcs":[[11,12,13,-10,14]],"id":"NAM-3352","properties":{"adm1_code":"NAM-3352","iso_3166_2":"NA-OW","name":"Ohangwena","admin":"Namibia","adm0_a3":"NAM","type_en":"Region"}},{"type":"Polygon","arcs":[[15,16,17,-12,18,19]],"id":"NAM-3354","properties":{"adm1_code":"NAM-3354","iso_3166_2":"NA-OK","name":"Kavango","admin":"Namibia","adm0_a3":"NAM","type_en":"Region"}},{"type":"Polygon","arcs":[[-20,20]],"id":"NAM-3356","properties":{"adm1_code":"NAM-3356","iso_3166_2":"NA-CA","name":"Caprivi","admin":"Namibia","adm0_a3":"NAM","type_en":"Region"}},{"type":"Polygon","arcs":[[-1,21,22,23,24,25]],"id":"NAM-3339","properties":{"adm1_code":"NAM-3339","iso_3166_2":"NA-HA","name":"Hardap","admin":"Namibia","adm0_a3":"NAM","type_en":"Region"}},{"type":"Polygon","arcs":[[26,27,28,29,-6,30,-17]],"id":"NAM-3349","properties":{"adm1_code":"NAM-3349","iso_3166_2":"NA-OD","name":"Otjozondjupa","admin":"Namibia","adm0_a3":"NAM","type_en":"Region"}},{"type":"Polygon","arcs":[[31,-25,32,-28]],"id":"NAM-3353","properties":{"adm1_code":"NAM-3353","iso_3166_2":"NA-OH","name":"Omaheke","admin":"Namibia","adm0_a3":"NAM","type_en":"Region"}},{"type":"Polygon","arcs":[[-7,-30,33,-23,34]],"id":"NAM-3348","properties":{"adm1_code":"NAM-3348","iso_3166_2":"NA-ER","name":"Erongo","admin":"Namibia","adm0_a3":"NAM","type_en":"Region"}},{"type":"Polygon","arcs":[[-24,-34,-29,-33]],"id":"NAM-3340","properties":{"adm1_code":"NAM-3340","iso_3166_2":"NA-KH","name":"Khomas","admin":"Namibia","adm0_a3":"NAM","type_en":"Region"}},{"type":"Polygon","arcs":[[-4,-11,-14,35]],"id":"NAM-3351","properties":{"adm1_code":"NAM-3351","iso_3166_2":"NA-ON","name":"Oshana","admin":"Namibia","adm0_a3":"NAM","type_en":"Region"}},{"type":"Polygon","arcs":[[-5,-36,-13,-18,-31]],"id":"NAM-3355","properties":{"adm1_code":"NAM-3355","iso_3166_2":"NA-OT","name":"Oshikoto","admin":"Namibia","adm0_a3":"NAM","type_en":"Region"}}]}},"arcs":[[[22978,32972],[6861,-55],[172,-671],[594,-4098],[844,-178],[1475,-2069],[1208,-41],[-384,2083],[613,356],[652,-589],[383,795],[518,-425],[1533,-261],[1016,-383],[517,-549],[1265,316],[1226,-548],[39,1452],[556,302],[1648,-233],[958,82],[3564,877],[1649,137],[1245,-699],[3220,-288],[1169,548],[651,-1000],[1457,123],[594,-301],[1265,-247],[843,411],[690,0]],[[61019,27819],[0,-4097],[0,-6537],[19,-5125],[-19,-7579],[-632,-55],[-518,-397],[-1897,-452],[-633,-1234],[-364,-287],[-1360,-494],[287,-822],[-939,-617],[-594,-123],[-939,781],[-1533,219],[-1974,-301],[-594,-192],[-671,165],[-1035,-192],[-901,370],[-977,644],[-1226,260],[-1035,-55],[-173,631],[-1322,-206],[115,932],[-345,274],[-326,863],[537,740],[-422,1165],[-728,-82],[-403,233],[-19,768],[-671,712],[-1514,-425],[-57,-657],[-901,-1015],[307,-685],[-268,-644],[-709,-137],[-556,-548],[-805,-398],[-498,-287],[-1859,1768],[-920,1151],[-978,712],[-1111,1110],[-575,740],[-268,946],[-748,740],[-191,946],[-901,1534],[-767,1056],[-440,2973],[-403,370],[-709,1878],[58,480],[555,287],[-287,1220],[-690,754],[-498,260],[-58,644],[153,1658],[-536,1193],[19,575],[-498,685],[0,946],[249,603],[-556,2631],[383,1645],[-172,534]],[[18474,96354],[-19,-453],[-594,-1027],[326,-425],[-115,-1247],[709,-1576],[211,-1014],[134,-3111],[-38,-1754],[632,-1919],[-172,-1713],[306,-973],[518,-685],[-211,-973],[939,-27],[-268,740],[-20,685],[2377,96],[1705,246],[901,-137],[786,261]],[[26581,81348],[-19,-453],[1935,0],[939,-246],[1150,-124],[594,-342]],[[31180,80183],[1821,-329],[996,-329],[2281,-343],[537,-328]],[[36815,78854],[76,-508],[-96,-3042],[-345,-617],[-920,-109],[135,-987],[-345,-14],[-1418,-849],[0,-1275],[-1994,-301],[-862,-494],[-479,-589],[-786,-315],[-1111,178]],[[28670,69932],[-1591,617],[-709,-973],[-1246,-1329],[-2395,-1768],[-498,-192],[-1994,55],[-632,219],[-575,-165],[-632,220],[-2243,-631],[-2050,-1260]],[[14105,64725],[-1782,3083],[-269,1439],[-651,1329],[-364,1754],[-422,1001],[-632,329],[-480,1493],[-2223,4358],[-172,809],[-479,808],[-364,960],[-709,863],[-154,781],[-1207,1727],[-824,575],[-537,686],[-517,342],[-690,2275],[-652,740],[-383,1549],[-594,3412],[364,2453],[518,55],[785,548],[1131,329],[1073,-699],[1610,14],[709,-110],[594,425],[1342,672],[517,616],[939,439],[1112,219],[747,-288],[575,137],[1112,-452],[191,-822],[1284,-946],[1399,-849],[422,-590],[1054,-123],[996,288]],[[18474,96354],[6190,0],[3699,0]],[[28363,96354],[19,-548],[575,-1193],[58,-671]],[[29015,93942],[-2645,-2878],[115,-206],[1437,-849],[479,-3933],[-383,-850],[364,-1357],[-345,-795],[288,-479],[-748,-713],[-996,-534]],[[46397,96354],[0,-3139]],[[46397,93215],[-9238,-27],[-2663,-1206],[-594,247],[-2281,1576]],[[31621,93805],[-2472,-370],[-134,507]],[[28363,96354],[5769,0],[6937,0],[5328,0]],[[68493,88611],[-134,0],[0,-7113]],[[68359,81498],[-12859,-137],[19,3111],[-7685,466]],[[47834,84938],[-1380,96],[-57,8181]],[[46397,96354],[3334,-14],[288,-617],[1993,-2357],[939,-425],[977,-191],[1112,164],[1839,-480],[1859,137],[901,-164],[1169,0],[594,-274],[2242,342],[748,-328],[939,-754],[1265,-69],[517,-315],[1322,535]],[[68435,91544],[58,-2933]],[[68435,91544],[1706,301],[1207,-685],[6267,1288],[4868,1028],[3641,781],[690,123],[5500,1220],[1380,41],[1361,-452],[690,301],[1571,-315],[537,-247],[1245,-1055],[384,-575],[517,-316],[-786,96],[-728,-383],[-728,233],[-1016,-329],[-690,-466],[-1092,-1234],[-537,-137],[-613,864],[-422,55],[-517,-631],[-824,-27],[-364,-466],[-575,-288],[-3028,-2891],[-498,-14],[-575,1918],[-1054,987],[-345,918],[-422,96],[-2012,-192],[-6880,-1439],[-4235,-877],[-3565,-164]],[[22978,32972],[-364,1645],[-422,822],[-901,1178],[77,973],[-1016,2385],[-95,1247],[268,699],[-77,1398],[96,1192],[-115,534]],[[20429,45045],[4159,-424],[287,-398],[1859,-137],[843,-233],[2147,-1000]],[[29724,42853],[57,-1083],[441,-247],[767,14],[325,343],[1744,329],[96,-699],[613,301],[365,507],[1034,-68],[96,534],[-1571,315],[57,645],[364,753],[364,-603],[652,69],[747,781],[-95,534],[-537,480],[958,1905],[1476,-302],[958,329],[441,329],[805,96],[441,-178],[115,-685],[383,-233],[1399,-110],[-288,-767],[441,-1562],[1246,-14],[326,246],[1418,42],[881,-617],[805,123],[978,398],[115,397],[1130,617],[384,-343]],[[49655,45429],[670,-1494],[364,220],[537,-535],[958,-233],[1380,590],[632,-316],[690,-27],[403,493],[479,-123],[38,-1480],[499,-69],[4714,-27]],[[61019,42428],[0,-7387],[0,-7222]],[[68359,81498],[19,-5851],[0,-3961]],[[68378,71686],[-1399,-288],[-786,14],[-1169,219],[-709,-41],[-805,261],[-6171,740],[-804,-110],[-460,-370],[-3546,-1425],[-556,-521],[-1303,-2316],[-287,-1274],[-422,-384],[-805,-233],[-172,-1329],[-671,-302],[0,-2001],[-192,-123],[58,-1110],[-920,-685]],[[47259,60408],[-1591,-439],[-498,-452],[-862,-247],[-844,14],[-709,-932],[-421,-205],[19,-932],[-920,-370],[-479,96],[-192,-617],[-709,-343],[-326,329],[-632,-521],[-307,233],[-996,-534],[-824,521],[-594,-987],[-307,192],[-1150,-370]],[[34917,54844],[-306,589],[-58,918],[518,411],[76,1864],[-287,315],[-326,1275],[345,1781],[671,823],[-192,1274],[58,754],[-710,96],[-785,726],[-460,699],[-422,-425],[-728,370],[-441,452],[-1495,850],[-651,658],[-173,507],[-920,260],[39,891]],[[36815,78854],[95,137],[2013,1110],[1015,1452],[537,151],[1265,-767],[306,-1042],[537,-82],[517,-576],[978,-479],[1820,329],[-325,863],[843,836],[172,1192],[-57,562],[1130,808],[173,1590]],[[68378,71686],[19,-5399],[38,-8031],[-95,-301],[-7340,0],[0,-4482],[0,-6413],[19,-4632]],[[49655,45429],[402,1412],[-1054,890],[556,1111],[-422,109],[-536,1096],[-39,1124],[-249,822],[-307,1960],[-900,1083],[-479,109],[-518,1028],[96,740],[709,357],[-77,328],[480,946],[-422,562],[422,808],[-58,494]],[[34917,54844],[-651,-411],[-154,-727],[-460,-13],[-651,-672],[-958,-41],[-575,-630],[613,-398],[-38,-1027],[-748,-83],[-441,-411],[-153,-2097],[326,-411],[-690,-356],[172,-1096],[-421,-124],[-211,-849],[652,-466],[-192,-2111],[-613,-68]],[[20429,45045],[-364,1124],[422,891],[-135,959],[-306,754],[-173,1096],[844,398],[76,575],[-191,2549],[-901,2261],[-518,631],[-172,548],[-1150,1576],[-1361,1343],[39,658],[-594,945],[-326,1124],[-1514,2248]],[[31621,93805],[0,-2727],[287,-987],[-153,-699],[-556,-740],[39,-1343],[651,-1480],[-460,-192],[-843,-1055],[-57,-1384],[440,-1028],[211,-1987]]],"bbox":[11.717435346536803,-28.959975678255276,25.260812827593185,-16.951103813176516],"transform":{"scale":[0.00013543512916185544,0.0001200899195499831],"translate":[11.717435346536803,-28.959975678255276]}}