{"type":"Topology","objects":{"a1":{"type":"GeometryCollection","geometries":[{"type":"Polygon","arcs":[[0,1,2,3,4,5]],"id":"NER-95","properties":{"adm1_code":"NER-95","iso_3166_2":"NE-5","name":"Tahoua","admin":"Niger","adm0_a3":"NER","type_en":"Department"}},{"type":"Polygon","arcs":[[6,-2,7]],"id":"NER-93","properties":{"adm1_code":"NER-93","iso_3166_2":"NE-3","name":"Dosso","admin":"Niger","adm0_a3":"NER","type_en":"Department"}},{"type":"Polygon","arcs":[[8,9,10]],"id":"NER-796","properties":{"adm1_code":"NER-796","iso_3166_2":"NE-2","name":"Diffa","admin":"Niger","adm0_a3":"NER","type_en":"Department"}},{"type":"Polygon","arcs":[[-6,11,12,13]],"id":"NER-91","properties":{"adm1_code":"NER-91","iso_3166_2":"NE-4","name":"Maradi","admin":"Niger","adm0_a3":"NER","type_en":"Department"}},{"type":"Polygon","arcs":[[-9,14,-13,15]],"id":"NER-92","properties":{"adm1_code":"NER-92","iso_3166_2":"NE-7","name":"Zinder","admin":"Niger","adm0_a3":"NER","type_en":"Department"}},{"type":"Polygon","arcs":[[16,-3,-7],[17]],"id":"NER-4859","properties":{"adm1_code":"NER-4859","iso_3166_2":"NE-6","name":"Tillabéri","admin":"Niger","adm0_a3":"NER","type_en":"Department"}},{"type":"Polygon","arcs":[[-5,18,-10,-16,-12]],"id":"NER-800","properties":{"adm1_code":"NER-800","iso_3166_2":"NE-1","name":"Agadez","admin":"Niger","adm0_a3":"NER","type_en":"Department"}},{"type":"Polygon","arcs":[[-18]],"id":"NER-94","properties":{"adm1_code":"NER-94","iso_3166_2":"NE-8","name":"Niamey","admin":"Niger","adm0_a3":"NER","type_en":"Capital District"}}]}},"arcs":[[[38788,16678],[-1034,-111],[-3595,1851],[-1132,-153],[-641,-863],[-2199,-167],[-427,348],[-1461,-432]],[[28299,17151],[-377,1476],[-624,1392],[-312,3188],[-476,1281],[-575,571]],[[25935,25059],[-886,1935],[-49,1712],[-1461,5346]],[[23539,34052],[180,1392],[509,822],[-65,877],[558,1782],[771,1002],[0,3327],[82,1170],[246,404],[-16,8283],[-16,5680]],[[25788,58791],[3414,-56],[591,-222],[-821,-2214],[33,-2200],[-246,-598],[115,-474],[886,-167],[394,-1239],[1100,-1169],[837,-1476],[263,-292],[3381,-2729],[1428,-1392],[591,-863],[1379,-4302],[197,-445],[558,-515],[985,-335],[131,-320],[-131,-1364],[377,-4845]],[[41250,31574],[-902,-4274],[-378,-4301],[378,-2103],[-99,-1058],[-460,-250],[-689,-752],[82,-724],[-361,-529],[-33,-905]],[[17022,5945],[-640,375],[-115,766],[-591,-153],[-49,1726],[-115,1114],[755,766],[-164,348],[-1018,153],[-394,1141],[214,488],[722,111],[542,557],[705,-70],[362,1058],[65,1072],[394,140],[246,598],[739,112],[427,1531],[1018,-432],[1247,752],[1182,1420],[394,1657],[246,557],[854,974],[558,139],[673,488],[541,710],[115,1016]],[[28299,17151],[-755,-250],[-640,-446],[-1001,-1239],[-772,-181],[-33,-2227],[-197,-1810],[-1017,-2074],[-411,-515],[-1379,-1365],[33,-2199],[-164,-1476],[181,-905],[-312,-696],[33,-473],[361,-752],[-444,-543],[-590,1128],[-1330,751],[-230,850],[-1215,1475],[-344,710],[-460,195],[-591,836]],[[66381,14158],[-164,1351],[1100,1489],[115,863],[2577,3091],[755,-125],[1166,459],[1576,1351],[673,27],[590,460],[-361,390],[-16,751],[542,376],[-17,24461]],[[74917,49102],[1510,1322],[4826,2896],[16235,14]],[[97488,53334],[-476,-7407],[-148,-1865],[-99,-237],[-2692,-3759],[-4153,-5777],[-3398,-6181],[-459,-1295],[33,-1239],[-739,-585],[66,-863],[-329,-250],[-788,-293],[-213,-877],[213,-1016],[788,-4706],[-1559,84],[-591,-640],[-246,-766],[-493,-209],[-607,223],[-722,-460],[-361,14],[-411,-752],[-853,-1002],[-772,-390],[-164,-821],[-394,-696],[-542,125],[-689,56],[-492,348],[-903,-84],[-1297,1086],[-689,376],[-1921,641],[-3086,-28],[-1149,181],[-772,-112]],[[41250,31574],[2840,84],[1264,-877]],[[45354,30781],[509,-599],[49,-1350],[329,-836],[196,-1378],[411,-1044],[903,-905],[82,-1281],[574,-306],[690,766],[640,42],[361,-627],[1018,-640],[771,-766],[148,-599],[886,-835],[132,-1517],[-115,-335],[-1806,-1197],[-66,-738],[575,-459],[-148,-905],[148,-1183],[-443,-1267]],[[51198,12822],[-1067,835],[-1609,292],[-427,-153],[-2314,-1809],[-1215,41],[-853,-1044],[-1002,98],[-426,487],[-526,947],[-525,1225],[-1034,1489],[-887,1100],[-525,348]],[[66381,14158],[-3069,-863],[-1477,-1030],[-230,-585],[-460,-403],[-1083,-1685],[-378,-237],[-1329,195],[-690,-125],[-1855,278],[-1887,683],[-920,1197],[-853,83],[-952,1156]],[[45354,30781],[525,1865],[247,362],[2527,-501],[1084,14],[492,334],[1773,70],[1166,529],[2593,1865],[2233,1086],[10324,8687],[1872,724],[2577,2283],[2150,1003]],[[17022,5945],[-476,-154],[-886,-682],[-887,-167],[-804,-515],[279,-1462],[312,-320],[-410,-947],[-329,362],[-1690,3105],[0,654],[1099,334],[-262,1351],[-591,1030],[-870,167],[-378,-237],[-541,-779],[-1445,167],[-394,195],[-1461,1615],[-1198,1336],[-837,306],[-66,446],[-16,2060],[82,334],[1165,-459],[132,432],[-887,654],[-607,1197],[-640,376],[-345,-14],[-263,487],[-837,-41],[-131,751],[-640,696],[-279,822],[-542,779],[-197,724],[312,1072],[-263,474],[-919,1085],[-312,933],[427,1559],[-230,752],[230,766],[16,724],[837,-279],[1018,265],[985,-459],[624,250],[1296,181],[1872,2283],[394,195],[4727,209],[5811,264],[66,655],[394,83],[2757,-612],[115,1197],[558,432],[493,710],[738,292],[411,473]],[[12442,16247],[-541,83],[-361,-334],[246,-1072],[410,-348],[985,-209],[263,1518],[-361,403],[-641,-41]],[[25788,58791],[0,4204],[5400,1379],[4219,1085],[558,376],[4875,5625],[2594,2979],[2921,3188],[2561,2005],[4728,3731],[3873,3062],[3021,2381],[4300,3383],[4301,3397],[5598,4413],[5581,-1671],[3988,-1183],[739,-515],[3808,-4190],[197,-42],[4728,3188],[1214,-8478],[50,-4107],[771,-905],[1937,-3815],[-410,-501],[0,-780],[2593,-3591],[66,-460],[-1248,-2854],[-197,-668],[-525,-8074],[-541,-8019]]],"bbox":[0.15183740564236814,11.696070718196097,15.963691682107566,23.517329674871547],"transform":{"scale":[0.00015812012396589165,0.00011821377170447155],"translate":[0.15183740564236814,11.696070718196097]}}