{"type":"Topology","objects":{"a1":{"type":"GeometryCollection","geometries":[{"type":"Polygon","arcs":[[0]],"id":"NFK+00?","properties":{"adm1_code":"NFK+00?","iso_3166_2":"NF-X01~","name":"Norfolk Island","admin":"Norfolk Island","adm0_a3":"NFK","type_en":null}}]}},"arcs":[[[99999,71428],[0,-59523],[-99999,-11905],[0,99999],[99999,-28571]]],"bbox":[167.92568186242352,-29.066947950590503,167.98537862019742,-28.99782740538928],"transform":{"scale":[5.969735474745395e-7,6.912123641358681e-7],"translate":[167.92568186242352,-29.066947950590503]}}