{"type":"Topology","objects":{"a1":{"type":"GeometryCollection","geometries":[{"type":"Polygon","arcs":[[0,1,2,3,4]],"id":"NPL-1126","properties":{"adm1_code":"NPL-1126","iso_3166_2":"NP-KA","name":"Karnali","admin":"Nepal","adm0_a3":"NPL","type_en":"Administrative Zone"}},{"type":"Polygon","arcs":[[5,6]],"id":"NPL-1128","properties":{"adm1_code":"NPL-1128","iso_3166_2":"NP-MA","name":"Mahakali","admin":"Nepal","adm0_a3":"NPL","type_en":"Administrative Zone"}},{"type":"Polygon","arcs":[[7,-5,8,9,-6]],"id":"NPL-1129","properties":{"adm1_code":"NPL-1129","iso_3166_2":"NP-SE","name":"Seti","admin":"Nepal","adm0_a3":"NPL","type_en":"District"}},{"type":"Polygon","arcs":[[10,11,12,13,-2]],"id":"NPL-1125","properties":{"adm1_code":"NPL-1125","iso_3166_2":"NP-DH","name":"Dhawalagiri","admin":"Nepal","adm0_a3":"NPL","type_en":"Administrative Zone"}},{"type":"Polygon","arcs":[[14,15,16,17,-12]],"id":"NPL-1095","properties":{"adm1_code":"NPL-1095","iso_3166_2":"NP-GA","name":"Gandaki","admin":"Nepal","adm0_a3":"NPL","type_en":"District"}},{"type":"Polygon","arcs":[[18,19,20,-16]],"id":"NPL-1130","properties":{"adm1_code":"NPL-1130","iso_3166_2":"NP-BA","name":"Bagmati","admin":"Nepal","adm0_a3":"NPL","type_en":"District"}},{"type":"Polygon","arcs":[[21,22,23,24,-20]],"id":"NPL-1131","properties":{"adm1_code":"NPL-1131","iso_3166_2":"NP-JA","name":"Janakpur","admin":"Nepal","adm0_a3":"NPL","type_en":"Administrative Zone"}},{"type":"Polygon","arcs":[[25,26,27,-23]],"id":"NPL-1133","properties":{"adm1_code":"NPL-1133","iso_3166_2":"NP-SA","name":"Sagarmatha","admin":"Nepal","adm0_a3":"NPL","type_en":"Administrative Zone"}},{"type":"Polygon","arcs":[[28,29,30,-27]],"id":"NPL-1134","properties":{"adm1_code":"NPL-1134","iso_3166_2":"NP-KO","name":"Bhojpur","admin":"Nepal","adm0_a3":"NPL","type_en":"District"}},{"type":"Polygon","arcs":[[31,-30]],"id":"NPL-1135","properties":{"adm1_code":"NPL-1135","iso_3166_2":"NP-ME","name":"Mechi","admin":"Nepal","adm0_a3":"NPL","type_en":"Administrative Zone"}},{"type":"Polygon","arcs":[[-17,-21,-25,32,33]],"id":"NPL-1132","properties":{"adm1_code":"NPL-1132","iso_3166_2":"NP-NA","name":"Narayani","admin":"Nepal","adm0_a3":"NPL","type_en":"Administrative Zone"}},{"type":"Polygon","arcs":[[-13,-18,-34,34,35]],"id":"NPL-1127","properties":{"adm1_code":"NPL-1127","iso_3166_2":"NP-LU","name":"Lumbini","admin":"Nepal","adm0_a3":"NPL","type_en":"Administrative Zone"}},{"type":"Polygon","arcs":[[-3,-14,-36,36,37]],"id":"NPL-373","properties":{"adm1_code":"NPL-373","iso_3166_2":"NP-RA","name":"Rapti","admin":"Nepal","adm0_a3":"NPL","type_en":"Administrative Zone"}},{"type":"Polygon","arcs":[[-4,-38,38,-9]],"id":"NPL-1124","properties":{"adm1_code":"NPL-1124","iso_3166_2":"NP-BH","name":"Bheri","admin":"Nepal","adm0_a3":"NPL","type_en":"District"}}]}},"arcs":[[[15156,91571],[128,1459],[989,1053],[383,4903],[1149,-1013],[1340,2026],[2297,-1378],[830,325],[1531,-1054],[1468,41],[64,-2877],[734,-811],[-128,-2755],[830,-121],[2233,-1500],[1819,-1985],[957,-2026],[2680,-4457],[766,729],[1627,-1701],[1596,121],[1117,-1702],[127,-2025],[798,283],[1340,-4416],[702,-730],[287,-2066],[1691,-770]],[[44511,69124],[-542,-4376],[-862,-1945],[-829,-3120],[-2202,-1418],[-1787,446]],[[38289,58711],[-2744,2026],[-2074,-41],[-766,2391],[-1563,1702]],[[31142,64789],[-2042,972],[64,1580],[-1691,405],[-1213,-972],[-989,-2026],[-925,689],[-1085,-891],[-989,162],[-3351,1863],[-287,1702]],[[18634,68273],[-798,1054],[-127,3120],[734,1418],[925,364],[1404,-486],[-191,2958],[893,1621],[-32,1823],[-989,1945],[766,5551],[-2298,770],[-1436,-770],[-414,2755],[-1915,1175]],[[12923,90477],[-1021,-2593],[638,-2998],[-192,-1499],[-3095,-1621],[-415,-770],[607,-3363],[1021,-1864],[-1468,-1904],[-606,-2756],[-1979,-2836],[-765,-3444],[63,-3768],[447,-3768]],[[6158,57293],[-1340,-1540],[-925,81],[-1436,2755],[-1978,2188],[-479,2310],[798,1540],[414,3241],[1245,729],[542,3161],[-797,3687],[2106,4619],[-383,2472],[191,1296],[1308,1175],[1181,3485],[1021,567],[2170,3606],[64,1297],[1978,689],[1085,-4174]],[[12923,90477],[1340,-567],[893,1661]],[[18634,68273],[-1723,-2512],[192,-2958],[-2681,122],[-1882,1661],[-766,-1013],[1276,-1985],[1404,-1054],[830,-2836],[-64,-1499],[-1914,-3728],[-862,-2350]],[[12444,50121],[-1946,1580],[-192,1094],[-1117,446],[-1627,2553],[-1404,1499]],[[44511,69124],[798,1783],[893,40],[1883,1419],[1883,-1094],[765,-1378],[-351,-1175],[543,-2148],[670,-769],[-64,-2756]],[[51531,63046],[-1691,-972],[-862,-1175],[-861,-81],[-1883,-3201],[607,-1621],[-702,-2715],[-1149,-2998],[1021,-3282],[-128,-1580],[-1180,-3728],[-989,-1053]],[[43714,40640],[-1149,2633],[-2904,2310],[-1148,1337],[-958,-324]],[[37555,46596],[-478,1540],[-1149,1539],[-829,2391],[861,3160],[1723,1297],[606,2188]],[[51531,63046],[1564,-1296],[1212,-3120],[1915,-892],[925,-1175],[-64,-1134],[1500,-1418],[1467,-284],[1692,2553],[1372,-1378],[-256,-1661],[-861,-1945],[64,-2593]],[[62061,48703],[-1564,-3079],[-606,-2310],[-798,-527],[-1499,-4133],[351,-2350],[-1149,365]],[[56796,36669],[-957,932],[-1468,-1580],[-543,-1418]],[[53828,34603],[-1116,40],[-670,2107],[-2138,446],[-1245,1053],[-2042,-729],[-1021,1053],[-1308,-243],[-1659,568],[1085,1742]],[[62061,48703],[2169,-1580],[1053,-122],[1085,851],[2202,-1134],[766,1377],[1021,-2553],[1116,-1093],[766,-3364],[575,-1134],[287,-2229],[925,82]],[[74026,37804],[-255,-3120],[-479,-527],[-2329,-5916],[159,-1499],[-1691,-2066],[-2169,729]],[[67262,25405],[-1915,1297],[-1085,1296],[-734,4619],[-1723,1013],[-2457,-932],[-1212,1337],[-1085,162],[-255,2472]],[[74026,37804],[702,931],[-542,3688],[1084,1985],[575,-3809],[2903,-2228],[958,1458]],[[79706,39829],[574,-1418],[319,-4133],[-542,-2269],[-1053,-972],[-2298,-4011],[-510,-2067],[-287,-2836],[1595,-608],[606,-1337],[-702,-1297],[287,-3241],[-1467,-1783],[-1085,-445],[159,-2634],[479,-1945],[-638,-2715]],[[75143,6118],[-1659,1297],[-2330,-2026],[-1340,1985],[-319,3931],[-1085,1053],[-2999,-2350]],[[65411,10008],[0,1540],[702,2755],[64,2066],[1021,3080],[0,3241],[-702,1540],[766,1175]],[[79706,39829],[319,2999],[1467,364],[862,-729],[447,-1621],[861,81],[670,-1499],[1085,-81]],[[85417,39343],[192,-6240],[-670,-5470],[-447,-1256],[638,-2390],[-479,-1864],[-32,-3039],[511,-1702],[96,-3768],[2520,365],[-223,-2067],[-1851,-2795],[-829,-4984]],[[84843,4133],[-1723,-2188],[-989,-446],[-2521,2634],[-2776,2228],[-1691,-243]],[[85417,39343],[2138,-3079],[2840,-527],[1787,810],[702,-810],[1084,203]],[[93968,35940],[-893,-3242],[-702,-81],[-830,-3363],[-414,-3890],[861,-1944],[2489,-1662],[-223,-2147],[-1213,-1175],[-1500,-2958],[766,-2634],[702,-567],[830,-2715],[-287,-2066],[63,-6078]],[[93617,1418],[-765,-810],[-1309,1134],[-1180,-121],[-702,-1621],[-1340,1378],[-1021,-365],[-638,932],[-511,3647],[-1308,-1459]],[[93968,35940],[1245,648],[574,1661],[3606,-1134],[510,-2107],[-606,-3323],[-1085,-3565],[160,-4255],[-383,-1783],[-415,-3606],[1308,-2755],[957,-3606],[160,-2472],[-989,-5064],[-160,-2107],[-829,-2067],[-1149,973],[-542,1256],[-1245,-203],[-319,-1013],[-1149,0]],[[65411,10008],[-830,-567],[-1148,567],[-383,2269],[-1468,-203],[-1117,1338],[-351,1418],[-1499,1458],[-1979,324],[192,4336],[-989,3079],[-3510,1175],[-798,1581],[-1787,1701],[-638,-1377],[-1308,-122]],[[47798,26985],[447,2553],[1786,-405],[926,2390],[1212,648],[1819,1702],[-160,730]],[[47798,26985],[-830,-2512],[-3254,2715],[-2808,121],[127,-1296],[-829,-1905],[-2106,2756],[-1500,0],[-1659,1053],[-1532,203],[-957,4943]],[[32450,33063],[319,1337],[1245,324],[-415,1742],[957,1662],[1819,851],[-255,1580],[829,3160],[-351,1580],[957,1297]],[[32450,33063],[-1819,-527],[-1531,81],[-4308,5592]],[[24792,38209],[1436,1296],[0,2067],[-1882,2917],[989,2188],[-638,1823],[-766,568],[-192,2350],[670,1134],[-287,1864],[575,1702],[1435,-486],[1947,3849],[2042,2674],[1021,2634]],[[24792,38209],[-925,283],[-1468,-1620],[-2042,2755],[-925,446],[-1915,2390],[-765,2026],[-1085,-891],[-1021,3120],[-415,2147],[-1787,1256]]],"bbox":[80.03388584076538,26.35291775538829,88.16821796526341,30.414572649593367],"transform":{"scale":[0.00008134413468632717,0.00004061695511160189],"translate":[80.03388584076538,26.35291775538829]}}