{"type":"Topology","objects":{"a1":{"type":"GeometryCollection","geometries":[{"type":"Polygon","arcs":[[0,1,2]],"id":"NRU-4978","properties":{"adm1_code":"NRU-4978","iso_3166_2":"NR-03","name":"Anetan","admin":"Nauru","adm0_a3":"NRU","type_en":null}},{"type":"Polygon","arcs":[[-3,3,4,5]],"id":"NRU-4977","properties":{"adm1_code":"NRU-4977","iso_3166_2":"NR-09","name":"Ewa","admin":"Nauru","adm0_a3":"NRU","type_en":null}},{"type":"Polygon","arcs":[[-5,6,7,8]],"id":"NRU-4976","properties":{"adm1_code":"NRU-4976","iso_3166_2":"NR-05","name":"Baiti","admin":"Nauru","adm0_a3":"NRU","type_en":null}},{"type":"Polygon","arcs":[[-8,9,10,11]],"id":"NRU-4975","properties":{"adm1_code":"NRU-4975","iso_3166_2":"NR-13","name":"Uaboe","admin":"Nauru","adm0_a3":"NRU","type_en":null}},{"type":"Polygon","arcs":[[-11,12,13,14,15]],"id":"NRU-4974","properties":{"adm1_code":"NRU-4974","iso_3166_2":"NR-12","name":"Nibok","admin":"Nauru","adm0_a3":"NRU","type_en":null}},{"type":"Polygon","arcs":[[-15,16,17,18]],"id":"NRU-4973","properties":{"adm1_code":"NRU-4973","iso_3166_2":"NR-08","name":"Denigomodu","admin":"Nauru","adm0_a3":"NRU","type_en":null}},{"type":"Polygon","arcs":[[-18,19,20,21]],"id":"NRU-4972","properties":{"adm1_code":"NRU-4972","iso_3166_2":"NR-01","name":"Aiwo","admin":"Nauru","adm0_a3":"NRU","type_en":null}},{"type":"Polygon","arcs":[[-21,22,23,24]],"id":"NRU-4971","properties":{"adm1_code":"NRU-4971","iso_3166_2":"NR-06","name":"Boe","admin":"Nauru","adm0_a3":"NRU","type_en":null}},{"type":"Polygon","arcs":[[-24,25,26,27]],"id":"NRU-4983","properties":{"adm1_code":"NRU-4983","iso_3166_2":"NR-14","name":"Yaren","admin":"Nauru","adm0_a3":"NRU","type_en":null}},{"type":"Polygon","arcs":[[-27,28,29,30]],"id":"NRU-4982","properties":{"adm1_code":"NRU-4982","iso_3166_2":"NR-11","name":"Meneng","admin":"Nauru","adm0_a3":"NRU","type_en":null}},{"type":"Polygon","arcs":[[-4,31,32,-30,33,-13,-10,-7]],"id":"NRU-4981","properties":{"adm1_code":"NRU-4981","iso_3166_2":"NR-04","name":"Anibare","admin":"Nauru","adm0_a3":"NRU","type_en":null}},{"type":"Polygon","arcs":[[-32,34,35]],"id":"NRU-4980","properties":{"adm1_code":"NRU-4980","iso_3166_2":"NR-10","name":"Ijuw","admin":"Nauru","adm0_a3":"NRU","type_en":null}},{"type":"Polygon","arcs":[[-2,36,-35]],"id":"NRU-4979","properties":{"adm1_code":"NRU-4979","iso_3166_2":"NR-02","name":"Anabar","admin":"Nauru","adm0_a3":"NRU","type_en":null}},{"type":"Polygon","arcs":[[-14,-34,-29,-26,-23,-20,-17]],"id":"NRU-4970","properties":{"adm1_code":"NRU-4970","iso_3166_2":"NR-07","name":"Buada","admin":"Nauru","adm0_a3":"NRU","type_en":null}}]}},"arcs":[[[47368,94594],[15789,5405]],[[63157,99999],[0,-21621]],[[63157,78378],[-15789,16216]],[[63157,78378],[-5263,-10811]],[[57894,67567],[-21052,24324]],[[36842,91891],[10526,2703]],[[57894,67567],[0,-10811]],[[57894,56756],[-36842,29730]],[[21052,86486],[15790,5405]],[[57894,56756],[0,-5405]],[[57894,51351],[-47368,32432]],[[10526,83783],[10526,2703]],[[57894,51351],[0,-8108]],[[57894,43243],[-31578,8108]],[[26316,51351],[-21053,13513]],[[5263,64864],[5263,18919]],[[26316,51351],[-10527,-5406]],[[15789,45945],[-15789,-2702]],[[0,43243],[5263,21621]],[[15789,45945],[5263,-18918]],[[21052,27027],[-15789,-2703]],[[5263,24324],[-5263,18919]],[[21052,27027],[5264,-5406]],[[26316,21621],[-10527,-16216]],[[15789,5405],[-10526,18919]],[[26316,21621],[10526,5406]],[[36842,27027],[10526,-27027]],[[47368,0],[-31579,5405]],[[36842,27027],[15789,8108]],[[52631,35135],[36842,-5406]],[[89473,29729],[-42105,-29729]],[[63157,78378],[36842,-13514]],[[99999,64864],[-10526,-35135]],[[52631,35135],[5263,8108]],[[63157,78378],[31579,8108]],[[94736,86486],[5263,-21622]],[[63157,99999],[31579,-13513]]],"bbox":[166.90824146905936,-0.551431600553542,166.95755618200303,-0.4905396916857967],"transform":{"scale":[4.931520609573025e-7,6.089251779292325e-7],"translate":[166.90824146905936,-0.551431600553542]}}