{"type":"Topology","objects":{"a1":{"type":"GeometryCollection","geometries":[{"type":"MultiPolygon","arcs":[[[0]],[[1]]],"id":"OMN-2425","properties":{"adm1_code":"OMN-2425","iso_3166_2":"OM-MU","name":"Musandam","admin":"Oman","adm0_a3":"OMN","type_en":"Province"}},{"type":"Polygon","arcs":[[2,3,4,5,6]],"id":"OMN-2424","properties":{"adm1_code":"OMN-2424","iso_3166_2":"OM-BA","name":"Al Batnah North","admin":"Oman","adm0_a3":"OMN","type_en":"Region"}},{"type":"Polygon","arcs":[[-6,7,8]],"id":"OMN-4836","properties":{"adm1_code":"OMN-4836","iso_3166_2":"OM-BU","name":"Al Buraymi","admin":"Oman","adm0_a3":"OMN","type_en":"Province"}},{"type":"Polygon","arcs":[[-5,9,10,11,-8]],"id":"OMN-2414","properties":{"adm1_code":"OMN-2414","iso_3166_2":"OM-ZA","name":"Al Dhahira","admin":"Oman","adm0_a3":"OMN","type_en":"Region"}},{"type":"Polygon","arcs":[[12,13]],"id":"OMN-2411","properties":{"adm1_code":"OMN-2411","iso_3166_2":"OM-ZU","name":"Dhofar","admin":"Oman","adm0_a3":"OMN","type_en":"Province"}},{"type":"Polygon","arcs":[[-11,14,15,16,-13,17]],"id":"OMN-2405","properties":{"adm1_code":"OMN-2405","iso_3166_2":"OM-WU","name":"Al Wusta","admin":"Oman","adm0_a3":"OMN","type_en":"Region"}},{"type":"MultiPolygon","arcs":[[[-16,18,19,20]],[[21]]],"id":"OMN-2406","properties":{"adm1_code":"OMN-2406","iso_3166_2":"OM-SH","name":"Ash Sharqiyah South","admin":"Oman","adm0_a3":"OMN","type_en":"Region"}},{"type":"Polygon","arcs":[[-20,22,23,24]],"id":"OMN-5496","properties":{"adm1_code":"OMN-5496","iso_3166_2":"OM-SS","name":"Ash Sharqiyah North","admin":"Oman","adm0_a3":"OMN","type_en":"Region"}},{"type":"Polygon","arcs":[[-24,25,26,27]],"id":"OMN-2426","properties":{"adm1_code":"OMN-2426","iso_3166_2":"OM-MA","name":"Muscat","admin":"Oman","adm0_a3":"OMN","type_en":"Province"}},{"type":"Polygon","arcs":[[-3,28,-27,29]],"id":"OMN-5497","properties":{"adm1_code":"OMN-5497","iso_3166_2":"OM-BJ","name":"Al Batnah South","admin":"Oman","adm0_a3":"OMN","type_en":"Region"}},{"type":"Polygon","arcs":[[-4,-30,-26,-23,-19,-15,-10]],"id":"OMN-2404","properties":{"adm1_code":"OMN-2404","iso_3166_2":"OM-DA","name":"Ad Dakhliyah","admin":"Oman","adm0_a3":"OMN","type_en":"Region"}}]}},"arcs":[[[55577,88920],[-1452,-863],[-363,169],[330,880],[363,186],[1122,-372]],[[54686,92337],[-726,-136],[-891,457],[396,3654],[-264,609],[-1089,-119],[1320,1895],[1551,-423],[231,1082],[1056,643],[627,-558],[-693,-508],[891,-659],[-1089,-1100],[825,-253],[-627,-846],[0,-914],[-462,-981],[-957,-659],[-99,-1184]],[[70626,73866],[-1485,-1928],[-1650,-1049],[-1551,-372]],[[65940,70517],[-3696,-135]],[[62244,70382],[-231,219],[-1156,3333],[-3762,2469],[-1980,660]],[[55115,77063],[-99,879],[-1254,3146],[-1683,1607],[33,423]],[[52112,83118],[528,51],[660,913],[1320,491],[495,406],[33,186],[858,507],[264,-828],[1122,-2030],[1518,-2098],[2410,-1996],[495,-811],[1254,-1100],[2706,-1674],[2211,-711],[2640,-558]],[[55115,77063],[-429,-1032],[-1518,0],[-1848,-288],[-726,-355],[0,-862],[-1321,-778],[429,-1506],[-858,-423],[-1683,-372],[-1353,-558],[-1716,118]],[[44092,71007],[396,1286],[759,964],[-99,1066],[-858,575],[462,406],[1881,558],[2046,-169],[2410,761],[-825,1421],[-1090,-85],[-1188,338],[693,981],[-429,880],[-165,1370],[726,863],[-231,524],[-132,1658],[1386,1167],[991,34],[627,-914],[-825,-17],[891,-1302],[594,-254]],[[62244,70382],[-2443,-8153],[-2013,-4567],[-2508,-2453]],[[55280,55209],[-9241,-1522]],[[46039,53687],[495,1150],[-165,457],[-5577,7002],[66,2994],[429,1286],[1221,1590],[693,1996],[891,845]],[[42805,45771],[15676,-19841],[11023,-2267]],[[69504,23663],[-3036,-372],[-3696,-1014],[-1650,-846],[-1618,-1370],[-198,-1303],[-528,-1674],[-660,-1184],[132,-423],[-1254,-660],[-1485,-1505],[-1980,186],[-2013,-135],[-1552,-373],[-3234,-118],[-2673,-558],[-1122,-1641],[-1188,-761],[-462,-947],[957,-1015],[-594,-1201],[0,-727],[-2905,-2233],[-2772,-626],[-858,51],[-858,659],[-1023,186],[-1650,-135],[-924,152],[-4654,-558],[-561,-795],[-2871,-423],[-1089,-845],[-1089,-356],[-3102,-152],[-3169,-947],[-3663,6411],[-924,338],[-3102,5700],[-3829,6935],[-2508,4635],[-99,152],[10099,2740],[10891,2926],[8713,2351],[8448,2267],[1552,3823],[3102,7493]],[[55280,55209],[20924,-7882],[4026,-1573]],[[80230,45754],[1386,-524],[-1815,-4466]],[[79801,40764],[-1914,-355],[-363,-981],[-1518,-812],[132,-727],[-1419,-711],[-396,-609],[297,-913],[-1089,-2774],[-792,-897],[231,-913],[-165,-1201],[891,-1438],[-297,-1454],[759,-1150],[-132,-626],[495,-829],[-1650,-727],[-3367,16]],[[42805,45771],[3234,7916]],[[80230,45754],[-1419,3112],[-1221,3214]],[[77590,52080],[12343,3366],[4323,1776],[628,1218],[99,1387],[-231,1049],[660,541]],[[95412,61417],[858,-660],[990,254],[825,-389],[1056,0],[858,-981],[-231,-1692],[-429,-862],[-1320,-1184],[-528,-1607],[-528,-169],[-1353,-1573],[-627,-1354],[-1420,-1928],[-2178,-761],[-1419,-880],[-1716,-1370],[-1419,-1573],[-198,-659],[-1419,-1015],[-462,-1404],[-495,-288],[-1090,-2537],[-660,-490],[-3102,287],[396,2182]],[[88085,40933],[594,-1082],[-1386,-863],[-693,-1539],[-825,-744],[-1122,33],[66,1421],[759,778],[627,85],[1287,1776],[693,135]],[[77590,52080],[-3135,8356],[1254,1962],[2904,1725],[792,68],[2112,1015],[1915,355]],[[83432,65561],[3828,-1928],[4158,-423],[1155,998]],[[92573,64208],[495,-998],[693,-322],[727,-930],[924,-541]],[[83432,65561],[594,2334],[-3202,2470],[-2772,-288]],[[78052,70077],[-297,1015],[462,1573]],[[78217,72665],[1947,-846],[1617,-152],[1023,423],[1453,-203],[363,-541],[1947,-745],[264,-930],[1353,-879],[1122,-1269],[99,-609],[924,-1015],[1584,-862],[660,-829]],[[70626,73866],[1419,-406],[1915,-85],[1485,-659],[2772,-51]],[[78052,70077],[-2772,-1691],[-363,-643],[-3268,-389],[-1947,304],[-3762,2859]]],"bbox":[51.97900519823219,16.643126881883475,59.843404157143794,26.37266648258864],"transform":{"scale":[0.00007864477603687644,0.00009729636897074137],"translate":[51.97900519823219,16.643126881883475]}}