{"type":"Topology","objects":{"a1":{"type":"GeometryCollection","geometries":[{"type":"Polygon","arcs":[[0,1,2]],"id":"PAN-1958","properties":{"adm1_code":"PAN-1958","iso_3166_2":"PA-1","name":"Bocas del Toro","admin":"Panama","adm0_a3":"PAN","type_en":"Province"}},{"type":"Polygon","arcs":[[-2,3,4,5]],"id":"PAN-1332","properties":{"adm1_code":"PAN-1332","iso_3166_2":"PA-4","name":"Chiriquí","admin":"Panama","adm0_a3":"PAN","type_en":"Province"}},{"type":"Polygon","arcs":[[6,7,8,9,10]],"id":"PAN-1419","properties":{"adm1_code":"PAN-1419","iso_3166_2":"PA-KY","name":"Kuna Yala","admin":"Panama","adm0_a3":"PAN","type_en":"Indigenous Territory"}},{"type":"MultiPolygon","arcs":[[[-7,11,12]],[[13]]],"id":"PAN-3455","properties":{"adm1_code":"PAN-3455","iso_3166_2":"PA-EM","name":"Emberá","admin":"Panama","adm0_a3":"PAN","type_en":"Indigenous Territory"}},{"type":"Polygon","arcs":[[-8,-13,14,15],[-14]],"id":"PAN-1418","properties":{"adm1_code":"PAN-1418","iso_3166_2":"PA-5","name":"Darién","admin":"Panama","adm0_a3":"PAN","type_en":"Province"}},{"type":"MultiPolygon","arcs":[[[-9,-16,16,17,18]],[[19]]],"id":"PAN-1340","properties":{"adm1_code":"PAN-1340","iso_3166_2":"PA-8","name":"Panama","admin":"Panama","adm0_a3":"PAN","type_en":"Province"}},{"type":"Polygon","arcs":[[-18,20,21,22,23]],"id":"PAN-1336","properties":{"adm1_code":"PAN-1336","iso_3166_2":"PA-2","name":"Coclé","admin":"Panama","adm0_a3":"PAN","type_en":"Province"}},{"type":"MultiPolygon","arcs":[[[24]],[[-5,25,26,27,-23,28,29,30]]],"id":"PAN-1341","properties":{"adm1_code":"PAN-1341","iso_3166_2":"PA-9","name":"Veraguas","admin":"Panama","adm0_a3":"PAN","type_en":"Province"}},{"type":"Polygon","arcs":[[-10,-19,-24,-28,31]],"id":"PAN-1337","properties":{"adm1_code":"PAN-1337","iso_3166_2":"PA-3","name":"Colón","admin":"Panama","adm0_a3":"PAN","type_en":"Province"}},{"type":"Polygon","arcs":[[-1,32,-26,-4]],"id":"PAN-3454","properties":{"adm1_code":"PAN-3454","iso_3166_2":"PA-NB","name":"Ngöbe Buglé","admin":"Panama","adm0_a3":"PAN","type_en":"Indigenous Territory"}},{"type":"Polygon","arcs":[[-30,33,34]],"id":"PAN-1339","properties":{"adm1_code":"PAN-1339","iso_3166_2":"PA-7","name":"Los Santos","admin":"Panama","adm0_a3":"PAN","type_en":"Province"}},{"type":"Polygon","arcs":[[-22,35,-34,-29]],"id":"PAN-1338","properties":{"adm1_code":"PAN-1338","iso_3166_2":"PA-6","name":"Herrera","admin":"Panama","adm0_a3":"PAN","type_en":"Province"}}]}},"arcs":[[[17879,71730],[-932,-1772],[-1197,-136],[-1198,2248],[-2041,2248],[-577,2180],[-1286,-2997],[1419,-1635],[267,-1839],[-533,-3951]],[[11801,66076],[-2884,2248],[-621,1498],[-2129,-204],[-488,1022]],[[5679,70640],[-488,2248],[-3239,4019],[-89,15122],[1420,1976],[-311,3133],[843,1771],[3594,-4768],[754,3678],[3860,-7220],[-666,-4769],[622,-3270],[1641,-1021],[178,-7017],[1774,-1021],[621,-2248],[1686,477]],[[11801,66076],[1375,-1363],[2174,-545],[178,-8515],[-621,-4155],[1819,409],[1331,-5245],[2839,-886],[799,-2248],[2573,1363],[710,3065],[1153,341]],[[26131,48297],[178,-5314],[-1598,-4836],[-976,-5722]],[[23735,32425],[-798,5517],[-1109,-272],[-1864,2043],[-3859,2521],[-533,-3065],[-932,1771],[-354,3133],[-1065,2725],[-2085,-2316],[-1908,-477],[-2485,1907],[-2573,-1090],[-1153,-3201],[443,-6199],[-798,-1431],[177,2793],[-976,6063],[-1863,2793],[1686,3542],[1420,1499],[576,3814],[-222,4156],[-1286,4632],[976,3951],[2529,3406]],[[95429,54836],[-3815,9673]],[[91614,64509],[-1020,3270],[-1376,2043],[-1331,4019],[-2262,3134]],[[85625,76975],[-1864,2588],[45,2453],[-1819,-137],[-666,2725],[-1952,-545],[-1553,3883],[-2173,-681],[-1243,2043],[-4037,-1090],[-2307,-2793],[-3017,2248]],[[65039,87669],[1819,1908],[1109,3338],[45,4291]],[[68012,97206],[266,-4291],[1375,0],[1287,-1431],[2085,954],[3017,-1226],[710,885],[2129,-1430],[3904,-4701],[3150,-2656],[2307,-6131],[533,1362],[1952,-6062],[399,-2997],[2529,-4088],[488,-3269],[1153,-1839],[1775,-205],[-1020,-1498],[-622,-3747]],[[95429,54836],[799,-3406],[1020,-7629],[666,-409],[932,-3883]],[[98846,39509],[-4836,-3406],[-1243,4700],[-1818,2453],[-1465,5926],[45,2248],[-1065,2929],[-532,3951],[1464,4564],[2218,1635]],[[83229,36444],[1553,-4973],[1286,-1771],[1065,-7902],[89,-4973],[-2085,-749],[-178,1771],[-1686,886],[-1109,2725],[-1464,6675],[45,2793],[2173,1703],[311,3815]],[[98846,39509],[1153,-7697],[-2041,-4156],[-976,-4427],[666,-2793],[-2884,-4632],[-1242,-2725],[-1686,5858],[-1553,-68],[666,-5722],[-1509,-2248],[-1286,-10013],[-2041,4427],[88,1771],[-2307,4701],[-1597,6267],[-1552,8038],[-1110,3065],[-621,6608],[2440,136],[843,3065],[-1153,4087],[2085,1840],[488,4019],[-2529,2452],[-1109,-1226],[-710,-2929]],[[79369,47207],[-843,8583],[488,6335],[-355,4359],[976,1090],[1464,-1635],[622,1908],[1774,1022],[1509,2792],[621,5314]],[[79369,47207],[-1419,4972],[-222,6608],[-1819,1499],[-2485,6607],[-1198,-681],[-798,3270],[-2263,2792],[-2883,2112],[-3638,341],[-1598,-818],[-2040,-4496],[-1775,-1089],[-887,-2793],[-311,-8992],[-1553,-1090],[-1774,-4496],[-1242,-1907]],[[51464,49046],[-843,2997],[-222,5041],[-1021,9877],[444,4905]],[[49822,71866],[754,1430],[1198,-749],[1154,1294],[-133,3542],[1286,4633],[1908,-3338],[1819,613],[621,2520],[1020,1158],[888,9809],[1419,1022],[1154,-1907],[1952,-1294],[177,-2930]],[[71117,51498],[976,-4768],[-399,-1908],[-1908,409],[-88,5722],[1419,545]],[[51464,49046],[-3150,-4019],[-1864,-545],[-798,954],[-1509,-3747],[-133,-5313]],[[44010,36376],[-2262,1907],[-1331,-204]],[[40417,38079],[-799,1294],[710,5994],[-1065,5859],[-1153,3610],[1419,3202]],[[39529,58038],[1509,6267],[1863,1021],[444,5586],[2750,-2248],[3017,6199],[710,-2997]],[[23735,7629],[267,-3133],[-1686,1090],[-1642,3406],[-266,3610],[488,2452],[1553,2793],[577,-3746],[-222,-4224],[931,-2248]],[[26131,48297],[0,3337],[621,5654],[1331,-1566],[1375,-69],[1065,-1907],[1065,2248],[-133,9332]],[[31455,65326],[2129,750],[3860,3133]],[[37444,69209],[178,-2180],[1552,-2180],[533,-2043],[-178,-4768]],[[40417,38079],[-932,-137],[-1908,-2861],[-44,-3746],[-1464,-2861],[-89,-4632],[2485,-8583],[1419,-2180]],[[39884,13079],[89,-2929],[799,-5586],[1064,-3610]],[[41836,954],[-1863,-818],[-2706,-136],[-976,1771],[576,2997],[-354,5246],[-843,2247],[310,1908],[-1242,3951],[-1109,5926],[-1686,1226],[-178,-7629],[-3460,1430],[-2218,1567],[-843,2044],[133,3678],[-932,1635],[222,4019],[-932,409]],[[37444,69209],[666,204],[1641,4428],[1553,2248],[3904,3747],[1952,408],[3283,2930],[1730,4087],[1553,-545],[266,1975],[1287,1431],[2174,4359],[443,3611],[1953,1907],[310,-1635],[1775,0],[4037,-2043],[2041,885]],[[17879,71730],[1775,1021],[1863,-1635],[532,5518],[2307,-6880],[1509,-3542],[3105,-1158],[2485,272]],[[39884,13079],[2840,8787],[-355,3338],[1198,3679],[1508,953],[665,2589]],[[45740,32425],[1287,-4700],[2706,-5382],[1553,-4768],[976,-5586],[-399,-1907],[-1997,-1295],[-1952,205],[-1863,-1976],[-355,-2861],[-1109,-2793],[-2751,-408]],[[44010,36376],[355,-2316],[1375,-1635]]],"bbox":[-83.05246537515951,7.213109643716919,-77.20218311331568,9.629037271226267],"transform":{"scale":[0.000058503407652514825,0.000024159517870272178],"translate":[-83.05246537515951,7.213109643716919]}}