{"type":"Topology","objects":{"a1":{"type":"GeometryCollection","geometries":[{"type":"Polygon","arcs":[[0,1,2]],"id":"PER-575","properties":{"adm1_code":"PER-575","iso_3166_2":"PE-TAC","name":"Tacna","admin":"Peru","adm0_a3":"PER","type_en":"Department"}},{"type":"Polygon","arcs":[[3,4,5,6]],"id":"PER-572","properties":{"adm1_code":"PER-572","iso_3166_2":"PE-MDD","name":"Madre de Dios","admin":"Peru","adm0_a3":"PER","type_en":"Department"}},{"type":"Polygon","arcs":[[7,8,9,10,11]],"id":"PER-585","properties":{"adm1_code":"PER-585","iso_3166_2":"PE-LOR","name":"Loreto","admin":"Peru","adm0_a3":"PER","type_en":"Department"}},{"type":"Polygon","arcs":[[-11,12,13,14,15]],"id":"PER-584","properties":{"adm1_code":"PER-584","iso_3166_2":"PE-AMA","name":"Amazonas","admin":"Peru","adm0_a3":"PER","type_en":"Department"}},{"type":"Polygon","arcs":[[-15,16,17,18,19]],"id":"PER-578","properties":{"adm1_code":"PER-578","iso_3166_2":"PE-CAJ","name":"Cajamarca","admin":"Peru","adm0_a3":"PER","type_en":"Department"}},{"type":"Polygon","arcs":[[20,21]],"id":"PER-568","properties":{"adm1_code":"PER-568","iso_3166_2":"PE-TUM","name":"Tumbes","admin":"Peru","adm0_a3":"PER","type_en":"Department"}},{"type":"Polygon","arcs":[[-19,22,23,-21,24]],"id":"PER-567","properties":{"adm1_code":"PER-567","iso_3166_2":"PE-PIU","name":"Piura","admin":"Peru","adm0_a3":"PER","type_en":"Department"}},{"type":"Polygon","arcs":[[-6,25,26,27,28,-8,29]],"id":"PER-583","properties":{"adm1_code":"PER-583","iso_3166_2":"PE-UCA","name":"Ucayali","admin":"Peru","adm0_a3":"PER","type_en":"Department"}},{"type":"Polygon","arcs":[[30,-2,31,32,33,-4]],"id":"PER-573","properties":{"adm1_code":"PER-573","iso_3166_2":"PE-PUN","name":"Puno","admin":"Peru","adm0_a3":"PER","type_en":"Department"}},{"type":"Polygon","arcs":[[-1,34,35,-32]],"id":"PER-574","properties":{"adm1_code":"PER-574","iso_3166_2":"PE-MOQ","name":"Moquegua","admin":"Peru","adm0_a3":"PER","type_en":"Department"}},{"type":"Polygon","arcs":[[-33,-36,36,37,38,39,40]],"id":"PER-570","properties":{"adm1_code":"PER-570","iso_3166_2":"PE-ARE","name":"Arequipa","admin":"Peru","adm0_a3":"PER","type_en":"Department"}},{"type":"Polygon","arcs":[[-38,41,42,43,44]],"id":"PER-589","properties":{"adm1_code":"PER-589","iso_3166_2":"PE-ICA","name":"Ica","admin":"Peru","adm0_a3":"PER","type_en":"Department"}},{"type":"Polygon","arcs":[[-43,45,46,47,48,49,50,51,52]],"id":"PER-591","properties":{"adm1_code":"PER-591","iso_3166_2":"PE-LIM","name":"Lima","admin":"Peru","adm0_a3":"PER","type_en":"Department"}},{"type":"Polygon","arcs":[[-47,53,54,55]],"id":"PER-587","properties":{"adm1_code":"PER-587","iso_3166_2":"PE-LIM","name":"Lima Province","admin":"Peru","adm0_a3":"PER","type_en":"Captial District"}},{"type":"Polygon","arcs":[[-55,56]],"id":"PER-3505","properties":{"adm1_code":"PER-3505","iso_3166_2":"PE-CAL","name":"Callao","admin":"Peru","adm0_a3":"PER","type_en":"Departamento"}},{"type":"Polygon","arcs":[[-49,57,58,59]],"id":"PER-577","properties":{"adm1_code":"PER-577","iso_3166_2":"PE-ANC","name":"Áncash","admin":"Peru","adm0_a3":"PER","type_en":"Department"}},{"type":"Polygon","arcs":[[-14,60,61,-59,62,63,-17]],"id":"PER-580","properties":{"adm1_code":"PER-580","iso_3166_2":"PE-LAL","name":"La Libertad","admin":"Peru","adm0_a3":"PER","type_en":"Department"}},{"type":"Polygon","arcs":[[-18,-64,64,-23]],"id":"PER-566","properties":{"adm1_code":"PER-566","iso_3166_2":"PE-LAM","name":"Lambayeque","admin":"Peru","adm0_a3":"PER","type_en":"Department"}},{"type":"Polygon","arcs":[[-5,-34,-41,65,66,67,-26]],"id":"PER-571","properties":{"adm1_code":"PER-571","iso_3166_2":"PE-CUS","name":"Cusco","admin":"Peru","adm0_a3":"PER","type_en":"Department"}},{"type":"Polygon","arcs":[[-39,-45,68,69,-67,70]],"id":"PER-586","properties":{"adm1_code":"PER-586","iso_3166_2":"PE-AYA","name":"Ayacucho","admin":"Peru","adm0_a3":"PER","type_en":"Department"}},{"type":"Polygon","arcs":[[-40,-71,-66]],"id":"PER-569","properties":{"adm1_code":"PER-569","iso_3166_2":"PE-APU","name":"Apurímac","admin":"Peru","adm0_a3":"PER","type_en":"Department"}},{"type":"Polygon","arcs":[[-44,-53,71,-69]],"id":"PER-588","properties":{"adm1_code":"PER-588","iso_3166_2":"PE-HUV","name":"Huancavelica","admin":"Peru","adm0_a3":"PER","type_en":"Department"}},{"type":"Polygon","arcs":[[-10,72,-61,-13]],"id":"PER-582","properties":{"adm1_code":"PER-582","iso_3166_2":"PE-SAM","name":"San Martín","admin":"Peru","adm0_a3":"PER","type_en":"Department"}},{"type":"Polygon","arcs":[[-9,-29,73,-50,-60,-62,-73]],"id":"PER-579","properties":{"adm1_code":"PER-579","iso_3166_2":"PE-HUC","name":"Huánuco","admin":"Peru","adm0_a3":"PER","type_en":"Department"}},{"type":"Polygon","arcs":[[-28,74,-51,-74]],"id":"PER-581","properties":{"adm1_code":"PER-581","iso_3166_2":"PE-PAS","name":"Pasco","admin":"Peru","adm0_a3":"PER","type_en":"Department"}},{"type":"Polygon","arcs":[[-27,-68,-70,-72,-52,-75]],"id":"PER-590","properties":{"adm1_code":"PER-590","iso_3166_2":"PE-JUN","name":"Junín","admin":"Peru","adm0_a3":"PER","type_en":"Department"}}]}},"arcs":[[[80340,2976],[390,395],[1539,540],[923,899],[205,458],[698,684],[821,251],[944,782],[-123,477],[472,746],[615,90],[678,-602],[554,36],[164,287]],[[88220,8019],[1108,-1294],[1006,-558],[1354,-449],[595,18]],[[92283,5736],[534,-63],[595,-378],[102,-755],[-1375,-809],[-1067,-18],[-307,-414],[574,-1348],[-636,-890],[-841,-585],[-1293,-368],[-1457,-18],[-595,-90],[-1334,620],[-944,342],[-1129,683],[-533,171],[-185,324],[-1354,422],[-698,414]],[[97742,28994],[-4987,-1699],[-349,0],[-5315,1789],[-267,-54]],[[86824,29030],[-1559,90],[0,-603],[-1006,-36],[-2811,306],[-1108,476],[-1190,216],[-1375,414],[-883,-9],[-1477,314],[-452,189],[-451,594],[164,602],[-164,431],[-595,810],[-616,107],[-472,279],[-369,773],[-1314,522],[-348,656],[389,1286],[1047,1312],[164,621]],[[72398,38380],[164,539],[575,710],[-472,612],[226,215],[1190,-314],[1354,81],[3509,1240],[1150,315],[1682,863],[1006,872],[390,1483],[1416,801]],[[84588,45797],[-21,-3237],[0,-2526],[842,395],[759,-539],[1170,-153],[718,126],[1929,665],[1169,-45],[698,-206],[1129,71],[3509,-4225],[3509,-4189],[-287,-396],[-534,-297],[390,-251],[-246,-297],[-636,-117],[-1006,-692],[62,-890]],[[58136,59048],[-657,279],[-1292,333],[-1519,179],[-759,315],[-554,-9],[-144,-288],[349,-1052],[82,-1519],[-246,-315],[-862,-296],[-1785,-207],[-2114,-629],[-1396,0],[-307,-459],[-760,-180],[-102,-314],[677,-755],[-493,-198],[-800,431],[-431,-27],[-472,-368],[-1354,-764],[-801,-252]],[[42396,52953],[165,422]],[[42561,53375],[472,1277],[759,629],[123,576],[-267,548],[-1908,2796],[-329,944],[124,1196],[-206,548],[123,387],[657,836],[821,180],[1088,-351],[697,-593],[678,63],[554,638],[246,836],[226,1573],[-329,531],[-533,377],[-739,234],[-1395,216],[-1909,-63],[-575,198],[-1231,881],[-554,-27],[-1149,-558],[-452,-108],[-677,99],[-492,297],[-431,791],[-349,360],[-1067,413],[-1642,54],[-533,144],[-965,638],[-1436,423],[-739,405]],[[29222,70763],[-554,854],[-513,2067],[267,801],[615,503],[677,944],[165,1852],[184,432],[-205,647],[-513,620],[-103,854],[-246,827],[-697,1061],[-83,621],[-328,1123]],[[27888,83969],[5192,1259],[3817,944],[349,144],[4227,2229],[3468,2805],[575,378],[164,243],[1170,3164],[492,-278],[965,27],[-555,1213],[247,576],[-41,638],[-821,315],[-472,350],[-390,854],[-759,351],[431,324],[554,-207],[882,63],[472,233],[493,405],[636,-54],[718,-503],[923,-405],[472,-72],[390,279],[1088,-998],[349,81],[841,-656],[965,-567],[389,-620],[-102,-324],[533,-359],[165,-774],[390,-242],[964,-180],[616,-279],[964,-234],[308,-422],[616,-171],[554,36],[759,-216],[574,-638],[-164,-162],[678,-413],[102,-513],[-369,-557],[1518,-648],[575,108],[636,-144],[226,-530],[-82,-342],[451,-629],[-657,-620],[288,-576],[800,-36],[698,-314],[205,-342],[1088,225],[697,-225],[575,468],[636,-270],[965,-117],[369,-234],[882,81],[329,207],[636,-63],[574,414],[965,9],[1005,755],[575,260],[2463,-611],[533,-620],[575,189],[759,-45],[616,431],[1169,360],[944,-180],[677,-423],[657,-116],[452,-666],[554,243],[964,-476],[780,35],[492,-269],[472,-486],[739,-224],[370,179],[348,-449],[-3262,-3533],[-2135,-2293],[349,-27],[1149,-431],[842,-9],[472,269],[533,-63],[739,-521],[226,-566],[1026,-432],[739,-701],[-185,-432],[-595,-72],[-246,342],[-1067,-207],[-596,234],[-41,494],[-944,198],[-1231,-332],[-677,332],[-328,-207],[-944,-36],[-82,-323],[-985,-809],[-903,117],[-370,-207],[-2975,-252],[-1273,-324],[-862,144],[-902,-180],[-719,-368],[-718,-126],[-451,-414],[-965,-431],[-554,0],[-616,-252],[-41,-297],[-1764,-890],[-226,-215],[-739,36],[-1334,-414],[164,-764],[-615,-1061],[102,-512],[-328,-819],[-1088,-926],[-738,-1087],[61,-387],[390,-297],[349,-1267],[-534,-603],[-1354,-215],[-1129,-621],[-1354,-620],[-636,-503],[-328,-1169],[574,-585],[164,-431],[-369,-180],[-1724,-207],[267,-404],[-308,-441]],[[29222,70763],[-513,-396],[41,-980],[-123,-476],[964,-1295],[534,-342],[1334,-251],[821,-279],[451,-495],[246,-530],[-184,-351],[-944,-611],[-267,-494],[-821,-234],[-944,0],[-841,234],[-534,-405],[-82,-845],[-226,-477],[288,-566]],[[28422,61970],[-1047,45],[-923,-144]],[[26452,61871],[-247,405],[-20,1088],[-759,1078],[-431,450],[-1375,593],[-801,1097],[-841,405],[-492,90],[-657,584],[-554,656],[390,881],[923,926],[0,719],[-349,1214],[247,647],[246,171],[20,567],[-308,386],[-246,719],[-431,585]],[[20767,75132],[288,189],[287,629],[-349,593],[821,1241],[82,566],[513,234],[246,674],[452,315],[-82,450],[390,881],[328,791],[513,-90],[328,-585],[513,162],[-267,621],[1211,953],[801,737],[1046,476]],[[26452,61871],[431,-800],[533,-405],[226,-791],[554,-296],[-1170,-423],[-123,-836],[-1211,-180],[-431,126],[-779,-458],[-1293,620],[-698,9],[-739,368],[-882,-62],[-595,170],[-1334,-287],[-431,-531],[-513,234],[-21,557],[-246,360],[-821,494],[-1210,243],[-267,180],[328,485],[-123,405],[82,827]],[[15719,61880],[226,620],[1211,720],[-124,341],[-1210,261],[-288,495],[-595,242],[41,1025],[1170,297],[308,467],[-246,342],[513,557],[-883,225],[-923,-9]],[[14919,67463],[739,450],[-513,980],[225,1249],[534,-9],[-41,863],[-267,243],[-123,773],[821,621],[328,422]],[[16622,73055],[1026,-81],[759,108],[226,468],[636,170],[-225,522],[595,521],[1128,369]],[[6526,77973],[-1416,-791],[-1026,242],[-842,-18],[-1067,450]],[[2175,77856],[554,620],[985,549],[123,350],[637,540],[1251,512],[595,602],[1334,216],[226,396],[595,-180],[-61,-324],[451,-800],[-41,-746],[431,-611],[-739,-342],[-349,-342],[-820,126],[-575,-90],[-246,-359]],[[14919,67463],[-636,306],[-924,36],[-205,269],[-657,162],[41,558],[-513,512],[-1026,567],[-41,-1502],[-349,-171],[-2442,-485],[-1149,-854],[-308,-504],[-1128,-1016]],[[5582,65341],[-1273,423],[-492,333],[-1950,908],[-410,530],[21,504],[882,359],[780,-180],[595,585],[61,512],[-595,1016],[-1108,791],[-472,99],[-533,504],[225,665],[698,45],[144,314],[-1252,1169],[-903,701],[246,189],[-184,917],[389,441],[-102,431],[308,423],[1518,836]],[[6526,77973],[328,-809],[903,-36],[-1047,-962],[637,-450],[595,180],[738,414],[267,386],[985,-54],[780,-440],[616,-54],[861,-468],[1088,252],[1190,-503],[-164,-477],[534,-836],[1251,-1043],[534,-18]],[[72398,38380],[-841,98],[-965,-197],[-1067,-513],[-615,18],[-698,360],[-903,-81],[-882,333],[-308,512],[-1252,-432],[-2401,-161]],[[62466,38317],[-451,377],[-185,450],[164,953],[-554,728],[-534,386],[-1005,207],[-985,-1007],[-452,-188],[-595,27],[-1600,-234],[-595,0],[-719,-198],[-697,315],[-267,782]],[[53991,40915],[759,377],[944,648],[944,314],[-267,351],[-574,144],[-719,1079],[83,971],[-616,1007],[-21,584],[-492,827],[-287,243]],[[53745,47460],[-1293,1285],[-123,378],[287,692],[20,818],[390,567],[103,719],[780,413],[-41,459],[-329,234],[-903,72],[-964,-216],[-1888,-980],[-923,-890],[-637,-845],[-472,-414],[-1108,-296],[-944,-540],[-718,-117],[-574,630],[-431,242],[-185,836],[-677,567],[-123,953],[-596,926]],[[58136,59048],[123,-305],[1026,-738],[1006,-368],[-21,-432],[-656,-144],[143,-332],[883,-324],[513,-674],[-41,-306],[636,-980],[1354,-593],[41,-647],[636,-450],[760,-216],[841,-944],[718,-503],[144,-549],[-698,-791],[-349,-72],[-985,-899],[3181,-9],[1724,-242],[472,-144],[841,-9],[677,-270],[637,-737],[-21,-522],[554,-233],[267,-450],[-267,-647],[6362,0],[615,63],[924,296],[287,351],[1149,324],[1108,854],[1539,728],[739,477],[62,-558],[-370,-126],[636,-881],[-656,-467],[-82,-782]],[[97742,28994],[-41,-729],[123,-647],[-164,-1465],[-760,-791],[513,-315],[267,-1196],[513,-287],[390,-720],[-123,-296],[-1006,-189],[165,-728],[-1375,-675],[-62,-413],[-595,-90],[-164,-854],[-739,-207],[-226,-962],[801,-746],[1108,-719],[-1129,-648],[-20,-314],[-1006,-1025],[-20,-324],[1621,-2715],[574,-386],[1293,71],[1088,-503],[-82,-333],[-1170,-323],[-287,-378],[20,-971],[-1231,-404],[-246,-405],[-1457,-1079],[-164,-386],[-637,-144],[-903,-396],[-328,-566]],[[88220,8019],[82,441],[1108,449],[-2093,1250],[-451,782],[143,468],[-533,494],[-247,602],[-1087,207],[-944,-251],[-1293,377]],[[82905,12838],[62,441],[-739,665],[246,575],[-821,621],[-164,1276]],[[81489,16416],[328,108],[103,567],[-287,602],[-21,602],[246,297],[-123,917],[-472,63],[-513,404],[1006,549],[143,755],[698,180],[452,998],[184,728],[-328,449],[267,1016],[759,117],[451,243],[739,1205],[513,521],[698,459],[328,431],[-61,594],[225,809]],[[80340,2976],[-1026,476],[-431,405],[-328,1267],[-698,450]],[[77857,5574],[431,234],[513,638],[184,737],[-492,243],[-328,611],[164,288],[985,432],[-41,539],[697,665],[616,252],[1396,-9],[184,737],[554,396],[185,1501]],[[77857,5574],[-205,180],[-1006,296],[-1313,216],[-1108,648],[-780,242],[-1190,612],[-760,197],[-533,648],[-1006,386],[-780,171],[-820,-9],[-719,180],[-841,404],[-1354,324],[-1047,486],[-698,98],[-287,261],[-821,261],[-2216,396],[-1129,404],[-1498,728],[-102,288],[-3120,890],[-184,387],[-595,134],[-2442,738],[-165,161],[-1641,549]],[[49497,15850],[903,1088],[1867,818]],[[52267,17756],[103,-216],[1929,-369],[61,-341],[472,-567],[452,-134],[369,-459],[554,-135],[965,207],[390,-818],[595,216],[554,584],[2667,234],[924,287],[1375,-161],[164,620],[718,-99],[1088,926],[205,917],[-226,288],[308,458],[1272,153],[-82,360]],[[67124,19707],[657,395],[1539,-206],[657,125]],[[69977,20021],[20,-350],[493,-423],[677,-153],[1621,171],[493,-368],[328,476],[-82,620],[369,0],[883,-899],[554,-125],[-390,-396],[-41,-575],[1559,-378],[2155,306],[452,-279],[800,198],[472,-261],[-41,-485],[1190,-684]],[[49497,15850],[-657,243],[-62,440],[-554,189],[-20,396],[-965,332],[-738,800],[-760,612],[-2277,872],[-719,422],[-20,378],[-370,647],[-882,477],[-451,818],[-431,305],[-616,153],[20,1070],[-923,198],[267,584],[780,-332],[636,1762],[-41,404],[-493,791]],[[40221,27411],[370,180],[492,558],[1129,629],[410,387],[636,-171],[1293,81],[534,188]],[[45085,29263],[-41,-332],[-575,-369],[62,-584],[-390,-225],[-370,-710],[1006,-99],[1498,-324],[-513,-647],[267,-486],[-349,-413],[41,-557],[267,-270],[1354,-342],[1108,-620],[657,-81],[472,-288]],[[49579,22916],[41,-629],[-554,-764],[451,-252],[164,-890],[513,0],[698,288],[411,-585],[595,-368],[164,-495],[472,-521],[0,-468],[-267,-476]],[[40221,27411],[-1847,1556],[-266,908],[-903,647],[-390,719],[-944,603]],[[35871,31844],[390,521],[451,135],[390,800],[-472,450],[-390,737],[452,413],[-554,495],[-719,-414],[-636,-27],[-123,603],[759,521],[-862,-9],[-574,773],[-329,216],[-923,-692]],[[32731,36366],[-698,575],[-287,450],[-1047,494],[-1518,602],[41,432],[369,270],[-595,1294],[-656,612],[-83,296],[-1005,872]],[[27252,42263],[698,459],[123,782],[677,54],[226,-225],[-575,-665],[595,-45],[575,-315],[20,-782],[678,-63],[779,234],[288,351],[1395,674],[369,728],[1724,531]],[[34824,43981],[246,-324],[493,-36],[205,-351],[493,-144]],[[36261,43126],[800,-1285],[82,-342],[534,-476],[0,-782],[656,-684]],[[38333,39557],[103,-1177],[390,-261],[390,-782],[636,-441],[595,-54],[82,-773],[595,-665],[493,-252],[472,-602],[985,144],[1580,-495],[390,-216],[-82,-332],[882,-1304],[-246,-1115],[800,-359]],[[46398,30873],[-390,-594],[-595,-323],[-328,-693]],[[35871,31844],[61,701],[-492,431],[-1457,531],[-123,494],[-472,180]],[[33388,34181],[-205,450]],[[33183,34631],[-452,1213],[0,522]],[[33388,34181],[-472,54],[267,396]],[[27252,42263],[-1313,1394],[-390,800],[-493,324],[-82,539],[-451,495],[41,863],[-554,395],[-554,576],[-452,1069],[21,342],[-472,153],[-103,764],[-575,117],[21,351],[-595,260],[-41,504]],[[21260,51209],[246,108],[164,656],[472,377],[2237,531],[144,638],[574,612],[411,701],[1210,710],[472,584],[698,-63],[1252,252],[369,-665],[965,-531],[1046,-1024],[226,-540]],[[31746,53555],[246,-818],[616,-396],[-21,-287],[616,-486],[493,-126],[615,-503],[903,-423],[800,-242],[329,-378],[-944,-665],[-801,-1259],[-102,-467],[-780,-809],[575,-855],[143,-674],[616,-296],[-226,-890]],[[28422,61970],[472,-701],[492,-252],[-61,-620],[266,-648],[1129,-935],[-144,-1042],[554,-747],[-41,-530],[370,-387],[1005,-18],[1601,-368],[923,-594],[247,-1447],[184,-243]],[[35419,53438],[-225,-260],[-862,9],[-329,566],[-1026,-189],[-1231,-9]],[[21260,51209],[-267,449],[-657,585],[165,188],[-124,720],[-472,440],[-964,504],[308,323],[-657,872],[-1108,702],[0,125],[-1375,693],[-1313,1222],[246,225],[-1170,1151],[62,422],[-308,657],[-616,575]],[[13010,61062],[1519,1052],[1190,-234]],[[13010,61062],[-143,297],[-1765,1213],[-246,531],[-1232,746],[-1416,575],[-2626,917]],[[69977,20021],[-144,576],[205,278],[801,387],[779,162],[288,333],[1026,755],[246,584],[-21,944],[-636,836],[-841,486],[-821,116],[-431,423],[-1395,189],[-1560,701],[-1272,198],[-1047,-333],[-985,207]],[[64169,26863],[-656,342],[-842,818],[-472,189],[-636,602],[-657,1555],[-348,558],[-678,269],[-759,675],[-20,350],[-780,890]],[[58321,33111],[1067,36],[1334,297],[349,440],[82,693],[779,773],[42,782],[-1375,521],[1005,522],[452,458],[410,684]],[[49579,22916],[595,297],[1313,180],[719,198],[20,926],[-472,809],[-20,584],[-575,566],[-493,252],[226,522],[780,197],[451,-278],[801,-135],[287,270],[-616,278],[1047,495],[882,63],[308,224],[-102,576],[1026,207],[-431,521],[328,809],[-369,890],[-678,710],[-554,36],[-431,369],[411,764],[903,575]],[[54935,33821],[328,-377],[1355,-531],[779,279],[924,-81]],[[64169,26863],[-246,-306],[-1683,198],[-677,360],[-2031,863],[-329,-881],[246,-1124],[1006,-818],[-431,-315],[903,-1151],[287,-782],[431,-449],[103,-693],[-103,-809],[308,-386],[-164,-576],[-411,-116],[431,-657],[678,90],[554,531],[697,-63],[1745,314],[184,180],[1457,-566]],[[46398,30873],[677,728],[1355,827],[697,153],[21,521],[472,495],[-82,359],[-390,333],[410,432],[780,-333],[1478,18],[820,315],[1314,-306],[985,-594]],[[42561,53375],[-575,-314],[-410,-486],[-760,90],[-246,674],[-944,1061],[-246,-162],[-62,-764],[-738,-278],[-2484,341],[-677,-99]],[[53745,47460],[-1765,-567],[-1745,-206],[-1190,89],[-1498,-494],[-1354,-171],[-965,27],[-923,-117],[-534,-251],[-225,-747],[287,-989],[-103,-476],[-1108,-333],[-698,261],[-1539,81],[-636,422],[-656,126],[-944,9],[-637,-152],[-513,-495],[-738,-351]],[[53991,40915],[-1396,-18],[-759,153],[-1005,476],[-924,306],[-780,-279],[-1785,-324],[-759,-9],[-2442,-503],[-1888,-27],[-513,198],[-534,-279],[-1231,-189],[20,-782],[-1662,-81]]],"bbox":[-81.3368324669613,-18.338451899001015,-68.68890635251367,-0.033027511544389654],"transform":{"scale":[0.00012648052594973577,0.0001830560744353106],"translate":[-81.3368324669613,-18.338451899001015]}}