{"type":"Topology","objects":{"a1":{"type":"GeometryCollection","geometries":[{"type":"Polygon","arcs":[[0]],"id":"PGA+00?","properties":{"adm1_code":"PGA+00?","iso_3166_2":"-99-X08~","name":"Spratly Islands","admin":"Spratly Is.","adm0_a3":"PGA","type_en":null}}]}},"arcs":[[[99999,99999],[-83333,-99999],[-16666,99999],[99999,0]]],"bbox":[115.81560334820949,10.720154449045538,115.83117641545482,10.734965994445787],"transform":{"scale":[1.5573222977557142e-7,1.4811693517184488e-7],"translate":[115.81560334820949,10.720154449045538]}}