{"type":"Topology","objects":{"a1":{"type":"GeometryCollection","geometries":[{"type":"Polygon","arcs":[[0,1,2]],"id":"PRY-598","properties":{"adm1_code":"PRY-598","iso_3166_2":"PY-19","name":"Boquerón","admin":"Paraguay","adm0_a3":"PRY","type_en":"Department"}},{"type":"Polygon","arcs":[[-2,3,4,5,6,7,8,9]],"id":"PRY-605","properties":{"adm1_code":"PRY-605","iso_3166_2":"PY-15","name":"Presidente Hayes","admin":"Paraguay","adm0_a3":"PRY","type_en":"Department"}},{"type":"Polygon","arcs":[[10,11,-8,12,13,14]],"id":"PRY-607","properties":{"adm1_code":"PRY-607","iso_3166_2":"PY-11","name":"Central","admin":"Paraguay","adm0_a3":"PRY","type_en":"Department"}},{"type":"Polygon","arcs":[[15,-9,-12]],"id":"PRY-4837","properties":{"adm1_code":"PRY-4837","iso_3166_2":"PY-ASU","name":"Asunción","admin":"Paraguay","adm0_a3":"PRY","type_en":"Capital District"}},{"type":"Polygon","arcs":[[16,17,18,19,20]],"id":"PRY-616","properties":{"adm1_code":"PRY-616","iso_3166_2":"PY-10","name":"Alto Paraná","admin":"Paraguay","adm0_a3":"PRY","type_en":"Department"}},{"type":"Polygon","arcs":[[-17,21,22,23]],"id":"PRY-620","properties":{"adm1_code":"PRY-620","iso_3166_2":"PY-7","name":"Itapúa","admin":"Paraguay","adm0_a3":"PRY","type_en":"Department"}},{"type":"Polygon","arcs":[[-15,24,25,26]],"id":"PRY-610","properties":{"adm1_code":"PRY-610","iso_3166_2":"PY-12","name":"Ñeembucú","admin":"Paraguay","adm0_a3":"PRY","type_en":"Department"}},{"type":"Polygon","arcs":[[-23,27,-26,28,29]],"id":"PRY-609","properties":{"adm1_code":"PRY-609","iso_3166_2":"PY-8","name":"Misiones","admin":"Paraguay","adm0_a3":"PRY","type_en":"Department"}},{"type":"Polygon","arcs":[[-1,30,31,-4]],"id":"PRY-597","properties":{"adm1_code":"PRY-597","iso_3166_2":"PY-16","name":"Alto Paraguay","admin":"Paraguay","adm0_a3":"PRY","type_en":"Department"}},{"type":"Polygon","arcs":[[-5,-32,32,33,34]],"id":"PRY-603","properties":{"adm1_code":"PRY-603","iso_3166_2":"PY-1","name":"Concepción","admin":"Paraguay","adm0_a3":"PRY","type_en":"Department"}},{"type":"Polygon","arcs":[[35,36,37,-34]],"id":"PRY-615","properties":{"adm1_code":"PRY-615","iso_3166_2":"PY-13","name":"Amambay","admin":"Paraguay","adm0_a3":"PRY","type_en":"Department"}},{"type":"Polygon","arcs":[[-20,38,39,-37,40]],"id":"PRY-619","properties":{"adm1_code":"PRY-619","iso_3166_2":"PY-14","name":"Canindeyú","admin":"Paraguay","adm0_a3":"PRY","type_en":"Department"}},{"type":"Polygon","arcs":[[-6,-35,-38,-40,41,42]],"id":"PRY-606","properties":{"adm1_code":"PRY-606","iso_3166_2":"PY-2","name":"San Pedro","admin":"Paraguay","adm0_a3":"PRY","type_en":"Department"}},{"type":"Polygon","arcs":[[-19,43,44,45,46,-42,-39]],"id":"PRY-617","properties":{"adm1_code":"PRY-617","iso_3166_2":"PY-5","name":"Caaguazú","admin":"Paraguay","adm0_a3":"PRY","type_en":"Department"}},{"type":"Polygon","arcs":[[-7,-43,-47,47,-13]],"id":"PRY-604","properties":{"adm1_code":"PRY-604","iso_3166_2":"PY-3","name":"Cordillera","admin":"Paraguay","adm0_a3":"PRY","type_en":"Department"}},{"type":"Polygon","arcs":[[-18,-24,-30,48,49,-44]],"id":"PRY-618","properties":{"adm1_code":"PRY-618","iso_3166_2":"PY-6","name":"Caazapá","admin":"Paraguay","adm0_a3":"PRY","type_en":"Department"}},{"type":"Polygon","arcs":[[-14,-48,-46,50,-49,-29,-25]],"id":"PRY-611","properties":{"adm1_code":"PRY-611","iso_3166_2":"PY-9","name":"Paraguarí","admin":"Paraguay","adm0_a3":"PRY","type_en":"Department"}},{"type":"Polygon","arcs":[[-45,-50,-51]],"id":"PRY-608","properties":{"adm1_code":"PRY-608","iso_3166_2":"PY-4","name":"Guairá","admin":"Paraguay","adm0_a3":"PRY","type_en":"Department"}}]}},"arcs":[[[8616,90614],[1267,-813],[22235,-6270],[1112,-556],[-247,-932],[556,-1726],[1112,-1806],[494,-3095],[-185,-496],[-1668,-1250],[-1266,-5278],[339,-1647],[1761,139],[4292,-158],[927,-437]],[[39345,66289],[463,-1369],[-1390,-754],[-525,337],[-1544,-793],[-278,-1389],[-1451,-476],[-31,-933],[-2285,-3214],[-309,-1429],[92,-1726],[-247,-1786],[-710,-1587],[-371,-1964],[-1976,-833],[-3860,-219],[-2502,-932],[-340,-972],[62,-1548]],[[22143,44702],[-1760,714],[-834,99],[-1328,1687],[93,714],[-1946,992],[-278,516],[-2316,814],[-1359,1508],[-1637,654],[-92,576],[-1112,1071],[-1328,774],[-958,1786],[-1606,2023],[-185,953],[-1204,1865],[-618,139],[-3490,2123],[-185,754],[2810,8829],[1637,5238],[31,794],[-62,5079],[803,1309],[2378,3274],[1019,1627]],[[39345,66289],[2254,-952],[1853,59],[3150,-139],[5590,-357],[803,-1012],[4108,-1706]],[[57103,62182],[247,-1647],[525,-1270],[-1328,0],[-525,-615],[1791,-1944],[0,-1746],[895,-754],[989,-318],[92,-654],[1699,-1369],[-247,-695],[679,-1667]],[[61920,49503],[-61,-1190],[617,-873],[1390,-933],[-154,-1785],[185,-1607],[1390,-1369],[-680,-953],[587,-1210],[463,-2441],[-185,-992],[679,-1150],[-401,-893],[-711,-218],[-401,-1588],[31,-1051]],[[64669,31250],[-834,79],[-710,-992],[-1328,-575]],[[61797,29762],[-803,39],[-710,-1508]],[[60284,28293],[-1050,-674]],[[59234,27619],[-989,1309],[-1637,1230],[-926,20],[-3027,1647],[-1050,-635],[-1914,1726],[-2625,457],[-1390,436],[-2255,1587],[-4045,1905],[-1421,1548],[-1884,913],[-679,694],[-4262,2639],[-1328,-218],[-2193,79],[-1853,496],[-1297,774],[-2316,476]],[[57473,20873],[-31,853],[958,675],[-155,595],[1544,694],[649,834],[154,1051],[-494,675]],[[60098,26250],[587,535],[62,933],[-463,575]],[[61797,29762],[1637,-1727],[1019,-1706],[834,-337]],[[65287,25992],[-896,-655],[-2254,-3115],[247,-1448],[-340,-1032],[-834,-814]],[[61210,18928],[-649,1171],[-1729,1250],[-1359,-476]],[[60098,26250],[-864,1369]],[[94996,16170],[-2872,1092],[-463,-615],[-1452,-199],[-2254,437],[-402,1170]],[[87553,18055],[772,635],[-957,476],[-1452,-238],[-1019,576],[-154,1230],[1513,3036],[-1050,654]],[[85206,24424],[3119,3909],[1205,-635],[864,-20],[340,-654],[896,19],[-803,1846],[-2100,1666],[-1143,258],[-463,714],[0,2381],[340,615],[92,1608],[741,992]],[[88294,37123],[1328,416],[278,-793],[1205,-80],[1266,-516],[0,-456],[2594,-218],[494,-615],[3181,-516]],[[98640,34345],[-587,-1072],[-648,-2599],[401,-1131],[-895,-1785],[-1266,-1865],[123,-1707],[216,-853],[-710,-516],[648,-1468],[-216,-1647],[-679,-397],[247,-1269],[-278,-1866]],[[94996,16170],[31,-833],[-525,-1607],[-988,-1052],[-31,-1388],[-1328,-179],[-834,-1548],[-1019,-218],[-772,-694],[-155,-1092],[-1698,239],[-1575,-556],[-587,-1429],[-865,0],[-772,-1011],[371,-774],[-278,-992],[-1946,-1389],[-1266,635],[-618,774],[-617,-60],[-1884,397],[-1853,-1091],[-216,-1092],[-834,-1210],[-1112,317],[-1019,1191],[-1081,40]],[[71525,1548],[-31,1369],[-556,535],[371,1270],[1482,1230],[-494,4405]],[[72297,10357],[1915,-655],[2409,992],[1081,278],[1605,2083],[1421,318],[1482,1389],[3274,833],[1699,1468],[370,992]],[[61210,18928],[278,-1964],[-1575,-1448],[-1081,-1429]],[[58832,14087],[834,-4444],[1173,-1726],[1359,-1449],[2255,-337],[370,-734],[-1297,-3572]],[[63526,1825],[-895,318],[-1792,-40],[-1914,873],[-3861,893],[-2594,40],[-3243,-258],[-1111,-457],[31,854],[-587,1071],[1667,1151],[618,1607],[1297,496],[-31,675],[1266,873],[124,1309],[865,694],[-587,576],[93,1706],[432,1587],[988,1727],[1174,476],[1359,932],[-31,1627],[679,318]],[[71525,1548],[-1575,-655],[-1606,1071],[-2038,-793],[-1236,-40],[-1544,694]],[[58832,14087],[1853,-1666],[2471,-873],[1667,396],[278,695],[1637,1547],[2625,-1031],[432,-615]],[[69795,12540],[2502,-2183]],[[8616,90614],[1946,4901],[278,218],[2718,397],[8029,1686],[9852,2044],[10902,139],[5991,-3532],[4910,-2916],[340,-1786],[-154,-2361],[494,-595],[401,-1945],[1112,-694],[-216,-1111],[216,-1151],[1544,-1310],[-587,-1825],[1019,-1409],[-339,-476],[278,-1071],[-217,-1092],[-679,-853],[587,-516],[-896,-1488],[-92,-2043],[494,-794],[-494,-794],[-217,-1150],[371,-655],[-741,-1568],[185,-555]],[[55651,66309],[62,-2123],[834,-278],[834,-1309],[-278,-417]],[[55651,66309],[1513,-754],[1297,476],[958,0],[494,-873],[1668,-40],[1050,-396],[1358,-20],[680,317],[1606,-615],[803,60],[2007,-675]],[[69085,63789],[2625,-694],[93,-397],[-1112,-1191],[-154,-1984],[834,-2103],[648,-833],[772,198],[371,873],[1142,417],[1236,893],[339,-219],[1699,-4146],[-525,-854],[-216,-1031],[-1081,-893],[-216,-695]],[[75540,51130],[-1236,-853],[-2378,-496],[-2779,357],[-2996,-575],[-3119,-417],[-1112,357]],[[69085,63789],[402,496],[1853,139],[803,556],[895,1210],[1050,198],[1266,-1607],[1421,-873],[3613,-317],[371,198],[1328,-1528],[93,-1448],[1328,-1091],[154,-1191],[-494,-1111],[247,-2202],[463,-1409],[772,-1349],[-247,-1211],[494,-595],[-247,-1825]],[[84650,48829],[-525,-1270],[-1698,-794],[-1730,-1111],[-463,-516],[-1822,-138]],[[78412,45000],[926,972],[0,1151],[587,873],[-62,833],[-1142,-199],[-958,-575],[-370,972],[1204,1092],[-494,1190],[-1112,218],[-1451,-397]],[[88294,37123],[-3489,-655],[-1915,-1726],[-803,-1012]],[[82087,33730],[-772,456],[-1050,1171],[-680,1409],[-988,1488],[-834,654],[-525,1111],[62,1211],[1915,1666],[-803,2104]],[[84650,48829],[62,-873],[988,-1587],[185,-2342],[402,-575],[2347,-516],[1112,377],[1945,238],[1390,992],[2533,913],[2254,-1250],[680,-853],[1451,-794],[-1081,-1190],[896,-2163],[-896,-2401],[185,-1210],[-463,-1250]],[[82087,33730],[-2378,-714],[-1235,-1508],[-1853,1349],[-433,813],[-2965,-2817]],[[73223,30853],[-1204,853],[-1112,417],[-3520,-576],[-865,-893],[-1853,596]],[[85206,24424],[-741,-1031],[-896,-119]],[[83569,23274],[-309,178],[-2100,-496],[-1328,833],[-1822,239],[-3181,119],[-1822,-596],[-1575,-992]],[[71432,22559],[-1204,675]],[[70228,23234],[-741,1786],[2934,1884],[802,3949]],[[70228,23234],[-1205,-79],[-648,1448],[-2193,178],[-895,1211]],[[69795,12540],[649,674],[803,1568],[247,1091],[649,1071]],[[72143,16944],[957,119],[278,933],[1266,734],[1452,436],[1173,-634],[958,496],[494,1309],[3119,1329],[1204,655],[525,953]],[[71432,22559],[-123,-1547],[617,-1488],[-772,-358],[186,-892],[803,-1330]]],"bbox":[-62.649151772517854,-27.580856228764254,-54.24488648243343,-19.286390804617767],"transform":{"scale":[0.0000840434933357776,0.00008294548369630184],"translate":[-62.649151772517854,-27.580856228764254]}}