{"type":"Topology","objects":{"a1":{"type":"GeometryCollection","geometries":[{"type":"Polygon","arcs":[[0]],"id":"PYF-4965","properties":{"adm1_code":"PYF-4965","iso_3166_2":"PF-X03~","name":"Tuamotu-Gambier","admin":"French Polynesia","adm0_a3":"PYF","type_en":null}},{"type":"MultiPolygon","arcs":[[[1]],[[2]]],"id":"PYF-4963","properties":{"adm1_code":"PYF-4963","iso_3166_2":"PF-X01~","name":"Windward Islands","admin":"French Polynesia","adm0_a3":"PYF","type_en":null}},{"type":"Polygon","arcs":[[3]],"id":"PYF-4964","properties":{"adm1_code":"PYF-4964","iso_3166_2":"PF-X02~","name":"Leeward Islands","admin":"French Polynesia","adm0_a3":"PYF","type_en":null}},{"type":"Polygon","arcs":[[4]],"id":"PYF-4966","properties":{"adm1_code":"PYF-4966","iso_3166_2":"PF-X04~","name":"Austral Islands","admin":"French Polynesia","adm0_a3":"PYF","type_en":null}},{"type":"MultiPolygon","arcs":[[[5]],[[6]],[[7]],[[8]]],"id":"PYF-4967","properties":{"adm1_code":"PYF-4967","iso_3166_2":"PF-X05~","name":"Marquesas Islands","admin":"French Polynesia","adm0_a3":"PYF","type_en":null}}]}},"arcs":[[[84005,52261],[-827,-411],[-303,271],[323,297],[1008,358],[-201,-515]],[[17910,52523],[262,-376],[-322,-358],[-666,131],[-524,638],[-827,-184],[-1069,149],[-424,689],[303,402],[665,140],[686,-9],[585,-210],[403,-908],[928,-104]],[[13150,53937],[-363,-550],[-343,402],[706,148]],[[81,57787],[242,-9],[726,-628],[-807,-236],[-242,253],[81,620]],[[55990,279],[-162,-279],[-322,87],[40,297],[444,-105]],[[99394,91277],[464,-78],[141,-376],[-504,-166],[-101,620]],[[98305,94909],[-242,-271],[-2239,-122],[-101,288],[928,315],[686,-175],[968,-35]],[[88684,97127],[262,-149],[-161,-454],[-383,-8],[-363,349],[645,262]],[[88886,99781],[282,-306],[-645,-201],[-1029,-43],[-161,462],[262,306],[1291,-218]]],"bbox":[-151.48830938493595,-27.631873774031824,-138.61976481784558,-8.781713661298895],"transform":{"scale":[0.00012868673253822906,0.00018850348616219093],"translate":[-151.48830938493595,-27.631873774031824]}}