{"type":"Topology","objects":{"a1":{"type":"GeometryCollection","geometries":[{"type":"Polygon","arcs":[[0,1,2,3,4]],"id":"QAT-1100","properties":{"adm1_code":"QAT-1100","iso_3166_2":"QA-RA","name":"Ar Rayyān","admin":"Qatar","adm0_a3":"QAT","type_en":"Municipality"}},{"type":"Polygon","arcs":[[-4,5,6]],"id":"QAT-1101","properties":{"adm1_code":"QAT-1101","iso_3166_2":"QA-WA","name":"Al Wakrah","admin":"Qatar","adm0_a3":"QAT","type_en":"Municipality"}},{"type":"Polygon","arcs":[[-3,7,8,-6]],"id":"QAT-1099","properties":{"adm1_code":"QAT-1099","iso_3166_2":"QA-DA","name":"Ad Dawhah","admin":"Qatar","adm0_a3":"QAT","type_en":"Municipality"}},{"type":"Polygon","arcs":[[-8,9,10,11]],"id":"QAT-5487","properties":{"adm1_code":"QAT-5487","iso_3166_2":"QA-ZA","name":"Al Daayen","admin":"Qatar","adm0_a3":"QAT","type_en":"Municipality"}},{"type":"Polygon","arcs":[[-1,12,13,14,-11,15]],"id":"QAT-1105","properties":{"adm1_code":"QAT-1105","iso_3166_2":"QA-KH","name":"Al Khawr","admin":"Qatar","adm0_a3":"QAT","type_en":"Municipality"}},{"type":"Polygon","arcs":[[-14,16]],"id":"QAT-1106","properties":{"adm1_code":"QAT-1106","iso_3166_2":"QA-MS","name":"Madinat ach Shamal","admin":"Qatar","adm0_a3":"QAT","type_en":"Municipality"}},{"type":"Polygon","arcs":[[-2,-16,-10]],"id":"QAT-1107","properties":{"adm1_code":"QAT-1107","iso_3166_2":"QA-US","name":"Umm Salal","admin":"Qatar","adm0_a3":"QAT","type_en":"Municipality"}}]}},"arcs":[[[22823,75925],[18017,0],[12613,-2675],[8709,-10391]],[[62162,62859],[1801,-11419],[16216,-1543]],[[80179,49897],[11412,-8848]],[[91591,41049],[-5706,-2366],[-3604,-1441],[-6906,-5967],[-8108,-3189],[-12913,0],[0,-22839]],[[54354,5247],[-601,-1132],[-13813,-4115],[-13514,412],[-11411,4320],[-8408,6893],[5105,1441],[-301,7613],[-5705,6070],[-3003,6481],[-2703,20473],[3003,6687],[11411,6585],[3003,9876],[5406,-926]],[[91591,41049],[7807,1235]],[[99398,42284],[601,-6276],[-3303,-11420],[-9910,-6173],[-6607,-11008],[-7207,-2777],[-18618,617]],[[80179,49897],[8409,1543]],[[88588,51440],[-301,-4733],[11111,-4423]],[[80179,49897],[-4204,4218],[-901,7819]],[[75074,61934],[6006,6687],[9610,-2264]],[[90690,66357],[-5105,-205],[-2102,-6070],[5105,-8642]],[[22823,75925],[2702,3087]],[[25525,79012],[15315,0],[0,6481],[16216,0],[19820,-6173],[0,7613]],[[76876,86933],[11111,-308],[7508,-4116],[2102,-6790],[-4505,-823],[-2402,-8539]],[[75074,61934],[-12912,925]],[[25525,79012],[-2402,2160],[11111,12140],[9910,1749],[13813,4938],[10811,-3498],[300,-4115],[7808,-5453]]],"bbox":[50.751328397055545,24.560720761956645,51.615633629173544,26.160367665184893],"transform":{"scale":[0.000008643138752567519,0.000015996628998572463],"translate":[50.751328397055545,24.560720761956645]}}