{"type":"Topology","objects":{"a1":{"type":"GeometryCollection","geometries":[{"type":"Polygon","arcs":[[0,1,2,3]],"id":"SAU-1098","properties":{"adm1_code":"SAU-1098","iso_3166_2":"SA-04","name":"Ash Sharqiyah","admin":"Saudi Arabia","adm0_a3":"SAU","type_en":"Region"}},{"type":"Polygon","arcs":[[-3,4,5,6,7]],"id":"SAU-861","properties":{"adm1_code":"SAU-861","iso_3166_2":"SA-08","name":"Al Hudud ash Shamaliyah","admin":"Saudi Arabia","adm0_a3":"SAU","type_en":"Region"}},{"type":"Polygon","arcs":[[-7,8,9,10]],"id":"SAU-862","properties":{"adm1_code":"SAU-862","iso_3166_2":"SA-12","name":"Al Jawf","admin":"Saudi Arabia","adm0_a3":"SAU","type_en":"Region"}},{"type":"Polygon","arcs":[[-1,11,12,13]],"id":"SAU-1096","properties":{"adm1_code":"SAU-1096","iso_3166_2":"SA-10","name":"Najran","admin":"Saudi Arabia","adm0_a3":"SAU","type_en":"Region"}},{"type":"Polygon","arcs":[[-13,14,15,16,17,18,19]],"id":"SAU-886","properties":{"adm1_code":"SAU-886","iso_3166_2":"SA-14","name":"`Asir","admin":"Saudi Arabia","adm0_a3":"SAU","type_en":"Region"}},{"type":"MultiPolygon","arcs":[[[20,21,-16]],[[22]],[[23]]],"id":"SAU-887","properties":{"adm1_code":"SAU-887","iso_3166_2":"SA-09","name":"Jizan","admin":"Saudi Arabia","adm0_a3":"SAU","type_en":"Region"}},{"type":"Polygon","arcs":[[-10,24,25,26]],"id":"SAU-848","properties":{"adm1_code":"SAU-848","iso_3166_2":"SA-07","name":"Tabuk","admin":"Saudi Arabia","adm0_a3":"SAU","type_en":"Region"}},{"type":"Polygon","arcs":[[-26,27,28,29,30,31]],"id":"SAU-845","properties":{"adm1_code":"SAU-845","iso_3166_2":"SA-03","name":"Al Madinah","admin":"Saudi Arabia","adm0_a3":"SAU","type_en":"Region"}},{"type":"Polygon","arcs":[[-17,-22,32,-31,33,-19,34]],"id":"SAU-888","properties":{"adm1_code":"SAU-888","iso_3166_2":"SA-02","name":"Makkah","admin":"Saudi Arabia","adm0_a3":"SAU","type_en":"Region"}},{"type":"Polygon","arcs":[[-2,-14,-20,-34,-30,35,36,-5]],"id":"SAU-1097","properties":{"adm1_code":"SAU-1097","iso_3166_2":"SA-01","name":"Ar Riyad","admin":"Saudi Arabia","adm0_a3":"SAU","type_en":"Region"}},{"type":"Polygon","arcs":[[-29,37,-36]],"id":"SAU-846","properties":{"adm1_code":"SAU-846","iso_3166_2":"SA-05","name":"Al Quassim","admin":"Saudi Arabia","adm0_a3":"SAU","type_en":"Region"}},{"type":"Polygon","arcs":[[-6,-37,-38,-28,-25,-9]],"id":"SAU-847","properties":{"adm1_code":"SAU-847","iso_3166_2":"SA-06","name":"Ha'il","admin":"Saudi Arabia","adm0_a3":"SAU","type_en":"Region"}},{"type":"Polygon","arcs":[[-18,-35]],"id":"SAU-885","properties":{"adm1_code":"SAU-885","iso_3166_2":"SA-11","name":"Al Bahah","admin":"Saudi Arabia","adm0_a3":"SAU","type_en":"Region"}}]}},"arcs":[[[60926,4577],[1507,15485]],[[62433,20062],[1272,12498],[1359,13688],[25,1411],[-62,773],[-321,1014],[-395,700],[-1199,1473],[-1680,1484],[-222,627],[-111,8516],[-297,679],[-1519,732],[-1100,1348],[-333,135],[-704,-156],[-445,136],[-1173,1003],[-729,344],[-779,32],[-518,271],[-840,1056],[-779,198],[-1346,930],[-235,303],[-185,711],[-346,512],[-457,387]],[[49314,70867],[-235,553],[260,972],[1037,1547],[1680,3720],[284,501],[840,993],[668,439],[2248,992],[62,84]],[[56158,80668],[506,125],[4287,-648],[61,-114],[494,-1307],[223,-1024],[333,-480],[3645,42],[296,-251],[12,-679],[173,-607],[396,-512],[-50,-574],[643,-1056],[642,-783],[-346,-147],[-99,-438],[420,-847],[457,52],[569,-438],[728,-42],[346,-606],[-494,62],[-235,-198],[692,-648],[161,-867],[321,-356],[519,356],[210,-220],[667,-1243],[815,-606],[334,-32],[605,-825],[-408,-125],[223,-1359],[766,-575],[123,-1201],[-259,-241],[-13,-470],[-877,230],[284,-669],[322,-282],[74,-773],[556,-1599],[543,-846],[544,-230],[296,-972],[173,-1515],[470,-470],[308,-627],[62,-627],[334,-230],[346,-700],[469,-439],[556,-42],[568,418],[247,-10],[309,-585],[371,585],[210,-199],[-284,-668],[-420,-523],[-112,-658],[618,136],[741,-429],[111,-1128],[3002,-4765],[1507,-2372],[210,-146],[4065,-669],[3310,-544],[4620,-762],[396,533],[2087,-4326],[62,-283],[-185,-710],[-1211,-4890],[-1161,-4629],[-581,-2362],[-3162,-1400],[-3261,-1452],[-4077,-1808],[-3780,-1693],[-4571,-815],[-2285,-408],[-3805,-689],[-2903,-523],[-444,-198],[-4164,-2738],[-2717,-4357],[-630,-2111],[-136,-240]],[[49314,70867],[-420,-471],[-482,387]],[[48412,70783],[-198,355],[-790,847],[-482,313],[-1470,261],[-296,147],[-408,512],[-395,1254],[-803,1713],[-322,282],[-296,-83],[-741,-533],[-420,73],[-507,313],[-1025,63],[-272,272],[-136,888],[-593,73],[-654,-355],[-569,125],[-308,251],[-581,815],[-432,293],[-1619,449],[-1630,-199],[-1149,450],[-704,-21],[-2520,-679],[-939,355]],[[28153,79017],[667,773],[161,397],[123,2111],[321,669],[519,460],[3978,2873],[605,627],[-12,491],[-951,899],[-433,992],[-593,586],[-1210,135],[-284,136],[-952,878],[-333,136],[-754,-52],[-2606,83],[-729,251],[-729,585],[-3224,564],[-630,21],[-1458,-250],[-2125,-241],[-444,73],[-396,345],[-383,815],[-815,972],[-49,899],[568,2413]],[[15985,97658],[4645,1536],[877,784],[49,21],[4151,-805],[1618,-355],[260,-115],[2421,-1640],[2928,-1986],[2507,-1713],[3373,-3355],[3088,-2925],[1865,-1756],[4126,-3887],[124,-52],[3422,-366],[4385,-460],[334,84]],[[28153,79017],[-395,63],[-1804,-868],[-1766,-1180],[-840,-272],[-1792,-1003],[-753,-857]],[[20803,74900],[-457,251],[-1149,-429],[-309,554],[-667,199],[-445,-188],[-1112,104],[-827,293],[-531,449],[-334,878],[-49,919],[37,1024],[-371,335],[-704,-669],[-457,-1076],[-247,-105],[-815,63],[-1125,376],[-642,52],[-1149,-292],[-519,-241],[-444,136],[-1236,1881],[-481,397],[-927,272],[-1322,-126],[-976,-229],[-728,-429],[-1063,188],[-729,-42]],[[1025,79445],[50,1024],[457,1944],[3768,-763],[1309,-261],[247,63],[1939,1870],[1088,2132],[247,219],[3397,826],[99,104],[679,1912],[173,220],[1482,972],[-2384,3218],[-1235,1525],[-1248,1547],[185,63],[3632,1243],[1075,355]],[[60926,4577],[-1137,-847],[-914,-62],[-136,52],[-1062,1891],[-173,126],[-1841,-324],[-4249,554],[-988,668],[-1186,84],[-1557,10],[-407,-167],[-742,84],[-926,-178],[-297,94],[-210,-334],[-1680,-42],[-531,585]],[[42890,6771],[124,836],[-99,731],[148,1986],[-185,1087],[272,773],[766,1034],[543,575],[432,940],[1298,795],[296,679],[0,742],[-173,804],[259,679],[433,366],[62,1150]],[[47066,19948],[1321,-1056],[1050,-470],[1223,-105],[11155,1526],[618,219]],[[42890,6771],[-296,282],[-680,261],[-444,-261]],[[41470,7053],[-569,1003],[-370,168],[-494,888],[-371,386],[-173,794],[-222,42],[-420,-355],[-260,-481],[-222,-1055],[-284,-261],[-667,742],[-235,564],[-346,251],[-951,115],[-445,783],[-531,-10],[-222,585],[111,763],[-87,345],[-716,10]],[[33996,12330],[173,805],[-25,543],[-321,1254],[-321,334],[-939,63],[-321,324],[-87,533],[25,1473],[494,42],[457,387],[840,0],[309,156],[284,878],[-272,1191],[124,1212],[-259,324],[-507,-104]],[[33650,21745],[482,1316],[210,1108],[667,617],[222,616],[-222,627],[235,972]],[[35244,27001],[568,-1432],[370,-345],[717,408],[1211,1369],[938,637],[569,544],[469,52],[815,292],[569,-167],[296,84],[754,554],[506,240]],[[43026,29237],[692,-784],[1186,-1996],[-74,-501],[-371,-794],[-185,-1087],[25,-355],[815,-1526],[1952,-2246]],[[41470,7053],[-593,-606],[148,-857],[-432,-271],[-186,-784],[87,-345],[-136,-669],[185,-585],[297,-386],[-112,-565],[-481,-73],[-223,-867],[-568,-334],[-222,-523],[-396,-188],[0,637],[-296,596],[49,669],[-481,919],[-445,397],[12,794],[-506,387],[-173,627],[-297,63],[-185,1776],[-704,773],[-284,491],[-1063,1066],[-716,565],[-581,1348]],[[33168,11108],[210,480],[383,282],[235,460]],[[35972,2121],[13,-637],[-161,-126],[-333,690],[-519,-198],[-630,532],[803,-52],[136,408],[296,-63],[395,-554]],[[34700,2665],[-395,637],[519,324],[-124,-961]],[[20803,74900],[284,-251],[1532,-428],[432,-230],[667,-585],[840,-868],[111,-271],[519,-2487],[383,-481],[791,-627],[-50,-397],[-741,-857],[-358,-689],[-272,-1024],[-247,-397]],[[24694,65308],[-457,459],[-1977,-365],[-901,104],[-569,533],[-889,481],[-729,-42],[-790,209],[-420,-408],[-420,-10],[12,387],[-408,449],[-123,491],[-321,230],[-692,63],[-247,198],[-445,961],[-136,586],[-408,344],[-889,-574],[-667,52],[-395,303],[-606,104],[-1223,-689],[-543,-167],[-13,-439],[458,62],[321,-386],[74,-899],[-99,-867],[111,-690],[247,-376],[951,-512],[-12,-543],[-408,-1097],[507,-1631],[457,220],[840,-596],[383,-857],[618,-626],[222,-418],[321,-1254],[556,-230],[173,-356],[-161,-1442],[50,-2100],[-272,-470],[-988,-125],[-457,-565],[-989,-209],[-234,-742]],[[13107,51859],[-1112,1975],[519,136],[111,585],[-235,1463],[-605,815],[-803,2059],[-259,167],[-297,533],[-445,-21],[-296,648],[210,554],[-50,501],[-765,387],[-408,1045],[-321,554],[-346,1034],[-383,815],[-630,815],[-568,1223],[-692,930],[-99,616],[-531,857],[-667,825],[-321,1119],[-371,762],[-296,314],[-136,480],[-680,805],[173,324],[-790,408],[-717,-230],[-581,83],[-716,408],[222,742],[618,1588],[-124,878],[272,961],[37,428]],[[24694,65308],[111,-700],[-296,-878],[358,-450],[346,53],[160,-366],[-259,-2132],[247,-1682],[-49,-1693],[222,-533],[581,-136],[1173,502],[1273,146],[617,784],[531,314],[828,41],[1742,-386]],[[32279,58192],[951,-324],[222,-502],[-86,-1651],[358,-637],[766,-303],[161,-418],[247,-1191],[234,-471],[408,-376]],[[35540,52319],[-123,-710],[-322,-596],[62,-355],[-86,-878],[-50,-1672]],[[35021,48108],[-926,94],[-260,-251],[136,-1233],[-457,-804],[-1470,-888],[-358,-387],[-12,-282],[704,-554],[-149,-616],[-555,-251],[-927,-1076],[-1359,-1317],[-655,-1087],[-234,-73],[-988,272],[-680,-669],[-766,-73],[-197,303],[98,669],[-148,522],[-729,439],[-61,355],[259,763],[12,846],[-346,251],[-444,-73],[-1384,-470],[-247,658],[-1087,-31],[-1458,1797],[-1223,-188]],[[19110,44754],[-210,940],[-494,481],[-197,888],[-420,554],[-853,669],[-506,595],[-161,-20],[-605,522],[-260,0],[-901,899],[-420,-282],[-309,135],[-445,627],[136,471],[-358,626]],[[33168,11108],[-444,773],[-247,721],[-62,689],[-396,659],[-420,209],[-271,616],[185,857],[-371,240],[-160,544],[185,700],[-519,366],[-272,1139],[-259,250],[-49,1024],[-519,262],[-247,313],[24,752],[-308,481],[-457,10],[-507,1150],[-618,585],[-593,387],[-222,407],[-272,73],[-457,544],[-692,-147],[-778,554],[-531,700],[-741,1557],[62,251],[-989,1160],[-284,857],[-296,292],[-25,523],[-420,783],[420,565],[-49,658],[-186,52],[-197,1212],[-482,983],[-222,919],[358,-31],[185,825],[-25,659],[482,982],[-284,292],[0,700],[-593,1453],[-259,428],[296,178],[-333,596],[-383,115],[-173,376],[136,324],[-457,909],[-322,1170]],[[35021,48108],[-37,-992],[606,-826],[420,-1494],[148,-909],[605,-1798],[309,-355],[383,-136],[741,11],[1248,-157],[457,-522],[-124,-1045],[136,-544],[642,-292],[766,209],[569,-136],[271,-230],[-135,-1191],[234,-2121],[-49,-397],[-346,-847],[62,-1066],[-223,-1201],[74,-512],[1248,-2320]],[[35244,27001],[-581,324],[-655,-408],[-506,0],[-667,-251],[-346,345],[-148,523],[-445,345],[-383,-262],[-99,-533],[99,-1065],[-642,-1422],[-952,-334],[-469,-575],[-49,-355],[531,-292],[197,-565],[-61,-648],[111,-679],[0,-783],[543,-512],[420,-648],[556,-178],[284,188],[519,1944],[235,407],[914,178]],[[35540,52319],[408,826],[519,261],[1050,-512],[864,-115],[914,136],[593,-146],[420,209],[173,397],[-222,836],[556,1076],[679,710],[1582,460],[914,773],[568,1035],[667,251],[1013,-168],[1754,105],[111,355],[-37,784],[-284,846],[37,700],[-778,1432],[-494,627],[-148,512],[98,825],[-24,711],[630,439],[741,1076],[667,428],[111,293],[-136,627],[-580,627],[-309,157]],[[47597,68892],[-25,898],[210,450],[630,543]],[[32279,58192],[185,198],[643,178],[753,501],[791,199],[185,407],[-222,502],[37,564],[234,220],[779,-230],[148,136],[-50,1170],[346,690],[556,62],[408,815],[556,774],[1260,1212],[568,439],[1087,553],[531,930],[754,805],[1816,1097],[445,146],[506,-303],[951,-1024],[321,-198],[816,-105],[346,147],[568,815]]],"bbox":[34.62801277568295,16.371581882878672,55.63867600089401,32.12119182515684],"transform":{"scale":[0.00021010873333944402,0.00015749767439952569],"translate":[34.62801277568295,16.371581882878672]}}