{"type":"Topology","objects":{"a1":{"type":"GeometryCollection","geometries":[{"type":"Polygon","arcs":[[0,1,2,3]],"id":"SDN-5859","properties":{"adm1_code":"SDN-5859","iso_3166_2":"SD-DE","name":"Central Darfur","admin":"Sudan","adm0_a3":"SDN","type_en":"State"}},{"type":"Polygon","arcs":[[-4,4,5,6]],"id":"SDN-5856","properties":{"adm1_code":"SDN-5856","iso_3166_2":"SD-DS","name":"Southern Darfur","admin":"Sudan","adm0_a3":"SDN","type_en":"State"}},{"type":"Polygon","arcs":[[7,8,9,10,11]],"id":"SDN-876","properties":{"adm1_code":"SDN-876","iso_3166_2":"SD-GD","name":"Gedarif","admin":"Sudan","adm0_a3":"SDN","type_en":"State"}},{"type":"Polygon","arcs":[[12,13]],"id":"SDN-148","properties":{"adm1_code":"SDN-148","iso_3166_2":"SD-NB","name":"Blue Nile","admin":"Sudan","adm0_a3":"SDN","type_en":"State"}},{"type":"Polygon","arcs":[[14,-14,15,16,-8]],"id":"SDN-880","properties":{"adm1_code":"SDN-880","iso_3166_2":"SD-SI","name":"Sennar","admin":"Sudan","adm0_a3":"SDN","type_en":"Region"}},{"type":"Polygon","arcs":[[17,18,19,20,21]],"id":"SDN-878","properties":{"adm1_code":"SDN-878","iso_3166_2":"SD-NO","name":"Northern","admin":"Sudan","adm0_a3":"SDN","type_en":"State"}},{"type":"Polygon","arcs":[[-19,22,23,24,25]],"id":"SDN-877","properties":{"adm1_code":"SDN-877","iso_3166_2":"SD-NR","name":"River Nile","admin":"Sudan","adm0_a3":"SDN","type_en":"State"}},{"type":"Polygon","arcs":[[-3,26,27,-22,28,29,-5]],"id":"SDN-881","properties":{"adm1_code":"SDN-881","iso_3166_2":"SD-DN","name":"North Darfur","admin":"Sudan","adm0_a3":"SDN","type_en":"State"}},{"type":"Polygon","arcs":[[-2,30,-27]],"id":"SDN-5858","properties":{"adm1_code":"SDN-5858","iso_3166_2":"SD-DW","name":"Western Darfur","admin":"Sudan","adm0_a3":"SDN","type_en":"State"}},{"type":"Polygon","arcs":[[31,32,-24]],"id":"SDN-149","properties":{"adm1_code":"SDN-149","iso_3166_2":"SD-RS","name":"Red Sea","admin":"Sudan","adm0_a3":"SDN","type_en":"State"}},{"type":"Polygon","arcs":[[-11,33,-25,-33,34]],"id":"SDN-884","properties":{"adm1_code":"SDN-884","iso_3166_2":"SD-KA","name":"Kassala","admin":"Sudan","adm0_a3":"SDN","type_en":"State"}},{"type":"Polygon","arcs":[[-16,35,36,37,38,39]],"id":"SDN-879","properties":{"adm1_code":"SDN-879","iso_3166_2":"SD-NW","name":"White Nile","admin":"Sudan","adm0_a3":"SDN","type_en":"State"}},{"type":"Polygon","arcs":[[40,41,42,-37]],"id":"SDN-882","properties":{"adm1_code":"SDN-882","iso_3166_2":"SD-KS","name":"South Kordufan","admin":"Sudan","adm0_a3":"SDN","type_en":"State"}},{"type":"Polygon","arcs":[[-6,-30,43,-42,44]],"id":"SDN-5857","properties":{"adm1_code":"SDN-5857","iso_3166_2":"SD-DS","name":"Eastern Darfur","admin":"Sudan","adm0_a3":"SDN","type_en":"State"}},{"type":"Polygon","arcs":[[-9,-17,-40,45]],"id":"SDN-875","properties":{"adm1_code":"SDN-875","iso_3166_2":"SD-GZ","name":"Gezira","admin":"Sudan","adm0_a3":"SDN","type_en":"State"}},{"type":"Polygon","arcs":[[-10,-46,-39,46,-20,-26,-34]],"id":"SDN-874","properties":{"adm1_code":"SDN-874","iso_3166_2":"SD-KH","name":"Khartoum","admin":"Sudan","adm0_a3":"SDN","type_en":"Region"}},{"type":"Polygon","arcs":[[-21,-47,-38,-43,-44,-29]],"id":"SDN-883","properties":{"adm1_code":"SDN-883","iso_3166_2":"SD-KN","name":"North Kordufan","admin":"Sudan","adm0_a3":"SDN","type_en":"State"}}]}},"arcs":[[[7125,14813],[-850,1507],[-15,207],[571,2139],[-247,1385],[-788,12],[-232,498],[-680,328],[-402,559],[-139,705],[448,2892]],[[4791,25045],[402,1495],[-324,2649],[1638,2236],[1870,3330],[433,267],[711,73],[695,911]],[[10216,36006],[649,-72],[881,-669],[1082,-498],[696,109],[943,657],[973,449],[680,85],[325,-158],[124,-486],[-371,-693],[-819,-960],[-217,-680],[464,-377],[1097,-85]],[[16723,32628],[-3137,-3779],[-464,-1069],[-263,-2735],[-1205,-4885],[-2782,-2236],[-1747,-3111]],[[16723,32628],[1808,-328],[990,-49],[942,110]],[[20463,32361],[341,-2832],[-124,-2041],[-587,-1021],[46,-5019],[1484,-1968],[973,-1021],[881,-2783],[557,-2029],[-31,-802]],[[24003,12845],[-1252,-256],[-897,-315],[-1159,-231],[-262,85],[-928,-219],[-402,-936],[78,-461],[-325,-1009],[-371,-571],[-711,-681],[0,-1968],[-680,-1167],[-108,-1410],[-572,-1239],[-46,-948],[-1051,-316],[-1175,-936],[-77,-206],[-340,-61],[-1144,243],[-912,49],[-278,-134],[-649,219],[-634,-158],[-139,534],[417,742],[93,668],[-695,0],[-93,328],[154,997],[526,231],[494,680],[78,1045],[-248,875],[418,1130],[-309,1604],[-1979,3938],[-1082,1288],[-618,534]],[[82735,29420],[-1994,547],[-804,462],[-432,498],[-1268,887],[-1113,1373],[-865,474],[-526,571],[-618,328],[-448,717],[-510,1106],[247,899],[-974,231],[-448,790],[-494,1155]],[[72488,39458],[-433,1020],[124,377],[1916,4035],[-62,437],[-850,1483],[-448,1105],[-974,620],[-1159,474],[-726,839]],[[69876,49848],[819,1579],[680,450],[1329,-559],[2056,-401]],[[74760,50917],[1561,-547],[1283,-863],[911,-1288],[820,-2394],[1360,-1823],[293,-243],[603,37],[2782,1227],[479,110],[2056,60],[355,-60]],[[87263,45133],[371,-3913],[-525,-2005],[124,-1264],[-109,-328],[-247,-742],[-93,-777],[-881,-1544],[-711,-3159],[170,-741],[-123,-827],[-557,-36],[-1947,-377]],[[79443,23551],[-371,-243],[-232,-487],[-15,-911],[154,-729],[-742,-2029],[201,-888],[-402,-1409],[232,-340],[-108,-535],[-433,-425],[-139,-438],[-525,109],[-974,1009],[-881,-620],[-943,-1701],[-31,-571],[294,-1616],[-124,-1155],[-479,-644],[-742,-2552],[-185,-1093],[15,-572],[-1004,0],[-140,657],[155,1239],[386,936],[-15,1543],[-386,1070],[-2582,2600],[-571,790],[-1314,595],[185,827],[-587,5468],[294,754],[77,1835],[340,1433],[31,608]],[[67882,26066],[834,340],[959,-170],[4312,3245],[773,425],[633,-194],[510,-584],[1299,-2503],[742,-1081],[1221,-1325],[278,-668]],[[82735,29420],[-510,-668],[-1113,-2273],[-108,-510],[-340,-389],[-217,-899],[-417,-486],[-201,-450],[-386,-194]],[[67882,26066],[-788,3342],[139,1434],[-62,474],[-618,1045],[-433,1033],[-170,1081],[-108,1629],[-371,522]],[[65471,36626],[216,1094],[557,-304],[309,195],[293,1069],[263,559],[402,377],[726,-122],[510,-741],[464,73],[866,935],[618,219],[463,-340],[1330,-182]],[[18887,83642],[0,6392],[0,3682],[0,4594],[3478,0],[4636,0],[5796,0],[5796,0],[3478,0],[3477,0],[5796,0],[4869,0],[386,790],[541,899],[464,-207],[46,-352],[-324,-1130],[355,0],[6136,0]],[[63817,98310],[-2133,-22712],[46,-122],[2427,-1604],[-108,-3123],[603,-1993],[123,-948],[-664,-1446],[-4313,-7364]],[[59798,58998],[-216,-61],[-1267,-911]],[[58315,58026],[-1144,401],[-2071,-231],[-21236,863]],[[33864,59059],[-78,24523],[-14775,0],[-124,60]],[[63817,98310],[3771,0]],[[67588,98310],[2365,-2102],[-1685,-1580],[340,-450],[78,-1324],[-310,-620],[31,-766],[-139,-911],[541,-535],[356,-571],[742,-450],[664,-1506],[124,-1580],[-325,-1373],[31,-985],[294,-1130],[93,-1543],[-294,-1240],[2813,-7996],[2117,-1020],[1376,-973],[1051,-1288],[773,-1786],[896,-1495],[2937,-2345]],[[82457,62741],[108,-2406],[-93,-875],[-232,-741],[-371,-499],[-896,-656],[-927,-279],[-4050,0],[-494,-146],[-1484,-2443],[-247,-522]],[[73771,54174],[-881,-158],[-1005,-498],[-1036,-86],[-1236,669],[-2952,948],[-1870,1239],[-294,110],[-3137,607],[-557,425],[-804,1033],[-201,535]],[[10216,36006],[-201,280],[201,1094],[418,923],[1916,2540],[1252,2540],[139,534],[-124,1264],[-340,875],[-664,984],[-124,851],[-15,1471],[371,2454],[-93,170]],[[12952,51986],[0,5578],[0,3427],[0,6866],[-15,5140],[0,6866],[0,3682],[5873,0],[77,97]],[[33864,59059],[-3323,-49],[-124,-194],[1267,-13076],[588,-960],[633,-2455],[897,-3038],[-247,-1689],[463,-1227],[-93,-632],[-819,-1349],[-46,-656],[-386,-802],[-897,-1385],[-201,-559],[-15,-1896],[-541,-1835],[216,-1021],[0,-972],[819,-2029]],[[32055,23235],[-834,194],[-2334,-36],[-510,218],[-881,887],[-587,183],[-603,-37],[-526,462],[-587,1130],[-881,997],[15,717],[711,389],[-170,425],[-1298,1288],[-1097,741],[-1129,1252],[-881,316]],[[4791,25045],[-927,-316],[139,1082],[-433,1653],[-216,461],[433,1094],[-680,377],[-742,595],[-371,-522],[-510,-256],[-727,13],[-340,279],[-417,863],[757,1956],[479,608],[742,389],[758,1045],[46,304],[-386,802],[-93,705],[-371,425],[-124,680],[-232,304],[634,1106],[371,401],[1716,1082],[15,729],[-541,218],[-108,1629],[-355,535],[602,631],[1190,389],[-92,997],[386,607],[139,596],[665,802],[340,182],[355,826],[0,1337],[-355,559],[108,608],[1159,1057],[1190,-182],[448,48],[1175,450],[1407,-134],[695,-291],[232,218]],[[67588,98310],[4158,0],[2782,0],[4142,0],[2782,0],[5533,0],[2782,0],[-62,-1325],[140,-1020],[525,-1568],[773,-1385],[510,-559],[634,-936],[-433,-401],[-31,790],[-479,316],[-371,-839],[371,-863],[123,-1434],[356,-1336],[15,-474],[-293,-280],[-47,-838],[309,-1701],[-185,-1033],[386,-1167],[16,-863],[-139,-364],[278,-1325],[278,-2333],[170,-231],[433,-1969],[695,-1118],[742,231],[387,-243],[432,-680],[665,-231],[680,-912],[417,-255],[-201,-583],[464,-729],[557,-37],[772,-401],[449,-425],[541,-109],[355,-839],[-850,-838],[-680,-1738],[-526,-389],[-31,-450],[-540,110],[-866,-122],[-850,-753],[-433,292],[-479,-693],[-1267,-486],[-31,-912],[-248,-741],[-340,-474],[-556,182],[-1036,-279],[-958,340]],[[90308,61890],[-5456,-547],[-278,73],[-2117,1325]],[[74760,50917],[-819,2175],[-170,1082]],[[90308,61890],[108,-607],[-46,-1592],[-495,-802],[-139,-948],[294,-681],[93,-1349],[-340,-498],[-758,-2576],[-525,-838],[-325,-1410],[78,-644],[-325,-377],[-294,-1081],[-602,-1009],[231,-2345]],[[67882,26066],[-2844,37],[93,-1580],[-3957,-12]],[[61174,24511],[-927,1251],[-340,268],[-696,109],[-371,2746]],[[58840,28885],[-278,2747],[742,899],[943,766],[525,243],[201,401],[-108,814],[108,850],[-634,329],[-525,656],[-850,1944],[-727,596],[-324,1020],[-93,1665],[247,1471],[356,546],[695,474],[634,1677],[727,644],[139,596],[1901,984]],[[62519,48207],[541,-231],[618,146],[664,-36]],[[64342,48086],[201,-839],[-602,-316],[123,-510],[526,-304],[108,-1568],[-108,-498],[-665,-899],[-371,-802],[-355,-1118],[185,-936],[1051,-2370],[62,-1810],[433,-219],[541,729]],[[61174,24511],[1561,-2151],[93,-997],[-77,-1203],[108,-1264],[417,-984],[-124,-413],[-2813,-2917],[-463,-1361],[-371,-704],[-819,-1191],[-2551,-3123],[-417,-207],[-1283,-85],[-1190,-122],[-1576,1738],[-2813,2212],[-1855,-1155],[-510,-413],[-15,-1069],[-773,-1118],[-1376,-377],[-1453,-802],[-571,-547],[-495,-741],[77,-766],[-4745,49],[-293,401],[-603,1556]],[[36244,6757],[-1298,3426],[-124,608],[-2087,6331],[-386,1945],[-93,1178]],[[32256,20245],[866,-607],[633,0],[1005,461],[1468,1799],[820,2212],[216,158],[1005,-158],[494,-280],[1283,195],[572,316],[-31,461],[402,1750],[633,705],[495,778],[572,73],[1592,-1398],[587,-146],[928,25],[1607,2977],[433,316],[834,-61],[232,-535],[-31,-729],[387,-364],[1561,73],[726,-292],[510,-899],[402,-413],[680,-122],[665,717],[989,705],[633,1069],[1098,110],[680,498],[464,12],[1174,-766]],[[32055,23235],[201,-1203],[0,-1787]],[[36244,6757],[-742,-98],[-773,146],[-1793,73],[-1545,-36],[-2303,-960],[-819,316],[-2241,3232],[-464,219],[-510,935],[-680,572],[-47,1142],[-324,547]],[[64342,48086],[201,364],[1283,450],[1051,182],[418,-61],[664,559],[1917,268]],[[62519,48207],[-510,1714],[-1299,2637],[-912,1458],[-1483,4010]]],"bbox":[21.808782921536277,8.681098365609515,38.60174043445974,22.223788043248703],"transform":{"scale":[0.00016793125444177908,0.00013542825105890247],"translate":[21.808782921536277,8.681098365609515]}}