{"type":"Topology","objects":{"a1":{"type":"GeometryCollection","geometries":[{"type":"Polygon","arcs":[[0,1,2]],"id":"SDS-892","properties":{"adm1_code":"SDS-892","iso_3166_2":"SS-EE","name":"Eastern Equatoria","admin":"S. Sudan","adm0_a3":"SDS","type_en":"State"}},{"type":"Polygon","arcs":[[3,4,5,6]],"id":"SDS-873","properties":{"adm1_code":"SDS-873","iso_3166_2":"SS-BW","name":"Western Bahr el Ghazal","admin":"S. Sudan","adm0_a3":"SDS","type_en":"State"}},{"type":"Polygon","arcs":[[-6,7,8,9]],"id":"SDS-864","properties":{"adm1_code":"SDS-864","iso_3166_2":"SS-EW","name":"Western Equatoria","admin":"S. Sudan","adm0_a3":"SDS","type_en":"State"}},{"type":"Polygon","arcs":[[-2,10,-9,11,12]],"id":"SDS-865","properties":{"adm1_code":"SDS-865","iso_3166_2":"SS-EC","name":"Central Equatoria","admin":"S. Sudan","adm0_a3":"SDS","type_en":"State"}},{"type":"Polygon","arcs":[[13,14,15]],"id":"SDS-869","properties":{"adm1_code":"SDS-869","iso_3166_2":"SS-NU","name":"Upper Nile","admin":"S. Sudan","adm0_a3":"SDS","type_en":"State"}},{"type":"Polygon","arcs":[[-3,-13,16,17,-14,18]],"id":"SDS-870","properties":{"adm1_code":"SDS-870","iso_3166_2":"SS-JG","name":"Jonglei","admin":"S. Sudan","adm0_a3":"SDS","type_en":"State"}},{"type":"Polygon","arcs":[[-15,-18,19,20,21,22]],"id":"SDS-871","properties":{"adm1_code":"SDS-871","iso_3166_2":"SS-UY","name":"Unity","admin":"S. Sudan","adm0_a3":"SDS","type_en":"State"}},{"type":"Polygon","arcs":[[-4,23,-22,24]],"id":"SDS-147","properties":{"adm1_code":"SDS-147","iso_3166_2":"SS-BN","name":"Northern Bahr el Ghazal","admin":"S. Sudan","adm0_a3":"SDS","type_en":"State"}},{"type":"Polygon","arcs":[[-8,25,-20,-17,-12]],"id":"SDS-863","properties":{"adm1_code":"SDS-863","iso_3166_2":"SS-LK","name":"Lakes","admin":"S. Sudan","adm0_a3":"SDS","type_en":"State"}},{"type":"Polygon","arcs":[[-5,-25,-21,-26]],"id":"SDS-872","properties":{"adm1_code":"SDS-872","iso_3166_2":"SS-WR","name":"Warrap","admin":"S. Sudan","adm0_a3":"SDS","type_en":"State"}}]}},"arcs":[[[91926,28857],[-110,-642],[242,-1282],[814,-1622],[154,-886],[1386,-1264],[-66,-981],[572,-886],[924,905],[659,-38],[770,-641],[506,207],[1232,-792],[-220,-1037],[242,-698],[-418,-1169],[-44,-2396],[286,-1037],[1144,-1660],[-1188,0],[-682,-339],[-748,339],[-748,1849],[396,1414],[-1473,264],[132,1189],[-1254,-943],[-154,377],[-4906,-2490],[-2419,-1660],[-3432,-4583],[-3805,-5130],[-682,-320],[-1562,113],[-1012,226],[-1078,1188],[-308,19],[-1188,-962],[-704,-302],[-3255,-433],[-1562,-1283],[-110,-1056],[-704,-19],[-330,396],[-264,302],[-660,56],[-242,1019],[-967,1452]],[[65090,3621],[791,2735],[330,660],[880,868],[660,1188],[308,1697],[792,2320],[484,962],[264,1188],[-880,2396],[-308,1452],[-88,7205],[220,1282]],[[68543,27574],[16784,-1395],[6599,2678]],[[16784,74462],[44,-943],[-286,-3904],[-22,-7564],[440,-3866],[220,-3169],[308,-1282],[1012,-1584],[2793,-2452],[858,-208],[968,547],[924,849],[5081,3244],[1210,434]],[[30334,54564],[374,-547],[1100,-2414],[1012,-1358],[1276,-302],[1737,-1490],[1694,-1151],[-22,-1093],[550,-1302],[-22,-1867],[-154,-1792],[66,-1433],[352,-2622]],[[38297,37193],[-4311,-490],[-1672,1414],[-13176,-2112]],[[19138,36005],[-1210,1000],[-1320,1414],[-462,1754],[-484,94],[-1430,1151],[-132,434],[-1628,792],[-1979,1414],[-374,943],[-1056,962],[-220,906],[968,905],[-132,1358],[-396,1000],[-1078,226],[-1166,1282],[-286,1038],[-726,905],[-1848,585],[-857,-113],[-704,735],[-836,-302],[-572,264],[-704,340],[-506,849],[616,1848],[418,434],[-616,1358],[110,320],[1672,1453],[1496,490],[66,1471],[813,1924],[154,2188],[968,1810],[0,3056],[1012,1056],[528,886],[462,1566],[-110,717],[572,1452],[1320,339],[374,-132],[1650,359],[1275,490],[1782,396],[462,-849],[66,-1773],[968,-886],[726,-1452]],[[38297,37193],[-330,-3300],[242,-2075],[638,-1698],[1100,-1339],[858,-1603],[1781,-1377],[3718,-509],[1012,358],[374,1604],[1386,2716],[154,1640],[-198,1170],[264,1339],[2089,94],[880,-1113],[880,-2357],[374,-604]],[[53519,30139],[2288,-2659],[616,-1151],[1100,-1226],[439,-1150],[-66,-905],[-637,-1849],[-132,-3395],[-396,-773],[-1166,-528],[-1364,-1056],[-1122,-1471],[-572,-264],[-1342,1188],[-616,-151],[-725,-905],[-1804,-1830]],[[48020,12014],[-1430,1170],[-1056,320],[-1606,-3225],[-1122,-453],[-527,736],[-1056,962],[-1452,-208],[-506,868],[-506,-245],[-352,-906],[-880,-943],[-572,-132],[-660,-943],[-858,868],[-1055,-57],[-1430,1736],[44,584],[-1496,113],[-550,415],[-44,1585],[-704,716],[-374,1075],[-748,114],[-990,1282],[44,660],[-462,849],[-726,698],[-527,1358],[-154,1339],[352,1263],[-770,1943],[-396,547],[-814,245],[-396,792],[-1386,415],[-110,717],[-858,604],[-858,0],[-638,377],[-242,1433],[-396,1283],[-637,377],[-748,849],[132,1263],[638,1547]],[[65090,3621],[-902,-981],[-682,-264],[-924,-433],[-1782,1301],[-1298,132],[-616,-603],[-1056,-604],[-901,-2169],[0,830],[-572,622],[-660,170],[-1012,-358],[-286,2753],[-1034,453],[-682,547],[-1122,245],[-704,1754],[-550,245],[-439,868],[-704,660],[-330,1000],[-572,19],[-330,679],[88,1527]],[[53519,30139],[1870,208],[1804,622],[1583,-1810],[1034,-604],[2860,-698],[880,-453],[440,510]],[[63990,27914],[4553,-340]],[[75318,51037],[-1408,1037],[396,1811],[66,1490],[-352,622],[-880,566],[-1209,1641],[-1518,3546],[-440,1320],[-506,434],[-2552,-1773],[-616,-113],[-616,528],[-2815,5036],[-1012,-114],[-594,434],[-1914,604],[-1562,962]],[[57786,69068],[88,2697]],[[57874,71765],[1826,132],[594,320],[3630,4847],[1166,1849],[527,1094],[660,2112],[4004,4527],[176,641],[-594,1528],[-154,1961],[110,1867],[-132,1547],[-2222,3338],[5631,19],[-131,2452],[4047,-57],[-44,-943],[-484,-2225],[-110,-2848],[-418,-1169],[836,-8488],[-264,-1282],[1870,-924],[814,-1226],[3673,-4037],[550,-1659],[22,-2396],[-550,-1452],[-220,-1924],[198,-1018],[1430,0],[110,-2867],[242,-6620],[-44,-283],[-308,-792],[-836,-1000],[-1254,-301],[-572,-566],[-506,37],[-813,1038],[-2024,-340],[-924,283],[-660,-622],[-110,-1151],[374,-735],[-1672,-3395]],[[63990,27914],[-418,509],[-308,1245],[-374,547],[-572,2395],[-550,868],[-176,999],[-374,227],[-220,1188],[-1452,2376],[-660,887],[-1847,1395],[-308,604]],[[56731,41154],[-506,717],[-836,2037],[-726,2470],[-594,1283],[286,1999],[-924,1943],[-352,1414],[-506,19],[-132,849],[308,1414],[-176,547],[308,1113],[-770,1396],[330,999],[-572,755],[-66,1546],[-352,1189],[132,622],[814,1037],[506,1226],[0,924],[-330,472],[858,1547],[836,660],[1034,-57],[1078,-339],[1407,132]],[[75318,51037],[-154,-302],[528,-1339],[1606,-226],[990,-698],[880,339],[924,-735],[550,75],[681,-396],[792,-1113],[616,-283],[1056,-1433],[198,-1773],[1386,-1811],[22,-377],[858,-1113],[1188,-377],[550,-509],[176,-1584],[945,-264],[836,-1056],[418,-2245],[418,-1000],[88,-1207],[462,-1263],[462,-660],[132,-830]],[[56731,41154],[-4092,132],[-990,415],[-2705,7506],[-374,283],[-1298,132]],[[47272,49622],[-308,6696],[-220,471],[-2420,2245],[-2177,4451],[-462,207],[-1738,-188]],[[39947,63504],[286,1546],[308,585],[814,622],[-726,528],[-616,76]],[[40013,66861],[-110,1188],[704,1151],[814,848],[2067,1245],[1958,585],[1100,1735],[22,1660],[726,641],[2640,1792],[4003,-3433],[2244,-2697],[1693,189]],[[16784,74462],[660,-340],[3189,-5017],[1166,-490],[3278,1490],[2199,57],[2552,-114],[1100,-226],[1056,151],[858,-2414],[418,-623],[6753,-75]],[[39947,63504],[-3674,-359],[-2397,76],[-1342,-227],[-418,-320],[-330,-1000],[-242,-2244],[-660,-1584],[-550,-3282]],[[38297,37193],[1364,-1094],[1166,95],[814,943],[1033,4583],[726,1527],[2772,4131],[1100,2244]]],"bbox":[24.121383407473644,3.4904745664511836,35.920577357048614,12.216120534471955],"transform":{"scale":[0.00011799311942694397,0.00008725733225353025],"translate":[24.121383407473644,3.4904745664511836]}}