{"type":"Topology","objects":{"a1":{"type":"GeometryCollection","geometries":[{"type":"Polygon","arcs":[[0,1,2]],"id":"SEN-5515","properties":{"adm1_code":"SEN-5515","iso_3166_2":"SN-KE","name":"Kédougou","admin":"Senegal","adm0_a3":"SEN","type_en":"Region"}},{"type":"Polygon","arcs":[[-3,3,4,5,6,7]],"id":"SEN-779","properties":{"adm1_code":"SEN-779","iso_3166_2":"SN-TC","name":"Tambacounda","admin":"Senegal","adm0_a3":"SEN","type_en":"Region"}},{"type":"Polygon","arcs":[[-2,8,9,10,-4]],"id":"SEN-774","properties":{"adm1_code":"SEN-774","iso_3166_2":"SN-KD","name":"Kolda","admin":"Senegal","adm0_a3":"SEN","type_en":"Region"}},{"type":"Polygon","arcs":[[-10,11,12,13,14,15]],"id":"SEN-5514","properties":{"adm1_code":"SEN-5514","iso_3166_2":"SN-SE","name":"Sédhiou","admin":"Senegal","adm0_a3":"SEN","type_en":"Region"}},{"type":"MultiPolygon","arcs":[[[-13,16]],[[-15,17]]],"id":"SEN-775","properties":{"adm1_code":"SEN-775","iso_3166_2":"SN-ZG","name":"Ziguinchor","admin":"Senegal","adm0_a3":"SEN","type_en":"Region"}},{"type":"Polygon","arcs":[[18,19,20]],"id":"SEN-5517","properties":{"adm1_code":"SEN-5517","iso_3166_2":"SN-SL","name":"Saint-Louis","admin":"Senegal","adm0_a3":"SEN","type_en":"Region"}},{"type":"Polygon","arcs":[[-7,21,22,-19,23]],"id":"SEN-767","properties":{"adm1_code":"SEN-767","iso_3166_2":"SN-MT","name":"Matam","admin":"Senegal","adm0_a3":"SEN","type_en":"Region"}},{"type":"Polygon","arcs":[[-6,24,25,26,27,28,-22]],"id":"SEN-5516","properties":{"adm1_code":"SEN-5516","iso_3166_2":"SN-KA","name":"Kaffrine","admin":"Senegal","adm0_a3":"SEN","type_en":"Region"}},{"type":"Polygon","arcs":[[29,30,31,32,-26]],"id":"SEN-765","properties":{"adm1_code":"SEN-765","iso_3166_2":"SN-KL","name":"Kaolack","admin":"Senegal","adm0_a3":"SEN","type_en":"Region"}},{"type":"MultiPolygon","arcs":[[[33,-31]],[[-27,-33,34,35,36]]],"id":"SEN-764","properties":{"adm1_code":"SEN-764","iso_3166_2":"SN-FK","name":"Fatick","admin":"Senegal","adm0_a3":"SEN","type_en":"Region"}},{"type":"Polygon","arcs":[[-20,-23,-29,37,38,39]],"id":"SEN-766","properties":{"adm1_code":"SEN-766","iso_3166_2":"SN-LG","name":"Louga","admin":"Senegal","adm0_a3":"SEN","type_en":"Region"}},{"type":"Polygon","arcs":[[-36,40,41,42,-39,43]],"id":"SEN-768","properties":{"adm1_code":"SEN-768","iso_3166_2":"SN-TH","name":"Thiès","admin":"Senegal","adm0_a3":"SEN","type_en":"Region"}},{"type":"Polygon","arcs":[[-42,44]],"id":"SEN-759","properties":{"adm1_code":"SEN-759","iso_3166_2":"SN-DK","name":"Dakar","admin":"Senegal","adm0_a3":"SEN","type_en":"Region"}},{"type":"Polygon","arcs":[[-28,-37,-44,-38]],"id":"SEN-763","properties":{"adm1_code":"SEN-763","iso_3166_2":"SN-DB","name":"Diourbel","admin":"Senegal","adm0_a3":"SEN","type_en":"Region"}}]}},"arcs":[[[91529,24689],[1138,-1734],[1180,2111],[2317,-867],[885,-2186],[-168,-1546],[590,-1998],[1348,-829],[169,-2676],[885,-565],[-717,-1546],[422,-3091],[-927,-1658],[337,-2262],[1011,-1847],[-169,-1733],[-2064,640],[-2065,-339],[-1897,-754],[-2865,754],[-801,-641],[-1517,453],[-1854,-1357],[-2739,-1018],[-717,1168],[-1601,792],[-1222,-678],[-1138,1470],[-2022,226],[-2276,2337],[-1096,-1621],[-1643,1131],[84,2751],[-4593,302]],[[67804,7878],[-1939,1357],[127,4221],[-632,2375],[-1433,2714],[-379,2865]],[[63548,21410],[379,1696],[1980,565],[1981,-301],[421,-2224],[0,-4222],[3245,-678],[2487,980],[1980,-1659],[1012,1546],[800,-151],[674,2638],[1391,716],[1686,0],[1095,1960],[1391,-527],[337,1206],[1138,0],[-295,1734],[506,1470],[3371,-3016],[885,1093],[1517,453]],[[63548,21410],[-1054,1130],[-211,1923],[-1137,37],[590,2149],[-2402,791]],[[59334,27440],[-1391,1659],[-2023,-490],[-3877,-2224],[-2107,1357],[-1011,2488],[-1011,829],[-2318,-942],[-1222,753],[-927,2601]],[[43447,33471],[800,1696],[1560,528],[1390,1734],[843,2865],[-253,3618],[-674,2299],[42,4297]],[[47155,50508],[2023,679],[2444,2374],[1433,-1846],[7079,-3694],[5226,-76],[4762,4486],[4382,-1093],[3118,452],[1728,3204],[1264,4297],[-168,1281],[-1770,3280]],[[78676,63852],[1096,226],[2444,-2413],[379,-1809],[1096,-1658],[1896,-1621],[1601,-3430],[-1137,-2412],[252,-2941],[1728,-829],[253,-1545],[1053,-867],[590,-1922],[-463,-3204],[168,-1546],[843,-1131],[0,-1846],[-800,-1772],[-1349,-1093],[1601,-3656],[1728,-1810],[-126,-1884]],[[67804,7878],[-717,301],[-5267,264],[-9987,38],[-8555,75],[-4467,0]],[[38811,8556],[253,4712],[-632,2638],[-1096,980],[-674,3053],[-1306,717],[253,3580]],[[35609,24236],[1896,1433],[126,2035],[590,1018],[717,716],[1980,-2148],[3835,-1960],[801,-1207],[2233,-113],[674,-678],[1307,-566],[1222,-1281],[3160,-302],[2360,1546],[3329,867],[506,2148],[-1011,1696]],[[38811,8556],[-1264,-75],[-3203,-2714],[-4172,-2676],[-3329,38]],[[26843,3129],[-1306,3693]],[[25537,6822],[-969,2903]],[[24568,9725],[590,4523],[1390,3468],[85,1809]],[[26633,19525],[1137,113],[43,1960],[252,2111],[3161,339],[1517,716],[2866,-528]],[[26843,3129],[-1475,-114],[-1896,641],[-2318,-264],[-2402,-1809],[-2444,-603],[-2233,188],[-969,-527],[-1138,2261],[-42,1244],[1138,1508],[842,-38],[1644,1885],[505,-1357],[1012,452],[1559,-942],[1306,1055],[1897,-452],[2992,1244],[716,-679]],[[24568,9725],[-422,-1659],[-1727,-1055],[-3119,-302],[-379,-754],[-2233,1395],[-928,1093],[-969,-264],[-1559,-1809],[-843,0],[211,2978],[-590,829],[42,2035],[590,1207],[84,3995],[1307,2262],[12600,-151]],[[61988,87749],[-674,-1960],[-1685,-905],[-2065,-3053],[-4973,-5503],[-3245,2488],[-716,1357]],[[48630,80173],[-843,1658],[-1812,1734],[-843,-75],[-1601,1093],[-9271,0],[-126,-1508],[-2529,-264],[-4087,5993],[-1307,-1809],[-3160,-2412],[-1770,-2149],[-506,-1357],[-1980,-829],[-2613,-75]],[[16182,80173],[-42,75],[548,2111],[0,2525],[674,3732],[1390,1658],[885,5240],[1222,1206],[1939,603],[1264,-1357],[3919,414],[2276,-716],[1980,754],[970,1131],[4214,38],[1727,377],[2866,2035],[1096,-528],[4635,-414],[1854,75],[1222,641],[1012,-566],[5351,-6445],[590,-377],[211,-2488],[927,-452],[1559,-2035],[1517,867],[0,-528]],[[47155,50508],[-379,1207],[-3371,1696]],[[43405,53411],[884,2487],[1265,2337],[-1180,4373],[2950,942],[590,980],[842,5654],[-1348,-264],[-2739,1922],[590,1244],[126,4147],[1939,1243],[1306,1697]],[[61988,87749],[675,-679],[3118,1093],[1475,-2186],[1306,-3128],[422,-3317],[969,-1847],[-169,-1696],[1897,-453],[505,-2412],[2065,264],[927,-3581],[970,-905],[-169,-2110],[1222,-302],[548,-1771],[927,-867]],[[43447,33471],[-885,603],[-2950,641],[-2781,-1809],[-590,904],[-1475,-226]],[[34766,33584],[-3034,1282],[-675,-1395],[-1390,1395],[126,1734],[-2486,3091],[0,2638],[885,3091],[0,2224]],[[28192,47644],[1475,2110],[1896,1546],[2613,678]],[[34176,51978],[843,2827]],[[35019,54805],[2107,-1470],[3034,-791],[2697,1771],[548,-904]],[[34766,33584],[-1180,-1432],[-506,-1545],[-295,-1320],[-9229,38]],[[23556,29325],[-1095,2111],[-295,1583],[-1054,1131],[548,1997],[-126,2073],[-632,1056],[0,2375],[-1981,904]],[[18921,42555],[-126,113]],[[18795,42668],[1180,2865],[800,1055],[2318,453],[1643,-528],[970,791],[2486,340]],[[23556,29325],[-7711,38],[-1307,2525],[43,3392],[-1180,-1658],[-506,1508],[-84,2563],[547,791],[1475,-264],[2192,3544],[1896,791]],[[18795,42668],[-1560,264],[-1306,-2488],[-1222,-1394],[-1475,151],[-716,-1056],[-759,3543]],[[11757,41688],[590,1206],[1306,5692],[843,226],[1517,1960],[295,1357]],[[16308,52129],[1138,603],[4298,-678],[2697,-1169],[2613,716],[885,1169],[211,2450],[2739,-528],[2697,-1507],[590,-1207]],[[35019,54805],[-1012,1131],[-168,1885],[-4299,716],[-1854,3279],[-4003,-37],[-885,-754]],[[22798,61025],[-969,716],[-1180,3354],[-295,2111],[-969,1810],[-1770,37],[-1222,-2676],[-1475,-528],[-1602,2073],[337,2978],[-632,1772]],[[13021,72672],[1054,1922],[2107,4862],[0,717]],[[11757,41688],[-1180,1470],[-885,3807],[-800,1508],[-1138,754],[-1433,3656]],[[6321,52883],[295,3129],[-843,3354]],[[5773,59366],[674,716],[4257,6973],[2317,5617]],[[22798,61025],[-969,-980],[-1981,1658],[-1391,302],[-3919,-1546],[-590,-1545],[1391,-4033],[-379,-1960],[1348,-792]],[[6321,52883],[-1559,1960],[-1433,829],[-1391,38],[-590,-1734],[-1348,2186],[2697,980],[3076,2224]]],"bbox":[-17.536571473889865,12.304989806873522,-11.377423378346208,16.671104245417297],"transform":{"scale":[0.00006159209687640534,0.000043661581001247764],"translate":[-17.536571473889865,12.304989806873522]}}