{"type":"Topology","objects":{"a1":{"type":"GeometryCollection","geometries":[{"type":"Polygon","arcs":[[0,1,2,3]],"id":"SLE-762","properties":{"adm1_code":"SLE-762","iso_3166_2":"SL-N","name":"Northern","admin":"Sierra Leone","adm0_a3":"SLE","type_en":"Province"}},{"type":"Polygon","arcs":[[-1,4,5]],"id":"SLE-790","properties":{"adm1_code":"SLE-790","iso_3166_2":"SL-E","name":"Eastern","admin":"Sierra Leone","adm0_a3":"SLE","type_en":"Province"}},{"type":"MultiPolygon","arcs":[[[-2,-6,6,7]],[[8]]],"id":"SLE-760","properties":{"adm1_code":"SLE-760","iso_3166_2":"SL-S","name":"Southern","admin":"Sierra Leone","adm0_a3":"SLE","type_en":"Province"}},{"type":"Polygon","arcs":[[-3,-8,9]],"id":"SLE-761","properties":{"adm1_code":"SLE-761","iso_3166_2":"SL-W","name":"Western","admin":"Sierra Leone","adm0_a3":"SLE","type_en":"Province"}}]}},"arcs":[[[89767,69004],[-3869,-1339],[258,-1659],[-3784,-107],[-4299,3426],[-3955,589],[-2408,-3426],[-4213,-1981],[-2579,-4122],[430,-5889],[-1204,-2302],[-1892,857],[-3611,-214],[-1634,-1178]],[[57007,51659],[-3869,-642],[-2752,-3801],[-2149,-803],[-3783,749],[-2666,-374],[-1720,-2195],[-3697,1713],[-5331,-268],[-3697,-1713],[-6019,2463],[-2923,-429],[-2580,803],[-2580,-3105]],[[13241,44057],[-601,2035],[-4128,1231]],[[8512,47323],[-2407,3212],[3439,2837],[-3181,642],[-1978,-1820],[-2407,4818],[0,4979],[1891,589],[1376,2355],[-4815,1713],[-430,2356],[3095,1124],[3010,-1071],[2923,1713],[2322,5728],[4041,321],[2236,2945],[2235,1552],[3268,7548],[2149,2088],[946,4711],[2751,1178],[5675,1017],[2064,-1392],[2752,-107],[6190,1285],[430,2301],[10662,54],[4557,0],[8341,-375],[1290,-3586],[2407,-1499],[2580,-2730],[1375,-2891],[3784,-4604],[-86,-1874],[6018,-4818],[-1719,-3640],[-688,-3587],[5073,-1177],[86,-214]],[[89767,69004],[-688,-3159],[344,-4068],[3955,-4765],[-2751,-1980],[-2408,-2998],[-1032,-3908],[2838,-2998],[2149,910],[4300,4979],[3525,-107],[-1720,-7656],[430,-2194],[-1461,-1125],[-5417,-749],[-2924,-3319],[86,-8244],[-3869,-2088],[-4385,-5246],[-3784,-1927],[-5503,-4551]],[[71452,13811],[-7050,2570],[-172,6263],[-4041,-2195],[-1204,4283],[3783,2944],[-1634,1767],[516,1820],[3010,2302],[430,4068],[-1290,4176],[-5073,5246],[-1720,4604]],[[71452,13811],[-2493,-2944],[-3267,-1338],[-1806,-2409],[-1204,-4657],[-2235,-2463],[-1892,696],[-5503,4068],[-4643,2677],[-15735,5835],[-6363,1981],[430,2088],[2150,2623],[-3440,4978],[-5933,803],[-2579,2623],[-2838,1178],[-2751,2677],[2407,910],[-859,2998],[515,1552],[-2665,5460]],[[10748,43147],[2493,910]],[[26741,21092],[-258,-2141],[-1720,-2998],[-1719,2195],[-11522,2944],[1805,1392],[9201,910],[4213,-2302]],[[10748,43147],[-3009,-428],[-3096,-1499],[-516,3159],[-3267,4443],[2149,2355],[2150,-2034],[3353,-1820]]],"bbox":[-13.300697183149367,6.920170190245088,-10.282117648755218,9.99438872443271],"transform":{"scale":[0.00003018609720491354,0.00003074249276680389],"translate":[-13.300697183149367,6.920170190245088]}}