{"type":"Topology","objects":{"a1":{"type":"GeometryCollection","geometries":[{"type":"Polygon","arcs":[[0,1,2,3]],"id":"SOM-2413","properties":{"adm1_code":"SOM-2413","iso_3166_2":"SO-NU","name":"Nugaal","admin":"Somalia","adm0_a3":"SOM","type_en":"Region"}},{"type":"Polygon","arcs":[[4,-4,5,6]],"id":"SOM-2412","properties":{"adm1_code":"SOM-2412","iso_3166_2":"SO-MU","name":"Mudug","admin":"Somalia","adm0_a3":"SOM","type_en":"Region"}},{"type":"Polygon","arcs":[[7,-7,8,9,10]],"id":"SOM-2408","properties":{"adm1_code":"SOM-2408","iso_3166_2":"SO-GA","name":"Galguduud","admin":"Somalia","adm0_a3":"SOM","type_en":"Region"}},{"type":"Polygon","arcs":[[11,-11,12,13,14]],"id":"SOM-2409","properties":{"adm1_code":"SOM-2409","iso_3166_2":"SO-HI","name":"Hiiraan","admin":"Somalia","adm0_a3":"SOM","type_en":"Region"}},{"type":"Polygon","arcs":[[15,-15,16,17,18]],"id":"SOM-2312","properties":{"adm1_code":"SOM-2312","iso_3166_2":"SO-BK","name":"Bakool","admin":"Somalia","adm0_a3":"SOM","type_en":"Region"}},{"type":"Polygon","arcs":[[-19,19,20,21,22]],"id":"SOM-2314","properties":{"adm1_code":"SOM-2314","iso_3166_2":"SO-GE","name":"Gedo","admin":"Somalia","adm0_a3":"SOM","type_en":"Region"}},{"type":"Polygon","arcs":[[-2,23]],"id":"SOM-1","properties":{"adm1_code":"SOM-1","iso_3166_2":"SO-BR","name":"Bari","admin":"Somalia","adm0_a3":"SOM","type_en":"Region"}},{"type":"Polygon","arcs":[[-22,24,25]],"id":"SOM-2645","properties":{"adm1_code":"SOM-2645","iso_3166_2":"SO-JH","name":"Jubbada Hoose","admin":"Somalia","adm0_a3":"SOM","type_en":"Region"}},{"type":"Polygon","arcs":[[-21,26,27,28,-25]],"id":"SOM-2315","properties":{"adm1_code":"SOM-2315","iso_3166_2":"SO-JD","name":"Jubbada Dhexe","admin":"Somalia","adm0_a3":"SOM","type_en":"Region"}},{"type":"Polygon","arcs":[[-14,29,30,31,-28,32,-17]],"id":"SOM-2316","properties":{"adm1_code":"SOM-2316","iso_3166_2":"SO-SH","name":"Shabeellaha Hoose","admin":"Somalia","adm0_a3":"SOM","type_en":"Region"}},{"type":"Polygon","arcs":[[-31,33,34]],"id":"SOM-2407","properties":{"adm1_code":"SOM-2407","iso_3166_2":"SO-BN","name":"Banaadir","admin":"Somalia","adm0_a3":"SOM","type_en":"Region"}},{"type":"Polygon","arcs":[[-10,35,-34,-30,-13]],"id":"SOM-2410","properties":{"adm1_code":"SOM-2410","iso_3166_2":"SO-SD","name":"Shabeellaha Dhexe","admin":"Somalia","adm0_a3":"SOM","type_en":"Region"}},{"type":"Polygon","arcs":[[-18,-33,-27,-20]],"id":"SOM-2313","properties":{"adm1_code":"SOM-2313","iso_3166_2":"SO-BY","name":"Bay","admin":"Somalia","adm0_a3":"SOM","type_en":"Region"}}]}},"arcs":[[[62966,67676],[4281,3151],[3459,3992],[2290,2657],[3459,3981],[0,817]],[[76455,82274],[1145,48],[199,-3138],[299,-1756],[672,-950],[2588,-1310],[2190,-73],[971,-372],[572,-1455],[871,950],[1145,-157],[1095,-769]],[[88202,73292],[-498,-986],[-522,-505],[-1245,-566],[-821,-661],[-373,-986],[149,-637],[-647,-650],[-75,-457],[-995,-1310]],[[83175,66534],[-1344,1178],[-572,72],[-2415,878],[-1518,72],[-5077,-2188],[-9283,1130]],[[52737,60173],[5650,4148],[4579,3355]],[[83175,66534],[-2613,-2802],[-1145,-1575],[-473,-998],[-1195,-1888],[100,-782],[-473,-1190],[-1792,-2345],[-1468,-1732],[-473,-781],[-946,-770],[-946,-1215],[-1144,-937],[-1220,-1251],[-1419,-2165],[-1020,-1142],[-1020,-842]],[[65928,44119],[-3286,1083],[1071,5122],[-1344,2778],[-1145,1311],[2389,3872],[-3634,625],[-7242,1263]],[[43653,52885],[4007,3331],[5077,3957]],[[65928,44119],[-2539,-2056],[-846,-902],[-4306,-3415]],[[58237,37746],[-6222,3079]],[[52015,40825],[100,2477],[-2414,1467],[-373,2260],[945,1467],[199,1023],[-1816,-373],[-3161,589],[-1842,3150]],[[34818,48328],[3011,-132],[299,84],[5525,4605]],[[52015,40825],[-3459,-2706],[-871,-1972],[-6421,-373],[-1145,84],[-771,289]],[[39348,36147],[-2788,144]],[[36560,36291],[-75,3139],[274,1178],[-1145,4016],[-796,3704]],[[18268,44023],[423,481],[423,902],[1543,950],[3907,1419],[3037,529],[1194,289],[6023,-265]],[[36560,36291],[-1145,-144]],[[35415,36147],[-473,144],[-1916,-72],[-1244,589],[273,361],[0,1311],[-1244,2044],[-2190,517],[-672,0],[-1244,-517],[-672,-950],[-971,-794],[-1618,-300],[-2787,733]],[[20657,39213],[174,1311],[-2563,3499]],[[20657,39213],[-199,-3210],[0,-1251],[-1618,-144],[-3186,216],[-846,-3643],[-1070,-4534]],[[13738,26647],[-7267,-72],[-2116,-4966]],[[4355,21609],[-4330,-217]],[[25,21392],[0,3776],[0,5471],[-25,2321],[124,205],[3485,2621],[5201,5676],[374,673],[1393,770],[622,180],[1568,12],[4729,613],[772,313]],[[76455,82274],[0,7396],[0,4918],[2887,385],[1518,288],[1170,385],[523,493],[1070,96],[1568,-60],[796,349],[1319,-36],[871,397],[1021,192],[995,589],[622,156],[722,590],[174,637],[423,457],[2141,493],[672,-337],[970,-72],[573,-349],[946,-48],[1592,-336],[-423,-758],[-25,-565],[-1219,-1070],[-25,-578],[-348,-613],[49,-1130],[847,-205],[-573,-1214],[224,-2309],[224,-577],[-523,-156],[-49,-602],[-623,-577],[1469,217],[25,757],[970,-505],[971,-12],[-274,-806],[-896,73],[-298,348],[-1444,-132],[-1568,-577],[-423,-1660],[149,-565],[-896,-2922],[324,-1226],[-672,-998],[-896,-445],[-323,-457],[49,-626],[-423,-529],[-1045,-625],[-697,-697],[-299,-902],[-622,-674],[-25,-601],[-1518,-1647]],[[4355,21609],[7467,360],[2215,73],[1916,-4377],[971,-3007],[4355,48]],[[21279,14706],[-921,-673],[-3061,-2585],[-1170,-722],[-2265,-1912],[-1543,-1431],[-572,-661],[-1070,-625],[-1220,-1503],[-1070,-1143],[-50,-276],[-1767,-2213],[-1120,-962],[0,144],[-124,758],[-5202,5134],[-99,6338],[0,4569],[0,4449]],[[13738,26647],[1170,-517],[3633,-2621],[772,-445]],[[19313,23064],[2787,-3139],[2390,-2609]],[[24490,17316],[-2240,-1888],[-971,-722]],[[39348,36147],[472,-1539],[2116,-2333],[-100,-3944],[573,-229]],[[42409,28102],[-1170,-1178]],[[41239,26924],[-2539,-890],[-3135,-1672],[-1195,-577],[-2091,-1226],[-1070,-842],[-722,-337],[-1070,-962],[-970,-637],[-1444,-649],[-473,-481],[-721,-373],[-1319,-962]],[[19313,23064],[5749,2188],[2887,878],[7367,2489],[-274,1900],[373,1972],[-199,433],[498,1756],[-299,1467]],[[42409,28102],[2065,253]],[[44474,28355],[-3235,-1431]],[[58237,37746],[-1966,-1731],[-1294,-866],[-722,-650],[-1319,-841],[-2389,-1768],[-1269,-1142],[-747,-529],[-1941,-950],[-2116,-914]]],"bbox":[40.96625114454835,-1.696857778173765,51.39501517653082,11.989010171667942],"transform":{"scale":[0.00010428868320665675,0.00013686004809889806],"translate":[40.96625114454835,-1.696857778173765]}}