{"type":"Topology","objects":{"a1":{"type":"GeometryCollection","geometries":[{"type":"Polygon","arcs":[[0]],"id":"SPM-4866","properties":{"adm1_code":"SPM-4866","iso_3166_2":"PM-X01~","name":"Saint-Pierre","admin":"Saint Pierre and Miquelon","adm0_a3":"SPM","type_en":"Commune"}},{"type":"Polygon","arcs":[[1]],"id":"SPM-4867","properties":{"adm1_code":"SPM-4867","iso_3166_2":"PM-X02~","name":"Miquelon-Langlade","admin":"Saint Pierre and Miquelon","adm0_a3":"SPM","type_en":"Commune"}}]}},"arcs":[[[99999,10138],[-7368,-10138],[-29474,2304],[20000,11521],[16842,-3687]],[[49473,38709],[10526,-14746],[-39999,-16590],[4210,47926],[-24210,44700],[57894,-17051],[-24210,-21658],[15789,-22581]]],"bbox":[-56.39656527350199,46.75664440788199,-56.14999170878363,47.11376722475495],"transform":{"scale":[0.0000024657603047866545,0.000003571263881368404],"translate":[-56.39656527350199,46.75664440788199]}}