{"type":"Topology","objects":{"a1":{"type":"GeometryCollection","geometries":[{"type":"Polygon","arcs":[[0,1,2]],"id":"TCD-1466","properties":{"adm1_code":"TCD-1466","iso_3166_2":"TD-LC","name":"Lac","admin":"Chad","adm0_a3":"TCD","type_en":"Prefecture"}},{"type":"Polygon","arcs":[[3,4,5,6,7]],"id":"TCD-5582","properties":{"adm1_code":"TCD-5582","iso_3166_2":"TD-SI","name":"Sila","admin":"Chad","adm0_a3":"TCD","type_en":"Prefecture"}},{"type":"Polygon","arcs":[[8,9,10,-4]],"id":"TCD-1489","properties":{"adm1_code":"TCD-1489","iso_3166_2":"TD-SA","name":"Salamat","admin":"Chad","adm0_a3":"TCD","type_en":"Prefecture"}},{"type":"Polygon","arcs":[[-10,11,12,13,14,15]],"id":"TCD-5583","properties":{"adm1_code":"TCD-5583","iso_3166_2":"TD-MC","name":"Moyen-Chari","admin":"Chad","adm0_a3":"TCD","type_en":"Prefecture"}},{"type":"Polygon","arcs":[[-13,16,17,18]],"id":"TCD-1488","properties":{"adm1_code":"TCD-1488","iso_3166_2":"TD-MA","name":"Mandoul","admin":"Chad","adm0_a3":"TCD","type_en":"Prefecture"}},{"type":"Polygon","arcs":[[19,20,21,22,-18]],"id":"TCD-1485","properties":{"adm1_code":"TCD-1485","iso_3166_2":"TD-LR","name":"Logone Oriental","admin":"Chad","adm0_a3":"TCD","type_en":"Prefecture"}},{"type":"Polygon","arcs":[[-2,23,24,25,26,27,28]],"id":"TCD-1464","properties":{"adm1_code":"TCD-1464","iso_3166_2":"TD-HL","name":"Hadjer-Lamis","admin":"Chad","adm0_a3":"TCD","type_en":"Prefecture"}},{"type":"Polygon","arcs":[[-15,29,30,31,32,33,-28,34]],"id":"TCD-5580","properties":{"adm1_code":"TCD-5580","iso_3166_2":"TD-CB","name":"Chari-Baguirmi","admin":"Chad","adm0_a3":"TCD","type_en":"Prefecture"}},{"type":"Polygon","arcs":[[35,-33]],"id":"TCD-4857","properties":{"adm1_code":"TCD-4857","iso_3166_2":"TD-ND","name":"Ville de N'Djamena","admin":"Chad","adm0_a3":"TCD","type_en":"Capital"}},{"type":"Polygon","arcs":[[36,-31,37,38]],"id":"TCD-1486","properties":{"adm1_code":"TCD-1486","iso_3166_2":"TD-ME","name":"Mayo-Kebbi Est","admin":"Chad","adm0_a3":"TCD","type_en":"Prefecture"}},{"type":"Polygon","arcs":[[-21,39,-39,40,41]],"id":"TCD-4858","properties":{"adm1_code":"TCD-4858","iso_3166_2":"TD-MO","name":"Mayo-Kebbi Ouest","admin":"Chad","adm0_a3":"TCD","type_en":"Prefecture"}},{"type":"Polygon","arcs":[[42,43,44]],"id":"TCD-5579","properties":{"adm1_code":"TCD-5579","iso_3166_2":"TD-X01~","name":"Ennedi","admin":"Chad","adm0_a3":"TCD","type_en":"Préfecture"}},{"type":"Polygon","arcs":[[45,46,47,-45,48,49,50,51]],"id":"TCD-5577","properties":{"adm1_code":"TCD-5577","iso_3166_2":"TD-BO","name":"Borkou","admin":"Chad","adm0_a3":"TCD","type_en":"Préfecture"}},{"type":"Polygon","arcs":[[52,-47]],"id":"TCD-5578","properties":{"adm1_code":"TCD-5578","iso_3166_2":"TD-TI","name":"Tibesti","admin":"Chad","adm0_a3":"TCD","type_en":"Préfecture"}},{"type":"Polygon","arcs":[[-1,53,-52,54,-24]],"id":"TCD-1465","properties":{"adm1_code":"TCD-1465","iso_3166_2":"TD-KA","name":"Kanem","admin":"Chad","adm0_a3":"TCD","type_en":"Prefecture"}},{"type":"Polygon","arcs":[[-7,55,56,57]],"id":"TCD-1475","properties":{"adm1_code":"TCD-1475","iso_3166_2":"TD-OD","name":"Ouaddaï","admin":"Chad","adm0_a3":"TCD","type_en":"Prefecture"}},{"type":"Polygon","arcs":[[-44,58,-57,59,-49]],"id":"TCD-1473","properties":{"adm1_code":"TCD-1473","iso_3166_2":"TD-WF","name":"Wadi Fira","admin":"Chad","adm0_a3":"TCD","type_en":"Prefecture"}},{"type":"Polygon","arcs":[[-25,-55,-51,60]],"id":"TCD-5581","properties":{"adm1_code":"TCD-5581","iso_3166_2":"TD-BG","name":"Barh El Gazel","admin":"Chad","adm0_a3":"TCD","type_en":"Prefecture"}},{"type":"Polygon","arcs":[[-14,-19,-23,61,-41,-38,-30]],"id":"TCD-1487","properties":{"adm1_code":"TCD-1487","iso_3166_2":"TD-TA","name":"Tandjilé","admin":"Chad","adm0_a3":"TCD","type_en":"Prefecture"}},{"type":"Polygon","arcs":[[-22,-42,-62]],"id":"TCD-1484","properties":{"adm1_code":"TCD-1484","iso_3166_2":"TD-LO","name":"Logone Occidental","admin":"Chad","adm0_a3":"TCD","type_en":"Prefecture"}},{"type":"Polygon","arcs":[[-5,-11,-16,-35,-27,62]],"id":"TCD-1474","properties":{"adm1_code":"TCD-1474","iso_3166_2":"TD-GR","name":"Guéra","admin":"Chad","adm0_a3":"TCD","type_en":"Prefecture"}},{"type":"Polygon","arcs":[[-6,-63,-26,-61,-50,-60,-56]],"id":"TCD-1472","properties":{"adm1_code":"TCD-1472","iso_3166_2":"TD-BA","name":"Batha","admin":"Chad","adm0_a3":"TCD","type_en":"Prefecture"}}]}},"arcs":[[[1503,44163],[1330,-31],[370,-237],[1552,-62],[1675,-494],[197,-453],[1996,-1122],[1133,-196],[1577,-1214],[1453,-1493],[1134,52],[2833,442],[1552,10],[1749,-3047]],[[20054,36318],[-1133,340],[-813,535],[-1306,-267],[838,-752],[689,-350],[-1281,-442],[-714,576],[-1577,329],[0,-442],[370,-535],[-419,-649],[-4903,10]],[[9805,34671],[-591,505],[-3375,-21],[-4336,3912],[-1183,3479],[-320,752],[320,648],[1183,217]],[[84626,21865],[-2661,4005],[-369,195],[-2119,453],[-5322,-638],[-2192,340],[-4829,1564],[-2365,1030],[-468,82],[-2488,-51],[-197,-597],[-838,20],[-296,690]],[[60482,28958],[0,473],[912,1524],[1700,1204],[-394,505],[1133,998],[-1749,814]],[[62084,34476],[2439,422],[468,339]],[[64991,35237],[1084,-288],[2537,0],[74,-834],[1454,-185],[98,-1029],[1281,-319],[1060,195],[1355,-134],[492,134],[863,577],[1847,576],[2218,-556]],[[79354,33374],[665,-731],[542,-236],[1158,-11],[813,216],[591,443],[1183,-504],[1084,-319],[-690,-927],[345,-391],[690,-1400],[-222,-916],[1478,267],[-714,-2450],[221,-597],[641,-473],[1084,-278],[369,-422],[1257,-11],[394,-1173],[-912,-1812],[-1330,288],[-2464,227],[-911,-299]],[[84626,21865],[-1059,-237],[-715,-628],[-1232,134],[-419,-587],[-1330,-473],[-1330,-196],[-173,-401],[444,-999],[-321,-720],[-591,-402],[-1059,-82],[-567,-350],[-493,-741],[-542,-453],[-1133,20],[-566,-556],[-616,-236],[-370,-474],[-714,-185],[-197,-597],[-1725,-1441],[-3030,-927],[172,-288],[-739,-536],[-714,-133],[-1823,20],[-937,113],[-1305,-473]],[[61542,10037],[-2661,5415],[-715,854],[616,999],[-345,844],[493,1616]],[[58930,19765],[197,546],[-123,1081],[246,226],[-542,463],[-1699,474],[-542,-10],[-1405,514],[-1108,258],[-2612,1029],[-98,247],[172,1812],[1232,175],[739,-556],[1109,340],[911,1070],[25,278],[-665,690],[1626,999],[2389,-381],[1700,-62]],[[61542,10037],[-1208,-72],[-985,-196],[-3153,-123],[-1011,175],[-886,-165],[-641,82],[-1971,-730],[345,-639],[1133,-319],[715,-442],[-493,-268],[-493,-535],[-961,-711],[-1010,-978],[-1330,-432],[-517,-432],[-271,-567],[-789,-103],[-3153,-61]],[[44863,3521],[-468,1204],[24,1030],[-369,895],[-542,340],[-247,679],[74,741],[-689,289],[246,988],[911,93],[961,864],[-221,175],[-1380,72],[-1897,577],[-788,1029],[-838,-20],[-444,659],[-394,175]],[[38802,13311],[197,483],[-1231,700],[-937,258]],[[36831,14752],[1947,4045]],[[38778,18797],[2784,62],[936,-545],[936,-206],[1010,-41],[1330,-628],[789,-83],[862,-298],[517,-484],[1035,-577],[-74,-628],[838,-298],[739,154],[369,669],[1824,52],[1576,813],[321,433],[960,566],[370,761],[443,350],[1405,124],[320,360],[862,412]],[[44863,3521],[-986,-11],[-1650,-329],[-764,-31],[-1306,144],[-1675,-370],[-345,-258],[-764,-92],[-1453,-371]],[[35920,2203],[-1355,1935],[690,227],[813,844],[-1996,2007],[739,1071],[99,1328],[-197,463]],[[34713,10078],[714,484],[-1035,803],[1306,690],[74,761],[-172,340],[517,247],[1946,237],[739,-329]],[[35920,2203],[-1232,-834],[-2119,-278],[-616,-525],[-320,-51],[-690,545],[-788,258],[-197,556],[-518,226],[-24,474],[-1331,-464],[-344,-772],[-838,-72],[-715,-298],[-1355,-134],[-1330,-649],[-1232,-185],[-714,62],[-493,298],[-1774,41],[641,680],[148,1009],[-1158,298],[-912,1853],[-1281,1781]],[[16728,6022],[591,175]],[[17319,6197],[1503,-587],[468,-41],[912,-566],[788,103],[739,309],[764,-31],[714,751],[2390,989],[2094,319],[419,360],[986,299],[788,803],[-715,617],[-813,916]],[[28356,10438],[1257,52],[936,-216],[2390,-402],[1774,206]],[[20054,36318],[2045,-576],[1010,93]],[[23109,35835],[788,-412],[321,-463],[2340,30],[739,145],[1183,-155],[394,196],[2168,195],[1010,289],[517,-103],[1109,247],[1281,-237]],[[34959,35567],[-419,-391],[-1108,-700],[-222,-433],[862,-442],[862,-1318],[690,-525],[518,-124],[320,-1008],[837,-567],[222,-453],[1503,-226]],[[39024,29380],[-370,-1204],[25,-299],[961,-1246],[-1577,-308],[-1848,-1081]],[[36215,25242],[-1355,442],[-1256,772],[-1454,62],[-468,258],[-98,895],[-986,762],[0,700],[-295,700],[-1158,391],[-4361,1081],[-764,-576],[-985,-186],[-1552,62],[-1552,-257],[-468,-258],[-887,72],[-370,319],[-2808,-452],[-1577,-62]],[[13821,29967],[25,484],[-715,1822],[-591,92],[-715,567],[-862,236],[-1084,783],[-74,720]],[[36831,14752],[-960,92],[-863,495],[-1823,164],[-616,391],[-1330,165],[-912,381],[-369,793],[-394,236],[-1158,-360],[-2094,10]],[[26312,17119],[-887,752],[-173,813],[296,1812],[-1330,340],[-740,-83],[-1675,217],[-911,535],[-961,185],[-320,525],[-592,155],[-197,514],[-837,340],[-1060,82],[-764,-411],[-1157,-237]],[[15004,22658],[0,1029],[246,299],[49,772],[715,720],[-468,525],[-173,525],[394,525],[-640,742],[197,154],[-222,803]],[[15102,28752],[788,227],[-147,391],[-666,134],[-246,-412]],[[14831,29092],[-443,-103],[-592,329],[25,649]],[[36215,25242],[-98,-1596],[394,-1668],[197,-1400],[-197,-1029],[2267,-752]],[[15102,28752],[-271,340]],[[12195,15421],[1552,226],[1552,-61],[468,195],[1010,21],[1577,-340],[542,10],[2291,371],[-1379,556],[-2218,1451],[-221,515],[-567,577],[-764,216],[99,638],[-789,1060],[124,659],[-419,607],[-49,536]],[[26312,17119],[221,-772],[-320,-731],[-493,-617],[-1749,-1081],[-591,298],[-764,62],[-1084,-854],[-394,-659],[-1527,-1163],[-715,-793]],[[18896,10809],[-1330,371],[-1996,926],[-172,844],[-419,711],[-813,329],[-1922,-185],[-148,761],[99,855]],[[16728,6022],[-271,360],[-1429,1123],[-739,113],[-123,340],[-912,504],[-492,21],[-4213,2213],[-271,473],[-2710,2028],[-838,433],[567,638],[788,443],[1010,1060],[2316,103],[2784,-453]],[[18896,10809],[222,-999]],[[19118,9810],[-419,-144],[-394,-751],[-49,-885],[-616,-443],[-395,-1060],[74,-330]],[[70657,84835],[7046,-2285],[5864,-1915],[4680,-1523],[4681,-1524],[7046,-2285],[0,-5816],[25,-4355],[0,-5816],[0,-2903],[0,-4725],[-370,-186],[-1108,248],[-2242,113],[-1872,-381],[-715,-41],[-1897,154]],[[91795,51595],[-468,484],[-1084,226],[-690,-144],[-1108,258],[-2119,-144],[-690,586],[-1084,247],[-1010,-51],[-1010,237],[-1183,51],[-911,-257],[-1528,329],[-3547,-463],[-912,-216],[-1897,587],[-1355,-443],[-1109,-710],[-1650,-392],[-862,-319],[-813,165]],[[66765,51626],[1478,824],[-863,1400],[-2340,4323],[936,2625],[247,2790],[0,2162],[-2587,4488],[-1405,3706],[8426,10891]],[[19167,59089],[222,1380]],[[19389,60469],[7415,8596],[5174,6022],[5149,5970],[468,1699],[2809,0],[1182,154],[1158,773],[1897,617],[5617,1235],[247,1390],[-469,3099],[1873,916]],[[51909,90940],[2537,-834],[6849,-2213],[9362,-3058]],[[66765,51626],[-1700,-268],[-2119,659],[-764,62]],[[62182,52079],[-1281,93],[-2932,545],[-1256,515],[-419,947],[-665,268],[-887,72],[-74,-1462],[-739,-1307],[-788,-731],[-1060,-577],[-1379,-453],[-1873,-370],[-1084,-42],[-1971,299],[-1773,628],[-863,525]],[[43138,51029],[-1429,1101],[-11111,3439]],[[30598,55569],[-11431,3520]],[[19389,60469],[714,5476],[813,5930],[789,5971],[295,494],[1873,2110],[-99,340],[-3892,2656],[0,576],[615,371],[-2907,2820],[-1158,670],[-73,3036],[-1824,6270],[9338,2789],[197,21],[6725,-2193],[7046,-2285],[7022,-2296],[7046,-2285]],[[1503,44163],[493,185],[-99,638],[1109,433],[-50,916],[690,957],[5100,4571],[6233,4272],[4040,2779],[148,175]],[[30598,55569],[-1749,-1905],[-2119,-4859],[-1256,-2810],[-197,-1462],[-591,-638],[-2612,-2049],[-1749,-442],[99,-2028],[1108,10],[444,216],[739,-144],[221,-370],[-246,-402],[567,-762],[0,-1698],[-148,-391]],[[64991,35237],[98,824],[-221,1122],[0,1009],[-493,659],[74,1359],[-2267,772],[0,916]],[[62182,41898],[1503,1060],[1232,721],[1453,-11],[1109,186],[1700,-361],[1010,-350],[517,-566],[2563,-1019],[615,-51],[961,309],[961,51],[2538,-257],[3227,-690],[912,-515],[394,21]],[[82877,40426],[-1010,-937],[369,-257],[197,-577],[592,-360],[147,-597],[616,-680],[-74,-257],[-1207,-885],[-1182,-330],[-764,-514],[-1207,-1658]],[[91795,51595],[-1848,-895],[-172,-515],[567,-474],[0,-1132],[-567,-700],[-542,-155],[-1059,-679],[-222,-504],[-616,-515],[148,-844],[-1897,-330],[-961,-535],[567,-453],[172,-1379],[862,-186],[-24,-617],[-2735,-917],[-591,-339]],[[62182,41898],[0,10181]],[[43138,51029],[-4188,-11231],[-2882,-587],[-173,-185],[-320,-1225],[74,-1441],[-690,-793]],[[28356,10438],[-615,690],[-1651,-556],[-542,-381],[-936,186],[-592,-72],[-1428,-484],[-690,20],[-2144,-247],[-640,216]],[[39024,29380],[49,504],[2464,1380],[1404,144],[986,566],[3399,1215],[370,41],[5765,-144],[813,175],[2882,1112],[2242,638],[2686,-535]]],"bbox":[13.448641321980375,7.458323006454592,23.983821313472873,23.444917675136935],"transform":{"scale":[0.00010535285344345942,0.00015986754536227707],"translate":[13.448641321980375,7.458323006454592]}}