{"type":"Topology","objects":{"a1":{"type":"GeometryCollection","geometries":[{"type":"MultiPolygon","arcs":[[[0,1,2]],[[3]],[[4]],[[5]]],"id":"USA-3519","properties":{"adm1_code":"USA-3519","iso_3166_2":"US-WA","name":"Washington","admin":"United States of America","adm0_a3":"USA","type_en":"State"}},{"type":"Polygon","arcs":[[-1,6,7,8,9,10,11]],"id":"USA-3518","properties":{"adm1_code":"USA-3518","iso_3166_2":"US-ID","name":"Idaho","admin":"United States of America","adm0_a3":"USA","type_en":"State"}},{"type":"Polygon","arcs":[[12,13,14,15,-8]],"id":"USA-3515","properties":{"adm1_code":"USA-3515","iso_3166_2":"US-MT","name":"Montana","admin":"United States of America","adm0_a3":"USA","type_en":"State"}},{"type":"Polygon","arcs":[[-14,16,17,18]],"id":"USA-3516","properties":{"adm1_code":"USA-3516","iso_3166_2":"US-ND","name":"North Dakota","admin":"United States of America","adm0_a3":"USA","type_en":"State"}},{"type":"Polygon","arcs":[[-18,19,20,21,22,23]],"id":"USA-3514","properties":{"adm1_code":"USA-3514","iso_3166_2":"US-MN","name":"Minnesota","admin":"United States of America","adm0_a3":"USA","type_en":"State"}},{"type":"Polygon","arcs":[[-21,24,25,26,27,28]],"id":"USA-3562","properties":{"adm1_code":"USA-3562","iso_3166_2":"US-MI","name":"Michigan","admin":"United States of America","adm0_a3":"USA","type_en":"State"}},{"type":"Polygon","arcs":[[29,30,31,32,33,-26]],"id":"USA-3550","properties":{"adm1_code":"USA-3550","iso_3166_2":"US-OH","name":"Ohio","admin":"United States of America","adm0_a3":"USA","type_en":"State"}},{"type":"Polygon","arcs":[[34,35,36,37,38,39,40,-31]],"id":"USA-3560","properties":{"adm1_code":"USA-3560","iso_3166_2":"US-PA","name":"Pennsylvania","admin":"United States of America","adm0_a3":"USA","type_en":"State"}},{"type":"MultiPolygon","arcs":[[[41,42,43,44,45,46,-36]],[[47]],[[48]]],"id":"USA-3559","properties":{"adm1_code":"USA-3559","iso_3166_2":"US-NY","name":"New York","admin":"United States of America","adm0_a3":"USA","type_en":"State"}},{"type":"Polygon","arcs":[[-43,49,50,51]],"id":"USA-3540","properties":{"adm1_code":"USA-3540","iso_3166_2":"US-VT","name":"Vermont","admin":"United States of America","adm0_a3":"USA","type_en":"State"}},{"type":"Polygon","arcs":[[52,53,54,55,-51]],"id":"USA-3538","properties":{"adm1_code":"USA-3538","iso_3166_2":"US-NH","name":"New Hampshire","admin":"United States of America","adm0_a3":"USA","type_en":"State"}},{"type":"MultiPolygon","arcs":[[[56,-54]],[[57]]],"id":"USA-3561","properties":{"adm1_code":"USA-3561","iso_3166_2":"US-ME","name":"Maine","admin":"United States of America","adm0_a3":"USA","type_en":"State"}},{"type":"Polygon","arcs":[[58,59,60,61,62]],"id":"USA-3520","properties":{"adm1_code":"USA-3520","iso_3166_2":"US-AZ","name":"Arizona","admin":"United States of America","adm0_a3":"USA","type_en":"State"}},{"type":"MultiPolygon","arcs":[[[-59,63,64,65]],[[66]],[[67]],[[68]],[[69]]],"id":"USA-3521","properties":{"adm1_code":"USA-3521","iso_3166_2":"US-CA","name":"California","admin":"United States of America","adm0_a3":"USA","type_en":"State"}},{"type":"Polygon","arcs":[[-62,70,71,72,73]],"id":"USA-3524","properties":{"adm1_code":"USA-3524","iso_3166_2":"US-NM","name":"New Mexico","admin":"United States of America","adm0_a3":"USA","type_en":"State"}},{"type":"MultiPolygon","arcs":[[[-73,74,75,76,77]],[[78]],[[79]],[[80]]],"id":"USA-3536","properties":{"adm1_code":"USA-3536","iso_3166_2":"US-TX","name":"Texas","admin":"United States of America","adm0_a3":"USA","type_en":"State"}},{"type":"MultiPolygon","arcs":[[[81]],[[82]],[[83]],[[84]],[[85]],[[86]],[[87]],[[88]],[[89]],[[90]],[[91]],[[92]],[[93]],[[94]],[[95]],[[96]],[[97]],[[98]],[[99]],[[100]],[[101]],[[102]],[[103]],[[104]],[[105]],[[106]],[[107]],[[108]],[[109]],[[110]],[[111]],[[112]],[[113]],[[114]],[[115]],[[116]],[[117]],[[118]],[[119]],[[120]],[[121]],[[122]],[[123]],[[124]],[[125]],[[126]],[[127]],[[128]],[[129]],[[130]],[[131]],[[132]],[[133]],[[134]],[[135]],[[136]],[[137]],[[138]],[[139]],[[140]],[[141]],[[142]],[[143]],[[144]],[[145]],[[146]],[[147]],[[148]],[[149]],[[150]],[[151]],[[152]]],"id":"USA-3563","properties":{"adm1_code":"USA-3563","iso_3166_2":"US-AK","name":"Alaska","admin":"United States of America","adm0_a3":"USA","type_en":"State"}},{"type":"MultiPolygon","arcs":[[[-77,153,154,155]],[[156]]],"id":"USA-3535","properties":{"adm1_code":"USA-3535","iso_3166_2":"US-LA","name":"Louisiana","admin":"United States of America","adm0_a3":"USA","type_en":"State"}},{"type":"Polygon","arcs":[[-155,157,158,159,160]],"id":"USA-3544","properties":{"adm1_code":"USA-3544","iso_3166_2":"US-MS","name":"Mississippi","admin":"United States of America","adm0_a3":"USA","type_en":"State"}},{"type":"Polygon","arcs":[[-160,161,162,163,164]],"id":"USA-3541","properties":{"adm1_code":"USA-3541","iso_3166_2":"US-AL","name":"Alabama","admin":"United States of America","adm0_a3":"USA","type_en":"State"}},{"type":"MultiPolygon","arcs":[[[-164,165,166]],[[167]]],"id":"USA-3542","properties":{"adm1_code":"USA-3542","iso_3166_2":"US-FL","name":"Florida","admin":"United States of America","adm0_a3":"USA","type_en":"State"}},{"type":"Polygon","arcs":[[-163,168,169,170,171,-166]],"id":"USA-3543","properties":{"adm1_code":"USA-3543","iso_3166_2":"US-GA","name":"Georgia","admin":"United States of America","adm0_a3":"USA","type_en":"State"}},{"type":"Polygon","arcs":[[-171,172,173]],"id":"USA-3545","properties":{"adm1_code":"USA-3545","iso_3166_2":"US-SC","name":"South Carolina","admin":"United States of America","adm0_a3":"USA","type_en":"State"}},{"type":"MultiPolygon","arcs":[[[-170,174,175,176,-173]],[[177,178]]],"id":"USA-3549","properties":{"adm1_code":"USA-3549","iso_3166_2":"US-NC","name":"North Carolina","admin":"United States of America","adm0_a3":"USA","type_en":"State"}},{"type":"MultiPolygon","arcs":[[[-176,179,180,181,182,183,184,-178,185]],[[186,187]]],"id":"USA-3552","properties":{"adm1_code":"USA-3552","iso_3166_2":"US-VA","name":"Virginia","admin":"United States of America","adm0_a3":"USA","type_en":"State"}},{"type":"Polygon","arcs":[[-184,188,189]],"id":"USA-3556","properties":{"adm1_code":"USA-3556","iso_3166_2":"US-DC","name":"District of Columbia","admin":"United States of America","adm0_a3":"USA","type_en":"Federal District"}},{"type":"Polygon","arcs":[[-40,190,191,-188,192,-189,-183,193]],"id":"USA-3557","properties":{"adm1_code":"USA-3557","iso_3166_2":"US-MD","name":"Maryland","admin":"United States of America","adm0_a3":"USA","type_en":"State"}},{"type":"Polygon","arcs":[[-39,194,-191]],"id":"USA-3555","properties":{"adm1_code":"USA-3555","iso_3166_2":"US-DE","name":"Delaware","admin":"United States of America","adm0_a3":"USA","type_en":"State"}},{"type":"Polygon","arcs":[[-37,-47,195]],"id":"USA-3558","properties":{"adm1_code":"USA-3558","iso_3166_2":"US-NJ","name":"New Jersey","admin":"United States of America","adm0_a3":"USA","type_en":"State"}},{"type":"Polygon","arcs":[[-45,196,197,198]],"id":"USA-3537","properties":{"adm1_code":"USA-3537","iso_3166_2":"US-CT","name":"Connecticut","admin":"United States of America","adm0_a3":"USA","type_en":"State"}},{"type":"MultiPolygon","arcs":[[[-198,199,200]],[[201,202]]],"id":"USA-3539","properties":{"adm1_code":"USA-3539","iso_3166_2":"US-RI","name":"Rhode Island","admin":"United States of America","adm0_a3":"USA","type_en":"State"}},{"type":"MultiPolygon","arcs":[[[-44,-52,-56,203,-203,204,-200,-197]],[[205]],[[206]]],"id":"USA-3513","properties":{"adm1_code":"USA-3513","iso_3166_2":"US-MA","name":"Massachusetts","admin":"United States of America","adm0_a3":"USA","type_en":"State"}},{"type":"Polygon","arcs":[[-2,-12,207,-65,208]],"id":"USA-3525","properties":{"adm1_code":"USA-3525","iso_3166_2":"US-OR","name":"Oregon","admin":"United States of America","adm0_a3":"USA","type_en":"State"}},{"type":"MultiPolygon","arcs":[[[209]],[[210]],[[211]],[[212]],[[213]],[[214]],[[215]],[[216]]],"id":"USA-3517","properties":{"adm1_code":"USA-3517","iso_3166_2":"US-HI","name":"Hawaii","admin":"United States of America","adm0_a3":"USA","type_en":"State"}},{"type":"Polygon","arcs":[[-10,217,218,-61,219]],"id":"USA-3526","properties":{"adm1_code":"USA-3526","iso_3166_2":"US-UT","name":"Utah","admin":"United States of America","adm0_a3":"USA","type_en":"State"}},{"type":"Polygon","arcs":[[-9,-16,220,221,222,-218]],"id":"USA-3527","properties":{"adm1_code":"USA-3527","iso_3166_2":"US-WY","name":"Wyoming","admin":"United States of America","adm0_a3":"USA","type_en":"State"}},{"type":"Polygon","arcs":[[-11,-220,-60,-66,-208]],"id":"USA-3523","properties":{"adm1_code":"USA-3523","iso_3166_2":"US-NV","name":"Nevada","admin":"United States of America","adm0_a3":"USA","type_en":"State"}},{"type":"Polygon","arcs":[[-71,-219,-223,223,224,225]],"id":"USA-3522","properties":{"adm1_code":"USA-3522","iso_3166_2":"US-CO","name":"Colorado","admin":"United States of America","adm0_a3":"USA","type_en":"State"}},{"type":"Polygon","arcs":[[-15,-19,-24,226,227,-221]],"id":"USA-3534","properties":{"adm1_code":"USA-3534","iso_3166_2":"US-SD","name":"South Dakota","admin":"United States of America","adm0_a3":"USA","type_en":"State"}},{"type":"Polygon","arcs":[[-222,-228,228,229,230,-224]],"id":"USA-3532","properties":{"adm1_code":"USA-3532","iso_3166_2":"US-NE","name":"Nebraska","admin":"United States of America","adm0_a3":"USA","type_en":"State"}},{"type":"Polygon","arcs":[[-225,-231,231,232]],"id":"USA-3530","properties":{"adm1_code":"USA-3530","iso_3166_2":"US-KS","name":"Kansas","admin":"United States of America","adm0_a3":"USA","type_en":"State"}},{"type":"Polygon","arcs":[[-72,-226,-233,233,234,-75]],"id":"USA-3533","properties":{"adm1_code":"USA-3533","iso_3166_2":"US-OK","name":"Oklahoma","admin":"United States of America","adm0_a3":"USA","type_en":"State"}},{"type":"Polygon","arcs":[[-23,235,236,237,-229,-227]],"id":"USA-3529","properties":{"adm1_code":"USA-3529","iso_3166_2":"US-IA","name":"Iowa","admin":"United States of America","adm0_a3":"USA","type_en":"State"}},{"type":"Polygon","arcs":[[-230,-238,238,239,240,241,-234,-232]],"id":"USA-3531","properties":{"adm1_code":"USA-3531","iso_3166_2":"US-MO","name":"Missouri","admin":"United States of America","adm0_a3":"USA","type_en":"State"}},{"type":"Polygon","arcs":[[-22,-29,242,-236]],"id":"USA-3553","properties":{"adm1_code":"USA-3553","iso_3166_2":"US-WI","name":"Wisconsin","admin":"United States of America","adm0_a3":"USA","type_en":"State"}},{"type":"Polygon","arcs":[[-28,243,244,-239,-237,-243]],"id":"USA-3546","properties":{"adm1_code":"USA-3546","iso_3166_2":"US-IL","name":"Illinois","admin":"United States of America","adm0_a3":"USA","type_en":"State"}},{"type":"Polygon","arcs":[[-33,245,-181,246,-240,-245,247]],"id":"USA-3548","properties":{"adm1_code":"USA-3548","iso_3166_2":"US-KY","name":"Kentucky","admin":"United States of America","adm0_a3":"USA","type_en":"State"}},{"type":"Polygon","arcs":[[-76,-235,-242,248,-158,-154]],"id":"USA-3528","properties":{"adm1_code":"USA-3528","iso_3166_2":"US-AR","name":"Arkansas","admin":"United States of America","adm0_a3":"USA","type_en":"State"}},{"type":"Polygon","arcs":[[-159,-249,-241,-247,-180,-175,-169,-162]],"id":"USA-3551","properties":{"adm1_code":"USA-3551","iso_3166_2":"US-TN","name":"Tennessee","admin":"United States of America","adm0_a3":"USA","type_en":"State"}},{"type":"Polygon","arcs":[[-32,-41,-194,-182,-246]],"id":"USA-3554","properties":{"adm1_code":"USA-3554","iso_3166_2":"US-WV","name":"West Virginia","admin":"United States of America","adm0_a3":"USA","type_en":"State"}},{"type":"Polygon","arcs":[[-27,-34,-248,-244]],"id":"USA-3547","properties":{"adm1_code":"USA-3547","iso_3166_2":"US-IN","name":"Indiana","admin":"United States of America","adm0_a3":"USA","type_en":"State"}}]}},"arcs":[[[17088,57344],[1,-1209],[-2,-580],[1,-1212],[0,-1557],[0,-459],[27,-197],[10,-145],[-15,-151],[23,-197]],[[17133,51637],[-290,0],[-303,-3],[-26,-98],[-69,-3],[-70,-50],[-20,-94],[-76,-63],[-53,-94],[-29,-101],[-67,-50],[-42,41],[-78,-170],[-40,19],[-26,-53],[-38,160],[-84,41],[-62,-16],[-50,-151],[-80,-144],[-79,103],[-37,10],[-18,69],[-19,603],[-29,248],[-56,150],[-19,-15]],[[15373,51976],[-33,-54],[-51,239],[-34,-31],[-26,87],[-64,-103],[-39,201],[46,163],[-4,543],[-50,32],[-2,125],[15,157],[45,94],[-36,82],[-4,85],[-41,25],[-11,355],[-29,248],[-9,361],[-20,373],[-18,135],[-42,182],[-15,364],[-12,135],[20,286],[24,97],[49,-147],[48,-66],[49,-157],[98,-22],[33,-57],[94,-37],[38,63],[31,-110],[57,94],[1,-110],[32,-283],[3,-122],[-19,-144],[-29,-25],[-31,-352],[52,135],[9,141],[40,308],[17,3],[17,-283],[-45,-122],[10,-182],[24,-148],[-22,-351],[-28,-66],[-31,-185],[-14,213],[-21,-72],[-13,-185],[19,-98],[29,54],[21,-132],[42,229],[9,132],[25,-19],[35,198],[-12,135],[-13,380],[2,260],[24,311],[31,138],[-43,207],[-8,358],[-40,123],[11,295],[16,97],[-26,361],[-33,-9],[-34,232],[5,204],[335,0],[246,0],[306,0],[369,0],[340,0]],[[15602,55404],[-48,-16],[-24,204],[5,107],[-40,144],[-2,82],[23,217],[20,-104],[-19,-157],[19,-41],[14,-358],[24,70],[28,-148]],[[15417,56402],[-27,-28],[-16,217],[13,40],[43,-169],[-13,-60]],[[15494,56716],[-33,-119],[-45,66],[27,138],[51,-85]],[[17088,57344],[277,0]],[[17365,57344],[0,-1887],[54,-304],[8,-119],[30,-157],[12,-183],[-16,-81],[25,-145],[-21,-94],[37,-91],[21,-144],[47,-85],[19,-148],[100,-521],[3,-144],[79,-232],[16,-145],[58,63],[10,-85],[-5,-194],[-32,-500],[6,-147],[-14,-261],[20,-128],[7,-176],[-45,-214],[15,-150],[-14,-245],[26,-35],[34,-144],[60,166],[44,232],[47,-207],[9,-329],[13,-201],[55,-346],[23,-235],[-14,-129],[19,-163],[25,-107],[39,25],[38,-292],[-5,-72],[19,-147],[1,-135],[19,-88],[27,12],[42,151],[89,-66],[11,132],[24,56],[43,-59],[59,47],[19,-66],[34,72],[50,-34],[14,332],[40,19],[27,-263],[45,-186]],[[18761,48767],[0,-1190],[0,-894],[0,-1190],[0,-1488]],[[18761,44005],[-365,0],[-314,0],[-157,0]],[[17925,44005],[-260,0],[-207,0],[-364,-3]],[[17094,44002],[0,1773],[-1,1633],[24,465],[-9,106],[19,195],[-24,163],[-58,50],[-3,352],[25,173],[29,339],[26,100],[24,223],[3,220],[29,223],[19,373],[52,446],[0,116],[-19,208],[-64,166],[-22,135],[-11,176]],[[17365,57344],[242,0],[312,0],[303,0],[184,0],[245,0],[245,0],[159,0],[271,0],[246,0],[246,0],[184,0],[307,0],[246,0],[162,0]],[[20717,57344],[0,-1956],[0,-1591],[0,-955],[1,-1318]],[[20718,51524],[1,-1796],[-5,0]],[[20714,49728],[-207,0],[-274,0],[-151,0],[-244,0],[-182,0],[-243,0],[-335,0],[-317,0],[0,-961]],[[20717,57344],[329,0],[245,0],[176,0],[192,0],[246,0],[308,0],[184,0],[225,0]],[[22622,57344],[0,-47],[35,-606],[-15,-223],[9,-201],[-2,-493],[39,-678],[27,-260],[12,-361],[0,-440],[6,-490],[12,-248],[-2,-439],[11,-85],[13,-311],[30,-210],[12,-421],[0,-307]],[[22809,51524],[-260,0],[-195,0],[-260,0],[-195,0],[-261,0],[-130,0],[-260,0],[-130,0],[-260,0],[-140,0]],[[22622,57344],[389,0],[184,0],[4,35],[0,684],[50,-25],[43,-123],[5,-241],[28,-481],[0,-204],[33,-153],[31,-51],[47,25],[23,-116],[99,-31],[34,-229],[74,50],[10,107],[55,62],[77,-25],[27,-72],[66,-85],[-16,-172],[50,0],[39,-405],[27,31],[-3,116],[41,76],[31,-29],[24,-204],[54,-78],[20,-170],[33,-94],[41,-22],[42,53],[58,201],[41,110],[23,-15],[15,-226],[71,-32],[99,60],[29,-28],[26,-173],[22,-47],[28,53],[85,-34]],[[24781,55442],[-128,-1353]],[[24653,54089],[-195,40],[-227,-731],[-139,-374],[-41,76],[-27,-179],[-23,-29],[0,-1098],[-20,-107],[-96,-220],[-25,-260],[-24,-113],[-1,-267],[37,-35],[23,-216],[-23,-277],[-14,-424],[13,-291],[-18,-321],[66,-285],[53,-54],[34,-216],[47,-57],[43,-191],[32,-295],[49,-208],[34,-12],[32,-82],[36,-198],[13,-285],[0,-512]],[[24292,46868],[-182,0],[-273,0],[-272,-3],[-273,0],[-272,0],[-182,0]],[[22838,46865],[0,1676],[0,1752],[-32,185],[-34,29],[-48,367],[4,78],[59,233],[22,339]],[[24781,55442],[44,-22],[195,518],[66,91],[17,-10],[261,-703],[216,-584],[316,-879],[175,-505],[30,-506],[51,-301],[27,-35],[20,104],[32,-19],[31,85],[24,-38],[-13,-176],[14,-163],[5,-279],[39,-270],[31,113],[63,-7],[41,-235],[-48,-418],[43,-3],[79,-251],[171,-512],[16,-150],[27,-804],[40,-1202],[41,-1203],[-3,-119],[-71,-951],[-1,-129],[-20,-314],[-7,-326],[-18,-145],[-20,-25],[-43,-267],[-67,-166],[-24,-173],[-9,-370],[8,-207]],[[26560,43886],[-79,-387],[-249,-53],[-141,-22]],[[26091,43424],[0,119],[-300,0],[-370,3]],[[25421,43546],[39,1112],[14,292]],[[25474,44950],[-32,1413],[-5,273],[10,734],[32,769],[41,754],[39,540],[33,276],[41,236],[55,232],[-143,395],[-92,0],[-30,-229],[-57,-226],[-9,-238],[-61,78],[-20,119],[0,117],[20,222],[-64,32],[20,204],[3,386],[-30,141],[-46,51],[-12,260],[-20,69],[-42,32],[-55,94],[-30,-35],[-55,54],[-78,213],[-279,367],[-31,321],[-46,75],[-6,69],[128,1341]],[[26560,43886],[17,-173],[100,-320],[80,-7],[120,380],[200,634],[212,220]],[[27289,44620],[0,-1199],[0,-998],[0,-1002]],[[27289,41421],[-44,-110],[21,-223],[-7,-119],[8,-163],[-16,-129],[-23,-374],[-6,-248],[-23,-266],[-9,-308],[-51,-188],[-20,-148],[-28,-104],[-45,-69],[-25,73],[-25,-214],[-32,-34],[-18,-148],[-10,-496],[-18,-38],[-44,208],[-15,-35],[-42,-414],[5,-365],[-20,4],[-19,-292],[-50,-66],[-22,19]],[[26711,37174],[-31,222],[-35,98],[-17,301],[-41,-56],[-28,-167],[-48,-50],[-18,110],[-46,91],[-32,-135],[-18,3],[-42,236],[-30,53],[-31,-22],[-31,63],[-36,417],[-34,138],[-54,-47],[-24,126],[-28,-88]],[[26087,38467],[2,1708],[2,929],[3,1554],[-3,766]],[[27289,44620],[76,82],[135,326]],[[27500,45028],[0,-1023],[239,-3],[227,0],[266,0],[153,0],[351,-3],[73,-324],[6,-100],[-2,-305],[18,-194],[31,-126],[39,-25],[14,-148]],[[28915,42777],[-41,-160],[-12,-176],[-39,-254],[-31,-125],[22,-173],[-13,-182],[-23,-72],[2,-358],[26,-22],[7,-201],[91,-512],[-28,-135],[-52,-188]],[[28824,40219],[-27,-79],[-7,-138],[-68,-119],[-10,-63]],[[28712,39820],[-49,60],[-36,-107],[-16,-116]],[[28611,39657],[-160,0],[-226,0],[-193,0],[-161,0],[-291,0]],[[27580,39657],[-291,0],[0,1764]],[[27500,45028],[208,506],[28,166],[1,113],[-32,123],[-9,160],[3,314],[-34,389],[136,317],[322,-6],[193,-7],[13,38],[95,838],[39,192],[31,63],[7,116],[32,132],[55,116],[47,329],[120,540],[40,117],[72,163],[44,-22],[200,3],[181,6]],[[29292,49734],[-8,-304],[11,-82],[-11,-286],[3,-147],[20,-201],[-10,-201],[0,-245],[-12,-47],[-18,-301],[8,-88],[12,-493],[-15,-192],[33,-47],[16,-135],[-5,-1538]],[[29316,45427],[-68,-1271],[7,-48]],[[29255,44108],[-18,-1450],[18,-148],[-68,-216],[23,-195]],[[29210,42099],[-34,-176],[-16,-135],[-29,-66],[5,355]],[[29136,42077],[-221,700]],[[29075,41396],[20,-57],[-38,-175],[0,223],[18,9]],[[29692,42219],[-4,-51],[-133,-336],[-55,-116],[-34,13],[-61,-126],[-81,-50],[-38,-100],[-53,-48],[-41,-103],[-35,125],[-44,-153],[-13,135],[36,285],[40,41],[13,107],[55,97],[10,53],[72,-72],[32,126],[92,-16],[50,47],[7,-110],[34,-40],[25,160],[27,15],[32,98],[13,-101],[54,120]],[[29292,49734],[292,13],[223,6]],[[29807,49753],[-3,-226],[-33,-295],[24,-276],[-37,-286],[-44,-170],[-40,-34],[-17,-110],[-2,-264],[-36,-493],[-10,-191],[-26,-123],[-5,-166],[-20,-195],[-2,-439],[-8,-72],[-14,-521],[-21,-214],[25,-282]],[[29538,45396],[-222,31]],[[29807,49753],[31,433],[29,98],[42,-76],[16,101]],[[29925,50309],[9,-920],[14,-1328],[12,-1077],[-4,-342],[43,-273],[-2,-151],[22,-147]],[[30019,46071],[5,-139],[-24,-254]],[[30000,45678],[-31,16],[-106,-352],[-325,54]],[[29925,50309],[36,50],[33,-41],[1,157],[30,151],[10,194],[28,151],[51,151],[-3,119],[43,245],[-15,148],[2,138],[18,132],[-10,135],[26,279],[32,116],[18,543],[207,1404],[13,37],[46,-78],[-2,-242],[7,-82],[37,-113],[40,91],[33,16],[30,104],[43,3],[23,125],[29,-50],[66,-273],[43,-308],[5,-1541],[5,-763],[-8,-245],[39,-119],[59,-50],[7,-148],[-19,-78],[17,-201],[-12,-201],[33,-223],[32,72],[18,-47],[32,-471],[23,-220],[-68,-329],[-29,25],[-21,-98],[-38,79],[-10,-179],[-31,-9],[-34,53],[-26,-295],[-33,-85],[-22,16],[-4,182],[-45,9],[-81,-163],[10,-201],[-30,3],[-34,72],[-20,277],[-45,-110],[12,-138],[-15,-104],[-25,-301],[-9,-182],[-20,-170],[-20,-44],[-29,176],[-18,-53],[-13,-217],[-25,119],[-23,-84],[-38,-308],[-20,34],[-36,208],[-34,-107],[-36,-204],[9,-267],[-42,-63],[-7,-254],[-38,-104],[-14,-213],[-26,-254],[-24,-22]],[[30718,48629],[19,-185],[-66,-132],[-6,79],[22,235],[31,3]],[[17734,26289],[12,66],[41,-19],[4,132],[18,132],[-4,207],[-18,94],[-25,13],[-20,91],[7,223],[-13,191],[0,211],[26,41],[25,235],[10,367],[-6,358],[30,204],[9,145],[39,132],[32,166],[1,91],[-67,264],[-1,122],[-35,427],[-13,25],[-21,214],[-4,235]],[[17761,30656],[-1,258],[17,100],[-5,311],[-22,311],[7,216],[-12,170],[6,295],[-20,213],[5,204],[46,129],[34,-63],[24,25],[32,-219],[31,41],[22,329],[1,1495]],[[17926,34471],[174,0],[261,0],[132,0],[217,-4],[131,0],[261,0],[219,-3]],[[19321,34464],[0,-1350],[0,-1014],[0,-1014],[0,-1350],[0,-1014],[0,-1014],[0,-1014],[0,-1011],[0,-2037]],[[19321,23646],[-257,0],[-291,0],[-17,9],[-123,270],[-228,484],[-228,483],[-230,484],[-239,505],[5,182],[21,226]],[[17734,26289],[-298,-157],[-206,-103],[-166,-88],[-11,263],[-26,63],[-8,258],[9,91],[-19,427],[-52,433],[-75,370],[-56,201],[-31,182],[-47,66],[-13,-106],[-30,62],[6,179],[-16,217],[-27,169],[-67,-31],[-43,41],[-79,195],[-14,210],[-51,213],[-46,101],[-32,-44],[-41,19],[-37,103],[-35,22],[-94,-44],[-11,135],[-38,126],[12,226],[-10,104],[7,188],[-16,94],[11,245],[-3,198],[-41,75],[-30,135],[8,298],[-11,82],[-27,22],[-46,336],[-27,53],[-19,232],[-36,192],[-7,182],[-22,72],[-17,179],[-28,160],[-29,98],[-18,125],[-14,339],[3,280],[18,-60],[16,144],[7,236],[-20,229],[-21,97],[-35,-56],[-26,56],[-70,415],[1,314],[-17,260],[-16,66],[7,258],[-5,219],[26,57],[17,-414],[28,-41],[21,-123],[11,135],[-5,164],[-24,160],[-41,423],[47,170],[22,-66],[49,97],[-23,110],[-18,-138],[-42,25],[-35,151],[-26,-91],[-5,-345],[19,-79],[-25,-125],[-41,169],[-15,-6],[-26,182],[-28,69],[-26,-63],[18,273],[-7,233],[-43,348],[-34,116],[-51,336],[-60,311],[-21,213],[10,129],[-39,609],[3,185],[13,192],[-8,279],[-16,270],[-73,525],[-69,291],[5,110],[-18,239],[38,490],[17,3],[29,596],[-15,239],[11,82],[17,483],[-11,317],[-16,258],[-29,75],[12,141],[2,283]],[[15084,44002],[227,0],[219,0],[219,0],[292,0],[220,0]],[[16261,44002],[0,-1049],[0,-1397],[0,-697],[0,-1400],[0,-1180],[197,-936],[130,-622],[197,-935],[204,-1052],[205,-1051],[135,-723],[179,-963],[96,-512],[157,-829]],[[16719,26506],[-18,-47],[-21,91],[5,135],[34,-179]],[[16676,27642],[40,-28],[17,-138],[-43,-22],[-14,188]],[[16249,28813],[12,-182],[-31,-91],[-18,54],[-12,169],[49,50]],[[16392,28791],[-8,-59],[-45,-66],[-37,15],[-1,195],[62,-107],[29,22]],[[19321,34464],[316,0],[211,0],[158,0],[211,0],[212,0],[158,0],[264,0],[158,0]],[[21009,34464],[1,-951]],[[21010,33513],[-12,-3],[0,-622],[-2,-1591],[-1,-1062],[-1,-1591],[-2,-1856],[-1,-1858],[-248,0],[-248,0],[-310,0],[-198,0],[19,-333],[24,-107]],[[20030,24490],[-217,10],[-260,3],[0,-857],[-211,0],[-21,0]],[[21010,33513],[333,0],[295,0],[209,0],[0,-1830],[1,-1843],[33,-19],[55,-326],[38,34],[41,-50],[3,125],[34,-75],[21,-173],[0,-169],[46,-53],[21,12],[21,-78],[44,-63],[41,28],[23,-147],[21,9],[21,122],[70,-9],[1,-210],[39,-98],[-3,-160],[21,-59],[23,47],[33,185],[22,-10],[9,-153],[28,-13],[5,-107],[23,-9],[45,151],[9,-79],[-6,-157],[29,-85],[5,126],[45,282],[17,-153],[46,-41],[11,119],[19,-147],[24,-101],[24,0],[23,-163],[11,119],[24,0],[13,110],[33,41],[28,100],[22,-78],[24,16],[49,172],[17,-119],[50,-41],[25,69],[14,110],[48,-166],[18,-25],[31,-205],[32,-40],[63,-160],[14,-7]],[[23389,28069],[26,-163],[24,63],[56,-25],[15,-51],[2,-1036]],[[23512,26857],[-1,-1933],[39,-220],[26,-323],[-4,-239],[48,-414],[-7,-76],[46,-552],[-17,-63],[11,-123],[-11,-238],[-31,-418],[-12,-66],[6,-213],[-12,-116],[10,-201],[-1,-396],[-22,-182]],[[23580,21084],[-16,3],[-20,-232],[-2,-170],[16,-191],[-51,12],[-166,-439],[14,191],[-43,-53],[18,330],[-15,163],[-22,-28],[-14,-195],[-39,104],[-2,-339],[38,-317],[-50,-327],[-26,-100],[0,-204],[-62,-314],[-62,-223],[-25,-54],[-35,-6],[-108,-279],[-16,194],[-24,-100],[-59,34],[-7,-141],[17,-56],[33,-220],[-69,-220],[-35,226],[-19,-44],[18,-160],[-1,-169],[-27,-176],[-77,-32],[-18,-113],[25,-110],[7,104],[23,-56],[-45,-390],[-23,82],[-71,-13],[10,-72],[28,-9],[8,-170],[26,-119],[-44,-672],[-31,47],[-28,-97],[1,-107],[30,-25],[23,78],[-2,-266],[-14,-51],[4,-160],[-19,-25],[-1,-351],[18,-95],[18,-458],[-6,-220],[26,-125],[-2,-132],[14,-160],[0,-151],[17,-97],[3,-167],[28,-34],[-32,-7],[-49,-207],[-71,346],[-34,53],[-39,-13],[-78,35],[-22,69],[-19,157],[-59,132],[-17,-41],[-27,119],[-16,123],[-27,0],[-20,59],[-34,16],[-9,226],[-13,28],[-23,547],[-60,439],[8,286],[-18,251],[7,166],[-10,283],[-26,138],[-31,44],[-26,195],[-16,62],[-5,186],[-34,226],[-20,257],[-35,101],[-24,169],[-32,565],[-26,220],[-8,185],[-29,229],[-12,365],[-26,109],[-15,186],[-56,226],[-6,135],[-36,78],[-17,101],[2,106],[-40,129],[-13,170],[-40,59],[-22,-41],[-95,82],[-38,-31],[-55,166],[-19,-78],[-10,-135],[-30,12],[-47,-78],[-27,-289],[-29,-474],[-4,-236],[-25,-81],[-33,-226],[-11,-142],[-46,79],[-18,-3],[-29,110],[-18,128],[-37,47],[-29,117],[-4,81],[-38,32],[-36,84],[-59,358],[-22,22],[-27,98],[-24,150],[-11,229],[-31,296],[-5,169],[5,308],[-19,138],[-29,333],[-9,213],[-34,239],[-22,62],[-40,192],[-38,78],[-53,289],[-10,132],[-50,207],[-26,208],[-40,207],[-45,97],[-34,251],[-19,264],[-42,100]],[[22664,16943],[-28,-307],[-40,-565],[-14,-16],[39,577],[43,311]],[[22719,17546],[8,-113],[-24,-166],[-10,50],[26,229]],[[22846,18048],[2,-122],[-29,-75],[-72,-311],[-8,116],[28,47],[79,345]],[[10937,78340],[103,-216],[26,-251],[276,-983],[52,-634],[39,154],[124,307],[63,10],[42,254],[-1,333],[54,47],[5,257],[93,88],[123,239],[62,-179],[68,-295],[-22,-239],[46,-282],[63,-60],[42,-223],[45,-135],[-1,-147],[49,-252],[99,-204],[68,-361],[46,-160],[24,-326],[58,-277],[26,-263],[44,-245],[102,-729],[53,-291],[36,-283],[-30,-223],[86,-100],[-21,-324],[66,-122],[-4,-88],[24,-305],[60,13],[135,-358],[73,-66],[54,-210],[42,-57],[26,-210],[92,-72],[16,-157],[-1,-179],[-43,-305],[13,-182],[-6,-204],[45,-499],[-25,-97],[-42,-361],[-39,-261],[-60,-195],[-54,51],[-44,-16],[0,223],[-21,122],[16,132],[-32,132],[3,107],[51,273],[2,395],[-7,318],[-48,307],[-29,119],[-7,142],[-42,-101],[-20,94],[-90,-235],[-44,-60],[36,-113],[-18,-245],[-30,-135],[-7,-185],[-59,170],[-25,285],[49,205],[40,307],[-5,286],[41,75],[-41,189],[-3,116],[-53,47],[-12,172],[-40,126],[12,198],[-48,-69],[-1,263],[-54,114],[-52,222],[26,98],[-92,223],[-7,110],[-40,-60],[-80,129],[18,185],[26,110],[-30,267],[1,106],[-46,173],[24,179],[102,-242],[8,66],[-97,242],[-7,342],[-37,-264],[-49,317],[-55,220],[-2,393],[24,72],[-7,176],[-66,-371],[-72,267],[-75,88],[-17,210],[-41,283],[15,37],[-7,233],[-29,-91],[-26,157],[4,116],[-28,439],[-36,-22],[-8,-304],[44,-349],[17,-241],[-16,-63],[35,-320],[13,-258],[-25,-176],[-47,66],[-29,273],[-26,-28],[-33,88],[-73,-91],[-4,188],[17,98],[-61,568],[-28,-110],[-30,-9],[-58,138],[-10,204],[-34,-97],[-78,119],[4,-119],[116,-176],[99,-437],[-1,-97],[29,-251],[-14,-82],[-81,-88],[-35,29],[-29,-176],[-64,185],[-6,100],[-37,66],[-43,-9],[-108,311],[-9,107],[-106,348],[-14,223],[-56,201],[-131,264],[-92,210],[-63,88],[-182,430],[56,56],[51,274],[-24,103],[-17,223],[41,198],[48,-245],[23,12],[-80,333],[-22,-172],[-33,-63],[-41,-198],[-132,-223],[-82,13],[-68,72],[-116,195],[-38,97],[38,85],[4,128],[-35,44],[-64,-125],[-32,-10],[-66,123],[-232,160],[-111,-85],[-116,-34],[-87,-101],[-36,160],[-83,229],[-63,-18],[-59,219],[-44,0],[8,145],[34,160],[-11,116],[-53,0],[-26,-185],[-34,-116],[-43,-13],[-51,170],[-103,9],[72,292],[-3,91],[-148,188],[-72,-128],[-23,119],[84,116],[-35,69],[-35,-53],[-48,116],[-19,141],[55,251],[76,-9],[-12,107],[-72,0],[-65,-201],[-45,-63],[-34,31],[-74,-235],[-66,132],[1,-145],[-54,60],[-41,-16],[-31,79],[8,166],[-42,-25],[-38,-245],[-78,-122],[2,-182],[41,84],[10,-235],[37,198],[16,-267],[-30,-135],[10,-104],[55,211],[35,-204],[4,-107],[-41,-88],[-52,-223],[38,-91],[-8,-157],[-31,-44],[-35,-257],[-44,-66],[-102,28],[-116,97],[-66,-238],[-45,-13],[-19,-329],[-30,0],[-55,-264],[-24,-22],[-36,-176],[-64,113],[-27,-213],[-74,-186],[7,-132],[-56,54],[-5,-126],[-51,10],[-29,62],[-48,-156],[-49,-16],[-65,213],[23,255],[68,141],[58,12],[48,129],[24,182],[54,236],[-33,12],[-101,-285],[-77,87],[-38,198],[49,487],[68,279],[17,123],[4,207],[23,50],[7,286],[-38,345],[46,110],[51,19],[86,270],[87,207],[32,-3],[31,-182],[51,-41],[61,119],[57,-78],[138,-104],[-27,129],[-31,-41],[-79,123],[-126,307],[48,148],[28,204],[39,132],[94,135],[-30,66],[-92,-117],[-43,-191],[-20,-204],[-131,12],[-51,88],[-27,-84],[-61,-82],[-31,-91],[-26,-188],[-58,-101],[-57,-34],[-51,-148],[-26,-314],[-59,-151],[-80,-376],[5,-104],[-26,-235],[-79,-245],[29,-148],[-7,-138],[-33,-213],[-80,-35],[-36,-132],[42,-38],[-16,-172],[-73,-135],[-43,44],[-28,-38],[-3,-144],[-58,-47],[18,-145],[-97,-163],[13,-75],[-32,-113],[-16,-393],[136,-12],[25,-113],[35,-13],[47,-135],[-3,-151],[-27,-229],[-71,-213],[-58,-10],[-19,-241],[-32,9],[23,-210],[-84,-123],[37,-198],[-32,-160],[-45,22],[-39,-229],[-31,85],[-27,-126],[-65,41],[-12,-245],[-75,-135],[6,-163],[-23,-28],[-58,128],[-3,-241],[-56,-179],[-66,-104],[-81,-194],[-14,-192],[12,-264],[-39,-122],[-24,-248],[-54,53],[-79,-254],[-39,-195],[-64,176],[4,-179],[-47,-110],[25,-182],[-51,-19],[-24,120],[-45,-38],[15,-170],[-5,-166],[-54,66],[-27,-104],[-53,25],[-78,-329],[81,50],[38,-78],[-39,-104],[9,-104],[-35,-81],[-12,-192],[-32,16],[-73,-53],[-18,-176],[-48,15],[-72,-94],[-33,-91],[-26,-241],[-31,91],[14,116],[-57,75],[-7,-119],[-33,-25],[-53,-230],[-76,-153],[-11,-157],[-86,-88],[-40,135],[-27,-173],[-71,-138],[-26,56],[-41,-3],[10,186],[26,175],[-14,126],[-51,-50],[-25,-164],[-2,-254],[-49,-289],[-35,-3],[-4,-125],[21,-95],[-89,-200],[-41,31],[2,116],[-47,389],[-23,-18],[-15,-142],[29,-97],[-8,-320],[-39,-120],[-26,7],[-46,304],[-40,76],[-9,-176],[42,-138],[2,-85],[-73,-220],[-19,85],[30,163],[-15,336],[79,179],[25,-85],[36,113],[50,255],[46,34],[-17,151],[91,455],[112,348],[103,142],[92,12],[86,-424],[36,236],[50,16],[10,-126],[44,116],[-57,132],[-13,138],[29,201],[27,314],[50,210],[48,110],[76,258],[81,94],[37,85],[41,172],[64,151],[46,-126],[28,19],[0,449],[21,151],[82,408],[65,154],[39,191],[65,138],[0,308],[20,342],[9,374],[21,286],[-11,125],[19,273],[65,299],[58,200],[-7,308],[-109,-166],[-26,-101],[-163,-254],[-46,63],[-25,235],[-45,94],[22,195],[-25,72],[-61,-273],[-26,-210],[34,-358],[16,-50],[-33,-167],[-62,38],[-93,631],[-47,176],[-10,113],[-39,6],[-51,-257],[-38,204],[-59,56],[0,151],[-27,151],[-87,-233],[-46,-182],[-17,60],[-130,-302],[-2,-125],[-55,-110],[-98,57],[13,160],[41,75],[-23,436],[52,186],[-30,65],[-71,29],[-15,188],[17,97],[6,204],[65,217],[-41,242],[-6,132],[-55,345],[-8,166],[-37,239],[-37,163],[8,82],[-32,144],[-5,-420],[-14,-145],[-63,13],[-15,-120],[-79,-157],[-147,-113],[-73,-3],[-62,66],[-32,233],[3,150],[-59,110],[-20,176],[-75,198],[-66,103],[-37,208],[27,34],[4,163],[-59,-106],[-41,25],[15,132],[89,248],[-10,144],[52,163],[50,94],[0,-182],[56,-9],[55,-63],[14,-188],[74,172],[41,-84],[-7,-182],[11,-107],[42,34],[50,142],[11,169],[-33,85],[-89,85],[27,69],[17,210],[-84,-264],[-100,19],[-56,-34],[-18,150],[-52,-47],[-11,82],[-77,-53],[-19,106],[39,160],[-43,167],[-37,12],[-8,-163],[-39,31],[-30,107],[-1,261],[-57,63],[-26,163],[39,113],[1,110],[-41,88],[-60,-88],[-17,150],[81,211],[-54,223],[90,12],[48,44],[-37,217],[10,289],[31,119],[90,493],[39,150],[74,41],[15,157],[-19,226],[0,198],[45,327],[78,34],[-39,207],[61,170],[61,63],[105,-69],[47,-230],[45,-18],[25,-123],[72,50],[59,160],[21,148],[58,110],[101,515],[43,-60],[-1,-119],[119,31],[24,-25],[109,94],[110,462],[6,147],[-44,427],[-13,386],[-64,217],[-7,91],[-72,85],[8,122],[118,-25],[64,261],[5,141],[-27,176],[-84,248],[-66,-317],[-83,41],[-101,-142],[-53,-194],[-68,-117],[-27,-97],[-10,-216],[-38,-98],[-26,223],[13,79],[-116,282],[-41,-100],[94,-164],[-23,-188],[-40,141],[-72,151],[-78,47],[-43,-38],[-104,38],[-86,-166],[-12,53],[-95,-157],[-116,123],[-207,138],[-51,100],[-31,176],[25,179],[1,144],[-83,157],[-18,154],[79,242],[-5,88],[66,44],[-17,103],[-176,138],[-128,32],[-91,198],[-100,166],[73,245],[67,0],[5,169],[61,170],[37,-66],[43,28],[51,132],[43,217],[121,226],[55,-104],[94,-38],[72,88],[-110,170],[35,160],[128,214],[100,47],[65,182],[124,88],[80,18],[50,-81],[14,-123],[-38,-201],[11,-210],[-10,-232],[59,-170],[91,35],[65,-50],[99,62],[31,-125],[75,-3],[58,75],[74,-63],[64,182],[32,229],[59,32],[11,-82],[57,-47],[33,63],[-38,195],[-105,125],[-66,-6],[-56,-72],[22,216],[-18,145],[-93,317],[-49,15],[-55,324],[87,113],[57,-292],[30,-66],[-18,-201],[58,-257],[74,-148],[75,66],[21,78],[57,-84],[76,-214],[48,-3],[102,57],[8,248],[-29,138],[-63,-25],[-92,157],[-71,-41],[-51,-223],[-68,60],[-86,266],[-4,208],[42,263],[40,76],[-69,119],[-168,-123],[-82,110],[-58,-37],[-209,141],[-22,72],[-12,371],[-43,314],[-53,229],[-82,172],[-69,220],[-45,47],[-163,402],[-137,144],[-49,198],[-124,226],[49,157],[36,236],[13,411],[-11,182],[118,9],[41,-34],[174,38],[71,62],[124,29],[106,141],[96,220],[94,367],[36,91],[37,509],[-7,116],[28,198],[115,317],[21,197],[73,198],[52,217],[43,25],[64,-66],[81,6],[134,167],[180,442],[76,35],[7,-97],[-38,-327],[47,47],[25,192],[-41,260],[77,324],[90,109],[-3,-197],[180,59],[188,88],[135,220],[91,226],[116,449],[59,91],[50,-170],[53,10],[66,-145],[105,-18],[8,-220],[-66,-163],[-71,-107],[47,-195],[105,79],[6,163],[90,170],[-25,84],[50,123],[94,-126],[49,-160],[-32,-179],[48,-154],[64,10],[50,-76],[66,204],[107,-22],[59,82],[136,-82],[75,4],[91,-132],[-82,-248],[16,-255],[194,22],[-8,-122],[-53,-104],[147,-19],[59,-113],[18,132],[88,41],[20,63],[78,3],[110,-116],[64,132],[152,-7],[153,-182],[32,13],[84,-207],[35,81],[128,-122],[-2,-104],[191,-132],[77,51],[172,-16],[42,-56],[56,37],[78,-179],[184,-198],[98,10],[57,116],[322,141],[99,-84],[78,-117],[92,-298],[46,-12],[126,-167],[68,-213],[53,44],[61,-44],[0,-1947],[0,-1667],[0,-1111],[0,-1115],[0,-1946],[0,-1946],[0,-1112],[0,-1114],[0,-1388],[0,-1949],[0,-1667],[0,-835],[7,-48],[125,-147],[30,141],[114,-201],[27,38],[53,195],[28,47],[147,25],[8,-91],[-30,-380],[34,-192]],[[13120,68677],[-24,-138],[-31,113],[31,76],[24,-51]],[[12678,68906],[-11,201],[40,-50],[15,-157],[-23,-107],[-21,113]],[[12713,68232],[-39,-13],[-4,97],[-51,251],[-8,135],[-42,289],[61,-66],[16,-223],[61,-326],[6,-144]],[[13054,68815],[-40,22],[26,255],[-15,128],[15,107],[38,-113],[14,-301],[-38,-98]],[[12548,69305],[-4,-116],[-39,50],[4,164],[32,47],[7,-145]],[[12959,69591],[52,-217],[-31,-298],[-20,104],[-10,197],[9,214]],[[12504,69578],[-52,-292],[-5,226],[21,104],[36,-38]],[[12533,69657],[-25,154],[31,53],[14,-107],[-20,-100]],[[12544,70322],[-51,-172],[-37,44],[-17,116],[50,63],[55,-51]],[[6302,70495],[27,-166],[-45,-47],[-7,106],[25,107]],[[13199,69917],[-16,-439],[-13,-176],[-35,-144],[-89,238],[-42,60],[-42,257],[45,138],[-16,154],[-1,207],[22,54],[-11,138],[26,129],[83,110],[29,-79],[37,-254],[30,-264],[-7,-129]],[[12460,70859],[60,157],[23,-110],[3,-172],[-48,9],[-45,-188],[-45,47],[52,257]],[[12756,71292],[45,51],[8,-217],[46,-78],[28,-135],[-21,-104],[13,-204],[-50,-57],[-36,104],[-6,182],[-54,-12],[-17,113],[7,213],[37,144]],[[12915,68483],[-7,-264],[-41,9],[-41,88],[9,189],[-44,166],[-44,44],[20,301],[-28,13],[-98,301],[-71,7],[-12,103],[22,101],[44,-69],[-7,166],[-22,122],[17,233],[-53,-76],[-29,60],[-8,179],[66,207],[-24,157],[-14,509],[-39,3],[-53,85],[8,266],[82,-75],[31,38],[35,-189],[-2,-348],[41,28],[51,-135],[76,-417],[0,-208],[32,-47],[17,-204],[-32,-37],[87,-459],[27,-15],[5,-176],[-6,-270],[5,-386]],[[12738,71474],[-10,-226],[-61,-72],[-51,226],[35,170],[62,19],[25,-117]],[[12908,71358],[21,-276],[-40,-144],[-78,301],[3,392],[28,-72],[33,-194],[33,-7]],[[6645,71842],[-18,-145],[-34,-66],[-35,-160],[-16,60],[27,192],[45,128],[31,-9]],[[6740,71763],[-35,-91],[-36,113],[31,85],[40,-3],[0,-104]],[[12641,72212],[40,19],[79,-377],[-12,-75],[-60,-119],[-41,37],[-4,142],[17,72],[-19,301]],[[12382,71644],[12,-104],[-31,-144],[-7,-144],[23,-123],[-14,-242],[-25,57],[-48,-113],[3,166],[-18,182],[13,88],[-19,135],[48,60],[13,160],[-50,163],[5,85],[-37,132],[-14,317],[65,151],[46,-73],[22,-138],[37,-66],[26,-329],[-42,-32],[-8,-188]],[[12375,72774],[92,-59],[55,-104],[77,3],[36,-119],[13,-132],[-16,-110],[16,-320],[-60,-342],[-55,28],[-51,-72],[-37,50],[4,245],[-14,125],[0,330],[-35,44],[-5,122],[-50,189],[30,122]],[[7069,72931],[-86,-176],[-31,-94],[-24,107],[42,242],[30,-79],[69,0]],[[11903,72944],[15,-57],[-22,-251],[-60,-38],[22,239],[-22,248],[5,166],[58,-91],[4,-216]],[[12176,72131],[3,-355],[-10,-418],[7,-150],[-35,-82],[-37,214],[-48,395],[-28,399],[-60,157],[21,122],[-16,148],[11,147],[-28,211],[22,175],[-55,-25],[-40,217],[82,389],[108,-298],[6,-163],[45,-251],[24,-352],[10,-279],[18,-201]],[[6959,74206],[-67,198],[17,78],[56,-141],[-6,-135]],[[7278,73813],[-42,-223],[-6,-122],[-73,9],[-1,-147],[-27,-173],[-75,-50],[-38,-72],[-44,34],[-56,-229],[-20,19],[-24,-195],[15,-72],[-43,-138],[1,-104],[-36,-28],[-35,-185],[-47,72],[71,364],[-62,-22],[5,195],[-11,154],[-67,0],[-37,-66],[30,-116],[31,125],[43,10],[-11,-295],[-21,-132],[-42,122],[-40,54],[-2,348],[-18,163],[-59,167],[55,342],[105,279],[51,-34],[34,-229],[12,-242],[22,9],[1,201],[15,85],[-16,185],[-31,135],[0,154],[56,173],[41,-120],[5,-191],[59,141],[44,-12],[-3,266],[95,-22],[12,-141],[26,-53],[24,157],[42,-7],[44,-163],[-36,-110],[-2,-210],[86,-60]],[[11683,74457],[-40,-28],[-8,128],[24,154],[32,-125],[-8,-129]],[[6926,74652],[35,153],[53,-100],[21,-201],[-63,122],[-46,26]],[[11834,73371],[-28,128],[1,104],[-55,245],[15,85],[-52,163],[-34,210],[28,239],[-31,132],[0,103],[51,32],[34,138],[34,-104],[47,204],[50,-84],[69,-170],[129,-217],[-5,-423],[-20,-38],[-100,38],[12,-145],[37,-41],[79,88],[28,-493],[-26,-75],[-42,19],[-159,455],[22,-458],[-45,-189],[-39,54]],[[12184,74978],[-24,138],[56,44],[62,-260],[-94,78]],[[12252,72796],[-41,-122],[-35,157],[0,226],[45,314],[-53,389],[-18,279],[-1,289],[-22,264],[1,147],[-33,186],[-15,295],[26,6],[46,-276],[5,-104],[69,19],[32,-56],[40,37],[5,-172],[47,-264],[32,-270],[-34,16],[-29,141],[-8,147],[-48,41],[29,-264],[56,-357],[20,-66],[20,-503],[-32,-88],[-45,79],[4,-163],[-63,-327]],[[7332,75160],[-1,-182],[-45,-135],[-48,173],[-8,-176],[-105,-217],[-27,-113],[-59,101],[-19,125],[-41,110],[53,264],[69,-38],[2,160],[38,217],[42,-41],[6,-194],[107,12],[36,-66]],[[7143,75515],[19,116],[57,113],[2,-166],[-33,-135],[-45,72]],[[4823,75932],[73,142],[-59,-462],[-49,-44],[4,292],[31,72]],[[8689,78887],[27,-101],[-62,-191],[-72,-371],[6,-119],[-49,-25],[-54,-148],[-13,138],[50,267],[91,270],[23,176],[53,104]],[[8946,79106],[-86,-185],[2,110],[-66,47],[38,185],[65,-25],[-3,-116],[50,-16]],[[8504,79122],[39,-66],[-30,-220],[-36,25],[6,208],[21,53]],[[9066,79540],[-2,-79],[-93,-204],[-55,-50],[2,119],[95,97],[53,117]],[[8415,79866],[-11,113],[27,135],[31,-173],[-47,-75]],[[4434,85212],[-13,-75],[-64,-28],[-17,122],[67,54],[27,-73]],[[544,62719],[-7,-132],[-29,0],[-8,210],[21,35],[23,-113]],[[616,62756],[-58,-12],[8,119],[50,-107]],[[116,62690],[-2,-175],[-42,-126],[1,173],[-73,282],[19,73],[54,18],[43,-245]],[[305,62951],[21,-78],[-25,-132],[3,-142],[-42,-128],[-31,88],[48,175],[6,214],[20,3]],[[497,62675],[-42,-195],[-106,-31],[23,97],[-9,138],[38,69],[-1,204],[37,32],[28,-72],[-26,-110],[58,-132]],[[580,63070],[-15,123],[35,91],[19,-91],[-12,-182],[-27,59]],[[1422,63287],[-71,-132],[-128,6],[-1,148],[86,47],[6,-63],[108,-6]],[[1622,63814],[27,-131],[-61,-126],[-29,22],[21,169],[42,66]],[[1163,63538],[-36,-19],[22,-169],[-36,-88],[-40,31],[-29,-81],[-67,-101],[-72,79],[70,128],[34,-37],[12,141],[64,44],[29,125],[-34,183],[44,103],[29,-34],[27,-167],[-17,-138]],[[2126,64392],[1,-144],[-62,6],[42,163],[19,-25]],[[2382,64744],[-14,-179],[-36,81],[4,116],[46,-18]],[[2893,65736],[-79,-226],[-41,-60],[-56,-383],[-27,-22],[-47,-135],[-31,91],[26,141],[3,201],[43,170],[68,-6],[-12,260],[8,97],[49,154],[54,57],[59,-129],[-17,-210]],[[3373,66586],[6,-84],[-30,-126],[-21,104],[45,106]],[[3330,66376],[-71,-195],[-31,-235],[-30,-100],[-31,59],[-144,-260],[-30,-132],[-47,-63],[-51,129],[37,135],[35,-3],[33,103],[43,-31],[8,113],[38,3],[0,276],[58,179],[22,-81],[28,78],[-56,110],[-19,-32],[-35,195],[39,198],[47,12],[28,92],[42,-57],[-9,-210],[50,37],[50,151],[15,-132],[-35,-56],[-25,-233],[41,-50]],[[3484,67133],[-84,-170],[-22,157],[14,129],[53,53],[39,-169]],[[3555,67227],[-29,-119],[-26,235],[38,-25],[17,-91]],[[5116,69070],[-33,-182],[-37,50],[-1,97],[71,35]],[[99892,61953],[-42,-35],[-48,119],[-38,186],[-57,66],[-5,110],[47,-44],[30,-82],[36,-185],[44,-154],[33,19]],[[99999,63017],[-39,-176],[-40,79],[-4,110],[45,106],[38,-119]],[[99402,63318],[1,-153],[-49,-201],[-30,-51],[-9,-138],[-30,98],[41,160],[40,50],[22,235],[14,0]],[[98326,64037],[-53,-201],[-56,0],[60,195],[49,6]],[[98210,64665],[-81,0],[-40,-154],[-14,88],[-36,0],[13,176],[-48,-38],[6,267],[34,13],[52,-79],[44,41],[49,-135],[21,-179]],[[4365,67735],[-40,-84],[-27,201],[67,-117]],[[4425,68715],[40,-63],[-13,-132],[-41,88],[14,107]],[[4229,68206],[-46,-9],[-37,157],[-16,-160],[-54,-132],[-47,50],[-96,-28],[-55,-170],[-21,-188],[-69,-85],[-54,63],[-31,308],[72,176],[43,392],[41,85],[24,-66],[44,122],[29,25],[38,126],[44,47],[52,-6],[42,-280],[14,-226],[19,-59],[44,15],[20,-157]],[[4604,69107],[22,-100],[-27,-94],[-44,147],[49,47]],[[4997,69487],[0,-157],[-48,51],[3,97],[45,9]],[[4949,69173],[-36,-78],[-62,103],[-1,239],[43,141],[34,-157],[3,-179],[19,-69]],[[3529,78246],[-5,-78],[-106,-63],[-74,-132],[-46,91],[-57,3],[-121,276],[-40,51],[-69,320],[41,82],[116,-54],[23,157],[93,179],[22,-72],[54,100],[55,-153],[56,40],[29,-81],[-13,-236],[42,-430]],[[1653,79012],[-77,-47],[-130,339],[63,-50],[78,-166],[34,18],[32,-94]],[[2646,84600],[-19,-213],[-134,44],[-66,-192],[-20,-207],[-33,79],[-29,194],[-82,145],[-34,-10],[0,163],[-58,145],[-116,194],[-63,-31],[-100,-239],[-82,107],[-33,280],[37,439],[60,-188],[159,-157],[77,194],[45,51],[56,-7],[60,-153],[13,-161],[72,-182],[51,-22],[13,-116],[63,0],[56,-119],[33,91],[74,-129]],[[23512,26857],[250,0],[199,4],[150,0],[204,3]],[[24315,26864],[26,-176],[-16,-122],[-8,-167],[0,-279],[18,-132],[0,-201],[50,-210],[-43,-487],[-6,-135],[-19,-60],[-27,-194],[-22,-44],[-20,-229],[-8,-314],[-26,-138],[9,-170],[-12,-248],[-26,-6],[8,-138],[-7,-123],[14,-163],[-22,-107],[265,0],[272,0],[-1,-94],[-30,-512],[13,-223],[34,-207],[11,-295],[14,-173],[17,-37]],[[24773,21480],[-50,-32],[-18,123],[-56,47],[-24,182],[-46,53],[-51,-320],[-8,-147],[26,-148],[48,-79],[37,32],[30,103],[13,114],[26,-107],[-14,-198],[42,-213],[19,-7],[13,207],[41,135],[-2,-248],[29,-94],[-25,-166],[-10,69],[-52,-399],[-23,-34],[15,-151],[36,-97],[7,-151],[23,22],[26,-110],[39,13],[21,-198],[29,-195],[-46,-223],[-34,38],[-21,72],[-27,295],[-77,192],[-7,91],[-35,163],[-18,-6],[-31,122],[13,-326],[-16,-157],[3,-207],[-41,-170],[-12,154],[6,154],[-40,97],[-47,3],[-41,-345],[-34,110],[-28,-10],[-83,126],[-28,110],[30,207],[-16,229],[-12,-53],[-60,72],[-9,217],[-21,-7],[3,160],[-15,47],[-53,13],[7,138],[-37,0],[-5,-63],[-37,-81],[-5,-94],[12,-167],[-8,-63],[-39,-100],[-76,72],[-37,63],[-97,245],[-48,75],[-71,-3],[-79,-66],[-26,-69],[-16,204],[29,94],[7,198],[-11,47]],[[24138,20139],[-11,-12],[-50,163],[25,151],[58,-126],[-22,-176]],[[24315,26864],[2,198],[17,59],[-2,226],[-21,98],[13,119],[2,182],[-25,107],[19,191],[-12,141],[41,205],[2,219],[-13,129],[49,72],[7,123],[-20,109],[25,95],[13,150],[63,267],[5,283],[-5,132],[11,185],[28,38],[-2,131],[30,69],[23,113],[-9,145]],[[24556,30650],[291,0],[303,-3]],[[25150,30647],[24,-201],[-22,-1162],[-18,-951],[-21,-1052],[-19,-1017],[-30,-1548],[10,-1252],[13,-1611]],[[25087,21853],[-19,-122],[-24,47],[-52,9],[-29,132],[-23,38],[-24,-126],[-88,-141],[-26,-85],[-5,-132],[-24,7]],[[25150,30647],[-3,22],[188,-7],[220,-31],[313,-9]],[[25868,30622],[12,-443],[29,-917],[31,-1070],[42,-1463],[9,-242],[10,-72],[13,-314],[22,-176],[10,-169],[-1,-217],[20,-113],[-41,-236],[-4,-254],[-23,-345],[10,-251],[18,-299],[-18,-502],[2,-169],[24,-186],[3,-163]],[[26036,23021],[-178,0],[-266,0],[-279,0],[-9,-242],[36,-288],[26,-148],[-10,-191],[5,-123]],[[25361,22029],[6,-75],[-20,-157],[-28,-72],[-5,-88],[-55,-73],[3,145],[-39,210],[-7,116],[8,126],[-8,210],[-31,-9],[-17,-386],[-2,-217],[-66,123],[-13,-29]],[[26036,23021],[17,-207],[7,-251],[15,-76],[182,-75],[180,-72],[153,-63],[218,-88],[8,-276],[13,-104],[33,19],[10,405],[-10,119],[2,167],[20,141],[17,13],[56,-148],[58,-53]],[[27015,22472],[20,-60],[-5,-330],[16,-235],[-1,-163],[38,-973],[22,-390],[72,-985],[87,-873],[-44,3],[5,213],[-28,126],[31,-794],[100,-1350],[10,-289],[47,-694],[8,-25],[20,-314],[10,-311],[2,-427],[-6,-56],[-7,-515],[-14,-763],[-13,-53],[-6,-201],[-12,-47],[-18,-211],[-11,-238],[8,-236],[-22,-144],[-9,-138],[-43,37],[-37,-185],[-39,79],[-16,-79],[-50,-44],[-24,201],[8,198],[19,-110],[37,-116],[6,97],[-16,104],[-32,63],[-15,84],[-48,741],[-21,129],[-47,132],[-33,9],[5,107],[-38,223],[-6,373],[-8,92],[-1,204],[-19,12],[-33,138],[-11,292],[7,355],[-25,141],[-15,-260],[-32,88],[-18,172],[-51,641],[-4,226],[-20,91],[-4,147],[23,54],[10,194],[40,280],[-6,232],[-18,-47],[-31,173],[-23,56],[-11,-163],[32,-88],[2,-97],[-11,-248],[-14,0],[-31,219],[-13,26],[21,527],[-6,169],[35,484],[8,568],[-3,295],[-30,211],[-6,207],[-21,119],[-48,-12],[-17,185],[-21,63],[-16,200],[-53,233],[-1,257],[-33,94],[-18,208],[-25,182],[-30,132],[-19,25],[-47,197],[-69,-28],[-34,-129],[12,-232],[-44,38],[-41,-132],[-22,-116],[-43,-119],[-66,-16],[-52,-54],[2,198],[-15,173],[-88,449],[-10,235],[-17,-12],[7,-192],[-34,145],[-56,172],[-84,142],[60,147],[-38,75],[-34,-69],[-21,38],[-55,-110],[-102,-63],[29,126],[-21,126],[-12,-51],[-26,164],[-1,-204],[-48,-296],[-33,-40],[0,28],[25,289],[-18,31]],[[27245,18403],[18,-22],[-13,-248],[-17,-94],[-5,245],[17,119]],[[25868,30622],[358,3]],[[26226,30625],[148,12],[190,16]],[[26564,30653],[-12,-126],[-42,-219],[-13,-214],[8,-69],[57,-195],[30,-169],[44,-38],[9,-166],[18,-154],[8,-207],[37,-267],[8,-148],[58,-235],[33,-179],[15,-220],[42,-144],[33,-192],[-2,-188],[24,-88],[8,-169],[16,-132],[67,-223],[5,-207],[17,-157],[11,-198],[-2,-229],[47,-189],[10,-78],[21,-352],[-7,-204],[21,-204],[16,10],[36,-113]],[[27185,24990],[16,-57],[-41,-261],[-26,44],[4,-191],[-38,-135],[-29,-279],[-17,-299],[9,-191],[17,-76],[-33,-254],[-11,-223],[-21,-110],[-5,-238],[5,-248]],[[26564,30653],[87,151],[18,-7],[52,157],[74,88],[146,-41],[193,-56],[13,-179],[28,91],[38,-279],[4,-261],[300,-38],[14,-18],[118,-685],[184,-1058]],[[27833,28518],[-53,-198],[-49,-260],[-55,-427],[-19,-430],[-52,-333],[-29,-50],[-26,41],[-6,-186],[-39,-222],[-30,-79],[-10,-135],[-32,-144],[-40,-57],[-52,-182],[-21,-9],[-32,113],[-13,-95],[28,-94],[8,-144],[-31,-167],[-23,-25],[-35,182],[-11,-78],[34,-201],[-17,-119],[-42,-157],[-1,-72]],[[26226,30625],[7,424],[11,91],[46,3],[14,85],[10,232],[36,176],[43,97],[64,6],[71,280],[47,138],[26,-3],[29,320],[19,-44],[12,129],[39,109],[13,-169],[26,47],[26,195],[55,119],[31,-110],[18,75],[28,296],[51,219],[7,223],[16,157]],[[26971,33720],[11,-28],[109,-47],[154,-16],[164,-41],[309,3],[303,0],[241,13],[281,3]],[[28543,33607],[5,-169],[27,-110],[16,-462],[-45,57],[-49,-167],[-60,-40],[-32,-132],[-46,81],[-11,-210],[47,-16],[24,66],[24,-66],[54,107],[41,-19],[-11,-229],[6,-182],[20,-72],[1,298],[39,179],[17,-91],[19,-198],[-1,-248],[-8,-166],[-40,-63],[-71,-443],[-32,3],[-49,107],[-44,-19],[-29,69],[-56,26],[59,-173],[55,-79],[1,-157],[-48,-94],[29,-107],[-57,-257],[1,-148],[33,135],[26,32],[48,-66],[12,-126],[-47,-254],[-19,28],[-24,-113],[-67,35],[-85,-170],[-15,-106],[-35,-129],[-44,-113],[-37,-176],[-45,-323],[-12,-160],[-10,-314],[-34,-126],[-62,63],[-89,-82]],[[28548,33607],[13,0]],[[28561,33607],[6,0],[10,0],[-18,-94],[-11,94]],[[26971,33720],[-69,16],[-13,-38],[-247,6],[-232,7]],[[26410,33711],[44,122],[27,16],[48,116],[29,25],[15,160],[56,113],[8,148],[35,129],[6,141],[21,97],[78,220],[108,496]],[[26885,35494],[-3,-141],[12,-164],[30,-175],[15,-10],[35,-138],[29,6],[56,230],[33,-170],[26,69],[52,28],[23,98],[5,150],[32,-78],[57,160],[21,-72],[44,150],[-2,117],[20,78],[-16,141],[22,248],[58,355],[23,339],[35,192],[7,150],[21,160],[16,286],[24,-47],[13,-169],[58,-104],[26,173],[16,232],[44,399],[35,-101],[33,261],[23,9],[69,443],[3,213],[12,101],[10,229],[137,-587],[28,358]],[[28067,38913],[49,-63],[26,-104],[-8,-229],[20,-94],[42,-50],[11,-116],[32,-101]],[[28239,38156],[14,-63]],[[28253,38093],[9,-78],[-4,-276],[-18,-19],[-5,-132],[-27,38],[-27,-393],[9,-210],[13,-19],[65,78],[-4,-122],[21,-185],[20,-63],[75,-50],[22,-145],[1,-97],[79,-229],[0,-154],[-19,-176],[-9,-198],[-27,-18],[25,-182],[31,-139],[-22,-122],[-24,41],[9,-258],[-25,-110],[47,-135],[8,-141],[-7,-107],[-37,-72],[-7,104],[-44,169],[-2,154],[-73,132],[45,-226],[16,-204],[25,-31],[27,-226],[44,-48],[14,148],[40,-85],[37,-9],[8,-201],[31,-490],[-8,0],[-13,298],[-10,7],[-1,-305]],[[28548,33607],[-5,0]],[[28725,36401],[-16,-100],[3,-167],[-19,-81],[-91,-719],[-19,-189],[-22,-423],[-14,235],[1,113],[33,468],[-8,94],[38,223],[-3,129],[25,72],[17,251]],[[28650,36307],[6,57],[69,37]],[[28239,38156],[22,116],[37,-194],[-32,-173]],[[28266,37905],[2,97],[-15,91]],[[28611,39657],[0,-141],[14,-1256],[12,-1008],[170,-13]],[[28807,37239],[-11,-178],[5,-85],[-13,-142],[-25,-28],[-13,-220],[-25,-185]],[[28650,36307],[-67,44],[21,279],[-36,41],[24,123],[-15,97],[-34,-57],[-53,195],[-28,248],[18,13],[4,144],[27,207],[-26,98],[-29,25],[11,179],[25,-29],[17,167],[-27,107],[27,109],[6,208],[-40,66],[28,313],[39,148],[-9,148],[-40,-204],[-60,-79],[10,-97],[-17,-148],[14,-342],[-24,-53],[7,-145],[-25,-260],[8,-95],[3,-376],[32,-261],[-6,-132],[8,-182],[19,-169],[-9,-154],[-23,141],[-50,176],[-40,6],[-46,123],[-15,100],[-13,226],[-51,-185],[-14,53],[-3,192],[23,213],[17,35],[21,147],[7,195]],[[28067,38913],[-1,144],[-15,148],[-19,59],[-6,192],[-24,-28],[-47,191],[-22,-16],[-18,-109],[-44,-22],[-9,-173],[-31,-10],[-46,88],[-9,120],[-29,-220],[-25,-138],[-27,63],[-32,-183],[-86,-339],[3,977]],[[28712,39820],[-50,-361],[14,-144],[-9,-151],[42,-283],[12,-172],[0,-321],[22,-138],[1,-106],[40,-255],[23,3],[5,-226],[-16,-166],[19,-72],[4,-189],[-4,0],[-8,0]],[[29136,42077],[-3,-113],[-32,-414],[-17,-113],[-32,-38],[-21,-260],[24,-110],[46,-35],[17,-179],[-24,-603],[-13,4],[-6,-317],[-18,-198],[6,-85],[-24,-170],[-29,-116],[-42,-326],[-19,-211],[-21,-128],[-26,-280],[-36,-210],[-26,-16],[22,402],[-39,123],[-37,-26],[-25,189],[-31,78],[-47,267],[5,333],[20,239],[36,125],[47,60],[33,270]],[[29255,44108],[202,-40],[267,-22],[0,-22]],[[29724,44024],[2,-939],[-2,-195],[-16,-182]],[[29708,42708],[-31,44],[-39,-63],[-24,26],[-26,-79],[-40,13],[-21,-63],[-27,50],[-23,-50],[-26,25],[-109,-192],[-111,-285],[-21,-35]],[[29724,44024],[116,9],[2,-204],[11,-213],[29,-167]],[[29882,43449],[-33,72],[-25,-329],[5,-201],[-20,-195],[-28,0],[-73,-88]],[[29914,43076],[-22,-22],[2,332]],[[29894,43386],[17,-28],[3,-282]],[[30000,45678],[-2,-304],[18,-117],[27,54],[3,-154],[-59,-110],[6,-91],[-38,-157],[-17,-207],[71,-94],[42,-317],[-6,-258],[25,-3],[8,-267],[27,-116],[46,-75],[57,110],[36,160],[0,-349],[-136,-81],[-21,-129],[-44,-82],[0,383],[-31,-144],[-38,-60],[-5,-122],[-32,-85],[-23,13]],[[29894,43386],[-12,63]],[[30212,42846],[27,-222],[-12,-73],[-38,16],[29,176],[-6,103]],[[30067,42912],[18,-125],[-76,-16],[18,126],[32,103],[8,-88]],[[17094,44002],[-260,0],[-208,0],[-209,0],[-156,0]],[[15084,44002],[-41,216],[-5,208],[-15,207],[11,452],[-6,182],[-28,166],[-9,182],[28,355],[20,590],[27,154],[29,653],[7,226],[24,1388],[0,408],[8,107],[18,524],[-3,373],[17,129],[-14,66],[14,402],[-17,188],[6,214],[-9,125],[16,79],[-1,195],[-15,226],[35,-79],[70,53],[27,91],[37,-169],[43,-16],[15,79]],[[6513,1212],[22,-167],[-16,-128],[-29,-142],[-62,-160],[-25,10],[-20,-107],[-39,-126],[-32,-348],[-18,-44],[-38,154],[-17,31],[-11,207],[9,374],[-27,521],[-21,236],[5,100],[32,163],[29,289],[-17,163],[-4,211],[8,91],[37,-38],[7,-91],[35,-141],[16,6],[55,-151],[45,-191],[23,-163],[1,-255],[18,35],[11,-157],[23,-182]],[[6048,3177],[5,-160],[-38,-19],[20,167],[13,12]],[[5968,3711],[13,-126],[-8,-91],[-23,-56],[-19,47],[-3,320],[28,-25],[12,-69]],[[6205,3563],[0,-216],[-36,-120],[-21,3],[-28,-84],[-29,12],[-15,371],[-20,-16],[-24,63],[-21,207],[8,166],[19,57],[20,-85],[12,-160],[52,94],[15,-22],[35,-201],[33,-69]],[[5996,4270],[-2,-145],[-32,-78],[-56,88],[-57,-26],[-8,79],[12,179],[101,-107],[42,10]],[[5728,4615],[17,-85],[-41,-100],[-31,97],[-53,-22],[-37,361],[-3,195],[33,0],[30,223],[14,6],[35,-327],[-1,-138],[29,-106],[8,-104]],[[5056,5852],[18,-32],[-10,-172],[-25,-85],[-17,50],[31,154],[3,85]],[[5283,6141],[-9,-195],[0,-173],[-29,-172],[-48,59],[-19,107],[-23,44],[-7,151],[19,191],[36,120],[53,28],[27,-160]],[[18761,44005],[0,-1909],[175,0],[210,0],[175,0]],[[19321,42096],[0,-1193],[0,-1193],[0,-1428],[0,-1193],[0,-1670],[0,-955]],[[17926,34471],[0,894],[0,1488],[0,1790],[-1,1488],[0,1193],[0,1786],[0,895]],[[20714,49728],[1,-716],[0,-1431],[1,-1667]],[[20716,45914],[0,-1671],[0,-1193],[0,-954]],[[20716,42096],[-167,0],[-263,0],[-132,0],[-263,0],[-219,0],[-351,0]],[[20716,42096],[341,0],[218,0],[0,-1909]],[[21275,40187],[0,-1249],[1,-895],[1,-1252],[0,-1432],[1,-895]],[[21278,34464],[-269,0]],[[22838,46865],[-40,-3],[17,-214],[-8,-311],[23,-12],[8,-182],[-15,-145],[-1,-153],[-15,-230],[-20,-179],[32,-194],[11,-248]],[[22830,44994],[-36,28],[-23,157],[-4,116],[-25,19],[-17,100],[-75,98],[-49,185],[-100,-63],[-50,32],[-29,-157],[-18,-10],[-66,170],[-67,241],[-264,0],[-190,0],[-238,4],[-333,0],[-238,0],[-292,0]],[[22830,44994],[24,-41],[-1,-245],[17,-132],[-3,-179],[24,-166],[1,-116],[30,-135],[6,-233],[19,-131],[-11,-286],[6,-185],[42,-160],[-7,-242],[22,-41],[-13,-210],[13,-76],[2,-298],[9,-56],[3,-358],[-12,-126],[27,-129],[2,-116]],[[23030,41333],[20,-157],[18,-329],[63,-440],[-4,-132],[29,-88]],[[23156,40187],[-176,0],[-292,0],[-293,0],[-293,0],[-293,0],[-234,0],[-300,0]],[[23156,40187],[35,-175],[34,-79],[19,69],[33,-154],[-2,-176],[-20,26],[-22,-167],[-16,-238],[53,-311],[22,-286],[59,-179],[0,-1372],[0,-973],[0,-1708]],[[23351,34464],[-258,0],[-129,0],[-258,0],[-258,0],[-195,0],[-258,0],[-129,0],[-258,0],[-330,0]],[[23351,34464],[0,-951]],[[23351,33513],[31,-1328],[19,-797],[-3,-829],[-6,-1658],[-3,-832]],[[24292,46868],[14,-257],[24,-51],[8,-113],[-24,-229],[11,-477],[24,-320],[22,-79],[73,-88],[22,-210],[-4,-63]],[[24462,44981],[-4,-44],[54,-216],[16,-248],[66,-248],[8,-164],[-17,-414],[-29,-122],[-12,-274],[-27,-119],[-45,-63],[-28,-113],[-80,-31],[-18,-97],[-12,-242],[4,-129],[24,-82],[13,-135],[-4,-248],[-36,-232],[-9,-232],[-17,-94],[-55,-104],[1,-392],[-17,-25]],[[24238,40913],[-29,169],[-38,157],[-14,129],[-59,-25],[-322,-44],[-130,6],[-127,-19],[-129,-3],[-124,16],[-236,34]],[[24238,40913],[-15,-126],[-6,-264],[7,-317],[13,-116],[-1,-157],[26,-295],[71,-339],[14,-154],[65,-254],[25,-226],[8,-393],[12,-141],[21,-82],[43,170],[69,-160],[15,-101],[-19,-166],[0,-201],[-19,-182],[-33,-462],[10,-178],[66,-365],[29,-103],[23,-19],[56,-220],[21,-198],[28,-69],[6,-257],[21,-232],[-2,-148],[-18,-182],[54,-484],[24,60],[34,-125]],[[24886,34427],[-8,-245],[3,-223],[-18,-242],[-14,-72],[-29,132],[-18,-267]],[[24802,33510],[-20,6],[-18,-3],[8,-223],[-27,-116],[12,-129],[-31,-15],[23,-201],[-17,-76],[-14,-194]],[[24718,32559],[-182,-25],[9,141],[36,235],[20,50],[21,148],[1,154],[-27,251],[-250,0],[-306,0],[-153,0],[-230,0],[-306,0]],[[25474,44950],[-219,-6],[-198,9],[-247,9],[-348,19]],[[25421,43546],[-88,0],[0,-910],[-1,-1105],[-1,-1105],[-1,-1454],[-26,-119],[7,-179],[-17,-94],[22,-295],[11,-60],[-3,-176],[12,-219],[-10,-154],[-19,-60],[-15,-182],[6,-69],[-32,-113],[3,-75],[-26,-198],[-28,-35],[-13,-169],[16,-98],[-27,-116],[-4,-88],[0,-467]],[[25187,36006],[-4,-107],[-29,-214],[22,-229],[-11,-84],[-95,-126],[-12,-126],[1,-144],[20,-188],[-15,-183],[-41,79],[-77,201],[-38,-22],[-37,-279],[15,-157]],[[26711,37174],[5,-327],[-17,-182],[94,-885],[32,-113],[18,-126],[42,-47]],[[26410,33711],[-18,-35],[-251,47],[-137,29],[-86,-13],[-178,28],[-111,57],[-173,-22],[-210,-16],[-10,57],[-55,31],[6,-364],[-144,0],[-241,0]],[[25187,36006],[28,-35],[13,79],[3,188],[25,-97],[35,40],[20,-81],[15,110],[34,63],[95,-270],[12,163],[63,198],[21,-173],[58,47],[3,173],[30,182],[37,50],[2,-135],[26,-91],[42,-53],[33,131],[6,264],[21,167],[42,37],[13,236],[27,69],[32,197],[-13,258],[6,53],[50,10],[20,-88],[52,147],[50,35],[10,198],[-26,50],[14,138],[-13,132],[14,69]],[[24718,32559],[15,-164],[-25,-9],[10,-144],[-60,-186],[8,-160],[-12,-97],[10,-104],[-26,-69],[-3,-113],[-23,-125],[-3,-201],[8,-176],[-6,-126],[-20,13],[-12,-157],[-23,-91]]],"bbox":[-178.21428828919764,18.93233350985723,179.78197705856485,71.35368413591641],"transform":{"scale":[0.0035799984534621593,0.0005242187484480762],"translate":[-178.21428828919764,18.93233350985723]}}