{"type":"Topology","objects":{"a1":{"type":"GeometryCollection","geometries":[{"type":"Polygon","arcs":[[0]],"id":"VGB+00?","properties":{"adm1_code":"VGB+00?","iso_3166_2":"VG-X01~","name":"British Virgin Islands","admin":"British Virgin Islands","adm0_a3":"VGB","type_en":null}}]}},"arcs":[[[25641,0],[-25641,72413],[99999,27586],[-23077,-79310],[-51281,-20689]]],"bbox":[-64.66067295837809,18.405700784514607,-64.55944802128319,18.45342687524878],"transform":{"scale":[0.0000010122594935439143,4.7726567999853e-7],"translate":[-64.66067295837809,18.405700784514607]}}