{"type":"Topology","objects":{"a1":{"type":"GeometryCollection","geometries":[{"type":"MultiPolygon","arcs":[[[0,1,2,3,4,5]],[[6,7,8]]],"id":"WSM-4990","properties":{"adm1_code":"WSM-4990","iso_3166_2":"WS-GE","name":"Gaga'emauga","admin":"Samoa","adm0_a3":"WSM","type_en":null}},{"type":"Polygon","arcs":[[-6,9,10,11,12]],"id":"WSM-4991","properties":{"adm1_code":"WSM-4991","iso_3166_2":"WS-GI","name":"Gaga'ifomauga","admin":"Samoa","adm0_a3":"WSM","type_en":null}},{"type":"Polygon","arcs":[[-12,13,14]],"id":"WSM-4992","properties":{"adm1_code":"WSM-4992","iso_3166_2":"WS-VS","name":"Vaisigano","admin":"Samoa","adm0_a3":"WSM","type_en":null}},{"type":"MultiPolygon","arcs":[[[-11,15,16,-14]],[[-4,17,18,19]]],"id":"WSM-4993","properties":{"adm1_code":"WSM-4993","iso_3166_2":"WS-SA","name":"Satupa'itea","admin":"Samoa","adm0_a3":"WSM","type_en":null}},{"type":"MultiPolygon","arcs":[[[-5,-20,20,-16,-10]],[[-3,21,22,-18]]],"id":"WSM-4994","properties":{"adm1_code":"WSM-4994","iso_3166_2":"WS-PA","name":"Palauli","admin":"Samoa","adm0_a3":"WSM","type_en":null}},{"type":"Polygon","arcs":[[-2,23,-22]],"id":"WSM-4989","properties":{"adm1_code":"WSM-4989","iso_3166_2":"WS-FA","name":"Fa'asaleleaga","admin":"Samoa","adm0_a3":"WSM","type_en":null}},{"type":"Polygon","arcs":[[24,25,26,27]],"id":"WSM-4987","properties":{"adm1_code":"WSM-4987","iso_3166_2":"WS-AT","name":"Atua","admin":"Samoa","adm0_a3":"WSM","type_en":null}},{"type":"Polygon","arcs":[[-25,28]],"id":"WSM-4988","properties":{"adm1_code":"WSM-4988","iso_3166_2":"WS-VF","name":"Va'a-o-Fonoti","admin":"Samoa","adm0_a3":"WSM","type_en":null}},{"type":"Polygon","arcs":[[-27,29,-9,30,31]],"id":"WSM-4984","properties":{"adm1_code":"WSM-4984","iso_3166_2":"WS-TU","name":"Tuamasaga","admin":"Samoa","adm0_a3":"WSM","type_en":null}},{"type":"Polygon","arcs":[[-8,32,33,34,-31]],"id":"WSM-4985","properties":{"adm1_code":"WSM-4985","iso_3166_2":"WS-AA","name":"A'ana","admin":"Samoa","adm0_a3":"WSM","type_en":null}},{"type":"Polygon","arcs":[[-34,35]],"id":"WSM-4986","properties":{"adm1_code":"WSM-4986","iso_3166_2":"WS-AL","name":"Aiga-i-le-Tai","admin":"Samoa","adm0_a3":"WSM","type_en":null}}]}},"arcs":[[[30738,99999],[6587,-5292],[4391,-10864]],[[41716,83843],[-5589,-557],[-1197,-13370]],[[34930,69916],[-2795,278]],[[32135,70194],[-3193,0]],[[28942,70194],[-1797,279]],[[27145,70473],[3593,29526]],[[70059,8635],[-1597,-557]],[[68462,8078],[2196,10306]],[[70658,18384],[-599,-9749]],[[27145,70473],[-12774,557]],[[14371,71030],[-3992,5571]],[[10379,76601],[-599,13370]],[[9780,89971],[8383,6407],[12575,3621]],[[10379,76601],[-5589,-2786]],[[4790,73815],[-4790,18106],[9780,-1950]],[[14371,71030],[-2195,-10028]],[[12176,61002],[-7386,12813]],[[32135,70194],[2396,-22562]],[[34531,47632],[-2795,-2229]],[[31736,45403],[-2794,24791]],[[31736,45403],[-12974,-3621],[-6586,19220]],[[34930,69916],[7585,-27298]],[[42515,42618],[-7984,5014]],[[41716,83843],[3393,-24512],[-2594,-16713]],[[92813,21727],[200,-9749],[6786,2228]],[[99799,14206],[200,-14206],[-14371,1393]],[[85628,1393],[199,29247]],[[85827,30640],[4990,-1949],[1398,-2229],[598,-4735]],[[92813,21727],[6986,-7521]],[[85628,1393],[-6986,-1114],[-8583,8356]],[[70658,18384],[-798,23398]],[[69860,41782],[3393,-835],[1597,-836],[10977,-9471]],[[68462,8078],[-4990,2507],[-7584,12813]],[[55888,23398],[3592,14763]],[[59480,38161],[10380,3621]],[[55888,23398],[-1198,8914],[1996,3621],[2794,2228]]],"bbox":[-172.76631026452586,-14.052978096525337,-171.4659591495375,-13.462162007781558],"transform":{"scale":[0.000013003641186295457,0.000005908219969637484],"translate":[-172.76631026452586,-14.052978096525337]}}