{"type":"Topology","objects":{"a1":{"type":"GeometryCollection","geometries":[{"type":"Polygon","arcs":[[0,1,2,3,4]],"id":"ZAF-1188","properties":{"adm1_code":"ZAF-1188","iso_3166_2":"ZA-NC","name":"Northern Cape","admin":"South Africa","adm0_a3":"ZAF","type_en":"Province"}},{"type":"Polygon","arcs":[[5,6,7,8,9]],"id":"ZAF-1216","properties":{"adm1_code":"ZAF-1216","iso_3166_2":"ZA-NL","name":"KwaZulu-Natal","admin":"South Africa","adm0_a3":"ZAF","type_en":"Province"}},{"type":"Polygon","arcs":[[-2,10,11,12,-8,13,14]],"id":"ZAF-1206","properties":{"adm1_code":"ZAF-1206","iso_3166_2":"ZA-FS","name":"Free State","admin":"South Africa","adm0_a3":"ZAF","type_en":"Province"}},{"type":"Polygon","arcs":[[-3,-15,15,-6,16,17]],"id":"ZAF-1926","properties":{"adm1_code":"ZAF-1926","iso_3166_2":"ZA-EC","name":"Eastern Cape","admin":"South Africa","adm0_a3":"ZAF","type_en":"Province"}},{"type":"Polygon","arcs":[[18,19,20,21]],"id":"ZAF-1210","properties":{"adm1_code":"ZAF-1210","iso_3166_2":"ZA-LP","name":"Limpopo","admin":"South Africa","adm0_a3":"ZAF","type_en":"Province"}},{"type":"Polygon","arcs":[[-1,22,-21,23,-11]],"id":"ZAF-1201","properties":{"adm1_code":"ZAF-1201","iso_3166_2":"ZA-NW","name":"North West","admin":"South Africa","adm0_a3":"ZAF","type_en":"Province"}},{"type":"Polygon","arcs":[[-9,-13,24,-19,25]],"id":"ZAF-1209","properties":{"adm1_code":"ZAF-1209","iso_3166_2":"ZA-MP","name":"Mpumalanga","admin":"South Africa","adm0_a3":"ZAF","type_en":"Province"}},{"type":"MultiPolygon","arcs":[[[-4,-18,26]],[[27]]],"id":"ZAF-1189","properties":{"adm1_code":"ZAF-1189","iso_3166_2":"ZA-WC","name":"Western Cape","admin":"South Africa","adm0_a3":"ZAF","type_en":"Province"}},{"type":"Polygon","arcs":[[-12,-24,-20,-25]],"id":"ZAF-1208","properties":{"adm1_code":"ZAF-1208","iso_3166_2":"ZA-GT","name":"Gauteng","admin":"South Africa","adm0_a3":"ZAF","type_en":"Province"}}]}},"arcs":[[[28715,83954],[388,-73],[-12,-1133],[533,-146],[158,193],[303,980],[339,-19],[327,245],[194,457],[1285,-119],[-109,-259],[-570,86],[-24,-251],[376,-93],[-376,-497],[279,-305],[-61,-550],[873,-199],[582,-345],[-412,-490],[1648,-603],[376,79],[291,-185],[157,-418],[-279,-338],[-315,-636],[546,-311],[339,-93],[-230,-464],[36,-451],[340,-172],[-13,-457],[1370,232],[182,-398],[-388,-464],[388,-318],[-36,-245],[375,-245],[437,397],[48,385],[327,318],[-96,623],[581,245],[85,-312],[740,7],[254,-86],[-860,-802],[412,-762],[388,113]],[[39891,76075],[-25,-193],[-436,-815],[-327,-808],[133,-531],[-1018,-1683],[-1467,-2339],[315,-464],[558,-206],[606,-324],[61,-219],[521,-153],[582,-854],[569,-332],[61,-192],[667,-504],[1321,-636]],[[42012,65822],[72,-570],[182,-185],[-157,-279],[85,-258],[-291,-643],[-449,-537],[-630,106],[-703,-252],[-449,-79],[-945,-424],[-970,-53],[-206,-610],[-60,-610],[-776,-59],[-837,-153],[-36,-132]],[[35842,61084],[-861,258],[-460,-298],[-255,291],[-521,246],[-1394,-60],[-497,-278],[-521,-557],[-521,-351],[-206,364],[-388,120],[-873,92],[-703,232],[-594,497],[-873,332],[-133,-139],[-557,-1008],[-255,-152],[-61,-424],[122,-239],[-606,-557],[-558,-192],[-642,126],[-752,-119],[-618,-431],[-546,-113],[-533,-331],[-339,-597],[-1188,-284],[-194,-153],[-182,-590],[-364,-225],[-751,66],[-582,-139],[-654,524],[-328,165],[-400,676],[-194,749],[606,510],[-339,385],[-1006,-676],[-570,-66],[-460,-259],[-437,-79],[-363,-729],[-279,218],[73,477],[-291,623],[315,319],[-109,616],[-703,225],[-509,438],[-364,-34],[-485,120],[194,583],[-12,689],[-242,332],[-85,821],[-279,378],[-158,756],[110,271],[48,875],[-448,119],[-497,471],[-813,431],[-460,-226],[-243,106],[-351,-623],[-412,-516],[-424,-153],[-619,186],[-339,-444],[-279,-199],[-582,-888]],[[6048,63642],[-957,1279],[-121,344],[-400,458],[-97,252],[-691,921],[-109,411],[-243,324],[-194,610],[-291,517],[-218,842],[-569,1279],[-231,238],[-351,888],[-303,199],[-364,484],[-315,205],[-194,604],[-400,331],[73,212],[509,192],[351,265],[449,67],[169,311],[-193,331],[569,491],[37,318],[957,205],[424,-344],[13,-371],[254,-113],[461,40],[266,-564],[-339,-358],[206,-417],[218,-133],[-73,-450],[837,99],[109,-305],[654,27],[776,-126],[618,-312],[570,-179],[655,93],[424,-79],[376,93],[1248,145],[970,-106],[594,-377],[375,59],[594,298],[-181,398],[860,239],[230,139],[400,596],[1200,219],[328,192],[400,27],[12,3665],[-12,2478],[0,3161],[0,1982],[0,3492],[642,-543],[546,-199],[606,-391],[363,-543],[461,-862],[218,-86],[352,-649],[-97,-193],[703,-1133],[48,-716],[170,-238],[-412,-583],[-606,-610],[-85,-484],[121,-285],[-97,-272],[133,-530],[255,-291],[739,338],[1273,-239],[1200,166],[558,-93],[872,-33],[400,278],[-24,332],[339,159],[449,0],[570,185],[412,398],[242,464],[279,252],[400,99],[400,364],[545,80],[352,384]],[[64084,63953],[-254,252],[-73,325],[-291,305],[-412,112],[-849,491],[-884,86],[-594,272],[-728,-140],[-460,153],[-279,252],[182,477],[448,252],[0,225],[-569,133],[-340,444],[61,391],[-461,397]],[[58581,68380],[594,239],[-182,378],[37,291],[230,345],[545,219],[-12,344],[134,245],[388,120],[230,384],[-582,1014],[-485,86],[-388,305],[-678,338],[-570,550]],[[57842,73238],[533,795],[1006,159],[218,385],[328,59],[485,272],[375,358],[473,73],[400,523],[-242,292],[206,557],[254,397],[-182,577],[388,252],[-230,351],[254,265]],[[62108,78553],[364,259],[376,99],[945,-60],[691,305],[667,113],[97,-139],[606,-7],[412,139],[800,-232],[315,93],[376,-179],[788,126],[436,371]],[[68981,79441],[1321,-318],[2061,-20],[-109,617],[-12,251],[230,1054],[570,-7],[1115,-79],[2533,53],[-254,-1113],[-764,-1598],[-400,-1451],[36,-172],[-254,-1074],[-570,-775],[24,-192],[-218,-498],[-1721,-1259],[-582,-238],[-557,13],[-73,-179],[-909,-789],[-327,-192],[-1407,-1411],[-800,-1240],[37,-271],[-485,-332],[-352,-424],[-266,-457],[-1043,-1359],[-800,-1100],[-339,-258],[-582,-670]],[[39891,76075],[181,39],[352,517],[448,212],[73,219],[849,451],[739,225],[279,-73],[739,371],[352,-159],[594,-73],[472,212],[594,391],[97,252],[933,298],[170,398],[-351,305],[363,159],[728,557],[703,291],[557,153],[606,-159],[631,19],[606,252],[460,-132],[340,86],[181,371],[303,172]],[[51890,81429],[279,-106],[1115,159],[412,219],[340,-590],[994,-305]],[[55030,80806],[606,-159],[194,-205],[994,-106],[48,219],[800,-338],[643,179],[460,-140],[315,-503],[243,66],[1236,-464],[194,-358],[618,-643],[727,199]],[[57842,73238],[-146,53],[-594,285],[-157,365],[-1224,-87],[-400,-324],[-473,0],[-291,-7],[-630,-623],[-509,-20],[-231,-219],[-533,27],[-521,-736],[-534,-543],[-48,-179],[-267,-86],[-169,-418],[-546,-497],[-1333,-424],[-61,-166],[400,-338],[388,-689],[449,-450],[521,-1127]],[[50933,67035],[-376,-709],[-776,-53],[-569,-126],[-412,-491],[-655,47],[-364,-126],[-788,93],[-436,371],[-606,-86],[-497,225],[-679,46],[-1563,-669],[-425,93],[-109,205],[-666,-33]],[[50933,67035],[376,-13],[351,-312],[303,-391],[679,-444],[582,-26],[315,-133],[545,-40],[412,603],[-36,219],[388,239],[0,483],[315,80],[327,298],[788,226],[546,-60],[1030,265],[727,351]],[[64084,63953],[-860,-861],[-679,-484],[-376,-93],[-703,-550],[-436,-258],[-631,-193],[-60,-212],[-618,-510],[-219,-325],[-303,-106],[-242,-338],[-582,-457],[-473,-484],[-1187,-769],[-316,-338],[-1575,-854],[-267,-54],[-279,-397],[-921,-616],[-776,-279],[-569,-417],[-328,-87],[-739,-497],[-1115,-490],[-194,-186],[-849,-225],[-1284,-437],[-606,-265],[-1067,-47],[-909,199],[-631,27],[-800,-133],[-496,-205],[-207,-239],[-72,-371],[400,-298],[-497,-113],[-873,60],[-630,212],[-824,79],[-691,-93],[-109,-271],[-413,-325],[85,-219],[-1285,33],[-484,87],[-461,205],[-570,46],[-448,159],[-837,60],[-1624,245]],[[33454,52269],[243,431],[-667,305],[-836,66],[327,279],[848,271],[-254,597],[-594,252],[-812,139],[-1091,33],[-1309,-46],[-12,298],[788,934],[12,332],[388,497],[909,331],[618,0],[206,159],[-436,404],[-194,656],[24,325],[388,278],[1297,120],[339,344],[388,179],[594,-132],[666,218],[291,199],[146,491],[279,205],[-243,378],[85,272]],[[71842,92603],[-352,-7],[-315,-344],[-1248,112],[-158,-126],[-764,-185],[-218,258],[-424,-245],[-279,-378],[37,-523],[630,40],[-146,-272],[449,-524],[-182,-192],[-1139,-106],[-37,225],[-436,-33],[-509,279],[-146,-471],[-291,-139],[219,-351],[-279,-464],[-776,-517],[-339,391],[-328,-106],[-775,86],[0,-669],[-279,-411],[-424,205],[-122,-311],[-12,-736],[-557,-46],[-546,-206],[-460,100],[-667,-166],[-812,33],[-400,119],[-267,-139],[-206,418],[-315,-53],[-291,199],[24,510],[-339,278],[-339,471],[-776,53],[-558,-239],[85,-199],[-800,-265],[-485,-285],[170,-146],[1006,266]],[[56666,87792],[267,-358],[-643,-93],[-436,-206],[-642,20]],[[55212,87155],[-303,365],[-485,106],[-12,364],[460,126],[-582,279],[-618,92],[-279,-72],[-1115,132],[-375,-106],[-194,-384],[-267,145],[-570,-13],[-351,212],[-509,67],[-594,569],[-146,504],[-363,-265],[-825,-305],[-666,153],[-800,59],[-206,285],[-37,438]],[[46375,89906],[315,251],[279,451],[861,577],[630,271],[97,531],[436,1484],[194,411],[570,484],[703,252],[339,291],[934,120],[266,583],[425,93],[339,245],[582,212],[242,205],[-48,259],[400,152],[121,365],[533,311],[158,351],[667,352],[860,0],[473,86],[1345,437],[255,298],[-36,285],[412,358],[569,27],[243,126],[606,-14],[1442,239],[461,-13],[873,-272],[884,-384],[497,-14],[279,-165],[521,0],[437,112],[594,-86],[278,113],[679,86],[1212,-212],[303,46],[594,-298],[-48,-73],[1200,-2989],[-73,-1040],[121,-312],[449,-384],[460,-1001],[449,-324],[85,-186]],[[28715,83954],[194,365],[266,146],[-48,377],[267,259],[-97,285],[278,278],[182,829],[764,682],[303,-59],[448,185],[449,66],[473,-106],[436,34],[1067,-696],[254,-60],[849,-643],[484,-93],[485,106],[449,-92],[327,-299],[424,-145],[522,6],[763,-265],[630,-26],[510,106],[666,265],[594,-106],[970,79],[945,504],[303,630],[194,616],[655,1179],[194,524],[-37,557],[1394,351],[740,159],[363,-46]],[[55212,87155],[-279,-152],[-606,-73],[-473,46],[-255,-198],[388,-246],[-327,-490],[0,-597],[-97,-265],[-315,-185],[-691,-106],[-400,305],[-848,-332],[-61,-490],[-242,-464],[-485,-93],[157,-570],[-618,-378],[182,-490],[61,-550],[424,93],[1091,-133],[72,-358]],[[55030,80806],[218,259],[497,278],[-36,404],[484,186],[109,192],[534,232],[582,-33],[133,358],[315,106],[-267,371],[-412,-119],[-860,470],[-158,570],[376,86],[254,345],[667,-159],[436,33],[49,438],[279,106],[157,788],[-254,491],[-546,39],[255,-364],[-133,-252],[-304,-46],[-169,311],[-279,-139],[-194,550],[12,782],[497,212],[218,212],[-145,451],[-679,-172]],[[71842,92603],[60,-809],[267,-450],[279,-590],[0,-1829],[12,-1995],[-97,-431],[109,-689],[-364,-543],[170,-696],[-533,-100],[-412,212],[-1491,749],[-558,-53],[-885,-616],[-375,-762],[-655,-776],[-436,-424],[-97,-298],[12,-987],[73,-372],[387,93],[352,-503],[73,-498],[848,-689],[400,-106]],[[33454,52269],[-969,-132],[-316,-219],[219,-172],[-1976,139],[-230,-33],[-1431,351],[-303,-7],[-715,-271],[-630,26],[-715,-252],[-37,-291],[-606,-66],[-291,-146],[-133,-365],[-897,-218],[-873,152],[-775,-265],[-400,-13],[-776,205],[-643,60],[-642,-139],[85,-299],[-824,106],[-655,-66],[-1455,-875],[-654,-258],[-73,-239],[-485,-53],[-436,239],[-1018,-93],[-1140,689],[-436,742],[-860,67],[-146,232],[-1309,-86],[230,861],[-545,292],[-873,20],[-521,-285],[157,-405],[-327,-232],[-424,1101],[267,417],[484,99],[-206,822],[-521,517],[-60,358],[-255,239],[-497,258],[-327,616],[-400,212],[230,411],[-194,173],[-400,-173],[-157,265],[-122,617],[243,417],[291,86],[533,-311],[327,119],[570,418],[279,629],[-85,597],[158,338],[-182,523],[-158,955],[-485,921],[-763,835],[-534,451],[-109,291],[-485,471]],[[98957,524],[739,-60],[303,-292],[-230,-172],[-1018,20],[-194,205],[400,299]]],"bbox":[16.472411878789643,-46.959294794106505,37.88537934117275,-22.126916066934598],"transform":{"scale":[0.0002141318159419905,0.0002483262705344244],"translate":[16.472411878789643,-46.959294794106505]}}