{"type":"Topology","arcs":[[[7914,2682],[9,-24],[-26,-1],[7,29],[10,-4]],[[4727,3294],[84,-79],[33,-59]],[[4844,3156],[-10,-45],[15,-35],[-6,-61],[25,-67]],[[4868,2948],[-17,-22],[-67,-30],[-43,7]],[[4741,2903],[-18,78],[-22,7]],[[4701,2988],[-44,33]],[[4657,3021],[-25,67],[-6,75]],[[4626,3163],[31,42],[-6,35]],[[4651,3240],[-1,47]],[[4650,3287],[77,7]],[[3786,4352],[0,-9]],[[3786,4343],[0,-56],[-73,2],[1,-95],[-26,-22],[4,-54],[-87,1],[-5,-13]],[[3600,4106],[1,16]],[[3601,4122],[51,3],[19,81],[30,40],[11,46],[14,32],[36,-1],[24,29]],[[1263,5142],[-101,68],[-69,147]],[[1093,5357],[-26,64],[-83,120],[-44,-33],[-78,52],[0,211],[0,137]],[[862,5908],[99,-30],[200,55],[38,-33],[94,11],[168,-51],[87,-16],[84,30],[40,-28],[130,-9],[93,47],[-49,38],[28,68],[159,-122],[55,47],[93,-27],[-2,-76],[-103,-39],[-54,-72],[-103,-77],[-33,-71],[52,-112],[31,7],[130,-73],[60,-6],[20,-110],[62,15],[-12,58],[57,89],[-44,84],[27,38],[-17,92],[94,4],[94,-51],[6,-78],[69,-7],[35,58],[111,-189],[50,-22],[36,-92],[-96,-70],[-141,-1],[30,-36],[13,-111],[76,-36],[-96,-64],[-39,59]],[[2494,4999],[-14,71],[-32,15],[-51,-91],[-74,0],[-43,-51],[-124,-72],[-3,136],[-51,57],[-77,52],[-72,-6],[-78,32],[-122,0],[-141,0],[-199,0],[-150,0]],[[2030,6081],[-105,55],[288,-35],[-183,-20]],[[2749,5228],[-5,-64],[52,-13],[9,-96],[-70,36],[-67,-1],[56,137],[25,1]],[[2237,6006],[21,15],[240,-132],[106,-112],[-70,-66],[-19,-91],[-107,37],[-152,88],[80,19],[36,54],[-102,92],[-170,8],[-100,29],[-16,55],[175,56],[78,-52]],[[1292,6083],[133,-36],[-167,-95],[-63,36],[97,95]],[[1595,6135],[-97,-53],[-122,30],[51,47],[168,-24]],[[1624,6033],[45,-77],[77,-36],[-32,-47],[-78,16],[-162,-24],[-62,23],[-73,89],[93,64],[192,-8]],[[1856,6311],[181,-10],[44,-37],[-156,-36],[-69,83]],[[1954,6359],[271,46],[385,-29],[-205,-95],[-190,-95],[-18,-39],[-197,11],[97,107],[-143,94]],[[2494,4999],[-66,-54],[-11,-81],[-74,-32],[-39,-99],[0,-89],[-62,-62],[-62,-90],[-3,-26],[31,-142],[-24,-62],[-37,99],[-19,76],[-31,-11],[-29,28],[-61,-3],[-5,-43],[-49,19],[-68,-7],[-59,-78],[-4,-57]],[[1822,4285],[-33,20],[-42,111],[-78,7],[-45,81],[-38,-15],[-62,0],[-84,44],[-51,0]],[[1389,4533],[-30,55],[-41,16],[-75,166],[-14,51],[-3,90],[14,102],[-18,99],[41,30]],[[1093,5357],[-32,25],[-46,98],[-82,13],[-46,39],[-91,17],[-69,33],[-20,-34],[-138,-68],[-77,-21],[-91,76],[-43,6],[-51,63],[34,61],[80,40],[-121,17],[-37,37],[80,33],[-20,54],[77,85],[117,38],[96,-28],[249,-33]],[[5908,5150],[-35,-28],[-14,-54],[-43,12],[-16,-66],[-55,-23],[19,-64],[-13,-31]],[[5751,4896],[-25,19],[-109,16],[-16,-29],[-55,-9]],[[5546,4893],[-42,-33],[-52,-8],[-14,68],[-26,27],[-64,-8],[-78,77],[-57,-22],[1,-137]],[[5214,4857],[-41,38],[-35,-20]],[[5138,4875],[0,37],[-36,46],[9,45],[39,1],[0,59],[-41,7],[-47,-24]],[[5062,5046],[-58,74],[24,76],[71,46],[35,1],[75,-41],[94,50],[38,37],[-6,38],[83,13],[86,38],[39,-8],[78,-60],[47,24],[78,-123],[74,8],[48,-51],[40,-18]],[[5546,4893],[46,-52],[-45,-23]],[[5547,4818],[-38,18],[-25,-68],[-8,-65]],[[5476,4703],[-29,9]],[[5447,4712],[-91,99],[-11,38],[-40,13],[-32,49],[-59,-54]],[[7093,3233],[79,-46],[53,-106],[62,-136],[-41,10],[-41,76],[-29,16],[-32,-23],[-15,-40],[-35,8]],[[7094,2992],[-1,241]],[[7094,2992],[-52,67],[-17,71],[-61,34],[-70,61],[9,91],[35,-15],[10,-74],[23,-22],[18,39],[45,22],[59,-33]],[[6582,3482],[4,-68],[-12,-114],[-21,-26],[-12,-80],[-25,-17],[-36,37],[-67,7],[-3,49],[-22,42],[0,67],[13,25]],[[6401,3404],[19,-46],[51,27],[39,-3],[28,107],[44,-7]],[[6694,3362],[-61,-24],[-3,-28],[32,-51],[37,-103],[-12,-35],[-51,100],[3,-96],[-24,5],[3,70],[-16,26],[28,124],[19,28],[45,-16]],[[6375,3092],[91,-20],[19,-51],[-115,21],[-64,34],[15,35],[54,-19]],[[6284,3289],[11,-46],[27,-27],[-6,-103],[-25,-1],[-47,61],[-88,224],[-71,116],[47,10],[69,-116],[23,-1],[60,-117]],[[2461,1382],[37,-83]],[[2498,1299],[-37,1],[0,82]],[[2704,2212],[-18,-137]],[[2686,2075],[27,-51],[10,-60],[-22,-47],[-32,-20],[-69,-4],[4,-68],[-65,-15],[16,-67],[-26,-80],[-45,-46],[43,-35],[-77,-129],[12,-58]],[[2462,1395],[-74,10],[-31,61],[39,178],[-13,122],[23,207],[29,91],[-16,105],[19,108],[30,57],[-2,88],[24,19],[5,47]],[[2495,2488],[18,34],[79,-16]],[[2592,2506],[41,-60],[68,-47],[-19,-73],[47,-16],[38,35],[3,32]],[[2770,2377],[22,-44],[-33,-35],[-55,-86]],[[2498,1299],[-26,-27],[-64,21],[17,78],[36,11]],[[2462,1395],[-88,-46],[-53,47],[-15,208],[21,32],[22,216],[12,104],[38,174],[-1,132],[13,45],[18,231],[-7,113]],[[2422,2651],[18,28]],[[2440,2679],[25,-67],[-7,-36],[21,-93],[16,5]],[[4657,3021],[-45,-7],[-12,-139],[-53,18],[-41,32]],[[4506,2925],[-39,-6],[-9,141],[-51,5],[-9,-31],[-34,-3],[-26,81],[-88,-8]],[[4250,3104],[-3,11]],[[4247,3115],[18,37]],[[4265,3152],[35,-7],[31,54],[9,66],[25,37],[20,157]],[[4385,3459],[23,56],[65,-37],[44,40],[65,5]],[[4582,3523],[24,-35],[28,12],[25,-41]],[[4659,3459],[-21,-108],[-7,-71]],[[4631,3280],[-12,-56]],[[4619,3224],[7,-61]],[[4896,3267],[-13,31],[0,134],[19,42]],[[4902,3474],[40,39],[29,1],[63,111]],[[5034,3625],[25,54],[0,72]],[[5059,3751],[48,23],[-2,-51],[-35,-142],[-64,-146],[-75,-95],[-35,-73]],[[4727,3294],[-1,39],[26,67],[-23,87]],[[4729,3487],[28,46]],[[4757,3533],[20,-39],[75,-38],[26,31],[24,-13]],[[4896,3267],[-29,-33],[-23,-78]],[[4520,3634],[-24,27],[-13,81]],[[4483,3742],[-19,67],[22,100],[19,-2],[-1,147]],[[4504,4054],[26,15],[0,74]],[[4530,4143],[89,0],[173,0]],[[4792,4143],[14,-125],[20,-23]],[[4826,3995],[-34,-38],[-10,-94]],[[4782,3863],[-12,-68],[-36,-72],[-6,-72]],[[4728,3651],[-17,129],[-41,-88],[-30,18],[-22,-33],[-55,6],[-32,26],[-11,-75]],[[4483,3742],[-41,-62],[-43,-15],[-25,-44],[-59,-17]],[[4315,3604],[-6,51],[-23,28],[21,49],[-9,73]],[[4298,3805],[-21,56],[9,49],[28,34],[15,140],[-23,91]],[[4306,4175],[22,20],[88,-70],[88,-71]],[[2393,4059],[0,-62]],[[2393,3997],[-22,15],[22,47]],[[2393,4059],[20,6],[55,-47],[-75,-21]],[[5062,5046],[-53,-66],[42,-104]],[[5051,4876],[-48,2]],[[5003,4878],[-21,24],[-122,34]],[[4860,4936],[-53,45],[15,91]],[[4822,5072],[34,29],[7,63],[-104,36],[-36,65],[-43,-8]],[[4680,5257],[-20,127],[-60,23]],[[4600,5407],[-20,49]],[[4580,5456],[16,74]],[[4596,5530],[2,38]],[[4598,5568],[68,68],[-36,96],[-21,152]],[[4609,5884],[56,19]],[[4665,5903],[119,-19],[84,-42],[18,-42],[-60,-29],[-79,-4],[3,-55],[199,61],[216,104],[79,-15],[137,40],[75,-3],[-5,58],[72,74],[127,-27],[88,1],[19,49],[139,11],[8,43],[259,49],[120,47],[149,-37],[62,-51],[2,-64],[287,-1],[33,-59],[119,-22],[133,4],[13,50],[200,-24],[77,-50],[89,7],[87,-59],[152,5],[58,19],[117,-8],[94,-33],[0,-148],[-14,-74],[-126,-49],[-66,-49],[-97,-20],[-61,3],[-33,-60],[26,-23],[-24,-102],[-118,-143],[-30,162],[31,91],[34,8],[39,92],[-18,46],[-57,-13],[-56,-62],[-65,-36],[-128,20],[-72,-11],[-157,-159],[46,-28],[60,8],[32,-41],[-29,-171],[-40,-80],[-74,-107],[-58,-4],[-33,-40],[0,0],[0,0]],[[6867,4891],[-3,7]],[[6864,4898],[9,95],[46,6],[42,124],[-89,-26],[-35,61],[-39,12],[-37,112],[-53,25],[-57,-8],[-6,-47],[-63,-91],[-26,14]],[[6556,5175],[-51,13],[-82,-41],[-49,5],[-35,37],[-71,-7],[-35,44],[-71,29],[-35,-86],[-111,40],[-99,-56]],[[5917,5153],[-9,-3]],[[4480,5339],[-68,4]],[[4412,5343],[35,28]],[[4447,5371],[33,-32]],[[5160,6058],[76,-116],[-72,5],[-49,46],[45,65]],[[112,5816],[68,-11],[-45,-98],[-99,41],[-36,-15],[0,148],[112,-65]],[[2250,4262],[6,-2],[8,-30],[-19,8],[5,24]],[[2625,1411],[27,22],[43,-24],[-59,-14],[-11,16]],[[4609,5884],[-85,-15],[-90,17]],[[4434,5886],[-86,-41],[-107,-180],[16,-68],[-36,-90]],[[4221,5507],[-58,-20],[-60,10],[-15,125],[122,93],[94,123],[97,74],[199,51],[65,-60]],[[2944,6386],[435,33],[329,-82],[-166,-94],[27,-66],[-20,-99],[-90,-82],[25,-72],[-120,-62],[-112,-27],[-78,-65],[-76,-19],[-79,-198],[-108,28],[-74,102],[-52,132],[22,43],[-38,46],[15,72],[-101,147],[-219,20],[-103,88],[232,123],[351,32]],[[5501,1531],[35,-17],[-6,-24],[-33,-2],[4,43]],[[6742,2982],[-3,18],[37,19],[7,-10],[-41,-27]],[[4339,2272],[47,-17],[31,22],[0,136]],[[4417,2413],[38,-72],[38,54],[52,-8],[32,70],[51,55]],[[4628,2512],[39,-6]],[[4667,2506],[16,-78],[-2,-55]],[[4681,2373],[-18,4],[-7,-37],[30,0]],[[4686,2340],[17,0]],[[4703,2340],[-8,-58],[-94,-165],[-54,-43],[-71,3],[-65,-36],[-30,35],[-1,82],[-41,114]],[[4618,2258],[-44,-34],[17,-28],[24,21],[3,41]],[[1822,4285],[-7,-125],[15,-67],[28,-67],[33,-25],[81,42],[11,63],[71,20],[-28,-112]],[[2026,4014],[-18,-26]],[[2008,3988],[-41,0],[11,-64],[-28,0],[-10,-57]],[[1940,3867],[-55,62],[-41,-21],[-95,57],[-59,41],[-33,38],[-22,128],[-73,136],[-64,92],[-21,82],[-33,-37],[67,-129],[29,-120],[-41,49],[-3,47],[-48,41],[7,53],[-30,37],[-36,110]],[[2704,2212],[14,4],[71,-72],[9,-64]],[[2798,2080],[-34,-44],[-64,18],[-14,21]],[[2770,2377],[8,43],[-25,23],[-4,48],[-52,21],[-5,71]],[[2692,2583],[15,74],[-16,69],[-43,2],[-7,92],[-109,81],[2,67],[-29,-6],[-36,-40],[-28,2]],[[2441,2924],[-22,-2],[-37,35],[-39,94],[24,83],[46,38],[20,-2]],[[2433,3170],[10,102],[-13,51],[5,70],[65,-17]],[[2500,3376],[12,-20],[47,29],[-4,85],[75,27],[5,25]],[[2635,3522],[27,-46],[-10,-45],[21,-53],[55,22]],[[2728,3400],[45,15]],[[2773,3415],[35,-7],[28,75]],[[2836,3483],[38,-115],[-10,-42],[39,-5],[82,-49],[11,-22],[65,-28],[33,1],[61,-72],[44,-24],[11,-69],[-9,-61],[-42,-76],[-42,-102],[1,-69],[-19,-146],[-26,-86],[-23,-38],[-59,-14],[-40,-28],[-45,-66],[-9,-103],[-99,-189]],[[2440,2679],[20,186],[-19,59]],[[2692,2583],[-21,30],[-59,-10],[-20,-97]],[[2422,2651],[-24,36],[-100,100],[-24,90],[-59,186],[-33,39],[-3,52],[24,49]],[[2203,3203],[-3,-37],[40,-5],[17,57],[51,54],[4,52]],[[2312,3324],[38,-41],[13,-39],[50,2],[20,-76]],[[2312,3324],[-45,20],[-32,36]],[[2235,3380],[9,47],[29,45],[-16,125]],[[2257,3597],[11,53]],[[2268,3650],[37,29],[5,43],[91,43]],[[2401,3765],[-35,-49],[21,-128],[42,-1],[15,-32],[45,0],[-10,-59],[21,-120]],[[2257,3597],[-28,65],[-30,-33],[-55,5]],[[2144,3634],[9,49]],[[2153,3683],[25,-29],[41,31],[49,-35]],[[2144,3634],[-15,30],[-47,40],[1,36]],[[2083,3740],[46,-6]],[[2129,3734],[24,-51]],[[2083,3740],[-35,70]],[[2048,3810],[53,67],[39,7]],[[2140,3884],[-11,-150]],[[2048,3810],[-10,14]],[[2038,3824],[-35,39]],[[2003,3863],[25,48]],[[2028,3911],[85,4],[27,-31]],[[2038,3824],[-51,13]],[[1987,3837],[16,26]],[[2008,3988],[4,-71]],[[2012,3917],[16,-6]],[[1987,3837],[-47,30]],[[2026,4014],[-1,-73],[-13,-24]],[[2401,3765],[54,-12],[16,-33],[85,3],[35,-8],[66,-76]],[[2657,3639],[-36,-89],[14,-28]],[[2657,3639],[58,-89]],[[2715,3550],[-20,-70],[33,-80]],[[2715,3550],[70,-8]],[[2785,3542],[-1,-79],[-11,-48]],[[2785,3542],[51,-59]],[[4114,5159],[42,-16],[-14,-52]],[[4142,5091],[-13,-60]],[[4129,5031],[13,-85]],[[4142,4946],[-64,-11],[-35,-34]],[[4043,4901],[-25,-5],[-83,40]],[[3935,4936],[16,96],[-39,57],[44,66],[77,66]],[[4033,5221],[70,-59]],[[4103,5162],[11,-3]],[[2203,3203],[-14,87],[19,68],[27,22]],[[2513,4014],[9,-20],[-29,-1],[2,21],[18,0]],[[2263,4013],[27,-12],[-19,-17],[-8,29]],[[2160,4187],[86,-25],[41,-48],[19,-49],[-47,-1],[-21,64],[-69,22],[-9,37]],[[4628,2512],[-31,23],[-61,138]],[[4536,2673],[39,-7],[55,85],[16,5]],[[4646,2756],[57,-45],[-1,-111],[-35,-94]],[[4417,2413],[0,108],[22,1],[1,132],[92,22]],[[4532,2676],[4,-3]],[[4339,2272],[-25,55],[-21,184],[-20,46],[-36,132]],[[4237,2689],[144,0],[69,-23],[40,15]],[[4490,2681],[42,-5]],[[3608,3832],[-10,49],[16,45]],[[3614,3926],[41,17],[54,-73]],[[3709,3870],[14,-80]],[[3723,3790],[-48,5]],[[3675,3795],[-66,-7]],[[3609,3788],[-4,28]],[[3605,3816],[20,-1],[7,18],[-24,-1]],[[3709,3870],[11,29],[135,4],[-9,190],[-11,160],[34,0]],[[3869,4253],[74,-80],[104,-115],[25,-20]],[[4072,4038],[0,-85],[-14,-48],[-72,-23]],[[3986,3882],[-53,-14],[-71,-105],[-4,-50]],[[3858,3713],[-58,-6]],[[3800,3707],[-24,78],[-23,-17],[-30,22]],[[3786,4343],[83,-90]],[[3614,3926],[4,147],[-18,33]],[[4037,3561],[-18,-4]],[[4019,3557],[-5,110],[-17,69]],[[3997,3736],[28,35]],[[4025,3771],[32,-10]],[[4057,3761],[2,-59],[-21,-58],[-1,-83]],[[4298,3805],[-7,-14]],[[4291,3791],[-19,40],[-23,-19],[-48,9],[-24,-17],[-103,34],[-17,-77]],[[4025,3771],[-25,34],[-14,77]],[[4072,4038],[31,16],[64,73],[76,71]],[[4243,4198],[63,-23]],[[4291,3791],[-54,-203],[-55,-20],[-17,-62]],[[4165,3506],[-57,-19],[-35,74],[-36,0]],[[4315,3604],[-16,-44],[-2,-56],[34,-91]],[[4331,3413],[-65,0]],[[4266,3413],[-39,0]],[[4227,3413],[-36,1]],[[4191,3414],[3,29],[-29,63]],[[4019,3557],[-18,-8]],[[4001,3549],[-13,55],[-10,133]],[[3978,3737],[19,-1]],[[4001,3549],[-67,-45],[-20,10]],[[3914,3514],[-8,47],[15,72],[-6,53]],[[3915,3686],[-2,49],[65,2]],[[3858,3713],[24,-28],[33,1]],[[3914,3514],[-65,0],[-42,-23]],[[3807,3491],[3,49],[-23,29],[4,45]],[[3791,3614],[13,33],[-4,60]],[[3791,3614],[-40,26]],[[3751,3640],[-19,61],[-47,-42]],[[3685,3659],[-42,79]],[[3643,3738],[32,57]],[[3643,3738],[-34,50]],[[3807,3491],[-28,17],[-54,72]],[[3725,3580],[26,60]],[[3725,3580],[-34,38],[-6,41]],[[4385,3459],[-29,8],[-25,-54]],[[4520,3634],[62,-111]],[[4265,3152],[-24,-9]],[[4241,3143],[-18,39]],[[4223,3182],[31,59],[33,-3],[9,42],[-30,133]],[[4223,3182],[-51,106],[15,79]],[[4187,3367],[40,1],[0,45]],[[4187,3367],[4,47]],[[4701,2988],[16,-48],[-6,-127]],[[4711,2813],[-67,-31],[2,-26]],[[4490,2681],[-29,54],[1,117],[46,0],[-2,73]],[[4741,2903],[0,-76],[25,-38],[2,-48],[-31,-10],[2,58],[-28,24]],[[4868,2948],[11,-162],[-30,-75],[-45,-32],[-58,-82],[17,-85],[-2,-75],[-64,-59],[6,-38]],[[4686,2340],[-5,33]],[[4247,3115],[-6,28]],[[4237,2689],[1,56],[21,98],[20,41],[-9,129],[-20,91]],[[4619,3224],[32,16]],[[4767,4539],[-4,-11]],[[4763,4528],[-8,5],[-6,-44],[11,5]],[[4760,4494],[-11,-73]],[[4749,4421],[-2,9]],[[4747,4430],[-12,54]],[[4735,4484],[19,69]],[[4754,4553],[15,7]],[[4769,4560],[-2,-21]],[[4754,4553],[19,58]],[[4773,4611],[-4,-51]],[[5072,2868],[21,-102],[-22,-69],[-21,-126],[-32,-164],[-37,-25],[-30,23],[-18,108],[25,74],[-9,98],[11,44],[41,17],[71,122]],[[4763,4528],[-3,-34]],[[3605,3816],[3,16]],[[4187,4451],[-9,66],[-32,46],[18,133]],[[4164,4696],[24,15],[31,-61],[-17,-51],[29,-44]],[[4231,4555],[-44,-104]],[[3786,4352],[0,44],[76,43],[35,61],[52,23],[-19,107]],[[3930,4630],[80,54],[106,18],[48,-6]],[[4187,4451],[8,-50],[-3,-91],[13,-79],[38,-33]],[[4767,4539],[24,-14],[44,39]],[[4835,4564],[9,-45]],[[4844,4519],[-49,-24],[22,-37],[-42,-49],[-25,6]],[[4750,4415],[-1,6]],[[5117,4226],[54,-4],[46,71],[4,-12],[3,-30]],[[5224,4251],[-27,-82]],[[5197,4169],[-70,11],[-10,46]],[[5100,4245],[5,46],[12,-7],[-4,-44]],[[5113,4240],[-13,5]],[[5038,4438],[9,-52]],[[5047,4386],[-40,20]],[[5007,4406],[31,32]],[[4835,4564],[49,39],[6,71],[23,33]],[[4913,4707],[54,-3]],[[4967,4704],[29,-55],[-15,-63],[42,-56],[28,-94]],[[5051,4436],[-13,2]],[[5007,4406],[-42,3],[-62,74],[-59,36]],[[5224,4251],[51,-50],[24,-46],[-45,-120],[-55,-68],[-48,-22]],[[5151,3945],[-24,87]],[[5127,4032],[66,37],[15,74],[-11,26]],[[7663,2750],[-3,38],[10,-11],[4,-30],[-11,3]],[[6244,3780],[9,76],[50,1]],[[6303,3857],[47,-2]],[[6350,3855],[3,-69],[-70,-69]],[[6283,3717],[-18,6],[-21,57]],[[6244,3780],[-35,46],[-21,-41],[-19,-87],[28,-94],[38,-44]],[[6235,3560],[-46,9]],[[6189,3569],[-35,70],[1,58]],[[6155,3697],[23,72],[-25,101],[10,58],[-23,51],[9,79],[41,27]],[[6190,4085],[44,-86],[41,5],[36,-99],[-8,-48]],[[6190,4085],[23,37]],[[6213,4122],[22,38]],[[6235,4160],[23,-62],[27,-1],[15,-77],[54,-128],[-4,-37]],[[6155,3697],[5,56],[-26,172],[-9,31],[-40,-45],[-26,12],[3,80],[-43,91]],[[6019,4094],[6,51]],[[6025,4145],[32,67],[22,100],[49,63]],[[6128,4375],[30,-28],[0,-59],[-21,-31],[21,-37],[12,-72],[43,-26]],[[6235,4160],[70,33],[60,-66]],[[6365,4127],[-29,-32],[-24,-61],[38,-87],[33,-53],[11,-68],[-3,-65],[-90,-114],[-18,70]],[[6867,4891],[-23,-49],[-48,-42],[18,-42]],[[6814,4758],[-48,-32]],[[6766,4726],[-33,13],[-10,67]],[[6723,4806],[58,70],[83,22]],[[6814,4758],[24,-68],[-8,-63],[-58,-25],[-6,124]],[[6556,5175],[-27,-65],[57,-3],[-14,-51],[-181,-154],[-94,-34],[-69,34],[-121,8],[-23,56],[-97,39],[1,59],[-71,89]],[[6025,4145],[-16,77],[-45,42],[-40,-28],[21,-91]],[[5945,4145],[-46,-20],[-10,-50],[-57,-69],[-80,-88],[0,-107],[-10,-98],[-51,-89],[-21,35],[-38,142],[-9,69],[-21,51],[-15,119],[-5,79],[-47,-17],[-51,104]],[[5484,4206],[15,24],[48,0],[-19,79],[10,56],[26,-3],[58,113],[-4,140],[58,-4],[21,31]],[[5697,4642],[24,-43],[-4,-104],[53,-49]],[[5770,4446],[-23,-51],[114,-77],[62,-11],[2,54]],[[5925,4361],[15,-22]],[[5940,4339],[21,-21],[43,39]],[[6004,4357],[63,55],[34,7],[27,-44]],[[6019,4094],[-21,78],[-26,-35],[-27,8]],[[5940,4339],[27,37],[37,-19]],[[5770,4446],[27,-3],[77,-70],[51,-12]],[[5484,4206],[-40,64],[-108,-13]],[[5336,4257],[9,43],[32,19],[-13,56],[-41,58]],[[5323,4433],[37,-19],[84,21],[13,52],[44,12],[43,88],[21,93],[73,23]],[[5638,4703],[23,-46],[36,-15]],[[5476,4703],[82,29],[76,-18]],[[5634,4714],[4,-11]],[[5323,4433],[-8,142],[15,73]],[[5330,4648],[23,-14],[94,78]],[[5547,4818],[17,-36],[42,6]],[[5606,4788],[28,-74]],[[5751,4896],[-46,-43],[-96,-48],[-3,-17]],[[5330,4648],[-44,65],[-82,21],[-35,-29]],[[5169,4705],[-1,65],[-26,40],[45,34],[-49,31]],[[4967,4704],[0,94]],[[4967,4798],[30,-35],[8,1]],[[5005,4764],[26,27],[27,-44]],[[5058,4747],[7,-27],[67,-33],[37,18]],[[5336,4257],[-90,25],[-20,51],[-39,-24],[-71,51],[-31,85],[-34,-9]],[[4773,4611],[3,44]],[[4776,4655],[21,29],[116,23]],[[4967,4798],[-26,51]],[[4941,4849],[30,6]],[[4971,4855],[34,-91]],[[4434,5886],[64,-43],[8,-72]],[[4506,5771],[-134,-120],[-16,-52],[37,-47],[-44,-50],[-21,-97],[-64,-28],[-43,130]],[[4680,5257],[-56,-27],[-104,19],[-23,-12]],[[4497,5237],[-1,87]],[[4496,5324],[46,13],[21,50]],[[4563,5387],[37,20]],[[4822,5072],[-71,-51],[-35,9],[-59,23],[-25,-48]],[[4632,5005],[-31,7]],[[4601,5012],[34,32],[-14,55],[-55,14]],[[4566,5113],[-87,-12]],[[4479,5101],[-13,20]],[[4466,5121],[10,24]],[[4476,5145],[32,60],[-11,32]],[[4480,5339],[16,-15]],[[4476,5145],[-82,15]],[[4394,5160],[-85,60]],[[4309,5220],[-19,98]],[[4290,5318],[77,40],[45,-15]],[[4353,5110],[-17,-47]],[[4336,5063],[-53,-13]],[[4283,5050],[-75,14]],[[4208,5064],[-18,23]],[[4190,5087],[75,5],[13,45]],[[4278,5137],[74,-10]],[[4352,5127],[1,-17]],[[4479,5101],[-55,-65]],[[4424,5036],[-30,-8]],[[4394,5028],[-50,22]],[[4344,5050],[-8,13]],[[4353,5110],[19,-14],[65,32],[29,-7]],[[4601,5012],[-2,49],[-33,52]],[[4632,5005],[-23,-59]],[[4609,4946],[-66,0],[-65,20]],[[4478,4966],[-54,70]],[[4447,5371],[-4,31]],[[4443,5402],[84,13],[36,-28]],[[4443,5402],[11,51],[61,14]],[[4515,5467],[65,-11]],[[4515,5467],[-22,52],[103,11]],[[4114,5159],[-3,25]],[[4111,5184],[3,25]],[[4114,5209],[16,99]],[[4130,5308],[36,55]],[[4166,5363],[31,0]],[[4197,5363],[93,-45]],[[4309,5220],[-61,-31],[30,-52]],[[4190,5087],[-48,4]],[[4609,4946],[-13,-63]],[[4596,4883],[-41,-6]],[[4555,4877],[-70,-18]],[[4485,4859],[-13,36]],[[4472,4895],[6,71]],[[4555,4877],[-2,-37]],[[4553,4840],[-71,-44],[27,-74],[-53,-30],[-33,103]],[[4423,4795],[19,45]],[[4442,4840],[43,19]],[[4776,4655],[-31,36],[-49,-26],[-42,21],[-20,-20],[-46,19],[-29,58],[-3,46],[68,65],[42,-5],[52,35],[37,1],[70,-41],[71,22]],[[4896,4866],[45,-17]],[[4596,4883],[-43,-43]],[[4423,4795],[-17,84]],[[4406,4879],[15,26]],[[4421,4905],[11,-27]],[[4432,4878],[10,-38]],[[4394,5028],[3,-39]],[[4397,4989],[-71,-2],[62,-80]],[[4388,4907],[-3,-6]],[[4385,4901],[-54,38],[-50,74]],[[4281,5013],[35,-2],[28,39]],[[4208,5064],[-79,-33]],[[4103,5162],[8,22]],[[4033,5221],[18,8]],[[4051,5229],[63,-20]],[[4051,5229],[30,64],[49,15]],[[3778,4879],[52,0],[-17,-177]],[[3813,4702],[-32,-9],[-14,69],[17,75],[-6,42]],[[4043,4901],[-48,-54],[-33,-125],[-32,-36],[-49,0],[-22,-27],[-46,43]],[[3778,4879],[-8,42],[31,27],[134,-12]],[[3841,5322],[-14,-59],[-39,-22],[-25,82],[47,46],[31,-47]],[[7641,2550],[-7,-23],[-29,46],[7,12],[29,-35]],[[7505,3033],[6,-19],[-29,28],[-5,17],[28,-26]],[[7886,1847],[-19,-45],[-48,66],[19,79],[84,-12],[-36,-88]],[[7727,1718],[53,96],[48,-30],[-62,-91],[-18,-62],[-29,-27],[-58,16],[8,41],[58,57]],[[7241,1820],[15,-47],[-51,-55],[-30,89],[66,13]],[[6765,2138],[-43,-28],[-12,-34],[-83,-4],[-41,-40],[-67,32],[17,74],[-16,102],[-20,49],[-17,138],[28,95],[46,42],[91,37],[31,55],[1,35],[75,112],[30,15],[29,-39],[23,17],[27,70],[65,27],[75,-21],[-34,-87],[85,-98],[35,0],[19,86],[-1,97],[19,65],[31,-144],[32,-16],[22,-147],[55,-53],[18,-72],[70,-108],[16,-106],[-15,-130],[-26,-52],[-36,-125],[-2,-37],[-37,-14],[-44,-46],[-41,35],[-19,-26],[-66,29],[-23,69],[-32,20],[-85,111],[-66,41],[-114,-26]],[[5785,3608],[-4,-39],[-28,-19],[-14,83],[25,39],[21,-64]],[[6723,4806],[-47,-28],[-16,22],[-85,-38],[48,-58],[24,26],[34,-15],[-71,-94],[24,-21],[37,-98],[4,-69],[-76,-196],[-61,-65],[-89,-45],[-84,0]],[[6668,4232],[-22,-90],[-14,59],[36,31]],[[4283,5050],[2,-34]],[[4285,5016],[-35,-8],[6,-48],[73,-94],[36,-24],[-24,-40],[-96,70],[-71,99],[-32,-25]],[[4166,5363],[-10,58],[48,13],[-7,-71]],[[3909,5305],[-12,45],[-43,25],[-12,55],[25,68],[67,-35],[-3,-65],[57,-111],[2,-80],[-92,-20],[-37,66],[48,52]],[[3657,5788],[20,-49],[-112,-61],[-90,17],[-20,86],[68,-20],[134,27]],[[5051,4876],[23,-46],[-16,-83]],[[4971,4855],[32,23]],[[4896,4866],[-2,41],[-34,29]],[[6770,3641],[4,-46],[-52,-38],[-20,47],[4,47],[61,22],[3,-32]],[[6681,4004],[4,-42],[-19,-43],[1,-60],[-36,24],[14,131],[36,-10]],[[6235,3560],[27,-51],[3,-134],[-47,56],[-26,95],[-3,43]],[[6401,3404],[73,40],[27,53]],[[6501,3497],[25,-8],[3,42]],[[6529,3531],[28,55],[54,-57],[-29,-47]],[[6501,3497],[28,34]],[[4281,5013],[4,3]],[[4598,5568],[-115,-25],[-34,33],[-6,69],[96,93],[-33,33]],[[4352,5127],[42,33]],[[4826,3995],[19,-77],[84,-119]],[[4929,3799],[-16,-6]],[[4913,3793],[-32,59],[-40,23],[-59,-12]],[[7113,4779],[-21,-37],[-4,-87],[-40,-43],[-86,-3],[-64,-25],[-18,-91],[-43,68],[71,79],[68,4],[82,99],[11,87],[32,30],[12,-81]],[[7173,4956],[-32,-73],[-39,51],[13,80],[58,-58]],[[5151,3945],[-21,-39],[-57,-33],[-20,-26],[-115,-50],[-15,137]],[[4923,3934],[13,46],[80,-24],[47,62],[64,14]],[[5047,4386],[39,-69],[14,-72]],[[5113,4240],[4,-14]],[[4923,3934],[-41,116],[-40,67],[-14,89],[-74,162],[-4,47]],[[2902,442],[105,-16],[13,-57],[-188,3],[70,70]],[[2344,693],[93,75],[21,-108],[-114,33]],[[7955,196],[0,-196],[-7955,0],[0,196],[287,5],[408,-39],[125,39],[-236,32],[16,61],[124,51],[-51,49],[-128,11],[-36,65],[124,-4],[155,69],[202,46],[419,2],[51,19],[141,-54],[153,-4],[7,94],[88,-32],[175,23],[269,-36],[161,36],[37,50],[-27,57],[17,103],[104,99],[20,-57],[-75,-52],[88,-129],[18,-77],[-28,-47],[-191,-82],[-161,-64],[56,-70],[268,-55],[138,-41],[160,42],[469,51],[-25,40],[-135,34],[152,62],[169,28],[123,52],[5,50],[114,70],[64,-16],[183,15],[191,47],[215,5],[173,-21],[125,40],[25,32],[106,-47],[30,25],[278,113],[83,3],[53,-49],[117,-4],[107,-20],[14,-64],[-38,-23],[71,-66],[63,82],[83,15],[33,42],[81,41],[103,12],[271,-13],[69,62],[74,-51],[164,39],[44,-30],[116,-18],[32,23],[144,-7],[156,27],[35,-34],[177,1],[26,-36],[129,-37],[40,12],[108,-38],[77,-42],[127,-9],[62,-27],[-43,-72],[-70,-27],[-58,-100],[78,-62],[-116,-15],[-44,-66],[447,-139]],[[4701,4629],[20,9],[7,-12]],[[4728,4626],[-27,3]],[[4728,4626],[-22,-18],[-5,21]],[[3601,4122],[57,179],[41,66],[20,4],[47,66],[-5,46],[25,76],[39,32],[21,61],[84,-22]],[[4530,4143],[0,136],[4,218]],[[4534,4497],[82,-26],[46,26],[73,-13]],[[4747,4430],[-9,-52],[-24,-24],[78,-211]],[[4231,4555],[83,-32],[11,-33],[74,-41],[39,90],[45,-2],[51,-40]],[[4757,3533],[-44,105],[15,13]],[[4913,3793],[10,-59]],[[4923,3734],[20,-65],[72,-44],[19,0]],[[4929,3799],[2,-46]],[[4931,3753],[-8,-19]],[[4931,3753],[21,-37],[107,35]],[[4650,3287],[-19,-7]],[[4659,3459],[70,28]],[[4397,4989],[5,-50]],[[4402,4939],[-14,-32]],[[4432,4878],[22,14]],[[4454,4892],[18,3]],[[4454,4892],[-29,21]],[[4425,4913],[-23,26]],[[4406,4879],[-21,22]],[[4425,4913],[-4,-8]],[[2615,3727],[17,4],[-1,-28],[-18,-4],[2,28]]],"transform":{"scale":[0.04525455688246386,0.02703219504595731],"translate":[-180,-90]},"objects":{"world_110m":{"type":"GeometryCollection","geometries":[{"arcs":[[0]],"type":"Polygon","properties":{"ADM0_A3":"FJI","NAME":"Fiji","CONTINENT":"Oceania","ISO_A2":"FJ","TYPE":"Sovereign country","POP_EST":889953,"REGION_UN":"Oceania","SUBREGION":"Melanesia"},"id":"FJI"},{"arcs":[[1,2,3,4,5,6,7,8,9]],"type":"Polygon","properties":{"ADM0_A3":"TZA","NAME":"Tanzania","CONTINENT":"Africa","ISO_A2":"TZ","TYPE":"Sovereign country","POP_EST":58005463,"REGION_UN":"Africa","SUBREGION":"Eastern Africa"},"id":"TZA"},{"arcs":[[10,11,12,13]],"type":"Polygon","properties":{"ADM0_A3":"SAH","NAME":"W. Sahara","CONTINENT":"Africa","ISO_A2":"EH","TYPE":"Indeterminate","POP_EST":603253,"REGION_UN":"Africa","SUBREGION":"Northern Africa"},"id":"SAH"},{"arcs":[[[14,15,16,17]],[[18]],[[19]],[[20]],[[21]],[[22]],[[23]],[[24]],[[25]]],"type":"MultiPolygon","properties":{"ADM0_A3":"CAN","NAME":"Canada","CONTINENT":"North America","ISO_A2":"CA","TYPE":"Sovereign country","POP_EST":37589262,"REGION_UN":"Americas","SUBREGION":"Northern America"},"id":"CAN"},{"arcs":[[[-18,26,27,28]],[[-16,29]]],"type":"MultiPolygon","properties":{"ADM0_A3":"USA","NAME":"United States of America","CONTINENT":"North America","ISO_A2":"US","TYPE":"Country","POP_EST":328239523,"REGION_UN":"Americas","SUBREGION":"Northern America"},"id":"USA"},{"arcs":[[30,31,32,33,34,35]],"type":"Polygon","properties":{"ADM0_A3":"KAZ","NAME":"Kazakhstan","CONTINENT":"Asia","ISO_A2":"KZ","TYPE":"Sovereignty","POP_EST":18513930,"REGION_UN":"Asia","SUBREGION":"Central Asia"},"id":"KAZ"},{"arcs":[[-33,36,37,38,39]],"type":"Polygon","properties":{"ADM0_A3":"UZB","NAME":"Uzbekistan","CONTINENT":"Asia","ISO_A2":"UZ","TYPE":"Sovereign country","POP_EST":33580650,"REGION_UN":"Asia","SUBREGION":"Central Asia"},"id":"UZB"},{"arcs":[[40,41]],"type":"Polygon","properties":{"ADM0_A3":"PNG","NAME":"Papua New Guinea","CONTINENT":"Oceania","ISO_A2":"PG","TYPE":"Sovereign country","POP_EST":8776109,"REGION_UN":"Oceania","SUBREGION":"Melanesia"},"id":"PNG"},{"arcs":[[[-42,42]],[[43,44]],[[45]],[[46]],[[47]]],"type":"MultiPolygon","properties":{"ADM0_A3":"IDN","NAME":"Indonesia","CONTINENT":"Asia","ISO_A2":"ID","TYPE":"Sovereign country","POP_EST":270625568,"REGION_UN":"Asia","SUBREGION":"South-Eastern Asia"},"id":"IDN"},{"arcs":[[[48,49]],[[50,51,52,53,54,55]]],"type":"MultiPolygon","properties":{"ADM0_A3":"ARG","NAME":"Argentina","CONTINENT":"South America","ISO_A2":"AR","TYPE":"Sovereign country","POP_EST":44938712,"REGION_UN":"Americas","SUBREGION":"South America"},"id":"ARG"},{"arcs":[[[-50,56]],[[-53,57,58,59]]],"type":"MultiPolygon","properties":{"ADM0_A3":"CHL","NAME":"Chile","CONTINENT":"South America","ISO_A2":"CL","TYPE":"Sovereign country","POP_EST":18952038,"REGION_UN":"Americas","SUBREGION":"South America"},"id":"CHL"},{"arcs":[[-7,60,61,62,63,64,65,66,67,68,69]],"type":"Polygon","properties":{"ADM0_A3":"COD","NAME":"Dem. Rep. Congo","CONTINENT":"Africa","ISO_A2":"CD","TYPE":"Sovereign country","POP_EST":86790567,"REGION_UN":"Africa","SUBREGION":"Middle Africa"},"id":"COD"},{"arcs":[[70,71,72,73]],"type":"Polygon","properties":{"ADM0_A3":"SOM","NAME":"Somalia","CONTINENT":"Africa","ISO_A2":"SO","TYPE":"Sovereign country","POP_EST":10192317.3,"REGION_UN":"Africa","SUBREGION":"Eastern Africa"},"id":"SOM"},{"arcs":[[-2,74,75,76,-71,77]],"type":"Polygon","properties":{"ADM0_A3":"KEN","NAME":"Kenya","CONTINENT":"Africa","ISO_A2":"KE","TYPE":"Sovereign country","POP_EST":52573973,"REGION_UN":"Africa","SUBREGION":"Eastern Africa"},"id":"KEN"},{"arcs":[[78,79,80,81,82,83,84,85]],"type":"Polygon","properties":{"ADM0_A3":"SDN","NAME":"Sudan","CONTINENT":"Africa","ISO_A2":"SD","TYPE":"Sovereign country","POP_EST":42813238,"REGION_UN":"Africa","SUBREGION":"Northern Africa"},"id":"SDN"},{"arcs":[[-80,86,87,88,89]],"type":"Polygon","properties":{"ADM0_A3":"TCD","NAME":"Chad","CONTINENT":"Africa","ISO_A2":"TD","TYPE":"Sovereign country","POP_EST":15946876,"REGION_UN":"Africa","SUBREGION":"Middle Africa"},"id":"TCD"},{"arcs":[[90,91]],"type":"Polygon","properties":{"ADM0_A3":"HTI","NAME":"Haiti","CONTINENT":"North America","ISO_A2":"HT","TYPE":"Sovereign country","POP_EST":11263077,"REGION_UN":"Americas","SUBREGION":"Caribbean"},"id":"HTI"},{"arcs":[[-91,92]],"type":"Polygon","properties":{"ADM0_A3":"DOM","NAME":"Dominican Rep.","CONTINENT":"North America","ISO_A2":"DO","TYPE":"Sovereign country","POP_EST":10738958,"REGION_UN":"Americas","SUBREGION":"Caribbean"},"id":"DOM"},{"arcs":[[[-36,93,94,95,96,97,98,99,100,101,102,103,104,105,106,107,108]],[[109,110,111]],[[112]],[[113]]],"type":"MultiPolygon","properties":{"ADM0_A3":"RUS","NAME":"Russia","CONTINENT":"Europe","ISO_A2":"RU","TYPE":"Sovereign country","POP_EST":144373535,"REGION_UN":"Europe","SUBREGION":"Eastern Europe"},"id":"RUS"},{"arcs":[[114]],"type":"Polygon","properties":{"ADM0_A3":"BHS","NAME":"Bahamas","CONTINENT":"North America","ISO_A2":"BS","TYPE":"Sovereign country","POP_EST":389482,"REGION_UN":"Americas","SUBREGION":"Caribbean"},"id":"BHS"},{"arcs":[[115]],"type":"Polygon","properties":{"ADM0_A3":"FLK","NAME":"Falkland Is.","CONTINENT":"South America","ISO_A2":"FK","TYPE":"Disputed","POP_EST":3398,"REGION_UN":"Americas","SUBREGION":"South America"},"id":"FLK"},{"arcs":[[-104,116,117,118]],"type":"Polygon","properties":{"ADM0_A3":"NOR","NAME":"Norway","CONTINENT":"Europe","ISO_A2":"-99","TYPE":"Sovereign country","POP_EST":5347896,"REGION_UN":"Europe","SUBREGION":"Northern Europe"},"id":"NOR"},{"arcs":[[119]],"type":"Polygon","properties":{"ADM0_A3":"GRL","NAME":"Greenland","CONTINENT":"North America","ISO_A2":"GL","TYPE":"Country","POP_EST":56225,"REGION_UN":"Americas","SUBREGION":"Northern America"},"id":"GRL"},{"arcs":[[120]],"type":"Polygon","properties":{"ADM0_A3":"ATF","NAME":"Fr. S. Antarctic Lands","CONTINENT":"Seven seas (open ocean)","ISO_A2":"TF","TYPE":"Dependency","POP_EST":140,"REGION_UN":"Africa","SUBREGION":"Seven seas (open ocean)"},"id":"ATF"},{"arcs":[[121]],"type":"Polygon","properties":{"ADM0_A3":"TLS","NAME":"Timor-Leste","CONTINENT":"Asia","ISO_A2":"TL","TYPE":"Sovereign country","POP_EST":1293119,"REGION_UN":"Asia","SUBREGION":"South-Eastern Asia"},"id":"TLS"},{"arcs":[[122,123,124,125,126,127,128],[129]],"type":"Polygon","properties":{"ADM0_A3":"ZAF","NAME":"South Africa","CONTINENT":"Africa","ISO_A2":"ZA","TYPE":"Sovereign country","POP_EST":58558270,"REGION_UN":"Africa","SUBREGION":"Southern Africa"},"id":"ZAF"},{"arcs":[[-130]],"type":"Polygon","properties":{"ADM0_A3":"LSO","NAME":"Lesotho","CONTINENT":"Africa","ISO_A2":"LS","TYPE":"Sovereign country","POP_EST":2125268,"REGION_UN":"Africa","SUBREGION":"Southern Africa"},"id":"LSO"},{"arcs":[[-28,130,131,132,133]],"type":"Polygon","properties":{"ADM0_A3":"MEX","NAME":"Mexico","CONTINENT":"North America","ISO_A2":"MX","TYPE":"Sovereign country","POP_EST":127575529,"REGION_UN":"Americas","SUBREGION":"Central America"},"id":"MEX"},{"arcs":[[-51,134,135]],"type":"Polygon","properties":{"ADM0_A3":"URY","NAME":"Uruguay","CONTINENT":"South America","ISO_A2":"UY","TYPE":"Sovereign country","POP_EST":3461734,"REGION_UN":"Americas","SUBREGION":"South America"},"id":"URY"},{"arcs":[[-56,136,137,138,139,140,141,142,143,144,-135]],"type":"Polygon","properties":{"ADM0_A3":"BRA","NAME":"Brazil","CONTINENT":"South America","ISO_A2":"BR","TYPE":"Sovereign country","POP_EST":211049527,"REGION_UN":"Americas","SUBREGION":"South America"},"id":"BRA"},{"arcs":[[-54,-60,145,-138,146]],"type":"Polygon","properties":{"ADM0_A3":"BOL","NAME":"Bolivia","CONTINENT":"South America","ISO_A2":"BO","TYPE":"Sovereign country","POP_EST":11513100,"REGION_UN":"Americas","SUBREGION":"South America"},"id":"BOL"},{"arcs":[[-59,147,148,149,-139,-146]],"type":"Polygon","properties":{"ADM0_A3":"PER","NAME":"Peru","CONTINENT":"South America","ISO_A2":"PE","TYPE":"Sovereign country","POP_EST":32510453,"REGION_UN":"Americas","SUBREGION":"South America"},"id":"PER"},{"arcs":[[-140,-150,150,151,152,153,154]],"type":"Polygon","properties":{"ADM0_A3":"COL","NAME":"Colombia","CONTINENT":"South America","ISO_A2":"CO","TYPE":"Sovereign country","POP_EST":50339443,"REGION_UN":"Americas","SUBREGION":"South America"},"id":"COL"},{"arcs":[[-153,155,156,157]],"type":"Polygon","properties":{"ADM0_A3":"PAN","NAME":"Panama","CONTINENT":"North America","ISO_A2":"PA","TYPE":"Sovereign country","POP_EST":4246439,"REGION_UN":"Americas","SUBREGION":"Central America"},"id":"PAN"},{"arcs":[[-157,158,159,160]],"type":"Polygon","properties":{"ADM0_A3":"CRI","NAME":"Costa Rica","CONTINENT":"North America","ISO_A2":"CR","TYPE":"Sovereign country","POP_EST":5047561,"REGION_UN":"Americas","SUBREGION":"Central America"},"id":"CRI"},{"arcs":[[-160,161,162,163]],"type":"Polygon","properties":{"ADM0_A3":"NIC","NAME":"Nicaragua","CONTINENT":"North America","ISO_A2":"NI","TYPE":"Sovereign country","POP_EST":6545502,"REGION_UN":"Americas","SUBREGION":"Central America"},"id":"NIC"},{"arcs":[[-163,164,165,166,167]],"type":"Polygon","properties":{"ADM0_A3":"HND","NAME":"Honduras","CONTINENT":"North America","ISO_A2":"HN","TYPE":"Sovereign country","POP_EST":9746117,"REGION_UN":"Americas","SUBREGION":"Central America"},"id":"HND"},{"arcs":[[-166,168,169]],"type":"Polygon","properties":{"ADM0_A3":"SLV","NAME":"El Salvador","CONTINENT":"North America","ISO_A2":"SV","TYPE":"Sovereign country","POP_EST":6453553,"REGION_UN":"Americas","SUBREGION":"Central America"},"id":"SLV"},{"arcs":[[-133,170,171,-167,-170,172]],"type":"Polygon","properties":{"ADM0_A3":"GTM","NAME":"Guatemala","CONTINENT":"North America","ISO_A2":"GT","TYPE":"Sovereign country","POP_EST":16604026,"REGION_UN":"Americas","SUBREGION":"Central America"},"id":"GTM"},{"arcs":[[-132,173,-171]],"type":"Polygon","properties":{"ADM0_A3":"BLZ","NAME":"Belize","CONTINENT":"North America","ISO_A2":"BZ","TYPE":"Sovereign country","POP_EST":390353,"REGION_UN":"Americas","SUBREGION":"Central America"},"id":"BLZ"},{"arcs":[[-141,-155,174,175]],"type":"Polygon","properties":{"ADM0_A3":"VEN","NAME":"Venezuela","CONTINENT":"South America","ISO_A2":"VE","TYPE":"Sovereign country","POP_EST":28515829,"REGION_UN":"Americas","SUBREGION":"South America"},"id":"VEN"},{"arcs":[[-142,-176,176,177]],"type":"Polygon","properties":{"ADM0_A3":"GUY","NAME":"Guyana","CONTINENT":"South America","ISO_A2":"GY","TYPE":"Sovereign country","POP_EST":782766,"REGION_UN":"Americas","SUBREGION":"South America"},"id":"GUY"},{"arcs":[[-143,-178,178,179]],"type":"Polygon","properties":{"ADM0_A3":"SUR","NAME":"Suriname","CONTINENT":"South America","ISO_A2":"SR","TYPE":"Sovereign country","POP_EST":581363,"REGION_UN":"Americas","SUBREGION":"South America"},"id":"SUR"},{"arcs":[[[-144,-180,180]],[[181,182,183,184,185,186,187,188]]],"type":"MultiPolygon","properties":{"ADM0_A3":"FRA","NAME":"France","CONTINENT":"Europe","ISO_A2":"-99","TYPE":"Country","POP_EST":67059887,"REGION_UN":"Europe","SUBREGION":"Western Europe"},"id":"FRA"},{"arcs":[[-149,189,-151]],"type":"Polygon","properties":{"ADM0_A3":"ECU","NAME":"Ecuador","CONTINENT":"South America","ISO_A2":"EC","TYPE":"Sovereign country","POP_EST":17373662,"REGION_UN":"Americas","SUBREGION":"South America"},"id":"ECU"},{"arcs":[[190]],"type":"Polygon","properties":{"ADM0_A3":"PRI","NAME":"Puerto Rico","CONTINENT":"North America","ISO_A2":"PR","TYPE":"Dependency","POP_EST":3193694,"REGION_UN":"Americas","SUBREGION":"Caribbean"},"id":"PRI"},{"arcs":[[191]],"type":"Polygon","properties":{"ADM0_A3":"JAM","NAME":"Jamaica","CONTINENT":"North America","ISO_A2":"JM","TYPE":"Sovereign country","POP_EST":2948279,"REGION_UN":"Americas","SUBREGION":"Caribbean"},"id":"JAM"},{"arcs":[[192]],"type":"Polygon","properties":{"ADM0_A3":"CUB","NAME":"Cuba","CONTINENT":"North America","ISO_A2":"CU","TYPE":"Sovereignty","POP_EST":11333483,"REGION_UN":"Americas","SUBREGION":"Caribbean"},"id":"CUB"},{"arcs":[[-125,193,194,195]],"type":"Polygon","properties":{"ADM0_A3":"ZWE","NAME":"Zimbabwe","CONTINENT":"Africa","ISO_A2":"ZW","TYPE":"Sovereign country","POP_EST":14645468,"REGION_UN":"Africa","SUBREGION":"Eastern Africa"},"id":"ZWE"},{"arcs":[[-124,196,197,-194]],"type":"Polygon","properties":{"ADM0_A3":"BWA","NAME":"Botswana","CONTINENT":"Africa","ISO_A2":"BW","TYPE":"Sovereign country","POP_EST":2303697,"REGION_UN":"Africa","SUBREGION":"Southern Africa"},"id":"BWA"},{"arcs":[[-123,198,199,200,-197]],"type":"Polygon","properties":{"ADM0_A3":"NAM","NAME":"Namibia","CONTINENT":"Africa","ISO_A2":"NA","TYPE":"Sovereign country","POP_EST":2494530,"REGION_UN":"Africa","SUBREGION":"Southern Africa"},"id":"NAM"},{"arcs":[[201,202,203,204,205,206,207]],"type":"Polygon","properties":{"ADM0_A3":"SEN","NAME":"Senegal","CONTINENT":"Africa","ISO_A2":"SN","TYPE":"Sovereign country","POP_EST":16296364,"REGION_UN":"Africa","SUBREGION":"Western Africa"},"id":"SEN"},{"arcs":[[-204,208,209,210,211,212,213]],"type":"Polygon","properties":{"ADM0_A3":"MLI","NAME":"Mali","CONTINENT":"Africa","ISO_A2":"ML","TYPE":"Sovereign country","POP_EST":19658031,"REGION_UN":"Africa","SUBREGION":"Western Africa"},"id":"MLI"},{"arcs":[[-12,214,-209,-203,215]],"type":"Polygon","properties":{"ADM0_A3":"MRT","NAME":"Mauritania","CONTINENT":"Africa","ISO_A2":"MR","TYPE":"Sovereign country","POP_EST":4525696,"REGION_UN":"Africa","SUBREGION":"Western Africa"},"id":"MRT"},{"arcs":[[216,217,218,219,220]],"type":"Polygon","properties":{"ADM0_A3":"BEN","NAME":"Benin","CONTINENT":"Africa","ISO_A2":"BJ","TYPE":"Sovereign country","POP_EST":11801151,"REGION_UN":"Africa","SUBREGION":"Western Africa"},"id":"BEN"},{"arcs":[[-89,221,222,-220,223,-211,224,225]],"type":"Polygon","properties":{"ADM0_A3":"NER","NAME":"Niger","CONTINENT":"Africa","ISO_A2":"NE","TYPE":"Sovereign country","POP_EST":23310715,"REGION_UN":"Africa","SUBREGION":"Western Africa"},"id":"NER"},{"arcs":[[-221,-223,226,227]],"type":"Polygon","properties":{"ADM0_A3":"NGA","NAME":"Nigeria","CONTINENT":"Africa","ISO_A2":"NG","TYPE":"Sovereign country","POP_EST":200963599,"REGION_UN":"Africa","SUBREGION":"Western Africa"},"id":"NGA"},{"arcs":[[-88,228,229,230,231,232,-227,-222]],"type":"Polygon","properties":{"ADM0_A3":"CMR","NAME":"Cameroon","CONTINENT":"Africa","ISO_A2":"CM","TYPE":"Sovereign country","POP_EST":25876380,"REGION_UN":"Africa","SUBREGION":"Middle Africa"},"id":"CMR"},{"arcs":[[-218,233,234,235]],"type":"Polygon","properties":{"ADM0_A3":"TGO","NAME":"Togo","CONTINENT":"Africa","ISO_A2":"TG","TYPE":"Sovereign country","POP_EST":8082366,"REGION_UN":"Africa","SUBREGION":"Western Africa"},"id":"TGO"},{"arcs":[[-235,236,237,238]],"type":"Polygon","properties":{"ADM0_A3":"GHA","NAME":"Ghana","CONTINENT":"Africa","ISO_A2":"GH","TYPE":"Sovereign country","POP_EST":30417856,"REGION_UN":"Africa","SUBREGION":"Western Africa"},"id":"GHA"},{"arcs":[[-213,239,-238,240,241,242]],"type":"Polygon","properties":{"ADM0_A3":"CIV","NAME":"Côte d'Ivoire","CONTINENT":"Africa","ISO_A2":"CI","TYPE":"Sovereign country","POP_EST":25716544,"REGION_UN":"Africa","SUBREGION":"Western Africa"},"id":"CIV"},{"arcs":[[-205,-214,-243,243,244,245,246]],"type":"Polygon","properties":{"ADM0_A3":"GIN","NAME":"Guinea","CONTINENT":"Africa","ISO_A2":"GN","TYPE":"Sovereign country","POP_EST":12771246,"REGION_UN":"Africa","SUBREGION":"Western Africa"},"id":"GIN"},{"arcs":[[-206,-247,247]],"type":"Polygon","properties":{"ADM0_A3":"GNB","NAME":"Guinea-Bissau","CONTINENT":"Africa","ISO_A2":"GW","TYPE":"Sovereign country","POP_EST":1920922,"REGION_UN":"Africa","SUBREGION":"Western Africa"},"id":"GNB"},{"arcs":[[-242,248,249,-244]],"type":"Polygon","properties":{"ADM0_A3":"LBR","NAME":"Liberia","CONTINENT":"Africa","ISO_A2":"LR","TYPE":"Sovereign country","POP_EST":4937374,"REGION_UN":"Africa","SUBREGION":"Western Africa"},"id":"LBR"},{"arcs":[[-245,-250,250]],"type":"Polygon","properties":{"ADM0_A3":"SLE","NAME":"Sierra Leone","CONTINENT":"Africa","ISO_A2":"SL","TYPE":"Sovereign country","POP_EST":7813215,"REGION_UN":"Africa","SUBREGION":"Western Africa"},"id":"SLE"},{"arcs":[[-212,-224,-219,-236,-239,-240]],"type":"Polygon","properties":{"ADM0_A3":"BFA","NAME":"Burkina Faso","CONTINENT":"Africa","ISO_A2":"BF","TYPE":"Sovereign country","POP_EST":20321378,"REGION_UN":"Africa","SUBREGION":"Western Africa"},"id":"BFA"},{"arcs":[[-66,251,-229,-87,-79,252]],"type":"Polygon","properties":{"ADM0_A3":"CAF","NAME":"Central African Rep.","CONTINENT":"Africa","ISO_A2":"CF","TYPE":"Sovereign country","POP_EST":4745185,"REGION_UN":"Africa","SUBREGION":"Middle Africa"},"id":"CAF"},{"arcs":[[-65,253,254,255,-230,-252]],"type":"Polygon","properties":{"ADM0_A3":"COG","NAME":"Congo","CONTINENT":"Africa","ISO_A2":"CG","TYPE":"Sovereign country","POP_EST":5380508,"REGION_UN":"Africa","SUBREGION":"Middle Africa"},"id":"COG"},{"arcs":[[-231,-256,256,257]],"type":"Polygon","properties":{"ADM0_A3":"GAB","NAME":"Gabon","CONTINENT":"Africa","ISO_A2":"GA","TYPE":"Sovereign country","POP_EST":2172579,"REGION_UN":"Africa","SUBREGION":"Middle Africa"},"id":"GAB"},{"arcs":[[-232,-258,258]],"type":"Polygon","properties":{"ADM0_A3":"GNQ","NAME":"Eq. Guinea","CONTINENT":"Africa","ISO_A2":"GQ","TYPE":"Sovereign country","POP_EST":1355986,"REGION_UN":"Africa","SUBREGION":"Middle Africa"},"id":"GNQ"},{"arcs":[[-6,259,260,-195,-198,-201,261,-61]],"type":"Polygon","properties":{"ADM0_A3":"ZMB","NAME":"Zambia","CONTINENT":"Africa","ISO_A2":"ZM","TYPE":"Sovereign country","POP_EST":17861030,"REGION_UN":"Africa","SUBREGION":"Eastern Africa"},"id":"ZMB"},{"arcs":[[-5,262,-260]],"type":"Polygon","properties":{"ADM0_A3":"MWI","NAME":"Malawi","CONTINENT":"Africa","ISO_A2":"MW","TYPE":"Sovereign country","POP_EST":18628747,"REGION_UN":"Africa","SUBREGION":"Eastern Africa"},"id":"MWI"},{"arcs":[[-4,263,-128,264,-126,-196,-261,-263]],"type":"Polygon","properties":{"ADM0_A3":"MOZ","NAME":"Mozambique","CONTINENT":"Africa","ISO_A2":"MZ","TYPE":"Sovereign country","POP_EST":30366036,"REGION_UN":"Africa","SUBREGION":"Eastern Africa"},"id":"MOZ"},{"arcs":[[-127,-265]],"type":"Polygon","properties":{"ADM0_A3":"SWZ","NAME":"eSwatini","CONTINENT":"Africa","ISO_A2":"SZ","TYPE":"Sovereign country","POP_EST":1148130,"REGION_UN":"Africa","SUBREGION":"Southern Africa"},"id":"SWZ"},{"arcs":[[[-64,265,-254]],[[-62,-262,-200,266]]],"type":"MultiPolygon","properties":{"ADM0_A3":"AGO","NAME":"Angola","CONTINENT":"Africa","ISO_A2":"AO","TYPE":"Sovereign country","POP_EST":31825295,"REGION_UN":"Africa","SUBREGION":"Middle Africa"},"id":"AGO"},{"arcs":[[-8,-70,267]],"type":"Polygon","properties":{"ADM0_A3":"BDI","NAME":"Burundi","CONTINENT":"Africa","ISO_A2":"BI","TYPE":"Sovereign country","POP_EST":11530580,"REGION_UN":"Africa","SUBREGION":"Eastern Africa"},"id":"BDI"},{"arcs":[[268,269,270,271,272,273,274,275]],"type":"Polygon","properties":{"ADM0_A3":"ISR","NAME":"Israel","CONTINENT":"Asia","ISO_A2":"IL","TYPE":"Disputed","POP_EST":9053300,"REGION_UN":"Asia","SUBREGION":"Western Asia"},"id":"ISR"},{"arcs":[[-275,276,277]],"type":"Polygon","properties":{"ADM0_A3":"LBN","NAME":"Lebanon","CONTINENT":"Asia","ISO_A2":"LB","TYPE":"Sovereign country","POP_EST":6855713,"REGION_UN":"Asia","SUBREGION":"Western Asia"},"id":"LBN"},{"arcs":[[278]],"type":"Polygon","properties":{"ADM0_A3":"MDG","NAME":"Madagascar","CONTINENT":"Africa","ISO_A2":"MG","TYPE":"Sovereign country","POP_EST":26969307,"REGION_UN":"Africa","SUBREGION":"Eastern Africa"},"id":"MDG"},{"arcs":[[-270,279]],"type":"Polygon","properties":{"ADM0_A3":"PSX","NAME":"Palestine","CONTINENT":"Asia","ISO_A2":"PS","TYPE":"Indeterminate","POP_EST":4685306,"REGION_UN":"Asia","SUBREGION":"Western Asia"},"id":"PSX"},{"arcs":[[-208,280]],"type":"Polygon","properties":{"ADM0_A3":"GMB","NAME":"Gambia","CONTINENT":"Africa","ISO_A2":"GM","TYPE":"Sovereign country","POP_EST":2347706,"REGION_UN":"Africa","SUBREGION":"Western Africa"},"id":"GMB"},{"arcs":[[281,282,283]],"type":"Polygon","properties":{"ADM0_A3":"TUN","NAME":"Tunisia","CONTINENT":"Africa","ISO_A2":"TN","TYPE":"Sovereign country","POP_EST":11694719,"REGION_UN":"Africa","SUBREGION":"Northern Africa"},"id":"TUN"},{"arcs":[[-11,284,285,-282,286,-225,-210,-215]],"type":"Polygon","properties":{"ADM0_A3":"DZA","NAME":"Algeria","CONTINENT":"Africa","ISO_A2":"DZ","TYPE":"Sovereign country","POP_EST":43053054,"REGION_UN":"Africa","SUBREGION":"Northern Africa"},"id":"DZA"},{"arcs":[[-269,287,288,289,290,-271,-280]],"type":"Polygon","properties":{"ADM0_A3":"JOR","NAME":"Jordan","CONTINENT":"Asia","ISO_A2":"JO","TYPE":"Sovereign country","POP_EST":10101694,"REGION_UN":"Asia","SUBREGION":"Western Asia"},"id":"JOR"},{"arcs":[[291,292,293]],"type":"Polygon","properties":{"ADM0_A3":"ARE","NAME":"United Arab Emirates","CONTINENT":"Asia","ISO_A2":"AE","TYPE":"Sovereign country","POP_EST":9770529,"REGION_UN":"Asia","SUBREGION":"Western Asia"},"id":"ARE"},{"arcs":[[294,295]],"type":"Polygon","properties":{"ADM0_A3":"QAT","NAME":"Qatar","CONTINENT":"Asia","ISO_A2":"QA","TYPE":"Sovereign country","POP_EST":2832067,"REGION_UN":"Asia","SUBREGION":"Western Asia"},"id":"QAT"},{"arcs":[[296,297,298]],"type":"Polygon","properties":{"ADM0_A3":"KWT","NAME":"Kuwait","CONTINENT":"Asia","ISO_A2":"KW","TYPE":"Sovereign country","POP_EST":4207083,"REGION_UN":"Asia","SUBREGION":"Western Asia"},"id":"KWT"},{"arcs":[[-289,299,300,301,302,-299,303]],"type":"Polygon","properties":{"ADM0_A3":"IRQ","NAME":"Iraq","CONTINENT":"Asia","ISO_A2":"IQ","TYPE":"Sovereign country","POP_EST":39309783,"REGION_UN":"Asia","SUBREGION":"Western Asia"},"id":"IRQ"},{"arcs":[[-293,304,305,306]],"type":"Polygon","properties":{"ADM0_A3":"OMN","NAME":"Oman","CONTINENT":"Asia","ISO_A2":"OM","TYPE":"Sovereign country","POP_EST":4974986,"REGION_UN":"Asia","SUBREGION":"Western Asia"},"id":"OMN"},{"arcs":[[307]],"type":"Polygon","properties":{"ADM0_A3":"VUT","NAME":"Vanuatu","CONTINENT":"Oceania","ISO_A2":"VU","TYPE":"Sovereign country","POP_EST":299882,"REGION_UN":"Oceania","SUBREGION":"Melanesia"},"id":"VUT"},{"arcs":[[308,309,310,311]],"type":"Polygon","properties":{"ADM0_A3":"KHM","NAME":"Cambodia","CONTINENT":"Asia","ISO_A2":"KH","TYPE":"Sovereign country","POP_EST":16486542,"REGION_UN":"Asia","SUBREGION":"South-Eastern Asia"},"id":"KHM"},{"arcs":[[-309,312,313,314,315,316]],"type":"Polygon","properties":{"ADM0_A3":"THA","NAME":"Thailand","CONTINENT":"Asia","ISO_A2":"TH","TYPE":"Sovereign country","POP_EST":69625582,"REGION_UN":"Asia","SUBREGION":"South-Eastern Asia"},"id":"THA"},{"arcs":[[-310,-317,317,318,319]],"type":"Polygon","properties":{"ADM0_A3":"LAO","NAME":"Laos","CONTINENT":"Asia","ISO_A2":"LA","TYPE":"Sovereign country","POP_EST":7169455,"REGION_UN":"Asia","SUBREGION":"South-Eastern Asia"},"id":"LAO"},{"arcs":[[-316,320,321,322,323,-318]],"type":"Polygon","properties":{"ADM0_A3":"MMR","NAME":"Myanmar","CONTINENT":"Asia","ISO_A2":"MM","TYPE":"Sovereign country","POP_EST":54045420,"REGION_UN":"Asia","SUBREGION":"South-Eastern Asia"},"id":"MMR"},{"arcs":[[-311,-320,324,325]],"type":"Polygon","properties":{"ADM0_A3":"VNM","NAME":"Vietnam","CONTINENT":"Asia","ISO_A2":"VN","TYPE":"Sovereign country","POP_EST":96462106,"REGION_UN":"Asia","SUBREGION":"South-Eastern Asia"},"id":"VNM"},{"arcs":[[-106,326,327,328,329]],"type":"Polygon","properties":{"ADM0_A3":"PRK","NAME":"North Korea","CONTINENT":"Asia","ISO_A2":"KP","TYPE":"Sovereign country","POP_EST":25666161,"REGION_UN":"Asia","SUBREGION":"Eastern Asia"},"id":"PRK"},{"arcs":[[-328,330]],"type":"Polygon","properties":{"ADM0_A3":"KOR","NAME":"South Korea","CONTINENT":"Asia","ISO_A2":"KR","TYPE":"Sovereign country","POP_EST":51709098,"REGION_UN":"Asia","SUBREGION":"Eastern Asia"},"id":"KOR"},{"arcs":[[-108,331]],"type":"Polygon","properties":{"ADM0_A3":"MNG","NAME":"Mongolia","CONTINENT":"Asia","ISO_A2":"MN","TYPE":"Sovereign country","POP_EST":3225167,"REGION_UN":"Asia","SUBREGION":"Eastern Asia"},"id":"MNG"},{"arcs":[[-323,332,333,334,335,336,337,338,339]],"type":"Polygon","properties":{"ADM0_A3":"IND","NAME":"India","CONTINENT":"Asia","ISO_A2":"IN","TYPE":"Sovereign country","POP_EST":1366417754,"REGION_UN":"Asia","SUBREGION":"Southern Asia"},"id":"IND"},{"arcs":[[-322,340,-333]],"type":"Polygon","properties":{"ADM0_A3":"BGD","NAME":"Bangladesh","CONTINENT":"Asia","ISO_A2":"BD","TYPE":"Sovereign country","POP_EST":163046161,"REGION_UN":"Asia","SUBREGION":"Southern Asia"},"id":"BGD"},{"arcs":[[-339,341]],"type":"Polygon","properties":{"ADM0_A3":"BTN","NAME":"Bhutan","CONTINENT":"Asia","ISO_A2":"BT","TYPE":"Sovereign country","POP_EST":763092,"REGION_UN":"Asia","SUBREGION":"Southern Asia"},"id":"BTN"},{"arcs":[[-337,342]],"type":"Polygon","properties":{"ADM0_A3":"NPL","NAME":"Nepal","CONTINENT":"Asia","ISO_A2":"NP","TYPE":"Sovereign country","POP_EST":28608710,"REGION_UN":"Asia","SUBREGION":"Southern Asia"},"id":"NPL"},{"arcs":[[-335,343,344,345,346]],"type":"Polygon","properties":{"ADM0_A3":"PAK","NAME":"Pakistan","CONTINENT":"Asia","ISO_A2":"PK","TYPE":"Sovereign country","POP_EST":216565318,"REGION_UN":"Asia","SUBREGION":"Southern Asia"},"id":"PAK"},{"arcs":[[-39,347,348,-346,349,350]],"type":"Polygon","properties":{"ADM0_A3":"AFG","NAME":"Afghanistan","CONTINENT":"Asia","ISO_A2":"AF","TYPE":"Sovereign country","POP_EST":38041754,"REGION_UN":"Asia","SUBREGION":"Southern Asia"},"id":"AFG"},{"arcs":[[-38,351,352,-348]],"type":"Polygon","properties":{"ADM0_A3":"TJK","NAME":"Tajikistan","CONTINENT":"Asia","ISO_A2":"TJ","TYPE":"Sovereign country","POP_EST":9321018,"REGION_UN":"Asia","SUBREGION":"Central Asia"},"id":"TJK"},{"arcs":[[-32,353,-352,-37]],"type":"Polygon","properties":{"ADM0_A3":"KGZ","NAME":"Kyrgyzstan","CONTINENT":"Asia","ISO_A2":"KG","TYPE":"Sovereign country","POP_EST":6456900,"REGION_UN":"Asia","SUBREGION":"Central Asia"},"id":"KGZ"},{"arcs":[[-34,-40,-351,354,355]],"type":"Polygon","properties":{"ADM0_A3":"TKM","NAME":"Turkmenistan","CONTINENT":"Asia","ISO_A2":"TM","TYPE":"Sovereign country","POP_EST":5942089,"REGION_UN":"Asia","SUBREGION":"Central Asia"},"id":"TKM"},{"arcs":[[-302,356,357,358,359,-355,-350,-345,360]],"type":"Polygon","properties":{"ADM0_A3":"IRN","NAME":"Iran","CONTINENT":"Asia","ISO_A2":"IR","TYPE":"Sovereign country","POP_EST":82913906,"REGION_UN":"Asia","SUBREGION":"Southern Asia"},"id":"IRN"},{"arcs":[[-276,-278,361,362,-300,-288]],"type":"Polygon","properties":{"ADM0_A3":"SYR","NAME":"Syria","CONTINENT":"Asia","ISO_A2":"SY","TYPE":"Sovereign country","POP_EST":17070135,"REGION_UN":"Asia","SUBREGION":"Western Asia"},"id":"SYR"},{"arcs":[[-358,363,364,365]],"type":"Polygon","properties":{"ADM0_A3":"ARM","NAME":"Armenia","CONTINENT":"Asia","ISO_A2":"AM","TYPE":"Sovereign country","POP_EST":2957731,"REGION_UN":"Asia","SUBREGION":"Western Asia"},"id":"ARM"},{"arcs":[[-118,366,367]],"type":"Polygon","properties":{"ADM0_A3":"SWE","NAME":"Sweden","CONTINENT":"Europe","ISO_A2":"SE","TYPE":"Sovereign country","POP_EST":10285453,"REGION_UN":"Europe","SUBREGION":"Northern Europe"},"id":"SWE"},{"arcs":[[-99,368,369,370,371]],"type":"Polygon","properties":{"ADM0_A3":"BLR","NAME":"Belarus","CONTINENT":"Europe","ISO_A2":"BY","TYPE":"Sovereign country","POP_EST":9466856,"REGION_UN":"Europe","SUBREGION":"Eastern Europe"},"id":"BLR"},{"arcs":[[-98,372,373,374,375,376,377,378,-369]],"type":"Polygon","properties":{"ADM0_A3":"UKR","NAME":"Ukraine","CONTINENT":"Europe","ISO_A2":"UA","TYPE":"Sovereign country","POP_EST":44385155,"REGION_UN":"Europe","SUBREGION":"Eastern Europe"},"id":"UKR"},{"arcs":[[-110,379,-370,-379,380,381,382,383]],"type":"Polygon","properties":{"ADM0_A3":"POL","NAME":"Poland","CONTINENT":"Europe","ISO_A2":"PL","TYPE":"Sovereign country","POP_EST":37970874,"REGION_UN":"Europe","SUBREGION":"Eastern Europe"},"id":"POL"},{"arcs":[[384,385,386,387,388,389,390]],"type":"Polygon","properties":{"ADM0_A3":"AUT","NAME":"Austria","CONTINENT":"Europe","ISO_A2":"AT","TYPE":"Sovereign country","POP_EST":8877067,"REGION_UN":"Europe","SUBREGION":"Western Europe"},"id":"AUT"},{"arcs":[[-377,391,392,393,394,-385,395]],"type":"Polygon","properties":{"ADM0_A3":"HUN","NAME":"Hungary","CONTINENT":"Europe","ISO_A2":"HU","TYPE":"Sovereign country","POP_EST":9769949,"REGION_UN":"Europe","SUBREGION":"Eastern Europe"},"id":"HUN"},{"arcs":[[-375,396]],"type":"Polygon","properties":{"ADM0_A3":"MDA","NAME":"Moldova","CONTINENT":"Europe","ISO_A2":"MD","TYPE":"Sovereign country","POP_EST":2657637,"REGION_UN":"Europe","SUBREGION":"Eastern Europe"},"id":"MDA"},{"arcs":[[-374,397,398,399,-392,-376,-397]],"type":"Polygon","properties":{"ADM0_A3":"ROU","NAME":"Romania","CONTINENT":"Europe","ISO_A2":"RO","TYPE":"Sovereign country","POP_EST":19356544,"REGION_UN":"Europe","SUBREGION":"Eastern Europe"},"id":"ROU"},{"arcs":[[-112,400,401,-371,-380]],"type":"Polygon","properties":{"ADM0_A3":"LTU","NAME":"Lithuania","CONTINENT":"Europe","ISO_A2":"LT","TYPE":"Sovereign country","POP_EST":2786844,"REGION_UN":"Europe","SUBREGION":"Northern Europe"},"id":"LTU"},{"arcs":[[-100,-372,-402,402,403]],"type":"Polygon","properties":{"ADM0_A3":"LVA","NAME":"Latvia","CONTINENT":"Europe","ISO_A2":"LV","TYPE":"Sovereign country","POP_EST":1912789,"REGION_UN":"Europe","SUBREGION":"Northern Europe"},"id":"LVA"},{"arcs":[[-101,-404,404]],"type":"Polygon","properties":{"ADM0_A3":"EST","NAME":"Estonia","CONTINENT":"Europe","ISO_A2":"EE","TYPE":"Sovereign country","POP_EST":1326590,"REGION_UN":"Europe","SUBREGION":"Northern Europe"},"id":"EST"},{"arcs":[[-182,405,406,407,408,409,410,-383,411,-389,412]],"type":"Polygon","properties":{"ADM0_A3":"DEU","NAME":"Germany","CONTINENT":"Europe","ISO_A2":"DE","TYPE":"Sovereign country","POP_EST":83132799,"REGION_UN":"Europe","SUBREGION":"Western Europe"},"id":"DEU"},{"arcs":[[-399,413,414,415,416,417]],"type":"Polygon","properties":{"ADM0_A3":"BGR","NAME":"Bulgaria","CONTINENT":"Europe","ISO_A2":"BG","TYPE":"Sovereign country","POP_EST":6975761,"REGION_UN":"Europe","SUBREGION":"Eastern Europe"},"id":"BGR"},{"arcs":[[-416,418,419,420,421]],"type":"Polygon","properties":{"ADM0_A3":"GRC","NAME":"Greece","CONTINENT":"Europe","ISO_A2":"GR","TYPE":"Sovereign country","POP_EST":10716322,"REGION_UN":"Europe","SUBREGION":"Southern Europe"},"id":"GRC"},{"arcs":[[[-301,-363,422,423,-364,-357]],[[-415,424,-419]]],"type":"MultiPolygon","properties":{"ADM0_A3":"TUR","NAME":"Turkey","CONTINENT":"Asia","ISO_A2":"TR","TYPE":"Sovereign country","POP_EST":83429615,"REGION_UN":"Asia","SUBREGION":"Western Asia"},"id":"TUR"},{"arcs":[[-421,425,426,427,428]],"type":"Polygon","properties":{"ADM0_A3":"ALB","NAME":"Albania","CONTINENT":"Europe","ISO_A2":"AL","TYPE":"Sovereign country","POP_EST":2854191,"REGION_UN":"Europe","SUBREGION":"Southern Europe"},"id":"ALB"},{"arcs":[[-394,429,430,431,432,433]],"type":"Polygon","properties":{"ADM0_A3":"HRV","NAME":"Croatia","CONTINENT":"Europe","ISO_A2":"HR","TYPE":"Sovereign country","POP_EST":4067500,"REGION_UN":"Europe","SUBREGION":"Southern Europe"},"id":"HRV"},{"arcs":[[-183,-413,-388,434]],"type":"Polygon","properties":{"ADM0_A3":"CHE","NAME":"Switzerland","CONTINENT":"Europe","ISO_A2":"CH","TYPE":"Sovereign country","POP_EST":8574832,"REGION_UN":"Europe","SUBREGION":"Western Europe"},"id":"CHE"},{"arcs":[[-189,435,-406]],"type":"Polygon","properties":{"ADM0_A3":"LUX","NAME":"Luxembourg","CONTINENT":"Europe","ISO_A2":"LU","TYPE":"Sovereign country","POP_EST":619896,"REGION_UN":"Europe","SUBREGION":"Western Europe"},"id":"LUX"},{"arcs":[[-188,436,437,-407,-436]],"type":"Polygon","properties":{"ADM0_A3":"BEL","NAME":"Belgium","CONTINENT":"Europe","ISO_A2":"BE","TYPE":"Sovereign country","POP_EST":11484055,"REGION_UN":"Europe","SUBREGION":"Western Europe"},"id":"BEL"},{"arcs":[[-408,-438,438]],"type":"Polygon","properties":{"ADM0_A3":"NLD","NAME":"Netherlands","CONTINENT":"Europe","ISO_A2":"NL","TYPE":"Country","POP_EST":17332850,"REGION_UN":"Europe","SUBREGION":"Western Europe"},"id":"NLD"},{"arcs":[[439,440]],"type":"Polygon","properties":{"ADM0_A3":"PRT","NAME":"Portugal","CONTINENT":"Europe","ISO_A2":"PT","TYPE":"Sovereign country","POP_EST":10269417,"REGION_UN":"Europe","SUBREGION":"Southern Europe"},"id":"PRT"},{"arcs":[[-186,441,-440,442]],"type":"Polygon","properties":{"ADM0_A3":"ESP","NAME":"Spain","CONTINENT":"Europe","ISO_A2":"ES","TYPE":"Sovereign country","POP_EST":47076781,"REGION_UN":"Europe","SUBREGION":"Southern Europe"},"id":"ESP"},{"arcs":[[443]],"type":"Polygon","properties":{"ADM0_A3":"IRL","NAME":"Ireland","CONTINENT":"Europe","ISO_A2":"IE","TYPE":"Sovereign country","POP_EST":4941444,"REGION_UN":"Europe","SUBREGION":"Northern Europe"},"id":"IRL"},{"arcs":[[444]],"type":"Polygon","properties":{"ADM0_A3":"NCL","NAME":"New Caledonia","CONTINENT":"Oceania","ISO_A2":"NC","TYPE":"Dependency","POP_EST":287800,"REGION_UN":"Oceania","SUBREGION":"Melanesia"},"id":"NCL"},{"arcs":[[445]],"type":"Polygon","properties":{"ADM0_A3":"SLB","NAME":"Solomon Is.","CONTINENT":"Oceania","ISO_A2":"SB","TYPE":"Sovereign country","POP_EST":669823,"REGION_UN":"Oceania","SUBREGION":"Melanesia"},"id":"SLB"},{"arcs":[[[446]],[[447]]],"type":"MultiPolygon","properties":{"ADM0_A3":"NZL","NAME":"New Zealand","CONTINENT":"Oceania","ISO_A2":"NZ","TYPE":"Country","POP_EST":4917000,"REGION_UN":"Oceania","SUBREGION":"Australia and New Zealand"},"id":"NZL"},{"arcs":[[[448]],[[449]]],"type":"MultiPolygon","properties":{"ADM0_A3":"AUS","NAME":"Australia","CONTINENT":"Oceania","ISO_A2":"AU","TYPE":"Country","POP_EST":25364307,"REGION_UN":"Oceania","SUBREGION":"Australia and New Zealand"},"id":"AUS"},{"arcs":[[450]],"type":"Polygon","properties":{"ADM0_A3":"LKA","NAME":"Sri Lanka","CONTINENT":"Asia","ISO_A2":"LK","TYPE":"Sovereign country","POP_EST":21803000,"REGION_UN":"Asia","SUBREGION":"Southern Asia"},"id":"LKA"},{"arcs":[[-31,-109,-332,-107,-330,451,-325,-319,-324,-340,-342,-338,-343,-336,-347,-349,-353,-354]],"type":"Polygon","properties":{"ADM0_A3":"CHN","NAME":"China","CONTINENT":"Asia","ISO_A2":"CN","TYPE":"Country","POP_EST":1397715000,"REGION_UN":"Asia","SUBREGION":"Eastern Asia"},"id":"CHN"},{"arcs":[[452]],"type":"Polygon","properties":{"ADM0_A3":"TWN","NAME":"Taiwan","CONTINENT":"Asia","ISO_A2":"CN-TW","TYPE":"Sovereign country","POP_EST":23568378,"REGION_UN":"Asia","SUBREGION":"Eastern Asia"},"id":"TWN"},{"arcs":[[-184,-435,-387,453,454]],"type":"Polygon","properties":{"ADM0_A3":"ITA","NAME":"Italy","CONTINENT":"Europe","ISO_A2":"IT","TYPE":"Sovereign country","POP_EST":60297396,"REGION_UN":"Europe","SUBREGION":"Southern Europe"},"id":"ITA"},{"arcs":[[-410,455]],"type":"Polygon","properties":{"ADM0_A3":"DNK","NAME":"Denmark","CONTINENT":"Europe","ISO_A2":"DK","TYPE":"Country","POP_EST":5818553,"REGION_UN":"Europe","SUBREGION":"Northern Europe"},"id":"DNK"},{"arcs":[[456]],"type":"Polygon","properties":{"ADM0_A3":"GBR","NAME":"United Kingdom","CONTINENT":"Europe","ISO_A2":"GB","TYPE":"Country","POP_EST":66834405,"REGION_UN":"Europe","SUBREGION":"Northern Europe"},"id":"GBR"},{"arcs":[[457]],"type":"Polygon","properties":{"ADM0_A3":"ISL","NAME":"Iceland","CONTINENT":"Europe","ISO_A2":"IS","TYPE":"Sovereign country","POP_EST":361313,"REGION_UN":"Europe","SUBREGION":"Northern Europe"},"id":"ISL"},{"arcs":[[-95,458,-359,-366,459]],"type":"Polygon","properties":{"ADM0_A3":"AZE","NAME":"Azerbaijan","CONTINENT":"Asia","ISO_A2":"AZ","TYPE":"Sovereign country","POP_EST":10023318,"REGION_UN":"Asia","SUBREGION":"Western Asia"},"id":"AZE"},{"arcs":[[-96,-460,-365,-424,460]],"type":"Polygon","properties":{"ADM0_A3":"GEO","NAME":"Georgia","CONTINENT":"Asia","ISO_A2":"GE","TYPE":"Sovereign country","POP_EST":3720382,"REGION_UN":"Asia","SUBREGION":"Western Asia"},"id":"GEO"},{"arcs":[[[461]],[[462]]],"type":"MultiPolygon","properties":{"ADM0_A3":"PHL","NAME":"Philippines","CONTINENT":"Asia","ISO_A2":"PH","TYPE":"Sovereign country","POP_EST":108116615,"REGION_UN":"Asia","SUBREGION":"South-Eastern Asia"},"id":"PHL"},{"arcs":[[[-314,463]],[[-45,464,465,466]]],"type":"MultiPolygon","properties":{"ADM0_A3":"MYS","NAME":"Malaysia","CONTINENT":"Asia","ISO_A2":"MY","TYPE":"Sovereign country","POP_EST":31949777,"REGION_UN":"Asia","SUBREGION":"South-Eastern Asia"},"id":"MYS"},{"arcs":[[-466,467]],"type":"Polygon","properties":{"ADM0_A3":"BRN","NAME":"Brunei","CONTINENT":"Asia","ISO_A2":"BN","TYPE":"Sovereign country","POP_EST":433285,"REGION_UN":"Asia","SUBREGION":"South-Eastern Asia"},"id":"BRN"},{"arcs":[[-386,-395,-434,468,-454]],"type":"Polygon","properties":{"ADM0_A3":"SVN","NAME":"Slovenia","CONTINENT":"Europe","ISO_A2":"SI","TYPE":"Sovereign country","POP_EST":2087946,"REGION_UN":"Europe","SUBREGION":"Southern Europe"},"id":"SVN"},{"arcs":[[-103,469,-367,-117]],"type":"Polygon","properties":{"ADM0_A3":"FIN","NAME":"Finland","CONTINENT":"Europe","ISO_A2":"FI","TYPE":"Country","POP_EST":5520314,"REGION_UN":"Europe","SUBREGION":"Northern Europe"},"id":"FIN"},{"arcs":[[-378,-396,-391,470,-381]],"type":"Polygon","properties":{"ADM0_A3":"SVK","NAME":"Slovakia","CONTINENT":"Europe","ISO_A2":"SK","TYPE":"Sovereign country","POP_EST":5454073,"REGION_UN":"Europe","SUBREGION":"Eastern Europe"},"id":"SVK"},{"arcs":[[-382,-471,-390,-412]],"type":"Polygon","properties":{"ADM0_A3":"CZE","NAME":"Czechia","CONTINENT":"Europe","ISO_A2":"CZ","TYPE":"Sovereign country","POP_EST":10669709,"REGION_UN":"Europe","SUBREGION":"Eastern Europe"},"id":"CZE"},{"arcs":[[-84,471,472,473]],"type":"Polygon","properties":{"ADM0_A3":"ERI","NAME":"Eritrea","CONTINENT":"Africa","ISO_A2":"ER","TYPE":"Sovereign country","POP_EST":6081196,"REGION_UN":"Africa","SUBREGION":"Eastern Africa"},"id":"ERI"},{"arcs":[[[474]],[[475]]],"type":"MultiPolygon","properties":{"ADM0_A3":"JPN","NAME":"Japan","CONTINENT":"Asia","ISO_A2":"JP","TYPE":"Sovereign country","POP_EST":126264931,"REGION_UN":"Asia","SUBREGION":"Eastern Asia"},"id":"JPN"},{"arcs":[[-55,-147,-137]],"type":"Polygon","properties":{"ADM0_A3":"PRY","NAME":"Paraguay","CONTINENT":"South America","ISO_A2":"PY","TYPE":"Sovereign country","POP_EST":7044636,"REGION_UN":"Americas","SUBREGION":"South America"},"id":"PRY"},{"arcs":[[-306,476,477]],"type":"Polygon","properties":{"ADM0_A3":"YEM","NAME":"Yemen","CONTINENT":"Asia","ISO_A2":"YE","TYPE":"Sovereign country","POP_EST":29161922,"REGION_UN":"Asia","SUBREGION":"Western Asia"},"id":"YEM"},{"arcs":[[-290,-304,-298,478,-296,479,-294,-307,-478,480]],"type":"Polygon","properties":{"ADM0_A3":"SAU","NAME":"Saudi Arabia","CONTINENT":"Asia","ISO_A2":"SA","TYPE":"Sovereign country","POP_EST":34268528,"REGION_UN":"Asia","SUBREGION":"Western Asia"},"id":"SAU"},{"arcs":[[[481]],[[482]],[[483]]],"type":"MultiPolygon","properties":{"ADM0_A3":"ATA","NAME":"Antarctica","CONTINENT":"Antarctica","ISO_A2":"AQ","TYPE":"Indeterminate","POP_EST":4490,"REGION_UN":"Antarctica","SUBREGION":"Antarctica"},"id":"ATA"},{"arcs":[[484,485]],"type":"Polygon","properties":{"ADM0_A3":"CYN","NAME":"N. Cyprus","CONTINENT":"Asia","ISO_A2":"-99","TYPE":"Sovereign country","POP_EST":326000,"REGION_UN":"Asia","SUBREGION":"Western Asia"},"id":"CYN"},{"arcs":[[-486,486]],"type":"Polygon","properties":{"ADM0_A3":"CYP","NAME":"Cyprus","CONTINENT":"Asia","ISO_A2":"CY","TYPE":"Sovereign country","POP_EST":1198575,"REGION_UN":"Asia","SUBREGION":"Western Asia"},"id":"CYP"},{"arcs":[[-14,487,-285]],"type":"Polygon","properties":{"ADM0_A3":"MAR","NAME":"Morocco","CONTINENT":"Africa","ISO_A2":"MA","TYPE":"Sovereign country","POP_EST":36471769,"REGION_UN":"Africa","SUBREGION":"Northern Africa"},"id":"MAR"},{"arcs":[[-82,488,489,-273,490]],"type":"Polygon","properties":{"ADM0_A3":"EGY","NAME":"Egypt","CONTINENT":"Africa","ISO_A2":"EG","TYPE":"Sovereign country","POP_EST":100388073,"REGION_UN":"Africa","SUBREGION":"Northern Africa"},"id":"EGY"},{"arcs":[[-81,-90,-226,-287,-284,491,-489]],"type":"Polygon","properties":{"ADM0_A3":"LBY","NAME":"Libya","CONTINENT":"Africa","ISO_A2":"LY","TYPE":"Sovereign country","POP_EST":6777452,"REGION_UN":"Africa","SUBREGION":"Northern Africa"},"id":"LBY"},{"arcs":[[-72,-77,492,-85,-474,493,494]],"type":"Polygon","properties":{"ADM0_A3":"ETH","NAME":"Ethiopia","CONTINENT":"Africa","ISO_A2":"ET","TYPE":"Sovereign country","POP_EST":112078730,"REGION_UN":"Africa","SUBREGION":"Eastern Africa"},"id":"ETH"},{"arcs":[[-473,495,496,-494]],"type":"Polygon","properties":{"ADM0_A3":"DJI","NAME":"Djibouti","CONTINENT":"Africa","ISO_A2":"DJ","TYPE":"Sovereign country","POP_EST":973560,"REGION_UN":"Africa","SUBREGION":"Eastern Africa"},"id":"DJI"},{"arcs":[[-73,-495,-497,497]],"type":"Polygon","properties":{"ADM0_A3":"SOL","NAME":"Somaliland","CONTINENT":"Africa","ISO_A2":"-99","TYPE":"Sovereign country","POP_EST":5096159,"REGION_UN":"Africa","SUBREGION":"Eastern Africa"},"id":"SOL"},{"arcs":[[-10,498,-68,499,-75]],"type":"Polygon","properties":{"ADM0_A3":"UGA","NAME":"Uganda","CONTINENT":"Africa","ISO_A2":"UG","TYPE":"Sovereign country","POP_EST":44269594,"REGION_UN":"Africa","SUBREGION":"Eastern Africa"},"id":"UGA"},{"arcs":[[-9,-268,-69,-499]],"type":"Polygon","properties":{"ADM0_A3":"RWA","NAME":"Rwanda","CONTINENT":"Africa","ISO_A2":"RW","TYPE":"Sovereign country","POP_EST":12626950,"REGION_UN":"Africa","SUBREGION":"Eastern Africa"},"id":"RWA"},{"arcs":[[-431,500,501]],"type":"Polygon","properties":{"ADM0_A3":"BIH","NAME":"Bosnia and Herz.","CONTINENT":"Europe","ISO_A2":"BA","TYPE":"Sovereign country","POP_EST":3301000,"REGION_UN":"Europe","SUBREGION":"Southern Europe"},"id":"BIH"},{"arcs":[[-417,-422,-429,502,503]],"type":"Polygon","properties":{"ADM0_A3":"MKD","NAME":"North Macedonia","CONTINENT":"Europe","ISO_A2":"MK","TYPE":"Sovereign country","POP_EST":2083459,"REGION_UN":"Europe","SUBREGION":"Southern Europe"},"id":"MKD"},{"arcs":[[-393,-400,-418,-504,504,505,-501,-430]],"type":"Polygon","properties":{"ADM0_A3":"SRB","NAME":"Serbia","CONTINENT":"Europe","ISO_A2":"RS","TYPE":"Sovereign country","POP_EST":6944975,"REGION_UN":"Europe","SUBREGION":"Southern Europe"},"id":"SRB"},{"arcs":[[-427,506,-432,-502,-506,507]],"type":"Polygon","properties":{"ADM0_A3":"MNE","NAME":"Montenegro","CONTINENT":"Europe","ISO_A2":"ME","TYPE":"Sovereign country","POP_EST":622137,"REGION_UN":"Europe","SUBREGION":"Southern Europe"},"id":"MNE"},{"arcs":[[-428,-508,-505,-503]],"type":"Polygon","properties":{"ADM0_A3":"KOS","NAME":"Kosovo","CONTINENT":"Europe","ISO_A2":"-99","TYPE":"Disputed","POP_EST":1794248,"REGION_UN":"Europe","SUBREGION":"Southern Europe"},"id":"KOS"},{"arcs":[[508]],"type":"Polygon","properties":{"ADM0_A3":"TTO","NAME":"Trinidad and Tobago","CONTINENT":"North America","ISO_A2":"TT","TYPE":"Sovereign country","POP_EST":1394973,"REGION_UN":"Americas","SUBREGION":"Caribbean"},"id":"TTO"},{"arcs":[[-67,-253,-86,-493,-76,-500]],"type":"Polygon","properties":{"ADM0_A3":"SDS","NAME":"S. Sudan","CONTINENT":"Africa","ISO_A2":"SS","TYPE":"Sovereign country","POP_EST":11062113,"REGION_UN":"Africa","SUBREGION":"Eastern Africa"},"id":"SDS"}]}}}