{"type":"Topology","arcs":[[[12893,6027],[32,-11],[33,-87],[-6,-79],[119,17],[36,-66],[-103,-46],[0,-48],[-83,-97],[39,-90],[-100,-38],[-33,-101],[-117,-48],[24,-65],[49,-22],[-52,-45],[13,-55]],[[12744,5146],[-44,-25],[-51,39],[-123,-67],[-68,84]],[[12458,5177],[-64,156],[47,34],[-48,62],[27,63],[-31,70],[61,49],[54,16],[28,44]],[[12532,5671],[41,7],[84,66],[14,101],[-17,79],[24,81],[101,12],[30,23],[84,-13]],[[13021,6875],[-7,-88],[8,-196],[34,-28],[64,4]],[[13120,6567],[-19,-67],[-3,-85],[-96,-37],[18,-95],[-117,-16],[-66,-71],[-89,16]],[[12748,6212],[-109,-115],[-169,-44],[-31,64],[-43,13],[-44,-28],[-9,-52],[-72,-31],[9,-106],[-36,-6]],[[12244,5907],[-99,26],[-53,69],[-76,55],[-145,61],[-3,48],[-86,121]],[[11782,6287],[4,172]],[[11786,6459],[51,60]],[[11837,6519],[24,46],[-51,21],[24,46],[-25,55],[40,97],[-7,108],[25,77],[71,52]],[[11938,7021],[61,-10],[88,-42],[67,-106],[82,-82],[106,-64],[36,21],[24,61],[66,-14],[214,57],[31,21],[30,65],[-1,48],[58,26],[30,-18],[50,19],[59,-9],[47,-97],[35,-22]],[[15615,6623],[-44,-35],[4,-93],[90,-36],[11,-62],[52,-40],[21,50],[56,6],[39,-40],[16,-67],[166,-60],[49,28],[83,-39],[48,42],[121,-66],[46,-57],[78,-7]],[[16451,6147],[120,-69],[89,126],[37,4],[119,-107],[-8,-54],[-92,-135]],[[16716,5912],[-126,-14],[-69,-47],[-50,-140],[-38,-54],[-27,21]],[[16406,5678],[-26,81],[-47,-64],[-53,47],[-165,64],[-56,-16],[-53,9],[-7,-59],[-61,34],[-107,-88],[-69,15],[-50,-18],[-32,63],[-59,2],[-117,-27],[-11,40],[37,93],[-63,32],[-72,-8],[-46,-29],[-5,75],[-115,19],[-60,31]],[[15169,5974],[3,70],[-15,67],[23,17],[81,-30],[90,20],[-31,40],[-1,129],[-27,39],[-43,-14],[-58,17],[-14,82]],[[15177,6411],[62,20],[45,35],[22,64],[159,144],[18,-26],[68,10],[64,-35]],[[1596,3246],[35,-46],[0,-76],[-38,-47],[39,-129]],[[1632,2948],[22,-18],[-31,-80],[-55,-10],[-99,-121],[-29,-58],[4,-66],[39,-8],[15,-49],[-31,-58],[-50,-43],[23,-38],[64,-50],[-53,-100],[-6,-67],[-35,-63],[-53,-39],[26,-72],[0,-51],[30,-48],[48,-28],[8,-89]],[[1469,1792],[-95,-39],[-30,65],[-99,22],[2,49],[-82,93],[-28,-10],[-57,28],[-10,36],[-76,-13],[-59,24],[-108,83],[-14,85],[52,102],[-46,61],[7,56],[-39,7],[-57,-40],[-68,41],[-54,57],[-88,-6],[-72,24],[-86,59],[-89,3],[-20,-30],[-70,34],[10,70],[53,15],[2,67],[-33,36],[34,66],[-24,17],[-10,72]],[[215,2926],[0,70],[42,157],[45,16],[46,-56],[76,-25],[40,46],[69,22],[-7,45],[35,36],[80,46],[-3,62],[82,-7],[43,27]],[[763,3365],[15,30],[93,8],[58,21],[47,41],[17,-55],[61,-45],[80,22],[35,-23],[62,-78],[61,-3],[-17,-54],[89,-21],[15,46],[72,49],[46,0],[84,-31],[15,-26]],[[8767,7240],[26,-117],[115,38],[-13,-62],[43,3],[58,-55],[99,-53],[8,-46],[57,-52],[-37,-51],[-51,-25],[32,-64],[-12,-187],[-26,-88],[32,-43],[-9,-51]],[[9089,6387],[-21,-72],[-58,-80],[16,-80]],[[9026,6155],[-39,6],[-32,-45],[-75,-21],[-106,-67],[-111,-13],[-27,80],[-46,-11],[-66,25],[-39,58],[-35,18],[-38,91],[-44,-28],[-138,-33],[-53,49],[-92,-56],[-44,-117],[-77,21]],[[7964,6112],[-8,45],[-55,75],[-152,143],[-41,81],[-9,78],[23,69],[66,-12],[31,87],[68,25],[47,52],[56,131],[177,19],[48,26],[80,89],[56,78],[82,29],[61,44],[107,3],[111,58],[55,8]],[[763,3365],[-45,14],[1,47]],[[719,3426],[41,31],[-7,37],[-69,33],[1,104],[-15,26],[80,60],[-10,47],[-57,68],[-35,122],[27,49],[-24,37],[-104,-35],[-82,42],[-58,-6],[-43,39],[-56,-24]],[[308,4056],[-89,23],[-31,49],[-32,-29],[-34,77],[-45,44],[-3,37],[416,112],[-1,47],[50,96],[1,28],[49,59],[61,2],[60,-65],[-4,-69],[-24,-48],[91,-29],[35,-30],[49,45],[42,-6],[37,-48],[46,33],[42,-14],[15,-52],[73,-68],[12,-78],[88,27],[40,-50],[-2,-35],[40,-41],[52,12],[5,-70],[28,-44],[-48,-54],[-39,-16],[33,-62],[40,-147],[47,78],[53,-31],[58,6],[9,64],[42,16],[75,-29],[45,-33],[-79,-139],[-11,-39],[39,-58],[-40,-51],[-50,-11],[-15,-59],[15,-34]],[[1549,3372],[-10,-23],[115,-39],[-58,-64]],[[14546,5186],[58,-135],[39,8],[64,-70],[44,53],[44,-1],[32,-204],[-9,-46],[48,-55],[84,41],[59,-29],[40,11],[27,-59],[70,-33],[-34,-63],[-3,-109]],[[15109,4495],[-51,-22],[-58,54],[-80,-51],[-79,-82],[-104,-89],[-103,-52],[4,-42],[-112,-56],[10,-44],[-57,-79],[10,-65],[-16,-62],[-106,-34],[-13,-41],[14,-72],[-52,-56],[-147,5],[-71,15],[-23,-93],[-54,-44],[11,-54]],[[14032,3531],[-66,27],[-78,-28],[-78,86],[-67,32],[-79,0],[-28,-23]],[[13636,3625],[-32,-2],[-50,103],[-14,59],[17,59],[-57,38],[-16,73],[-41,37],[-23,52],[-73,-36],[-41,14],[-89,111],[-40,206],[-131,36],[-3,59],[-35,67],[-33,-27],[-38,56],[5,78],[31,4]],[[12973,4612],[105,18],[33,-6],[128,30],[21,88],[-16,68],[37,48],[-19,81],[31,97],[86,74],[35,45],[-117,-5]],[[13297,5150],[98,21],[11,41],[157,-16],[24,40],[-6,89],[22,31]],[[13603,5356],[41,10],[56,-25],[70,-8],[27,115],[60,1],[23,25],[100,-8],[75,-47],[10,-106],[68,23],[27,-68],[124,-15],[35,-27],[-6,-57],[233,17]],[[16451,6147],[19,66],[3,98],[-34,15],[-7,100],[37,36],[-96,38],[31,98]],[[16404,6598],[56,-19],[54,16],[-3,50],[54,6],[52,55],[94,16],[63,-57],[79,-30],[3,34]],[[16856,6669],[169,-57],[56,-47],[130,23],[44,30],[29,-42],[79,-17],[63,34],[22,-20],[61,21],[-5,63],[58,27],[67,-27],[61,74],[26,56],[59,-26],[35,13]],[[17810,6774],[89,-72],[35,-45],[70,10],[23,-95]],[[18027,6572],[-7,-33],[-54,-31],[-12,-65],[-80,31],[-12,62],[-53,-13],[5,-40],[94,-79],[-48,-82],[-25,-88],[-89,69],[-71,14],[-7,63],[-64,26],[-39,-9],[-138,-157],[-134,-64],[-59,-15],[-54,12],[-28,-30],[1,-117]],[[17153,6026],[-47,-53],[-54,5],[-16,-45],[-46,-13],[-2,-61],[-123,-152],[-59,49],[-78,122],[-12,34]],[[14073,1892],[26,-36],[4,-87],[-58,-79],[-21,-70],[-114,-67],[31,-133],[-55,-22],[-15,-82],[19,-66],[-30,-16],[-8,-57],[-37,-47],[29,-31],[-24,-57]],[[13820,1042],[-74,-33],[-99,-16],[-92,24],[-36,39],[-88,14],[-34,-35],[-57,34],[-60,-55],[-41,28]],[[13239,1042],[-83,96],[10,105],[23,34],[-31,117],[-11,100],[-121,47],[34,142],[55,41],[15,42],[-25,46],[-3,87],[23,15],[23,99]],[[13148,2013],[58,24],[100,9],[37,32],[55,131],[100,-45],[78,48],[88,5],[137,-24],[33,57]],[[13834,2250],[50,-28],[35,-65],[-27,-37],[113,-129],[17,-85],[51,-14]],[[719,3426],[-86,28],[-20,46],[-91,22],[-47,88],[-58,45],[-81,-5],[-15,63],[-37,27]],[[284,3740],[31,13],[24,82],[-50,45],[-17,110],[36,66]],[[10764,7533],[-20,-74],[31,-85],[79,-46],[109,-36],[74,22]],[[11037,7314],[-11,-80],[31,-43],[-37,-59],[-106,-43]],[[10914,7089],[-40,-30],[-62,-11],[-40,17],[-102,-45]],[[10670,7020],[-47,-1],[-34,41],[-58,-5],[-91,21],[-29,100],[59,20],[-25,49],[-65,-29],[-35,57],[45,43],[27,-7],[56,72],[-4,45],[-39,19],[17,84],[49,94],[-59,27],[-59,82]],[[10378,7732],[-31,55],[14,37],[59,-21],[42,36],[37,-25],[15,-110],[32,-55],[39,50],[73,16],[97,-148],[9,-34]],[[17153,6026],[123,-106],[123,-163],[-151,-218],[-22,-133]],[[17226,5406],[-136,28],[-19,34],[-60,-27],[18,-80],[24,-31],[155,-28]],[[17208,5302],[-11,-69],[3,-107]],[[17200,5126],[-155,24],[-53,66],[-206,-28],[-25,-44]],[[16761,5144],[-63,36],[-33,54],[21,50],[-41,58],[-120,29],[-90,-4],[-93,91]],[[16342,5458],[61,73],[-77,89],[80,58]],[[16795,5667],[-162,-36],[32,-101],[-9,-70],[89,-114],[38,2],[-20,101],[29,38],[72,31],[11,66],[-39,98],[-41,-15]],[[215,2926],[-43,-1],[-14,43],[-41,31],[-17,74],[30,55],[-40,55],[-40,15],[37,68],[-87,108],[37,36],[25,69],[75,71],[27,106],[60,79],[60,5]],[[11249,1222],[-16,-15],[-71,31],[-26,-14],[-64,-94],[-42,42],[-37,-51],[-84,13],[-94,-59]],[[10815,1075],[-59,18],[-100,-41],[-73,0],[-67,-30]],[[10516,1022],[42,21],[21,50]],[[10579,1093],[14,34],[-81,50],[12,60],[73,44],[-29,115],[-56,63],[-67,9],[-48,-20],[-49,75],[-69,10]],[[10279,1533],[39,57],[-12,72],[10,101],[-65,94],[-67,49],[21,46],[-7,59],[51,35]],[[10249,2046],[82,-34],[16,29],[54,4],[133,103],[29,-19]],[[10563,2129],[-9,-29],[29,-58],[68,0],[24,-28],[18,-118],[-5,-52],[86,-67],[35,16],[87,-30],[29,-28],[70,-1],[-22,-74],[43,-52],[57,13],[0,-86],[68,7],[47,-23],[-18,-104],[4,-57],[97,20],[39,-14],[-45,-82],[-16,-60]],[[12344,8329],[53,-24],[27,-60],[45,-14],[47,21],[116,-38]],[[12632,8214],[91,-69],[112,-46],[37,-33],[7,-54],[-53,-5],[-6,-47],[-56,-25],[25,-44],[-4,-46],[55,-21],[72,-101]],[[12912,7723],[-30,-78],[-61,-2],[-71,-105],[-108,-37],[-12,-44],[-157,-53],[-20,-30],[-59,25],[-79,-93],[-110,89],[-6,-66],[-39,-64],[-43,9],[-37,-27],[-17,76],[-79,28],[-22,-29],[-69,8],[-59,33]],[[11834,7363],[-45,79],[-44,26],[-12,46],[71,41],[3,63],[-38,54],[-35,7],[-21,69],[-40,11],[9,52],[-36,71],[5,55],[-55,47],[-19,68],[33,85],[45,34],[0,108],[-22,24]],[[11633,8303],[-18,57],[108,-13],[26,42],[25,120],[-21,43],[59,10],[83,-108],[101,-14],[19,-30],[88,43],[31,41],[35,-23],[31,-71],[55,4],[23,-84],[66,9]],[[16856,6669],[-7,69],[-51,-2],[-40,58],[0,87],[40,145],[-32,15],[18,76],[-40,-2],[-57,42],[-10,63]],[[16677,7220],[56,144]],[[16733,7364],[56,13],[129,-66],[111,50],[28,39],[-61,27],[15,37],[-71,77],[-35,14],[-98,192],[4,46],[-23,90],[153,32],[58,-36],[35,48],[-48,44],[26,73],[129,100],[-39,140],[57,57],[-13,92],[64,-23],[21,81],[63,-6],[45,36],[54,-60],[106,-45],[2,62],[30,39],[113,-33],[20,73],[32,-24]],[[17696,8533],[-23,-60],[51,-20],[-15,-63],[5,-110],[16,-72],[27,-36],[-32,-59],[-46,-27],[-17,-72],[-43,-16],[-15,-77],[-95,-101],[4,-55],[28,-59],[-31,-35],[13,-52],[-36,-92],[7,-80],[75,-18],[-9,-30],[89,-45],[-34,-59],[33,-85],[42,-62],[75,-28],[-26,-106],[37,-56],[35,-119],[-1,-65]],[[12344,8329],[72,68],[-17,57],[20,79],[-24,44],[68,193],[80,39],[48,69],[41,119],[-6,65],[75,13],[26,-18],[72,10],[17,-37],[104,-14],[58,-32],[59,65],[-65,54],[11,92],[28,38],[8,191],[44,85],[-12,146],[-24,75],[5,93],[40,48],[19,69],[44,34],[46,-34],[59,10],[-2,-55],[66,-10],[107,3],[46,-17],[33,-117],[-23,-77]],[[13467,9677],[64,-72],[-17,-132],[-43,-44],[25,-47],[-39,-24],[-22,-58],[55,-111],[-100,-74],[13,-77],[-26,-52],[53,-38],[5,-72],[25,-28],[-21,-63]],[[13439,8785],[-95,26],[-6,-83],[-66,44],[-22,-22],[-86,35],[-82,-16],[-54,-98],[51,-66],[38,-20],[-25,-75],[-37,8],[-39,-38],[-56,23],[-28,-55],[-63,0],[-62,30],[-61,-43],[-110,-46],[-60,-82],[62,-61],[-6,-32]],[[10661,6135],[1,-31],[-72,-46],[17,-40],[61,-23],[-24,-35],[33,-47],[-4,-66],[-37,-49],[36,-128],[127,-28],[97,-58],[29,-44],[-6,-59],[-84,-26],[-74,-69],[-64,-3],[22,-101],[55,-9],[-16,-53],[65,-91],[19,-72],[-91,-23],[-35,-37]],[[10716,4997],[-65,-14],[-76,47],[-75,-17],[-40,47],[-98,31],[-53,-27],[-113,-24],[-33,18],[-59,-68],[-42,-94],[-72,-35],[-6,-74],[-25,-83],[13,-91],[-11,-62],[97,-21],[49,-92],[-23,-42],[34,-80],[-27,-71],[-49,-43],[-55,-99],[-91,-5],[-89,14],[-49,33],[-58,-1]],[[9700,4144],[-123,76],[-43,6]],[[9534,4226],[-34,57],[-29,6],[-33,72],[17,64],[-12,71],[65,52],[2,71],[41,66],[-12,39],[-68,7]],[[9471,4731],[-14,42],[39,66],[-4,33],[81,56],[44,119],[-178,38],[-96,54],[24,126],[45,53],[119,-53],[49,16]],[[9580,5281],[46,-2],[54,-54],[68,44],[6,52],[47,88],[32,18],[-81,61],[25,29],[34,110],[47,3],[28,37],[-21,46],[40,75],[50,17],[39,53],[81,47],[7,69],[-13,78],[68,17],[16,72],[49,30],[62,100],[34,30]],[[10298,6301],[29,33],[54,-71],[14,-51],[75,-10],[96,43],[95,-110]],[[14032,3531],[26,-44],[27,-109],[82,-49],[-40,-32],[14,-105],[30,-40],[60,-16],[59,-42],[59,16],[89,-18],[57,-62],[-3,-37],[44,-73],[80,-82],[42,-16],[-5,-48],[-57,-69],[1,-85],[133,-89],[-9,-64],[24,-21],[72,1]],[[14817,2447],[9,-74],[-41,-52],[-46,-8],[-37,-44],[-64,21],[-11,47],[-70,26]],[[14557,2363],[-19,52],[-57,-25],[-21,-59],[-39,4],[-47,-32],[16,-37],[-38,-94],[-26,-118],[-39,-33],[-87,0],[-41,-27],[-18,-45],[-42,-13],[-26,-44]],[[13834,2250],[-38,37],[25,46],[-25,50],[-56,6],[-36,65],[-9,54],[9,83],[-35,63],[-66,16],[-19,53],[-91,160],[27,44],[5,65],[-22,57],[-98,100],[-50,-15],[-84,24],[-62,-8]],[[13209,3150],[-10,59]],[[13199,3209],[42,53],[41,5],[35,73],[44,12],[32,44],[56,15],[82,67],[21,86],[84,61]],[[14039,2858],[-19,-79],[-78,25],[19,-148],[31,-39],[-25,-35],[-4,-77],[12,-65],[55,-25],[143,19],[12,-36],[67,33],[-11,40],[53,35],[-15,44],[19,102],[45,73],[10,44],[-34,64],[-122,15],[-44,-17],[-73,0],[-41,27]],[[10670,7020],[-25,-61],[-64,-10],[-22,-32],[-70,41],[-63,-52],[-110,-6],[-3,-31],[100,-67],[-39,-67],[-81,17],[-81,-59],[-109,-123]],[[10103,6570],[-51,-16],[-44,44],[-46,-17],[-29,33],[-65,-7],[-119,18]],[[9749,6625],[-1,91],[27,137],[-34,68],[-43,8],[-1,47],[-34,31],[-1,63],[50,12]],[[9712,7082],[46,-32],[34,21],[66,-2],[-10,53],[58,152],[103,38],[16,87],[-18,55],[36,49],[-105,156],[32,41],[-5,64],[84,55],[174,-113],[113,-14],[33,39]],[[10369,7731],[9,1]],[[16562,2890],[86,24],[63,2],[30,-83],[-70,-15],[2,-50],[-86,-42],[14,-78],[119,-63],[0,-20],[-181,-67],[45,-24],[69,-83],[-32,-62],[-66,40],[-14,-42],[-45,0],[-34,44],[-95,-24],[-55,45],[-19,-54],[-46,24],[-46,-16],[-34,57]],[[16167,2403],[-50,25],[-80,-7],[23,83],[-30,29],[-184,-13],[-19,85],[-43,34],[64,102],[-39,46],[-4,60],[-55,8]],[[15750,2855],[-3,107],[-67,187],[2,85]],[[15682,3234],[90,-16],[14,-65],[50,-42],[62,-4],[40,52],[108,-7],[50,-48],[50,-10],[103,-61],[10,-30],[-21,-74],[25,-50],[136,-10],[69,-25],[25,-39],[69,85]],[[9534,4226],[-37,-51],[-45,-8],[-28,-43],[-117,-31],[-66,83],[-36,104],[-49,37],[-30,-30],[-89,-10],[-36,17],[-51,75],[-90,-17],[-56,67],[-62,30],[-83,-30],[-49,-56],[-86,-65],[-115,19]],[[8409,4317],[-34,56],[57,82],[-31,62],[2,37],[65,13],[-19,55],[79,100],[3,48],[-41,82],[2,93],[-48,38],[-35,58]],[[8409,5041],[28,40],[60,30],[25,69],[63,-24],[77,62],[112,-34],[46,-51],[7,-39],[56,-16],[29,-119],[102,-61],[71,17],[191,-65],[53,3],[35,-102],[74,-41],[33,21]],[[15750,2855],[-18,-61],[-35,-30],[3,-58],[-18,-73],[83,-111],[9,-99],[52,-67],[-60,-38],[-33,-96]],[[15733,2222],[-33,67],[-30,-17],[-87,95],[-89,19],[-47,50],[-46,92],[-6,41],[-70,-22],[-123,-56],[-20,16]],[[15182,2507],[-7,93],[-49,3],[-35,47],[21,47],[46,18],[-29,80],[32,7],[64,-107],[23,51],[-37,101],[-29,30],[-11,65],[-39,72],[-42,37],[-33,-25],[-73,106],[-86,69],[39,68],[-43,100],[4,77],[-46,36],[-13,39],[11,82],[34,75],[49,19],[65,63],[-64,81],[-1,50],[-54,58],[12,56],[-20,86],[-51,3],[-36,54],[66,47],[40,57],[81,-21],[27,25],[77,-10],[29,-21],[52,33],[71,19],[42,77]],[[15269,4354],[102,-51],[42,12],[101,-12],[112,-105],[5,48],[59,21],[47,66],[8,-102],[33,-112],[27,-26]],[[15805,4093],[-14,-30],[27,-56],[68,-61]],[[15886,3946],[-108,-36],[-61,7],[4,-73],[-23,-20],[-51,53],[-19,-72],[-81,-21],[-14,-61],[61,-113],[0,-55],[33,-122],[44,-84],[11,-115]],[[7919,1408],[5,-28],[83,-17],[-20,-39],[47,-33],[138,27],[77,-21],[45,-40],[93,-31],[94,3],[43,-13],[19,-52],[98,0],[82,31],[69,7],[42,70],[52,3],[101,-88],[44,28],[50,-58],[80,-40],[26,8],[67,-40],[17,-30],[63,5]],[[9334,1060],[77,-4],[35,46],[64,-55],[71,10],[99,-12],[-7,-43],[-75,-77],[54,-82],[-41,-71],[-63,-46],[-43,-9]],[[9505,717],[-139,-37],[-92,19],[5,40],[-90,27],[-22,-34],[-44,-1],[-59,-64],[-53,28],[-30,-12],[-78,12],[-31,-33],[-53,71],[-92,28],[-25,42],[-53,-7],[-129,50],[-110,-19],[-60,26],[-82,-11],[-129,40],[-108,-12],[-54,12],[-31,-20],[-45,20],[-35,69],[-60,55],[-75,19],[-75,-51],[-37,56],[-60,29]],[[7559,1059],[5,167],[30,16],[21,97],[26,47],[32,-10],[45,35],[106,24],[95,-27]],[[16010,8916],[10,-86],[-61,-171],[-1,-88],[134,23],[-13,-51],[14,-89],[24,-56],[86,16],[-38,-62],[3,-91]],[[16168,8261],[-47,-7],[-96,20],[-21,-80],[-72,-30],[-24,-75],[22,-44],[-48,-139],[-30,14],[-57,-48],[-68,47],[-19,-40],[-75,35],[14,75],[-109,-11]],[[15538,7978],[-94,36],[-137,-83],[-46,-3],[-11,61],[-116,3],[-40,-19],[-66,27],[-23,-46],[-47,5]],[[14958,7959],[-28,52],[-37,17],[-11,56],[-41,26],[-2,41],[45,23],[-27,114]],[[14857,8288],[35,21],[106,28],[36,50],[149,15],[73,-21],[-5,89],[12,118],[71,70],[-173,41],[-127,39],[16,181],[75,6],[27,88],[55,73],[-74,17],[-91,43],[-44,88],[-102,0],[-59,18],[49,87]],[[14886,9339],[62,86],[115,-15],[22,22],[66,-92],[39,12],[41,-27],[63,-90],[54,-8],[7,-65],[107,-98],[238,-123],[108,-15],[36,23],[166,-33]],[[14857,8288],[-53,26],[-60,-55],[-133,28],[-33,-45],[-55,58],[-4,108],[-56,23],[17,44],[-72,-1],[-62,25]],[[14346,8499],[5,50],[-103,39],[-33,-40],[-117,99],[72,31],[-6,49],[-52,43],[15,72]],[[14127,8842],[34,32],[69,-9],[35,42],[0,60],[54,20],[10,38],[-41,27],[43,38],[-19,31],[31,53],[-29,33],[47,36],[37,-11],[63,56],[77,17],[-21,50],[-51,42],[22,107]],[[14488,9504],[77,-1],[26,-40],[54,-8],[88,-103],[58,9],[95,-22]],[[3554,3849],[-14,-105],[-42,-60],[-8,-82],[13,-71],[45,1],[37,-67],[88,-2],[-5,-71],[13,-85],[-24,-43],[30,-44],[54,-17],[-134,-117],[32,-159],[31,-36],[-14,-39],[10,-69],[32,-95],[101,-160],[-23,-86],[-27,-23],[-19,-108],[141,-94],[37,7]],[[3908,2224],[9,-78],[-70,-66],[-58,15],[-13,-58],[-28,-8],[-3,-115],[-60,-114],[29,-117],[-106,-65],[-14,-77],[-46,-47],[-50,-19],[-118,31],[-68,-5],[-60,-37],[-52,6],[-67,60],[-63,-25],[-44,61],[-98,-23],[-59,12],[81,129]],[[2950,1684],[45,34],[-15,68],[38,31],[4,99],[-46,26],[-3,69],[30,25],[17,83],[-26,28],[39,129],[-17,61],[15,60],[33,10],[21,54],[-47,58],[0,57],[-35,83],[-68,46],[-49,9],[-56,91],[-50,45],[-47,92],[24,71],[-5,59],[-41,138],[-53,21],[-24,53],[-55,-3],[-16,-46],[-52,12],[-36,41]],[[2475,3288],[8,112],[-38,19],[4,67],[79,-62],[19,-40],[71,0],[63,-22],[11,87],[-53,11],[-12,68],[-51,44],[32,30],[72,-27],[56,64],[31,-16],[32,83],[91,-10],[47,13],[67,83],[80,15],[2,-58],[88,-89],[11,-36],[121,55],[22,63],[115,-8],[37,11],[14,103]],[[3494,3848],[60,1]],[[3554,3849],[235,-4],[32,63],[72,36],[95,22],[22,24],[100,-5],[-59,-117],[109,-15],[48,37],[3,74],[55,15],[58,71],[92,-2],[107,-17]],[[4523,4031],[34,-26],[-20,-48],[56,-83],[75,-48],[76,-8],[20,-28],[-12,-109],[46,21],[99,-42],[50,8],[6,-45],[48,-105],[25,9],[53,-93],[93,-98],[26,-209],[-46,-30],[-42,2],[10,-67],[-20,-33],[24,-38],[-67,-74],[-29,-5],[4,-136],[35,-54],[-13,-29],[33,-82],[-24,-113],[-46,-21],[-2,-43]],[[5015,2404],[-42,-9],[-68,-52],[-102,-50],[-88,97],[-55,5],[-21,-60],[-42,-11],[-29,-64],[-93,-39],[-46,21],[-56,76],[-43,-20],[-49,27],[-188,-86],[-131,-1],[-54,-14]],[[4359,3695],[-34,-61],[-7,-98],[-71,-81],[-11,-82],[51,-22],[50,-53],[7,-34],[82,20],[18,-37],[1,-79],[95,40],[7,76],[54,49],[-24,69],[9,31],[-62,37],[-53,72],[63,21],[3,97],[-86,18],[-81,34],[-11,-17]],[[16167,2403],[-32,-110],[1,-81],[-50,6],[-20,-57],[-55,-34],[-58,6],[-49,-132],[-39,-7],[-72,-110],[-98,-42],[-49,-43],[-31,-55],[-74,10],[-48,-40],[-27,18]],[[15466,1732],[24,37],[16,145],[54,35],[2,38],[60,38],[21,85],[60,-4],[-1,71],[31,45]],[[10661,6135],[37,6],[72,65],[5,90],[21,34],[69,-14],[37,22],[-2,58],[41,18],[74,83]],[[11015,6497],[82,-111],[44,17]],[[11141,6403],[-26,-41],[-65,-21],[4,-28],[63,-32],[-26,-60],[29,-96],[48,-96],[164,-5],[27,87],[60,-58],[17,-50],[-17,-71],[-24,-20],[35,-52],[-40,-79],[67,-19],[96,5],[48,-69],[78,-25],[-26,-83],[12,-24],[-38,-112],[35,-19],[4,-46],[34,-53],[86,-53],[77,-111],[-21,-99],[-50,-12],[13,-41],[62,-49],[-7,-45]],[[11860,4926],[-94,-69],[-30,-43],[-38,16],[-56,-15],[-6,-56],[-145,-74],[-19,-40],[-72,1],[-35,25],[-41,-15],[-72,66],[-69,92],[-56,-50],[-88,-8],[-125,-66],[-102,-9],[-10,35],[22,156],[-86,87],[-22,38]],[[7282,4738],[-1,-103],[110,-27],[77,-33],[33,-39],[-59,-91],[-33,-19],[62,-73],[17,-73],[26,-42],[60,-44],[6,-38],[-82,-50],[-81,0],[15,-106],[-37,-69],[-50,-19],[-54,-78],[-38,26],[-94,-33],[-42,13],[-19,-48],[-37,-13],[-9,-49],[47,-76],[-68,-79],[-67,18],[-76,-57],[-85,-8],[-94,64],[-74,8],[-96,-107],[-65,-3],[-50,38],[-46,-49],[-66,16],[-61,-55],[-70,69],[-86,-118]],[[6095,3391],[-26,17],[-86,-37],[-67,6],[23,56],[22,133]],[[5961,3566],[95,40],[42,128],[18,20],[-46,147],[-2,41],[37,38],[46,-2],[-9,64],[26,64],[31,-7],[84,106],[72,-37],[40,-60],[79,49],[95,-2],[58,-20],[36,27],[-1,111],[9,216],[-27,59],[38,39],[-12,47],[33,85],[-6,115],[59,31],[-36,92]],[[6720,4957],[57,-24],[156,47],[33,-17],[-5,-68],[29,-22],[29,-69],[113,-92],[58,42],[92,-16]],[[11249,1222],[-5,-13]],[[11244,1209],[-34,-79],[9,-83],[51,-101],[-13,-111],[16,-71],[104,12],[7,-28],[65,8],[11,63],[82,64],[-3,27],[87,6],[56,54],[-36,45],[-52,-5],[-51,117],[-57,2],[-44,-30],[-52,26],[-26,42],[32,39]],[[11396,1206],[75,25],[39,-10],[36,41],[8,44],[77,-20],[81,63],[26,-48],[33,0],[12,-54],[98,-77]],[[11881,1170],[45,-36],[28,-78],[-53,-28],[53,-75],[-16,-101],[-57,-70],[-23,-73],[-72,-49],[29,-33],[-35,-35],[-12,-55],[64,-22],[17,-43],[-38,-43],[-10,-116],[-71,-61]],[[11730,252],[-58,13],[-67,-28],[-91,-6],[-86,-26],[-60,49],[-110,-43],[-43,42],[-102,-35],[-52,7],[-47,58],[-32,96],[-25,8]],[[10957,387],[31,208],[-95,60],[22,37],[-80,83],[-18,53],[64,20],[-20,86],[-37,8],[-9,133]],[[11244,1209],[53,0],[47,41],[76,4],[-24,-48]],[[16677,7220],[-51,12],[-7,-74],[-90,68],[-6,94],[-46,22],[-66,-1],[-26,-28],[-5,-99],[-36,-24]],[[16344,7190],[-40,72],[0,54],[-49,69],[-125,96],[-27,-20],[-81,14],[-19,-20],[-76,54],[-50,-35],[-140,-52],[-42,59],[-78,15],[-91,61],[-62,-25],[8,134],[-10,62],[60,26],[-2,87],[28,88],[-10,49]],[[16168,8261],[46,5],[19,79],[45,-22],[54,57],[20,-61],[54,-61],[-54,-46],[29,-38],[70,-24],[-27,-89],[93,-37],[-6,-107],[-53,-95],[83,-62],[-17,-91],[-24,3],[-29,-117],[46,-25],[43,-67],[46,-36],[22,26],[105,-89]],[[14818,7554],[-76,-40],[-64,1]],[[14678,7515],[-64,14],[-26,36],[12,86],[-114,-14],[-64,-36],[-1,65],[-68,8],[-12,97],[130,-9],[35,35],[48,-17],[36,40],[31,-128],[120,-112],[32,9],[45,-35]],[[14958,7959],[-46,-186],[-2,-60],[-79,-85],[2,-54]],[[14833,7574],[-15,-20]],[[14678,7515],[6,-89],[-73,-38],[-58,-9],[-156,19],[-99,-68]],[[14298,7330],[-54,8],[-41,-35],[-63,43],[-75,4],[-18,-147],[-49,-52],[-34,28],[-69,-4],[-33,-21],[-85,11],[-1,54],[39,55],[-17,26],[88,89],[4,35],[-123,45],[-36,66]],[[13731,7535],[125,73],[37,-21],[52,48],[19,75],[-76,20],[-23,93],[-51,64],[-42,-4],[-17,80],[96,36],[5,32],[-37,61],[42,73],[-9,96],[-33,48],[42,42],[-2,48],[49,34],[17,-52],[62,-77],[52,55],[28,-28],[54,29],[-16,39],[26,54],[66,-6],[42,-32],[72,-7],[-25,61],[60,30]],[[5961,3566],[-61,10],[-42,33],[-72,-13],[-49,22],[-15,98],[-173,144],[-74,47],[-111,88],[18,78],[54,38],[58,19],[20,82],[-10,82],[25,16],[-22,73],[-61,-2],[-30,72],[-68,2],[0,65],[21,60]],[[5369,4580],[130,-31],[43,1],[38,70],[120,49],[47,-4],[190,39],[17,-42],[98,25],[52,-34],[78,7],[59,-23],[94,34],[16,-37],[54,33],[-22,103],[-40,103],[-33,46],[-15,79],[51,-3],[103,67],[55,88],[37,-34],[-57,-144],[33,-56],[54,32],[144,34],[5,-25]],[[1632,2948],[30,-18],[125,26],[53,47],[135,7],[28,41],[66,-42],[42,14],[37,87],[39,52],[-20,28],[40,56],[62,32],[42,-35],[84,10],[41,-12],[39,47]],[[2950,1684],[-21,39],[-79,19],[-13,35],[-54,19],[-9,58],[-67,25],[-21,-28],[-69,-8],[-70,-28],[-13,-26],[-76,-35],[-14,34],[-75,-18],[-53,8],[-74,55],[-8,84],[52,118],[7,84],[-78,49],[-83,38],[11,56],[-67,80],[-64,-24],[-40,7],[-61,-106],[-4,-39],[-45,-14],[-7,-38],[24,-57],[-60,-7],[-121,31],[3,-48],[-39,-86],[22,-42],[-5,-70],[-93,1],[-59,-60],[-58,2]],[[14557,2363],[-67,-134],[25,-138],[29,-49],[-6,-64],[55,-23],[83,-5],[27,-122],[36,-3],[-8,-105],[-17,-38],[13,-147],[67,-1],[29,-37],[38,26],[18,-59],[-26,-89],[-47,25],[-6,-91],[-95,27],[-26,69],[-41,-48],[16,-25],[-16,-89]],[[14638,1243],[-27,-54],[-45,-44],[-56,40],[-118,-80],[15,-67],[-80,-112],[-37,-22],[-39,18],[-63,-20],[-12,89],[-42,4],[-62,59],[-46,-14],[-206,2]],[[13199,3209],[-43,67],[-62,64],[-48,76],[-71,26],[-87,-9],[-32,40],[-17,86],[-46,22],[-53,80],[-112,30],[-58,52],[-59,-44],[-18,-51],[-58,-14],[-19,30],[-185,115],[-72,2],[-26,61],[0,121]],[[12133,3963],[26,55],[40,10],[24,111],[-3,88],[65,-1],[40,111],[59,48],[65,99],[67,63],[35,-10],[50,-79],[61,95],[50,41],[158,40],[7,37],[115,-13],[-19,-46]],[[7559,1059],[-79,1],[-38,-19],[-26,35],[-146,-37],[-55,29],[-74,73],[-83,-6],[-18,37],[-75,6],[-36,40],[-104,65],[-35,91],[-24,124],[-120,44],[-60,-7],[20,74],[-23,46],[55,69],[-95,205],[-72,5],[-49,-56],[-60,121],[-73,11],[-17,31],[38,76],[-25,50],[-48,22],[0,96],[-40,91],[62,71],[41,-22],[38,24],[58,6],[29,68],[0,52],[58,39]],[[6483,2614],[49,14],[54,74],[59,3],[11,37],[77,23],[32,29],[11,93],[86,43],[32,-36],[52,27],[74,-23],[43,51],[91,-28],[16,-49],[59,-37],[33,31],[61,-42],[59,-13],[60,-67],[36,-15]],[[7478,2729],[102,-100],[36,-107],[67,-11],[29,-64],[-72,-110],[34,-64],[14,-69],[36,-14],[56,-94],[129,-73],[12,-73],[-2,-121],[108,-70],[27,-68],[39,-12],[93,-76],[27,-59],[-78,-81],[-77,49],[-49,-51],[-53,-12],[-37,-41]],[[12744,5146],[34,-34],[10,-58],[51,-20],[71,-1],[58,84],[198,75],[50,-45],[81,3]],[[12133,3963],[-73,-1],[-8,56],[-59,45],[-72,34],[-55,-23],[-36,43],[-120,-32],[-42,-29],[-77,-118],[-173,-81],[-41,-54],[-114,-36],[-34,-62],[6,-110]],[[11235,3595],[-87,-96],[-50,16],[-35,-45],[-47,-3],[-56,-104],[-34,-19],[-34,32],[-55,10],[-33,57],[-40,-57],[-64,-26],[-51,8],[-124,-77],[-51,41],[-108,-28]],[[10366,3304],[-97,56],[8,61],[-54,36],[-49,-66],[-56,-34],[-31,44],[-67,-8],[-18,-61],[-145,65],[-48,-10],[-56,35]],[[9753,3422],[-24,38],[13,138],[-70,286],[-26,55],[71,151],[-17,54]],[[11860,4926],[68,-1],[26,52],[9,68],[45,21],[49,-11],[108,54],[65,-12],[21,41],[45,11],[62,93],[100,-65]],[[15169,5974],[-57,-56],[-51,-4],[-38,-33],[-78,-14],[-47,12],[-48,-59],[-115,-90],[-70,21],[-23,-60],[-68,-42],[14,-72]],[[14588,5577],[-32,-52],[39,-57],[-2,-38],[-74,-61],[47,-79],[-20,-104]],[[13603,5356],[-3,38],[-37,71],[-49,4],[-37,57],[21,36],[121,76],[82,-2],[10,41],[62,-11],[59,37],[55,7]],[[13887,5710],[56,4],[72,32],[12,64],[52,16],[39,138],[78,9],[62,41],[16,95],[85,47],[-32,69],[23,65],[-6,48],[58,52],[72,-10],[115,7],[23,43],[109,31],[92,-25],[20,-19],[77,8],[16,-32],[65,22],[57,-16],[58,-40],[71,52]],[[11837,6519],[-62,26],[-68,-15],[-24,63],[-69,41],[-55,1],[-62,-50],[-39,-52],[-69,27],[-51,-35],[-51,-5],[-7,-62],[-38,-2],[-101,-53]],[[11015,6497],[60,55],[-84,25],[11,106],[76,63],[21,38],[-35,32],[-4,140],[-100,-2],[-50,62],[4,73]],[[11037,7314],[35,1],[27,45],[41,18],[76,-81],[69,-3]],[[11285,7294],[25,-19],[7,-64],[32,-45],[10,-87],[-26,-27],[32,-44],[54,-9],[49,-77],[103,92],[55,14],[43,34]],[[11669,7062],[14,-20],[102,-25],[75,27],[78,-23]],[[11285,7294],[22,67],[-5,52],[101,57],[81,-20],[23,-98],[-63,-14],[46,-48],[25,-95],[142,-100]],[[11657,7095],[12,-33]],[[16761,5144],[35,-66],[-26,-39],[-99,-28],[-60,-89],[-65,40],[-10,-67],[-52,-35]],[[16484,4860],[-43,-106],[-45,-14],[-30,36]],[[16366,4776],[-49,109],[-83,55],[-30,43],[-32,118],[21,118],[-15,32],[24,62],[-84,24]],[[16118,5337],[41,77]],[[16159,5414],[55,-16],[-3,-62],[38,-10],[20,47],[38,15],[3,46],[32,24]],[[13021,6875],[-22,19],[-18,85],[42,32],[-10,45],[51,34],[-19,159],[8,72],[-65,31],[-19,112],[29,89]],[[12998,7553],[62,-28],[37,13],[85,-45],[40,-42],[90,-26],[71,-59],[72,58],[73,36],[40,38],[56,-15],[44,12],[-2,47],[65,-7]],[[14298,7330],[43,-66],[-8,-61],[-71,-16],[15,-56],[-113,-48],[23,-33],[-15,-49],[-40,-25],[-38,-56],[42,-54],[7,-118],[80,-91],[80,-21],[-13,-69],[-34,-3],[-87,-52],[-37,-7],[8,-88],[-44,-68],[-63,-27],[-8,-32],[-53,-16],[-38,-61],[-140,-23],[-50,-39]],[[13744,6151],[-35,55],[26,98],[46,24],[-16,80],[-66,20],[-45,64],[-61,53],[-45,-6],[-15,59],[-58,-37],[-22,85],[-77,13],[-136,-17],[-120,-75]],[[16010,8916],[95,-11],[40,16],[74,-29],[61,-5],[15,50],[57,-66],[105,57],[8,40],[51,45],[2,47],[31,80],[31,20],[151,-15],[38,51],[58,-78],[68,-41],[168,-6],[26,-36],[15,-81],[-17,-36],[36,-43],[30,28],[56,5],[54,-22],[15,-43],[53,-33],[111,-6],[201,16],[30,-81],[-20,-65],[30,-21],[-5,-95],[18,-25]],[[15615,6623],[83,40],[34,-41],[87,73],[25,67],[66,8]],[[15910,6770],[35,-27],[58,-107],[37,-21],[84,15],[97,-55],[31,69],[152,-46]],[[10249,2046],[-73,95]],[[10176,2141],[113,82],[31,89],[47,27],[-2,89],[103,190],[-69,92],[35,74],[122,84],[25,-42],[79,2],[16,61],[-62,32],[-37,52],[-70,28],[-48,87],[-49,36],[-78,95],[43,43],[-9,42]],[[11235,3595],[29,1],[65,-47],[18,-68],[134,-108],[62,18],[46,-36],[26,-184],[-25,-32],[40,-85],[71,-25],[4,-40],[42,-21],[76,28],[96,-42],[-4,-57],[81,-85],[-3,-66],[37,-122],[29,-57],[29,-106],[5,-64]],[[12093,2397],[-141,-9],[-84,59],[-70,-56],[-15,-53],[-73,3],[-96,-63],[-22,53],[15,75],[-41,40],[-66,-2],[-23,21],[-93,-15],[-94,34],[-62,3],[-19,99],[-61,35],[-68,-70],[-70,37],[-18,-64],[-58,-27],[-126,-129],[-82,-8],[4,-53],[-25,-65],[-97,-27],[-45,-86]],[[13209,3150],[-55,-58],[-84,-21],[-40,-71],[-89,-110],[8,-47],[-66,-67],[-7,-150],[-72,45],[-40,-75],[-12,-75],[-41,13]],[[12711,2534],[-33,6],[-55,-40],[-85,3],[-74,-36],[-60,-45],[-123,0],[-96,-23],[-22,-54]],[[12163,2345],[-54,14],[-16,38]],[[14588,5577],[108,31],[53,-19],[46,22],[59,-7],[31,-77],[112,-35],[6,-79],[-13,-82],[53,35],[79,18],[-13,31],[44,34],[98,24],[45,-47],[81,32],[50,-46],[42,20],[99,-13],[38,-31],[65,-5],[19,-24],[68,27],[144,-114]],[[15902,5272],[-76,-71],[35,-47],[60,50],[24,-22]],[[15945,5182],[22,-60],[-13,-44],[46,-68],[-34,-116],[-6,-140],[-69,-115],[49,-93],[-23,-88],[61,-76],[-29,-14],[-69,78],[-64,6],[45,-126],[-11,-51],[24,-104],[-17,-57],[-52,-21]],[[15269,4354],[-27,60],[4,62],[-71,39],[-66,-20]],[[18027,6572],[62,-72],[-43,-51],[-15,-115],[46,-37],[-48,-54],[53,-44],[49,43],[40,-38],[41,-3],[40,-51],[-158,-135],[53,-38],[-62,-100],[52,-26],[-20,-106],[-46,-94],[-18,12],[-96,-37],[-47,2],[-19,-38],[100,-77],[-11,-36],[59,-76],[-50,-53],[31,-61],[17,-106],[-2,-82],[55,-75],[-126,-14],[-153,-38],[-153,-25],[-98,9],[-6,118],[-72,-64],[-25,-82],[-190,-5],[-66,155],[-1,48]],[[17208,5302],[18,104]],[[16484,4860],[43,-30],[96,-26],[64,-43],[19,29],[82,-47],[57,-52],[49,-8],[88,39],[53,-20],[76,-232],[34,-59],[18,-86],[-38,-47],[-89,-38],[43,-98],[-20,-70],[-83,-52],[-17,-42],[-77,-31],[-30,-61],[-70,-3],[-70,19],[-49,-82],[-27,75],[-65,16],[-30,-23],[23,-75],[4,-75],[-55,-54]],[[16513,3684],[-114,-32],[-40,31],[-8,123],[-69,24],[-60,54],[-74,186]],[[16148,4070],[55,51],[85,179],[-5,37],[-68,75],[9,72],[41,66],[0,63],[34,13],[24,65],[34,4],[9,81]],[[15886,3946],[67,0],[58,19],[78,90],[59,15]],[[16513,3684],[73,-72],[60,-202],[-27,-65],[-87,-55],[-16,-124],[-43,-37],[26,-78],[54,12],[33,-76],[-37,-61],[13,-36]],[[11657,7095],[16,109],[54,62],[29,-27],[88,27],[-50,37],[40,60]],[[12912,7723],[46,-60],[-27,-48],[67,-27],[0,-35]],[[1549,3372],[55,26],[74,-24],[80,66],[38,-1],[84,72],[33,-8],[43,47],[20,75],[71,73],[20,72],[86,32],[19,111],[89,73],[-24,76],[10,60],[-15,43],[-51,17],[-27,72],[56,196]],[[2210,4450],[82,-58],[85,-20],[82,8],[35,-12],[17,81],[42,53],[88,-40],[100,0],[43,-54],[57,-25],[96,-13],[12,-56],[33,-22],[86,47],[64,5],[32,26],[88,10],[34,-72],[-78,-67],[-4,-65],[27,-15],[68,24],[68,-21],[-21,-37],[69,-70],[60,-82],[-28,-48],[-3,-64],[50,-15]],[[2210,4450],[-61,82],[19,25],[78,11],[8,-64],[-44,-54]],[[8767,7240],[156,-3],[156,100],[98,119],[98,73]],[[9275,7529],[-2,-44],[99,-92],[125,-6],[45,-30],[92,19],[12,-83],[42,-34],[102,-6],[13,-40],[-30,-92],[-61,-39]],[[9749,6625],[-38,-35],[-73,-34],[-20,21],[-107,-28],[-22,-20],[-109,-3],[-112,-81],[-63,-103],[-67,-22],[-12,67],[-37,0]],[[10369,7731],[-45,35],[-94,103],[-71,28],[-73,77],[-48,86]],[[10038,8060],[50,62],[-10,55],[25,74],[38,-38],[74,76],[1,89],[51,64],[3,105],[-24,29],[14,78],[-15,81],[17,27],[-61,60],[57,63],[5,86],[44,65],[69,-8],[65,-47],[105,-128],[40,-33],[113,-22],[85,-123],[49,-8],[-14,-79],[-70,-1],[-33,-49],[47,-41],[43,-6],[-14,-54],[72,-49],[59,0],[46,-41],[34,33],[123,-15],[95,-28]],[[11221,8337],[-89,-45],[-3,-78],[-29,-60],[64,-34],[-17,-49],[31,-42],[-38,-45],[-45,8],[23,-99],[-10,-56],[-35,-12],[-26,-79],[-106,56],[-55,-153],[-122,-116]],[[9026,6155],[-7,-47],[59,-13],[114,-99],[-30,-39],[-47,-14],[-123,33],[-28,-41],[17,-81],[-9,-117],[-27,-21],[14,-55],[42,-49],[-9,-149],[54,-44],[68,0],[129,-67],[136,35],[65,-14],[28,-43],[91,31],[17,-80]],[[8409,5041],[-85,39],[-56,-58],[-141,8],[-55,52],[17,51],[55,39],[23,65],[-13,52],[59,81],[60,121]],[[8273,5491],[41,-46],[-49,-91],[47,-74],[-12,-51],[36,-42],[105,40],[37,35],[85,36],[16,63],[-87,88],[0,57],[-109,-24],[-81,94]],[[8302,5576],[-40,69],[-49,117],[-104,180],[-83,29],[-40,38],[-22,103]],[[8273,5491],[34,40],[-5,45]],[[9753,3422],[-69,-104],[-62,-58],[-55,-5],[-27,-30],[-97,-23],[-42,-27],[-48,12],[-107,-56],[-59,29],[-43,-63],[-49,-42],[5,-50],[-41,-52],[47,-71],[-11,-62],[52,-101]],[[9147,2719],[-131,-35],[-54,28],[-66,-29],[-25,-60],[21,-79],[-80,-25],[-72,-1],[-69,-31],[-54,-3],[-14,-29],[-112,-1],[-18,-50],[-127,63],[-40,52]],[[8306,2519],[-6,28],[67,91],[4,168],[-23,48],[4,56],[27,20],[7,135],[37,71],[4,101],[-32,39],[26,118],[33,14],[-16,72],[-49,21],[-29,49],[34,58],[-14,37],[77,62],[-56,45],[11,89],[24,46],[-10,51],[-54,41],[-8,50],[-42,52],[20,63]],[[8342,4144],[21,45],[50,21],[-4,107]],[[13887,5710],[-20,22],[5,104],[-18,46],[-72,27],[-45,41],[27,46],[-51,120],[31,35]],[[14833,7574],[81,5],[41,-70],[75,-33],[25,-85],[-67,-18],[-32,20],[-37,-42],[17,-48],[46,-46],[106,-54],[-21,-139],[29,9],[19,-80],[86,5],[17,47],[-8,62],[57,16],[60,-36],[32,31],[87,-153],[44,-95],[66,14],[32,105],[70,49],[72,5],[29,62],[36,-11],[54,30],[30,57],[94,-60]],[[15973,7121],[-28,-54],[-27,-100],[59,-52],[-24,-88],[-43,-57]],[[14776,7136],[-27,-24],[-65,1],[-16,-73],[-59,20],[-47,-36],[-90,-40],[-15,-141],[-30,-12],[1,-66],[67,-14],[7,-63],[-35,-20],[29,-69],[116,-27],[38,55],[1,68],[-32,28],[9,65],[47,18],[10,66],[124,43],[25,38],[5,66],[-18,47],[15,41],[-60,29]],[[12163,2345],[47,-76],[85,-47],[36,-42],[-30,-41],[12,-72],[-37,-100],[-37,-31],[-11,-105],[21,-30],[2,-105]],[[12251,1696],[12,-39],[-22,-77],[-37,-59],[5,-109],[-86,32],[10,-69],[-116,-32],[-43,34],[-20,-110],[-45,-24],[-28,-73]],[[9275,7529],[22,40],[11,81],[43,106],[-30,95],[74,203],[-28,47],[9,53],[-31,70],[30,28],[61,-29],[69,62],[11,68],[45,-13],[101,-98],[72,31],[59,-57],[69,-20],[26,-57],[101,-63],[49,-16]],[[12893,6027],[-89,97],[-56,88]],[[4523,4031],[-29,83],[-44,0],[-1,58],[41,32],[70,96],[29,-33],[92,6],[43,-16],[160,37],[37,41],[-5,76],[48,134],[85,47],[40,-35],[101,18],[107,-5],[72,10]],[[6095,3391],[-4,-27],[59,-39],[22,-59],[-21,-22],[-48,-158],[26,-116],[0,-64],[45,-30],[7,-64],[35,-61],[-10,-49],[26,-44]],[[6232,2658],[-41,-28],[-38,18],[-51,-35],[-12,-38],[-78,10],[-54,-53],[-101,10],[-77,-62],[-33,15],[-211,-135],[-21,-33],[-132,-15],[-37,-58],[-44,-18],[-47,13],[-39,79],[-54,8],[-57,-14],[-72,43],[-18,39]],[[10279,1533],[-126,42],[-41,-31],[-73,2],[-33,21],[-80,11],[-74,-100],[-72,32],[-37,-42],[30,-25],[-69,-55],[-49,32],[-63,15],[-83,-40],[-32,33],[-81,15],[-35,28],[-25,-59],[9,-55],[-35,-25],[43,-60],[2,-42],[-51,-19],[-5,-38],[48,-24],[-13,-89]],[[7478,2729],[38,36],[-1,44],[76,3],[64,35],[19,-115],[81,2],[21,-30],[93,18],[39,-56],[55,-8],[27,21],[52,-19],[64,1],[43,-20],[14,-64],[52,-77],[74,-1],[17,20]],[[9147,2719],[61,-16],[5,-47],[49,-41],[60,45],[72,-4],[152,-44],[90,-48],[55,-14],[81,26],[52,-14],[27,-61],[106,4],[-14,-42],[15,-87],[30,-38],[66,-25],[28,17],[63,-63],[6,-92],[25,-34]],[[11786,6459],[-29,-39],[-92,-10],[-68,-70],[5,-82],[72,-34],[46,12],[62,51]],[[12244,5907],[131,-63],[60,-4],[73,-90],[24,-79]],[[14817,2447],[50,-38],[70,31],[48,90],[59,-17],[49,-78],[63,27],[26,45]],[[15466,1732],[-26,-31],[31,-67],[-32,-216],[20,-79],[67,-77],[51,-94],[-11,-112],[-65,33],[-17,44],[-48,30],[-86,16],[-81,77],[-116,47],[-70,2],[-92,-31],[-65,-55],[-74,2],[-43,-15],[-62,11],[-46,30],[-63,-4]],[[16344,7190],[-43,12],[-94,-52],[-154,-126],[-18,45],[-62,52]],[[11221,8337],[46,-33],[74,14],[17,-27],[153,-73],[36,74],[52,-20],[34,31]],[[10957,387],[-47,26],[-98,28],[-71,-43],[-35,-1],[-42,43],[-46,15],[-64,55],[-74,37],[-71,6],[-64,-34],[-58,19],[-45,-47],[-42,-4],[-97,48],[-68,19],[-126,0],[-108,69],[-86,18],[-54,-24],[-20,46],[-44,6],[-67,-18],[-25,66]],[[10579,1093],[-150,-63],[-120,14],[-35,45],[-63,-11],[3,-67],[-22,-43],[-66,8],[-82,-82],[-86,-22],[70,-70],[55,0],[-2,-87],[49,-26],[66,35],[117,10],[-1,26],[85,31],[135,-34],[68,46],[-95,129],[23,42],[-12,48]],[[10103,6570],[21,-36],[79,-20],[15,-69],[66,-32],[-18,-85],[32,-27]],[[13148,2013],[-24,48],[-59,60],[-62,165],[-41,41],[-109,27],[-73,84],[-41,10],[-38,50],[10,36]],[[12251,1696],[77,-52],[108,-129],[6,-40],[61,-40],[10,-138],[97,-109],[10,-58],[81,-6],[116,-99],[74,23],[86,-80]],[[12977,968],[-77,-106],[-46,1],[-35,29],[-53,-30],[-79,-156],[-38,-204],[-79,-37],[-61,19],[-54,-5],[-64,-40],[-4,-44],[-62,-49],[-20,-65],[-104,-42],[-44,1],[-63,-38],[2,-127],[-27,-75],[-46,1],[-9,62],[-32,71],[-42,46],[-40,1],[-32,-42],[-38,26],[-80,12],[-20,75]],[[13467,9677],[153,69],[107,-7],[31,85],[22,14],[73,-31],[25,33],[83,-12],[138,-114],[105,1],[80,-60],[27,-82],[177,-69]],[[14127,8842],[-13,38],[32,41],[-64,20],[-32,118],[-40,-12],[-25,-45],[-46,39],[-50,7],[-43,-73],[-48,-40],[-46,61],[-34,-48],[-64,10],[-74,-76],[-43,-7],[-52,35],[-19,-54],[38,-53],[-27,-36],[-38,18]],[[10772,6922],[-42,-33],[-47,11],[-24,-66],[-39,6],[-9,-73],[30,-30],[-29,-39],[-2,-52],[63,4],[104,64],[43,4],[88,70],[-65,88],[-71,46]],[[15945,5182],[45,4],[24,93],[39,-8],[9,73],[56,-7]],[[16159,5414],[-4,41],[-40,27],[8,56],[-117,10],[4,92],[-75,-101],[-8,-39],[33,-45],[-28,-57],[-8,-108],[-22,-18]],[[13239,1042],[-58,-3],[-59,-41],[-88,-149],[-21,87],[-36,32]],[[7282,4738],[53,128],[25,29],[54,9],[59,-16],[27,34],[158,-5],[111,-71],[-48,-35],[54,-71],[72,-43],[5,-35],[-52,-54],[-29,-70],[36,-84],[56,-45],[72,4],[22,-72],[56,-19],[10,-35],[57,-59],[106,-67],[47,-19],[31,27],[44,-68],[34,43]],[[6483,2614],[-33,49],[-98,38],[-83,-49],[-37,6]]],"transform":{"scale":[0.0004180975341187204,0.0002651485351385516],"translate":[9.530952372466038,46.37651561760468]},"objects":{"AUT":{"type":"GeometryCollection","geometries":[{"arcs":[[[0,1,2,3]],[[4,5,6,7,8,9,10,11]]],"type":"MultiPolygon","properties":{"name":"Amstetten","shapeGroup":"AUT","gid":"AUT-2-0"},"id":"AUT-2-0"},{"arcs":[[12,13,14,15,16,17]],"type":"Polygon","properties":{"name":"Baden","shapeGroup":"AUT","gid":"AUT-2-1"},"id":"AUT-2-1"},{"arcs":[[18,19,20,21,22]],"type":"Polygon","properties":{"name":"Bludenz","shapeGroup":"AUT","gid":"AUT-2-2"},"id":"AUT-2-2"},{"arcs":[[23,24,25,26]],"type":"Polygon","properties":{"name":"Braunau am Inn","shapeGroup":"AUT","gid":"AUT-2-3"},"id":"AUT-2-3"},{"arcs":[[-23,27,28,29,30]],"type":"Polygon","properties":{"name":"Bregenz","shapeGroup":"AUT","gid":"AUT-2-4"},"id":"AUT-2-4"},{"arcs":[[31,32,33,34,35,36,37]],"type":"Polygon","properties":{"name":"Bruck-Mürzzuschlag","shapeGroup":"AUT","gid":"AUT-2-5"},"id":"AUT-2-5"},{"arcs":[[-14,38,39,40,41,42,43]],"type":"Polygon","properties":{"name":"Bruck an der Leitha","shapeGroup":"AUT","gid":"AUT-2-6"},"id":"AUT-2-6"},{"arcs":[[44,45,46,47,48]],"type":"Polygon","properties":{"name":"Deutschlandsberg","shapeGroup":"AUT","gid":"AUT-2-7"},"id":"AUT-2-7"},{"arcs":[[-29,49,50]],"type":"Polygon","properties":{"name":"Dornbirn","shapeGroup":"AUT","gid":"AUT-2-8"},"id":"AUT-2-8"},{"arcs":[[51,52,53,54,55]],"type":"Polygon","properties":{"name":"Eferding","shapeGroup":"AUT","gid":"AUT-2-9"},"id":"AUT-2-9"},{"arcs":[[-15,-44,56,57,58,59,60,61],[62]],"type":"Polygon","properties":{"name":"Eisenstadt-Umgebung","shapeGroup":"AUT","gid":"AUT-2-10"},"id":"AUT-2-10"},{"arcs":[[-63]],"type":"Polygon","properties":{"name":"Eisenstadt(Stadt)","shapeGroup":"AUT","gid":"AUT-2-11"},"id":"AUT-2-11"},{"arcs":[[-22,63,-50,-28]],"type":"Polygon","properties":{"name":"Feldkirch","shapeGroup":"AUT","gid":"AUT-2-12"},"id":"AUT-2-12"},{"arcs":[[64,65,66,67,68,69,70]],"type":"Polygon","properties":{"name":"Feldkirchen","shapeGroup":"AUT","gid":"AUT-2-13"},"id":"AUT-2-13"},{"arcs":[[71,72,73,74,75]],"type":"Polygon","properties":{"name":"Freistadt","shapeGroup":"AUT","gid":"AUT-2-14"},"id":"AUT-2-14"},{"arcs":[[-41,76,77,78,79]],"type":"Polygon","properties":{"name":"Gänserndorf","shapeGroup":"AUT","gid":"AUT-2-15"},"id":"AUT-2-15"},{"arcs":[[-72,80,81,82]],"type":"Polygon","properties":{"name":"Gmünd","shapeGroup":"AUT","gid":"AUT-2-16"},"id":"AUT-2-16"},{"arcs":[[83,84,85,86,87,88,89]],"type":"Polygon","properties":{"name":"Gmunden","shapeGroup":"AUT","gid":"AUT-2-17"},"id":"AUT-2-17"},{"arcs":[[-34,90,91,92,-49,93,94,95],[96]],"type":"Polygon","properties":{"name":"Graz-Umgebung","shapeGroup":"AUT","gid":"AUT-2-18"},"id":"AUT-2-18"},{"arcs":[[-97]],"type":"Polygon","properties":{"name":"Graz(Stadt)","shapeGroup":"AUT","gid":"AUT-2-19"},"id":"AUT-2-19"},{"arcs":[[-55,97,98,99,100,101]],"type":"Polygon","properties":{"name":"Grieskirchen","shapeGroup":"AUT","gid":"AUT-2-20"},"id":"AUT-2-20"},{"arcs":[[102,103,104,105]],"type":"Polygon","properties":{"name":"Güssing","shapeGroup":"AUT","gid":"AUT-2-21"},"id":"AUT-2-21"},{"arcs":[[-87,106,107,108]],"type":"Polygon","properties":{"name":"Hallein","shapeGroup":"AUT","gid":"AUT-2-22"},"id":"AUT-2-22"},{"arcs":[[-105,109,110,111,112,113,114]],"type":"Polygon","properties":{"name":"Hartberg-Fürstenfeld","shapeGroup":"AUT","gid":"AUT-2-23"},"id":"AUT-2-23"},{"arcs":[[115,116,117,118]],"type":"Polygon","properties":{"name":"Hermagor","shapeGroup":"AUT","gid":"AUT-2-24"},"id":"AUT-2-24"},{"arcs":[[119,120,121,122,123,124]],"type":"Polygon","properties":{"name":"Hollabrunn","shapeGroup":"AUT","gid":"AUT-2-25"},"id":"AUT-2-25"},{"arcs":[[-124,125,126,127,128]],"type":"Polygon","properties":{"name":"Horn","shapeGroup":"AUT","gid":"AUT-2-26"},"id":"AUT-2-26"},{"arcs":[[129,130,131,132,133]],"type":"Polygon","properties":{"name":"Imst","shapeGroup":"AUT","gid":"AUT-2-27"},"id":"AUT-2-27"},{"arcs":[[-130,134,135,136],[137]],"type":"Polygon","properties":{"name":"Innsbruck-Land","shapeGroup":"AUT","gid":"AUT-2-28"},"id":"AUT-2-28"},{"arcs":[[-138]],"type":"Polygon","properties":{"name":"Innsbruck-Stadt","shapeGroup":"AUT","gid":"AUT-2-29"},"id":"AUT-2-29"},{"arcs":[[-104,138,139,-110]],"type":"Polygon","properties":{"name":"Jennersdorf","shapeGroup":"AUT","gid":"AUT-2-30"},"id":"AUT-2-30"},{"arcs":[[-84,140,141,142,143]],"type":"Polygon","properties":{"name":"Kirchdorf an der Krems","shapeGroup":"AUT","gid":"AUT-2-31"},"id":"AUT-2-31"},{"arcs":[[144,145,146,147]],"type":"Polygon","properties":{"name":"Kitzbühel","shapeGroup":"AUT","gid":"AUT-2-32"},"id":"AUT-2-32"},{"arcs":[[-65,148,149,150,151,152,153]],"type":"Polygon","properties":{"name":"Klagenfurt Land","shapeGroup":"AUT","gid":"AUT-2-33"},"id":"AUT-2-33"},{"arcs":[[-150,154]],"type":"Polygon","properties":{"name":"Klagenfurt(Stadt)","shapeGroup":"AUT","gid":"AUT-2-34"},"id":"AUT-2-34"},{"arcs":[[-78,155,156,-121,157]],"type":"Polygon","properties":{"name":"Korneuburg","shapeGroup":"AUT","gid":"AUT-2-35"},"id":"AUT-2-35"},{"arcs":[[158,159]],"type":"Polygon","properties":{"name":"Krems an der Donau(Stadt)","shapeGroup":"AUT","gid":"AUT-2-36"},"id":"AUT-2-36"},{"arcs":[[-123,160,161,-160,162,163,164,-126]],"type":"Polygon","properties":{"name":"Krems(Land)","shapeGroup":"AUT","gid":"AUT-2-37"},"id":"AUT-2-37"},{"arcs":[[-147,165,166]],"type":"Polygon","properties":{"name":"Kufstein","shapeGroup":"AUT","gid":"AUT-2-38"},"id":"AUT-2-38"},{"arcs":[[-20,167,-132,168]],"type":"Polygon","properties":{"name":"Landeck","shapeGroup":"AUT","gid":"AUT-2-39"},"id":"AUT-2-39"},{"arcs":[[-45,-93,169,170]],"type":"Polygon","properties":{"name":"Leibnitz","shapeGroup":"AUT","gid":"AUT-2-40"},"id":"AUT-2-40"},{"arcs":[[-35,-96,171,172]],"type":"Polygon","properties":{"name":"Leoben","shapeGroup":"AUT","gid":"AUT-2-41"},"id":"AUT-2-41"},{"arcs":[[-119,173,174,175]],"type":"Polygon","properties":{"name":"Lienz","shapeGroup":"AUT","gid":"AUT-2-42"},"id":"AUT-2-42"},{"arcs":[[-2,176,-36,-173,177,178,179,180,-85,-144,181]],"type":"Polygon","properties":{"name":"Liezen","shapeGroup":"AUT","gid":"AUT-2-43"},"id":"AUT-2-43"},{"arcs":[[-17,182,183,-38,184,185]],"type":"Polygon","properties":{"name":"Lilienfeld","shapeGroup":"AUT","gid":"AUT-2-44"},"id":"AUT-2-44"},{"arcs":[[-11,186,-142,187,-53,188,189,190]],"type":"Polygon","properties":{"name":"Linz-Land","shapeGroup":"AUT","gid":"AUT-2-45"},"id":"AUT-2-45"},{"arcs":[[-190,191,192]],"type":"Polygon","properties":{"name":"Linz(Stadt)","shapeGroup":"AUT","gid":"AUT-2-46"},"id":"AUT-2-46"},{"arcs":[[-61,193,194,195,196,197]],"type":"Polygon","properties":{"name":"Mattersburg","shapeGroup":"AUT","gid":"AUT-2-47"},"id":"AUT-2-47"},{"arcs":[[-5,198,199,-164,200,201]],"type":"Polygon","properties":{"name":"Melk","shapeGroup":"AUT","gid":"AUT-2-48"},"id":"AUT-2-48"},{"arcs":[[-79,-158,-120,202]],"type":"Polygon","properties":{"name":"Mistelbach","shapeGroup":"AUT","gid":"AUT-2-49"},"id":"AUT-2-49"},{"arcs":[[-13,203,204,-39]],"type":"Polygon","properties":{"name":"Mödling","shapeGroup":"AUT","gid":"AUT-2-50"},"id":"AUT-2-50"},{"arcs":[[-70,205,206,-179,207,208]],"type":"Polygon","properties":{"name":"Murau","shapeGroup":"AUT","gid":"AUT-2-51"},"id":"AUT-2-51"},{"arcs":[[-95,209,210,211,-208,-178,-172]],"type":"Polygon","properties":{"name":"Murtal","shapeGroup":"AUT","gid":"AUT-2-52"},"id":"AUT-2-52"},{"arcs":[[-32,-184,212,213,214,-113,215]],"type":"Polygon","properties":{"name":"Neunkirchen","shapeGroup":"AUT","gid":"AUT-2-53"},"id":"AUT-2-53"},{"arcs":[[-43,216,-59,217,-57]],"type":"Polygon","properties":{"name":"Neusiedl am See","shapeGroup":"AUT","gid":"AUT-2-54"},"id":"AUT-2-54"},{"arcs":[[-195,218,219,220]],"type":"Polygon","properties":{"name":"Oberpullendorf","shapeGroup":"AUT","gid":"AUT-2-55"},"id":"AUT-2-55"},{"arcs":[[-106,-115,221,-220,222]],"type":"Polygon","properties":{"name":"Oberwart","shapeGroup":"AUT","gid":"AUT-2-56"},"id":"AUT-2-56"},{"arcs":[[-12,-191,-193,223,-74,224,-199]],"type":"Polygon","properties":{"name":"Perg","shapeGroup":"AUT","gid":"AUT-2-57"},"id":"AUT-2-57"},{"arcs":[[[-19,-31,225,226,-133,-168]],[[227]]],"type":"MultiPolygon","properties":{"name":"Reutte","shapeGroup":"AUT","gid":"AUT-2-58"},"id":"AUT-2-58"},{"arcs":[[-24,228,229,-100,230]],"type":"Polygon","properties":{"name":"Ried im Innkreis","shapeGroup":"AUT","gid":"AUT-2-59"},"id":"AUT-2-59"},{"arcs":[[-56,-102,231,232,233]],"type":"Polygon","properties":{"name":"Rohrbach","shapeGroup":"AUT","gid":"AUT-2-60"},"id":"AUT-2-60"},{"arcs":[[-58,-218]],"type":"Polygon","properties":{"name":"Rust(Stadt)","shapeGroup":"AUT","gid":"AUT-2-61"},"id":"AUT-2-61"},{"arcs":[[-26,234,-88,-109,235,236,237]],"type":"Polygon","properties":{"name":"Salzburg-Umgebung","shapeGroup":"AUT","gid":"AUT-2-62"},"id":"AUT-2-62"},{"arcs":[[-237,238]],"type":"Polygon","properties":{"name":"Salzburg(Stadt)","shapeGroup":"AUT","gid":"AUT-2-63"},"id":"AUT-2-63"},{"arcs":[[-86,-181,239,240,241,242,-107]],"type":"Polygon","properties":{"name":"Sankt Johann im Pongau","shapeGroup":"AUT","gid":"AUT-2-64"},"id":"AUT-2-64"},{"arcs":[[-18,-186,243,-201,-163,-159,-162,244,245,-204],[246]],"type":"Polygon","properties":{"name":"Sankt Pölten(Land)","shapeGroup":"AUT","gid":"AUT-2-65"},"id":"AUT-2-65"},{"arcs":[[-247]],"type":"Polygon","properties":{"name":"Sankt Pölten(Stadt)","shapeGroup":"AUT","gid":"AUT-2-66"},"id":"AUT-2-66"},{"arcs":[[-71,-209,-212,247,248,-151,-155,-149]],"type":"Polygon","properties":{"name":"Sankt Veit an der Glan","shapeGroup":"AUT","gid":"AUT-2-67"},"id":"AUT-2-67"},{"arcs":[[-101,-230,249,-232]],"type":"Polygon","properties":{"name":"Schärding","shapeGroup":"AUT","gid":"AUT-2-68"},"id":"AUT-2-68"},{"arcs":[[-1,250,-6,-202,-244,-185,-37,-177]],"type":"Polygon","properties":{"name":"Scheibbs","shapeGroup":"AUT","gid":"AUT-2-69"},"id":"AUT-2-69"},{"arcs":[[-136,251,-166,-146,252,253]],"type":"Polygon","properties":{"name":"Schwaz","shapeGroup":"AUT","gid":"AUT-2-70"},"id":"AUT-2-70"},{"arcs":[[-69,254,-116,-176,255,-241,256,-206]],"type":"Polygon","properties":{"name":"Spittal an der Drau","shapeGroup":"AUT","gid":"AUT-2-71"},"id":"AUT-2-71"},{"arcs":[[-3,-182,-143,-187,-10,257,-8,258]],"type":"Polygon","properties":{"name":"Steyr-Land","shapeGroup":"AUT","gid":"AUT-2-72"},"id":"AUT-2-72"},{"arcs":[[-9,-258]],"type":"Polygon","properties":{"name":"Steyr(Stadt)","shapeGroup":"AUT","gid":"AUT-2-73"},"id":"AUT-2-73"},{"arcs":[[-92,259,-111,-140,260,-170]],"type":"Polygon","properties":{"name":"Südoststeiermark","shapeGroup":"AUT","gid":"AUT-2-74"},"id":"AUT-2-74"},{"arcs":[[-180,-207,-257,-240]],"type":"Polygon","properties":{"name":"Tamsweg","shapeGroup":"AUT","gid":"AUT-2-75"},"id":"AUT-2-75"},{"arcs":[[-122,-157,261,-245,-161]],"type":"Polygon","properties":{"name":"Tulln","shapeGroup":"AUT","gid":"AUT-2-76"},"id":"AUT-2-76"},{"arcs":[[-52,-234,262,-75,-224,-192,-189]],"type":"Polygon","properties":{"name":"Urfahr-Umgebung","shapeGroup":"AUT","gid":"AUT-2-77"},"id":"AUT-2-77"},{"arcs":[[-66,-154,263,-117,-255,-68,264]],"type":"Polygon","properties":{"name":"Villach Land","shapeGroup":"AUT","gid":"AUT-2-78"},"id":"AUT-2-78"},{"arcs":[[-67,-265]],"type":"Polygon","properties":{"name":"Villach(Stadt)","shapeGroup":"AUT","gid":"AUT-2-79"},"id":"AUT-2-79"},{"arcs":[[-25,-231,-99,265,-89,-235]],"type":"Polygon","properties":{"name":"Vöcklabruck","shapeGroup":"AUT","gid":"AUT-2-80"},"id":"AUT-2-80"},{"arcs":[[-48,266,-210,-94]],"type":"Polygon","properties":{"name":"Voitsberg","shapeGroup":"AUT","gid":"AUT-2-81"},"id":"AUT-2-81"},{"arcs":[[-152,-249,267,268]],"type":"Polygon","properties":{"name":"Völkermarkt","shapeGroup":"AUT","gid":"AUT-2-82"},"id":"AUT-2-82"},{"arcs":[[-82,269,-128,270]],"type":"Polygon","properties":{"name":"Waidhofen an der Thaya","shapeGroup":"AUT","gid":"AUT-2-83"},"id":"AUT-2-83"},{"arcs":[[-4,-259,-7,-251]],"type":"Polygon","properties":{"name":"Waidhofen an der Ybbs(Stadt)","shapeGroup":"AUT","gid":"AUT-2-84"},"id":"AUT-2-84"},{"arcs":[[-33,-216,-112,-260,-91]],"type":"Polygon","properties":{"name":"Weiz","shapeGroup":"AUT","gid":"AUT-2-85"},"id":"AUT-2-85"},{"arcs":[[-54,-188,-141,-90,-266,-98],[271]],"type":"Polygon","properties":{"name":"Wels-Land","shapeGroup":"AUT","gid":"AUT-2-86"},"id":"AUT-2-86"},{"arcs":[[-272]],"type":"Polygon","properties":{"name":"Wels(Stadt)","shapeGroup":"AUT","gid":"AUT-2-87"},"id":"AUT-2-87"},{"arcs":[[-40,-205,-246,-262,-156,-77]],"type":"Polygon","properties":{"name":"Wien(Stadt)","shapeGroup":"AUT","gid":"AUT-2-88"},"id":"AUT-2-88"},{"arcs":[[[-114,-215,272,-196,-221,-222]],[[-16,-62,-198,273,-213,-183]]],"type":"MultiPolygon","properties":{"name":"Wiener Neustadt(Land)","shapeGroup":"AUT","gid":"AUT-2-89"},"id":"AUT-2-89"},{"arcs":[[-197,-273,-214,-274]],"type":"Polygon","properties":{"name":"Wiener Neustadt(Stadt)","shapeGroup":"AUT","gid":"AUT-2-90"},"id":"AUT-2-90"},{"arcs":[[-47,274,-268,-248,-211,-267]],"type":"Polygon","properties":{"name":"Wolfsberg","shapeGroup":"AUT","gid":"AUT-2-91"},"id":"AUT-2-91"},{"arcs":[[-145,275,-242,-256,-175,276,-253]],"type":"Polygon","properties":{"name":"Zell am See","shapeGroup":"AUT","gid":"AUT-2-92"},"id":"AUT-2-92"},{"arcs":[[-73,-83,-271,-127,-165,-200,-225]],"type":"Polygon","properties":{"name":"Zwettl","shapeGroup":"AUT","gid":"AUT-2-93"},"id":"AUT-2-93"}]}}}