{"type":"Topology","arcs":[[[4329,3832],[-80,27],[-65,-28],[-57,18],[-77,-26]],[[4050,3823],[-50,10],[-38,37],[-17,58],[-44,77]],[[3901,4005],[-38,93],[29,37],[-61,31],[0,156],[-72,5]],[[3759,4327],[84,136],[57,-50],[122,-162],[163,-202],[113,-161],[31,-56]],[[4329,3832],[56,-123],[13,-103]],[[4398,3606],[-33,5],[-131,-25],[-19,-47],[25,-46],[-27,-78],[-58,-13],[-28,-39],[4,-105]],[[4131,3258],[-60,-54]],[[4071,3204],[-30,2],[-63,53]],[[3978,3259],[4,91],[-20,24],[58,68],[8,36],[-79,76],[37,76],[49,19],[32,54],[-23,18],[6,102]],[[4398,3606],[24,-98],[58,-130],[71,-68],[63,-76]],[[4614,3234],[-37,-27],[-102,12],[-124,63],[-2,51],[-50,8],[-35,-68],[-133,-15]],[[4614,3234],[52,-57],[70,-17],[60,-59],[-28,-48],[-4,-58],[20,-65]],[[4784,2930],[-21,-45],[-66,-58],[-4,-50],[-42,-29],[-101,1]],[[4550,2749],[-75,20],[-92,118],[-105,49],[-50,72],[-107,76],[-38,4]],[[4083,3088],[-27,68],[15,48]],[[3901,4005],[-164,-59],[-145,-88],[-117,-95],[-139,-80],[-50,-46],[-76,-27]],[[3210,3610],[-73,4],[-40,39]],[[3097,3653],[48,22],[3,85],[99,107],[4,63],[29,7],[46,84],[129,22],[49,47],[103,63],[65,64],[87,110]],[[3978,3259],[-126,33],[-45,26],[-103,18]],[[3704,3336],[-188,60],[-181,78]],[[3335,3474],[-85,48],[-41,52],[1,36]],[[4955,2638],[46,-5],[16,-36],[-36,-60],[-89,23],[63,78]],[[4784,2930],[3,-10]],[[4787,2920],[9,-37],[80,-102],[66,1],[21,42]],[[4963,2824],[24,-2]],[[4987,2822],[-8,-45],[112,-7],[72,-53],[-108,-15],[-33,-40],[-69,11],[-34,25],[-115,-8],[-56,-58],[-51,-4],[4,-153],[-18,-102],[-38,-27],[-1,-53],[-39,-54],[-8,-63],[-43,-110]],[[4554,2066],[-39,34],[-41,96],[-11,60],[-45,40],[-143,16],[-46,67],[-104,98],[1,39]],[[4126,2516],[94,-32],[67,77],[59,21],[35,42],[59,29],[110,96]],[[4787,2920],[28,-28],[104,-19],[44,-49]],[[5817,2470],[-42,55],[36,13],[53,-34],[-47,-34]],[[4987,2822],[94,-7],[162,33],[77,-19],[48,-66],[104,-32],[79,-101],[28,-11],[43,-75],[-11,-73],[-116,57],[-103,27],[-69,-24],[-36,7],[-76,-21],[-41,35],[-66,6],[-22,-86],[-43,1],[-96,-34],[-52,-39],[-150,-83],[-17,-25],[18,-65],[-53,-18],[5,-82],[42,-54],[-43,-23],[-27,-49],[14,-106],[-42,-85],[8,-66],[27,-51],[-60,-28]],[[4613,1665],[-11,44],[-3,183]],[[4599,1892],[2,35],[-36,63],[-11,76]],[[4126,2516],[-105,19]],[[4021,2535],[-56,15],[58,134],[-22,161],[-23,20],[24,61],[0,85],[81,77]],[[4021,2535],[-23,-56],[-57,-27],[-48,40],[-40,5],[-90,50]],[[3763,2547],[32,49],[15,67],[104,47],[-1,37],[-58,35],[-116,23],[-27,51],[76,76],[23,108],[-40,49],[-3,41]],[[3768,3130],[22,100],[-77,55],[-9,51]],[[3335,3474],[-50,-92],[-44,-4],[3,-54],[41,-23],[-6,-60],[-66,-30],[-13,-66],[-42,-14],[-72,-51],[-24,-62],[-43,-53]],[[3019,2965],[-113,-16],[-22,-14]],[[2884,2935],[-60,24],[-12,101],[-14,17]],[[2798,3077],[54,22],[0,47]],[[2852,3146],[19,109],[49,79],[5,93],[47,56],[20,133]],[[2992,3616],[38,0],[29,41],[38,-4]],[[3768,3130],[-31,-66],[-98,-97],[-66,-21],[-109,-90],[-28,-55],[-54,-20]],[[3382,2781],[-56,-15]],[[3326,2766],[-19,48],[28,29],[-16,52],[-57,30],[-91,19],[-123,5],[-29,16]],[[3763,2547],[-52,-61]],[[3711,2486],[-96,87],[1,73],[-37,32],[-65,-3],[-38,-39],[-48,53],[-60,8],[14,84]],[[4599,1892],[-66,59],[-65,-14],[-101,21],[-118,54],[-50,6]],[[4199,2018],[-7,63],[-28,13],[-22,-66]],[[4142,2028],[-82,88],[-128,44],[8,84],[-58,39],[-133,12]],[[3749,2295],[-17,35],[3,91],[-24,65]],[[4199,2018],[-43,-22]],[[4156,1996],[-14,32]],[[2852,3146],[-123,56],[-90,77],[-8,51],[-73,72],[2,64],[73,132],[14,120]],[[2647,3718],[49,8],[55,-24],[-2,-32],[38,-36],[80,43],[73,-9],[52,-52]],[[1632,2972],[-32,-48],[-42,24],[33,73]],[[1591,3021],[41,-49]],[[1989,1765],[24,-28]],[[2013,1737],[-16,-19],[-30,25],[22,22]],[[2067,1894],[5,-42],[-64,5],[4,49],[55,-12]],[[2438,2850],[-46,-2],[-12,44],[36,12],[22,-54]],[[2040,2684],[30,-31],[-36,-19],[-16,34],[22,16]],[[2451,3614],[-56,25],[42,38],[14,-63]],[[4613,1665],[-42,-62],[-30,-104]],[[4541,1499],[-119,-59],[-72,26],[-73,124],[-39,-43],[30,-27],[-3,-54],[-52,-38],[-21,-40],[-1,-72],[-87,-31],[-97,82]],[[4007,1367],[10,83],[-31,33],[-2,42],[26,73]],[[4010,1598],[77,20],[109,62],[-14,83],[16,60],[-32,29],[9,57],[-37,43],[18,44]],[[4010,1598],[-23,24],[-126,44],[-30,-13]],[[3831,1653],[-6,50],[119,43],[22,67],[-21,59],[11,29],[-38,78],[-56,13],[-32,44],[-59,1],[-41,-23],[-29,22],[16,45],[-42,42],[-134,-60],[-21,11]],[[3520,2074],[3,36]],[[3523,2110],[64,22],[23,60],[76,78],[63,25]],[[4119,468],[-2,-31]],[[4117,437],[-55,10],[10,29],[47,-8]],[[4420,738],[-15,38],[43,79]],[[4448,855],[23,-32],[-25,-72],[-26,-13]],[[4541,1499],[11,-78],[39,-63],[60,-52],[12,-53],[42,-76],[-17,-27],[-57,12],[-54,51],[-40,3],[-33,-60],[-8,-175],[-45,-55]],[[4451,926],[15,111],[-113,53],[-40,0],[-24,62],[-46,11],[-65,-45],[-94,-114]],[[4084,1004],[-66,-5],[-40,26]],[[3978,1025],[5,117],[-25,52],[4,103],[27,58]],[[3989,1355],[18,12]],[[4420,738],[-55,-17],[-19,46],[102,88]],[[4451,926],[-31,26],[-51,-22],[-13,46],[-65,62],[-96,-72],[-10,-121],[6,-44],[-19,-118],[-33,-84],[-24,54],[46,74],[-17,47]],[[4144,774],[-28,49],[9,59],[-52,46],[11,76]],[[2798,3077],[-43,-2],[-62,34],[-25,-17],[-108,24]],[[2560,3116],[-85,22],[-212,112],[-44,40]],[[2219,3290],[-17,61],[10,83],[-44,82],[-95,35],[22,115],[51,103],[69,51],[145,55],[94,78]],[[2454,3953],[23,-74],[26,-10],[11,-60],[28,-38],[105,-53]],[[2299,3112],[12,-55],[-42,-24],[-43,24],[-6,61]],[[2220,3118],[79,-6]],[[2560,3116],[-7,-43],[-58,-132],[28,-50],[-55,-93]],[[2468,2798],[-51,-73],[-32,-19],[-55,27],[-40,-31],[-9,-38],[-38,-20]],[[2243,2644],[-22,71]],[[2221,2715],[27,58],[-71,8],[-22,33],[18,85],[-126,52],[47,69],[-71,28],[-14,52],[23,100]],[[2032,3200],[31,9],[97,-41],[60,-50]],[[2299,3112],[62,2],[-12,45],[-114,50],[-86,59],[-60,62]],[[2089,3330],[103,-52],[27,12]],[[2089,3330],[-15,11]],[[2074,3341],[-43,54],[-30,95],[-105,37]],[[1896,3527],[24,141],[48,33],[3,55],[-71,75],[-7,27]],[[1893,3858],[128,203],[88,15],[94,-31],[97,45]],[[2300,4090],[65,37],[88,-141],[1,-33]],[[1893,3858],[-115,29],[-74,47],[-25,36],[-100,51],[-30,66],[29,28]],[[1578,4115],[47,-3],[37,29],[107,33],[31,44],[38,89],[69,48],[62,63],[19,68]],[[1988,4486],[25,-75],[100,-104],[35,11],[22,-60],[81,-67],[-7,-43],[56,-58]],[[1578,4115],[-4,22],[-76,33],[-45,-11],[-8,74],[-28,66],[1,53],[110,47],[110,89],[24,77],[47,-6],[77,-53],[-5,-48],[39,-27],[38,29],[73,-4],[57,30]],[[4144,774],[-27,-12],[-35,-75]],[[4082,687],[-42,17],[-29,-32],[-97,-64],[-41,7],[-47,45]],[[3826,660],[-5,44],[-39,44]],[[3782,748],[-58,16],[-6,61]],[[3718,825],[46,3],[42,58],[83,63],[7,58],[82,18]],[[4117,437],[5,-120]],[[4122,317],[-123,-17],[-61,-26],[-26,25]],[[3912,299],[33,55],[-34,32],[-20,94],[-90,77],[-2,68],[27,35]],[[4082,687],[2,-105],[35,-114]],[[4122,317],[8,-257],[-53,8],[-67,-48],[-76,-20],[-94,31],[-80,156]],[[3760,187],[52,91],[71,3],[29,18]],[[3760,187],[-35,33],[-27,58],[-97,-19],[-69,72],[-52,35],[29,30],[-37,53]],[[3472,449],[40,117],[49,58],[51,35],[170,89]],[[3472,449],[-32,22],[-84,20],[-88,73],[-13,59],[72,86],[142,23],[61,22],[59,66],[-5,25]],[[3584,845],[52,41],[82,-61]],[[3584,845],[-32,82],[-27,35],[-50,17],[-93,107],[7,81],[139,90],[54,16]],[[3582,1273],[16,-47],[138,65],[26,42],[40,-8],[13,-73],[53,-27],[24,29],[-4,58],[54,71],[47,-28]],[[3582,1273],[12,48],[-128,157],[-187,204],[-48,21]],[[3231,1703],[9,53],[61,-15],[106,-99],[99,-75],[56,-8],[65,48],[20,33]],[[3647,1640],[33,46],[35,1],[41,-56],[75,22]],[[3647,1640],[-52,42],[10,118],[-22,22],[-83,20],[-15,62],[31,94],[-19,57],[23,19]],[[2884,2935],[9,-86],[-31,-53]],[[2862,2796],[-49,5],[-53,-27],[-20,-95],[73,-83]],[[2813,2596],[-64,-85],[-51,-26]],[[2698,2485],[-113,123],[-28,61],[-71,74],[-18,55]],[[3326,2766],[-17,-80],[-35,-3]],[[3274,2683],[-62,5],[-71,36],[-84,25],[-34,-36],[-85,53],[-41,-3],[-35,33]],[[3274,2683],[-21,-120],[-43,-49]],[[3210,2514],[-68,0],[-106,-21],[-33,12],[-57,-15],[-38,58],[-95,48]],[[3523,2110],[-83,68],[-34,6],[-57,44],[-29,52],[-40,-6],[-53,-96],[-29,20],[-44,-18],[-28,44]],[[3126,2224],[58,39],[38,64],[-12,187]],[[3126,2224],[-80,1]],[[3046,2225],[-20,45]],[[3026,2270],[-38,64],[-32,10],[-88,-48],[-82,-10],[-41,63],[-6,62]],[[2739,2411],[-36,32],[-5,42]],[[3231,1703],[-65,-62],[-42,10],[-72,-14]],[[3052,1637],[-3,50],[39,57],[50,22],[26,44],[-56,29],[-45,68],[-45,22],[30,64],[-29,61],[74,53],[-46,75],[-1,43]],[[2739,2411],[-80,-45],[-65,-56],[-36,-4],[-51,54],[-20,-25]],[[2487,2335],[-112,-11]],[[2375,2324],[-22,56],[-1,121],[-33,9],[-53,58],[-23,76]],[[3026,2270],[-68,-138],[-9,-104],[-35,-47],[-81,-28],[-49,-2],[-57,-40],[4,-50],[-35,-40],[24,-43]],[[2720,1778],[-129,-31]],[[2591,1747],[22,73],[-9,26],[-74,36],[-3,40]],[[2527,1922],[35,52],[-49,45],[-72,-29],[-79,11],[-29,56],[45,42],[-1,70],[64,11],[6,32],[-43,35],[78,45],[5,43]],[[3052,1637],[-78,-90],[-74,-49]],[[2900,1498],[10,76],[-17,51],[-63,38],[-29,61],[-50,15],[-31,39]],[[1591,3021],[-10,80],[-34,43]],[[1547,3144],[-30,59],[25,113],[40,98],[-102,130]],[[1480,3544],[-134,66]],[[1346,3610],[25,27],[140,-11],[116,-117],[67,-1],[45,-47],[48,63],[41,6],[41,-25],[27,22]],[[2074,3341],[-35,-4],[-77,36],[-48,63],[-50,16],[-85,-6],[-58,-22],[57,-45],[18,-77],[-52,-25],[-99,11],[34,-50],[145,32],[95,-17],[23,-21]],[[1942,3232],[-31,-19],[-97,-102],[1,-31],[-53,-38],[-14,-65]],[[1748,2977],[-41,-22],[-75,17]],[[2221,2715],[-48,-14],[-24,-36],[-76,-47],[-87,-6],[-114,-67],[-44,-16],[-42,-53]],[[1786,2476],[-74,-48],[-47,-14],[-83,33]],[[1582,2447],[21,30],[-4,107],[146,170],[18,105],[-2,92],[-13,26]],[[1942,3232],[90,-32]],[[2375,2324],[-72,6],[-104,54],[6,-56],[-103,-12],[-16,-73],[-31,-22],[-27,-56]],[[2028,2165],[-30,55],[-135,99],[-66,-39],[0,46],[-31,72],[20,78]],[[2028,2165],[-71,-43]],[[1957,2122],[-48,-18],[-48,-57],[-64,32],[-90,-50]],[[1707,2029],[-56,-25],[-60,-5],[-45,-26],[-100,-20],[-99,-37],[-47,41],[-135,-139]],[[1165,1818],[-48,5],[-37,30],[-55,142],[-91,45],[-77,3],[-21,37],[25,35],[117,8],[127,-42],[36,54],[16,71],[66,82],[-3,70],[-38,43],[-13,59]],[[1169,2460],[40,16],[206,-2]],[[1415,2474],[109,-7],[58,-20]],[[2527,1922],[-33,14],[-54,-16],[-11,-32],[-56,11],[-81,53],[-37,-5],[-24,-40],[-103,-59]],[[2128,1848],[-1,27],[58,56],[15,39],[-70,41],[-4,39],[-41,54],[-76,-9],[-52,27]],[[1415,2474],[19,62],[64,48],[4,47],[-101,92],[65,88],[-79,65],[-25,39]],[[1362,2915],[15,29],[85,15],[35,38],[14,109],[36,38]],[[1362,2915],[-82,31],[-63,-104],[-38,-26]],[[1179,2816],[-5,68],[-52,63],[-43,20],[-92,148]],[[987,3115],[-18,67],[24,32],[91,51],[59,82]],[[1143,3347],[60,18],[57,-46],[110,-38],[16,57],[-89,17],[-21,19]],[[1276,3374],[62,7],[105,129],[37,34]],[[1169,2460],[-71,23]],[[1098,2483],[18,137],[-41,67],[2,38],[94,68],[8,23]],[[1098,2483],[-186,73],[-49,59],[-81,37],[-73,48],[-29,39],[-2,92],[-49,50],[-20,77],[54,85],[57,5]],[[720,3048],[7,-75],[39,-29],[40,2],[57,-27],[3,-52],[78,-37],[23,85],[-3,135],[23,65]],[[1276,3374],[-102,27],[-96,52],[-19,-30],[84,-76]],[[720,3048],[49,34],[52,61],[10,72],[-116,69],[-18,37]],[[697,3321],[34,57],[53,8],[37,39],[4,65],[-37,41],[30,51],[55,-34],[21,43],[136,86]],[[1030,3677],[181,-69],[85,20],[50,-18]],[[697,3321],[-83,73]],[[614,3394],[-19,47],[-3,85],[30,151],[-22,30],[-54,2],[-120,39],[-94,56]],[[332,3804],[63,88],[0,32],[53,19],[39,38],[88,-15],[51,-36],[89,26],[77,-50],[23,-36],[54,16],[49,-31],[43,0],[-26,-105],[95,-73]],[[614,3394],[-46,-18],[-54,39],[-59,6],[-44,40],[-110,-2],[-15,38],[62,34],[80,21],[-3,42],[-58,42],[-68,-9],[-49,10],[15,58],[-10,57],[77,52]],[[1707,2029],[4,-63],[50,-35],[45,-60],[9,-77]],[[1815,1794],[7,-107],[-20,-28],[0,-64],[40,5],[26,-39],[42,28],[29,49],[55,-14],[11,-43]],[[2005,1581],[-57,-21],[13,-46],[-11,-50]],[[1950,1464],[-85,-46],[-28,-35],[-78,28]],[[1759,1411],[-14,33],[54,53],[-48,27],[-87,0],[2,70],[-80,13],[-88,-42],[-58,-1],[-39,49],[-95,60],[-27,66],[-72,63],[-42,16]],[[1989,1765],[-64,42],[-110,-13]],[[2128,1848],[-21,-55],[70,-59],[1,-46],[-87,-61],[-26,21]],[[2065,1648],[-52,89]],[[2065,1648],[-60,-67]],[[2591,1747],[-158,-44],[-148,-81],[82,-67],[-6,-87],[-37,-56]],[[2324,1412],[-31,-16],[20,-58],[-50,-35],[-35,8],[-56,47],[-19,44],[-63,32],[2,-90],[-37,-12],[-45,33]],[[2010,1365],[7,85],[-67,14]],[[2900,1498],[-243,-120],[-43,-74],[-56,-43]],[[2558,1261],[-69,75],[-56,-10],[-37,55],[-72,31]],[[2558,1261],[-69,-67],[-74,-26],[-57,-34],[-54,-113],[-63,-59],[-33,1],[-69,43]],[[2139,1006],[-31,81],[-34,20]],[[2074,1107],[-48,42],[-53,123],[4,67],[33,26]],[[2074,1107],[-106,-77],[-36,-114],[-34,-1],[9,164],[-71,-1]],[[1836,1078],[-74,58],[-1,55],[-87,29],[-64,99],[16,52],[66,-3],[67,43]],[[2139,1006],[-30,-25],[-106,-131],[-22,-50],[-118,-100],[-44,-58],[-46,-19],[-26,104],[29,124],[-11,45],[-88,108],[13,57],[116,-38],[30,55]],[[1018,690],[8,59],[-30,65],[13,87],[36,28],[6,53],[32,41],[3,69],[96,89]],[[1182,1181],[59,-29],[-5,-105],[26,-80],[10,-82],[44,-53],[11,-74],[48,-97],[-21,-65],[-172,62],[-41,-25],[-49,41],[-74,16]],[[1018,690],[-225,59]],[[793,749],[14,90],[-44,48],[24,84],[-38,42],[45,42],[27,93]],[[821,1148],[100,65],[52,-28],[74,70]],[[1047,1255],[74,-27],[61,-47]],[[821,1148],[-54,79],[-59,14],[-47,67],[-41,29],[86,89]],[[706,1426],[99,95],[54,-6],[69,43],[47,5],[83,-46],[2,-108],[16,-27],[-36,-66],[7,-61]],[[654,1097],[28,-50],[-65,-3],[37,53]],[[793,749],[-99,23],[-19,71],[-35,27],[-110,135],[-152,64],[-18,80],[-25,33]],[[335,1182],[61,-2],[75,16],[65,145],[-11,45],[29,43],[15,71]],[[569,1500],[112,-42],[25,-32]],[[335,1182],[-54,86]],[[281,1268],[17,29],[103,65],[43,80],[21,70],[72,43]],[[537,1555],[32,-55]],[[281,1268],[-85,53],[-86,167],[-3,60]],[[107,1548],[71,29],[0,76],[44,40],[2,51]],[[224,1744],[58,53],[56,15],[28,-29],[14,-66],[38,-34],[-5,-114],[97,20],[27,-34]],[[107,1548],[-3,22],[-78,29],[27,50],[-53,64],[119,37],[66,-21],[39,15]]],"transform":{"scale":[0.0009964332146998594,0.0007733392284775462],"translate":[44.765151796000055,38.39114714500005]},"objects":{"AZE":{"type":"GeometryCollection","geometries":[{"arcs":[[0,1,2,3]],"type":"Polygon","properties":{"name":"Khachmaz District","shapeGroup":"AZE","gid":"AZE-2-0"},"id":"AZE-2-0"},{"arcs":[[-1,4,5,6,7,8]],"type":"Polygon","properties":{"name":"Shabran District","shapeGroup":"AZE","gid":"AZE-2-1"},"id":"AZE-2-1"},{"arcs":[[-6,9,10]],"type":"Polygon","properties":{"name":"Siazan District","shapeGroup":"AZE","gid":"AZE-2-2"},"id":"AZE-2-2"},{"arcs":[[-7,-11,11,12,13,14]],"type":"Polygon","properties":{"name":"Khizi District","shapeGroup":"AZE","gid":"AZE-2-3"},"id":"AZE-2-3"},{"arcs":[[-3,15,16,17]],"type":"Polygon","properties":{"name":"Qusar District","shapeGroup":"AZE","gid":"AZE-2-4"},"id":"AZE-2-4"},{"arcs":[[-2,-9,18,19,20,-16]],"type":"Polygon","properties":{"name":"Quba District","shapeGroup":"AZE","gid":"AZE-2-5"},"id":"AZE-2-5"},{"arcs":[[[21]],[[-13,22,23,24,25,26,27]]],"type":"MultiPolygon","properties":{"name":"Absheron District","shapeGroup":"AZE","gid":"AZE-2-6"},"id":"AZE-2-6"},{"arcs":[[-24,28]],"type":"Polygon","properties":{"name":"Sumqayit City","shapeGroup":"AZE","gid":"AZE-2-7"},"id":"AZE-2-7"},{"arcs":[[[29]],[[-26,30,31,32],[-22]]],"type":"MultiPolygon","properties":{"name":"Baku City","shapeGroup":"AZE","gid":"AZE-2-8"},"id":"AZE-2-8"},{"arcs":[[-14,-28,33,34]],"type":"Polygon","properties":{"name":"Gobustan District","shapeGroup":"AZE","gid":"AZE-2-9"},"id":"AZE-2-9"},{"arcs":[[-8,-15,-35,35,36,37,-19]],"type":"Polygon","properties":{"name":"Shamakhi District","shapeGroup":"AZE","gid":"AZE-2-10"},"id":"AZE-2-10"},{"arcs":[[-17,-21,38,39,40,41,42,43]],"type":"Polygon","properties":{"name":"Qabala District","shapeGroup":"AZE","gid":"AZE-2-11"},"id":"AZE-2-11"},{"arcs":[[-20,-38,44,45,46,-39]],"type":"Polygon","properties":{"name":"Ismailli District","shapeGroup":"AZE","gid":"AZE-2-12"},"id":"AZE-2-12"},{"arcs":[[-37,47,48,-45]],"type":"Polygon","properties":{"name":"Agsu District","shapeGroup":"AZE","gid":"AZE-2-13"},"id":"AZE-2-13"},{"arcs":[[-27,-33,49,50,51,52,-48,-36,-34]],"type":"Polygon","properties":{"name":"Hajigabul District","shapeGroup":"AZE","gid":"AZE-2-14"},"id":"AZE-2-14"},{"arcs":[[-51,53,54]],"type":"Polygon","properties":{"name":"Shirvan City","shapeGroup":"AZE","gid":"AZE-2-15"},"id":"AZE-2-15"},{"arcs":[[-43,55,56]],"type":"Polygon","properties":{"name":"Oghuz District","shapeGroup":"AZE","gid":"AZE-2-16"},"id":"AZE-2-16"},{"arcs":[[57,58]],"type":"Polygon","properties":{"name":"Ganja City","shapeGroup":"AZE","gid":"AZE-2-17"},"id":"AZE-2-17"},{"arcs":[[59,60]],"type":"Polygon","properties":{"name":"Shusha City","shapeGroup":"AZE","gid":"AZE-2-18"},"id":"AZE-2-18"},{"arcs":[[61]],"type":"Polygon","properties":{"name":"Khankendi City","shapeGroup":"AZE","gid":"AZE-2-19"},"id":"AZE-2-19"},{"arcs":[[62]],"type":"Polygon","properties":{"name":"Yevlakh City","shapeGroup":"AZE","gid":"AZE-2-20"},"id":"AZE-2-20"},{"arcs":[[63]],"type":"Polygon","properties":{"name":"Naftalan City","shapeGroup":"AZE","gid":"AZE-2-21"},"id":"AZE-2-21"},{"arcs":[[64]],"type":"Polygon","properties":{"name":"Shaki City","shapeGroup":"AZE","gid":"AZE-2-22"},"id":"AZE-2-22"},{"arcs":[[-32,65,66,67,68,-54,-50]],"type":"Polygon","properties":{"name":"Salyan District","shapeGroup":"AZE","gid":"AZE-2-23"},"id":"AZE-2-23"},{"arcs":[[-52,-55,-69,69,70,71,72]],"type":"Polygon","properties":{"name":"Sabirabad District","shapeGroup":"AZE","gid":"AZE-2-24"},"id":"AZE-2-24"},{"arcs":[[73,74]],"type":"Polygon","properties":{"name":"Lankaran City","shapeGroup":"AZE","gid":"AZE-2-25"},"id":"AZE-2-25"},{"arcs":[[[75,76]],[[-67,77,78,79,80,81]]],"type":"MultiPolygon","properties":{"name":"Neftchala District","shapeGroup":"AZE","gid":"AZE-2-26"},"id":"AZE-2-26"},{"arcs":[[[-76,82]],[[-79,83,84]]],"type":"MultiPolygon","properties":{"name":"Lankaran District","shapeGroup":"AZE","gid":"AZE-2-27"},"id":"AZE-2-27"},{"arcs":[[-42,85,86,87,88,-56],[-65]],"type":"Polygon","properties":{"name":"Shaki District","shapeGroup":"AZE","gid":"AZE-2-28"},"id":"AZE-2-28"},{"arcs":[[89,90]],"type":"Polygon","properties":{"name":"Mingachevir City","shapeGroup":"AZE","gid":"AZE-2-29"},"id":"AZE-2-29"},{"arcs":[[-87,91,92,93,94,95,-90,96,97],[-63]],"type":"Polygon","properties":{"name":"Yevlakh District","shapeGroup":"AZE","gid":"AZE-2-30"},"id":"AZE-2-30"},{"arcs":[[-88,-98,98,99,100,101,102]],"type":"Polygon","properties":{"name":"Qakh District","shapeGroup":"AZE","gid":"AZE-2-31"},"id":"AZE-2-31"},{"arcs":[[-102,103,104,105]],"type":"Polygon","properties":{"name":"Zaqatala District","shapeGroup":"AZE","gid":"AZE-2-32"},"id":"AZE-2-32"},{"arcs":[[-105,106]],"type":"Polygon","properties":{"name":"Balakan District","shapeGroup":"AZE","gid":"AZE-2-33"},"id":"AZE-2-33"},{"arcs":[[-80,-85,107,108,109,110,111]],"type":"Polygon","properties":{"name":"Masally District","shapeGroup":"AZE","gid":"AZE-2-34"},"id":"AZE-2-34"},{"arcs":[[-75,112,113,114,-109,115]],"type":"Polygon","properties":{"name":"Lankaran District","shapeGroup":"AZE","gid":"AZE-2-35"},"id":"AZE-2-35"},{"arcs":[[-114,116,117]],"type":"Polygon","properties":{"name":"Astara District","shapeGroup":"AZE","gid":"AZE-2-36"},"id":"AZE-2-36"},{"arcs":[[-110,-115,-118,118,119]],"type":"Polygon","properties":{"name":"Lerik District","shapeGroup":"AZE","gid":"AZE-2-37"},"id":"AZE-2-37"},{"arcs":[[-111,-120,120,121]],"type":"Polygon","properties":{"name":"Yardymli District","shapeGroup":"AZE","gid":"AZE-2-38"},"id":"AZE-2-38"},{"arcs":[[-81,-112,-122,122,123]],"type":"Polygon","properties":{"name":"Jalilabad District","shapeGroup":"AZE","gid":"AZE-2-39"},"id":"AZE-2-39"},{"arcs":[[-68,-82,-124,124,125,126,-70]],"type":"Polygon","properties":{"name":"Bilasuvar District","shapeGroup":"AZE","gid":"AZE-2-40"},"id":"AZE-2-40"},{"arcs":[[-71,-127,127]],"type":"Polygon","properties":{"name":"Saatly District","shapeGroup":"AZE","gid":"AZE-2-41"},"id":"AZE-2-41"},{"arcs":[[-41,128,129,130,131,-92,-86]],"type":"Polygon","properties":{"name":"Agdash District","shapeGroup":"AZE","gid":"AZE-2-42"},"id":"AZE-2-42"},{"arcs":[[-40,-47,132,133,-129]],"type":"Polygon","properties":{"name":"Goychay District","shapeGroup":"AZE","gid":"AZE-2-43"},"id":"AZE-2-43"},{"arcs":[[-130,-134,134,135]],"type":"Polygon","properties":{"name":"Ujar District","shapeGroup":"AZE","gid":"AZE-2-44"},"id":"AZE-2-44"},{"arcs":[[-46,-49,-53,-73,136,137,-135,-133]],"type":"Polygon","properties":{"name":"Kurdamir District","shapeGroup":"AZE","gid":"AZE-2-45"},"id":"AZE-2-45"},{"arcs":[[-131,-136,-138,138,139,140,141]],"type":"Polygon","properties":{"name":"Zardab District","shapeGroup":"AZE","gid":"AZE-2-46"},"id":"AZE-2-46"},{"arcs":[[-72,-128,-126,142,143,-139,-137]],"type":"Polygon","properties":{"name":"Imishli District","shapeGroup":"AZE","gid":"AZE-2-47"},"id":"AZE-2-47"},{"arcs":[[-93,-132,-142,144,145,146]],"type":"Polygon","properties":{"name":"Barda District","shapeGroup":"AZE","gid":"AZE-2-48"},"id":"AZE-2-48"},{"arcs":[[-141,147,148,149,150,-145]],"type":"Polygon","properties":{"name":"Aghjabadi District","shapeGroup":"AZE","gid":"AZE-2-49"},"id":"AZE-2-49"},{"arcs":[[-140,-144,151,152,-148]],"type":"Polygon","properties":{"name":"Beylagan District","shapeGroup":"AZE","gid":"AZE-2-50"},"id":"AZE-2-50"},{"arcs":[[-59,153,154,155,156,-100,157,158,159]],"type":"Polygon","properties":{"name":"Samukh District","shapeGroup":"AZE","gid":"AZE-2-51"},"id":"AZE-2-51"},{"arcs":[[-95,160,161,162,-159,163],[-64]],"type":"Polygon","properties":{"name":"Goranboy District","shapeGroup":"AZE","gid":"AZE-2-52"},"id":"AZE-2-52"},{"arcs":[[-94,-147,164,165,-161]],"type":"Polygon","properties":{"name":"Tartar District","shapeGroup":"AZE","gid":"AZE-2-53"},"id":"AZE-2-53"},{"arcs":[[-162,-166,166,167,168,169,170,171]],"type":"Polygon","properties":{"name":"Kalbajar District","shapeGroup":"AZE","gid":"AZE-2-54"},"id":"AZE-2-54"},{"arcs":[[-146,-151,172,173,-167,-165]],"type":"Polygon","properties":{"name":"Agdam District","shapeGroup":"AZE","gid":"AZE-2-55"},"id":"AZE-2-55"},{"arcs":[[-58,-160,-163,-172,174,175,-154]],"type":"Polygon","properties":{"name":"Goygol District","shapeGroup":"AZE","gid":"AZE-2-56"},"id":"AZE-2-56"},{"arcs":[[-155,-176,176,177,178,179,180]],"type":"Polygon","properties":{"name":"Shamkir District","shapeGroup":"AZE","gid":"AZE-2-57"},"id":"AZE-2-57"},{"arcs":[[-171,181,182,-177,-175]],"type":"Polygon","properties":{"name":"Dashkasan District","shapeGroup":"AZE","gid":"AZE-2-58"},"id":"AZE-2-58"},{"arcs":[[-178,-183,183,184]],"type":"Polygon","properties":{"name":"Gadabay District","shapeGroup":"AZE","gid":"AZE-2-59"},"id":"AZE-2-59"},{"arcs":[[-156,-181,185,-179,-185,186,187,188]],"type":"Polygon","properties":{"name":"Tovuz District","shapeGroup":"AZE","gid":"AZE-2-60"},"id":"AZE-2-60"},{"arcs":[[-188,189,190,191]],"type":"Polygon","properties":{"name":"Agstafa District","shapeGroup":"AZE","gid":"AZE-2-61"},"id":"AZE-2-61"},{"arcs":[[-191,192]],"type":"Polygon","properties":{"name":"Qazakh District","shapeGroup":"AZE","gid":"AZE-2-62"},"id":"AZE-2-62"},{"arcs":[[-169,193,194,195,196,197]],"type":"Polygon","properties":{"name":"Lachin District","shapeGroup":"AZE","gid":"AZE-2-63"},"id":"AZE-2-63"},{"arcs":[[-60,198,-194,-168,-174,199,200],[-62]],"type":"Polygon","properties":{"name":"Khojaly District","shapeGroup":"AZE","gid":"AZE-2-64"},"id":"AZE-2-64"},{"arcs":[[-61,-201,201,-195,-199]],"type":"Polygon","properties":{"name":"Shusha District","shapeGroup":"AZE","gid":"AZE-2-65"},"id":"AZE-2-65"},{"arcs":[[-150,202,203,204,-196,-202,-200,-173]],"type":"Polygon","properties":{"name":"Khojavend District","shapeGroup":"AZE","gid":"AZE-2-66"},"id":"AZE-2-66"},{"arcs":[[-149,-153,205,206,-203]],"type":"Polygon","properties":{"name":"Fuzuli District","shapeGroup":"AZE","gid":"AZE-2-67"},"id":"AZE-2-67"},{"arcs":[[-204,-207,207,208,209]],"type":"Polygon","properties":{"name":"Jabrayil District","shapeGroup":"AZE","gid":"AZE-2-68"},"id":"AZE-2-68"},{"arcs":[[-197,-205,-210,210,211]],"type":"Polygon","properties":{"name":"Qubadli District","shapeGroup":"AZE","gid":"AZE-2-69"},"id":"AZE-2-69"},{"arcs":[[-209,212,-211]],"type":"Polygon","properties":{"name":"Zangilan District","shapeGroup":"AZE","gid":"AZE-2-70"},"id":"AZE-2-70"},{"arcs":[[213,214]],"type":"Polygon","properties":{"name":"Ordubad District","shapeGroup":"AZE","gid":"AZE-2-71"},"id":"AZE-2-71"},{"arcs":[[-214,215,216,217,218]],"type":"Polygon","properties":{"name":"Julfa District","shapeGroup":"AZE","gid":"AZE-2-72"},"id":"AZE-2-72"},{"arcs":[[-218,219,220]],"type":"Polygon","properties":{"name":"Shahbuz District","shapeGroup":"AZE","gid":"AZE-2-73"},"id":"AZE-2-73"},{"arcs":[[221]],"type":"Polygon","properties":{"name":"Nakhchivan City","shapeGroup":"AZE","gid":"AZE-2-74"},"id":"AZE-2-74"},{"arcs":[[-217,222,223,224,-220],[-222]],"type":"Polygon","properties":{"name":"Babek District","shapeGroup":"AZE","gid":"AZE-2-75"},"id":"AZE-2-75"},{"arcs":[[-224,225,226,227]],"type":"Polygon","properties":{"name":"Kangarli District","shapeGroup":"AZE","gid":"AZE-2-76"},"id":"AZE-2-76"},{"arcs":[[-227,228,229,230]],"type":"Polygon","properties":{"name":"Sharur District","shapeGroup":"AZE","gid":"AZE-2-77"},"id":"AZE-2-77"},{"arcs":[[-230,231]],"type":"Polygon","properties":{"name":"Sadarak District","shapeGroup":"AZE","gid":"AZE-2-78"},"id":"AZE-2-78"}]}}}