{"type":"Topology","arcs":[[[4975,6151],[69,-80],[12,-70],[-44,-48],[74,-59],[35,-10],[12,-71],[29,-66],[-51,-18],[-27,-35],[93,-67],[-265,-127],[-6,25],[-133,27],[-39,91],[-60,51],[-91,13],[-10,103],[71,14],[14,45],[-24,75],[52,59],[24,52],[62,43],[89,1],[36,-18],[29,59],[49,11]],[[7196,7668],[-58,-64],[3,-155],[58,-44],[57,-76],[2,-160],[-68,-62],[-82,31],[-18,-70],[-43,-24],[-134,-2],[-14,-42],[-63,-51],[-21,-48],[-191,-54],[-33,6],[-7,-74],[-30,-16],[-43,-82]],[[6511,6681],[-40,49],[-51,-39],[-96,-9],[-19,-41],[-59,-27],[-26,18],[-79,-49],[-70,-9],[-73,124],[-39,-16],[-44,-52],[-55,16],[-75,-56],[-53,10],[-12,34],[-63,-23],[-69,-5],[-18,-32],[-63,4],[-24,-75],[-51,6],[-70,35],[-61,-49],[-99,75],[-6,-58],[-64,-13],[-31,56],[-55,-21],[-81,-7],[-35,50],[-50,5],[-132,64],[-33,42],[-77,29],[-82,-38],[-24,10]],[[4532,6689],[-22,28],[-51,-50],[-71,64],[7,144],[-44,42],[4,48],[53,37],[47,57],[75,-27],[98,33],[101,18],[29,31],[12,89],[-2,132],[-78,196],[-10,86],[12,50],[47,62],[-18,73],[-71,22],[-45,82],[6,107],[-36,42],[-44,11]],[[4531,8066],[-41,34],[-23,56],[315,17],[18,-87],[114,-10],[101,43],[26,42],[-107,145],[-21,55],[31,26],[5,65],[-32,33],[153,84],[119,38],[137,22],[26,-38],[-47,-105],[14,-115],[105,42],[148,-30],[106,2],[-9,79],[72,32],[29,59],[34,15],[34,67],[45,23],[17,45],[56,23],[113,-46],[13,-50],[56,-10],[-18,-96],[-31,-44],[12,-115],[-117,45],[-47,-9],[5,-47],[55,-47],[135,25],[72,-14],[83,9],[82,-79],[93,117],[111,95],[17,50],[0,73],[60,65],[33,-71],[90,2],[68,-174],[-90,-165],[122,-142],[40,-60],[7,-138],[76,-22],[100,54],[111,-75],[-42,-162],[31,-29]],[[3609,5366],[-17,-93],[33,-2],[32,-54],[47,-40],[107,5],[51,-13],[28,35],[78,-8],[45,33],[32,-30],[35,75],[76,-25]],[[4156,5249],[-24,-159],[24,-28],[-1,-105],[88,-42],[33,20],[86,128],[72,-71],[-12,-95],[82,-1],[40,-55],[22,-81],[72,-10],[64,-106],[64,12],[9,-115],[72,85],[156,7],[12,-26],[131,1],[-7,-92],[43,-17],[52,26],[24,-62],[174,73]],[[5432,4536],[7,-52],[-39,-47],[-23,-60],[13,-71],[45,44],[58,-99],[-36,-60],[-15,-132],[78,-47],[-19,-83],[-31,-49],[0,-52],[-24,-108],[-1,-56],[26,-19],[-10,-71],[-64,7],[-96,-33],[-63,28],[-1,32],[-76,-10],[-28,-71],[-164,-25],[-48,-64],[-87,-61],[-34,12],[-121,-69],[-24,-31],[59,-78],[100,-34],[54,58],[93,-48],[-27,-90],[16,-116],[-96,-62],[73,-122],[-12,-30],[45,-56],[-41,-64],[22,-118],[-10,-61],[49,-130],[18,-109],[-5,-59],[60,-121],[26,-75],[-34,-52]],[[5045,1922],[-44,26],[-69,0],[-24,25],[-82,-5],[-40,47],[-71,28],[-53,-26],[-54,8],[-200,-38],[7,47],[-65,42],[-53,-11],[27,90],[-47,38],[-25,72],[70,125],[30,-16],[55,17],[11,35],[54,15],[32,46],[-90,152],[19,39],[-18,86],[-107,0],[-35,-29],[-45,31],[28,71],[48,54],[-20,43],[30,78],[-16,89],[57,32],[18,54],[58,35],[48,79],[-54,71],[-65,1],[-23,-66],[-60,-6],[-58,62],[5,68],[-76,110],[-49,-18],[-3,50],[-64,79],[-48,19],[-22,64],[-112,-71],[-47,35],[-160,-94],[-50,36],[-73,23],[-40,48],[-130,-9],[-61,10],[-34,-22],[-43,13],[-37,-55],[-2,-74],[-60,-79],[-42,42],[-45,119],[-34,32],[6,58],[-26,33],[22,44],[25,103],[-29,218],[-50,49],[-100,145],[-60,-28],[-34,27],[-132,-6],[-61,-38],[-12,53],[54,62],[9,46],[-76,18],[-46,26],[-54,-63],[-13,-55],[-152,-35],[-40,-28],[-42,52],[-64,21],[-45,42],[-86,32],[-25,55],[-2,149],[-10,139],[-52,79],[11,30],[-41,48],[15,28],[-25,50],[3,44],[53,44],[-22,47],[22,51],[-42,51],[-98,0],[-46,50],[22,45],[-31,23],[-30,70]],[[1688,5468],[38,-3],[97,41],[35,-37],[64,-26],[73,-5],[37,23],[49,-70],[10,-71],[88,-56],[24,74],[79,24],[10,54],[86,26],[66,68]],[[2444,5510],[49,-29],[83,-2],[50,23],[53,-73],[-18,-62],[49,5],[24,-27],[112,19],[28,-37],[53,-7],[4,68],[68,72],[5,41],[52,47],[54,0],[16,-32],[89,31],[72,-116],[107,13],[62,-40],[61,40],[50,3],[42,-81]],[[1266,5544],[-124,-102],[-45,15],[-46,-37],[16,-57],[-35,-18],[-6,-80],[-51,-28],[-27,-44],[-40,58],[-59,8]],[[849,5259],[17,21],[-73,98],[28,21],[-28,48],[34,27],[113,-21],[67,19],[-9,29],[110,42],[-36,77],[50,46],[93,39],[31,-14],[4,-104],[16,-43]],[[8945,5463],[51,-87],[-77,-109],[-56,32],[-108,-17],[-89,136],[-46,29],[-46,-23],[-26,35],[-48,-35],[-114,38]],[[8386,5462],[87,22],[63,-13],[16,51],[56,60],[31,2],[82,-117],[60,11],[38,30],[48,-10],[64,29],[14,-64]],[[7196,7668],[68,23],[88,-23],[108,7],[26,55],[190,-59],[66,86],[61,11],[49,68],[87,-22],[77,-104],[32,-22],[-4,-95],[15,-96],[247,-108],[14,-56],[84,3],[50,-15],[100,33],[83,-48],[2,-118],[125,71],[32,-62],[52,-38],[-40,-59],[-40,-7],[-42,-49],[7,-45],[42,-5],[-13,-63],[-74,-5],[24,-54],[-33,-88],[-51,16],[-6,-50],[-35,-76],[48,-52],[-25,-44],[1,-53],[-49,-74],[-30,-15],[-45,-71],[41,-27],[57,0],[-80,-139],[-26,-70],[-52,8],[-13,-67],[-61,-56],[-71,-45],[-1,-146],[30,-79],[88,-34]],[[8399,5710],[-20,-23],[-73,-4],[-17,-53],[-53,-49],[-29,9],[-25,-23],[10,-17],[-12,9],[-36,-15],[-33,-2],[-15,-6],[-12,-34],[-50,-16],[-11,-8],[-39,2],[-22,-71],[-10,-7],[-112,-76],[-42,30],[-17,-17],[-65,-37],[-11,22],[-32,-3],[-60,55],[-2,14],[-9,42],[-105,-7],[-45,-48],[-46,-31],[-28,-49],[-5,-5],[-74,55],[-55,-58],[-84,24],[-80,-17],[-46,29],[5,-76],[-38,-46],[-43,0],[-84,51],[-41,7]],[[6833,5261],[35,95],[-29,90],[34,57],[-22,83],[22,40],[42,-2],[27,74],[-33,24],[21,45],[-3,101],[47,72],[40,33],[43,72],[6,60],[-49,48],[-93,2],[0,28],[-86,-25],[-28,-25],[-37,56],[-39,-24],[-31,24],[-28,91],[45,50],[47,22],[23,49],[-17,48],[95,73],[31,-3],[15,76],[77,39],[-106,108],[-84,4],[-29,-30],[14,-81],[-163,-20],[-32,68],[-77,-2]],[[8945,5463],[79,-17],[105,49],[59,-42],[96,9],[58,-41],[-20,-64],[107,-43],[101,11],[33,-71],[54,-79],[60,-117],[56,11],[9,-108],[15,5],[23,-6],[45,5],[15,32],[14,5],[35,-37],[54,9],[23,-58],[-15,-50],[-55,-62],[-32,-166],[-25,-38],[-5,-9],[-10,-1],[-12,8],[-15,-9],[-9,-34],[-22,-25],[-6,-46],[68,-124],[21,-18],[106,30],[74,-31],[31,18],[61,-39],[24,-43],[-2,-87],[32,-28],[53,-3],[15,-70],[-29,-87],[9,-44],[-36,-82],[-37,-44],[72,-85],[78,-69],[24,-41],[-7,-54],[-61,-5],[-32,-42],[-51,-8],[-64,61],[-56,-20],[-28,-48],[-29,-108],[17,-31],[-35,-47],[-52,7],[-61,-24],[-79,-57],[-30,-54],[-52,-6],[6,-84],[38,-149],[-22,-16],[-100,-3],[-19,-40],[40,-116],[-63,-52],[-28,28],[-15,83],[13,35],[-47,31],[-62,1],[0,-62],[-41,-14],[-90,48],[-10,82],[-15,45],[37,54]],[[9326,3072],[-55,-4],[-14,145],[21,63],[-14,75],[15,129],[-28,67],[-62,23],[-8,41],[-52,-10],[-32,39],[-55,-17],[-104,27],[-73,42],[-29,-56],[48,-70],[-16,-66],[-46,-69],[73,-51],[-90,-67],[-106,17],[-49,-11],[-33,22],[-65,-31],[-57,1],[-16,26],[37,36],[13,53],[28,66],[-53,6],[-40,31],[-24,79],[29,18],[-9,63],[29,33],[-137,7],[2,29],[-64,9],[-28,44],[-62,30],[-52,68],[-63,-5],[-44,-37],[-49,16],[-69,94],[3,49],[-91,-47],[-25,-29],[-43,54],[-60,46],[-60,-22],[12,-61],[44,-50],[-53,-37],[-38,-53]],[[7612,3827],[-28,32],[-40,-30],[-43,39],[-38,-37],[-108,-67],[-43,59],[-17,89],[-101,18],[-42,62],[38,33],[3,58],[-31,19],[-70,148],[-50,-2],[-21,-29],[-105,92],[-10,53],[-75,27],[-24,88],[-155,11],[54,41],[-16,85],[-40,44],[-15,60],[-76,68],[1,24],[9,5],[-57,43],[17,40],[-13,71]],[[6516,4971],[35,128],[17,106],[32,14],[-13,56],[-41,23],[-1,40],[57,36],[11,71]],[[6613,5445],[76,-51],[-11,-68],[52,-44],[87,-45],[16,24],[0,0]],[[8399,5710],[30,-27],[-21,-43],[27,-56],[-49,-122]],[[9801,4594],[9,5],[26,-5],[4,30],[24,22],[12,86],[-41,14],[-59,-92],[-75,-50],[8,-71],[40,-17],[39,40],[6,30],[7,8]],[[9326,3072],[-37,-54],[14,-45],[-61,-30],[-105,-16],[10,-77],[-17,-22],[0,-80],[-125,-42],[-51,-42],[-24,-94],[1,-51],[-51,-24],[-35,-61],[41,-59],[-37,-42],[-9,-58],[-90,-43],[4,-53],[48,-81],[-74,-49],[0,-29],[-96,-15],[-12,-49],[13,-52],[-39,-87],[-67,-90],[93,-43],[35,-39],[-50,-38],[-27,-76],[-35,-56],[25,-106],[6,-93],[75,-5],[66,-79],[32,-87],[32,-19],[-10,-114],[47,-10],[58,24],[57,-76],[-54,-64],[-3,-81],[80,-31],[26,-34],[7,-96],[-85,-84],[2,-49],[-77,-55],[6,-39],[52,-44],[-71,-70],[-2,-33],[-80,-25],[-54,19],[-47,50],[-50,-30],[5,-58],[-68,5],[-73,-23],[-38,32],[-80,32],[-72,-40],[-88,-120],[-80,49],[-38,5],[-42,-61],[-97,-35],[-56,1],[-12,-31],[-86,78],[53,33],[-4,57],[-64,57],[41,65],[-51,11],[-36,126],[-70,76],[-123,66],[-40,-67],[-66,-18],[-20,82],[35,70],[38,36],[-62,75],[-40,23],[-69,84],[-47,-34],[-51,13],[-37,-17],[-33,37],[-111,-12],[5,80],[-32,30],[-34,-23],[-49,17],[-10,91],[-68,112],[-58,-13],[-27,27],[-66,20],[-77,44],[-29,78],[-77,8]],[[6477,1312],[2,40],[39,70],[15,113],[60,22],[39,56],[86,55],[-43,39],[56,35],[22,53],[71,34],[11,116],[-24,62],[-70,55],[-19,46],[-110,-29],[-28,15],[2,69],[-40,43],[-29,71],[27,35],[128,96],[33,58],[-2,68],[17,93],[32,-45],[136,28],[38,-23],[58,26],[81,0],[31,-18],[71,26],[28,34],[85,7],[-3,32],[-68,66],[109,59],[-7,47],[-124,161],[32,36],[-39,48],[7,31],[65,23],[-18,47],[57,20],[54,-15],[104,69],[71,88],[48,13],[48,38],[-17,127],[-60,9],[-49,-58],[-14,48],[92,47],[49,38],[-38,64],[49,56],[-16,71]],[[5432,4536],[-7,81],[73,37],[41,2],[72,-42],[77,48],[-44,64],[1,72],[40,26],[85,-55],[8,37],[54,31],[30,-11],[27,-85],[47,46],[136,41],[58,2],[34,24],[208,53],[65,89],[79,-25]],[[6477,1312],[-56,-11],[-15,-28],[-99,-31],[-94,35],[-19,36],[16,92],[-4,83],[-41,46],[-3,57],[28,20],[77,168],[-23,56],[-61,44],[-31,74],[-150,40],[7,105],[36,8],[33,48],[1,134],[59,57],[-38,48],[52,146],[7,66],[46,-7],[18,45],[-7,76],[29,70],[-11,55],[-121,-2],[-23,38],[-163,-119],[-30,-98],[-132,-72],[-36,-99],[-7,-66],[37,-19],[-32,-107],[-8,-94],[21,-50],[-75,-6],[-85,-31],[-95,-3],[-64,-27],[-24,-42],[-63,-4],[-47,-84],[-32,-16],[-81,7],[-95,-48],[-34,20]],[[4532,6689],[-7,-72],[-46,-26],[38,-45],[-86,-88],[-43,-6],[-72,29],[-8,-47],[-38,-55],[52,-99],[0,-46],[-50,-51],[-57,10],[-71,42],[-18,-25],[32,-73],[-72,-46],[41,-43],[-26,-80],[-42,-31],[-11,-58],[-42,-60],[60,-9],[24,-68],[-22,-85],[-73,-75],[-36,-3],[-31,-48],[-35,37],[-44,-57],[-68,59],[-49,-30],[-28,-61],[6,-54],[38,-28],[-10,-47],[-91,0],[-38,16]],[[2444,5510],[61,57],[39,56],[52,19],[19,38],[-39,43],[-54,171],[-54,-2],[-33,63],[48,64],[6,56],[-45,51],[-76,-46],[-42,33],[49,59],[-26,36],[48,47],[6,66],[-60,-14],[-23,41],[51,53],[-17,45],[65,60],[-9,91],[-42,51],[39,87],[-70,36],[-8,35],[-65,39],[-56,52],[-107,62],[64,59],[46,14],[48,69],[43,123],[-51,94],[-35,40],[23,59],[-17,75],[-26,27],[86,43],[-11,66],[-38,95]],[[2233,7723],[72,-76],[28,3],[38,-52],[42,-17],[213,20],[-33,178],[126,38],[36,-34],[40,71],[133,-70],[47,8],[94,-61],[167,-30],[105,-58],[-16,-45],[0,-129],[102,-29],[24,19],[61,-12],[78,52],[-6,-98],[195,68],[53,41],[18,37],[78,49],[69,-17],[56,15],[78,67],[201,143],[199,262]],[[6613,5445],[-38,64],[-63,18],[-150,-118],[-62,77],[-69,28],[-42,-13],[-69,54],[-61,0],[-56,98],[-114,37],[-89,-80],[-110,29],[-73,-22],[-28,-79],[50,-76],[-55,-54],[-96,14],[-25,70],[-42,-59],[-46,2],[-59,-42],[-29,-51],[-38,16],[-47,53],[26,46],[-81,-9],[-21,14],[-104,-83],[-140,-28],[2,-57],[-56,-5],[-31,73],[-70,-51],[-16,-87],[-56,-14],[-68,15],[-40,-48],[-99,80],[-73,-5],[-26,65],[-38,25],[-64,-49],[-91,-44]],[[1688,5468],[-59,96],[-12,51],[-120,-33],[-47,-41],[-78,33],[-67,-47],[-39,17]],[[849,5259],[-40,64],[-77,-32],[-79,45],[-31,107],[-58,53],[15,36],[-63,41],[-74,144],[-202,-2],[-50,152],[-47,22],[35,46],[-20,98],[13,37],[-15,96],[-36,10],[113,119],[-70,155],[-87,93],[6,47],[-37,193],[2,27],[-47,107],[187,108],[91,66],[86,33],[106,73],[101,50],[299,208],[123,99],[31,10],[147,92],[178,123],[67,61],[101,51],[183,77],[-32,88],[45,51],[95,-12],[15,-86],[69,14],[98,47],[189,62],[38,-40],[-2,-45],[30,-63],[-72,-84],[23,-68],[37,-54],[0,-55]]],"transform":{"scale":[0.00037413097234688646,0.00022970212089637427],"translate":[2.54542719875898,49.500279301408476]},"objects":{"BEL":{"type":"GeometryCollection","geometries":[{"arcs":[[0]],"type":"Polygon","properties":{"name":"Brussels","shapeGroup":"BEL","gid":"BEL-2-0"},"id":"BEL-2-0"},{"arcs":[[1,2,3,4]],"type":"Polygon","properties":{"name":"Antwerpen","shapeGroup":"BEL","gid":"BEL-2-1"},"id":"BEL-2-1"},{"arcs":[[[5,6,7,8,9,10]],[[11,12]]],"type":"MultiPolygon","properties":{"name":"Henegouwen","shapeGroup":"BEL","gid":"BEL-2-2"},"id":"BEL-2-2"},{"arcs":[[[13,14]],[[-2,15,16,17]]],"type":"MultiPolygon","properties":{"name":"Limburg","shapeGroup":"BEL","gid":"BEL-2-3"},"id":"BEL-2-3"},{"arcs":[[-14,18,19,20,21,22,-17,23],[24]],"type":"Polygon","properties":{"name":"Luik","shapeGroup":"BEL","gid":"BEL-2-4"},"id":"BEL-2-4"},{"arcs":[[-20,25,26]],"type":"Polygon","properties":{"name":"Luxemburg","shapeGroup":"BEL","gid":"BEL-2-5"},"id":"BEL-2-5"},{"arcs":[[-8,27,-21,-27,28]],"type":"Polygon","properties":{"name":"Namen","shapeGroup":"BEL","gid":"BEL-2-6"},"id":"BEL-2-6"},{"arcs":[[-4,29,-11,30,31]],"type":"Polygon","properties":{"name":"Oost-Vlaanderen","shapeGroup":"BEL","gid":"BEL-2-7"},"id":"BEL-2-7"},{"arcs":[[-3,-18,-23,32,-6,-30],[-1]],"type":"Polygon","properties":{"name":"Vlaams-Brabant","shapeGroup":"BEL","gid":"BEL-2-8"},"id":"BEL-2-8"},{"arcs":[[-7,-33,-22,-28]],"type":"Polygon","properties":{"name":"Waals-Brabant","shapeGroup":"BEL","gid":"BEL-2-9"},"id":"BEL-2-9"},{"arcs":[[-10,33,-13,34,-31]],"type":"Polygon","properties":{"name":"West-Vlaanderen","shapeGroup":"BEL","gid":"BEL-2-10"},"id":"BEL-2-10"}]}}}