{"type":"Topology","arcs":[[[1503,1092],[-5,-74]],[[1498,1018],[-15,-26],[-52,-10],[-26,39],[-61,8]],[[1344,1029],[38,90],[121,-27]],[[1723,248],[41,104]],[[1764,352],[63,31],[33,68],[-3,50],[28,17],[67,-16]],[[1952,502],[6,-58]],[[1958,444],[-24,-73],[5,-78],[-40,-100]],[[1899,193],[-10,-74]],[[1889,119],[-102,-8]],[[1787,111],[-76,80],[12,57]],[[2103,1056],[76,-3]],[[2179,1053],[36,-13],[-46,-88],[42,-53],[31,-96],[78,-5]],[[2320,798],[34,-28]],[[2354,770],[-56,-29],[-46,-55],[-62,21],[-67,-7]],[[2123,700],[-58,36],[3,70]],[[2068,806],[55,42],[-3,64],[-40,126]],[[2080,1038],[23,18]],[[2248,234],[-4,49],[-30,27]],[[2214,310],[32,30],[50,-27]],[[2296,313],[25,-8]],[[2321,305],[-16,-90]],[[2305,215],[-57,19]],[[1952,502],[30,67],[-20,56]],[[1962,625],[192,-5]],[[2154,620],[-11,-79],[2,-86]],[[2145,455],[-10,-10]],[[2135,445],[-42,-18],[-74,3],[-61,14]],[[1498,1018],[32,-22]],[[1530,996],[-51,-114],[-56,-35]],[[1423,847],[-40,34]],[[1383,881],[-67,70],[-26,58]],[[1290,1009],[54,20]],[[1994,183],[50,72],[15,61]],[[2059,316],[31,34],[27,-25]],[[2117,325],[37,-33]],[[2154,292],[13,-50]],[[2167,242],[-111,-49],[-62,-10]],[[2145,455],[67,-20]],[[2212,435],[-29,-54],[7,-54]],[[2190,327],[-36,-35]],[[2117,325],[32,56],[-14,64]],[[1446,437],[13,51],[44,28],[-2,28]],[[1501,544],[1,10]],[[1502,554],[50,-4],[67,31],[30,28],[85,-5]],[[1734,604],[-25,-50],[14,-76],[20,-52],[-52,5]],[[1691,431],[-124,-12],[-53,-31],[-31,4]],[[1483,392],[-37,45]],[[1075,1396],[45,-66],[52,-137],[47,-39],[42,-84]],[[1261,1070],[-48,-85],[-55,-57],[-16,-117]],[[1142,811],[-32,-46],[-43,-6],[-28,-33],[-46,-5]],[[993,721],[-35,43],[-24,83],[101,-3],[-8,425],[10,117],[38,10]],[[988,481],[71,5],[29,-50],[108,-15]],[[1196,421],[-20,-68],[30,-43],[-5,-38]],[[1201,272],[-34,-30]],[[1167,242],[-27,40],[-41,15],[6,40],[-79,67],[-30,10],[-8,67]],[[2214,310],[-24,17]],[[2212,435],[32,-10]],[[2244,425],[44,-61],[8,-51]],[[1831,6024],[38,-26],[51,29],[49,-22],[86,14],[65,-36],[27,-37],[74,-26],[-3,-76],[108,-55],[1,-30],[57,-28],[82,16]],[[2466,5747],[51,-53],[25,-76],[-115,-18],[-10,-31],[-60,21],[-93,-13],[-24,-22],[5,-43],[-23,-37]],[[2222,5475],[-7,-25],[-90,-17],[-17,-43],[14,-47],[-56,-5],[-46,-44],[-71,1],[-49,-33],[-38,-47]],[[1862,5215],[-53,36],[-105,32],[-219,461]],[[1485,5744],[198,188],[40,13],[46,43],[62,36]],[[1609,2483],[-18,-123],[-14,-40],[-9,-124],[36,-101]],[[1604,2095],[-70,-49],[-98,-16],[-195,4],[-27,57],[-42,0],[-15,33],[-59,19],[-29,40],[-44,2]],[[1025,2185],[-2,147],[-15,37],[13,83],[24,31],[-23,45],[-1,83]],[[1021,2611],[123,13],[35,24],[65,-6],[32,-32],[81,-45],[88,-29],[8,-20],[120,-9],[36,-24]],[[1021,2611],[3,222],[-4,127],[-9,50],[9,50],[-14,79],[-70,110],[-40,22],[-76,71],[-49,58],[-21,53],[-2,65]],[[748,3518],[47,-29],[117,79]],[[912,3568],[15,-34],[48,-33],[82,-9],[135,53],[45,-28],[8,-47],[56,25],[69,-5],[59,-39]],[[1429,3451],[-11,-104],[29,-146],[101,-59],[44,-7],[88,6],[45,-22],[-9,-54],[-31,-59],[48,-90],[-50,-116]],[[1683,2800],[23,-31],[-2,-50],[26,-49],[-18,-98],[16,-53]],[[1728,2519],[-45,-16],[-35,15],[-39,-35]],[[2779,4761],[-6,-76],[-21,-34],[-82,-18],[-34,-59],[84,-74],[-43,-70]],[[2677,4430],[-111,-107],[-137,-20],[0,-94],[49,-11],[-14,-37],[3,-65],[-94,-23]],[[2373,4073],[-43,-16],[-53,3],[-189,81]],[[2088,4141],[44,35],[-55,85],[-40,11],[-26,37],[30,23],[-21,94],[67,116],[6,95],[19,115]],[[2112,4752],[171,0],[16,37],[133,20],[52,-51],[295,3]],[[1503,1092],[59,61]],[[1562,1153],[20,-79],[22,-17],[64,1],[33,-72]],[[1701,986],[-171,10]],[[2123,700],[31,-80]],[[1962,625],[21,31],[-26,38],[-6,106]],[[1951,800],[117,6]],[[1446,437],[-9,-49],[8,-70],[-13,-35]],[[1432,283],[-37,17]],[[1395,300],[10,24],[-59,63],[-27,46],[-68,47]],[[1251,480],[2,61],[92,51]],[[1345,592],[23,13]],[[1368,605],[133,-61]],[[161,4482],[64,46],[53,106],[88,13]],[[366,4647],[90,-26],[53,31]],[[509,4652],[4,-38]],[[513,4614],[-1,-40],[34,-28],[-2,-29],[-36,-31],[-2,-51],[24,-40],[62,-21],[45,-61],[-25,-20],[18,-38],[81,-18],[10,-52]],[[721,4185],[1,-19]],[[722,4166],[-29,0]],[[693,4166],[-319,176],[-213,140]],[[161,4482],[-161,109],[10,141],[28,73],[-1,73]],[[37,4878],[84,12],[65,-47],[22,-34],[110,-49]],[[318,4760],[42,-56],[6,-57]],[[1432,283],[-37,-78],[20,-79]],[[1415,126],[-33,20],[-120,12],[-12,73]],[[1250,231],[26,-3],[89,72],[30,0]],[[722,4166],[25,-14],[124,-15],[47,-36],[133,-1],[109,107]],[[1160,4207],[1,-107],[-13,-89],[-85,-66],[-97,-45],[-19,-56],[-34,32],[-49,10],[-44,-29]],[[820,3857],[-19,11],[-44,101],[-56,7]],[[701,3976],[-8,190]],[[1899,193],[95,-10]],[[1994,183],[57,-28],[5,-27]],[[2056,128],[-167,-9]],[[1787,1425],[39,-83],[27,-127],[-6,-70],[57,-36],[-7,-88],[-36,-79]],[[1861,942],[-25,42]],[[1836,984],[-61,142],[-3,51],[-26,47]],[[1746,1224],[-11,69],[-29,45],[-4,52],[-33,55],[-47,24]],[[1622,1469],[165,-44]],[[2059,316],[-78,35],[-23,93]],[[1622,1469],[-62,86],[-43,37],[10,122],[28,88],[45,41],[4,51]],[[1604,1894],[35,-8],[35,-70],[39,-49],[45,18],[58,56],[92,19]],[[1908,1860],[25,-103],[69,-49],[9,-56],[32,-45]],[[2043,1607],[-30,-83],[5,-57],[-54,-78],[-18,-50]],[[1946,1339],[-66,27],[-93,59]],[[1142,811],[34,-11]],[[1176,800],[12,-113]],[[1188,687],[-14,-29],[-70,-5],[-30,-34],[-80,-11]],[[994,608],[-11,20],[10,93]],[[1290,1009],[-29,61]],[[1075,1396],[-27,44],[-3,88],[-23,52]],[[1022,1580],[128,-21],[147,15],[93,-16],[56,-67],[72,-24],[104,2]],[[1746,1224],[-138,-5],[-46,-66]],[[1345,592],[-74,5],[-105,-52],[-90,-13],[-101,0]],[[975,532],[41,53],[-22,23]],[[1188,687],[96,-23]],[[1284,664],[87,-40],[-3,-19]],[[1728,2519],[115,-64],[26,-30],[-15,-158],[2,-36],[46,-85],[-2,-34]],[[1900,2112],[-34,-41],[40,-54],[-18,-27],[24,-94],[-4,-36]],[[1604,1894],[-17,75],[28,97],[-11,29]],[[2222,5475],[-1,-50],[-26,-18],[46,-74],[35,-105],[65,-61],[99,34],[43,59],[164,3],[0,-42],[239,-55]],[[2886,5166],[-14,-23],[-1,-78],[19,-27],[0,-67],[15,-36],[-53,-77],[-15,-60],[-55,-37]],[[2782,4761],[-3,0]],[[2112,4752],[-72,35],[-79,3],[0,-36],[-211,-4]],[[1750,4750],[-1,18]],[[1749,4768],[0,351],[20,34],[93,62]],[[1201,272],[42,-1],[7,-40]],[[1415,126],[22,-31],[-20,-35]],[[1417,60],[-109,-8],[-281,-52],[12,18],[77,10],[71,28],[36,-2],[-13,78],[-20,29],[1,47],[-24,34]],[[1196,421],[55,59]],[[2244,425],[10,87],[43,41],[94,30]],[[2391,583],[9,-71],[-65,-71],[25,-66],[-39,-70]],[[2782,4761],[87,1],[379,81],[420,39]],[[3668,4882],[-1,-65],[-20,-22],[-36,-92],[-18,-89],[-118,56],[-49,-23],[-74,-173],[16,-41],[58,-58],[39,-21],[-19,-70],[-55,-32]],[[3391,4252],[-42,25],[-44,1],[-109,51],[-91,12],[-50,-57],[-100,18],[-117,-23],[-63,-31],[-61,7],[-17,30],[13,51],[-33,94]],[[2466,5747],[41,48],[-43,25],[33,33],[-14,39],[12,74],[59,27]],[[2554,5993],[54,-36],[183,-156],[98,-129],[74,-70]],[[2963,5602],[0,-101],[-29,-36],[-11,-67],[1,-84],[23,-44],[-15,-87],[-46,-17]],[[1749,4768],[-139,-17],[-48,-21],[-89,17]],[[1473,4747],[-50,25],[-120,-53],[-38,40],[25,61],[80,27],[22,73],[48,108],[-53,-5],[-154,105],[-58,-28],[-82,33],[-38,30]],[[1055,5163],[31,43],[51,100],[34,50],[-15,63],[16,45],[86,31],[0,48],[50,29],[35,103],[63,63]],[[1406,5738],[79,6]],[[2103,1056],[-42,73],[-74,68],[-18,55],[3,52],[-26,35]],[[2043,1607],[289,5]],[[2332,1612],[1,-121],[29,-65],[52,-43],[1,-62],[-61,-10],[2,-173],[37,-65]],[[2393,1073],[-173,4],[-41,-24]],[[1383,881],[-23,-73],[-59,-29]],[[1301,779],[-125,21]],[[721,4185],[54,26],[57,-15],[39,16],[60,49],[25,49],[-39,43],[6,131],[31,74],[64,50],[-23,46]],[[995,4654],[40,3],[8,40],[-34,114],[21,100],[-100,69]],[[930,4980],[17,24],[-8,71],[33,47],[53,7],[30,34]],[[1473,4747],[-24,-36],[-46,-9],[-34,-27],[-30,-61],[-1,-31],[-52,-65],[-41,-181],[-6,-59],[-52,-68]],[[1187,4210],[-27,-3]],[[1483,392],[76,-113]],[[1559,279],[6,-28],[-37,-41],[19,-53],[-34,-34],[-98,3]],[[1423,847],[27,-81],[48,-12],[65,20]],[[1563,774],[18,-42],[-37,-29],[-20,-87],[-23,-15],[1,-47]],[[1284,664],[27,83],[-10,32]],[[988,481],[-33,24],[20,27]],[[2373,4073],[36,-47],[-27,-103]],[[2382,3923],[-17,-70],[5,-53],[58,-151]],[[2428,3649],[-70,-119]],[[2358,3530],[-90,-49],[-67,60],[-75,16]],[[2126,3557],[-99,44],[-214,46],[-114,152],[-46,20]],[[1653,3819],[-26,36],[-41,0],[-22,75],[-41,69],[48,52],[-11,66]],[[1560,4117],[51,30],[91,-25],[14,10],[97,-5],[111,-45],[23,68],[107,2],[34,-11]],[[513,4614],[122,-13],[118,7],[39,11],[10,-51],[65,9],[12,59],[116,18]],[[3391,4252],[-7,-90],[-18,-56],[-79,-92],[-88,-1],[-118,-40],[-33,-29],[-1,-59],[24,-67],[-40,-30],[-52,1],[-19,-21]],[[2960,3768],[-108,29],[-46,39],[-14,84],[-35,20],[-79,14],[-57,39],[-50,1],[-45,-25],[-69,-9],[-75,-37]],[[748,3518],[-14,92],[-30,-13],[-28,67],[30,72],[-5,240]],[[820,3857],[20,-22],[16,-74],[32,-31],[62,-20],[6,-20],[-48,-42],[4,-80]],[[1683,2800],[648,9]],[[2331,2809],[26,-80],[-1,-129],[15,-67],[-32,-96],[-34,-17],[9,-37],[-22,-70]],[[2292,2313],[-93,8],[-142,-33],[-2,-159],[-43,-24],[-58,-9],[-54,16]],[[1787,111],[-176,-19],[-194,-32]],[[1559,279],[52,-21],[35,4],[29,-36],[48,22]],[[1951,800],[-11,23]],[[1940,823],[4,23]],[[1944,846],[3,51],[28,12],[-25,56],[2,61],[42,43],[86,-31]],[[2358,3530],[-16,-34],[6,-106],[-20,-28],[-51,11],[-77,-41],[-52,4],[-99,64],[-34,44],[5,44],[106,69]],[[1750,4750],[-77,-79],[-24,-43],[0,-69],[57,-40],[36,-45],[15,-100],[18,-41],[-32,-62],[-151,-28],[-47,-38]],[[1545,4205],[-58,-15],[-55,19],[-245,1]],[[2960,3768],[-3,-33],[-70,-105],[-48,-25],[-25,-73],[22,-56],[0,-40]],[[2836,3436],[-257,2],[-54,50],[-39,5],[-58,156]],[[2393,1073],[5,-47],[-41,-60],[3,-31],[48,-40],[-86,-60],[-2,-37]],[[2248,234],[-42,17],[-39,-9]],[[2354,770],[2,-98],[-20,-67],[55,-22]],[[1022,1580],[6,157],[-7,27],[7,178],[-3,243]],[[2292,2313],[22,-70],[48,-54],[-29,-92],[-8,-74],[-33,-144],[-24,-42],[68,-134],[-4,-91]],[[2963,5602],[25,36],[50,19],[32,-11],[47,60],[137,11]],[[3254,5717],[226,-304],[43,-11],[-13,-104],[50,-28],[15,-75],[-26,-103],[4,-24],[53,-89],[52,-34],[10,-63]],[[2305,215],[4,-63],[-253,-24]],[[1560,4117],[-14,18],[-1,70]],[[1429,3451],[92,2],[63,17],[69,349]],[[2836,3436],[8,-53],[-43,-59],[2,-51],[-48,-104],[-119,-29],[-33,23],[-72,-10],[-20,-21],[-117,1],[-4,-78],[13,-27],[-22,-57],[-15,-98],[-35,-64]],[[1563,774],[201,6],[77,29],[22,-37]],[[1863,772],[-48,-34],[27,-39],[-108,-95]],[[1691,431],[73,-79]],[[509,4652],[421,328]],[[1944,846],[-55,80],[-28,16]],[[1836,984],[-135,2]],[[1863,772],[77,51]],[[318,4760],[98,72],[47,-2],[43,104],[42,0],[36,79],[-47,82],[-42,17],[-98,79],[17,64],[-14,50]],[[400,5305],[-28,66],[13,63],[63,32],[11,94],[137,-1],[-26,52],[87,-19],[19,24],[-28,52],[84,45],[-4,47],[70,34],[61,-8],[44,-20],[57,-4],[24,-54],[76,2],[61,36],[71,-11],[118,29],[96,-26]],[[37,4878],[-10,45],[13,52],[78,81],[33,90],[-13,38],[37,107],[105,75],[24,-36],[42,6],[54,-31]],[[1831,6024],[-12,44],[49,72],[38,8],[8,68],[39,57],[-24,27],[55,25],[5,71],[-46,96],[-14,98],[-21,54],[32,18],[76,-5],[69,38],[64,-7],[21,20],[95,6],[26,-25],[45,87],[36,-10],[59,50],[67,-8],[70,-61],[43,-52],[56,-20],[86,-103],[54,-24],[111,-104],[99,-159]],[[3017,6285],[-52,-19],[-162,46],[-10,29],[-50,13],[-57,-22],[-15,-69],[8,-45],[-33,-102],[-38,-43],[-25,-65],[-29,-15]],[[3017,6285],[21,-39],[75,5],[68,-10],[55,-22],[41,-47],[2,-30],[42,-9],[-10,-49],[66,-42],[-56,-72],[-104,-203],[37,-50]]],"transform":{"scale":[0.0008382094175218863,0.0009045844988085192],"translate":[0.774574995040894,6.231502056121826]},"objects":{"BEN":{"type":"GeometryCollection","geometries":[{"arcs":[[0,1,2]],"type":"Polygon","properties":{"name":"Abomey","shapeGroup":"BEN","gid":"BEN-2-0"},"id":"BEN-2-0"},{"arcs":[[3,4,5,6,7,8,9]],"type":"Polygon","properties":{"name":"Abomey-Calavi","shapeGroup":"BEN","gid":"BEN-2-1"},"id":"BEN-2-1"},{"arcs":[[10,11,12,13,14,15,16]],"type":"Polygon","properties":{"name":"Adja-Ouere","shapeGroup":"BEN","gid":"BEN-2-2"},"id":"BEN-2-2"},{"arcs":[[17,18,19,20,21]],"type":"Polygon","properties":{"name":"Adjarra","shapeGroup":"BEN","gid":"BEN-2-3"},"id":"BEN-2-3"},{"arcs":[[-6,22,23,24,25,26]],"type":"Polygon","properties":{"name":"Adjohoun","shapeGroup":"BEN","gid":"BEN-2-4"},"id":"BEN-2-4"},{"arcs":[[-2,27,28,29,30,31]],"type":"Polygon","properties":{"name":"Agbangnizoun","shapeGroup":"BEN","gid":"BEN-2-5"},"id":"BEN-2-5"},{"arcs":[[32,33,34,35,36]],"type":"Polygon","properties":{"name":"Aguegues","shapeGroup":"BEN","gid":"BEN-2-6"},"id":"BEN-2-6"},{"arcs":[[-26,37,38,39,-35,40]],"type":"Polygon","properties":{"name":"Akpo-Misserete","shapeGroup":"BEN","gid":"BEN-2-7"},"id":"BEN-2-7"},{"arcs":[[41,42,43,44,45,46]],"type":"Polygon","properties":{"name":"Allada","shapeGroup":"BEN","gid":"BEN-2-8"},"id":"BEN-2-8"},{"arcs":[[47,48,49,50]],"type":"Polygon","properties":{"name":"Aplahoue","shapeGroup":"BEN","gid":"BEN-2-9"},"id":"BEN-2-9"},{"arcs":[[51,52,53,54]],"type":"Polygon","properties":{"name":"Athieme","shapeGroup":"BEN","gid":"BEN-2-10"},"id":"BEN-2-10"},{"arcs":[[-19,55,-39,56,57]],"type":"Polygon","properties":{"name":"Avrankou","shapeGroup":"BEN","gid":"BEN-2-11"},"id":"BEN-2-11"},{"arcs":[[58,59,60,61,62]],"type":"Polygon","properties":{"name":"Banikoara","shapeGroup":"BEN","gid":"BEN-2-12"},"id":"BEN-2-12"},{"arcs":[[63,64,65,66]],"type":"Polygon","properties":{"name":"Bante","shapeGroup":"BEN","gid":"BEN-2-13"},"id":"BEN-2-13"},{"arcs":[[-67,67,68,69,70,71,72]],"type":"Polygon","properties":{"name":"Bassila","shapeGroup":"BEN","gid":"BEN-2-14"},"id":"BEN-2-14"},{"arcs":[[73,74,75,76,77]],"type":"Polygon","properties":{"name":"Bembereke","shapeGroup":"BEN","gid":"BEN-2-15"},"id":"BEN-2-15"},{"arcs":[[-1,78,79,80,-28]],"type":"Polygon","properties":{"name":"Bohicon","shapeGroup":"BEN","gid":"BEN-2-16"},"id":"BEN-2-16"},{"arcs":[[-15,81,-24,82,83]],"type":"Polygon","properties":{"name":"Bonou","shapeGroup":"BEN","gid":"BEN-2-17"},"id":"BEN-2-17"},{"arcs":[[-42,84,85,86,87,88,89]],"type":"Polygon","properties":{"name":"Bopa","shapeGroup":"BEN","gid":"BEN-2-18"},"id":"BEN-2-18"},{"arcs":[[90,91,92,93,94,95,96]],"type":"Polygon","properties":{"name":"Boukombe","shapeGroup":"BEN","gid":"BEN-2-19"},"id":"BEN-2-19"},{"arcs":[[-91,97,98,99]],"type":"Polygon","properties":{"name":"Kobli","shapeGroup":"BEN","gid":"BEN-2-20"},"id":"BEN-2-20"},{"arcs":[[-86,100,101,102]],"type":"Polygon","properties":{"name":"Come","shapeGroup":"BEN","gid":"BEN-2-21"},"id":"BEN-2-21"},{"arcs":[[-96,103,104,105,106]],"type":"Polygon","properties":{"name":"Copargo","shapeGroup":"BEN","gid":"BEN-2-22"},"id":"BEN-2-22"},{"arcs":[[-8,107,108,109]],"type":"Polygon","properties":{"name":"Cotonou","shapeGroup":"BEN","gid":"BEN-2-23"},"id":"BEN-2-23"},{"arcs":[[110,111,112,113,114]],"type":"Polygon","properties":{"name":"Cove","shapeGroup":"BEN","gid":"BEN-2-24"},"id":"BEN-2-24"},{"arcs":[[-27,-41,-34,115]],"type":"Polygon","properties":{"name":"Dangbo","shapeGroup":"BEN","gid":"BEN-2-25"},"id":"BEN-2-25"},{"arcs":[[-115,116,117,118,119,120]],"type":"Polygon","properties":{"name":"Dassa-Zoume","shapeGroup":"BEN","gid":"BEN-2-26"},"id":"BEN-2-26"},{"arcs":[[-50,121,122,123,124]],"type":"Polygon","properties":{"name":"Djakotomey","shapeGroup":"BEN","gid":"BEN-2-27"},"id":"BEN-2-27"},{"arcs":[[-3,-32,125,-48,126,127,-114,128,-79]],"type":"Polygon","properties":{"name":"Djidja","shapeGroup":"BEN","gid":"BEN-2-28"},"id":"BEN-2-28"},{"arcs":[[-89,129,130,-124,131,132]],"type":"Polygon","properties":{"name":"Dogbo","shapeGroup":"BEN","gid":"BEN-2-29"},"id":"BEN-2-29"},{"arcs":[[-64,-73,133,134,-118,135]],"type":"Polygon","properties":{"name":"Glazoue","shapeGroup":"BEN","gid":"BEN-2-30"},"id":"BEN-2-30"},{"arcs":[[-61,136,137,138,-78,139,140,141]],"type":"Polygon","properties":{"name":"Gogounou","shapeGroup":"BEN","gid":"BEN-2-31"},"id":"BEN-2-31"},{"arcs":[[-54,142,-102,143,144]],"type":"Polygon","properties":{"name":"Grand-Popo","shapeGroup":"BEN","gid":"BEN-2-32"},"id":"BEN-2-32"},{"arcs":[[-53,145,-87,-103,-143]],"type":"Polygon","properties":{"name":"Houeyogbe","shapeGroup":"BEN","gid":"BEN-2-33"},"id":"BEN-2-33"},{"arcs":[[-20,-58,146,147]],"type":"Polygon","properties":{"name":"Ifangni","shapeGroup":"BEN","gid":"BEN-2-34"},"id":"BEN-2-34"},{"arcs":[[-74,-139,148,149,150]],"type":"Polygon","properties":{"name":"Kalale","shapeGroup":"BEN","gid":"BEN-2-35"},"id":"BEN-2-35"},{"arcs":[[-60,151,152,153,-137]],"type":"Polygon","properties":{"name":"Kandi","shapeGroup":"BEN","gid":"BEN-2-36"},"id":"BEN-2-36"},{"arcs":[[-62,-142,154,155,156,157]],"type":"Polygon","properties":{"name":"Kerou","shapeGroup":"BEN","gid":"BEN-2-37"},"id":"BEN-2-37"},{"arcs":[[-11,158,-120,159,160,161]],"type":"Polygon","properties":{"name":"Ketou","shapeGroup":"BEN","gid":"BEN-2-38"},"id":"BEN-2-38"},{"arcs":[[-31,162,163,-122,-49,-126]],"type":"Polygon","properties":{"name":"Klouekanme","shapeGroup":"BEN","gid":"BEN-2-39"},"id":"BEN-2-39"},{"arcs":[[-95,164,165,166,-156,167,168,-104]],"type":"Polygon","properties":{"name":"Kouande","shapeGroup":"BEN","gid":"BEN-2-40"},"id":"BEN-2-40"},{"arcs":[[-47,169,170,-101,-85]],"type":"Polygon","properties":{"name":"Kpomasse","shapeGroup":"BEN","gid":"BEN-2-41"},"id":"BEN-2-41"},{"arcs":[[-30,171,172,-43,-90,-133,173,-163]],"type":"Polygon","properties":{"name":"Lalo","shapeGroup":"BEN","gid":"BEN-2-42"},"id":"BEN-2-42"},{"arcs":[[-52,174,-130,-88,-146]],"type":"Polygon","properties":{"name":"Lokossa","shapeGroup":"BEN","gid":"BEN-2-43"},"id":"BEN-2-43"},{"arcs":[[-76,175,176,177,178,179,180,181]],"type":"Polygon","properties":{"name":"N'dali","shapeGroup":"BEN","gid":"BEN-2-44"},"id":"BEN-2-44"},{"arcs":[[-94,182,-165]],"type":"Polygon","properties":{"name":"Natitingou","shapeGroup":"BEN","gid":"BEN-2-45"},"id":"BEN-2-45"},{"arcs":[[-75,-151,183,184,-176]],"type":"Polygon","properties":{"name":"Nikki","shapeGroup":"BEN","gid":"BEN-2-46"},"id":"BEN-2-46"},{"arcs":[[-69,185,-106,186]],"type":"Polygon","properties":{"name":"Ouake","shapeGroup":"BEN","gid":"BEN-2-47"},"id":"BEN-2-47"},{"arcs":[[-72,187,188,189,-134]],"type":"Polygon","properties":{"name":"Ouesse","shapeGroup":"BEN","gid":"BEN-2-48"},"id":"BEN-2-48"},{"arcs":[[-10,190,-144,-171,191]],"type":"Polygon","properties":{"name":"Ouidah","shapeGroup":"BEN","gid":"BEN-2-49"},"id":"BEN-2-49"},{"arcs":[[-16,-84,192,193,194]],"type":"Polygon","properties":{"name":"Ouinhi","shapeGroup":"BEN","gid":"BEN-2-50"},"id":"BEN-2-50"},{"arcs":[[-179,195]],"type":"Polygon","properties":{"name":"Parakou","shapeGroup":"BEN","gid":"BEN-2-51"},"id":"BEN-2-51"},{"arcs":[[-141,196,197,-168,-155]],"type":"Polygon","properties":{"name":"Pehunco","shapeGroup":"BEN","gid":"BEN-2-52"},"id":"BEN-2-52"},{"arcs":[[-177,-185,198,199]],"type":"Polygon","properties":{"name":"Perere","shapeGroup":"BEN","gid":"BEN-2-53"},"id":"BEN-2-53"},{"arcs":[[-12,-162,200]],"type":"Polygon","properties":{"name":"Pobe","shapeGroup":"BEN","gid":"BEN-2-54"},"id":"BEN-2-54"},{"arcs":[[-18,201,-36,-40,-56]],"type":"Polygon","properties":{"name":"Porto-Novo","shapeGroup":"BEN","gid":"BEN-2-55"},"id":"BEN-2-55"},{"arcs":[[-14,202,-147,-57,-38,-25,-82]],"type":"Polygon","properties":{"name":"Sakete","shapeGroup":"BEN","gid":"BEN-2-56"},"id":"BEN-2-56"},{"arcs":[[-65,-136,-117,-128,203]],"type":"Polygon","properties":{"name":"Savalou","shapeGroup":"BEN","gid":"BEN-2-57"},"id":"BEN-2-57"},{"arcs":[[-119,-135,-190,204,-160]],"type":"Polygon","properties":{"name":"Save","shapeGroup":"BEN","gid":"BEN-2-58"},"id":"BEN-2-58"},{"arcs":[[-138,-154,205,206,-149]],"type":"Polygon","properties":{"name":"Segbana","shapeGroup":"BEN","gid":"BEN-2-59"},"id":"BEN-2-59"},{"arcs":[[-22,207,-109,-37,-202]],"type":"Polygon","properties":{"name":"Seme-Kpodji","shapeGroup":"BEN","gid":"BEN-2-60"},"id":"BEN-2-60"},{"arcs":[[-77,-182,208,-197,-140]],"type":"Polygon","properties":{"name":"Sinende","shapeGroup":"BEN","gid":"BEN-2-61"},"id":"BEN-2-61"},{"arcs":[[-7,-116,-33,-108]],"type":"Polygon","properties":{"name":"So-Ava","shapeGroup":"BEN","gid":"BEN-2-62"},"id":"BEN-2-62"},{"arcs":[[-71,209,-180,-196,-178,-200,210,-188]],"type":"Polygon","properties":{"name":"Tchaourou","shapeGroup":"BEN","gid":"BEN-2-63"},"id":"BEN-2-63"},{"arcs":[[-44,-173,211,212]],"type":"Polygon","properties":{"name":"Toffo","shapeGroup":"BEN","gid":"BEN-2-64"},"id":"BEN-2-64"},{"arcs":[[-4,-192,-170,-46,213]],"type":"Polygon","properties":{"name":"Tori-Bossito","shapeGroup":"BEN","gid":"BEN-2-65"},"id":"BEN-2-65"},{"arcs":[[-93,214,-166,-183]],"type":"Polygon","properties":{"name":"Toucountouna","shapeGroup":"BEN","gid":"BEN-2-66"},"id":"BEN-2-66"},{"arcs":[[-123,-164,-174,-132]],"type":"Polygon","properties":{"name":"Toviklin","shapeGroup":"BEN","gid":"BEN-2-67"},"id":"BEN-2-67"},{"arcs":[[-17,-195,215,-111,-121,-159]],"type":"Polygon","properties":{"name":"Zagnanado","shapeGroup":"BEN","gid":"BEN-2-68"},"id":"BEN-2-68"},{"arcs":[[-80,-129,-113,216]],"type":"Polygon","properties":{"name":"Za-Kpota","shapeGroup":"BEN","gid":"BEN-2-69"},"id":"BEN-2-69"},{"arcs":[[-5,-214,-45,-213,217,-193,-83,-23]],"type":"Polygon","properties":{"name":"Ze","shapeGroup":"BEN","gid":"BEN-2-70"},"id":"BEN-2-70"},{"arcs":[[-29,-81,-217,-112,-216,-194,-218,-212,-172]],"type":"Polygon","properties":{"name":"Zogbodomey","shapeGroup":"BEN","gid":"BEN-2-71"},"id":"BEN-2-71"},{"arcs":[[-70,-187,-105,-169,-198,-209,-181,-210]],"type":"Polygon","properties":{"name":"Djougou","shapeGroup":"BEN","gid":"BEN-2-72"},"id":"BEN-2-72"},{"arcs":[[-92,-100,218,219,-157,-167,-215]],"type":"Polygon","properties":{"name":"Tanguieta","shapeGroup":"BEN","gid":"BEN-2-73"},"id":"BEN-2-73"},{"arcs":[[-99,220,-219]],"type":"Polygon","properties":{"name":"Materi","shapeGroup":"BEN","gid":"BEN-2-74"},"id":"BEN-2-74"},{"arcs":[[-59,221,222,-152]],"type":"Polygon","properties":{"name":"Karimama","shapeGroup":"BEN","gid":"BEN-2-75"},"id":"BEN-2-75"},{"arcs":[[-153,-223,223,-206]],"type":"Polygon","properties":{"name":"Malanville","shapeGroup":"BEN","gid":"BEN-2-76"},"id":"BEN-2-76"}]}}}