{"type":"Topology","arcs":[[[1716,1457],[104,12],[64,20],[122,74]],[[2006,1563],[44,-29]],[[2050,1534],[-21,-88],[17,-112],[-62,-92],[-13,-58],[9,-60]],[[1980,1124],[-31,-131],[81,-98],[57,-45]],[[2087,850],[-32,-98]],[[2055,752],[-26,11],[-75,90]],[[1954,853],[-34,48],[-94,77],[-74,28]],[[1752,1006],[-41,41]],[[1711,1047],[-42,209]],[[1669,1256],[79,111],[-37,40],[5,50]],[[7352,3827],[-22,-61],[-112,-123],[-185,69],[-78,-17]],[[6955,3695],[21,86],[33,62],[-48,50],[-18,67]],[[6943,3960],[31,27],[-16,50],[22,53],[64,-5],[5,41],[77,21]],[[7126,4147],[43,5],[29,-43],[3,-74],[-37,-55],[-1,-101],[49,-8],[70,-52],[70,8]],[[7126,4147],[38,36],[33,73]],[[7197,4256],[121,12],[37,-62],[-22,-58],[17,-36],[-4,-91],[33,-69],[-1,-80],[-26,-45]],[[6943,3960],[-34,27],[-45,-9],[-32,39],[-54,21],[-44,68],[-45,-6]],[[6689,4100],[-54,20],[-10,38],[-82,51],[-28,102],[-49,54]],[[6466,4365],[18,67],[37,32],[20,82],[-72,112]],[[6469,4658],[87,64],[42,-32],[54,-200],[25,-40],[148,-91],[119,-51],[122,-16],[131,-36]],[[6955,3695],[-56,-17],[-59,8],[-66,-45],[-49,-109]],[[6725,3532],[-22,72],[-49,80]],[[6654,3684],[16,50],[-10,63],[-50,78],[12,53],[37,32],[47,89],[-17,51]],[[6654,3684],[-45,-1],[-120,-59],[-55,80],[-71,47],[-47,62]],[[6316,3813],[-89,22],[0,43],[-48,45],[-57,-55],[-54,21],[5,68],[-45,46]],[[6028,4003],[5,73],[31,101],[17,105],[42,103],[39,-18],[41,48]],[[6203,4415],[24,17],[61,-53],[33,-99],[120,52],[25,33]],[[6517,4046],[-87,21],[-71,-24],[-51,-42],[-5,-42],[37,-41],[119,-30],[51,109],[7,49]],[[6203,4415],[-25,52],[-4,68]],[[6174,4535],[50,25],[-7,37],[31,56],[59,30]],[[6307,4683],[63,-40],[99,15]],[[6174,4535],[-52,2],[-26,-81],[-94,23],[-38,-31]],[[5964,4448],[13,163],[-7,48]],[[5970,4659],[31,79]],[[6001,4738],[100,8],[71,-10],[101,45],[34,-98]],[[6725,3532],[-1,-10]],[[6724,3522],[-43,-41],[-70,-28],[-36,5],[-22,46],[-41,-31],[-55,-5],[-11,-43],[-49,-42]],[[6397,3383],[-103,-7]],[[6294,3376],[-30,53]],[[6264,3429],[38,26],[73,11],[-58,108],[-1,57],[-64,53]],[[6252,3684],[64,129]],[[6724,3522],[-28,-95],[-37,-49],[-67,-23],[8,-64],[-27,-112]],[[6573,3179],[-109,28],[-28,36]],[[6436,3243],[2,90],[-41,50]],[[5848,4383],[-55,-74],[-56,-39],[-5,-49],[33,-41],[-19,-43]],[[5746,4137],[-80,-4],[-50,50],[-12,39],[-49,15],[-83,-23]],[[5472,4214],[-62,68],[-50,8],[0,51]],[[5360,4341],[63,82],[-63,25],[-10,36],[38,35]],[[5388,4519],[93,18],[55,53],[47,-9]],[[5583,4581],[43,-57],[85,19]],[[5711,4543],[41,-32],[0,-62],[96,-66]],[[5970,4659],[-76,-22],[-25,52],[-54,-16],[-80,-55],[-24,-75]],[[5583,4581],[-22,109],[-26,38],[7,47],[-68,35],[-10,124]],[[5464,4934],[185,0],[53,-25],[116,6],[16,-76],[83,-49],[22,-43],[62,-9]],[[5388,4519],[34,60],[0,52],[-43,74],[-2,69],[-33,29],[-21,93]],[[5323,4896],[141,38]],[[5964,4448],[-19,-35],[-97,-30]],[[6028,4003],[-38,14]],[[5990,4017],[-30,45],[-92,-30],[-32,15],[-37,67],[-43,-6]],[[5756,4108],[-10,29]],[[5074,4480],[-50,35],[-45,73],[-87,-24],[-48,35],[-95,12]],[[4749,4611],[7,82],[-49,41]],[[4707,4734],[245,52],[90,8],[70,28],[88,8]],[[5200,4830],[-14,-123],[9,-59],[-61,-101],[-60,-67]],[[5074,4480],[-45,-69],[22,-71],[-59,15],[-40,-47],[-58,-13]],[[4894,4295],[-72,18],[-47,37],[-57,-12]],[[4718,4338],[-31,94],[-21,19]],[[4666,4451],[30,99],[53,61]],[[5360,4341],[-49,38],[-23,50],[-77,-28]],[[5211,4401],[-27,27],[-110,52]],[[5200,4830],[123,66]],[[5211,4401],[7,-78],[-68,-59],[-9,-79],[-30,-37]],[[5111,4148],[-132,2],[-12,75],[-33,33]],[[4934,4258],[-40,37]],[[5472,4214],[12,-95],[-65,-32]],[[5419,4087],[-105,54],[-54,-21],[-66,-91],[-70,8]],[[5124,4037],[-29,42],[16,69]],[[6086,3586],[39,-106]],[[6125,3480],[-39,-59],[5,-40]],[[6091,3381],[-123,6],[-76,60],[-45,-18],[-61,11]],[[5786,3440],[-16,83]],[[5770,3523],[50,11],[30,52],[-35,31],[-4,72],[71,83]],[[5882,3772],[94,-106],[97,-28],[13,-52]],[[5756,4108],[-54,-82],[-46,-24],[-37,-151]],[[5619,3851],[-69,-19]],[[5550,3832],[-21,53],[-35,1]],[[5494,3886],[-7,63],[17,63],[-17,27],[-73,9]],[[5414,4048],[5,39]],[[5990,4017],[-20,-30],[-94,-41],[-37,-64]],[[5839,3882],[-43,-51],[-37,16],[-72,-39],[-68,43]],[[5770,3523],[-44,16],[-72,61],[-4,44],[-41,60],[-63,31]],[[5546,3735],[4,97]],[[5839,3882],[43,-34],[-30,-39],[30,-37]],[[6252,3684],[-116,-34],[-50,-64]],[[6264,3429],[-64,50],[-75,1]],[[6294,3376],[-77,-33]],[[6217,3343],[-82,7]],[[6135,3350],[-44,31]],[[4666,4451],[-73,-17],[-27,45],[-57,48],[-75,12],[-37,40]],[[4397,4579],[36,48],[79,38],[89,25],[72,49],[34,-5]],[[4934,4258],[-4,-95],[-23,-51],[-51,-29],[-113,3],[-89,-18]],[[4654,4068],[-55,34],[-103,21],[-39,-28]],[[4457,4095],[-40,123],[-28,48]],[[4389,4266],[18,46],[83,-59],[59,27],[32,51],[137,7]],[[4654,4068],[31,-102],[-30,-67]],[[4655,3899],[-67,48],[-43,0],[-15,-42]],[[4530,3905],[-111,-16]],[[4419,3889],[-21,57],[-37,32]],[[4361,3978],[1,87],[95,30]],[[5124,4037],[-17,-127],[-23,-51]],[[5084,3859],[-24,-3],[-67,-74],[-82,-30],[-26,25],[-53,-11]],[[4832,3766],[-106,1],[-21,71],[-50,61]],[[4361,3978],[-105,6],[-47,73],[-84,19]],[[4125,4076],[-35,49],[-77,64]],[[4013,4189],[70,78],[59,37]],[[4142,4304],[83,-27],[85,29],[79,-40]],[[4142,4304],[43,47],[52,97],[129,86],[31,45]],[[4832,3766],[16,-63]],[[4848,3703],[-107,-90],[-52,-13],[-3,-34],[54,-35],[-9,-89],[-45,-55]],[[4686,3387],[-74,-25],[-54,28],[-116,-1],[-26,-25]],[[4416,3364],[-59,86],[5,70],[-59,24]],[[4303,3544],[6,60],[-81,81]],[[4228,3685],[64,64]],[[4292,3749],[71,-7],[77,-31],[72,4],[23,26],[-7,71],[19,62],[-17,31]],[[4686,3387],[55,-83]],[[4741,3304],[-40,-29],[-56,-5],[7,-63],[-35,-146]],[[4617,3061],[-2,-39],[-54,-77],[-52,-29]],[[4509,2916],[-114,54]],[[4395,2970],[48,65],[-62,65],[-28,66]],[[4353,3166],[28,125],[35,73]],[[3772,3848],[-47,4]],[[3725,3852],[-61,121],[44,52],[-11,35]],[[3697,4060],[158,74]],[[3855,4134],[46,-78],[77,-61],[-9,-97]],[[3969,3898],[-69,-34],[-40,-40],[-26,48],[-62,-24]],[[4125,4076],[-30,-121],[-4,-71],[26,-103]],[[4117,3781],[-72,5],[-50,103],[-26,9]],[[3855,4134],[49,4],[109,51]],[[4303,3544],[-65,8],[-22,67],[-108,-5],[-60,15]],[[4048,3629],[-64,22],[-65,43],[-32,-16],[-65,20],[-60,45],[10,105]],[[4117,3781],[26,-39],[85,-57]],[[4419,3889],[-81,-28],[-17,-72],[-29,-40]],[[4848,3703],[20,-32],[-10,-58],[96,6],[68,-43],[41,3],[69,120],[37,9]],[[5169,3708],[38,-11],[22,-59]],[[5229,3638],[-35,-18],[-36,-110],[50,-51]],[[5208,3459],[-13,-55],[-62,-84],[5,-52]],[[5138,3268],[-46,17],[-11,-61],[23,-65],[-38,-16]],[[5066,3143],[-94,73],[-106,10],[4,57],[-37,24],[-92,-3]],[[5066,3143],[-1,-44],[-38,-17],[2,-59],[-69,-35]],[[4960,2988],[-66,28],[-103,-8],[-99,59],[-75,-6]],[[5414,4048],[-91,-19],[-5,-38],[-79,-58],[25,-98]],[[5264,3835],[-58,-17],[-42,-40]],[[5164,3778],[-27,54],[-53,27]],[[5494,3886],[-68,-40],[-78,-82],[-84,71]],[[5546,3735],[-52,-63]],[[5494,3672],[-56,3],[-21,-47],[-117,21],[-71,-11]],[[5169,3708],[-5,70]],[[5786,3440],[34,-79],[-88,-75]],[[5732,3286],[-113,101],[-84,28],[-5,71],[61,52],[18,41],[-26,38],[-58,8],[-31,47]],[[5732,3286],[-65,-95]],[[5667,3191],[-97,-16],[-92,8]],[[5478,3183],[-69,83],[-27,14],[-19,113],[-22,33],[-95,36],[-38,-3]],[[5478,3183],[-53,-33],[-27,-40],[-65,-5]],[[5333,3105],[-55,28],[-26,45],[-114,90]],[[5660,2340],[-65,-63],[32,-88],[13,-104]],[[5640,2085],[-164,-34],[-34,-33]],[[5442,2018],[-52,44],[-40,-5],[-46,107],[-53,81],[-27,114],[-36,57]],[[5188,2416],[35,13],[63,-20],[1,79],[82,69],[20,46],[39,1],[36,65],[52,0]],[[5516,2669],[30,-32]],[[5546,2637],[-16,-62],[50,-42],[-15,-44],[32,-28],[-8,-61],[71,-60]],[[6397,1241],[-73,16],[-71,-27],[-89,-56],[-59,46],[-40,3],[-91,57],[-59,113],[-98,75]],[[5817,1468],[-8,161],[38,9]],[[5847,1638],[217,-29]],[[6064,1609],[51,-43],[48,-4],[27,60],[75,-66]],[[6265,1556],[-16,-84],[34,-56],[120,-123],[-6,-52]],[[6265,1556],[51,42],[170,10]],[[6486,1608],[138,-173],[32,-33],[45,-90],[4,-47],[-136,-2],[-35,34],[-70,-9],[-26,-73],[-41,26]],[[6064,1609],[46,131],[39,79],[74,38],[97,-11],[32,13]],[[6352,1859],[40,14],[19,-50],[-35,-47],[-3,-45],[113,-123]],[[6436,3243],[-121,20],[-46,35],[-55,-34],[3,79]],[[6573,3179],[-44,-135]],[[6529,3044],[-46,-12],[-56,16],[-104,-9],[-46,93],[-47,-46],[-111,3],[-8,29]],[[6111,3118],[-7,64],[46,46],[-34,40],[19,82]],[[6111,3118],[-72,-1]],[[6039,3117],[-61,-8],[-31,73],[-87,-45],[-86,18],[-46,-9]],[[5728,3146],[-38,4],[-23,41]],[[5847,1638],[31,68],[-35,60],[-3,65],[30,34],[23,78],[28,22]],[[5921,1965],[93,-26],[46,-26],[60,2],[69,146]],[[6189,2061],[54,-7],[93,-68],[-15,-67],[31,-60]],[[5640,2085],[30,-42],[148,-54],[78,4]],[[5896,1993],[25,-28]],[[5817,1468],[-61,6],[-32,-67],[-53,3],[-99,51],[-34,-6]],[[5538,1455],[-16,28],[-73,40],[-26,54],[28,78],[-38,42],[14,89],[-43,12]],[[5384,1798],[-9,72],[59,65],[8,83]],[[5188,2416],[-58,82]],[[5130,2498],[-5,51],[-87,80],[-64,23],[14,72],[-19,75],[2,69]],[[4971,2868],[78,15],[24,-52],[86,2],[55,50],[80,5]],[[5294,2888],[162,-5],[43,-47]],[[5499,2836],[79,-108],[-62,-59]],[[5333,3105],[-2,-56],[-34,-64],[-3,-97]],[[4971,2868],[-31,2],[-17,69],[37,49]],[[6039,3117],[23,-242],[-108,-20]],[[5954,2855],[-98,67],[-88,22],[-55,-7],[-92,-44]],[[5621,2893],[-1,59],[-43,24],[5,53],[153,48],[-7,69]],[[5621,2893],[-122,-57]],[[6529,3044],[10,-119]],[[6539,2925],[-56,1],[-160,-87],[-14,-32]],[[6309,2807],[-73,7]],[[6236,2814],[-60,10],[-68,-24],[-82,3]],[[6026,2803],[-72,52]],[[6539,2925],[-1,-157],[-23,-47]],[[6515,2721],[-116,-11],[-82,45],[-8,52]],[[6515,2721],[23,-109],[-12,-45],[7,-79],[-173,16],[-35,-19],[8,-63],[-81,-38]],[[6252,2384],[-12,58],[-71,170],[-11,46],[60,57],[18,99]],[[6252,2384],[-28,-85],[19,-57],[-92,6]],[[6151,2248],[-76,95],[2,89],[-48,69],[-39,11]],[[5990,2512],[-14,95]],[[5976,2607],[62,53],[-12,143]],[[5976,2607],[-117,32],[-38,-16],[-87,3],[-77,-13],[-68,43],[-43,-19]],[[5896,1993],[9,78],[-61,59],[-59,-29],[-39,26],[-31,104],[23,7],[80,-42],[102,77],[-79,42],[-97,15]],[[5744,2330],[57,44],[46,10],[98,68],[45,60]],[[6151,2248],[-65,-7],[-37,-102],[-46,-42],[77,-58],[109,22]],[[5744,2330],[-19,55],[-65,-45]],[[4959,2285],[8,-64],[132,-102],[82,-97],[-48,-55],[-9,-58],[49,-79]],[[5173,1830],[-93,-18],[-82,-37],[-30,-60],[-114,-31],[-95,9],[-29,-32],[-4,-70]],[[4726,1591],[-215,86]],[[4511,1677],[-20,42]],[[4491,1719],[3,31],[54,98],[23,97],[-49,-17],[-23,78],[38,-1],[5,54]],[[4542,2059],[32,20],[77,-19],[85,113],[-24,43],[37,36],[54,-7],[80,31],[76,9]],[[4922,2188],[-101,-2],[-45,-139],[40,-12],[9,-42],[76,43],[64,113],[-43,39]],[[5130,2498],[-65,-18]],[[5065,2480],[-69,-23],[-56,7],[-62,65],[4,53],[-76,78],[-100,8],[-84,53],[-69,13],[-46,164]],[[4507,2898],[2,18]],[[4542,2059],[-52,10],[2,120],[-20,50],[-35,8],[-4,56],[-60,17]],[[4373,2320],[-8,58],[41,114],[41,-1],[-1,101],[-26,21],[-1,82],[-70,15]],[[4349,2710],[12,64],[91,68],[55,56]],[[5065,2480],[12,-93],[-118,-102]],[[5384,1798],[-135,-36],[-57,7]],[[5192,1769],[-19,61]],[[5538,1455],[-26,-55],[-53,-40],[-1,-36],[-155,-67],[-72,14]],[[5231,1271],[-6,54],[-60,20],[-8,148],[-31,46],[0,120],[66,110]],[[5231,1271],[-62,-37],[-133,29],[-75,-72]],[[4961,1191],[-40,51],[-49,110],[32,13],[-11,70],[21,93],[-47,45],[-114,-1],[-27,19]],[[723,4285],[-66,-41],[-30,-74],[-101,-88],[-1,-90]],[[525,3992],[-31,13]],[[494,4005],[-80,64],[-15,46],[20,51],[-31,36],[-45,8],[-17,61]],[[326,4271],[102,29],[33,58]],[[461,4358],[21,1]],[[482,4359],[145,53]],[[627,4412],[63,-16],[111,-49]],[[801,4347],[-63,-14],[-15,-48]],[[488,5022],[-34,-41],[9,-91],[58,-1],[1,-60]],[[522,4829],[-45,-39],[-144,-28]],[[333,4762],[-26,50]],[[307,4812],[13,90],[36,126],[34,31],[98,-37]],[[488,5022],[38,-38],[119,-74],[28,-32]],[[673,4878],[-41,-85],[-55,44],[-55,-8]],[[333,4762],[-62,-75],[10,-25]],[[281,4662],[-27,-58],[-44,-41],[-76,30],[-86,0]],[[48,4593],[21,122],[137,30],[14,40],[87,27]],[[482,4359],[0,86],[-43,32],[-2,85],[-69,-9]],[[368,4553],[50,79],[-43,87],[-94,-57]],[[673,4878],[124,-26],[15,-73],[-36,-39],[-123,-40],[-48,-60],[-41,-164],[63,-64]],[[368,4553],[-61,-29],[2,-41],[-48,-54],[-35,14],[-53,-68]],[[173,4375],[-51,9],[-108,50]],[[14,4434],[34,159]],[[461,4358],[-72,7],[-82,-28],[-134,38]],[[326,4271],[-123,7],[-78,-49],[-48,-68]],[[77,4161],[-16,19],[-28,125],[-33,60],[14,69]],[[494,4005],[-70,-25],[-150,-2],[10,-77],[-36,-110]],[[248,3791],[-69,64],[-32,119],[-3,129],[-67,58]],[[525,3992],[21,-68],[0,-73]],[[546,3851],[-24,-28],[3,-87],[-65,-67]],[[460,3669],[-100,28],[-20,36],[-49,13],[-43,45]],[[723,4285],[59,-9]],[[782,4276],[48,-46],[-6,-29],[-121,-52],[-18,-31],[-11,-140]],[[674,3978],[-34,-13],[-53,-104]],[[587,3861],[-41,-10]],[[4961,1191],[9,-77]],[[4970,1114],[-43,-8],[-80,37],[-22,108],[-70,28],[-34,-44],[-68,69],[-57,0]],[[4596,1304],[-90,29],[-40,53]],[[4466,1386],[4,49],[-25,141]],[[4445,1576],[36,35],[30,66]],[[4970,1114],[-15,-85],[-45,-26],[-135,3],[-39,-16],[-38,-62],[0,-92],[-46,-32],[-37,7],[-55,45],[-77,22],[-57,-51],[-37,-3]],[[4389,824],[-47,30],[39,99],[85,14],[-19,43],[25,58],[56,62],[19,77],[-13,36]],[[4534,1243],[62,61]],[[1667,3607],[52,32],[17,63],[-24,47],[22,74],[-79,101]],[[1655,3924],[9,53]],[[1664,3977],[68,-9],[37,38],[136,21]],[[1905,4027],[75,-20]],[[1980,4007],[-27,-105],[52,-174],[-61,-89]],[[1944,3639],[-46,-31],[8,-82],[-19,-94]],[[1887,3432],[-81,12]],[[1806,3444],[-91,18]],[[1715,3462],[-1,50],[-47,95]],[[801,4347],[121,28],[136,60],[64,12],[171,4],[57,-34]],[[1350,4417],[-14,-33],[-68,-41],[-61,5],[-38,-51]],[[1169,4297],[-57,-25]],[[1112,4272],[-157,-25]],[[955,4247],[-105,48],[-68,-19]],[[955,4247],[5,-71],[-35,-7],[-71,-77],[-36,-75]],[[818,4017],[-122,-50],[-22,11]],[[1112,4272],[3,-68],[-30,-90],[-39,-9],[-13,-63],[-55,-58]],[[978,3984],[-69,-27],[-91,60]],[[587,3861],[68,-38],[95,-21]],[[750,3802],[43,-81],[-32,-32],[-123,-69],[-101,-43]],[[537,3577],[-37,28],[-40,64]],[[1169,4297],[57,-101],[4,-65],[45,-60]],[[1275,4071],[-65,-73],[-60,-36]],[[1150,3962],[-123,-16],[-49,38]],[[1350,4417],[116,-58],[35,-4]],[[1501,4355],[14,-95],[-36,-91]],[[1479,4169],[-69,-157]],[[1410,4012],[-65,-6],[-70,65]],[[750,3802],[13,44],[55,-29],[73,-80],[48,-25],[-38,-47]],[[901,3665],[-56,-12],[-38,-44],[-18,-56],[10,-61],[-21,-24],[7,-115]],[[785,3353],[-32,-16]],[[753,3337],[-93,33],[-52,58],[-71,149]],[[901,3665],[8,-26],[95,-31],[98,-9],[47,-63]],[[1149,3536],[-9,-27]],[[1140,3509],[-82,-46],[-3,-71],[-53,-82],[-13,-71],[27,-37]],[[1016,3202],[-72,-2],[-53,21],[-34,66],[-72,66]],[[1140,3509],[45,-35],[77,-16]],[[1262,3458],[30,-35],[-12,-47],[-48,-41],[15,-47]],[[1247,3288],[-62,5],[-54,-69],[-115,-22]],[[1150,3962],[0,-60],[-30,-45],[-65,-15],[21,-37],[81,-50],[85,-25]],[[1242,3730],[-21,-110],[-72,-84]],[[1410,4012],[76,-80],[9,-32]],[[1495,3900],[-44,-2],[-36,-38],[-113,9],[-34,-20],[-26,-119]],[[1655,3924],[-44,-57],[-90,26]],[[1521,3893],[-26,7]],[[1479,4169],[86,-62],[4,-32]],[[1569,4075],[77,-56],[18,-42]],[[1501,4355],[74,9],[148,-51],[55,-28]],[[1778,4285],[-28,-59],[-7,-62],[-174,-89]],[[1905,4027],[-29,73],[-4,58],[-87,123]],[[1785,4281],[151,-29],[28,-27],[176,-59],[166,19]],[[2306,4185],[-14,-74],[-123,-28],[-30,-61],[-31,-6]],[[2108,4016],[-49,24],[-79,-33]],[[1778,4285],[7,-4]],[[1521,3893],[-35,-63]],[[1486,3830],[-57,-74],[8,-109],[-74,-15],[-75,-65],[-26,-109]],[[1715,3462],[-70,-29],[-105,5],[-15,-58],[-46,-49],[27,-89],[-40,-41],[-72,10],[-49,29]],[[1345,3240],[-13,31],[-85,17]],[[1486,3830],[52,-85],[129,-138]],[[3725,3852],[-64,-48],[-69,-89]],[[3592,3715],[-145,-26],[-50,-50]],[[3397,3639],[-59,9],[30,63],[-27,31],[-50,-15],[-32,37],[80,34],[13,89],[-7,53]],[[3345,3940],[23,91],[-4,51]],[[3364,4082],[69,23],[100,-55],[164,10]],[[2108,4016],[37,-64]],[[2145,3952],[-13,-99],[20,-25],[65,-8],[-10,-75]],[[2207,3745],[-35,-4],[-107,-51],[-25,-60],[-96,9]],[[2207,3745],[-10,-105],[51,-9]],[[2248,3631],[39,-64],[-1,-71],[32,-31]],[[2318,3465],[-98,-48],[-110,22],[-53,-12],[-75,-48]],[[1982,3379],[-71,18],[-24,35]],[[2145,3952],[130,25],[62,-41],[-13,-104],[8,-50]],[[2332,3782],[-84,-151]],[[2332,3782],[113,-16],[63,-29]],[[2508,3737],[-25,-94],[97,-57],[-3,-58],[-59,-38],[-64,2],[-40,-25]],[[2414,3467],[-40,21],[-56,-23]],[[2306,4185],[79,18],[78,52]],[[2463,4255],[2,-149],[38,-34],[27,-67],[56,22],[110,9],[44,-58],[17,-68]],[[2757,3910],[-11,-94],[-45,-20],[-79,20],[-48,-48],[-66,-31]],[[2463,4255],[92,32],[91,-21],[100,-87],[42,-17],[124,42]],[[2912,4204],[-19,-123],[4,-114]],[[2897,3967],[-106,-28],[-34,-29]],[[2912,4204],[32,-8],[135,12],[90,-41]],[[3169,4167],[-81,-28],[-6,-57],[66,-49],[-41,-69],[80,5],[40,-30],[-48,-56]],[[3179,3883],[-100,-34],[-61,0]],[[3018,3849],[-40,14],[-81,104]],[[3018,3849],[29,-59]],[[3047,3790],[-87,-58],[-106,-21],[-19,-73],[29,-23],[70,2],[-26,-63]],[[2908,3554],[-75,-21],[-90,-80],[-39,7],[-9,-56],[-78,-19]],[[2617,3385],[-150,31]],[[2467,3416],[-53,51]],[[3047,3790],[0,-100],[13,-29],[76,-12]],[[3136,3649],[-7,-50],[-53,-71]],[[3076,3528],[-64,-22],[-104,48]],[[3397,3639],[-23,-89],[-76,-48]],[[3298,3502],[-16,-1]],[[3282,3501],[-66,34],[-27,97],[-53,17]],[[3179,3883],[40,-51],[126,108]],[[3169,4167],[46,-9],[55,-63],[94,-13]],[[4048,3629],[-25,-56]],[[4023,3573],[-44,-32],[-30,-71],[-95,-24]],[[3854,3446],[-136,11]],[[3718,3457],[-101,88],[-33,52],[23,46],[-15,72]],[[4353,3166],[-70,3],[-49,56]],[[4234,3225],[-46,100],[-49,-9]],[[4139,3316],[5,69],[-63,41],[-55,13],[-9,39],[33,53],[-27,42]],[[3854,3446],[-50,-112],[24,-90],[24,-30],[71,-14]],[[3923,3200],[35,-107],[96,-22],[23,31]],[[4077,3102],[40,-125]],[[4117,2977],[-58,-28],[-114,-10],[20,-90],[-4,-62],[28,-31],[-47,-111]],[[3942,2645],[-72,-46]],[[3870,2599],[-46,33],[-15,68],[39,72],[-32,78],[-59,8]],[[3757,2858],[4,93],[33,35],[-9,45],[-84,45],[-163,34],[-79,1]],[[3459,3111],[10,96]],[[3469,3207],[47,57],[49,-32],[64,23],[-5,59],[21,108],[53,-4],[20,39]],[[2617,3385],[-75,-190],[78,-31],[70,22],[49,-57],[-20,-84]],[[2719,3045],[-254,-6],[-20,-49],[56,-118],[-3,-66]],[[2498,2806],[-107,38],[-66,38],[-36,59],[37,42],[-3,51],[-51,75]],[[2272,3109],[43,34],[-15,55],[62,151],[87,17],[18,50]],[[3076,3528],[53,-58],[-11,-43],[-60,-13],[7,-54]],[[3065,3360],[-3,-108],[-43,-50],[12,-134],[-64,-30]],[[2967,3038],[-110,-15],[-89,-44],[-49,66]],[[3282,3501],[-4,-57],[-71,-116]],[[3207,3328],[-89,11],[-53,21]],[[3298,3502],[24,-67],[-18,-26],[43,-54],[41,-4],[25,-151]],[[3413,3200],[-83,-9],[-66,29],[-53,64],[-4,44]],[[3469,3207],[-56,-7]],[[2967,3038],[-16,-73],[-1,-116]],[[2950,2849],[-50,2],[-13,-62],[23,-57],[-7,-46],[45,-55],[-1,-95]],[[2947,2536],[-42,11],[-88,-20]],[[2817,2527],[-43,4]],[[2774,2531],[-68,98],[-94,23],[-91,7]],[[2521,2659],[20,56],[-43,91]],[[2950,2849],[19,-33],[72,-41],[45,-66],[28,-125]],[[3114,2584],[-29,0],[-89,-56],[-49,8]],[[3602,2625],[2,-66],[-123,36],[-89,6],[-61,48]],[[3331,2649],[-41,127],[-40,25],[2,98],[30,26],[-7,51],[31,22],[87,-21],[54,15]],[[3447,2992],[31,-27],[118,-13],[38,-112]],[[3634,2840],[-7,-47],[-34,-41],[-9,-61],[18,-66]],[[3459,3111],[-28,-53],[16,-66]],[[3331,2649],[-23,-28]],[[3308,2621],[-109,-40],[-85,3]],[[4139,3316],[-111,-70],[-76,-15],[-29,-31]],[[4234,3225],[-66,-20],[-62,-38],[-29,-65]],[[4349,2710],[-83,-55],[-201,-8]],[[4065,2647],[-123,-2]],[[4117,2977],[19,28],[77,-23],[80,47],[23,-47],[79,-12]],[[3870,2599],[-25,-36]],[[3845,2563],[-48,37],[-94,-27]],[[3703,2573],[-65,50],[-36,2]],[[3634,2840],[31,16],[92,2]],[[2521,2659],[-30,-58],[-102,-8]],[[2389,2593],[-115,30],[-84,3]],[[2190,2626],[-27,-1]],[[2163,2625],[-54,12]],[[2109,2637],[40,80],[-13,99],[-27,30],[12,56],[-77,19]],[[2044,2921],[-15,72]],[[2029,2993],[82,-27],[-14,74],[16,41],[73,10],[28,28]],[[2214,3119],[58,-10]],[[1345,3240],[-26,-75],[83,-156],[30,-6]],[[1432,3003],[26,-59],[-6,-69],[101,-83],[6,-59]],[[1559,2733],[-45,1]],[[1514,2734],[-20,18],[-97,1],[-48,39],[-46,-5],[-62,-47],[-43,5],[-90,74]],[[1108,2819],[-31,105],[-54,39],[-106,27]],[[917,2990],[10,64],[47,-11],[25,71],[31,26],[-14,62]],[[1806,3444],[-13,-65],[-36,-29],[34,-67],[-54,-38],[-12,-71],[-35,-61]],[[1690,3113],[-53,-12],[-72,-46],[-51,26],[-82,-78]],[[2109,2637],[-36,-5],[-37,-48]],[[2036,2584],[-63,-10]],[[1973,2574],[-138,61]],[[1835,2635],[-66,68]],[[1769,2703],[27,80]],[[1796,2783],[76,8],[63,33],[109,97]],[[1690,3113],[67,-30]],[[1757,3083],[9,-94],[-34,-38],[36,-42],[28,-126]],[[1769,2703],[-75,-29]],[[1694,2674],[-135,59]],[[1982,3379],[8,-177]],[[1990,3202],[-92,-4],[5,-95]],[[1903,3103],[-32,-48],[-72,33],[-42,-5]],[[2214,3119],[-24,90],[-116,3],[-84,-10]],[[1903,3103],[74,12],[52,-122]],[[736,2621],[26,-39]],[[762,2582],[-34,-73],[-21,-108],[-65,-12],[-46,-40]],[[596,2349],[-8,1]],[[588,2350],[-65,58],[-134,7],[-40,23]],[[349,2438],[-4,93],[81,60],[79,7],[44,43],[-4,36],[-52,70]],[[493,2747],[94,8]],[[587,2755],[48,-49],[46,-74],[55,-11]],[[347,2243],[18,-46],[51,-44],[7,-60]],[[423,2093],[-28,-42],[-103,-4],[-19,54],[-31,-1]],[[242,2100],[-25,69],[-102,100],[12,119]],[[127,2388],[65,-23],[83,-6],[35,-90],[37,-26]],[[349,2438],[-23,-60],[30,-57],[-9,-78]],[[127,2388],[0,78],[42,100],[-54,76],[-14,55],[76,56],[20,39],[64,0],[46,31],[73,-44],[82,42]],[[462,2821],[31,-74]],[[917,2990],[-39,-28]],[[878,2962],[-92,-16],[-84,11],[-29,88],[-39,29]],[[634,3074],[40,77],[71,75],[8,111]],[[462,2821],[59,158],[113,95]],[[878,2962],[26,-44],[-11,-55],[-47,-9]],[[846,2854],[-142,-5],[-117,-94]],[[1108,2819],[-45,-80],[-30,-88],[-22,-16]],[[1011,2635],[-68,62],[-72,39]],[[871,2736],[-23,47],[-2,71]],[[871,2736],[-112,-105],[-23,-10]],[[1011,2635],[-23,-62],[-159,-5],[-24,-14]],[[805,2554],[-43,28]],[[4122,638],[-67,-57],[5,-108],[73,-45],[-27,-61],[20,-90],[78,-25],[36,-48],[3,-65]],[[4243,139],[-73,-15],[-73,49],[-74,-37],[-43,0],[-19,-39],[-64,31],[-38,-16],[-86,7]],[[3773,119],[-16,71],[-62,2],[-15,83],[8,52]],[[3688,327],[88,-17],[47,43],[-4,90],[28,56],[-30,82],[-5,107]],[[3812,688],[29,0]],[[3841,688],[31,-27],[95,-8],[62,63]],[[4029,716],[63,-7],[30,-71]],[[3028,298],[-41,-26],[-75,5],[-3,-88],[-60,42],[-33,79]],[[2816,310],[35,77],[30,30],[29,74],[50,5]],[[2960,496],[32,-46],[-7,-46],[44,-74]],[[3029,330],[-1,-32]],[[2960,496],[57,61],[-1,57],[51,28]],[[3067,642],[42,-30]],[[3109,612],[-7,-30],[49,-110]],[[3151,472],[-39,-70]],[[3112,402],[-42,-76],[-41,4]],[[3109,612],[73,9],[51,48],[2,84],[-39,110]],[[3196,863],[59,-1]],[[3255,862],[83,-25],[91,-95],[-54,-98],[1,-43],[46,-35]],[[3422,566],[-12,-39],[-83,-72]],[[3327,455],[-37,18],[-90,-21],[-49,20]],[[3112,402],[43,-12],[79,-63],[76,9]],[[3310,336],[25,-23],[-42,-59]],[[3293,254],[9,-79],[35,-50]],[[3337,125],[-69,47],[-39,6],[-64,48],[-96,32],[-41,40]],[[3327,455],[2,-72],[-19,-47]],[[3812,688],[-54,-1],[-48,-46],[-190,-79]],[[3520,562],[-98,4]],[[3255,862],[25,32],[86,-10],[12,-51],[92,20],[19,-32],[60,-8],[24,23],[27,114]],[[3600,950],[106,-49],[75,-1]],[[3781,900],[62,-41],[27,-65],[-2,-64],[-27,-42]],[[3773,119],[-11,-38],[-56,4],[-103,-46],[-120,-39],[-67,13],[-79,112]],[[3293,254],[84,24],[3,42],[70,-3],[50,35],[52,-11]],[[3552,341],[78,16],[58,-30]],[[3520,562],[32,-46],[0,-175]],[[4534,1243],[-32,-6],[-53,-57],[-55,-19],[-54,-44],[-15,-62],[-72,-11],[-17,-152]],[[4236,892],[-93,-32],[-65,0]],[[4078,860],[-37,71],[-42,15],[-19,47]],[[3980,993],[18,27],[94,-10],[16,67],[-40,52],[-1,50],[-47,75]],[[4020,1254],[35,26],[77,-6],[37,38],[81,22],[15,26],[59,1]],[[4324,1361],[41,-18],[36,29],[65,14]],[[3781,900],[0,45],[78,85],[48,-42],[73,5]],[[4078,860],[-89,-14],[9,-92],[31,-38]],[[4389,824],[-13,-77],[28,-58]],[[4404,689],[-49,16],[-34,-45],[-47,-4]],[[4274,656],[-14,74],[32,115],[-56,47]],[[4274,656],[-20,-73],[-73,-11],[-59,66]],[[4404,689],[64,-18],[52,-130],[-20,-135],[40,-60],[-37,-32],[-10,-60],[-28,-40],[-98,-18],[-82,-54],[-42,-3]],[[4373,2320],[-91,9],[-19,61],[-78,-20],[-28,-38]],[[4157,2332],[-33,36],[-22,116],[-37,125],[0,38]],[[2389,2593],[-47,-110]],[[2342,2483],[-79,40],[-71,6],[-2,97]],[[2817,2527],[19,-49],[-6,-60],[-82,-15],[1,68],[25,60]],[[3114,2584],[0,-194],[-16,-63],[24,-84]],[[3122,2243],[-46,-33],[5,-95],[-70,7]],[[3011,2122],[-77,34],[-51,-1]],[[2883,2155],[-16,74],[-79,18],[-185,28],[-91,47]],[[2512,2322],[-142,121],[-28,40]],[[3308,2621],[38,-124],[94,-119],[-55,-97],[-11,-70],[15,-76]],[[3389,2135],[-60,1]],[[3329,2136],[-29,35],[-102,-13],[-60,42],[-16,43]],[[3703,2573],[-3,-146],[9,-152],[20,-88]],[[3729,2187],[-60,-67],[-53,55],[-53,3],[-34,-49]],[[3529,2129],[-109,-23],[-31,29]],[[3845,2563],[63,-131],[64,-45]],[[3972,2387],[-46,-143]],[[3926,2244],[-52,-44],[-145,-13]],[[3972,2387],[27,17],[73,-24],[9,-125]],[[4081,2255],[-155,-11]],[[4157,2332],[5,-39],[-56,-38]],[[4106,2255],[-25,0]],[[4324,1361],[-7,35],[-52,64],[-84,47],[-62,0],[-22,-67],[-40,-9]],[[4057,1431],[-61,195],[3,34],[59,-5],[26,38]],[[4084,1693],[61,-63],[122,-41],[117,15],[61,-28]],[[4491,1719],[-31,2],[-122,71],[-44,11],[-69,63],[-52,91]],[[4173,1957],[-38,94],[26,60],[-46,95],[-9,49]],[[4173,1957],[-32,-25],[-93,34],[-83,-53],[-29,-66],[51,-7],[7,-57]],[[3994,1783],[-86,29],[-49,-31],[-40,-119]],[[3819,1662],[-36,-14]],[[3783,1648],[-95,5],[-52,67],[69,60],[7,29],[-58,124],[-132,33]],[[3522,1966],[7,163]],[[4084,1693],[-65,35],[-25,55]],[[3783,1648],[-28,-74],[-57,25],[-40,-21],[-18,-99],[-126,25]],[[3514,1504],[-92,113]],[[3422,1617],[-1,93],[14,53],[-27,34],[36,89],[78,80]],[[3600,950],[-53,104]],[[3547,1054],[48,63],[25,67],[-34,70],[1,40]],[[3587,1294],[88,17],[149,-27],[75,14],[46,46],[65,-9]],[[4010,1335],[10,-81]],[[3547,1054],[-88,-72],[-46,42],[-16,125]],[[3397,1149],[80,89],[10,49]],[[3487,1287],[100,7]],[[3196,863],[1,97]],[[3197,960],[35,16],[45,78]],[[3277,1054],[55,62],[65,33]],[[4010,1335],[10,67]],[[4020,1402],[37,29]],[[3819,1662],[14,-19],[-2,-106],[91,25],[48,-87],[6,-46],[44,-27]],[[3487,1287],[-21,79],[48,138]],[[1954,853],[-87,-44],[-28,-173],[26,-10],[-10,-69]],[[1855,557],[-71,-38],[-31,18]],[[1753,537],[-61,54],[-27,48],[-2,146],[-30,92]],[[1633,877],[119,129]],[[1256,268],[-52,-54],[-71,64],[-66,-34],[-15,-74],[-30,-28],[-123,-3],[-164,27],[13,72],[-8,61],[21,52],[-16,79],[5,94]],[[750,524],[90,-19],[22,19],[60,-28],[57,24]],[[979,520],[48,-22],[95,-97],[98,-17],[36,-116]],[[1242,954],[12,-52],[-35,-46]],[[1219,856],[-18,-1]],[[1201,855],[-70,0],[-73,-105],[-131,-2],[-104,57]],[[823,805],[-18,84]],[[805,889],[62,64],[77,-12],[55,28],[175,33]],[[1174,1002],[68,-48]],[[1633,877],[-46,-12],[-9,-37],[-54,-2],[-139,-42]],[[1385,784],[-68,63],[-37,1],[-41,-42],[-20,50]],[[1242,954],[74,107],[109,-7],[49,20]],[[1474,1074],[57,-56],[69,46],[111,-17]],[[750,524],[7,33],[-28,81],[1,44],[93,123]],[[1201,855],[-28,-57],[-59,-54],[-88,-181],[-47,-43]],[[1385,784],[19,-65],[92,-126],[10,-60],[36,-78]],[[1542,455],[11,-187]],[[1553,268],[-38,-31],[-129,42],[-130,-11]],[[1855,557],[41,-25],[-3,-85],[88,-62]],[[1981,385],[-54,-35],[-58,57],[-24,-29],[-129,-45],[-10,-39],[-48,-18],[-54,10],[-51,-18]],[[1542,455],[35,26],[45,-5],[25,37],[106,24]],[[2055,752],[26,-51],[-22,-43],[-20,-148]],[[2039,510],[-20,-29],[19,-75],[-57,-21]],[[3197,960],[-76,69],[-57,-27]],[[3064,1002],[-55,68],[-62,37],[-26,45],[-41,6],[-35,-50]],[[2845,1108],[-104,26],[-18,17]],[[2723,1151],[29,25]],[[2752,1176],[112,2],[25,27],[30,187]],[[2919,1392],[24,2]],[[2943,1394],[113,-2],[27,38],[57,31],[80,18]],[[3220,1479],[7,-54],[-42,-37],[45,-107],[-52,-35],[-4,-50],[67,-17],[36,-125]],[[2605,1107],[-7,-132],[18,-76]],[[2616,899],[-9,-59],[-79,-105],[-90,-11],[-2,-60],[46,-24],[54,-83]],[[2536,557],[-46,-54],[-95,6]],[[2395,509],[-37,92],[16,108],[-31,65],[10,42],[-20,76]],[[2333,892],[-16,56],[9,54],[33,54],[51,22],[18,48]],[[2428,1126],[21,52]],[[2449,1178],[63,-18]],[[2512,1160],[59,-49],[34,-4]],[[2752,1176],[29,161],[100,77],[38,-22]],[[2816,310],[-148,27],[-47,91],[-27,117],[-58,12]],[[2616,899],[43,-66],[43,-31],[18,-43],[45,-37],[44,14],[60,128]],[[2869,864],[53,-75],[40,26]],[[2962,815],[62,-151],[43,-22]],[[2845,1108],[12,-73],[-31,-74],[56,-39],[-13,-58]],[[2605,1107],[118,44]],[[3220,1479],[55,99]],[[3275,1578],[111,21],[36,18]],[[2962,815],[29,75],[61,-15],[21,22],[-9,105]],[[2087,850],[70,18],[50,-7]],[[2207,861],[19,-100],[38,-30],[-4,-161]],[[2260,570],[-67,-43],[-15,-47],[-97,50],[-42,-20]],[[2395,509],[-84,-25],[-51,86]],[[2207,861],[62,-2],[64,33]],[[3275,1578],[-60,13]],[[3215,1591],[-19,39],[11,116]],[[3207,1746],[89,14],[14,34],[-60,42],[-9,158],[32,12],[74,-18],[7,33],[-60,52],[35,63]],[[3207,1746],[-84,96],[-53,36],[-100,5]],[[2970,1883],[-12,43],[28,75],[25,121]],[[423,2093],[59,-89],[41,-9]],[[523,1995],[63,-85],[28,4]],[[614,1914],[26,-74]],[[640,1840],[-90,-103],[-109,-86],[-18,-72],[-41,-71],[-65,-51]],[[317,1457],[-91,63],[-38,46],[-7,50],[-43,33],[-60,108],[-64,67],[40,31],[51,1],[50,105],[40,12],[47,127]],[[640,1840],[42,-63],[-5,-104],[16,-15]],[[693,1658],[-25,-65]],[[668,1593],[-21,-34],[-26,-110],[44,-28]],[[665,1421],[-12,-73],[-34,-16]],[[619,1332],[-131,35],[-56,36],[-43,4],[-72,50]],[[588,2350],[-100,-55],[17,-108],[35,-61],[6,-59]],[[546,2067],[-23,-72]],[[596,2349],[38,-51]],[[634,2298],[-39,-58],[40,-30],[-19,-97],[-70,-46]],[[1694,2674],[-6,-38],[-68,-16],[-35,-39],[-10,-65],[-37,-41],[5,-49],[47,-5],[38,-52],[45,-5],[23,36],[84,-36],[28,22]],[[1808,2386],[16,-33],[-17,-100]],[[1807,2253],[-46,3],[-57,55],[-95,11],[-66,-13],[-10,-67],[-47,-71]],[[1486,2171],[-41,10],[-25,42],[-12,157],[-41,43],[61,91],[52,25],[29,111],[5,84]],[[2342,2483],[-56,-62],[-22,-62]],[[2264,2359],[-93,8],[-43,-11]],[[2128,2356],[-34,41],[8,99],[61,129]],[[2036,2584],[11,-88],[-36,-32]],[[2011,2464],[-22,4]],[[1989,2468],[-16,106]],[[2128,2356],[-27,-31]],[[2101,2325],[-40,38],[-50,101]],[[2101,2325],[-8,-52],[-54,1],[-33,-37]],[[2006,2237],[-37,147]],[[1969,2384],[20,84]],[[2006,2237],[-97,36]],[[1909,2273],[-1,67],[61,44]],[[1909,2273],[-83,-27]],[[1826,2246],[-19,7]],[[1808,2386],[-12,63],[22,59],[17,127]],[[1486,2171],[51,-149]],[[1537,2022],[-110,-14],[-31,13],[-2,84],[-26,64],[-73,11],[8,-83],[-43,-9],[-128,116],[-33,7]],[[1099,2211],[-123,148],[-19,77],[-59,20],[-9,33],[-84,65]],[[1099,2211],[-63,-117]],[[1036,2094],[-69,-7],[-104,107],[-152,93],[-77,11]],[[1036,2094],[19,-80],[-18,-82]],[[1037,1932],[-49,-12],[-57,16],[-29,42],[-37,-34],[-58,-1]],[[807,1943],[-45,44],[-148,-73]],[[3215,1591],[-76,-36],[-73,21]],[[3066,1576],[16,69],[-27,68],[-55,9],[-62,-26],[-50,100]],[[2888,1796],[50,28],[32,59]],[[2943,1394],[8,98],[20,72]],[[2971,1564],[95,12]],[[807,1943],[4,-42],[48,-104],[-26,-42],[-57,-6],[0,-49]],[[776,1700],[-83,-42]],[[805,889],[-66,37],[-37,106]],[[702,1032],[74,33],[32,40],[7,106],[69,20],[15,-29],[71,3],[129,127],[57,-62],[42,-6]],[[1198,1264],[-73,-202],[49,-60]],[[2512,1160],[-7,97],[14,57],[-3,107]],[[2516,1421],[33,-42],[0,-69],[41,-13],[45,62],[-42,119]],[[2593,1478],[-5,60],[-30,12]],[[2558,1550],[-47,88],[-9,60]],[[2502,1698],[120,2]],[[2622,1700],[24,-117],[86,-16]],[[2732,1567],[3,-73],[51,-24],[98,97]],[[2884,1567],[87,-3]],[[1980,1124],[63,2],[22,42],[58,31],[59,135]],[[2182,1334],[53,-57],[45,-21]],[[2280,1256],[16,-80],[80,-47],[52,-3]],[[2512,2322],[-47,-68],[-36,-8]],[[2429,2246],[-21,19],[-87,-2]],[[2321,2263],[-57,96]],[[2883,2155],[-52,-35],[-24,-109],[-42,-3],[-57,-40]],[[2708,1968],[-66,27],[1,58],[-71,10],[-7,-99],[-44,4],[-83,58]],[[2438,2026],[-60,88],[51,132]],[[2888,1796],[-91,48]],[[2797,1844],[-89,124]],[[2321,2263],[-52,-11],[-25,-61],[5,-80],[75,-66],[-52,-31],[36,-66]],[[2308,1948],[-77,-44],[-7,-24]],[[2224,1880],[-45,41],[-35,66],[-109,87]],[[2035,2074],[-102,-2],[-48,34],[-57,107],[-2,33]],[[2558,1550],[-70,0],[-26,-48]],[[2462,1502],[-82,-19]],[[2380,1483],[-42,73],[-48,-24],[-42,-101],[-59,-45]],[[2189,1386],[-61,108]],[[2128,1494],[6,48],[66,136],[-12,93]],[[2188,1771],[60,25],[17,29],[-41,55]],[[2308,1948],[32,7],[107,-39]],[[2447,1916],[29,-21],[17,-57],[-17,-43],[26,-97]],[[2182,1334],[7,52]],[[2380,1483],[-32,-25],[-18,-112],[-50,-90]],[[2438,2026],[-13,-41],[22,-69]],[[2797,1844],[-29,-49],[-47,-2],[-12,-38],[-70,-28],[-17,-27]],[[2884,1567],[-81,67],[-71,-67]],[[2462,1502],[14,-48]],[[2476,1454],[-27,-52],[27,-69],[3,-60],[-30,-95]],[[2593,1478],[-78,-30]],[[2515,1448],[-39,6]],[[2515,1448],[1,-27]],[[665,1421],[43,49],[26,-52],[65,-8],[51,-25],[81,33],[46,52]],[[977,1470],[74,-4],[112,-29],[95,-43],[34,7]],[[1292,1401],[-8,-30],[-86,-107]],[[702,1032],[-65,138],[-18,162]],[[1037,1932],[32,-11]],[[1069,1921],[-31,-91],[-59,-23],[-1,-51],[48,-48],[124,-76]],[[1150,1632],[-41,-24],[-110,-1],[-41,16]],[[958,1623],[-108,4],[-74,73]],[[1069,1921],[93,-23],[18,-81],[52,-36],[15,-48],[-70,-45],[-27,-56]],[[958,1623],[-14,-29],[-64,-20],[-28,-30]],[[852,1544],[-60,-33],[-40,10],[-52,67],[-32,5]],[[977,1470],[-115,30],[-10,44]],[[1150,1632],[42,-31],[89,22],[38,-66],[52,-33],[-3,-50]],[[1368,1474],[-36,-40]],[[1332,1434],[-40,-33]],[[2035,2074],[-28,-86],[-37,-31],[-64,-18]],[[1906,1939],[-87,15],[-61,-14],[-126,37],[-90,43]],[[1542,2020],[-5,2]],[[1542,2020],[-2,-61],[74,-64]],[[1614,1895],[-38,-98],[1,-51],[46,-70]],[[1623,1676],[9,-82]],[[1632,1594],[-54,3],[-101,-35],[-23,-89]],[[1454,1473],[-86,1]],[[1614,1895],[79,-12],[11,-58],[37,-12],[-118,-137]],[[1332,1434],[53,-68],[-11,-93],[18,-67],[82,-132]],[[1906,1939],[-2,-32]],[[1904,1907],[-14,-83],[54,-36],[-23,-28]],[[1921,1760],[-33,-22],[-67,35],[-58,-84],[-98,-71]],[[1665,1618],[-33,-24]],[[2188,1771],[-111,97],[-50,1],[-46,27],[-77,11]],[[2006,1563],[37,98],[-11,54],[-74,15],[-37,30]],[[2128,1494],[-78,40]],[[1454,1473],[26,-40],[19,-150],[35,-19],[71,23],[64,-31]],[[1665,1618],[35,-77],[16,-84]]],"transform":{"scale":[0.0008480263807824255,0.000588295007779531],"translate":[22.348202858175398,41.23383687647072]},"objects":{"BGR":{"type":"GeometryCollection","geometries":[{"arcs":[[0,1,2,3,4,5,6,7,8,9]],"type":"Polygon","properties":{"name":"Velingrad","shapeGroup":"BGR","gid":"BGR-2-0"},"id":"BGR-2-0"},{"arcs":[[10,11,12,13]],"type":"Polygon","properties":{"name":"Kavarna","shapeGroup":"BGR","gid":"BGR-2-1"},"id":"BGR-2-1"},{"arcs":[[-14,14,15]],"type":"Polygon","properties":{"name":"Shabla","shapeGroup":"BGR","gid":"BGR-2-2"},"id":"BGR-2-2"},{"arcs":[[-13,16,17,18,19,-15]],"type":"Polygon","properties":{"name":"General Toshevo","shapeGroup":"BGR","gid":"BGR-2-3"},"id":"BGR-2-3"},{"arcs":[[-12,20,21,22,-17]],"type":"Polygon","properties":{"name":"Balchik","shapeGroup":"BGR","gid":"BGR-2-4"},"id":"BGR-2-4"},{"arcs":[[-18,-23,23,24,25,26],[27]],"type":"Polygon","properties":{"name":"Dobrichka","shapeGroup":"BGR","gid":"BGR-2-5"},"id":"BGR-2-5"},{"arcs":[[-28]],"type":"Polygon","properties":{"name":"Dobrich","shapeGroup":"BGR","gid":"BGR-2-6"},"id":"BGR-2-6"},{"arcs":[[-19,-27,28,29,30]],"type":"Polygon","properties":{"name":"Krushari","shapeGroup":"BGR","gid":"BGR-2-7"},"id":"BGR-2-7"},{"arcs":[[-30,31,32,33,34]],"type":"Polygon","properties":{"name":"Kaynardzha","shapeGroup":"BGR","gid":"BGR-2-8"},"id":"BGR-2-8"},{"arcs":[[-22,35,36,37,38,39,40,-24]],"type":"Polygon","properties":{"name":"Aksakovo","shapeGroup":"BGR","gid":"BGR-2-9"},"id":"BGR-2-9"},{"arcs":[[-37,41,42,43]],"type":"Polygon","properties":{"name":"Varna","shapeGroup":"BGR","gid":"BGR-2-10"},"id":"BGR-2-10"},{"arcs":[[44,45,46,47,48,49,50]],"type":"Polygon","properties":{"name":"Dulovo","shapeGroup":"BGR","gid":"BGR-2-11"},"id":"BGR-2-11"},{"arcs":[[-34,51,-50,52,53]],"type":"Polygon","properties":{"name":"Silistra","shapeGroup":"BGR","gid":"BGR-2-12"},"id":"BGR-2-12"},{"arcs":[[-49,54,55,-53]],"type":"Polygon","properties":{"name":"Sitovo","shapeGroup":"BGR","gid":"BGR-2-13"},"id":"BGR-2-13"},{"arcs":[[-33,56,-51,-52]],"type":"Polygon","properties":{"name":"Alfatar","shapeGroup":"BGR","gid":"BGR-2-14"},"id":"BGR-2-14"},{"arcs":[[-26,57,58,59,-45,-57,-32,-29]],"type":"Polygon","properties":{"name":"Tervel","shapeGroup":"BGR","gid":"BGR-2-15"},"id":"BGR-2-15"},{"arcs":[[60,61,62,63]],"type":"Polygon","properties":{"name":"Tutrakan","shapeGroup":"BGR","gid":"BGR-2-16"},"id":"BGR-2-16"},{"arcs":[[-61,64,65,66,67]],"type":"Polygon","properties":{"name":"Kubrat","shapeGroup":"BGR","gid":"BGR-2-17"},"id":"BGR-2-17"},{"arcs":[[-48,68,69,-64,70,-55]],"type":"Polygon","properties":{"name":"Glavinitsa","shapeGroup":"BGR","gid":"BGR-2-18"},"id":"BGR-2-18"},{"arcs":[[-65,-70,71,72,73]],"type":"Polygon","properties":{"name":"Zavet","shapeGroup":"BGR","gid":"BGR-2-19"},"id":"BGR-2-19"},{"arcs":[[-47,74,75,76,-72,-69]],"type":"Polygon","properties":{"name":"Isperih","shapeGroup":"BGR","gid":"BGR-2-20"},"id":"BGR-2-20"},{"arcs":[[77,78,79,80,81,82]],"type":"Polygon","properties":{"name":"Vetrino","shapeGroup":"BGR","gid":"BGR-2-21"},"id":"BGR-2-21"},{"arcs":[[-46,-60,83,84,85,86,87,-75]],"type":"Polygon","properties":{"name":"Kaolinovo","shapeGroup":"BGR","gid":"BGR-2-22"},"id":"BGR-2-22"},{"arcs":[[-59,88,89,-84]],"type":"Polygon","properties":{"name":"Nikola Kozlevo","shapeGroup":"BGR","gid":"BGR-2-23"},"id":"BGR-2-23"},{"arcs":[[-82,90,91,-85,-90,92]],"type":"Polygon","properties":{"name":"Novi Pazar","shapeGroup":"BGR","gid":"BGR-2-24"},"id":"BGR-2-24"},{"arcs":[[-25,-41,93,-83,-93,-89,-58]],"type":"Polygon","properties":{"name":"Valchi Dol","shapeGroup":"BGR","gid":"BGR-2-25"},"id":"BGR-2-25"},{"arcs":[[-40,94,-78,-94]],"type":"Polygon","properties":{"name":"Suvorovo","shapeGroup":"BGR","gid":"BGR-2-26"},"id":"BGR-2-26"},{"arcs":[[-39,95,96,97,-79,-95]],"type":"Polygon","properties":{"name":"Devnya","shapeGroup":"BGR","gid":"BGR-2-27"},"id":"BGR-2-27"},{"arcs":[[-62,-68,98,99]],"type":"Polygon","properties":{"name":"Slivo Pole","shapeGroup":"BGR","gid":"BGR-2-28"},"id":"BGR-2-28"},{"arcs":[[-66,-74,100,101,102,103]],"type":"Polygon","properties":{"name":"Vetovo","shapeGroup":"BGR","gid":"BGR-2-29"},"id":"BGR-2-29"},{"arcs":[[-102,104,105,106,107,108]],"type":"Polygon","properties":{"name":"Tsar Kaloyan","shapeGroup":"BGR","gid":"BGR-2-30"},"id":"BGR-2-30"},{"arcs":[[-73,-77,109,110,111,-105,-101]],"type":"Polygon","properties":{"name":"Razgrad","shapeGroup":"BGR","gid":"BGR-2-31"},"id":"BGR-2-31"},{"arcs":[[-103,-109,112,113,114,115]],"type":"Polygon","properties":{"name":"Ivanovo","shapeGroup":"BGR","gid":"BGR-2-32"},"id":"BGR-2-32"},{"arcs":[[-67,-104,-116,116,-99]],"type":"Polygon","properties":{"name":"Ruse","shapeGroup":"BGR","gid":"BGR-2-33"},"id":"BGR-2-33"},{"arcs":[[-106,-112,117,118,119,120,121,122,123]],"type":"Polygon","properties":{"name":"Popovo","shapeGroup":"BGR","gid":"BGR-2-34"},"id":"BGR-2-34"},{"arcs":[[-120,124,125,126,127,128,129]],"type":"Polygon","properties":{"name":"Antonovo","shapeGroup":"BGR","gid":"BGR-2-35"},"id":"BGR-2-35"},{"arcs":[[130,131,132,133,134]],"type":"Polygon","properties":{"name":"Tsenovo","shapeGroup":"BGR","gid":"BGR-2-36"},"id":"BGR-2-36"},{"arcs":[[-114,135,136,-134,137]],"type":"Polygon","properties":{"name":"Borovo","shapeGroup":"BGR","gid":"BGR-2-37"},"id":"BGR-2-37"},{"arcs":[[-122,138,139,-135,-137,140]],"type":"Polygon","properties":{"name":"Byala","shapeGroup":"BGR","gid":"BGR-2-38"},"id":"BGR-2-38"},{"arcs":[[-108,141,-123,-141,-136,-113]],"type":"Polygon","properties":{"name":"Dve Mogili","shapeGroup":"BGR","gid":"BGR-2-39"},"id":"BGR-2-39"},{"arcs":[[-107,-124,-142]],"type":"Polygon","properties":{"name":"Opaka","shapeGroup":"BGR","gid":"BGR-2-40"},"id":"BGR-2-40"},{"arcs":[[-119,142,143,144,145,146,147,-125]],"type":"Polygon","properties":{"name":"Targovishte","shapeGroup":"BGR","gid":"BGR-2-41"},"id":"BGR-2-41"},{"arcs":[[-126,-148,148,149]],"type":"Polygon","properties":{"name":"Omurtag","shapeGroup":"BGR","gid":"BGR-2-42"},"id":"BGR-2-42"},{"arcs":[[-76,-88,150,151,152,-110]],"type":"Polygon","properties":{"name":"Samuil","shapeGroup":"BGR","gid":"BGR-2-43"},"id":"BGR-2-43"},{"arcs":[[-87,153,-151]],"type":"Polygon","properties":{"name":"Venets","shapeGroup":"BGR","gid":"BGR-2-44"},"id":"BGR-2-44"},{"arcs":[[-86,-92,154,155,-144,156,-152,-154]],"type":"Polygon","properties":{"name":"Hitrino","shapeGroup":"BGR","gid":"BGR-2-45"},"id":"BGR-2-45"},{"arcs":[[-111,-153,-157,-143,-118]],"type":"Polygon","properties":{"name":"Loznitsa","shapeGroup":"BGR","gid":"BGR-2-46"},"id":"BGR-2-46"},{"arcs":[[-81,157,158,-155,-91]],"type":"Polygon","properties":{"name":"Kaspichan","shapeGroup":"BGR","gid":"BGR-2-47"},"id":"BGR-2-47"},{"arcs":[[-145,-156,-159,159,160,161]],"type":"Polygon","properties":{"name":"Shumen","shapeGroup":"BGR","gid":"BGR-2-48"},"id":"BGR-2-48"},{"arcs":[[-146,-162,162,163]],"type":"Polygon","properties":{"name":"Veliki Preslav","shapeGroup":"BGR","gid":"BGR-2-49"},"id":"BGR-2-49"},{"arcs":[[164,165,166,167,168,169]],"type":"Polygon","properties":{"name":"Karnobat","shapeGroup":"BGR","gid":"BGR-2-50"},"id":"BGR-2-50"},{"arcs":[[170,171,172,173,174]],"type":"Polygon","properties":{"name":"Malko Tarnovo","shapeGroup":"BGR","gid":"BGR-2-51"},"id":"BGR-2-51"},{"arcs":[[-175,175,176]],"type":"Polygon","properties":{"name":"Tsarevo","shapeGroup":"BGR","gid":"BGR-2-52"},"id":"BGR-2-52"},{"arcs":[[-174,177,178,-176]],"type":"Polygon","properties":{"name":"Primorsko","shapeGroup":"BGR","gid":"BGR-2-53"},"id":"BGR-2-53"},{"arcs":[[-38,-44,179,-96]],"type":"Polygon","properties":{"name":"Beloslav","shapeGroup":"BGR","gid":"BGR-2-54"},"id":"BGR-2-54"},{"arcs":[[-43,180,181,182,-97,-180]],"type":"Polygon","properties":{"name":"Avren","shapeGroup":"BGR","gid":"BGR-2-55"},"id":"BGR-2-55"},{"arcs":[[-80,-98,-183,183,184,185,-160,-158]],"type":"Polygon","properties":{"name":"Provadiya","shapeGroup":"BGR","gid":"BGR-2-56"},"id":"BGR-2-56"},{"arcs":[[-173,186,187,188,-178]],"type":"Polygon","properties":{"name":"Sozopol","shapeGroup":"BGR","gid":"BGR-2-57"},"id":"BGR-2-57"},{"arcs":[[-166,189,190,-187,-172,191,192,193]],"type":"Polygon","properties":{"name":"Sredets","shapeGroup":"BGR","gid":"BGR-2-58"},"id":"BGR-2-58"},{"arcs":[[-168,194,195,196,197,198]],"type":"Polygon","properties":{"name":"Sungurlare","shapeGroup":"BGR","gid":"BGR-2-59"},"id":"BGR-2-59"},{"arcs":[[-147,-164,199,-197,200,-149]],"type":"Polygon","properties":{"name":"Varbitsa","shapeGroup":"BGR","gid":"BGR-2-60"},"id":"BGR-2-60"},{"arcs":[[-185,201,202,203]],"type":"Polygon","properties":{"name":"Dalgopol","shapeGroup":"BGR","gid":"BGR-2-61"},"id":"BGR-2-61"},{"arcs":[[-161,-186,-204,204,-198,-200,-163]],"type":"Polygon","properties":{"name":"Smyadovo","shapeGroup":"BGR","gid":"BGR-2-62"},"id":"BGR-2-62"},{"arcs":[[-182,205,206,207,208,209,-202,-184]],"type":"Polygon","properties":{"name":"Dolni Chiflik","shapeGroup":"BGR","gid":"BGR-2-63"},"id":"BGR-2-63"},{"arcs":[[-207,210,211]],"type":"Polygon","properties":{"name":"Byala","shapeGroup":"BGR","gid":"BGR-2-64"},"id":"BGR-2-64"},{"arcs":[[-208,-212,212,213]],"type":"Polygon","properties":{"name":"Nesebar","shapeGroup":"BGR","gid":"BGR-2-65"},"id":"BGR-2-65"},{"arcs":[[-209,-214,214,215,216,217]],"type":"Polygon","properties":{"name":"Pomorie","shapeGroup":"BGR","gid":"BGR-2-66"},"id":"BGR-2-66"},{"arcs":[[-169,-199,-205,-203,-210,-218,218]],"type":"Polygon","properties":{"name":"Ruen","shapeGroup":"BGR","gid":"BGR-2-67"},"id":"BGR-2-67"},{"arcs":[[-188,-191,219,220,-216,221]],"type":"Polygon","properties":{"name":"Burgas","shapeGroup":"BGR","gid":"BGR-2-68"},"id":"BGR-2-68"},{"arcs":[[-170,-219,-217,-221,222]],"type":"Polygon","properties":{"name":"Aytos","shapeGroup":"BGR","gid":"BGR-2-69"},"id":"BGR-2-69"},{"arcs":[[-165,-223,-220,-190]],"type":"Polygon","properties":{"name":"Kameno","shapeGroup":"BGR","gid":"BGR-2-70"},"id":"BGR-2-70"},{"arcs":[[223,224,225,226,227,228],[229]],"type":"Polygon","properties":{"name":"Tundzha","shapeGroup":"BGR","gid":"BGR-2-71"},"id":"BGR-2-71"},{"arcs":[[-127,-150,-201,-196,230,231,232]],"type":"Polygon","properties":{"name":"Kotel","shapeGroup":"BGR","gid":"BGR-2-72"},"id":"BGR-2-72"},{"arcs":[[-229,233,234,235,-232,236]],"type":"Polygon","properties":{"name":"Sliven","shapeGroup":"BGR","gid":"BGR-2-73"},"id":"BGR-2-73"},{"arcs":[[-167,-194,237,238,-224,-237,-231,-195]],"type":"Polygon","properties":{"name":"Straldzha","shapeGroup":"BGR","gid":"BGR-2-74"},"id":"BGR-2-74"},{"arcs":[[-193,239,240,-238]],"type":"Polygon","properties":{"name":"Bolyarovo","shapeGroup":"BGR","gid":"BGR-2-75"},"id":"BGR-2-75"},{"arcs":[[-225,-239,-241,241,242]],"type":"Polygon","properties":{"name":"Elhovo","shapeGroup":"BGR","gid":"BGR-2-76"},"id":"BGR-2-76"},{"arcs":[[-230]],"type":"Polygon","properties":{"name":"Yambol","shapeGroup":"BGR","gid":"BGR-2-77"},"id":"BGR-2-77"},{"arcs":[[243,244,245,246,247,248,249,250]],"type":"Polygon","properties":{"name":"Dimovo","shapeGroup":"BGR","gid":"BGR-2-78"},"id":"BGR-2-78"},{"arcs":[[251,252,253,254]],"type":"Polygon","properties":{"name":"Bregovo","shapeGroup":"BGR","gid":"BGR-2-79"},"id":"BGR-2-79"},{"arcs":[[-252,255,256]],"type":"Polygon","properties":{"name":"Novo Selo","shapeGroup":"BGR","gid":"BGR-2-80"},"id":"BGR-2-80"},{"arcs":[[-254,257,258,259]],"type":"Polygon","properties":{"name":"Boynitsa","shapeGroup":"BGR","gid":"BGR-2-81"},"id":"BGR-2-81"},{"arcs":[[-249,260,261,-258,-253,-257,262]],"type":"Polygon","properties":{"name":"Vidin","shapeGroup":"BGR","gid":"BGR-2-82"},"id":"BGR-2-82"},{"arcs":[[-259,-262,263,264,265]],"type":"Polygon","properties":{"name":"Kula","shapeGroup":"BGR","gid":"BGR-2-83"},"id":"BGR-2-83"},{"arcs":[[-248,266,-264,-261]],"type":"Polygon","properties":{"name":"Gramada","shapeGroup":"BGR","gid":"BGR-2-84"},"id":"BGR-2-84"},{"arcs":[[-247,267,268,-265,-267]],"type":"Polygon","properties":{"name":"Makresh","shapeGroup":"BGR","gid":"BGR-2-85"},"id":"BGR-2-85"},{"arcs":[[-246,269,270,-268]],"type":"Polygon","properties":{"name":"Belogradchik","shapeGroup":"BGR","gid":"BGR-2-86"},"id":"BGR-2-86"},{"arcs":[[-245,271,272,273,-270]],"type":"Polygon","properties":{"name":"Chuprene","shapeGroup":"BGR","gid":"BGR-2-87"},"id":"BGR-2-87"},{"arcs":[[-244,274,275,276,277,-272]],"type":"Polygon","properties":{"name":"Ruzhinsi","shapeGroup":"BGR","gid":"BGR-2-88"},"id":"BGR-2-88"},{"arcs":[[-226,-243,278,279,280,281,282]],"type":"Polygon","properties":{"name":"Topolovgrad","shapeGroup":"BGR","gid":"BGR-2-89"},"id":"BGR-2-89"},{"arcs":[[-280,283,284,285]],"type":"Polygon","properties":{"name":"Svilengrad","shapeGroup":"BGR","gid":"BGR-2-90"},"id":"BGR-2-90"},{"arcs":[[286,287,288,289,290,291,292,293,294]],"type":"Polygon","properties":{"name":"Byala Slatina","shapeGroup":"BGR","gid":"BGR-2-91"},"id":"BGR-2-91"},{"arcs":[[-251,295,296,297,298,299,-275]],"type":"Polygon","properties":{"name":"Lom","shapeGroup":"BGR","gid":"BGR-2-92"},"id":"BGR-2-92"},{"arcs":[[-276,-300,300,301]],"type":"Polygon","properties":{"name":"Brusartsi","shapeGroup":"BGR","gid":"BGR-2-93"},"id":"BGR-2-93"},{"arcs":[[-299,302,303,-301]],"type":"Polygon","properties":{"name":"Medkovets","shapeGroup":"BGR","gid":"BGR-2-94"},"id":"BGR-2-94"},{"arcs":[[-273,-278,304,305,306]],"type":"Polygon","properties":{"name":"Chiprovtsi","shapeGroup":"BGR","gid":"BGR-2-95"},"id":"BGR-2-95"},{"arcs":[[-298,307,308,309,-303]],"type":"Polygon","properties":{"name":"Yakimovo","shapeGroup":"BGR","gid":"BGR-2-96"},"id":"BGR-2-96"},{"arcs":[[-297,310,311,312,313,-308]],"type":"Polygon","properties":{"name":"Valchedram","shapeGroup":"BGR","gid":"BGR-2-97"},"id":"BGR-2-97"},{"arcs":[[-306,314,315,316,317]],"type":"Polygon","properties":{"name":"Georgi Bamyanovo","shapeGroup":"BGR","gid":"BGR-2-98"},"id":"BGR-2-98"},{"arcs":[[-316,318,319,320,321]],"type":"Polygon","properties":{"name":"Berkovitsa","shapeGroup":"BGR","gid":"BGR-2-99"},"id":"BGR-2-99"},{"arcs":[[-321,322,323,324]],"type":"Polygon","properties":{"name":"Varshets","shapeGroup":"BGR","gid":"BGR-2-100"},"id":"BGR-2-100"},{"arcs":[[-277,-302,-304,-310,325,326,-319,-315,-305]],"type":"Polygon","properties":{"name":"Montana","shapeGroup":"BGR","gid":"BGR-2-101"},"id":"BGR-2-101"},{"arcs":[[-309,-314,327,328,-326]],"type":"Polygon","properties":{"name":"Boychinovtsi","shapeGroup":"BGR","gid":"BGR-2-102"},"id":"BGR-2-102"},{"arcs":[[-288,329,330,-328,-313,331,332]],"type":"Polygon","properties":{"name":"Hayredin","shapeGroup":"BGR","gid":"BGR-2-103"},"id":"BGR-2-103"},{"arcs":[[-312,333,334,-332]],"type":"Polygon","properties":{"name":"Kozloduy","shapeGroup":"BGR","gid":"BGR-2-104"},"id":"BGR-2-104"},{"arcs":[[-290,335,336,337,338]],"type":"Polygon","properties":{"name":"Oryahovo","shapeGroup":"BGR","gid":"BGR-2-105"},"id":"BGR-2-105"},{"arcs":[[-289,-333,-335,339,-336]],"type":"Polygon","properties":{"name":"Miziya","shapeGroup":"BGR","gid":"BGR-2-106"},"id":"BGR-2-106"},{"arcs":[[-320,-327,-329,-331,340,341,-323]],"type":"Polygon","properties":{"name":"Krivodol","shapeGroup":"BGR","gid":"BGR-2-107"},"id":"BGR-2-107"},{"arcs":[[-295,342,343,-324,-342,344]],"type":"Polygon","properties":{"name":"Vratsa","shapeGroup":"BGR","gid":"BGR-2-108"},"id":"BGR-2-108"},{"arcs":[[-287,-345,-341,-330]],"type":"Polygon","properties":{"name":"Borovan","shapeGroup":"BGR","gid":"BGR-2-109"},"id":"BGR-2-109"},{"arcs":[[-132,345,346,347,348,349]],"type":"Polygon","properties":{"name":"Svishtov","shapeGroup":"BGR","gid":"BGR-2-110"},"id":"BGR-2-110"},{"arcs":[[-291,-339,350,351,352]],"type":"Polygon","properties":{"name":"Knezha","shapeGroup":"BGR","gid":"BGR-2-111"},"id":"BGR-2-111"},{"arcs":[[-292,-353,353,354,355,356]],"type":"Polygon","properties":{"name":"Cherven Bryag","shapeGroup":"BGR","gid":"BGR-2-112"},"id":"BGR-2-112"},{"arcs":[[-352,357,358,-354]],"type":"Polygon","properties":{"name":"Iskar","shapeGroup":"BGR","gid":"BGR-2-113"},"id":"BGR-2-113"},{"arcs":[[-355,-359,359,360,361]],"type":"Polygon","properties":{"name":"Dolni Dabnik","shapeGroup":"BGR","gid":"BGR-2-114"},"id":"BGR-2-114"},{"arcs":[[-338,362,363,364,-360,-358,-351]],"type":"Polygon","properties":{"name":"Dolna Mitropoliya","shapeGroup":"BGR","gid":"BGR-2-115"},"id":"BGR-2-115"},{"arcs":[[-364,365,366,367]],"type":"Polygon","properties":{"name":"Gulyantsi","shapeGroup":"BGR","gid":"BGR-2-116"},"id":"BGR-2-116"},{"arcs":[[-367,368,369,370,371]],"type":"Polygon","properties":{"name":"Nikopol","shapeGroup":"BGR","gid":"BGR-2-117"},"id":"BGR-2-117"},{"arcs":[[-361,-365,-368,-372,372,373,374,375,376]],"type":"Polygon","properties":{"name":"Pleven","shapeGroup":"BGR","gid":"BGR-2-118"},"id":"BGR-2-118"},{"arcs":[[-374,377,378,379]],"type":"Polygon","properties":{"name":"Pordim","shapeGroup":"BGR","gid":"BGR-2-119"},"id":"BGR-2-119"},{"arcs":[[-348,380,381,382,-378,-373,-371,383]],"type":"Polygon","properties":{"name":"Levski","shapeGroup":"BGR","gid":"BGR-2-120"},"id":"BGR-2-120"},{"arcs":[[-349,-384,-370,384]],"type":"Polygon","properties":{"name":"Belene","shapeGroup":"BGR","gid":"BGR-2-121"},"id":"BGR-2-121"},{"arcs":[[-131,-140,385,386,387,388,-346]],"type":"Polygon","properties":{"name":"Polski Trambesh","shapeGroup":"BGR","gid":"BGR-2-122"},"id":"BGR-2-122"},{"arcs":[[-121,-130,389,390,391,-386,-139]],"type":"Polygon","properties":{"name":"Strazhitsa","shapeGroup":"BGR","gid":"BGR-2-123"},"id":"BGR-2-123"},{"arcs":[[-388,392,393,394,395,396,397,398,399,400]],"type":"Polygon","properties":{"name":"Veliko Tarnovo","shapeGroup":"BGR","gid":"BGR-2-124"},"id":"BGR-2-124"},{"arcs":[[-376,401,402,403,404]],"type":"Polygon","properties":{"name":"Ugarchin","shapeGroup":"BGR","gid":"BGR-2-125"},"id":"BGR-2-125"},{"arcs":[[-375,-380,405,406,407,-402]],"type":"Polygon","properties":{"name":"Lovech","shapeGroup":"BGR","gid":"BGR-2-126"},"id":"BGR-2-126"},{"arcs":[[-379,-383,408,409,-406]],"type":"Polygon","properties":{"name":"Letnitsa","shapeGroup":"BGR","gid":"BGR-2-127"},"id":"BGR-2-127"},{"arcs":[[-382,410,411,-409]],"type":"Polygon","properties":{"name":"Suhindol","shapeGroup":"BGR","gid":"BGR-2-128"},"id":"BGR-2-128"},{"arcs":[[-347,-389,-401,412,-411,-381]],"type":"Polygon","properties":{"name":"Pavlikeni","shapeGroup":"BGR","gid":"BGR-2-129"},"id":"BGR-2-129"},{"arcs":[[-403,-408,413,414,415,416,417,418]],"type":"Polygon","properties":{"name":"Troyan","shapeGroup":"BGR","gid":"BGR-2-130"},"id":"BGR-2-130"},{"arcs":[[-415,419,420]],"type":"Polygon","properties":{"name":"Apriltsi","shapeGroup":"BGR","gid":"BGR-2-131"},"id":"BGR-2-131"},{"arcs":[[421,422,423,424]],"type":"Polygon","properties":{"name":"Gabrovo","shapeGroup":"BGR","gid":"BGR-2-132"},"id":"BGR-2-132"},{"arcs":[[-400,425,-423,426,427,-420,-414,-407,-410,-412,-413]],"type":"Polygon","properties":{"name":"Sevlievo","shapeGroup":"BGR","gid":"BGR-2-133"},"id":"BGR-2-133"},{"arcs":[[-387,-392,428,-393]],"type":"Polygon","properties":{"name":"Gorna Oryahovitsa","shapeGroup":"BGR","gid":"BGR-2-134"},"id":"BGR-2-134"},{"arcs":[[-391,429,-394,-429]],"type":"Polygon","properties":{"name":"Lyaskovets","shapeGroup":"BGR","gid":"BGR-2-135"},"id":"BGR-2-135"},{"arcs":[[-128,-233,-236,430,431,-396,432]],"type":"Polygon","properties":{"name":"Elena","shapeGroup":"BGR","gid":"BGR-2-136"},"id":"BGR-2-136"},{"arcs":[[-129,-433,-395,-430,-390]],"type":"Polygon","properties":{"name":"Zlataritsa","shapeGroup":"BGR","gid":"BGR-2-137"},"id":"BGR-2-137"},{"arcs":[[-398,433,434,435,-425,436]],"type":"Polygon","properties":{"name":"Tryavna","shapeGroup":"BGR","gid":"BGR-2-138"},"id":"BGR-2-138"},{"arcs":[[-399,-437,-424,-426]],"type":"Polygon","properties":{"name":"Dryanovo","shapeGroup":"BGR","gid":"BGR-2-139"},"id":"BGR-2-139"},{"arcs":[[-404,-419,437,438,439,440,441,442,443,444]],"type":"Polygon","properties":{"name":"Teteven","shapeGroup":"BGR","gid":"BGR-2-140"},"id":"BGR-2-140"},{"arcs":[[-325,-344,445,446,447,448,449,450]],"type":"Polygon","properties":{"name":"Svoge","shapeGroup":"BGR","gid":"BGR-2-141"},"id":"BGR-2-141"},{"arcs":[[-294,451,452,-446,-343]],"type":"Polygon","properties":{"name":"Mezdra","shapeGroup":"BGR","gid":"BGR-2-142"},"id":"BGR-2-142"},{"arcs":[[-442,453,454,455,456,457,458]],"type":"Polygon","properties":{"name":"Etropole","shapeGroup":"BGR","gid":"BGR-2-143"},"id":"BGR-2-143"},{"arcs":[[-447,-453,459,460,-458,461,462]],"type":"Polygon","properties":{"name":"Botevgrad","shapeGroup":"BGR","gid":"BGR-2-144"},"id":"BGR-2-144"},{"arcs":[[-293,-357,463,464,465,-460,-452]],"type":"Polygon","properties":{"name":"Roman","shapeGroup":"BGR","gid":"BGR-2-145"},"id":"BGR-2-145"},{"arcs":[[-356,-362,-377,-405,-445,466,-464]],"type":"Polygon","properties":{"name":"Lukovit","shapeGroup":"BGR","gid":"BGR-2-146"},"id":"BGR-2-146"},{"arcs":[[-443,-459,-461,-466,467]],"type":"Polygon","properties":{"name":"Pravets","shapeGroup":"BGR","gid":"BGR-2-147"},"id":"BGR-2-147"},{"arcs":[[-444,-468,-465,-467]],"type":"Polygon","properties":{"name":"Yablanitsa","shapeGroup":"BGR","gid":"BGR-2-148"},"id":"BGR-2-148"},{"arcs":[[468,469,470,471,472,473,474]],"type":"Polygon","properties":{"name":"Breznik","shapeGroup":"BGR","gid":"BGR-2-149"},"id":"BGR-2-149"},{"arcs":[[475,476,477,478]],"type":"Polygon","properties":{"name":"Treklyano","shapeGroup":"BGR","gid":"BGR-2-150"},"id":"BGR-2-150"},{"arcs":[[-473,479,-479,480,481]],"type":"Polygon","properties":{"name":"Tran","shapeGroup":"BGR","gid":"BGR-2-151"},"id":"BGR-2-151"},{"arcs":[[-317,-322,-451,482,483,484]],"type":"Polygon","properties":{"name":"Godech","shapeGroup":"BGR","gid":"BGR-2-152"},"id":"BGR-2-152"},{"arcs":[[-474,-482,485,-484,486,487]],"type":"Polygon","properties":{"name":"Dragoman","shapeGroup":"BGR","gid":"BGR-2-153"},"id":"BGR-2-153"},{"arcs":[[-450,488,489,490,-487,-483]],"type":"Polygon","properties":{"name":"Kostinbrod","shapeGroup":"BGR","gid":"BGR-2-154"},"id":"BGR-2-154"},{"arcs":[[-475,-488,-491,491]],"type":"Polygon","properties":{"name":"Slivnitsa","shapeGroup":"BGR","gid":"BGR-2-155"},"id":"BGR-2-155"},{"arcs":[[-469,-492,-490,492,493]],"type":"Polygon","properties":{"name":"Bozhurishte","shapeGroup":"BGR","gid":"BGR-2-156"},"id":"BGR-2-156"},{"arcs":[[494,495,496,497,498,499,500]],"type":"Polygon","properties":{"name":"Krumovgrad","shapeGroup":"BGR","gid":"BGR-2-157"},"id":"BGR-2-157"},{"arcs":[[501,502,503,504]],"type":"Polygon","properties":{"name":"Rudozem","shapeGroup":"BGR","gid":"BGR-2-158"},"id":"BGR-2-158"},{"arcs":[[-504,505,506,507,508,509]],"type":"Polygon","properties":{"name":"Madan","shapeGroup":"BGR","gid":"BGR-2-159"},"id":"BGR-2-159"},{"arcs":[[-508,510,511,512,513,514]],"type":"Polygon","properties":{"name":"Ardino","shapeGroup":"BGR","gid":"BGR-2-160"},"id":"BGR-2-160"},{"arcs":[[-505,-510,515,516,517,518]],"type":"Polygon","properties":{"name":"Zlatograd","shapeGroup":"BGR","gid":"BGR-2-161"},"id":"BGR-2-161"},{"arcs":[[-509,-515,519,-516]],"type":"Polygon","properties":{"name":"Nedelino","shapeGroup":"BGR","gid":"BGR-2-162"},"id":"BGR-2-162"},{"arcs":[[-499,520,521,-513,522,523,524]],"type":"Polygon","properties":{"name":"Kardzhali","shapeGroup":"BGR","gid":"BGR-2-163"},"id":"BGR-2-163"},{"arcs":[[-497,525,-518,526,527]],"type":"Polygon","properties":{"name":"Kirkovo","shapeGroup":"BGR","gid":"BGR-2-164"},"id":"BGR-2-164"},{"arcs":[[-514,-522,528,-527,-517,-520]],"type":"Polygon","properties":{"name":"Dzhebel","shapeGroup":"BGR","gid":"BGR-2-165"},"id":"BGR-2-165"},{"arcs":[[-498,-528,-529,-521]],"type":"Polygon","properties":{"name":"Momchilgrad","shapeGroup":"BGR","gid":"BGR-2-166"},"id":"BGR-2-166"},{"arcs":[[-281,-286,529,530,531,532,533,534]],"type":"Polygon","properties":{"name":"Harmanli","shapeGroup":"BGR","gid":"BGR-2-167"},"id":"BGR-2-167"},{"arcs":[[-500,-525,535,-532,536]],"type":"Polygon","properties":{"name":"Stambolovo","shapeGroup":"BGR","gid":"BGR-2-168"},"id":"BGR-2-168"},{"arcs":[[-285,537,538,539,-530]],"type":"Polygon","properties":{"name":"Lyubimets","shapeGroup":"BGR","gid":"BGR-2-169"},"id":"BGR-2-169"},{"arcs":[[-501,-537,-531,-540,540]],"type":"Polygon","properties":{"name":"Madzharovo","shapeGroup":"BGR","gid":"BGR-2-170"},"id":"BGR-2-170"},{"arcs":[[-495,-541,-539,541]],"type":"Polygon","properties":{"name":"Ivaylovgrad","shapeGroup":"BGR","gid":"BGR-2-171"},"id":"BGR-2-171"},{"arcs":[[-235,542,543,-431]],"type":"Polygon","properties":{"name":"Tvarditsa","shapeGroup":"BGR","gid":"BGR-2-172"},"id":"BGR-2-172"},{"arcs":[[-439,544,545]],"type":"Polygon","properties":{"name":"Anton","shapeGroup":"BGR","gid":"BGR-2-173"},"id":"BGR-2-173"},{"arcs":[[-417,546]],"type":"Polygon","properties":{"name":"Sopot","shapeGroup":"BGR","gid":"BGR-2-174"},"id":"BGR-2-174"},{"arcs":[[-416,-421,547,548,549,550,551,-545,-438,-418,-547]],"type":"Polygon","properties":{"name":"Karlovo","shapeGroup":"BGR","gid":"BGR-2-175"},"id":"BGR-2-175"},{"arcs":[[-428,552,553,554,-548]],"type":"Polygon","properties":{"name":"Pavel Banya","shapeGroup":"BGR","gid":"BGR-2-176"},"id":"BGR-2-176"},{"arcs":[[-422,-436,555,556,557,-553,-427]],"type":"Polygon","properties":{"name":"Kazanlak","shapeGroup":"BGR","gid":"BGR-2-177"},"id":"BGR-2-177"},{"arcs":[[-435,558,559,560,-556]],"type":"Polygon","properties":{"name":"Maglizh","shapeGroup":"BGR","gid":"BGR-2-178"},"id":"BGR-2-178"},{"arcs":[[-560,561,562]],"type":"Polygon","properties":{"name":"Nikolaevo","shapeGroup":"BGR","gid":"BGR-2-179"},"id":"BGR-2-179"},{"arcs":[[-397,-432,-544,563,564,-562,-559,-434]],"type":"Polygon","properties":{"name":"Gurkovo","shapeGroup":"BGR","gid":"BGR-2-180"},"id":"BGR-2-180"},{"arcs":[[-282,-535,565,566,567]],"type":"Polygon","properties":{"name":"Galabovo","shapeGroup":"BGR","gid":"BGR-2-181"},"id":"BGR-2-181"},{"arcs":[[-228,568,569,-564,-543,-234]],"type":"Polygon","properties":{"name":"Nova Zagora","shapeGroup":"BGR","gid":"BGR-2-182"},"id":"BGR-2-182"},{"arcs":[[-557,-561,-563,-565,-570,570,571,572,573,574]],"type":"Polygon","properties":{"name":"Stara Zagora","shapeGroup":"BGR","gid":"BGR-2-183"},"id":"BGR-2-183"},{"arcs":[[-227,-283,-568,575,-571,-569]],"type":"Polygon","properties":{"name":"Radnevo","shapeGroup":"BGR","gid":"BGR-2-184"},"id":"BGR-2-184"},{"arcs":[[-574,576,577,578]],"type":"Polygon","properties":{"name":"Chirpan","shapeGroup":"BGR","gid":"BGR-2-185"},"id":"BGR-2-185"},{"arcs":[[-524,579,580,581,582,-533,-536]],"type":"Polygon","properties":{"name":"Haskovo","shapeGroup":"BGR","gid":"BGR-2-186"},"id":"BGR-2-186"},{"arcs":[[-581,583,584,585]],"type":"Polygon","properties":{"name":"Mineralni Bani","shapeGroup":"BGR","gid":"BGR-2-187"},"id":"BGR-2-187"},{"arcs":[[-512,586,587,588,-584,-580,-523]],"type":"Polygon","properties":{"name":"Chernoochene","shapeGroup":"BGR","gid":"BGR-2-188"},"id":"BGR-2-188"},{"arcs":[[-534,-583,589,590,-566]],"type":"Polygon","properties":{"name":"Simeonovgrad","shapeGroup":"BGR","gid":"BGR-2-189"},"id":"BGR-2-189"},{"arcs":[[-573,591,-590,-582,-586,592,-577]],"type":"Polygon","properties":{"name":"Dimitrovgrad","shapeGroup":"BGR","gid":"BGR-2-190"},"id":"BGR-2-190"},{"arcs":[[-567,-591,-592,-572,-576]],"type":"Polygon","properties":{"name":"Opan","shapeGroup":"BGR","gid":"BGR-2-191"},"id":"BGR-2-191"},{"arcs":[[-7,593,594,595,596]],"type":"Polygon","properties":{"name":"Garmen","shapeGroup":"BGR","gid":"BGR-2-192"},"id":"BGR-2-192"},{"arcs":[[597,598,599]],"type":"Polygon","properties":{"name":"Petrich","shapeGroup":"BGR","gid":"BGR-2-193"},"id":"BGR-2-193"},{"arcs":[[600,601,602,603,604,605]],"type":"Polygon","properties":{"name":"Kresna","shapeGroup":"BGR","gid":"BGR-2-194"},"id":"BGR-2-194"},{"arcs":[[-8,-597,606,607,-601,608,609]],"type":"Polygon","properties":{"name":"Bansko","shapeGroup":"BGR","gid":"BGR-2-195"},"id":"BGR-2-195"},{"arcs":[[-599,610,-603,611]],"type":"Polygon","properties":{"name":"Strumyarni","shapeGroup":"BGR","gid":"BGR-2-196"},"id":"BGR-2-196"},{"arcs":[[-600,-612,-602,-608,612,613,614]],"type":"Polygon","properties":{"name":"Sandanski","shapeGroup":"BGR","gid":"BGR-2-197"},"id":"BGR-2-197"},{"arcs":[[-595,615,616,-614,617]],"type":"Polygon","properties":{"name":"Hadzhidimovo","shapeGroup":"BGR","gid":"BGR-2-198"},"id":"BGR-2-198"},{"arcs":[[-596,-618,-613,-607]],"type":"Polygon","properties":{"name":"Gotse Delchev","shapeGroup":"BGR","gid":"BGR-2-199"},"id":"BGR-2-199"},{"arcs":[[-6,618,619,-616,-594]],"type":"Polygon","properties":{"name":"Satovcha","shapeGroup":"BGR","gid":"BGR-2-200"},"id":"BGR-2-200"},{"arcs":[[-588,620,621,622,623,624,625,626,627]],"type":"Polygon","properties":{"name":"Asenovgrad","shapeGroup":"BGR","gid":"BGR-2-201"},"id":"BGR-2-201"},{"arcs":[[628,629,630,631,632,633,634,635]],"type":"Polygon","properties":{"name":"Devin","shapeGroup":"BGR","gid":"BGR-2-202"},"id":"BGR-2-202"},{"arcs":[[-625,636]],"type":"Polygon","properties":{"name":"Kuklen","shapeGroup":"BGR","gid":"BGR-2-203"},"id":"BGR-2-203"},{"arcs":[[-503,637,-630,638,639,640,-506]],"type":"Polygon","properties":{"name":"Smolyan","shapeGroup":"BGR","gid":"BGR-2-204"},"id":"BGR-2-204"},{"arcs":[[-623,641,-639,-629,642]],"type":"Polygon","properties":{"name":"Chepelare","shapeGroup":"BGR","gid":"BGR-2-205"},"id":"BGR-2-205"},{"arcs":[[-578,-593,-585,-589,-628,643,644]],"type":"Polygon","properties":{"name":"Parvomay","shapeGroup":"BGR","gid":"BGR-2-206"},"id":"BGR-2-206"},{"arcs":[[-507,-641,645,-621,-587,-511]],"type":"Polygon","properties":{"name":"Banite","shapeGroup":"BGR","gid":"BGR-2-207"},"id":"BGR-2-207"},{"arcs":[[-622,-646,-640,-642]],"type":"Polygon","properties":{"name":"Laki","shapeGroup":"BGR","gid":"BGR-2-208"},"id":"BGR-2-208"},{"arcs":[[-5,646,647,648,-619]],"type":"Polygon","properties":{"name":"Dospat","shapeGroup":"BGR","gid":"BGR-2-209"},"id":"BGR-2-209"},{"arcs":[[-632,649,-648,650]],"type":"Polygon","properties":{"name":"Borino","shapeGroup":"BGR","gid":"BGR-2-210"},"id":"BGR-2-210"},{"arcs":[[-554,-558,-575,-579,-645,651,652,653]],"type":"Polygon","properties":{"name":"Bratya Daskalovi","shapeGroup":"BGR","gid":"BGR-2-211"},"id":"BGR-2-211"},{"arcs":[[-549,-555,-654,654,655]],"type":"Polygon","properties":{"name":"Brezovo","shapeGroup":"BGR","gid":"BGR-2-212"},"id":"BGR-2-212"},{"arcs":[[-477,656,657,658,659,660]],"type":"Polygon","properties":{"name":"Kyustendil","shapeGroup":"BGR","gid":"BGR-2-213"},"id":"BGR-2-213"},{"arcs":[[-660,661,662,663,664,665]],"type":"Polygon","properties":{"name":"Nevestino","shapeGroup":"BGR","gid":"BGR-2-214"},"id":"BGR-2-214"},{"arcs":[[-472,666,667,-657,-476,-480]],"type":"Polygon","properties":{"name":"Zemen","shapeGroup":"BGR","gid":"BGR-2-215"},"id":"BGR-2-215"},{"arcs":[[-471,668,669,-667]],"type":"Polygon","properties":{"name":"Kovachevtsi","shapeGroup":"BGR","gid":"BGR-2-216"},"id":"BGR-2-216"},{"arcs":[[-448,-463,670,671,672,673]],"type":"Polygon","properties":{"name":"Elin Pelin","shapeGroup":"BGR","gid":"BGR-2-217"},"id":"BGR-2-217"},{"arcs":[[-440,-546,674,675,676]],"type":"Polygon","properties":{"name":"Pirdop","shapeGroup":"BGR","gid":"BGR-2-218"},"id":"BGR-2-218"},{"arcs":[[-455,677,678,679]],"type":"Polygon","properties":{"name":"Chelopech","shapeGroup":"BGR","gid":"BGR-2-219"},"id":"BGR-2-219"},{"arcs":[[-441,-677,680,681,-678,-454]],"type":"Polygon","properties":{"name":"Zlatitsa","shapeGroup":"BGR","gid":"BGR-2-220"},"id":"BGR-2-220"},{"arcs":[[-679,-682,682,683,684]],"type":"Polygon","properties":{"name":"Chavdar","shapeGroup":"BGR","gid":"BGR-2-221"},"id":"BGR-2-221"},{"arcs":[[-684,685,686]],"type":"Polygon","properties":{"name":"Zlatitsa","shapeGroup":"BGR","gid":"BGR-2-222"},"id":"BGR-2-222"},{"arcs":[[-456,-680,-685,-687,687,688,-672,689]],"type":"Polygon","properties":{"name":"Mirkovo","shapeGroup":"BGR","gid":"BGR-2-223"},"id":"BGR-2-223"},{"arcs":[[-457,-690,-671,-462]],"type":"Polygon","properties":{"name":"Gorna Malina","shapeGroup":"BGR","gid":"BGR-2-224"},"id":"BGR-2-224"},{"arcs":[[-449,-674,690,691,692,-493,-489]],"type":"Polygon","properties":{"name":"Stolichna","shapeGroup":"BGR","gid":"BGR-2-225"},"id":"BGR-2-225"},{"arcs":[[-470,-494,-693,693,694,-669]],"type":"Polygon","properties":{"name":"Pernik","shapeGroup":"BGR","gid":"BGR-2-226"},"id":"BGR-2-226"},{"arcs":[[-658,-668,-670,-695,695,696,697]],"type":"Polygon","properties":{"name":"Radomir","shapeGroup":"BGR","gid":"BGR-2-227"},"id":"BGR-2-227"},{"arcs":[[-653,698,699,700,-655]],"type":"Polygon","properties":{"name":"Rakovski","shapeGroup":"BGR","gid":"BGR-2-228"},"id":"BGR-2-228"},{"arcs":[[-627,701,702,-699,-652,-644]],"type":"Polygon","properties":{"name":"Sadovo","shapeGroup":"BGR","gid":"BGR-2-229"},"id":"BGR-2-229"},{"arcs":[[-659,-698,703,704,-662]],"type":"Polygon","properties":{"name":"Bobov Dol","shapeGroup":"BGR","gid":"BGR-2-230"},"id":"BGR-2-230"},{"arcs":[[-605,705,706,707]],"type":"Polygon","properties":{"name":"Simitli","shapeGroup":"BGR","gid":"BGR-2-231"},"id":"BGR-2-231"},{"arcs":[[-624,-643,-636,708,709,710,711,712,713,714,715,-702,-626,-637]],"type":"Polygon","properties":{"name":"Rodopi","shapeGroup":"BGR","gid":"BGR-2-232"},"id":"BGR-2-232"},{"arcs":[[-4,716,717,718,-633,-651,-647]],"type":"Polygon","properties":{"name":"Batak","shapeGroup":"BGR","gid":"BGR-2-233"},"id":"BGR-2-233"},{"arcs":[[-552,719,720,721,-675]],"type":"Polygon","properties":{"name":"Koprivshtitsa","shapeGroup":"BGR","gid":"BGR-2-234"},"id":"BGR-2-234"},{"arcs":[[-551,722,723,724,-720]],"type":"Polygon","properties":{"name":"Hisarya","shapeGroup":"BGR","gid":"BGR-2-235"},"id":"BGR-2-235"},{"arcs":[[-550,-656,-701,725,726,-723]],"type":"Polygon","properties":{"name":"Kaloyanovo","shapeGroup":"BGR","gid":"BGR-2-236"},"id":"BGR-2-236"},{"arcs":[[-676,-722,727,728,729,730,-688,-686,-683,-681]],"type":"Polygon","properties":{"name":"Panagyurishte","shapeGroup":"BGR","gid":"BGR-2-237"},"id":"BGR-2-237"},{"arcs":[[-712,731,732,733,734,735,736,-729,737,738]],"type":"Polygon","properties":{"name":"Pazardzhik","shapeGroup":"BGR","gid":"BGR-2-238"},"id":"BGR-2-238"},{"arcs":[[-718,739,-734,740]],"type":"Polygon","properties":{"name":"Peshtera","shapeGroup":"BGR","gid":"BGR-2-239"},"id":"BGR-2-239"},{"arcs":[[-721,-725,741,-738,-728]],"type":"Polygon","properties":{"name":"Strelcha","shapeGroup":"BGR","gid":"BGR-2-240"},"id":"BGR-2-240"},{"arcs":[[-713,-739,-742,-724,-727,742]],"type":"Polygon","properties":{"name":"Saedinenie","shapeGroup":"BGR","gid":"BGR-2-241"},"id":"BGR-2-241"},{"arcs":[[-700,-703,-716,743,-714,-743,-726]],"type":"Polygon","properties":{"name":"Maritsa","shapeGroup":"BGR","gid":"BGR-2-242"},"id":"BGR-2-242"},{"arcs":[[-715,-744]],"type":"Polygon","properties":{"name":"Plovdiv","shapeGroup":"BGR","gid":"BGR-2-243"},"id":"BGR-2-243"},{"arcs":[[-634,-719,-741,-733,744,745]],"type":"Polygon","properties":{"name":"Bratsigovo","shapeGroup":"BGR","gid":"BGR-2-244"},"id":"BGR-2-244"},{"arcs":[[-711,746,747,-745,-732]],"type":"Polygon","properties":{"name":"Stamboliyski","shapeGroup":"BGR","gid":"BGR-2-245"},"id":"BGR-2-245"},{"arcs":[[-635,-746,-748,748,-709]],"type":"Polygon","properties":{"name":"Krichim","shapeGroup":"BGR","gid":"BGR-2-246"},"id":"BGR-2-246"},{"arcs":[[-710,-749,-747]],"type":"Polygon","properties":{"name":"Perushtitsa","shapeGroup":"BGR","gid":"BGR-2-247"},"id":"BGR-2-247"},{"arcs":[[-665,749,750,751,-707,752]],"type":"Polygon","properties":{"name":"Blagoevgrad","shapeGroup":"BGR","gid":"BGR-2-248"},"id":"BGR-2-248"},{"arcs":[[-697,753,754,755,756,-704]],"type":"Polygon","properties":{"name":"Dupnitsa","shapeGroup":"BGR","gid":"BGR-2-249"},"id":"BGR-2-249"},{"arcs":[[-755,757]],"type":"Polygon","properties":{"name":"Sapareva Banya","shapeGroup":"BGR","gid":"BGR-2-250"},"id":"BGR-2-250"},{"arcs":[[-663,-705,-757,758,759]],"type":"Polygon","properties":{"name":"Boboshevo","shapeGroup":"BGR","gid":"BGR-2-251"},"id":"BGR-2-251"},{"arcs":[[-751,760,-759,-756,761,762,763]],"type":"Polygon","properties":{"name":"Rila","shapeGroup":"BGR","gid":"BGR-2-252"},"id":"BGR-2-252"},{"arcs":[[-664,-760,-761,-750]],"type":"Polygon","properties":{"name":"Kocherinovo","shapeGroup":"BGR","gid":"BGR-2-253"},"id":"BGR-2-253"},{"arcs":[[-673,-689,-731,764,765,766,-691]],"type":"Polygon","properties":{"name":"Ihtiman","shapeGroup":"BGR","gid":"BGR-2-254"},"id":"BGR-2-254"},{"arcs":[[-692,-767,767,768,769,770,771,-762,-758,-754,-696,-694]],"type":"Polygon","properties":{"name":"Samokov","shapeGroup":"BGR","gid":"BGR-2-255"},"id":"BGR-2-255"},{"arcs":[[-769,772]],"type":"Polygon","properties":{"name":"Dolna Banya","shapeGroup":"BGR","gid":"BGR-2-256"},"id":"BGR-2-256"},{"arcs":[[-606,-708,-752,-764,773,-609]],"type":"Polygon","properties":{"name":"Razlog","shapeGroup":"BGR","gid":"BGR-2-257"},"id":"BGR-2-257"},{"arcs":[[-766,774,775,776,777,-770,-773,-768]],"type":"Polygon","properties":{"name":"Kostenets","shapeGroup":"BGR","gid":"BGR-2-258"},"id":"BGR-2-258"},{"arcs":[[-730,-737,778,-775,-765]],"type":"Polygon","properties":{"name":"Lesichovo","shapeGroup":"BGR","gid":"BGR-2-259"},"id":"BGR-2-259"},{"arcs":[[-2,779,-776,-779,-736,780]],"type":"Polygon","properties":{"name":"Septemvri","shapeGroup":"BGR","gid":"BGR-2-260"},"id":"BGR-2-260"},{"arcs":[[-3,-781,-735,-740,-717]],"type":"Polygon","properties":{"name":"Rakitovo","shapeGroup":"BGR","gid":"BGR-2-261"},"id":"BGR-2-261"},{"arcs":[[-9,-610,-774,-763,-772,781]],"type":"Polygon","properties":{"name":"Belitsa","shapeGroup":"BGR","gid":"BGR-2-262"},"id":"BGR-2-262"},{"arcs":[[-10,-782,-771,-778,782]],"type":"Polygon","properties":{"name":"Yakoruda","shapeGroup":"BGR","gid":"BGR-2-263"},"id":"BGR-2-263"},{"arcs":[[-1,-783,-777,-780]],"type":"Polygon","properties":{"name":"Belovo","shapeGroup":"BGR","gid":"BGR-2-264"},"id":"BGR-2-264"}]}}}