{"type":"Topology","arcs":[[[3561,2681],[-31,32],[-46,-19],[-37,60],[-44,13],[-45,-18],[-31,-51],[-58,-25],[9,-81],[-55,-3],[-33,-64],[-98,13],[-8,-23],[30,-109],[-92,2]],[[3022,2408],[-90,74],[-11,49],[-36,32],[-50,93],[-59,42],[-65,82],[10,24],[-39,54],[-72,36],[-39,56],[6,116],[24,24],[-26,88],[-45,61],[-46,29]],[[2484,3268],[69,41],[13,27],[141,48],[28,19],[44,104],[-39,93],[-4,41],[-51,58],[-5,64],[53,97],[71,-1],[100,-40],[1,-65],[38,-86],[-3,-64],[57,31],[85,19],[96,-35]],[[3178,3619],[-6,-50],[22,-38],[-24,-28],[47,-84],[-9,-65],[70,-21],[78,-89],[28,-51],[91,-81],[1,-126],[100,-90],[31,17],[74,-61],[32,45],[45,-14],[45,51]],[[3803,2934],[-9,-53],[-35,-79],[-50,-12],[-148,-109]],[[4049,4110],[-12,-28],[-60,-26],[-29,-78],[-123,-8],[-28,-38]],[[3797,3932],[-104,-18],[-38,-48],[-61,23],[-71,-4],[-52,97],[47,93]],[[3518,4075],[27,10],[52,110],[80,71],[50,18]],[[3727,4284],[50,31]],[[3777,4315],[35,-49],[-72,-17],[19,-57],[104,-81],[55,-16],[131,15]],[[3727,4284],[-17,8],[-79,23],[-122,81],[-59,33],[-34,39],[-4,18]],[[3412,4486],[53,-4],[-5,54],[54,13],[55,-58],[64,-11],[72,-70],[-3,-40],[77,-10],[-2,-45]],[[3374,4505],[-137,-69],[-38,-49],[-53,67],[-78,36],[-27,30]],[[3041,4520],[29,24],[-10,60],[87,18],[48,-53],[144,-7],[35,-57]],[[3803,2934],[-55,79],[-17,110],[42,75],[113,72],[23,56],[53,-3],[64,135],[29,8],[30,92],[-12,33],[9,72],[-80,23],[-41,-75],[-12,-71],[-83,7],[-21,29],[-56,19],[-9,47],[-59,52],[-3,98],[86,54],[22,44],[-29,42]],[[4049,4110],[59,5],[32,37],[137,69],[21,-42],[48,28],[54,-11],[101,-43],[-39,-83],[-44,-37],[-4,-85],[29,-22],[-1,-47],[-59,-100],[-36,-42],[-13,-73],[-24,-45],[-40,-17],[-3,-86],[-68,-32],[25,-164],[-35,-43],[-11,-96],[30,-23],[28,-73],[44,8],[44,-54],[59,28],[71,-26],[14,-99],[93,-110],[59,-32],[34,-55],[72,-59],[43,18],[38,-27],[-28,-40],[15,-37],[-62,-34],[-38,-60],[-56,-22],[-93,9],[-126,67],[-69,-27],[64,-81],[22,-69],[93,-106],[21,-55],[67,-44],[75,-104],[20,-73],[-28,-76],[-23,-11],[18,-67],[-46,-27],[-46,17],[-35,-18],[-49,62],[-49,-28],[-95,-16],[-10,-99],[-137,-10],[-112,-44],[-11,40],[-54,58],[-9,-45],[-43,-56],[12,-70],[64,-24],[30,-89],[-3,-45],[45,-42],[1,-89],[-40,-15],[-28,-59],[-81,52],[7,74],[-38,8],[-24,37],[-35,-11],[-95,-75],[-69,-28],[-68,-54],[33,-57],[-51,-46],[-30,-80],[-10,-116],[22,-81],[-59,-42],[-47,16],[-66,-19],[-2,-43],[-49,-30],[15,-205],[-47,-97],[26,-80],[28,-40],[61,-33],[10,-87],[28,-33],[-56,-48],[-1,-92],[-47,8],[-14,-31],[-55,-15],[-91,92],[-80,27]],[[3179,119],[-17,35],[-61,52],[-9,31],[-68,87],[-74,34],[0,25],[-60,76],[-83,67],[-20,45],[-34,140],[-43,41],[19,73],[35,72],[37,30],[-6,48],[-74,13],[12,52],[-59,64],[34,58],[71,52],[21,57],[0,107],[-58,95],[35,89],[1,53],[40,36],[158,-10],[100,13],[90,-20],[53,26],[1,132],[46,40]],[[3266,1832],[5,29],[65,108],[125,-36]],[[3461,1933],[20,-40],[44,-33],[62,20],[59,-7],[36,-35],[67,-34],[64,-1],[79,25],[156,134],[-55,45],[-22,71],[-42,81],[-53,-13],[-84,8],[-62,-59],[-41,-76],[-46,-34],[-59,0]],[[3584,1985],[-98,72],[-174,2],[-49,61],[-10,42],[-39,21],[7,47],[44,47],[51,26],[16,-36],[72,-40],[105,215],[-63,66],[115,173]],[[2484,3268],[-73,-23],[-30,-35],[-92,14],[-73,-6],[-68,40],[-93,115],[-64,30],[-39,-43],[-110,15],[-5,-62],[17,-54],[-39,-43],[54,-132],[-1,-59],[48,-67],[11,-50],[0,-113],[-53,-94]],[[1874,2701],[-120,-30],[-80,28],[-51,88],[-84,79],[-66,42],[-43,102],[-67,15],[-80,71],[-55,63],[-67,16],[-131,118],[-142,149]],[[888,3442],[-2,53],[49,45],[131,0],[31,-11],[251,-23],[100,66],[-26,38],[14,43],[-42,46],[-8,86],[-47,19],[-3,85],[-45,118],[-81,45],[-69,-1],[-55,59],[-54,9],[-90,-6],[-86,24],[-78,-79],[-54,77],[-38,6],[-53,44],[-18,70],[-34,64],[126,58]],[[707,4377],[83,29],[0,45],[48,85],[-16,34],[87,56],[13,78],[41,51],[72,4],[50,28],[112,-65],[32,24],[128,-45],[22,82],[76,31],[52,0],[54,-42],[35,21],[65,-84],[93,-42],[26,-29],[73,-13],[29,24],[19,57],[75,-48],[18,-31],[72,-13],[47,37],[22,-50],[46,-22],[76,14],[51,-24],[79,44],[57,-27],[153,-118],[49,-1],[77,53],[1,48],[44,23],[29,48],[87,-9],[55,-100],[57,6],[45,-16]],[[3374,4505],[38,-19]],[[3518,4075],[-50,0],[-14,43],[-53,59],[-30,65],[-57,-31],[-64,-108],[0,-61],[-55,-63],[-109,11],[-82,-49],[-3,-51],[61,-40],[45,1],[89,-57],[46,-59],[48,-12],[45,-63],[-28,-28],[-129,-13]],[[3461,1933],[67,11],[56,41]],[[3179,119],[-67,-30],[-88,99],[-83,51],[-15,37],[-112,123],[-87,62],[-73,80],[-50,99],[-30,4],[-35,-38],[-42,42],[-74,12],[-33,-61],[-22,6],[-53,79],[74,22],[70,39],[-39,58],[-22,82],[-51,83]],[[2347,968],[28,72],[-21,66],[27,23],[-61,57],[-44,22],[13,89],[24,20],[122,-16],[32,46],[-41,18],[2,64],[35,71],[-117,76],[-114,143],[-41,25],[39,44],[49,-11],[17,39],[-33,40],[19,57],[-42,38]],[[2240,1951],[-71,43],[-2,57],[-71,88],[-80,16],[25,37],[-5,83],[84,81]],[[2120,2356],[85,-39],[156,-2],[53,-46],[116,66],[44,-1],[31,31],[75,-45],[34,-92],[28,-17],[47,33],[21,-31]],[[2810,2213],[12,-47],[63,-65],[-19,-51],[27,-40],[64,3],[34,26],[84,-106],[-6,-59],[44,7],[47,-23],[14,41],[44,12],[14,-50],[34,-29]],[[2347,968],[-143,101],[-103,48],[4,51],[-58,64],[-44,5],[-38,34],[-33,79],[-50,162],[41,57],[-45,82],[-79,37],[-41,-23],[-85,46],[-34,40]],[[1639,1751],[30,28],[44,-9],[161,12],[93,-17],[51,73],[51,22],[58,-45],[29,59],[84,77]],[[888,3442],[-83,-9],[-106,28],[3,-144],[26,-94],[-8,-57],[-59,-28],[-38,-53],[18,-51],[-33,-16]],[[608,3018],[-29,11],[-13,132],[31,45],[-94,67],[40,21],[-31,71],[6,48],[-17,63],[-71,95],[-41,15],[-19,48],[44,44],[-27,80],[-55,16],[-45,81],[-35,1],[-17,63],[-49,-29],[-74,6],[-34,20],[-78,141],[68,27],[-52,180],[51,54],[9,62],[-40,48],[-14,55],[49,88],[-25,112],[73,79],[119,21],[21,-31],[56,39],[56,-45],[-13,-45],[54,-37],[44,-57],[-7,-31],[109,-75],[24,-72],[101,-25],[24,-27]],[[1874,2701],[59,-63],[52,-131],[8,-42],[36,-17],[43,30],[19,-80],[29,-42]],[[1639,1751],[-58,30],[-96,119],[-14,50],[-70,100],[-61,39],[-54,75],[-32,3],[-38,52],[-9,102],[-75,46],[-92,105],[-62,56],[-1,61],[-46,30],[-45,2],[-13,92],[-48,15],[-15,54],[-86,17],[-17,47],[-92,112],[-7,60]],[[3022,2408],[14,-62],[-51,-65],[-92,-53],[-30,11],[-53,-26]]],"transform":{"scale":[0.0008105048395370999,0.0005584146640535739],"translate":[15.724299916607833,42.55719021065977]},"objects":{"BIH":{"type":"GeometryCollection","geometries":[{"arcs":[[0,1,2,3,4]],"type":"Polygon","properties":{"name":"Zenica-Doboj Canton","shapeGroup":"BIH","gid":"BIH-2-0"},"id":"BIH-2-0"},{"arcs":[[5,6,7,8,9]],"type":"Polygon","properties":{"name":"Brcko District","shapeGroup":"BIH","gid":"BIH-2-1"},"id":"BIH-2-1"},{"arcs":[[[-9,10,11]],[[12,13]]],"type":"MultiPolygon","properties":{"name":"Posavina Canton","shapeGroup":"BIH","gid":"BIH-2-2"},"id":"BIH-2-2"},{"arcs":[[[-5,14,-6,15,16,17,18,19]],[[-3,20,21,22,23,-13,24,-11,-8,25]]],"type":"MultiPolygon","properties":{"name":"Republika Srpska","shapeGroup":"BIH","gid":"BIH-2-3"},"id":"BIH-2-3"},{"arcs":[[-19,26]],"type":"Polygon","properties":{"name":"Bosnian-Podrinje Canton Goražde","shapeGroup":"BIH","gid":"BIH-2-4"},"id":"BIH-2-4"},{"arcs":[[-17,27,28,29,30,31]],"type":"Polygon","properties":{"name":"Herzegovina-Neretva Canton","shapeGroup":"BIH","gid":"BIH-2-5"},"id":"BIH-2-5"},{"arcs":[[-4,-26,-7,-15]],"type":"Polygon","properties":{"name":"Tuzla Canton","shapeGroup":"BIH","gid":"BIH-2-6"},"id":"BIH-2-6"},{"arcs":[[-29,32,33]],"type":"Polygon","properties":{"name":"West Herzegovina Canton","shapeGroup":"BIH","gid":"BIH-2-7"},"id":"BIH-2-7"},{"arcs":[[-23,34,35]],"type":"Polygon","properties":{"name":"Una-Sana Canton","shapeGroup":"BIH","gid":"BIH-2-8"},"id":"BIH-2-8"},{"arcs":[[-22,36,-30,-34,37,-35]],"type":"Polygon","properties":{"name":"Canton 10","shapeGroup":"BIH","gid":"BIH-2-9"},"id":"BIH-2-9"},{"arcs":[[-2,38,-31,-37,-21]],"type":"Polygon","properties":{"name":"Central Bosnia Canton","shapeGroup":"BIH","gid":"BIH-2-10"},"id":"BIH-2-10"},{"arcs":[[-1,-20,-27,-18,-32,-39]],"type":"Polygon","properties":{"name":"Sarajevo Canton","shapeGroup":"BIH","gid":"BIH-2-11"},"id":"BIH-2-11"}]}}}