{"type":"Topology","arcs":[[[3856,3884],[42,-44],[-51,-7],[-40,-66],[-127,10],[-19,-37],[-53,0],[-80,-19],[2,-34],[49,-59],[25,-8],[-81,-133],[35,-16],[150,55],[39,-39],[131,-59]],[[3878,3428],[-66,-36],[-4,-49],[-37,-61],[16,-57],[77,-116],[1,-29],[51,-47],[-82,-8],[-32,-46],[-52,-8],[0,-28],[-67,-3],[-38,-31],[43,-102],[36,-65],[-45,-77],[10,-103],[-14,-43],[-60,-45],[-83,-37],[-16,-63],[-51,-103],[8,-54],[30,-60],[-23,-47],[-27,-13],[7,98],[-16,30],[17,95],[37,29],[0,63],[25,32],[104,39],[40,33],[8,38],[-120,-24],[-19,-68],[-36,-9],[-67,-61],[9,-151],[-55,-26],[15,-54],[-73,-7],[3,-35],[59,-17],[-28,-26],[-66,-22],[-60,6]],[[3237,2060],[-531,12],[38,52],[18,67],[-7,58],[-68,100],[-76,55],[-19,30]],[[2592,2434],[31,58],[-28,61],[-230,105],[-68,-1],[-158,-29],[-136,0],[-86,26],[-62,-28]],[[1855,2626],[-27,30],[8,53],[47,84],[34,22],[-7,37],[64,45],[41,77],[46,32],[173,32],[30,29],[-88,47],[12,33],[40,11],[59,55],[-19,43],[24,21],[0,56],[-17,38],[76,53],[9,34],[59,10],[22,70],[57,8],[71,70],[7,63],[50,79],[73,23],[4,38],[-39,29],[-47,12],[-97,133],[42,21]],[[2562,4014],[1020,-6],[36,25],[45,-1],[58,41]],[[3721,4073],[47,-56],[5,-47],[45,-76],[38,-10]],[[2484,7216],[-52,-128],[-22,-106],[70,-9],[170,-36],[-23,-52],[31,-33],[74,-1],[101,60],[89,-103],[-37,-57],[5,-52]],[[2890,6699],[-136,-26],[-59,-118],[-28,-90],[31,-62],[4,-72],[-33,-63],[-6,-48],[27,-95],[-25,-46],[-1,-44],[38,-61],[0,-40],[-230,-49],[-58,-132],[-41,-59],[16,-163],[15,-360]],[[2404,5171],[-77,7],[-65,-59],[-35,21],[-65,-33],[-52,2],[-77,-77],[-91,-24],[-124,0],[-48,20],[-50,-23],[-91,16],[-70,-12],[-113,11],[-35,16],[-47,-20],[-37,-62],[-51,-30],[-44,-8]],[[1232,4916],[-80,-7]],[[1152,4909],[-78,13],[-98,-17],[-84,-5],[-145,-33],[-27,30],[-71,20],[-157,-88]],[[492,4829],[-61,-21],[-127,-106]],[[304,4702],[-5,2057],[28,38],[35,15],[9,52],[39,13],[51,-18],[39,37],[103,42],[71,-11],[26,32],[59,16],[64,-40],[85,-28],[4,-56],[24,-38],[79,1],[57,-15],[58,4],[74,-76],[26,-46],[134,-39],[19,-26],[89,-6],[21,32],[12,97],[74,39],[75,17],[44,52],[62,49],[23,63],[59,45],[7,68],[141,50],[61,37],[-12,68],[58,167]],[[2097,7394],[156,-26],[80,-40],[0,-38],[55,-20],[36,-54],[60,0]],[[2904,7632],[-18,23],[29,70],[116,-18],[104,24],[-12,119],[12,47],[-12,108],[-23,42],[18,59]],[[3118,8106],[63,22],[72,45],[62,14]],[[3315,8187],[16,5]],[[3331,8192],[11,-63],[31,-26],[88,8],[144,53],[54,-10],[-73,-40],[-41,-46],[56,-21],[89,25],[64,30],[82,5],[72,26],[67,-30],[18,-27],[89,34],[-1,-72],[43,34],[108,5],[35,24],[162,65],[106,-6],[-24,-82],[-72,-3],[-34,-68],[-69,-21],[3,-32],[70,29],[15,34],[35,13],[83,2],[-26,-146],[38,-19],[-2,-164],[21,-57],[-48,-305],[-45,-56],[-17,-79],[-42,-61],[-38,7],[-34,-38],[-57,3],[4,-125],[-56,-52],[4,-49],[-43,-53]],[[4201,6838],[-378,33]],[[3823,6871],[-663,454],[-163,275],[-74,26]],[[2923,7626],[-19,6]],[[1855,2626],[-32,-22],[-88,-14],[-25,-64],[-52,-7],[6,-67],[34,-26],[-29,-36],[-60,-12],[-33,-44],[-36,-9],[-32,-35],[-147,-43],[-11,-25],[-81,-46],[-37,10],[-67,-21],[-52,-48],[13,-44],[-80,-5],[-88,-37],[-70,-12],[-50,62],[-82,-74],[-55,-19],[-16,-37],[-81,1],[-72,-24],[-38,10],[-153,-38],[-54,-43],[-20,-56],[-133,-113]],[[134,1688],[4,111],[107,1275]],[[245,3074],[50,0],[83,-58],[57,0],[70,23],[81,5],[65,82],[56,-5],[46,14],[23,31],[-6,65]],[[770,3231],[92,17],[24,28],[0,58],[47,37],[54,-40],[77,-19],[65,42],[69,-4],[17,49],[35,24],[57,-37],[24,27],[61,18],[55,47],[-13,36],[81,80],[24,48],[-59,117],[-23,80],[-29,58],[-70,19],[-91,6],[-36,54],[12,44],[-41,20],[18,40],[-24,40],[-6,49],[-46,0],[-46,64],[18,45],[0,80],[45,28],[53,0],[58,18],[40,-19],[63,19],[63,5],[53,-14],[11,44],[-35,118],[-22,10],[-41,76],[-59,64],[0,58],[-98,83],[-15,68]],[[2404,5171],[55,11],[53,-15],[6,49],[-16,29],[14,42],[116,18],[11,-227]],[[2643,5078],[16,-316],[15,-58],[-11,-134],[18,-37],[-13,-89],[25,-41],[44,-29],[45,-93],[-44,-72],[-28,-79],[-32,-59],[-41,-34],[-75,-23]],[[1964,4511],[5,45],[-120,6],[-111,-97],[1,-59],[225,-43],[0,148]],[[2592,2434],[-96,20],[-29,50],[-69,-23],[10,-42],[52,-49],[44,-25],[-13,-78],[-44,-50],[11,-26],[-53,-30],[3,-65],[-29,-40],[-11,-57],[21,-18],[1,-81],[-67,28],[-76,0],[-29,32],[-59,-1],[-63,-46],[-139,-118],[2,-54],[-47,-62],[-161,-148],[18,-76],[-90,-54],[-135,-33],[-75,-54],[-28,-37],[-36,-80],[63,-1],[38,-50],[40,-17],[-16,-50],[41,-41],[0,-26],[63,-85],[-100,-93],[-70,-40],[-74,3],[-65,-19],[-41,-44],[-47,-19],[-73,-6],[-51,-23],[-109,-13],[-26,98],[-42,45],[-47,5],[-45,-29],[-106,0],[-46,-40],[-44,-11],[-25,-51],[-43,-32],[2,-35],[-53,-41],[24,-47],[-77,-4],[-54,-24],[-97,-9],[-38,-41],[-50,-23],[-41,-42],[-106,-15],[-11,-33],[-54,-13]],[[25,351],[109,1337]],[[3856,3884],[77,6],[27,-114],[27,-38],[0,-64],[68,-118],[-11,-59],[-26,-36],[-140,-33]],[[3237,2060],[59,-12],[-19,-68],[-38,-41],[-48,-19],[10,-29],[-92,-143],[-44,18],[-11,-44],[-36,-10],[-35,-53],[34,-15],[-67,-145],[-78,-46],[-65,-66],[-62,-41],[-2,-80],[-119,-12],[-37,-90],[-34,23],[-87,34],[-26,34],[-63,44],[-79,-5],[-14,-41],[19,-35],[-29,-27],[-37,18],[-34,-24],[-76,-8],[-24,-24],[-89,-7],[-33,-42],[-68,-19],[28,-95],[-44,-36],[28,-73],[-28,-12],[16,-46],[-93,-30],[-97,-43],[-11,-48],[-40,-68],[-79,-3],[-21,-32],[-72,-40],[-22,-90],[-126,-63],[-101,-31],[-54,-37],[-26,-45],[5,-62],[85,-192],[-28,-38],[-71,5],[-80,-6],[-44,21],[-62,5],[-27,21],[-115,-27],[-6,55],[-157,12],[-19,-25],[-166,15],[-92,-40],[-83,-10],[-55,8],[-56,47],[-106,-51],[-94,-7],[25,327]],[[1152,4909],[-59,-61],[-82,-18],[-62,-68],[-76,-48],[-23,-65],[68,-20],[7,-88],[-17,-27],[12,-138],[-52,-12],[-19,-49],[54,-36],[-41,-61],[53,-32],[28,-35],[-40,-46],[-65,18],[-44,30],[-85,106],[-49,-34],[6,-34],[-42,-22]],[[624,4169],[-41,3],[-33,55],[5,91],[70,76],[6,32],[57,50],[-22,58],[0,73],[-39,32],[-7,68],[-47,0],[-29,45],[-18,59],[-34,18]],[[624,4169],[25,-34],[40,1],[46,-23],[-34,-28]],[[701,4085],[-87,1],[-47,45],[-62,0],[-53,-18],[-42,24],[-22,-28],[-82,-6]],[[306,4103],[-2,599]],[[245,3074],[62,784],[-1,245]],[[701,4085],[-36,-26],[-39,-74],[33,-30],[7,-44],[-63,12],[-6,-26],[57,-86],[41,-7],[-12,-80],[63,-41],[42,-54],[-46,-36],[0,-32],[64,-1],[-13,-35],[-58,-22],[30,-23],[-53,-56],[59,-77],[-33,-100],[32,-16]],[[3315,8187],[-24,41],[70,45],[28,-23]],[[3389,8250],[-44,-27],[-14,-31]],[[3118,8106],[-122,-41],[-39,-46],[-60,64],[-34,0],[-40,37],[-105,0]],[[2718,8120],[27,28],[-31,46],[27,55],[52,53],[17,90],[34,86],[95,55],[72,52],[49,-23],[41,6],[54,-24],[161,49],[60,-47],[48,-7],[36,22],[58,-7],[101,21],[96,-62],[28,-47],[-85,-49],[-24,-57],[-75,-43],[-34,-7],[-105,-56],[-31,-4]],[[2904,7632],[-365,130],[-32,24]],[[2507,7786],[2,55],[21,71],[-24,8],[99,94],[63,50],[50,56]],[[2097,7394],[60,76],[40,16],[-17,59],[-44,3],[33,51],[59,1],[126,72],[103,22],[45,60],[5,32]],[[2923,7626],[-44,-63],[24,-41],[-20,-63]],[[2883,7459],[-13,-39],[-34,-1],[-76,-32],[21,-48],[-66,-90],[-60,17],[-25,-44]],[[2630,7222],[-65,4],[-36,-18],[-45,8]],[[2883,7459],[28,-14],[2,-47],[43,-29],[19,-45],[-29,-43],[-70,-13],[19,-49],[-82,-41],[-78,-6],[-20,24],[-85,26]],[[3823,6871],[-933,-172]],[[4056,5361],[17,-15],[5,-3]],[[4078,5343],[-42,-5],[-7,-1]],[[4029,5337],[-2,2],[-91,49],[13,47],[-54,22],[-89,5],[-20,25]],[[3786,5487],[134,-28],[58,-29],[22,-53],[56,-16]],[[3926,5222],[-26,-78]],[[3900,5144],[-78,-1],[57,52],[2,1]],[[3881,5196],[3,-2],[42,28]],[[3926,5222],[55,60],[45,27],[12,1]],[[4038,5310],[10,-2],[86,-24]],[[4134,5284],[18,-23]],[[4152,5261],[-24,-16],[-59,6],[-44,26],[-63,-23],[-36,-32]],[[4078,5343],[2,1],[43,-16]],[[4123,5328],[4,-19],[1,-3]],[[4128,5306],[-90,4]],[[3881,5196],[148,141]],[[4189,5292],[-14,12]],[[4175,5304],[7,10]],[[4182,5314],[7,-22]],[[4189,5292],[-28,-27]],[[4161,5265],[12,17]],[[4173,5282],[-7,17]],[[4166,5299],[-14,2],[-3,1]],[[4149,5302],[0,4],[26,-2]],[[4134,5284],[13,-5]],[[4147,5279],[26,3]],[[4161,5265],[-9,-4]],[[4147,5279],[19,20]],[[4145,5326],[18,-4],[-2,-2]],[[4161,5320],[-3,2],[-13,4]],[[4123,5328],[22,-2]],[[4161,5320],[25,-4]],[[4186,5316],[-4,-2]],[[4149,5302],[-18,4],[-3,0]],[[4056,5361],[76,17],[51,-31],[3,-31]],[[4538,5730],[69,-25],[-27,-34],[-48,38],[6,21]],[[4543,5988],[-55,-23],[-75,-68],[-50,-28],[0,55],[90,24],[67,78],[23,-38]],[[5107,6725],[-17,-32],[-56,-50],[-14,-40],[-65,-43],[-102,-14],[12,40],[89,-14],[-28,48],[84,27],[19,34],[55,19],[23,25]],[[4201,6838],[-40,-43],[4,-37],[-59,-43],[-9,-51],[29,-11],[-59,-264],[-29,-192],[-44,59],[-31,-42],[-55,-30],[0,-82],[-58,-11],[-34,-30],[1,-40],[51,-31],[88,-6],[-31,-86],[-45,-22],[-31,-86],[-25,20],[48,58],[-56,31],[-48,-41],[-12,-34],[17,-92],[-17,-38],[14,-166]],[[3770,5528],[-83,35],[-108,8],[-66,-26],[-100,-7],[-20,-26],[86,-26],[-13,-29],[18,-64],[-93,2],[-67,10],[-35,-48],[-68,1],[5,40],[-57,58],[-2,61],[-73,-17],[-57,5],[-76,-111],[-89,-4],[-32,-92],[-63,-28],[63,-24],[-11,-39],[-70,-49],[-6,-35],[-35,-50],[-75,5]],[[5184,7060],[27,-104],[-8,-46],[-95,-76],[-9,-26],[-57,-62],[-24,66],[49,104],[52,28],[18,83],[47,33]],[[5092,7275],[-10,-41],[-86,-17],[12,39],[84,19]],[[5547,7570],[25,-39],[30,-119],[22,-29],[-4,-28],[-20,0],[-90,-38],[-21,-32],[-64,-48],[-69,-160],[-40,-49],[-108,-197],[8,63],[33,17],[14,44],[-8,75],[65,72],[-3,60],[-86,-23],[-45,23],[51,52],[74,21],[-3,93],[55,62],[28,9],[-14,54],[27,56],[43,34],[41,-4],[32,-51],[23,-141],[75,21],[-22,41],[-6,46],[-24,29],[-19,86]],[[4818,3936],[-66,-13],[-2,49],[56,-4],[12,-32]],[[5653,4536],[-54,-7],[-32,-33],[-43,-4],[-28,45],[157,-1]],[[5540,4656],[78,-13],[-2,-23],[-52,-63],[-21,36],[-3,63]],[[5363,4938],[-20,-37],[10,-43],[-30,-60],[-60,-50],[-38,-82],[8,-78],[-32,-25],[3,122],[59,109],[51,11],[14,64],[-16,45],[51,24]],[[4697,4893],[-40,-4],[-7,52],[31,8],[16,-56]],[[5647,5070],[29,-10],[-11,-64],[80,-195],[18,-73],[-57,8],[-50,-23],[-10,42],[46,162],[-28,18],[5,40],[-50,61],[28,34]],[[6939,5160],[45,-27],[-39,-37],[-63,19],[4,23],[53,22]],[[4619,5324],[61,-27],[-13,-36],[-49,30],[1,33]],[[4302,5375],[42,-3],[17,-33],[-26,-21],[-33,57]],[[5688,5468],[44,-25],[5,-43],[56,2],[-20,-42],[62,-40],[-30,-47],[-46,-19],[-60,-93],[1,-37],[-105,-73],[-31,11],[-11,73],[-88,-29],[-19,-33],[-56,4],[-31,-25],[-28,-96],[-39,-36],[-27,24],[36,64],[47,48],[17,47],[33,22],[22,47],[60,66],[36,-7],[-66,-59],[17,-17],[69,5],[63,27],[30,-6],[39,30],[6,73],[37,1],[70,27],[-44,27],[14,52],[-63,26],[0,51]],[[3770,5528],[16,-41]],[[3900,5144],[-14,-92],[-37,-98],[-37,-140],[-67,-186],[-34,-173],[-4,-239],[14,-143]]],"transform":{"scale":[0.0002485515034182254,0.0003034593040487532],"translate":[-89.22620829997305,15.888375200255325]},"objects":{"BLZ":{"type":"GeometryCollection","geometries":[{"arcs":[[0,1,2,3,4,5,6]],"type":"Polygon","properties":{"name":"Stann Creek West","shapeGroup":"BLZ","gid":"BLZ-2-0"},"id":"BLZ-2-0"},{"arcs":[[7,8,9,10,11,12,13,14]],"type":"Polygon","properties":{"name":"Orange Walk South","shapeGroup":"BLZ","gid":"BLZ-2-1"},"id":"BLZ-2-1"},{"arcs":[[15,16,17,18,19,20,21]],"type":"Polygon","properties":{"name":"Corozal South East","shapeGroup":"BLZ","gid":"BLZ-2-2"},"id":"BLZ-2-2"},{"arcs":[[-5,22,23,24,25,-10,26,27],[28]],"type":"Polygon","properties":{"name":"Cayo South","shapeGroup":"BLZ","gid":"BLZ-2-3"},"id":"BLZ-2-3"},{"arcs":[[-4,29,30,-23]],"type":"Polygon","properties":{"name":"Toledo West","shapeGroup":"BLZ","gid":"BLZ-2-4"},"id":"BLZ-2-4"},{"arcs":[[-1,31]],"type":"Polygon","properties":{"name":"Dangriga","shapeGroup":"BLZ","gid":"BLZ-2-5"},"id":"BLZ-2-5"},{"arcs":[[-3,32,-30]],"type":"Polygon","properties":{"name":"Toledo East","shapeGroup":"BLZ","gid":"BLZ-2-6"},"id":"BLZ-2-6"},{"arcs":[[-12,33,34]],"type":"Polygon","properties":{"name":"Cayo North East","shapeGroup":"BLZ","gid":"BLZ-2-7"},"id":"BLZ-2-7"},{"arcs":[[-13,-35,35,36,37]],"type":"Polygon","properties":{"name":"Cayo North","shapeGroup":"BLZ","gid":"BLZ-2-8"},"id":"BLZ-2-8"},{"arcs":[[-25,38,-37,39]],"type":"Polygon","properties":{"name":"Cayo West","shapeGroup":"BLZ","gid":"BLZ-2-9"},"id":"BLZ-2-9"},{"arcs":[[-11,-26,-40,-36,-34]],"type":"Polygon","properties":{"name":"Cayo Central","shapeGroup":"BLZ","gid":"BLZ-2-10"},"id":"BLZ-2-10"},{"arcs":[[-29]],"type":"Polygon","properties":{"name":"Belmopan","shapeGroup":"BLZ","gid":"BLZ-2-11"},"id":"BLZ-2-11"},{"arcs":[[-18,40,41]],"type":"Polygon","properties":{"name":"Corozal Bay","shapeGroup":"BLZ","gid":"BLZ-2-12"},"id":"BLZ-2-12"},{"arcs":[[-17,42,43,-41]],"type":"Polygon","properties":{"name":"Corozal North","shapeGroup":"BLZ","gid":"BLZ-2-13"},"id":"BLZ-2-13"},{"arcs":[[-16,44,45,-43]],"type":"Polygon","properties":{"name":"Corozal South West","shapeGroup":"BLZ","gid":"BLZ-2-14"},"id":"BLZ-2-14"},{"arcs":[[-15,46,-45,-22,47,48,49]],"type":"Polygon","properties":{"name":"Orange Walk North","shapeGroup":"BLZ","gid":"BLZ-2-15"},"id":"BLZ-2-15"},{"arcs":[[-49,50]],"type":"Polygon","properties":{"name":"Orange Walk Central","shapeGroup":"BLZ","gid":"BLZ-2-16"},"id":"BLZ-2-16"},{"arcs":[[-8,-50,-51,-48,-21,51]],"type":"Polygon","properties":{"name":"Orange Walk East","shapeGroup":"BLZ","gid":"BLZ-2-17"},"id":"BLZ-2-17"},{"arcs":[[52,53,54,55]],"type":"Polygon","properties":{"name":"Freetown","shapeGroup":"BLZ","gid":"BLZ-2-18"},"id":"BLZ-2-18"},{"arcs":[[[56,57,58]],[[59,60,61,62]]],"type":"MultiPolygon","properties":{"name":"Port Loyola","shapeGroup":"BLZ","gid":"BLZ-2-19"},"id":"BLZ-2-19"},{"arcs":[[-54,63,64,65,-60,-59,66]],"type":"Polygon","properties":{"name":"Lake Independence","shapeGroup":"BLZ","gid":"BLZ-2-20"},"id":"BLZ-2-20"},{"arcs":[[67,68,69]],"type":"Polygon","properties":{"name":"Fort George","shapeGroup":"BLZ","gid":"BLZ-2-21"},"id":"BLZ-2-21"},{"arcs":[[-68,70,71,72,73,74]],"type":"Polygon","properties":{"name":"Albert","shapeGroup":"BLZ","gid":"BLZ-2-22"},"id":"BLZ-2-22"},{"arcs":[[-62,75,76,-72,77]],"type":"Polygon","properties":{"name":"Queen Square","shapeGroup":"BLZ","gid":"BLZ-2-23"},"id":"BLZ-2-23"},{"arcs":[[-73,-77,78]],"type":"Polygon","properties":{"name":"Mesopotamia","shapeGroup":"BLZ","gid":"BLZ-2-24"},"id":"BLZ-2-24"},{"arcs":[[79,80]],"type":"Polygon","properties":{"name":"Freetown","shapeGroup":"BLZ","gid":"BLZ-2-25"},"id":"BLZ-2-25"},{"arcs":[[-65,81,-81,82,83,-69,-75,84]],"type":"Polygon","properties":{"name":"Pickstock","shapeGroup":"BLZ","gid":"BLZ-2-26"},"id":"BLZ-2-26"},{"arcs":[[-53,85,-83,-80,-82,-64]],"type":"Polygon","properties":{"name":"Caribbean Shores","shapeGroup":"BLZ","gid":"BLZ-2-27"},"id":"BLZ-2-27"},{"arcs":[[-61,-66,-85,-74,-79,-76]],"type":"Polygon","properties":{"name":"Collet","shapeGroup":"BLZ","gid":"BLZ-2-28"},"id":"BLZ-2-28"},{"arcs":[[[86]],[[87]],[[88]],[[-9,-52,-20,89,90,-27]],[[91]],[[92]],[[93]]],"type":"MultiPolygon","properties":{"name":"Belize Rural North","shapeGroup":"BLZ","gid":"BLZ-2-29"},"id":"BLZ-2-29"},{"arcs":[[[94]],[[95]],[[96]],[[97]],[[98]],[[99]],[[100]],[[101]],[[102]],[[103]],[[-6,-28,-91,104,-55,-67,-58,105]]],"type":"MultiPolygon","properties":{"name":"Belize Rural North","shapeGroup":"BLZ","gid":"BLZ-2-30"},"id":"BLZ-2-30"}]}}}