{"type":"Topology","arcs":[[[6938,8118],[-162,-94],[-19,-46],[-42,-15],[-40,5],[-90,-11],[-40,-32],[-44,-9],[-77,43],[-44,5],[-74,-14],[-40,-38],[-86,-11],[-58,42],[-23,52],[-42,14],[-131,91],[-93,-26]],[[5833,8074],[33,80],[-15,16],[4,128],[-46,36],[-1,161]],[[5808,8495],[66,70],[41,4],[93,35],[6,19],[114,-45]],[[6128,8578],[88,-27],[42,-37],[-27,-109],[22,-58],[67,-28],[40,-36],[34,-3],[90,-52],[29,-2],[96,-44],[91,38],[61,-17],[30,-26],[23,17],[56,-22],[68,-54]],[[7209,9541],[60,-123],[3,-27],[40,-111],[44,-159],[25,-26],[7,-86],[-7,-46],[44,-55],[74,15],[45,31],[35,0],[63,29],[16,-88],[52,-23],[132,-125]],[[7842,8747],[16,-33],[-37,-49],[8,-18],[-30,-64],[26,-40],[-40,-52],[-23,-59],[9,-33],[-30,-18],[-31,25],[-79,-18]],[[7631,8388],[2,58],[-108,18],[-38,76],[-22,-6],[-57,35],[-79,-9],[-45,-21],[-30,24],[-32,55],[-49,-3],[-31,13],[-98,152],[2,34],[116,101],[-93,39],[-14,44],[11,43],[-17,90],[-67,15],[-20,101],[-51,-36],[-24,-48],[12,-55],[-128,-44],[-82,-1],[-45,14],[-54,-22],[-41,14],[-56,-10],[-29,-42],[-69,-8],[-64,20],[-45,-17],[-147,-5]],[[6139,9007],[-13,18],[-98,68],[-47,64],[-70,158],[-31,171],[-51,107]],[[5829,9593],[175,109],[42,11],[63,-10],[43,-35],[90,-9],[3,-67],[20,-54],[-23,-63],[20,-33],[41,-22],[78,6],[36,68],[33,16],[-15,56],[6,80],[34,31],[-30,140],[25,46],[40,24],[-8,56],[-37,90],[33,24],[-15,30]],[[6483,10087],[55,39]],[[6538,10126],[4,-42],[34,-46],[20,-73],[-1,-33],[33,-51],[-4,-93],[19,-35],[39,0],[39,-47],[12,-48],[67,-71],[61,-6],[0,-65],[11,-56],[72,-31],[49,59],[5,69],[32,56],[105,-2],[46,-21],[28,-49]],[[3636,25309],[2274,-1467]],[[5910,23842],[26,-41],[78,-46],[-52,-66],[-57,-24],[-8,-64],[59,-8],[39,-46],[-26,-30],[-76,-56],[52,-25],[14,-50],[-56,-17],[37,-54],[-59,-45],[26,-31],[1,-40],[45,-43],[-13,-27],[-59,42],[-6,-60],[21,-20],[66,-11],[-6,-35],[-50,4],[-46,-33],[-7,-67],[-17,-21],[-40,13],[-35,-19],[3,-38],[73,-8],[-26,-39],[-42,1],[-35,-63],[8,-49],[-54,-26],[6,-33],[48,-21],[1,-65],[-39,-12],[-11,41],[-113,-85],[4,41],[-57,3],[-16,-14],[20,-104],[-45,-11],[-22,-73],[18,-44],[-11,-30],[-62,12],[-59,-10],[-11,-27],[54,-19],[-24,-31],[-57,14],[-63,-36],[4,-44],[34,-53],[-35,-12],[-23,36],[-25,-42],[44,-4],[1,-71],[-47,-20],[-1,65],[-28,-12],[2,-62],[-107,-80],[-17,-31],[57,-4],[-8,-33],[-116,-49],[-21,-106],[44,-13],[-34,-52],[35,-76],[0,-38],[-46,-6],[40,-70],[-3,-39],[48,2],[-15,-51],[3,-49],[-34,-20],[25,-54],[-57,1],[-92,-38],[-2,-59],[37,-37],[-28,-25],[11,-55],[-49,12],[-17,-34],[-37,-13],[-37,-44],[-71,-24],[16,-34],[56,10],[12,-28],[-50,-33],[12,-43],[61,-67],[-13,-45],[-55,-28],[41,-54],[-92,-76],[-26,-67],[26,-57],[-40,-69],[105,-52],[4,-24],[-51,-43],[-42,7],[-26,-23],[23,-31],[54,16],[23,-21],[-66,-123],[1,-60],[48,-63],[5,-35],[-22,-36],[17,-26],[83,-41],[-26,-42],[-40,17],[-27,-7],[-43,-61],[-12,-46],[9,-45],[-37,-15],[27,-54],[-34,-20],[18,-35],[37,-6],[-2,-75],[38,-53],[17,-46],[53,-2],[8,-22],[-34,-43],[-6,-88],[-45,-23],[-1,-26],[-38,-25]],[[4650,19029],[-55,-5],[-106,26],[-34,18],[-89,3],[-57,45],[-60,-10],[-8,25],[-51,5],[-84,76],[-73,41],[-44,4],[-47,29],[-44,49],[-19,52],[-37,8],[-9,73],[-27,28],[-22,74],[-23,-4],[-40,44],[-46,-18],[-18,20],[-58,146],[-44,-5],[-1,41],[-40,8],[-11,42],[-28,7],[-36,91],[-53,-4],[-1,38],[-39,-9],[-32,64],[-38,-46],[-38,26],[-53,65],[-80,62],[-25,-8],[-57,30],[-173,-43],[-65,-58],[-86,-93],[-1060,478],[-141,55]],[[1498,20499],[-43,48],[0,80],[10,34],[-36,81],[7,44],[40,107],[-8,47],[-65,41],[-44,4],[-20,52],[-30,13],[-14,40],[-25,11],[8,68],[58,26],[45,-15],[50,3],[-25,62],[43,32],[75,21],[-14,31],[24,39],[5,83],[16,35],[51,14],[-6,65],[28,24],[30,100],[-14,45],[22,27],[32,84],[-6,41],[31,58],[2,78],[26,37],[-26,28],[36,24],[-39,78],[23,5],[-39,72],[8,95],[-10,35],[24,62],[-23,31],[34,38],[-19,40],[30,23],[-47,41],[2,74],[-18,71],[27,53],[-21,34],[18,35],[6,81],[67,28],[1,103],[42,13],[-7,37],[59,64],[16,46],[37,-6],[56,40],[13,47],[25,20],[16,43],[-37,22],[7,37],[-23,40],[20,54],[41,13],[6,28],[42,24],[-17,23],[19,34],[33,6],[4,56],[47,47],[3,28]],[[2187,23826],[75,5],[123,83],[6,34],[-69,93],[16,23],[44,9],[98,-13],[38,-18],[22,-31],[70,-8],[91,87],[33,43],[10,71],[-6,68],[-26,49],[6,39],[74,76],[87,25],[83,-18],[126,93],[23,41],[19,71],[-13,77],[11,47],[-12,99],[-15,45],[11,24],[109,-1],[61,-25],[51,1],[36,-29],[42,-1],[81,84],[97,49],[89,94],[0,83],[-42,114]],[[6739,29768],[104,-666],[181,-1233],[38,-216]],[[7062,27653],[-26,4],[-75,-20],[-52,-33],[-63,-55],[12,-22],[-94,-45],[-63,-1],[0,-28],[-52,-10],[-29,-25],[2,-49],[-35,-36],[-46,-25],[-26,7],[-69,-16],[-19,-37],[-43,6],[-38,22],[-58,-4],[-23,47],[-53,24],[-23,-33],[-52,32],[-24,-31],[-74,7],[-66,38],[-12,-15],[-54,3],[-37,-11],[-40,-43],[-20,-48],[-77,-2],[-50,22],[-11,-33],[-53,-71],[-60,26],[-94,-18],[-24,-31],[-75,-33],[-9,27],[-96,-23],[-52,-67],[-16,32],[-58,-14],[-30,15],[12,31],[-54,79],[-128,54],[-28,-19],[-57,4],[-18,-43],[-50,-15],[-28,13],[-79,-22],[-39,-46],[-32,-72],[-6,-42]],[[4598,27008],[-322,893],[92,34],[58,-3],[33,27],[23,-8],[34,30],[22,-11],[60,55],[40,-2],[23,54],[50,4],[39,44],[93,41],[-7,39],[49,21],[8,51],[38,-1],[26,38],[49,-4],[42,34],[21,73],[37,5],[22,37],[52,23],[-16,28],[45,31],[-9,51],[16,34],[59,31],[21,36],[54,26],[22,-5],[57,56]],[[5429,28770],[35,1],[80,47],[-17,21],[34,37],[61,18],[40,-16],[47,25],[16,27],[89,33],[26,94],[53,63],[52,0],[11,60],[126,98],[33,78],[65,-12],[24,60],[55,24],[1,26],[37,36],[132,86],[125,36],[39,73],[28,-31],[47,124],[71,-10]],[[7446,11332],[53,-76],[3,-33],[58,-57],[38,-19],[4,-56],[36,-44]],[[7638,11047],[-13,-78],[-48,-19],[-2,-26],[32,-59],[-6,-37],[-33,-25],[-38,-65],[-50,-24],[-40,-33],[-30,-68],[54,-63],[33,-74],[6,-55],[-71,-26],[-42,-37]],[[7390,10358],[-30,56],[-82,69],[-16,23],[27,49],[-3,35],[53,61],[35,63],[2,48],[-37,-11],[-97,7],[-62,-66],[-36,-11],[-18,-40],[-94,-37],[-78,32],[-14,-22],[-73,-13],[-21,9]],[[6846,10610],[35,50],[-48,15],[-44,-17],[-62,32],[-93,-10],[-79,18],[-45,-4],[-57,-24],[-54,9],[-39,57],[14,23],[-5,83],[-17,10],[-39,68]],[[6313,10920],[61,2],[72,44],[80,-9],[40,20],[74,-18],[37,30],[35,51],[62,1],[28,16],[90,-30],[-23,70],[47,51],[83,68],[66,64],[30,12]],[[7095,11292],[26,-5],[105,43],[63,-7],[51,24],[24,-28],[49,-2],[33,15]],[[15097,11190],[-31,-19],[-147,-1],[0,9],[-615,-13],[-9,-100],[52,0],[4,-86],[31,-1],[6,-141],[-135,-3],[1,-191],[-30,-9],[-110,47],[-52,10],[-46,-26],[-55,-12],[-18,26],[-70,21],[-47,-16],[-89,-56],[-57,-19],[-88,13],[-51,-33]],[[13541,10590],[-36,73],[-13,106],[33,47],[-59,54],[-15,42],[-32,36],[-10,105],[-22,90],[-72,51]],[[13315,11194],[3,36],[-15,95],[-32,47],[39,37],[39,18],[7,31],[38,13],[65,53],[41,89],[-9,21],[45,38],[-22,31],[40,111],[31,41],[19,77],[50,60],[0,103]],[[13654,12095],[61,60],[1,79],[36,-9],[72,2],[49,-32],[21,-55],[-5,-48],[52,10],[36,20],[47,-52],[65,30],[40,39],[73,-28],[34,10],[4,41]],[[14240,12162],[23,-72],[41,-18],[26,-31],[-3,-64],[33,9],[108,1],[22,26],[43,15],[45,49],[94,15],[69,57],[123,37],[28,-2],[119,101],[130,17]],[[15141,12302],[0,-21],[50,-34],[9,-38],[-11,-48],[-49,-96],[32,-65],[5,-38],[-14,-46],[76,-48],[18,-61],[-9,-23],[-48,-40],[17,-60],[-20,-54],[-34,-49],[-4,-62],[-46,-28],[-18,-57],[28,-29],[39,-77],[3,-25],[-74,-39],[6,-74]],[[26531,11273],[-853,6],[-25,-41],[-1704,60],[-985,-331]],[[22964,10967],[-609,215],[-4,8],[4,923],[8,829],[5,557]],[[22368,13499],[1,92],[23,675],[30,904]],[[22422,15170],[689,-30],[68,-6],[417,-14],[1178,-49],[67,39],[21,43],[6,54],[52,-26],[80,7],[56,-88],[-13,-118],[4,-24],[-44,-20],[-38,-44],[-25,-62],[3,-31],[46,-101],[-9,-73],[-126,-111],[-59,-24],[-29,-44],[-54,-133],[-17,-97],[-9,-126],[13,-76],[-30,-90],[37,-42],[-15,-22],[19,-118],[-36,-82],[37,-2],[-7,-54],[40,-53],[30,-14],[-8,-37],[9,-50],[-1,-82],[70,-42],[-1,-153],[6,-82],[68,-34],[43,-69],[59,-51],[9,-34],[88,-83],[-8,-33],[39,-34],[16,-45],[64,7],[16,-23],[36,15],[19,-45],[3,-43],[89,9],[-6,-30],[32,-33],[46,-19],[-1,-59],[62,-28],[56,20],[36,-20],[15,-68],[47,-6],[49,-24],[8,-23],[61,2],[180,142],[153,-117],[149,-108],[28,-41],[-46,-52],[-55,-38],[23,-41],[-21,-32],[18,-40],[29,-9],[23,-68],[23,-8],[20,-55],[47,-28],[-5,-102],[62,-81],[2,-46],[-85,2],[191,-347]],[[6938,8118],[93,-48],[69,-58],[85,-117],[74,9]],[[7259,7904],[-7,-84],[57,-150],[57,-87],[108,-116],[67,-33],[78,-110],[47,32],[93,9],[114,26],[55,-8],[130,24],[58,-8],[6,-22],[66,-27],[35,15],[38,-10],[33,-36],[46,-7],[71,14],[10,-21],[-14,-85],[56,-23],[26,44],[69,-38],[6,-53]],[[8564,7150],[7,-89],[16,-19],[-9,-103],[-33,-47],[-93,-60],[-21,38],[-31,11],[-45,-74],[-33,1],[-15,-77]],[[8307,6731],[-34,-17],[-15,-149],[-35,-64],[32,-74],[26,-31],[-60,-20],[36,-93],[-11,-53],[-32,-27],[-35,-53],[-16,-69],[38,-65],[57,-27],[1,-42],[-23,-12],[-42,-77],[8,-52],[-9,-34],[39,-55],[-14,-35],[-40,-38],[-61,-38],[2,-36],[-63,-40],[-25,-31],[-85,-21],[-58,56],[-44,54],[2,38],[-26,28],[-37,-6],[-29,-51],[0,-27],[-91,-18],[-56,-3],[-38,-50],[-3,-43],[61,-90],[-5,-76],[-24,-97],[37,-88],[8,-75],[-25,-83],[-87,-81]],[[7531,4866],[-70,-72],[-158,-118],[-175,-69],[-66,-68],[-81,-12],[-3,-56]],[[6978,4471],[-187,-18],[-102,121],[-95,34],[-69,63],[-81,176],[-56,62],[-115,424],[-95,116],[-36,55],[-19,87],[-151,139]],[[5972,5730],[66,23],[-38,83],[-120,101],[-66,106],[-17,65],[-35,24],[-70,5],[-73,38],[-36,49],[-88,71],[-28,60],[38,145],[26,33],[-26,36],[-3,50],[-30,41],[-39,-21],[-16,21],[30,41],[7,104],[-59,164],[-44,25],[2,42],[-23,68],[-32,32],[-103,55]],[[5195,7191],[38,37],[36,75],[2,38],[68,23],[43,44],[-14,63],[8,95],[-50,40],[2,38],[28,18],[-26,53],[10,103],[-68,62],[-26,81],[166,-48],[68,25],[41,42],[76,20],[44,82],[8,40],[41,-33],[56,-19],[50,28],[37,-24]],[[9155,12373],[126,-95],[-33,-42],[-85,65],[-50,-44],[-52,4],[-7,-22],[21,-87],[21,-35],[34,-20],[45,-49],[-39,-53],[-10,-62],[-88,-34]],[[9038,11899],[-76,48],[-82,31],[-33,26],[-58,10],[-25,-27],[-60,-30],[-69,22]],[[8635,11979],[-23,63],[-151,112],[20,113],[60,26],[31,42]],[[8572,12335],[62,-7],[43,17],[42,-15],[33,31],[82,17],[110,-17],[152,8],[13,18],[46,-14]],[[11671,2481],[8,-7],[9,-60],[-17,-8],[0,-131],[59,-96],[31,17],[40,-5],[7,-6],[0,-2],[-10,-9],[7,-8]],[[11805,2166],[-23,-43],[1,-45],[51,-66],[-61,-153],[-1,-65],[38,-39],[37,9],[45,-32],[62,11],[27,45],[36,12],[59,-30],[55,-63],[0,-74],[91,-41],[16,-24],[-17,-47],[21,-29],[-21,-103],[-13,-20],[31,-65]],[[12239,1304],[-1,-42],[-29,-21],[-8,-46],[10,-43],[-63,-30],[-38,-117],[-47,-13],[-54,-74],[-19,-87],[-52,-27],[-10,-57],[14,-65],[-7,-43],[-33,-2],[-19,-50],[49,-35],[-42,-25],[-5,-56],[-18,-29],[10,-33],[-1,-97],[-38,-57],[1,-79],[-45,-19],[15,-55],[-32,-23],[-35,22],[-5,115],[-25,13],[8,65],[-5,59],[-26,49],[-94,28],[-7,81],[-39,10],[3,50],[-37,14],[-8,64],[11,56],[43,81],[-6,57],[-40,38],[-30,0],[-31,45],[-54,49],[9,43],[-24,46],[-55,-9],[-19,23],[23,46],[-44,41],[-47,26],[-28,42],[1,66],[16,45],[26,6],[22,77],[-96,76],[-27,7],[-33,61],[-97,70],[-18,-13],[-59,19],[-78,-22],[-53,32],[-70,11],[-28,31],[-66,43],[-120,64],[-28,-27],[-34,22],[-37,-4],[-42,27],[-108,36],[-16,23],[-128,1]],[[10142,1884],[20,103],[-5,81],[19,29],[-22,99],[30,4],[38,56],[17,86],[-11,38],[36,10],[14,36],[47,31],[79,-15],[36,14],[112,-17],[60,18],[27,-14],[51,56],[55,23],[23,-15],[5,-54],[51,-25],[29,37],[51,-4],[37,25],[31,-15],[153,-39],[27,60],[68,-9],[44,71],[70,31]],[[11334,2585],[47,-10],[-15,-60],[18,-40],[-24,-73],[37,-24],[70,12],[42,30],[37,58],[40,38],[49,3],[36,-38]],[[3634,13877],[-19,-37],[-41,-14],[-31,-39],[34,-34],[-26,-18],[23,-32],[94,-76],[25,-38],[60,-4],[13,-54],[79,-52],[56,23],[26,-9],[34,-42],[28,-10],[-5,-45],[-53,13],[-22,-62],[17,-85],[26,-42],[40,45],[53,-53],[36,-48],[66,-68],[77,-3],[52,-30],[22,30],[38,-12],[44,8],[-3,33],[34,22],[0,72],[-15,45],[52,35],[5,-40],[57,-77],[21,-13],[44,-68],[78,-10],[15,26],[73,-4],[0,-43],[25,-46],[54,0],[17,-35],[-18,-41],[-47,-67],[66,-67],[41,-83],[62,-73],[71,-129],[-2,-63]],[[5010,12463],[-3,-66],[-26,-59],[14,-52],[-27,-49]],[[4968,12237],[-21,-32],[-59,32],[-40,53],[1,26],[-47,46],[-32,-36],[-49,8],[-35,-82],[-55,-49],[-6,-25]],[[4625,12178],[-58,-11],[-38,27],[-52,73],[-58,5],[-52,-12],[-49,16],[-40,-24],[-69,-14],[-72,20],[-61,3]],[[4076,12261],[-31,7],[-133,-19],[-118,57],[-44,2],[-74,55],[-24,67],[-59,7]],[[3593,12437],[-32,1],[-35,-22],[-61,-15],[-53,6],[-52,59],[-44,-3],[-6,43],[-49,67]],[[3261,12573],[-29,71],[-32,124],[-18,44],[13,17],[-42,62],[-5,63],[85,-50],[119,-22],[51,18],[27,77],[0,39],[-36,-3],[-21,78],[-7,134],[-101,31],[9,66],[-54,62],[-92,-9],[-59,-59],[-101,-48],[-90,102],[-13,26],[-32,185],[-26,20],[-17,72],[12,35]],[[2802,13708],[76,61],[107,25],[97,79],[6,35],[35,9],[114,93],[3,20],[51,42]],[[3291,14072],[50,-3],[74,-19],[22,32],[36,-28],[73,-76],[45,-80],[43,-21]],[[7095,11292],[-4,23],[-66,40],[22,15],[11,49],[-34,17],[-73,-43],[-39,17],[-42,60],[-41,16],[-18,-19],[-192,-74],[-26,4],[-72,-40],[-52,-15],[-63,14]],[[6406,11356],[62,104],[3,35],[-20,33],[0,52],[-54,22],[-22,30],[-33,98]],[[6342,11730],[1,2],[29,92],[29,25],[-23,51],[35,46],[35,10],[36,-19],[23,-43],[47,-54],[55,0],[48,25],[52,-18],[48,4],[56,20],[25,31],[44,-5],[24,34],[99,69],[32,13],[68,-66],[59,19]],[[7164,11966],[21,-45]],[[7185,11921],[-36,-24],[27,-25],[26,-106],[-25,-27],[28,-42],[32,-14],[8,-62],[35,-26],[7,-39],[30,-31],[112,22],[7,-39],[56,-127]],[[7492,11381],[-46,-49]],[[10142,1884],[-297,-4]],[[9845,1880],[-11,19],[25,132],[-45,17],[-31,34],[-45,14],[-67,47],[-73,-18],[-80,29],[-47,38],[-69,36],[-47,40],[-19,43],[12,32],[35,12],[11,71]],[[9394,2426],[27,25],[48,-9],[20,63],[26,15],[15,66],[22,30],[19,76],[23,21],[-9,75],[16,28],[45,28],[34,77],[-6,48],[42,90],[-9,115],[5,71]],[[9712,3245],[22,8],[45,-30],[95,-36],[63,64],[134,-59],[9,-91],[83,-27],[21,-65],[25,-45],[106,-9],[1,69],[32,7],[8,-59]],[[10356,2972],[4,-28],[-25,-32],[-47,-142],[15,-51],[-34,-18],[-6,-45],[28,-85],[29,21],[57,-2],[37,41],[56,8],[41,-21],[42,15],[23,68],[7,58],[70,-18],[76,23],[71,95],[9,42],[47,-21],[55,15],[45,72],[44,-1],[35,-37],[38,-3],[24,27],[63,-1],[110,-36],[101,-80],[4,-51],[22,-15],[-32,-38],[-31,-147]],[[6290,16301],[2,-6],[-25,-47],[-4,-45],[91,-43],[82,-73],[49,-35],[56,-21],[51,-6],[44,-24],[8,-40],[44,-41],[101,-21],[140,-56],[65,-44],[166,-161],[41,-26],[35,-41],[62,-30]],[[7298,15541],[70,-390],[-4,-45],[7,-115],[-37,-96],[107,-108],[37,-27],[38,-1],[26,-54],[148,-96],[-1,-31],[46,-49],[-59,-82],[-46,-30],[0,-45],[22,-23],[-6,-97],[23,-68],[-10,-39],[11,-69],[-32,-40],[-59,10],[-46,-7],[-55,30],[-97,-41],[-24,-66],[2,-58],[54,-67],[-1,-17],[54,-38],[59,-24],[42,-54],[-17,-46],[-56,-24],[-25,-43],[-72,-38],[-36,32],[-87,-55],[79,-43],[28,-35],[-4,-35]],[[7377,13417],[-36,-26],[-16,-40],[-40,-1],[-32,53],[-45,11],[-88,-72],[-38,-54],[-8,-53],[-34,-36],[-6,-95],[46,-33],[25,-41],[59,2],[2,-70],[-41,-45],[-80,-5],[2,-35],[-28,-23],[-33,8],[-19,-102],[-26,-65],[-47,-10],[-37,-51]],[[6857,12634],[-59,45],[-100,-83],[-3,-39],[-28,-15],[-125,49],[-78,-8],[3,-71],[-39,-19],[-94,17],[-42,24],[-48,73],[-4,4],[-35,3],[-27,26]],[[6178,12640],[8,153],[-68,35],[-34,43],[0,40],[25,75],[-28,62],[14,114],[-15,38],[-55,60],[-34,15],[-59,95],[-51,43],[-47,132],[-3,95],[25,33],[48,28],[-8,66],[60,54],[50,75],[127,6],[55,-16],[59,25],[66,52],[20,51],[30,5],[47,61],[-5,80],[-32,39],[8,62],[29,45],[-9,54],[25,46],[4,52],[-61,105],[-37,51],[16,39],[-43,47],[14,38],[-13,56],[12,54],[-26,49],[-10,103],[9,21],[-20,93],[8,18],[-42,60],[-56,29],[-19,27]],[[6162,15248],[15,37],[-11,28],[16,50],[-52,99],[-59,90],[-57,48],[25,104],[-26,109],[16,42],[65,87],[34,15],[-47,87],[7,55],[-32,12],[9,102],[81,92],[53,-31],[23,19],[68,8]],[[11782,6973],[-36,-140],[13,-124],[-65,-24],[-4,-43],[45,-85],[31,-8],[13,-48],[29,-32],[16,-73],[-20,-66],[-32,-22],[-3,-75],[32,-23],[16,-63],[-4,-70],[-38,-60],[50,-104],[9,-89],[-9,-35],[23,-32],[-23,-42],[-1,-108]],[[11824,5607],[-68,14],[-107,-30],[-24,6],[-41,-49],[-57,1],[-110,111],[-6,-34],[-40,-8],[-72,5],[-39,45],[-34,65],[19,62],[-32,12],[-4,86],[-18,103],[8,34],[-28,13],[4,36],[-21,45],[24,22],[-5,63],[2,173],[-44,144],[1,63],[-58,75],[5,18],[-26,60],[-58,78],[-19,44],[-29,24],[-34,63],[12,32],[-12,55],[20,39],[-37,40],[-7,41]],[[10889,7158],[-23,14],[-38,152],[-20,8],[-58,88]],[[10750,7420],[56,22],[57,-8],[46,36],[26,48],[68,13],[37,-40],[35,15],[4,140]],[[11079,7646],[101,4],[70,-9],[31,36],[41,1],[46,-54],[37,-2],[58,35],[14,-53],[56,2],[-11,-65],[23,-109],[24,-90],[66,-21],[13,-41],[-12,-25],[12,-54],[-85,-68],[-10,-73],[25,-11],[90,-6],[56,-22],[58,-48]],[[2883,17743],[-72,-14],[4,-22],[-57,-48],[1,-18],[-39,-56],[-56,36],[-26,32]],[[2638,17653],[-66,95],[-35,-13],[-39,14],[-75,-51],[-144,-66],[-33,-3],[-55,-35],[-47,0],[-73,29],[-48,-43],[-41,-18],[-35,16],[-56,-10],[-27,-38],[-48,-6],[-45,-30],[-28,-109],[-18,-45],[-69,-9],[-48,-52]],[[1608,17279],[-59,46],[-52,67],[-12,-13],[-91,-5],[-48,-15],[-22,21],[-48,-6],[-11,43],[-35,-11],[-37,39],[2,30],[-42,29]],[[1153,17504],[-29,33],[-5,59],[-68,59],[-69,87],[-32,26]],[[950,17768],[58,43],[20,43],[-17,76],[-58,14],[13,38],[73,21],[69,65],[164,-2],[53,5],[19,-29],[62,32],[30,40],[13,61],[49,39],[132,195],[11,90],[114,87],[56,28],[29,-28],[75,-21],[33,29],[134,-55],[60,-43],[44,-55],[74,-30],[13,-45],[53,-57],[107,-91],[76,-96],[-14,-25],[96,-84],[27,-7],[28,-56],[56,-59],[40,6],[77,-57],[13,-49],[51,-48]],[[11740,9708],[33,-5],[9,-43],[-4,-66],[-17,-26],[23,-53],[50,-82],[9,-62],[-16,-24],[28,-31],[42,-2],[43,-51],[54,-49],[4,-34],[28,-28],[9,-91],[70,-49],[75,12],[64,-28],[21,-43],[51,-23],[24,-84],[26,-37],[9,-48],[-7,-42],[29,-35],[-20,-19],[41,-82]],[[12418,8583],[-102,0],[-115,-86],[-56,11],[-22,-17],[-161,-10],[-12,-41],[-28,-11],[-36,52],[-24,15],[-10,54],[-64,-19],[-75,2],[3,68],[-14,20],[-81,-19],[-17,58],[-27,23],[9,60],[-12,52],[-35,29],[-33,78],[-21,7],[-46,56],[-4,35],[30,56],[21,9],[-41,92],[-36,54]],[[11409,9211],[-1,45],[-27,74],[-9,53],[-26,46],[14,46],[8,88],[-18,50],[5,84]],[[11355,9697],[75,4],[69,62],[10,19],[11,9],[11,3],[57,14],[60,-3],[56,-91],[36,-6]],[[6313,10920],[-68,56],[-36,64],[-2,50],[-19,23]],[[6188,11113],[42,60],[76,85],[100,98]],[[1608,17279],[-14,-40],[19,-79],[-37,-36],[-21,-40],[-35,-19],[-25,-43],[50,-76],[-44,-6],[-8,-28],[14,-57],[68,15],[3,-31],[-33,-99],[48,-52],[19,-3],[20,-47],[-57,-81],[-48,-47],[-3,-101],[28,-41],[48,-38]],[[1600,16330],[23,-70],[-95,13],[-61,-11],[-25,-89],[32,-21],[47,-66],[-19,-40]],[[1502,16046],[-52,27],[-9,40],[-49,14],[-44,120],[-49,30],[-42,94],[-68,85],[-17,-25],[-131,29],[-31,20],[85,41],[-37,38],[-55,37],[-52,-48],[-33,14],[-36,-21],[-43,26],[8,63],[-36,33],[-35,1],[-19,44],[42,73],[-3,28],[-60,26],[-49,34],[37,43],[1,56],[19,31],[6,46],[26,53],[82,-75],[28,21],[17,44],[-38,33],[6,128],[37,80],[34,42],[43,8],[9,42],[35,78],[42,-15],[46,30],[36,-10]],[[11355,9697],[-36,-14],[-84,4],[-36,48],[-74,23],[-58,60],[-41,103],[-49,26],[-17,43],[-41,27],[-76,-17],[-109,27],[-2,22],[-48,64],[-72,11],[-51,-23],[-28,12],[-125,-68],[-9,-27],[-52,-30],[-34,-36],[-56,0],[-9,-32],[-36,-26],[-1,-33],[-36,-6],[-31,-66],[44,-92],[-24,-26],[-32,13]],[[10132,9684],[-44,39],[-43,5],[-13,38],[-95,53],[-42,15],[-26,-19],[-59,-12],[-28,30],[-63,0],[-4,71],[15,38],[-14,68],[-1,63],[-73,-7],[-29,39],[0,64],[-40,48],[-35,-36],[-22,24],[6,57],[-28,12]],[[9494,10274],[-18,28]],[[9476,10302],[19,23],[13,78],[36,59],[24,-1],[-6,87],[-50,60],[29,57],[40,-5],[16,69],[-22,37],[9,52],[28,28],[-29,55],[18,40],[33,18],[37,-6],[7,63],[91,12],[-38,122],[-49,39],[22,41],[-16,48],[74,7],[-4,41],[-30,18],[52,61]],[[9780,11405],[13,-25],[62,-44],[64,-25],[40,-40],[4,-33],[41,-26],[51,-8],[49,-49],[69,1],[54,21],[-26,51],[44,55],[-26,37],[-7,66],[36,63],[63,72],[96,-50],[28,-64],[65,-90],[7,-46],[64,-3],[80,9],[33,-16],[90,5]],[[10774,11266],[6,-37],[60,-88],[43,-16],[3,-59],[53,-61],[57,-13],[68,19],[53,0],[33,-28],[80,-38],[32,-24],[58,-84],[11,-60],[38,-33],[7,-50]],[[11376,10694],[17,-80],[53,-125],[51,-11],[-5,-56],[22,-45],[-6,-62],[15,-41],[55,-75],[23,2],[62,-32],[64,-48],[24,-30],[41,-15],[12,-65],[27,-17],[-19,-57],[10,-44],[25,-35],[-22,-36],[-53,-24],[-9,-65],[-23,-25]],[[7185,11921],[39,-27],[19,-49],[32,-24],[36,18],[-9,56],[9,27],[-29,33],[16,26],[-15,47],[40,7],[14,52],[88,72],[-59,80],[12,79],[-18,22],[-22,83],[105,15]],[[7443,12438],[69,-71],[93,-4],[84,-47],[76,32]],[[7765,12348],[8,-84],[-29,-95],[16,-56],[-42,-74],[-22,-94],[25,-21],[-8,-39],[49,-74],[3,-76],[13,-31],[56,-32]],[[7834,11672],[-35,-46],[-8,-71],[-66,-59],[-39,-52],[-2,-40],[-39,-21],[-32,17],[-43,-21],[-22,-40],[-46,-1],[-10,43]],[[4739,17301],[16,-33],[-41,-19],[-33,-48],[39,-33],[45,-16],[-9,-44],[57,-65],[9,-57],[75,-26],[-9,-52],[70,-2],[26,-71],[52,-33],[51,-13],[76,10],[41,-38],[138,-46],[7,-22],[88,-60],[80,-19],[14,-26],[11,-74],[-16,-71],[-90,-131],[-39,8],[-76,-66],[-25,-68],[-88,-131],[-122,-270]],[[5086,15785],[-573,-101],[-55,-1],[-18,51],[-22,0],[-49,54],[-20,6]],[[4349,15794],[22,111],[47,26],[3,46],[29,34],[-8,54],[-28,48],[-34,22],[17,33],[-16,51],[12,81],[-25,43],[-39,39]],[[4329,16382],[54,27],[36,36],[-21,43],[17,37],[48,61],[19,64],[-62,56],[82,108],[-17,43],[10,60],[74,130],[-6,86],[17,30],[-9,82],[49,48],[8,32],[41,15],[40,-48],[30,9]],[[4715,9857],[-74,-62],[-82,-91],[-86,-37],[-104,14],[-43,-12],[-73,2],[-56,-79],[-86,-53],[-49,-19],[-140,-95],[-26,-26],[-112,-33]],[[3784,9366],[-55,9],[-80,89],[-97,131],[-33,208],[-18,63],[9,26],[-25,113],[-45,71],[-89,39]],[[3351,10115],[18,52],[56,49],[54,79],[51,53],[-6,39],[41,34],[25,56],[-21,78],[-45,-1],[-52,64],[-22,57],[18,47],[-18,45],[-87,24],[-1,44],[33,38],[-17,110],[8,45],[-33,7],[-15,38],[-49,45],[-2,27]],[[3287,11145],[55,24],[38,-36],[58,25],[45,-4],[48,24],[91,23],[50,37],[-13,40],[76,35],[29,24]],[[3764,11337],[40,44],[18,-19],[-15,-45],[23,-65],[-19,-61],[35,-12],[39,-38],[59,-34],[93,40],[29,-1],[42,35],[65,-68],[51,-75],[107,54],[32,-61]],[[4363,11031],[12,-52],[1,-84],[15,-47],[70,-6],[27,-41],[31,-121],[66,-141],[22,-11],[53,50],[33,-95],[21,-34],[-78,-73],[-20,-72],[20,-59],[-9,-70],[42,-33],[51,-73],[-39,-89],[-1,-59],[35,-64]],[[9155,12373],[97,-2],[42,22],[80,11],[41,-8],[83,-54],[12,52],[-3,49],[56,57],[19,43],[-14,30],[63,61],[21,-16],[108,82],[-16,58],[12,47],[-26,54],[4,29],[-18,87],[80,67],[59,159],[24,26],[-27,55],[-83,1],[16,48],[-4,101],[44,62],[-10,52],[13,48],[-16,31],[25,24],[-18,69],[32,55],[-21,84]],[[9830,13857],[53,37],[-7,57],[24,22],[32,-5],[-17,77],[31,11],[-8,36],[22,31],[-45,37],[24,43],[135,73],[15,93],[35,-22],[48,48],[-4,35],[30,34],[72,48],[67,107],[40,25],[27,78],[28,26],[-41,21],[-6,40],[15,43],[-19,21],[1,58],[-29,32],[-34,85],[25,38],[89,92],[-18,39],[19,27],[4,55],[41,2],[17,114],[24,-23],[21,43],[41,10],[-16,48],[64,26],[34,39],[102,85],[-29,81],[-21,31],[20,98],[37,24],[25,64]],[[10798,15941],[1,-23],[64,-1],[-25,-68],[24,-68],[54,-52],[-1,-80],[-12,-44],[36,-2],[-13,-48],[76,32],[-45,-72],[22,-20],[-18,-101],[-48,-24],[71,-30],[-13,-70],[25,-15],[-16,-44],[-44,-56],[84,-6],[12,-27],[-54,-22],[19,-110],[-59,3],[15,-51],[46,17],[18,-16],[-51,-68],[-13,-101],[27,-50],[-20,-12],[-45,25],[-20,-78],[23,-31],[-11,-36],[-45,13],[8,42],[-51,1],[8,-72],[-17,-39],[-1,-86],[-67,-46],[-21,-41],[40,-14],[38,-46],[-26,-16],[-36,7],[-2,-39],[-51,-38],[-5,-28],[43,-19],[22,-33],[-28,-46],[-25,34],[-45,23],[-35,-20],[-2,-27],[87,-117],[50,-19],[-30,-44],[7,-47],[45,-38],[9,-36],[45,25],[14,-26],[-44,-20],[18,-58],[41,-27],[-9,-65],[58,-3],[37,-61],[21,-90],[53,39],[42,-40],[-2,-35],[62,0],[20,21],[37,-24],[50,-9],[-3,-42],[98,5],[-28,-36],[-4,-40],[85,-31],[37,-25],[25,-45],[48,-15],[17,22],[58,-45],[34,26],[24,-39],[6,-42],[42,-94],[66,17],[-7,-131],[62,1],[12,17],[49,-17],[5,-45],[43,-34],[34,-8],[3,-65],[19,-43],[5,-54],[-43,-119]],[[11907,12546],[-60,2],[-56,-29],[-39,35],[-56,-3],[-18,-49],[-59,-28],[-46,-1],[9,-84],[-18,-50],[-41,-17],[-11,-84],[-76,-8],[-50,8],[-54,38],[-66,-23],[-14,-28],[-76,21],[-40,-2],[9,-75],[22,-24],[-29,-92],[-57,-41],[-31,-65],[4,-48],[-42,-19],[-89,2],[-36,-39],[-68,-8],[-23,-34],[-40,-129],[-7,-51],[-30,-34],[-33,-111],[43,-92],[-53,-26],[57,-79],[41,-13]],[[9780,11405],[-38,12],[-30,47],[-38,10],[-68,80],[-38,77],[11,39],[-25,43],[-81,12],[-22,-17],[-56,21],[-51,-4],[-29,15],[-72,3],[-33,16],[-50,-11],[-14,45],[-48,37],[-60,69]],[[10356,2972],[74,8],[21,54],[59,-9],[21,24],[143,38],[71,75],[-6,38],[49,19],[18,70],[42,33],[47,79],[0,52],[60,29],[62,1],[21,88],[24,53],[25,5],[3,43],[-20,63],[53,88],[47,-7],[-1,-108],[92,10],[4,-54],[20,-49],[70,-12],[24,-20],[56,-7],[67,81]],[[11502,3657],[40,-49],[12,-1],[32,21],[99,-8],[-30,-140],[-65,-3],[-56,-78],[-22,-57],[17,-54],[28,1],[16,47],[43,-17],[8,-29],[42,-30],[-3,-96],[71,-66],[14,-57],[-7,-33],[-48,-61],[20,-37],[-19,-108],[11,-57],[-37,-70],[-4,-88],[29,-51],[-22,-55]],[[5010,12463],[18,20],[58,9],[6,42],[53,39],[-12,43],[20,33],[36,11]],[[5189,12660],[36,71],[53,47],[55,-29],[57,0],[7,-66],[27,-31],[-3,-90],[117,-82],[25,-25],[126,-11],[39,-59],[30,-10],[36,-64],[-3,-25],[-66,-111],[21,-34],[61,-36],[16,-32],[155,49],[81,46]],[[6059,12168],[31,-21],[30,-57],[-34,-33],[-9,-62],[69,-106],[86,-57],[13,-44],[42,-46],[39,-18],[16,6]],[[6188,11113],[-48,-39],[-102,-26],[-41,-42],[-44,-26],[-51,0],[-109,120],[-109,27]],[[5684,11127],[-43,1],[-20,41],[-106,-50],[-13,-40],[35,-18],[-1,-55],[22,-60],[-13,-43],[13,-40],[38,-45],[31,-16]],[[5627,10802],[38,-50]],[[5665,10752],[66,-93],[-9,-100],[20,-48],[1,-71],[-19,-58],[8,-50],[-5,-87],[-20,-46]],[[5707,10199],[-38,4],[-26,-25],[-56,10],[-35,-47],[6,-66],[-34,-30],[-40,-60],[-27,-14],[-60,-3],[-95,-60]],[[5302,9908],[-86,130],[121,252],[41,28],[18,122],[-23,31],[-27,86],[7,53],[-18,89],[-37,61],[-8,42],[18,46],[-40,139],[-65,38],[-27,55],[-42,-1],[-32,40],[15,37],[-40,37],[20,42],[-27,56],[-24,17],[-21,48],[-30,23],[-12,39],[-37,19],[12,99],[-36,73],[-53,71],[3,28],[-50,29],[-80,-74],[-88,-44],[-37,-64],[-40,-39],[-103,-58]],[[4474,11458],[-36,-26],[-69,-7],[-70,8],[-43,85],[-35,35]],[[4221,11553],[53,26],[13,105],[49,55],[6,32],[72,14],[26,-16],[103,-7],[-1,128],[63,20],[59,68],[33,4]],[[4697,11982],[-2,-20],[47,-52],[26,-70],[76,-6],[47,-29],[27,6],[174,113],[-59,28],[89,119],[-19,52],[-45,-2],[-12,25],[-55,38],[-23,53]],[[7443,12438],[-10,21],[57,47],[15,36],[32,24],[29,-19],[68,187],[1,32],[30,66],[38,51]],[[7703,12883],[58,-11],[30,-99],[-24,-34],[-13,-78],[34,-74],[54,-59],[51,-81]],[[7893,12447],[-46,-45],[-83,-38],[1,-16]],[[11621,20058],[1395,-257],[30,-45],[61,-26],[91,14],[22,-29],[37,10],[-3,-57],[74,16],[27,31],[80,-8]],[[13435,19707],[-912,-987]],[[12523,18720],[-961,-348],[-83,-19],[-145,-7],[-151,-24],[-135,-34],[-383,-148],[-109,-39],[-324,-98]],[[10232,18003],[-9,31],[-19,23],[21,28],[46,-43],[34,19],[-20,30],[6,62],[-22,20],[-54,-25],[-34,74],[7,21],[84,-32],[22,23],[-10,43],[-74,20],[25,38],[55,12],[-4,23],[-70,12],[-28,57],[55,1],[10,47],[-71,-8],[-45,-32],[-5,41],[39,11],[52,49],[8,51],[-32,19],[-31,-77],[-46,31],[30,54],[25,102],[-30,26],[61,31],[7,27],[-47,57],[53,43],[25,51],[-9,54],[72,87],[44,15],[13,39],[-65,46],[79,25],[37,46],[-8,55],[-22,20],[-73,-10],[-78,23],[32,34],[27,-26],[40,2],[52,37],[-8,29],[-35,12],[13,63],[-73,8],[-19,31],[-39,9],[14,33],[70,-33],[20,22],[-43,66],[33,60],[-87,14],[-3,65],[32,41],[-38,8],[-24,-59],[-27,17],[27,48],[2,38],[-43,79],[-5,65]],[[10154,20026],[12,42],[37,37],[-18,36],[-115,-3],[41,54],[8,48],[-27,67],[-41,-23],[-22,10],[-4,55]],[[10025,20349],[52,0],[1544,-291]],[[7298,15541],[64,-96],[175,-290],[136,-177],[132,-77],[118,-47],[105,-73],[84,-41],[126,-33],[115,-23],[59,2],[531,70],[534,136]],[[9477,14892],[251,73],[221,302],[52,112],[60,417],[18,171],[20,58],[68,109],[85,84],[98,46],[505,-2]],[[10855,16262],[-8,-54],[-22,-28],[-12,-76],[41,-19],[0,-93],[-34,-5],[-22,-46]],[[9830,13857],[-30,-59],[-46,-19],[-92,-74],[-52,-7],[-120,-76],[-71,-12],[-49,-31],[-38,-8],[-18,-39],[-6,-87],[-12,-39],[-32,5],[-67,-24],[21,-45],[-68,-53],[-66,-13],[-106,-99],[-10,-44],[-45,-11],[-112,-59],[-39,-67],[-47,-49],[-18,-36],[-99,-85],[-34,-67],[-68,-33],[-27,-34],[-11,-44],[-45,0],[-93,-24],[15,-30],[34,-13],[10,-49],[-13,-18]],[[8376,12514],[-70,0],[-10,-22],[-95,-58],[-33,-11]],[[8168,12423],[-91,-47],[-68,-19],[-55,18]],[[7954,12375],[-51,29],[-10,43]],[[7703,12883],[32,49],[-62,4],[-33,20],[-4,94],[123,109],[25,5],[-16,90],[45,37],[26,38],[-15,28],[-54,-30],[-118,23],[-98,-23],[-34,22],[-37,-26],[-42,55],[-64,39]],[[7638,11047],[102,14],[19,-30],[66,-36],[26,22],[148,-34],[26,-45],[34,-9],[33,-59],[55,-15],[20,-21],[56,-4],[12,48],[41,73],[-94,69],[-5,45],[-30,39],[28,67],[16,4],[27,70]],[[8218,11245],[62,15],[59,37],[55,-19],[68,-66],[28,-3]],[[8490,11209],[40,-28],[-3,-23],[86,-41],[78,-65],[46,-48],[9,-31],[177,-145],[16,-63],[27,-10],[44,-60],[68,-19],[26,-25],[44,-9],[2,-27],[49,-75],[34,-90],[76,-63],[55,3],[68,-61],[44,-27]],[[9494,10274],[-12,-34],[-33,-6],[-44,29],[-30,-6],[-92,50],[-30,-15],[-22,26],[-55,-2],[-39,30],[-87,-41],[-98,68],[-77,-1],[-90,33],[-17,31],[-44,-11],[-3,-32],[26,-48],[-1,-69],[15,-28],[48,-38],[24,2],[46,-39],[11,-48],[-11,-41]],[[8879,10084],[-4,-77],[15,-23],[-14,-62],[-36,-15],[-43,-84],[-60,-2],[-61,45],[-11,25],[-85,78],[-24,60],[-35,24],[-42,4],[-24,27],[-89,56],[-58,0],[-7,-43],[10,-41],[-12,-38],[-75,-30],[-46,11],[-55,38],[-66,4],[-67,56],[-59,74],[-79,19],[-41,42],[-18,45],[-36,21],[-69,-2],[-51,-69],[0,-27],[-47,-21]],[[7590,10179],[-41,30],[-57,91],[-102,58]],[[7209,9541],[124,74],[84,90],[21,9],[-31,75],[35,70],[-23,18],[-5,41],[27,52],[37,-5],[29,22],[14,40],[52,30],[49,-18],[34,61],[-59,55],[-7,24]],[[8879,10084],[28,10],[61,-4],[44,-31],[83,-33],[55,-76],[34,-71],[53,-31],[89,-2],[37,-23],[47,-61],[-21,-33],[-40,10],[-17,-26],[10,-61],[30,-28],[-23,-25],[-14,-48],[-26,-32],[15,-30],[93,-49],[-22,-30],[-26,40],[-33,-6],[-24,-34],[-14,-60],[39,-99],[-9,-27],[42,-62],[9,-31],[-36,-64],[-50,58],[-107,-17],[-87,-70],[-18,-42],[-121,-49]],[[8960,8947],[-33,7],[-39,-45],[-67,3],[-21,-46],[23,-68],[-19,-76],[22,-47],[-20,-69]],[[8806,8606],[-69,11],[-48,69],[-70,80],[20,48],[-16,23],[-64,35],[-36,-14],[-23,22],[-61,0],[-69,56],[-21,53],[-50,24],[-105,-9],[-138,-40],[-35,-43],[-53,-42],[-21,-50],[-37,2],[-33,-58],[-35,-26]],[[15141,12302],[9,69]],[[15150,12371],[157,27],[209,55],[178,11],[1090,185],[591,89],[466,193]],[[17841,12931],[51,-23],[42,-35],[58,-16],[-21,-84],[58,-44],[30,35],[63,8],[-15,-53],[19,-23],[34,39],[89,4],[35,-10],[42,-60],[52,5],[83,-54],[86,-21],[40,33],[34,3],[5,41],[82,10],[79,-5],[10,20],[67,6],[132,39],[29,-7],[41,26],[52,77],[118,-2],[9,87],[81,45],[48,10],[39,43],[2,46],[30,13],[6,32],[80,-25],[59,7],[45,-31],[53,-15],[88,-5],[54,-78],[35,-4],[32,-33],[82,-24],[48,16],[19,55],[68,17],[25,-7],[40,27],[48,-36],[59,4],[39,28],[132,28],[677,164],[1234,295]],[[22964,10967],[578,-1164],[61,-92]],[[23603,9711],[-66,2],[-24,50],[-43,10],[-20,-45],[-49,23],[-62,-20],[-99,34],[-84,-16],[-40,15],[-54,-35],[-87,63],[-27,-7],[-25,32],[-28,-19],[-68,13],[-47,47],[-41,-22],[-90,10],[-36,-11],[-23,56],[-69,17],[-47,-17],[-39,33],[-18,-29],[-29,8],[-76,-7],[-44,43],[-27,8],[-43,57],[-45,14],[-67,47],[-52,-5],[-35,36],[-11,43],[-940,138],[-2533,390],[-852,132],[-407,71],[-1248,207],[-911,113]],[[23603,9711],[201,-304],[-257,-431],[-250,-834]],[[23297,8142],[-33,13],[-299,7],[-875,65],[-732,39],[-1379,-368],[-311,-49],[-929,-155],[-1267,-204],[-215,-549],[-198,-492],[-168,-236],[-400,-573]],[[16491,5640],[-1134,1],[-728,-5],[-502,-37],[-240,1],[-7,56],[20,41],[-11,58],[-95,-14],[-15,-61],[-33,-35],[-49,-4],[-86,-35],[-81,-6],[-62,20],[-74,8],[-91,-38],[-58,-4],[-42,-16],[-37,18],[-18,67],[-7,86],[7,121],[-19,146],[-15,63],[28,32],[31,73],[-38,49],[13,88],[-30,51],[-44,24],[1,48],[-16,155],[10,86],[26,86],[-8,101],[24,107],[-7,62],[-18,54],[9,43],[-12,87],[7,89],[15,94],[24,44],[-14,41],[4,53],[26,41],[-37,52],[1,137],[12,23],[-4,77],[-26,68],[-6,51],[17,93],[-35,63],[18,32],[4,127],[10,17],[-47,157],[-20,42],[2,60],[21,61],[35,44],[-4,29],[20,55],[13,76]],[[13119,8843],[81,-83],[118,-40],[77,5],[52,38],[-17,22],[39,52],[9,62],[-29,116],[43,71],[-6,28],[17,101],[-45,31],[-25,49],[-44,22],[6,28],[52,26],[57,73],[10,83],[-6,34],[-27,22],[-31,-26],[-45,5],[-73,-22],[-86,170],[-59,48],[-7,45],[-32,3],[-7,88],[18,80],[-20,51],[11,43],[-15,57],[47,20],[-5,30],[30,44],[38,4],[-6,71]],[[13239,10294],[55,23],[28,41],[-2,36],[106,10],[41,23],[66,-22],[19,47],[-21,74],[10,64]],[[8960,8947],[44,-60],[22,-93],[25,-39],[63,-34],[28,21],[40,-21],[37,-60],[68,-32],[73,-16],[37,-75],[-8,-62],[71,-135],[68,-20],[30,-69],[115,-31],[75,-12],[34,-54],[101,-38]],[[9883,8117],[12,-20],[51,-20],[86,11],[102,-29],[43,37],[72,40],[74,12],[26,-21],[65,-15],[79,-40],[-9,-28],[41,-11]],[[10525,8033],[59,-30],[16,-88],[18,-48]],[[10618,7867],[-61,-39],[-25,13],[-38,-28],[4,-82],[-16,-3],[-55,-63],[-72,-5],[-34,-21],[17,-95],[-35,-37],[-84,27],[-92,-20],[1,36],[-28,106],[-13,76],[-51,-1],[-49,-58],[-38,90],[-42,7],[-43,-11],[-31,-26],[28,-58],[-24,-30],[-34,22],[-38,-1],[-42,-40],[-26,-70],[-17,-16],[-126,-20],[-33,-48],[-124,83],[-30,7],[-10,-63],[52,-46],[-1,-26],[-75,-19],[8,-34],[-23,-115],[-29,99],[-46,-44],[-98,38],[-83,-34],[-44,4],[-107,-27],[-63,12]],[[8848,7307],[-51,22],[-10,26],[7,64],[15,23],[-42,80],[48,46],[-3,71],[40,59],[41,14],[55,38],[-43,34],[29,19],[14,44],[32,30],[77,14],[34,43],[-39,22],[-13,34],[10,66],[-10,41],[-80,110],[-69,-1],[-63,26],[-54,-70],[-42,69],[-16,72],[22,79],[-37,33],[11,77],[-15,43],[32,34],[48,-29],[30,66]],[[3428,5646],[54,1],[63,-58],[-85,-31],[-44,0],[-13,39],[25,49]],[[3528,6003],[21,-63],[34,8],[-3,-66],[63,107],[-5,-77],[-26,-34],[-45,-8],[-36,-24],[-32,23],[-9,57],[18,23],[-14,49],[34,5]],[[3433,7623],[62,-45],[14,-32],[49,-28],[93,-149],[40,-47],[27,-50],[99,-31],[33,-32],[51,-11],[35,-24],[33,-55],[53,-30],[41,-4],[99,12],[54,-59],[30,12],[13,33],[111,-60],[64,-19],[80,-57],[40,-7],[21,-28]],[[4575,6912],[-47,-42],[-148,-13],[-84,14],[-63,-23],[-42,6],[-31,29],[-4,80],[-17,31],[-88,59],[-96,15],[-67,67],[-60,21],[-51,-70],[-70,-42],[-40,52],[-49,46],[-46,13],[-50,-10],[-34,7],[-43,-13],[-39,-30],[-10,-73],[-52,-14],[-39,-49],[-46,-16],[-27,-71],[-46,-17],[-39,-51],[-34,-5],[-1,-41],[41,-36],[53,-114],[-21,-83],[-22,-42],[32,-37],[-46,-65],[66,-31],[50,-7],[-115,-72],[0,-88],[-22,-41],[6,-31],[-20,-48],[7,-32],[-15,-51],[-58,-28],[-1,-47],[-21,-15],[27,-49],[3,-37],[-28,-38],[50,-62],[19,-91],[-13,-34],[26,-29],[3,-85],[50,-54],[37,-11],[76,11],[71,-9],[60,-23],[74,-12],[64,36],[28,47],[4,55],[-21,51],[18,73],[0,80],[63,-13],[10,55],[-23,35],[22,26],[11,46],[-10,89],[38,148],[42,-24],[36,26],[21,36],[38,-72],[26,-28],[-1,-34],[26,-62],[52,-38],[22,0],[38,-52],[-1,-38],[-26,-36],[-3,-66],[-20,-73],[-26,-48],[0,-77],[33,-49]],[[3942,5474],[-289,-469],[-294,179],[-55,22],[-49,36],[-73,29],[-26,-9],[-41,24],[-47,62],[-108,-23],[-145,20],[-123,-86],[-34,-73]],[[2658,5186],[-21,38],[-158,85],[-113,27],[-48,61],[-35,7],[-127,66],[-160,137],[-7,200],[68,7],[114,71],[-14,68],[-59,24],[-6,37],[-44,74],[2,119],[49,40],[-28,42],[6,36],[-88,41],[-44,-20],[-27,10],[23,117],[156,24],[116,44],[164,-3],[32,66],[66,222],[-45,79],[31,102],[-157,40],[-48,89],[-68,38],[-35,46],[-47,9],[11,66],[54,25],[80,18],[42,79],[12,59],[58,80],[34,21],[257,357],[33,11],[48,-82],[63,-68],[52,-43],[29,9],[62,-22],[44,-3],[-12,-34],[131,-57],[17,-28],[114,-45],[27,-30],[156,48],[15,33]],[[5784,2757],[-43,-162],[4,-38],[-125,-140]],[[5620,2417],[-126,39],[-72,15],[-200,93],[-200,139],[-50,73],[-72,18],[-46,39],[-269,299],[-97,46],[-188,377],[-45,190],[-55,298],[58,90],[59,43],[134,-67],[102,58],[42,-29],[67,-130],[-1,-77],[23,-58],[87,-120],[41,-164],[186,-218],[33,-61],[41,-34],[224,-92],[265,-188],[223,-239]],[[7954,12375],[-82,-98],[37,-34],[135,24],[100,-112],[-2,-28],[-35,-35],[40,-58],[15,-62],[29,-11],[21,-58],[37,-3],[-2,41],[35,12]],[[8282,11953],[61,-76],[25,-10],[72,70],[32,9],[24,-31],[46,-17],[-2,-42],[24,-39],[51,-6],[23,25],[37,1]],[[8675,11837],[21,-31],[-32,-60],[-2,-117],[28,-30],[-69,-31],[-18,-41],[-76,40],[-49,-30],[5,-42],[28,-35],[-50,-71],[88,-71],[2,-58],[-61,-51]],[[8218,11245],[-44,38],[4,34],[-22,32],[-36,-7],[-47,37],[-122,221],[-117,72]],[[6739,29768],[44,15],[58,42],[31,-23],[31,28],[102,15],[14,-20],[65,26],[25,-17],[0,-39],[64,60],[35,-11],[48,7],[15,57],[93,21],[58,-32],[57,31],[17,-7],[37,43],[67,-54],[26,17],[-4,48],[94,50],[64,-16],[43,20],[43,-8],[69,6],[36,-8],[15,-53],[49,38],[27,-16],[40,13],[-1,47],[67,38],[30,-14],[55,-3],[38,33],[35,-3],[3,-92],[34,-3],[76,66],[31,-47],[24,-11],[32,25],[18,51],[62,-51],[40,55],[47,4],[46,18],[-7,-48],[-49,-7],[46,-67],[37,43],[60,-74],[50,-50],[58,29],[7,-41],[94,22],[-28,52],[60,22],[24,33],[30,-14],[36,34],[-15,26],[9,84],[49,4],[22,32],[63,41],[16,53],[84,-32],[48,-32],[38,-46],[43,-111],[20,-32],[10,-70],[60,-47],[20,-47],[-26,-64],[-48,-45],[-33,-73],[4,-84],[28,-71],[-23,-105],[2,-32],[61,-98],[2,-88],[-10,-81],[31,-69],[1,-30],[-46,-71],[-31,-115],[-51,-38],[-27,-48],[-52,-47],[-12,-42]],[[9394,28670],[-21,-60],[-54,-22],[-52,6],[-78,-54],[-9,-56],[-32,-66],[-17,-12],[-101,-26],[-43,-28],[-27,-38],[-68,-7],[-14,-41],[-51,-19],[-80,4],[-98,-6],[-14,-57],[72,-136],[-21,-74],[-49,-53],[-175,-84],[-32,4],[-73,112],[-19,9],[-42,-29],[-35,-63],[1,-38],[48,-27],[65,-62],[5,-88],[-22,-29],[-122,19],[-45,32],[-74,36],[-30,-2],[-62,-33]],[[8025,27682],[-61,-11],[-41,6],[-41,-26],[-32,4],[-38,44],[-27,8],[-35,-21],[-42,21],[-64,-50],[-67,-15],[-39,5],[-36,-33],[-40,14],[-54,-38],[-118,24],[-13,22],[-94,-15],[-11,40],[-43,13],[-28,-23],[-39,2]],[[13239,10294],[-62,-22],[-47,39],[-21,-21],[-56,-20],[-25,-37],[-120,-12],[-8,-15],[-65,-2],[-37,21],[-87,-15],[-43,21],[-23,31],[-78,-47],[-75,28],[-20,30],[-42,10],[-28,28],[-27,101],[-23,56],[-7,57],[7,127],[-12,56],[-36,38],[-4,35],[-50,53],[-66,-9],[-34,10],[-65,-21],[-26,-21],[-77,-2],[-65,25],[-81,15],[-15,27],[-48,8]],[[11773,10866],[-21,19],[4,65],[91,56],[27,29],[-32,142],[63,-7],[-12,69],[31,28],[11,61],[-35,68],[5,56],[28,38],[-27,34],[31,68],[-26,8],[9,63],[38,69],[26,72]],[[11984,11804],[69,-20],[28,-43],[48,-34],[22,27],[46,16],[53,55],[97,-10],[48,-59],[19,-52],[53,-61],[80,-65],[69,-9],[22,-47],[92,-5],[18,13],[59,-15],[43,8],[25,30],[51,17],[49,-89],[-20,-18],[-5,-44],[37,-37],[-1,-49],[-24,-53],[15,-45],[41,-39],[55,2],[15,22],[73,16],[80,-6],[13,-16],[61,0]],[[4650,19029],[25,-50],[-7,-51],[28,-15],[8,-35],[52,-44],[7,-24],[57,-57],[79,-59],[1,-46],[28,-26],[17,-55],[25,0],[-39,-114],[10,-28],[-57,-85],[20,-25],[-13,-39]],[[4891,18276],[-49,-23],[-42,-1],[-28,-35],[7,-68],[-19,-35],[-6,-63],[-26,-12],[-77,-90],[-104,-60],[-144,-35],[-32,-39]],[[4371,17815],[-9,-76],[-30,-47],[24,-65],[-19,-17],[-18,-68],[-53,-14],[-30,13],[-35,50],[-112,-24],[-63,20],[-93,-78],[-198,-40],[-183,-51],[-68,-55],[-8,61],[-38,64],[-61,44],[-47,16],[-79,74],[-11,82],[-37,50],[-67,15],[-51,-21],[-71,46],[-23,4],[-80,-53],[-28,-2]],[[950,17768],[-88,74],[-35,4],[-40,30],[-4,31],[-60,94],[-22,85],[-62,69],[-17,37],[-9,67],[26,12],[20,95],[-23,57],[-8,104],[91,86],[33,18],[65,-2],[66,19],[35,53],[-60,79],[-10,38],[39,59],[31,73],[-18,23],[20,84],[60,-13],[20,18],[53,-11],[35,17],[3,80],[16,33],[-19,32],[74,19],[5,38],[41,11],[74,49],[29,31],[23,60],[51,73],[29,12],[38,114],[-4,147],[3,76],[306,1],[42,17],[-9,56],[-35,20],[-15,49],[21,78],[-60,70],[-8,52],[-19,8],[2,59],[-16,26],[-89,47],[-35,52],[-21,0],[-51,67],[34,54]],[[5910,23842],[71,57],[-40,46],[-36,62],[69,45],[42,47],[44,12],[-1,49],[-45,41],[-57,14],[1,69],[72,24],[60,92],[0,73],[-25,56],[-46,10],[-16,48],[7,27],[108,104],[-34,114],[-47,25],[35,94]],[[6072,24951],[1384,14]],[[7456,24965],[-26,-22],[-19,-61],[12,-47],[-12,-78],[-26,-13],[-10,-55],[15,-21],[-14,-40],[27,-56],[-27,-39],[10,-25],[-16,-53],[22,-40],[59,-31],[8,-41],[-12,-50],[9,-32],[-47,-87],[-37,-21],[-2,-49],[-60,-44],[-27,-58],[-44,-58],[-38,-25],[-41,-88],[-81,-107],[13,-30],[-21,-38],[4,-39],[-59,-148],[-15,-11],[-33,-112],[-18,-28],[-37,-14],[-5,-1935],[-10,-1441],[-2,-252],[-23,-2873]],[[6873,16803],[-262,-157],[-37,-63],[-27,-7],[-90,-111],[54,-59],[-61,-61],[-14,-40],[23,-52],[-75,12],[-62,51],[-33,-4],[1,-11]],[[6290,16301],[-172,208],[-36,72],[-38,51],[17,58],[-72,145],[-69,93],[-87,79],[-51,21],[-58,51],[-23,2],[-69,77],[-39,23],[-12,31],[37,61],[24,17],[16,88],[-46,32],[-27,48],[-39,38],[12,28],[-55,123],[-136,193],[-35,-10],[-31,40],[11,85],[-28,35],[-29,1],[-83,33],[-78,-15],[-40,23],[-41,4],[-89,78],[7,57],[-40,105]],[[1291,13337],[90,-73],[4,-42],[-18,-49],[-54,-28],[-59,36],[-57,-33],[-27,-41],[-74,-51],[-26,-61],[-67,-17],[37,-80],[-16,-11],[6,-58],[-58,-1],[-59,-65],[-28,-71],[-17,-14],[-64,10],[-36,-9],[-4,-28],[-44,-34],[39,-30],[17,-34],[-38,-31],[-49,17],[-9,-60],[-136,13],[-19,-39],[-30,1],[-66,-26],[-47,-34]],[[382,12394],[-1,271],[-97,71],[-138,117],[-146,10],[55,58],[29,96],[44,24],[57,100],[94,36],[80,79],[62,49],[41,-38],[56,24],[74,63],[3,50],[-49,65],[58,76],[63,4],[43,61]],[[710,13610],[30,-37],[43,3],[258,-83],[45,-23],[40,-39],[165,-94]],[[26531,11273],[78,-142],[47,-175],[158,-180],[59,-3],[54,-82],[-227,-14],[-236,-776],[-222,-731],[107,5],[-2,-183],[51,-45],[0,-30],[-32,-55],[-161,-1],[-173,-380],[-324,-692],[-271,-583],[288,-239],[314,-249],[-20,-45],[-53,-71],[-24,-49],[-70,54],[-49,-6],[-37,-66],[-27,-17],[-87,1],[-31,-42],[-25,-69],[-96,-4],[-53,-86],[-37,-12],[-24,27],[19,48],[-17,48],[-45,75],[18,49],[-41,35],[-3,54],[-20,77],[-61,45],[38,53],[-19,70],[6,76],[53,46],[29,40],[-156,118],[-587,287],[-308,146],[-405,205],[-291,161],[-98,57],[-221,119]],[[8168,12423],[4,-36],[-20,-73],[11,-31],[37,1],[32,-58],[35,-6],[30,-39],[1,-44],[32,-5],[-49,-76],[-15,-39],[16,-64]],[[11805,2166],[140,1],[55,16],[26,-33],[43,6],[58,-54],[28,-4],[94,94],[22,-21],[85,14],[39,46],[32,90],[-4,90],[23,78],[6,54],[24,74],[-20,43],[24,41],[23,88],[54,130],[5,88],[32,49],[-13,23],[3,73],[22,32],[52,-16],[32,12],[69,-17],[76,21],[68,7],[43,15],[-15,70],[19,51],[-5,68],[35,85],[115,-35],[39,11],[21,95],[58,147],[1,39],[19,90],[37,110],[35,186],[25,70],[32,163]],[[13362,4356],[1312,0],[1636,25]],[[16310,4381],[2,-151],[-435,-1400],[-366,-1166],[-46,-152],[-48,3],[-40,64],[-14,56],[-43,-43],[-30,10],[-30,84],[-42,40],[-45,-47],[-83,99],[15,46],[-9,43],[32,73],[-36,14],[-10,44],[35,40],[-14,28],[-970,1],[-929,0],[-17,-85],[-33,56],[-29,1],[-33,37],[-471,1],[-29,-30],[5,-38],[-42,-78],[5,-53],[-62,-17],[-23,-111],[-51,-97],[-29,-28],[16,-31],[-22,-76],[-66,-6],[-57,-124],[-27,-84]],[[4625,12178],[44,-24],[-4,-31],[51,-85],[-19,-56]],[[4221,11553],[-72,-38],[-58,-11],[-38,17],[-57,55],[-60,80],[-50,21]],[[3886,11677],[-23,63],[72,46],[-17,85],[85,11],[6,44],[-25,85],[1,41],[47,8],[12,28],[88,-5],[25,60],[-94,49],[13,69]],[[3593,12437],[-41,-64],[-40,-18],[-65,-82],[-23,-11],[-7,-64],[-47,-55],[-136,-113],[-27,-8]],[[3207,12022],[-32,-38],[-42,46],[-60,28],[-40,-11],[-44,65]],[[2989,12112],[24,34],[6,47],[37,9],[12,72],[45,43],[-28,30],[78,40],[39,37],[-18,60],[36,66],[41,23]],[[3886,11677],[-42,32],[-53,19],[-69,42],[-32,70],[-63,-16]],[[3627,11824],[-120,53],[-68,6],[-32,37],[-96,69],[-104,33]],[[13435,19707],[1042,404],[853,331]],[[15330,20442],[56,-110],[10,-43],[-10,-53],[-28,-15],[-5,-51],[-22,-45],[-64,-30],[-32,-48],[-19,-56],[3,-54],[-17,-17],[2,-98],[-78,-80],[2,-50],[41,-67],[19,-53],[19,-7],[35,-89],[-7,-53],[43,-35],[-24,-45],[23,-25],[-7,-30],[65,-98],[5,-41],[62,-13],[4,-70],[32,-27],[-40,-52],[33,-7],[48,-75],[34,-25],[-13,-82],[27,-14],[-5,-63],[-39,-22],[-7,-51],[-25,-15],[-1,-40],[33,-54],[-20,-43],[0,-39],[30,-21],[8,-80],[-40,-12],[-9,-52],[15,-74],[23,-54],[4,-44],[52,-1],[38,-26],[31,-87],[50,-25],[-3,-43],[28,-17],[50,-64],[61,2],[-6,-58],[17,-13],[-26,-95],[-35,-12],[-29,-68],[8,-91],[-8,-48],[4,-67],[-24,-32],[51,-99],[-52,-46],[-13,-50],[-36,-70],[96,-75],[14,-24],[-12,-48],[11,-49],[-47,-10],[-30,-149],[-94,-597],[-186,-1256],[-18,-25],[27,-96],[-21,-66],[-42,-34],[-10,-25],[-42,4],[-111,-11],[-15,9],[-1491,-3]],[[13681,14655],[6,34],[-17,36],[13,87],[-35,95],[-40,18],[-42,-12],[-65,71],[-26,94],[-38,21],[-80,-12],[-41,23],[-39,78],[-58,17],[-53,58],[-40,2],[-90,112],[-146,10],[-50,-6],[-6,37],[-29,5],[-42,36],[-60,23],[-8,28],[-39,-8],[-42,71],[-60,-1],[-26,36],[-31,3],[-11,45],[-43,57],[-63,-46],[-58,-5],[-31,-34],[-46,-6],[-28,36],[-47,-41],[-47,18],[-11,-23],[-55,-22],[-41,10],[-10,-25],[-47,0]],[[11959,15575],[-20,49],[11,43],[-9,58],[-45,40],[-12,36],[-32,-5],[-46,-37],[-60,20],[-48,-13],[-6,30],[-51,-22],[-11,44],[-64,7],[-70,51],[-84,21],[-13,-37],[-28,-15],[-43,26]],[[11328,15871],[-40,25],[-47,109],[-39,-47],[-39,18],[-4,29],[-52,2],[-70,58],[-40,-5],[-23,38],[-32,20],[-20,94],[-67,50]],[[10855,16262],[537,-53],[2445,-134],[-8,41],[-22,25],[-37,-8],[-23,47],[-51,30],[11,53],[-6,58],[28,62],[-30,29],[-62,4],[-10,65],[-48,26],[-33,68],[-56,0],[-63,15],[-70,48],[-76,13],[-6,52],[-18,35],[-95,46],[-17,46],[10,29],[-2,73],[21,28],[-70,36],[-29,36],[-53,0],[-98,85],[8,35],[33,23],[-66,79],[-60,36],[-23,79],[-31,37],[1,59],[-34,29],[28,84],[-55,29],[-1,52],[-75,71],[-37,-20],[-15,136],[-44,110],[42,19],[27,61],[-23,32],[41,29],[-2,75],[-50,144],[-2,55],[30,134],[0,63],[14,51],[-38,31],[-34,2],[-35,68]],[[11782,6973],[70,4],[70,-20],[31,28],[86,-45],[59,33],[15,38],[-8,117],[13,82],[-23,41],[19,37],[-17,24],[17,35],[72,27],[22,-11],[83,2],[2,137],[-9,41],[73,43],[86,26],[70,59],[0,110],[16,83]],[[12529,7864],[37,7],[73,-21],[21,-67],[-6,-35],[18,-115],[-5,-95],[16,-50],[-5,-58],[8,-123],[-4,-40],[35,-140],[51,-101],[37,-44],[15,-78],[4,-105],[-4,-131],[3,-101],[-7,-26],[-5,-147],[14,-36],[5,-225],[8,-113],[-8,-47],[11,-46],[32,0],[-7,-139],[32,-54],[5,-113],[-9,-105],[-16,-68],[15,-34],[-25,-89],[-22,-137],[8,-253],[-14,-128],[-39,-104],[-29,-40],[-41,-14],[-1,-168],[30,-125]],[[12760,4356],[-264,0],[-51,19],[15,35],[-20,56],[-29,-16],[-78,19],[-10,46],[-55,38],[-52,13],[-23,-33],[-69,47],[-11,42]],[[12113,4622],[-59,88],[18,19],[-20,37],[-3,47],[14,51],[-10,57],[21,22],[-14,37],[-79,18],[-36,117],[-17,105],[10,17],[3,108],[15,26],[-31,77],[-51,11],[-6,21]],[[11868,5480],[-8,35],[-29,8],[12,69],[-19,15]],[[11984,11804],[23,80],[52,-6],[62,34],[-13,43],[31,24],[-12,48],[15,31],[43,30],[12,82],[16,32],[-7,53],[-114,47],[-80,21],[-46,51],[-31,18],[-19,40],[12,39],[-21,75]],[[11328,15871],[13,-68],[34,17],[60,-3],[-1,-24],[145,-95],[23,25],[76,-11],[31,-43],[38,-19],[19,-59],[-5,-45],[60,-11],[42,-80],[38,-11],[55,-57],[-19,-36],[10,-39],[-7,-52],[58,-78],[42,12],[43,-6],[113,-65],[106,-47],[7,-81],[14,-46],[-10,-86],[-22,-15],[29,-74],[28,-28],[-14,-38],[30,-137],[84,3],[28,-24],[-14,-63],[18,-48],[-23,-38],[-10,-52],[-18,-20],[15,-34],[-28,-34],[-19,-59],[9,-94],[47,-37],[1,-28],[97,-77],[47,-67],[-1,-77],[-50,-39],[21,-55],[-11,-24],[24,-34],[-13,-35],[96,-42],[74,-2],[23,-26],[40,0],[23,-19],[92,8],[110,-34],[12,-50],[27,-55],[31,-22],[59,2],[50,-54],[7,-46],[40,-7],[7,-29],[58,-76],[-2,-67],[32,-97],[5,-68],[-8,-38],[24,-35],[-42,-60],[37,-81],[20,2],[71,-45],[16,-37],[81,-86],[-7,-161],[-22,-11],[-30,-110],[-1,-53],[29,-23],[79,-129],[55,11]],[[2802,13708],[-33,53],[-29,14],[11,45],[-44,68],[-36,0],[-34,-21],[-42,44],[42,30],[23,34],[-66,46],[-80,-90],[-9,-32],[-56,-12],[-183,-99],[-32,-43],[-30,74],[19,128],[-54,-18],[-85,15],[-20,-21],[-79,-7],[0,-103],[-31,-82],[-32,3],[-39,-22],[12,-34],[39,-17],[-10,-33],[-39,-4],[-17,-59],[-114,-30],[-23,-36],[14,-34],[-14,-32],[16,-26],[-121,-1],[-61,-39],[-49,-8],[-18,-69],[-38,-2],[-68,42],[-16,34],[-85,-27]],[[710,13610],[-9,20],[44,81],[113,128],[76,55],[44,89],[25,3],[13,90],[27,68],[81,40],[29,-14],[71,31],[97,32],[76,49],[24,36],[-78,104],[-14,76],[24,45],[96,-35],[41,-26],[104,-41],[103,-3],[64,31],[-1,34],[36,30],[-39,56],[46,103],[-88,26],[-36,20],[-41,-11],[-125,2],[23,79],[45,18],[31,-11],[96,23],[49,-10],[29,12],[143,-11],[36,21],[53,-7]],[[2018,14843],[53,-120],[5,-96],[48,-17],[94,2],[45,-17],[11,30],[54,-72],[-17,-37],[16,-37],[-36,-91],[-7,-49],[26,-35],[7,-43],[111,-73],[107,-148],[24,6],[47,102],[55,91],[101,80],[17,65],[63,26],[127,95],[30,49],[60,-25]],[[3059,14529],[69,-32],[46,-1],[-24,-47],[-46,-43],[124,-46],[3,-52],[37,-37],[27,-56],[4,-63],[-18,-3],[10,-77]],[[6178,12640],[-41,-10],[-21,-54],[-6,-8],[4,-14],[27,-32],[60,-35],[2,-58],[38,-91],[-16,-21],[-81,-33],[-85,-116]],[[5189,12660],[-23,133],[-5,61],[-30,56],[16,44],[-28,56],[-10,96],[36,22],[17,31],[-56,59],[-45,2],[31,77],[78,23],[-5,32],[-36,34],[-43,112],[-32,39],[-81,77],[-23,70],[-31,45],[-20,2],[-37,63],[-50,28],[-21,34],[-58,45],[-31,69],[-11,69],[24,29],[110,71],[27,31],[-10,48],[-53,29],[-17,56],[-24,32],[-10,53]],[[4738,14388],[49,-6],[67,42],[15,32],[48,24],[75,115],[93,41],[46,56],[61,11],[46,40],[30,47],[8,54],[295,128],[70,42],[197,81],[54,39],[104,31],[166,83]],[[11621,20058],[25,1594],[-5,193],[21,30],[32,4],[-6,48],[54,75],[5,55],[61,33],[-35,20],[46,106],[29,38],[-6,52],[63,43],[12,32],[2,92],[9,45],[-19,52],[1,40],[-26,23],[-19,78],[-19,28],[10,87],[-47,19],[28,71],[-20,70],[93,68],[9,23],[-56,37],[-27,105],[-30,26],[39,24],[-20,46],[-39,13],[-6,46],[44,7],[14,36],[-59,50],[-36,-32],[9,95],[19,27],[-43,62],[-47,8],[14,54],[-66,66],[21,58],[39,-8],[-22,68],[-53,19],[19,44]],[[11633,23928],[24,-17],[51,9],[108,-3],[5,-31],[-17,-46],[37,-27],[40,44],[38,22],[39,47],[72,-44],[35,17],[21,-25],[-2,-64],[22,-21],[47,27],[10,54],[31,-20],[17,-37],[60,34],[32,-25],[37,20],[33,-55],[39,9],[46,-9],[30,23],[75,-61],[68,43],[65,28],[-7,55],[28,70],[116,-43],[40,41],[39,3],[31,37],[41,-29],[74,7],[97,-26],[25,-23],[113,-27],[33,-32],[71,-33],[62,-19],[43,-72],[52,-51],[33,-10],[43,13],[82,-8],[18,-76],[43,-33],[11,-41],[32,-40],[43,-28],[47,5],[51,-34],[80,-25],[108,-17],[20,17],[-31,41],[64,22],[41,1],[4,53],[93,32],[5,-34],[57,-28],[31,-31],[47,-18],[-2,-41],[55,3],[12,-24],[-43,-30],[1,-39],[68,-24],[24,-51],[10,-51],[52,-66],[-4,-55],[89,-63],[89,44],[33,-5],[51,-33],[3,-48],[27,-27],[17,-43],[64,-37],[-15,-37],[26,-15],[24,30],[48,-15],[-7,-46],[32,-80],[33,-29],[54,-18],[9,37],[43,-50],[23,48],[54,-2],[42,23],[38,52],[29,-54],[32,10],[7,-60],[51,10],[-17,-60],[14,-16],[155,-70],[36,17],[31,-29],[77,12],[33,-26],[53,5],[8,-52],[45,-48],[40,-18],[122,-33],[42,30],[38,-26],[79,-2],[47,12],[-2,48],[49,21],[31,-2],[20,-29],[4,-56],[26,1],[39,40],[40,-38],[67,-7],[13,-120],[11,-36],[-1,-69],[-11,-13],[49,-57],[49,-3],[30,-18],[-3,-45],[49,-42],[49,-17],[8,-61],[79,-13],[27,-41],[-15,-49],[79,-10],[40,-48],[40,13],[22,-40],[14,-62],[-6,-52],[32,-72],[28,-27],[68,36],[95,-34],[24,48],[31,-22],[37,-2],[84,27],[20,21],[56,1],[19,-20],[44,19],[23,-20],[58,29],[35,-2],[46,-41],[29,5],[57,-27]],[[17931,21463],[-1351,-532]],[[16580,20931],[-1250,-489]],[[8564,7150],[73,-36],[24,-52],[69,-6],[25,18],[6,36],[36,65],[-27,55],[24,7],[50,48],[4,22]],[[10618,7867],[22,-18],[19,-54],[-54,-203],[55,-46],[16,-36],[52,-17],[-2,-43],[24,-30]],[[10889,7158],[-55,-24],[-99,-147],[-24,-111],[-35,-52],[-41,-18],[-48,-110],[-46,0],[-42,40],[-13,41],[8,48],[-57,149],[-24,1],[-26,-39],[-40,17],[-65,53],[-44,75],[-47,42],[-58,2],[9,-28],[-21,-130],[-31,-83],[-16,-75],[52,-42],[-59,-103],[-9,-33],[-38,-13],[-98,7],[-42,38],[-71,132],[-44,-8],[-47,-66],[-94,-76],[-40,-13],[0,-39],[72,-122],[8,-30],[42,-25],[35,-62],[-3,-36],[-48,-28],[-32,17],[-29,-43],[-38,-18],[-32,-45],[6,-76]],[[9565,6125],[-43,-26],[-56,-9],[-36,80],[78,125],[24,78],[-55,5],[-12,47],[-29,33],[-103,79],[-38,14],[-66,-2],[-47,-20],[30,-33],[-8,-48],[-51,-1],[-35,-59],[-43,-1],[-72,-20],[33,-33],[-7,-54],[10,-43],[-11,-133],[-7,-9],[12,-110],[-118,76],[-69,27],[-25,-3],[4,57],[-74,17],[-73,48],[-78,97],[-11,37],[-34,23],[0,53],[-33,29],[-22,112],[-33,66],[-62,18],[-84,53],[-14,36]],[[5195,7191],[-23,35],[-60,23],[-41,40],[-74,21],[-82,-3],[-115,25],[-115,-30],[-90,3],[-20,-29],[34,-132],[45,-19],[-26,-25],[8,-31],[32,-24],[-9,-45],[-24,-37],[-27,0],[-33,-51]],[[3433,7623],[70,82],[72,14],[40,27],[67,-13],[63,2],[69,-32],[39,-3],[129,39],[56,30],[30,40],[18,88],[-25,27],[52,72],[-40,13],[-3,42],[-22,25],[-51,3],[-34,42],[-39,-3],[-62,26],[-91,51],[-46,40],[-18,32],[-53,-17],[-28,40],[-13,104],[20,97],[-39,45],[-22,50],[-35,36],[43,41]],[[3580,8663],[27,-10],[61,17],[131,58],[19,50],[45,33]],[[3863,8811],[84,5],[37,-33],[72,0],[23,-19],[95,15],[17,-38],[32,-20],[77,-15],[66,43],[15,30],[45,2],[45,-58],[65,13],[23,37],[85,44],[68,-20],[54,16],[43,-18],[117,25],[37,-17],[84,-8],[48,-28],[61,-12],[52,-54],[125,28],[22,16],[76,-19],[99,26],[26,19],[67,3],[54,-39],[44,0]],[[5721,8735],[4,-115],[80,-78],[3,-47]],[[4371,17815],[79,-81],[45,-66],[51,-42],[26,17],[27,-25],[42,-4],[13,-31],[-22,-50],[6,-27],[46,4],[32,-44],[48,11],[30,-20],[-27,-79],[-42,-18],[14,-59]],[[4329,16382],[-51,1],[-25,-81],[-34,-13],[-68,4],[-40,14],[-53,-2],[-40,-62],[-85,-194],[-40,-68],[-26,-63],[13,-38],[-46,-83],[-64,-31],[-21,-49],[-101,-11],[-65,4],[-25,-28],[-94,35],[-19,-20],[-87,26],[-17,-21],[-67,-29],[-43,16],[-55,-6],[-27,-70],[-44,-58]],[[3105,15555],[-33,61],[-131,83],[-62,21],[-48,28],[-4,40],[-40,36],[-16,34],[-37,16],[-35,-84],[-104,-19],[-64,6]],[[2531,15777],[21,105],[-72,80],[-174,10],[-48,47],[-31,2],[-65,60],[-41,64],[-48,-15],[-32,33],[-53,-41],[-25,26],[-62,-40],[-40,47],[5,53],[-21,62],[-1,65],[-33,35]],[[1811,16370],[37,44],[32,15],[10,36],[34,51],[35,81],[3,51],[-39,12],[-15,75],[18,52],[66,44],[72,27],[45,73],[36,12],[16,48],[86,35],[68,39],[-85,149],[-1,26],[-46,27],[40,45],[11,31],[47,-5],[66,33],[45,55],[21,48],[66,66],[8,53],[105,59],[46,1]],[[3784,9366],[-8,-48],[39,-16],[10,-54],[23,-47],[-5,-52],[32,-99],[88,-82],[-69,-74],[-34,-17]],[[3860,8877],[-44,7],[-38,38],[-37,-10],[-48,26],[-46,-11],[-21,27],[-48,4],[-34,19],[-23,-30],[-122,-4],[-201,-101],[-37,-10],[-75,98],[-55,17],[-54,75],[-34,13],[-90,104],[-34,25],[-51,8],[-52,29],[-76,69],[-39,107],[-59,99],[12,50],[-23,64],[9,99],[17,70],[27,43],[-15,15]],[[2569,9817],[104,106],[63,20],[25,39],[68,15],[89,33],[47,38],[138,75],[43,-12],[59,14],[40,-15],[106,-15]],[[3634,13877],[46,-33],[34,5],[3,44],[80,47],[67,-24],[28,12],[26,40],[53,-7],[37,-19],[10,-29],[61,-1],[78,-22],[43,-51],[67,3],[22,26],[-16,62],[29,33],[60,9],[8,40],[40,45],[27,5],[31,46]],[[4468,14108],[30,8],[61,94],[32,10],[23,40],[75,32],[9,69],[40,27]],[[2018,14843],[15,56],[72,45],[25,84],[-38,23],[-42,-8],[-3,31],[53,-12],[-5,46],[57,-28],[27,2],[48,-42],[21,15],[39,-15],[48,33],[-42,75],[54,25],[13,50]],[[2360,15223],[52,19],[-42,51],[36,64],[49,-1],[43,25],[-42,34],[6,101],[10,28],[-59,23],[7,54],[48,7],[53,28],[7,40],[-21,30],[24,51]],[[3105,15555],[26,-31],[16,-67],[1,-81],[21,-27],[-15,-38],[73,-45],[61,-58],[-36,-69],[-33,-23],[-18,-50],[-27,-27],[-24,-108],[-60,-21],[-59,-119],[-1,-26],[-76,-118],[39,-7],[-21,-44],[31,-15],[37,27],[65,-43],[-46,-36]],[[16491,5640],[-193,-275],[12,-984]],[[13362,4356],[-602,0]],[[12529,7864],[25,42],[-7,42],[-25,40],[-7,76],[-28,64],[0,56],[-26,58],[16,53],[-15,30],[12,58],[-6,82],[-20,18],[-2,48]],[[12446,8531],[84,-3],[25,17],[79,-6],[39,36],[-15,71],[21,77],[-15,73],[8,36],[51,43],[28,-19],[53,2],[20,-29],[97,14],[58,27],[56,-25],[28,28],[31,-33],[25,3]],[[3636,25309],[72,8],[7,19],[-31,46],[11,55],[48,68],[62,27],[12,32],[-8,49],[51,50],[43,17],[114,7],[79,-32],[92,39],[33,34],[54,126],[61,28],[18,38],[-25,39],[19,43],[13,78],[22,28],[68,47],[42,17],[93,2],[60,12],[52,-17],[40,-50],[64,-1],[60,-35],[76,-13],[22,-46],[82,-7],[46,8],[57,93],[69,39],[85,15],[37,30],[20,55],[2,49],[64,104],[60,46],[106,11],[110,2],[74,21],[107,-9],[68,68],[15,64],[-16,50],[16,33],[63,10],[49,-39],[54,-98],[50,1],[27,31],[62,42],[24,53],[2,79],[-37,58],[-2,31],[45,6],[89,-54],[66,-74],[52,65],[61,24],[65,-7],[7,35],[-33,52],[4,36],[31,15],[56,-28],[45,-50],[24,-5],[69,45],[109,133],[65,-18],[34,-66],[35,6],[17,35],[-4,36],[-26,31],[-2,51],[27,13],[49,-35],[2,-53],[-22,-36],[12,-22],[45,49],[108,51],[6,89],[17,48],[41,19],[32,41],[-6,35],[-33,58],[71,-36],[30,-66],[-4,-90],[51,3],[81,35],[73,87],[8,47],[55,83],[72,3],[41,-33],[15,-55],[10,-90]],[[7844,27277],[-32,-75],[6,-66],[-74,21],[-13,-22],[36,-55],[12,-56],[-10,-41],[-25,-28],[-50,-2],[-23,78],[-28,46],[-28,1],[-42,-96],[41,-31],[12,-30],[11,-83],[-37,-48],[-84,-41],[-28,32],[-30,-24],[-6,-41],[40,-71],[-57,-27],[16,-27],[60,-31],[38,-59],[-16,-31],[-87,45],[-53,20],[-78,-22],[-9,-50],[19,-41],[-68,-9],[-70,-25],[-90,10],[-69,-42],[-3,-58],[-94,-59],[-30,53],[-62,13],[-96,-34],[-91,12],[-16,-15],[11,-84],[-19,-12],[-55,46],[-48,21],[-36,-7],[-62,-77],[54,-19],[50,-55],[21,-60],[3,-53],[-47,2],[-112,-35],[-30,-41],[60,-33],[30,4],[21,-26],[-24,-26],[-17,-65],[46,-2],[-7,-53],[-111,-61],[-4,-54],[-39,-29],[-27,40],[43,32],[-11,47],[-71,-6],[-33,-25],[-20,-77],[-5,-56],[-32,4],[-32,40],[-29,7],[-68,-11],[-17,-77],[70,18],[20,-10],[9,-56],[37,-48],[-82,-81],[-56,-17],[-49,-29],[-34,-35],[-50,-15],[22,-66],[43,44],[45,-25],[-3,-54],[12,-24],[43,4],[26,-122]],[[10025,20349],[-17,39],[-2,47],[-42,14],[-22,70],[10,36],[-55,88],[-58,56],[7,51],[31,73],[-18,12],[-77,-55],[-31,-7],[-44,59],[12,24],[59,5],[-10,34],[-102,-15],[-64,38],[-19,86],[56,23],[-3,81],[-22,1],[-10,-58],[-65,-53],[-21,86],[24,26],[104,44],[-14,35],[-111,-19],[-13,33],[30,24],[78,12],[-10,48],[-50,0],[-32,-19],[-14,48],[33,26],[91,21],[41,37],[11,36],[-48,103],[-47,17],[70,53],[96,87],[14,54],[-39,25],[-61,-23],[-25,17],[17,65],[18,24],[96,49],[59,51],[-9,31],[-105,-1],[13,57],[64,118],[59,53],[8,45],[-24,53],[24,30],[-24,20],[-55,-21],[-17,47],[44,35],[75,-1],[59,-40],[24,-3],[57,55],[88,134],[78,35],[11,29],[-25,50],[24,48],[10,64],[-41,67],[9,53],[-30,17],[-20,94],[54,23],[76,-4],[-17,87],[-40,40],[13,30],[-8,97],[-48,24],[-25,53],[8,41],[-4,71],[53,58],[3,81],[-82,64],[-26,33],[-49,89],[-76,116],[-64,61],[5,58],[-40,33],[25,62],[43,10],[78,0],[-11,63],[-92,26],[1,53],[30,4],[54,-21],[18,29],[-23,95],[-41,90],[-103,112],[3,31],[30,25],[35,-19],[19,-72],[21,-33],[52,13],[31,64],[-11,31],[-35,25],[18,45],[26,7],[63,-13],[0,53],[-51,3],[8,36],[34,21],[4,34],[-21,34],[-46,15],[-51,1],[15,59]],[[9989,24965],[19,71],[26,20],[17,-74],[23,-16],[31,21],[9,55],[-18,52],[20,31],[57,-29],[37,34]],[[10210,25130],[-43,-72],[28,-36],[-18,-47],[54,4],[34,-12],[24,-37],[33,0],[17,41],[36,7],[37,-66],[35,-11],[66,31],[98,9],[57,-72],[9,-39],[-16,-31],[-37,-17],[-23,-39],[24,-53],[26,3],[20,52],[51,26],[54,-29],[13,-37],[-24,-55],[37,-45],[30,37],[11,52],[-4,50],[45,26],[39,-35],[-32,-44],[-10,-64],[7,-45],[46,-45],[83,-19],[90,-49],[60,11],[34,-5],[25,-44],[33,-15],[52,37],[31,-8],[31,-93],[4,-48],[-12,-80],[-36,-59],[15,-26],[71,-45],[29,-8],[33,-53],[56,-63],[38,-27],[62,-15]],[[1807,15177],[44,-22],[-43,-23],[-1,45]],[[1825,15333],[-46,-34],[-43,43],[31,27],[-17,37]],[[1750,15406],[63,-51],[12,-22]],[[1127,15682],[41,-13],[82,-66],[57,-12],[84,-40],[80,-64],[35,-76],[30,-17],[91,-20],[106,-59],[59,-49],[-19,-35],[6,-46],[-65,21],[-34,-6],[-36,46],[20,27],[-63,41],[2,24],[-50,26],[-102,7],[-44,-33],[-27,-40],[-23,31],[-61,26],[-51,-52],[-36,12],[-55,78],[46,8],[53,71],[-29,29],[12,22],[-65,79],[-44,80]],[[992,15851],[53,-71],[54,-25],[6,-46],[-53,24],[-46,1],[-34,56],[20,61]],[[11773,10866],[-108,-96],[-21,0],[-81,35],[-3,-63],[-33,-22],[-77,10],[-30,-35],[-44,-1]],[[2187,23826],[-703,1339],[-394,632],[-237,410]],[[853,26207],[41,-26],[67,34],[64,17],[61,-15],[74,19],[20,31],[94,8],[27,-51],[20,32],[43,-26],[96,22],[26,27],[34,-2],[44,59],[18,53],[71,-13],[49,7],[50,35],[91,-7],[8,50],[113,55],[25,37],[10,78],[67,31],[41,42],[27,-15],[37,11],[51,-10],[42,25],[78,-10],[124,22],[53,-51],[37,-3],[27,-23],[83,-1],[59,-13],[8,28],[36,5],[22,37],[111,16],[9,-23],[64,3],[70,-18],[30,-51],[43,-17],[45,-39],[48,17],[39,-10],[36,15],[124,-14],[114,-2],[123,65],[23,20],[49,-5],[13,33],[72,0],[34,26],[26,-10],[54,53],[3,54],[36,17],[29,57],[39,30],[36,-4],[34,24],[79,-9],[33,-16],[73,17],[38,-18],[20,17],[29,-33],[44,-8],[30,31],[47,5],[36,64],[43,-21],[31,36]],[[8025,27682],[-136,-79],[2,-36],[33,-9],[61,29],[34,-21],[-17,-35],[-39,-23],[-24,-57],[5,-64],[-24,-103],[-76,-7]],[[9477,14892],[119,232],[18,237],[-82,403],[-15,26],[30,76],[-2,28],[47,46],[-36,34],[-18,93],[15,57],[28,5],[39,50],[65,45],[0,30],[119,72],[74,23],[-15,40],[17,58],[44,15],[-16,54],[25,22],[15,96],[33,5],[3,58],[-30,12],[-4,77],[9,63],[40,4],[-9,38],[-282,420],[81,30],[21,42],[-2,64],[25,54],[36,33],[2,43],[49,45],[48,7],[29,74],[92,82],[-4,19],[64,43],[1,39],[59,-2],[81,40],[4,24],[-47,24],[-15,31]],[[2052,8552],[-51,34],[-32,52],[-68,56],[-54,57]],[[1847,8751],[-78,224],[4,58],[52,-7],[35,-20],[-30,-81],[42,-1],[14,61],[-3,81],[38,12],[83,-53],[41,12],[65,-36],[-2,41],[-26,21],[-7,40],[-35,19],[-31,42],[-87,17],[-35,-11],[-50,26],[-36,35],[168,3],[74,65],[74,34],[50,-8],[25,-72],[65,24],[28,-21],[19,35],[43,-43],[5,-48],[-14,-33],[35,-34],[-8,-128],[-33,-19],[-24,-53],[0,-59],[-49,-210],[-41,-52],[-68,9],[-65,-13],[-33,-56]],[[9712,3245],[-6,15]],[[9706,3260],[17,47],[-2,69],[18,15],[-5,46],[40,238],[16,22],[-26,76],[38,42],[14,82],[-26,28],[16,38],[33,25],[-2,46],[-21,10],[7,86],[-13,37],[15,84],[-3,47],[20,36],[-9,66],[34,76],[41,12],[38,-43],[104,-26],[26,36],[28,-24],[65,-100],[43,-25],[47,-2],[55,23],[26,-33],[81,-5],[17,-61],[41,11],[33,-55],[39,-1],[38,-30],[102,-11],[30,49],[19,76],[24,34],[30,76],[-8,32],[60,30],[14,59],[63,24],[27,-23],[44,1],[54,-61],[50,-33],[33,0],[13,-47],[31,-12],[17,-58],[49,-68],[19,-43],[43,-37],[103,14],[51,19],[61,-46],[86,-48]],[[11604,4080],[0,-40],[-40,-67],[-22,-7],[-12,-83],[2,-55],[-19,-18],[6,-47],[-24,-46],[7,-60]],[[8675,11837],[-14,39],[-56,34],[30,69]],[[9845,1880],[-634,-8],[-25,-16],[-199,46],[-16,-42],[-82,-6],[-43,-24],[-82,-11],[-88,34],[-21,-23],[-50,-5],[-61,36],[-41,43],[-24,-1],[-265,324],[-273,33],[11,108],[-73,85],[-112,39]],[[7767,2492],[22,101],[-6,17],[53,46],[24,-25],[65,8],[10,9],[42,-118],[94,-42],[53,-5],[46,-19],[37,-13],[37,6],[0,61],[84,45],[111,21],[19,19],[60,-20],[134,64],[-16,143],[53,15],[42,-12],[17,37],[92,8],[54,-16],[60,13],[132,7],[26,-47],[33,-19],[-29,-46],[61,-117],[24,-16],[0,-62],[40,-79],[56,2],[85,-44],[12,12]],[[6873,16803],[565,340],[29,15],[63,6],[22,39],[50,47],[24,-4],[62,36],[27,33],[50,-8],[40,72],[45,22],[49,45],[88,7],[38,38],[63,-1],[48,23],[-3,34],[34,24],[-12,48],[29,18],[0,47],[34,20],[34,-6],[63,27],[-12,24],[30,43],[76,19],[41,43],[-44,84],[30,54],[-19,39],[19,28],[-7,44],[40,15],[32,41],[25,69],[63,40],[-15,59],[9,49],[-48,71],[0,51],[25,37],[39,-1],[2,55],[-12,43],[11,72],[-33,1],[-5,48],[49,77],[96,27],[85,7],[-11,51],[61,2],[14,38],[45,49],[3,27],[46,59],[136,112],[-18,32],[31,64],[-15,47],[54,12],[-17,72],[36,40],[2,66],[29,29],[20,60],[50,-4],[18,37],[-19,109],[42,20],[-37,51],[39,35],[19,63],[38,44],[62,18],[-9,37],[743,-8]],[[1811,16370],[-66,-2],[-34,-20],[-47,6],[-41,-32],[-23,8]],[[4349,15794],[-11,-34],[-221,50],[-68,-5],[-52,-35],[-20,-49],[-37,-28],[-6,-76],[-69,-17],[-17,12],[-55,-22],[-24,-46],[-55,-48],[14,-48],[-17,-58],[43,-101],[-13,-56],[9,-76],[-27,-43],[7,-63]],[[3730,15051],[45,-71],[-14,-102],[-17,-11],[25,-68],[-4,-29],[112,-80],[91,-24],[17,-56],[-44,-47],[18,-20],[0,-58],[51,-4],[44,-30],[-13,-72],[68,-43],[-1,-28],[45,-3],[146,-45],[23,-30],[119,-77],[27,-45]],[[853,26207],[-149,233],[-161,270],[-159,276],[-236,393],[54,-17],[25,36],[38,2],[96,-43],[53,12],[5,30],[59,20],[45,-3],[44,-32],[70,16],[50,-32],[23,13],[52,-6],[84,10],[41,-21],[16,27],[39,-42],[34,23],[84,-42],[35,8],[86,-23],[45,6],[58,-36],[39,11],[41,-28],[21,7],[29,-42],[66,46],[33,-29],[53,-9],[51,-39],[48,24],[62,16],[22,26],[86,-3],[92,-28],[41,-22],[3,-45],[-33,-35],[-3,-40],[37,-60],[32,-1],[28,-25],[25,-68],[-10,-25],[150,32],[126,42],[101,15],[14,33],[38,11],[43,59],[46,26],[76,7],[39,31],[61,-47],[28,17],[8,65],[75,31],[34,-7],[60,34],[69,10],[55,55],[35,13],[36,120],[29,7],[25,105],[31,6],[17,34],[67,59],[46,59],[35,20],[8,64],[-6,85],[64,73],[47,33],[50,8],[23,34],[67,4],[35,-25],[28,29],[75,-11],[46,30],[99,3],[47,-28],[34,3],[28,-32],[130,-56],[45,-54],[60,5],[72,239],[34,-27],[52,50],[15,44],[50,31],[10,58],[25,37],[46,14],[3,28],[65,33],[40,-11],[14,32],[65,17],[43,34],[19,-13],[51,35],[5,32],[36,6],[14,25],[-28,55],[36,44],[61,-21],[77,16],[55,-9],[8,71],[-26,34],[10,30],[85,11],[42,-32],[70,42],[90,-20],[19,-33]],[[3764,11337],[-54,37],[28,32],[-71,41],[-55,11],[-11,32],[8,50],[-57,41],[-7,44],[-41,68],[11,54],[78,61],[34,16]],[[4474,11458],[-5,-67],[75,-93],[-6,-52],[-32,-61],[-29,-96],[-48,-44],[-66,-14]],[[9565,6125],[68,-5],[31,-53],[52,-46],[52,-86],[-21,-44],[6,-43],[-21,-15],[-32,-65],[20,-65],[-44,-34],[15,-29],[-33,-35],[6,-107],[-130,-17],[-50,-83],[-66,-24],[-5,-52],[49,-37],[29,-57],[-24,-55],[-12,-58],[-1,-83],[15,-40],[-43,-58],[27,-93],[26,-44],[12,-49],[-3,-57]],[[9488,4691],[-12,-37],[-51,8],[-31,-63],[-22,-114],[2,-137],[-46,-124],[5,-79]],[[9333,4145],[-73,-31],[-44,-49],[-31,25],[-103,14],[-29,27],[-38,-7],[-17,-44],[-53,-30],[-78,17],[-56,-47],[-69,-8],[-31,-43],[-51,28],[-49,13],[-4,27],[-62,7],[-54,36],[-7,29],[-77,75],[-25,-10],[-95,7],[-4,91],[50,63],[-7,65],[-88,32],[-35,41],[-39,23],[-87,8],[-55,22],[-10,21],[-151,20],[-181,89],[-44,85],[-36,51],[-40,31],[-29,43]],[[11868,5480],[-56,-38],[-44,-97],[-75,-55],[-50,-13],[-2,-28],[-94,0],[-58,-15],[-27,20],[-57,-56],[-98,-27],[-46,-49],[-66,-49],[-43,19],[-27,-11],[-23,-62],[-44,-19],[-112,12],[-19,34],[-47,7],[-23,-37],[-66,25],[-60,-8],[8,-39],[-31,-29],[-46,-11],[-8,-43],[-54,-76],[-32,-5],[-146,53],[-97,101],[-41,72],[-102,15],[-29,-22],[19,-57],[-27,-50],[-7,-73],[-70,-94],[22,-39],[-18,-53],[-92,-13],[-35,10],[-24,-41],[-86,-47],[-67,39],[-114,40],[-85,20],[-81,0]],[[6978,4471],[-5,-99],[96,-26],[4,-25],[81,-79],[76,-166],[32,-97],[45,-45],[-3,-36],[-52,-49],[21,-88],[80,-68],[81,-41],[6,-88],[-11,-29],[17,-32],[-11,-38],[18,-76]],[[7453,3389],[-118,73],[-84,30],[-39,-10],[-66,18],[-77,-6],[-44,37],[-37,8],[-60,69],[-42,34],[-120,42],[-59,-18],[-27,-40],[-46,-6],[-61,-32],[-35,-34],[-60,9],[-44,19],[-68,-16],[-61,-82],[-48,-108],[-54,-172],[-26,-29],[-63,-30],[-76,-82],[-19,-80],[-61,-39],[-174,-187]],[[5620,2417],[88,-33],[36,-40],[12,-65],[21,-33],[-10,-92],[-42,-24],[-228,-68],[-145,-8],[-52,11],[-215,-23],[-214,72],[-278,2],[-136,68],[-329,9],[-94,-35],[-239,11],[-323,-7]],[[3472,2162],[17,250],[7,171],[-89,141],[-40,87],[-138,170],[5,688],[-258,471],[-152,219],[-115,139],[-45,-10],[-106,-3],[-43,10],[-87,90],[-58,21],[44,103],[18,110],[-8,68],[-22,80],[50,31],[13,60],[51,48],[142,80]],[[3942,5474],[98,7],[55,-28],[58,95],[34,118],[8,70],[38,35],[55,-51],[23,-60],[107,-100],[85,-118],[56,-61],[36,-91],[88,-95],[43,-30],[187,-96],[36,-4],[75,-38],[38,8],[34,-30],[34,6],[22,65],[51,26],[17,77],[34,43],[39,19],[31,-8],[24,-34],[62,24],[88,2],[63,-11],[22,34],[-34,19],[28,63],[41,147],[-12,72],[35,-10],[78,20],[33,59],[44,38],[37,4],[62,87],[77,-17]],[[4165,5822],[44,-45],[-51,-39],[-29,6],[20,67],[16,11]],[[5086,15785],[-61,-164],[-59,-59],[-96,-78],[-123,-142],[-100,-109],[-25,-58],[-30,27],[-19,-108],[-25,-70],[-50,-87],[-36,-37],[-76,-10],[-72,27],[-65,-20],[-39,22],[-54,75],[-81,-19],[-49,42],[-14,76],[-16,27],[-51,-7],[-54,11],[-22,-24],[-68,-16],[-71,-33]],[[15150,12371],[-5,55],[15,23],[65,2],[9,19],[-31,42],[28,10],[-17,39],[-1,68],[50,32],[8,38],[-36,103],[16,18],[-2,79],[34,59],[-38,65],[19,49],[-62,3],[-50,60],[-26,4],[-45,57],[-99,20],[-58,38],[-25,-26],[-47,21],[-31,65],[-86,-6],[-38,27],[13,64],[-50,-4],[-47,20],[-12,23]],[[14601,13438],[-15,34],[2,51],[-22,16],[22,42],[-32,50],[-63,44],[43,12],[-32,64],[-41,15],[21,31],[3,95],[31,26],[-16,38],[-56,25],[-74,92],[-43,99],[-67,47],[-40,-13],[-32,11],[-17,31],[-47,20],[-52,60],[-41,-11],[-69,41],[-46,79],[-42,5],[-49,42],[-23,89],[-32,5],[-91,77]],[[16580,20931],[-12,-560],[8,-438],[9,-40],[33,-62],[123,-99],[64,-40],[228,-161],[97,-48],[260,-193],[63,-57],[29,-51],[58,-139],[35,-26],[30,-73],[28,-16],[41,-65],[0,-42],[53,-36],[64,-1],[16,-38],[42,-37],[16,-68],[16,-15],[0,-50],[34,-28],[6,-67],[31,-67],[-2,-59],[25,-30],[27,-83],[-2,-69],[11,-23],[-7,-88],[6,-32],[-3,-127],[31,-64],[-6,-65],[-15,-27],[-12,-141],[-33,-42],[16,-43],[10,-115],[22,-38],[-51,-512],[-34,-306],[-28,-85],[16,-62],[-44,-87],[-32,-8],[-38,40],[-65,-21],[31,-24],[9,-59],[24,-36],[25,-75],[-20,-47],[0,-36],[-35,-44],[-85,-44],[-19,-25],[-42,-127],[-26,-47],[-20,-211],[8,-48],[-14,-52],[24,-39],[1,-44],[-21,-39],[1,-57],[-29,-71],[24,-54],[35,-32],[-10,-101],[39,-76],[14,-56],[-18,-65],[21,-29],[1,-64],[24,-37],[-4,-106],[-45,-1022],[12,-18],[-13,-53],[-29,-33],[-21,28],[-93,-36],[-36,-30],[-97,13],[-60,26],[-83,-15],[3,-66],[57,-61],[50,8],[64,-36],[8,-34],[55,-7],[60,-38],[83,-30],[2,-36],[51,-34],[25,21],[65,-29],[10,-91],[66,-15],[-1,-49],[26,-14]],[[11604,4080],[23,-28],[86,-21],[40,22],[104,3],[102,-40],[60,39],[31,103],[-24,55],[13,37],[-12,37],[44,14],[-19,38],[10,39],[-21,24],[27,51],[-6,56],[-9,8],[23,66],[5,14],[-13,15],[5,11],[40,-1]],[[14601,13438],[-45,-33],[-48,-64],[9,-43],[22,-14],[10,-51],[-27,-31],[-7,-120],[-31,-35],[4,-60],[-75,-44],[-19,-74],[-45,-30],[17,-38],[-32,-94],[-75,-13],[-7,-55],[-56,22],[-35,-1],[-20,-42],[26,-45],[-60,-30]],[[14107,12543],[-27,27],[-43,-1],[-56,67],[-37,25],[-8,68],[17,39],[1,58],[20,27],[9,63],[-56,59],[5,40],[26,24],[-23,33],[-4,53],[-34,48],[-9,44],[-30,31],[6,41],[-42,36],[4,22],[-36,34],[-13,88],[-43,77],[-33,13],[-24,52],[-42,28],[9,53],[-15,37],[3,51],[-63,48],[-6,32],[-46,23],[-41,39],[-75,38],[-35,65],[2,36],[-36,40],[-32,14],[-37,47],[3,56],[-25,6],[-43,-28],[-37,12],[-6,65],[16,56],[-55,40],[16,26],[7,58],[-25,5],[-23,55],[-69,54],[-81,-16],[-39,27],[-26,-13],[-36,19],[-2,58],[-46,25],[9,40],[52,5],[54,57],[2,35],[-54,38],[25,32],[-12,46],[-69,37],[12,43],[-26,20],[-26,-23],[-77,46],[14,34],[-27,69],[-33,7],[-7,67],[-60,44],[13,20],[-42,30],[13,21],[-72,86],[-40,-22],[-67,59],[-11,47],[-81,50],[7,25],[-55,8],[-21,-24],[-55,-6],[-22,15],[-47,-37],[-39,-6],[-16,36],[-51,-21],[-24,30]],[[2360,15223],[4,15],[-70,114],[-58,-12],[-31,-30],[-32,-5],[-140,39],[-60,8],[-70,41],[-67,-6],[-11,-54]],[[1750,15406],[-38,27],[6,49],[-59,72],[5,40],[-18,20],[15,40],[54,24],[19,-24],[46,29],[3,53],[37,48],[39,-6],[71,-38],[40,51],[5,74],[41,6],[12,63],[-50,5],[-17,25],[-65,-54],[-46,15],[-30,31],[-69,30],[-48,-36],[-38,-10],[-43,48],[-68,51],[-52,7]],[[10132,9684],[7,-41],[-24,-38],[36,-21],[47,-141],[43,-54],[9,-51],[-49,-26],[-43,-41]],[[10158,9271],[-30,-7],[-34,-78],[39,-30],[16,-57],[-48,-16],[-45,12],[57,-116],[-46,-31],[34,-67],[4,-46],[-14,-49],[-52,-24],[-1,-26],[31,-48],[-24,-45],[-36,24],[-36,84],[-45,-22],[-51,10],[10,-45],[-45,-52],[19,-49],[-36,2],[-24,-22],[22,-70],[61,-114],[46,-63],[-24,-38],[6,-71],[-13,-72],[-16,-28]],[[2989,12112],[-24,30],[-48,12],[-24,-27],[-62,41],[-55,-25],[-7,-38],[-58,-17],[-6,-31],[-39,-48],[-62,-19],[-20,-45],[-55,-6],[-16,-35],[-63,7],[-14,-27],[-11,-185],[18,-32],[-51,-23],[-60,-1],[-117,-99],[-50,-14],[-15,-20],[-49,-4],[-11,-21],[-97,5],[-32,-26],[-12,-37],[-55,-36],[-48,7],[-52,-18],[-178,-34],[-49,-39],[-224,-115],[-27,-27],[-58,-21],[-16,-20]],[[1242,11124],[-103,34],[-212,120],[-55,-6],[-20,17],[-1,47],[-54,-34],[-33,50],[-37,87],[17,58],[-8,35],[17,44],[-21,75],[-6,63],[-37,42],[-19,57],[1,38],[-287,284],[-2,259]],[[6483,10087],[-26,66],[-29,40],[-14,62],[-42,65],[-54,56],[-49,76],[-13,-15],[-74,20],[-12,24],[7,54],[-27,67],[-53,35],[-36,63],[-37,23],[-32,-45],[-75,8],[-45,62],[-207,4]],[[5627,10802],[26,19],[22,68],[-9,42],[69,122],[-51,74]],[[6846,10610],[-95,-25],[-61,7],[-65,-33],[-39,-5],[-38,-47],[-53,-17],[-59,-38],[32,-50],[1,-36],[35,-58],[2,-74],[34,-76],[-2,-32]],[[5829,9593],[-60,64],[-81,55],[-75,-29],[-8,49],[11,69],[22,17],[-7,66],[17,92],[41,51],[22,51],[-3,56],[22,35],[-23,30]],[[8376,12514],[13,-34],[50,12],[23,-61],[47,6],[16,-42],[47,-60]],[[7164,11966],[42,49],[-31,40],[-28,62],[-44,14],[-3,32],[-102,81],[63,-8],[43,38],[103,-28],[-32,155],[-63,-1],[-128,74],[-31,6],[-4,51],[15,46],[-22,18],[-18,-14],[-67,53]],[[2840,8318],[34,3],[35,37],[60,9],[70,-8],[19,-66],[-16,-34],[52,-38],[5,-79],[-31,-51],[-71,-68],[-58,19],[-61,-8],[-24,11],[-45,65],[10,111],[-2,56],[-38,-4],[-5,38],[26,52],[35,2],[5,-47]],[[3580,8663],[-43,26],[-33,-16],[-90,-74],[-23,69],[-41,15],[-62,-59],[-63,-14],[-124,-106],[-42,-12],[-55,1],[-73,-14],[-88,11],[-49,-37],[21,-44],[-35,-30],[-60,-27],[-45,-7],[-45,-39],[-3,-32],[-44,-57],[2,-81],[-156,127],[-170,46],[-19,58],[-188,185]],[[1847,8751],[-102,44],[-42,9],[-41,39],[-67,152],[-67,92],[84,101],[-31,113],[-53,115],[-81,98],[34,41],[-35,61],[4,64],[-63,101],[-42,9],[-9,37],[21,28],[45,0]],[[1402,9855],[124,23],[32,-6],[59,18],[85,52],[196,59],[47,3],[50,24],[82,-23],[25,-65],[17,-16],[106,-49],[198,-48],[32,12],[55,-23],[59,1]],[[3860,8877],[3,-66]],[[1402,9855],[11,29],[-32,37],[12,80],[-39,155],[8,19],[-29,43],[-18,76],[-1,98],[-14,45],[34,55],[-81,71],[21,119],[-82,68],[-88,107],[34,83],[101,82],[22,38],[-19,64]],[[2989,12112],[-23,-75],[-43,-13],[-51,-48],[-12,-52],[8,-115],[51,-40],[-27,-25],[-1,-87],[-30,-74],[20,-29],[-20,-50],[14,-57],[-25,-36],[6,-117],[76,-11],[7,-118],[-31,-94],[140,112],[56,-17],[69,42],[95,-26],[19,-37]],[[14107,12543],[5,-32],[34,-29],[42,-78],[19,-59],[6,-116],[27,-67]],[[5302,9908],[-42,-41],[-11,-85],[41,-60],[57,-30],[50,20],[20,-37],[42,-8],[15,-36],[51,-41],[25,-48]],[[5550,9542],[-81,-16],[-101,12],[-128,0],[-114,8],[-68,31],[-68,64],[-46,17],[-48,42],[-94,47],[-5,74],[-82,36]],[[6128,8578],[-103,51],[54,88],[2,33],[57,94],[7,141],[-6,22]],[[7631,8388],[-63,-33],[-26,-68],[-74,-35],[-48,-62],[-44,-96],[-70,-103],[-47,-87]],[[5550,9542],[21,-28],[-94,-56],[-99,-40],[1,-25],[95,-87],[94,-51],[65,-24],[67,-69],[-52,-59],[38,-58],[-1,-85],[-25,-36],[14,-44],[38,-47],[-7,-39],[16,-59]],[[9333,4145],[22,-61],[13,-87],[-13,-26],[-73,-21],[1,-70],[16,-110],[-5,-49],[13,-78],[-15,-61],[7,-63],[-7,-131],[65,-13],[20,-110],[-3,-59],[27,-24],[76,36],[56,-20],[36,54],[59,-18],[78,26]],[[7767,2492],[-148,50],[-61,34]],[[7558,2576],[-37,70],[-46,-8],[-10,-31],[-44,-29],[-21,22],[-74,16],[-16,22],[0,52],[-30,64],[27,95],[51,46],[14,50],[55,36],[28,88],[-6,100],[-11,37],[18,32],[-28,43],[-25,78],[50,30]],[[7558,2576],[-47,-29],[13,-54],[-11,-35],[15,-41],[-29,-61],[-1,-43],[-57,-126],[-16,-145],[-17,-37],[14,-44],[-23,-29],[9,-56],[-86,-37],[-8,-36],[-55,-30],[-136,-32],[-452,-118],[-34,-64],[-31,21],[-75,15],[-117,-66],[-45,-199],[-4,-47],[-50,-128],[4,-83],[-43,-21],[-280,-103],[-98,-110],[-120,-1],[29,-261],[-251,-154],[-117,-210],[-278,-66],[-115,-23],[-453,-104],[-54,-19],[-362,50],[-105,8],[-74,70],[-112,37],[10,78],[-27,186],[11,68],[37,-5],[-19,58],[54,249],[-55,100],[-32,34],[-13,172],[-54,72],[-62,142],[27,41],[1,42],[28,42],[8,76],[-47,131],[-26,17],[2,66],[33,93],[-60,85],[3,39],[-82,34],[-28,35],[-126,101],[3,41]],[[11079,7646],[-11,15],[-3,122],[12,56],[-67,81],[7,33],[-15,67],[51,48],[18,61],[-44,25],[-4,52],[79,12],[52,24],[48,43],[-6,36],[-42,67],[37,54],[-23,72],[7,60],[-17,15],[-5,51],[16,32],[-25,63],[-45,78],[75,90],[-14,17],[68,30],[138,-14],[-3,94],[-17,83],[20,75],[43,23]],[[12418,8583],[28,-52]],[[9394,28670],[27,-60],[-7,-54],[-37,-63],[-56,-13],[-15,-41],[43,-53],[-20,-48],[7,-36],[27,-25],[21,-66],[-30,-38],[9,-97],[69,-13],[47,-37],[21,-94],[-14,-89],[13,-39],[-10,-43],[-31,-31],[101,-77],[93,-113],[15,-60],[1,-55],[-16,-46],[13,-42],[39,-47],[-103,-93],[-10,-27],[40,-45],[10,-40],[-9,-37],[-79,-26],[-46,-26],[-46,-54],[-4,-28],[15,-72],[20,-18],[46,14],[21,-41],[-24,-22],[-49,-4],[-28,-31],[5,-84],[37,-111],[117,-26],[-19,-33],[-61,4],[-16,-14],[24,-201],[40,-169],[97,-26],[95,-16],[11,-51],[-36,-30],[-9,-128],[25,-92],[-27,-60],[-57,-49],[-2,-21],[33,-38],[61,-44],[72,-29],[25,23],[-38,24],[34,36],[109,-2],[65,40],[32,-22],[5,-64],[39,-77],[6,-53],[-6,-71],[-24,-65],[10,-41],[27,-23],[71,-7],[15,-18],[-8,-72]],[[9989,24965],[-749,0],[-1784,0]],[[17931,21463],[46,-43],[83,-14],[131,39],[42,41],[84,-3],[40,38],[102,17],[30,-18],[33,25],[38,-13],[-4,-33],[44,-37],[117,45],[32,-14],[17,-33],[97,36],[31,51],[58,-16],[12,-23],[40,6],[-26,40],[20,33],[114,-32],[-29,-29],[-13,-63],[12,-49],[77,38],[25,-33],[32,-3],[30,27],[31,-9],[-10,-55],[29,-39],[45,-33],[21,-43],[68,-36],[25,15],[48,-25],[13,-40],[82,-14],[5,-43],[34,-18],[34,10],[119,-62],[67,-58],[37,22],[67,-3],[7,-47],[65,2],[13,-51],[116,-11],[-7,-50],[47,13],[76,-16],[15,-17],[-23,-114],[41,-7],[-6,-58],[22,-17],[3,-102],[32,-75],[45,-51],[-9,-86],[-48,-82],[-74,-77],[-8,-78],[-24,-123],[31,-7],[13,-93],[23,-35],[-21,-47],[25,-62],[13,-58],[52,-28],[19,-39],[63,-51],[4,-48],[-28,-12],[-14,-41],[93,-167],[40,-56],[22,-121],[4,-77],[14,-31],[64,-32],[45,1],[10,-152],[2,-117],[8,-72],[15,-247],[10,-262],[16,-231],[-730,-2],[192,-219],[553,-645],[128,-1200],[14,-607],[792,-20],[614,-10],[92,-7]],[[10158,9271],[58,-14],[62,-29],[15,-23],[8,-74],[23,-39],[4,-43],[-25,-71],[42,-63],[59,49],[36,9],[27,-41],[45,25],[1,45],[60,-37],[48,-51],[11,-70],[54,5],[40,-19],[48,-65],[-25,-27],[58,-97],[6,-96],[45,-112],[-1,-46],[22,-78],[-17,-21],[-75,-21],[-99,4],[-36,29],[-74,-30],[-1,-63],[-18,-14],[21,-54],[-51,-24],[-4,-82]]],"transform":{"scale":[0.0004525055859031666,0.00043687740250191994],"translate":[-69.64172499988825,-22.906568378770064]},"objects":{"BOL":{"type":"GeometryCollection","geometries":[{"arcs":[[[0,1,2,3]],[[4,5,6,7,8,9,10]]],"type":"MultiPolygon","properties":{"name":"Abaroa","shapeGroup":"BOL","gid":"BOL-2-0"},"id":"BOL-2-0"},{"arcs":[[11,12,13,14,15]],"type":"Polygon","properties":{"name":"Abel Iturralde","shapeGroup":"BOL","gid":"BOL-2-1"},"id":"BOL-2-1"},{"arcs":[[16,17,18,19]],"type":"Polygon","properties":{"name":"Abuná","shapeGroup":"BOL","gid":"BOL-2-2"},"id":"BOL-2-2"},{"arcs":[[20,21,22,23,24,25]],"type":"Polygon","properties":{"name":"Alonso de Ibáñez","shapeGroup":"BOL","gid":"BOL-2-3"},"id":"BOL-2-3"},{"arcs":[[26,27,28,29,30,31]],"type":"Polygon","properties":{"name":"Andrés Ibáñez","shapeGroup":"BOL","gid":"BOL-2-4"},"id":"BOL-2-4"},{"arcs":[[32,33,34,35]],"type":"Polygon","properties":{"name":"Angel Sandoval","shapeGroup":"BOL","gid":"BOL-2-5"},"id":"BOL-2-5"},{"arcs":[[-1,36,37,38,39,40,41,42,43]],"type":"Polygon","properties":{"name":"Antonio Quijarro","shapeGroup":"BOL","gid":"BOL-2-6"},"id":"BOL-2-6"},{"arcs":[[44,45,46,47]],"type":"Polygon","properties":{"name":"Arani","shapeGroup":"BOL","gid":"BOL-2-7"},"id":"BOL-2-7"},{"arcs":[[48,49,50,51,52]],"type":"Polygon","properties":{"name":"Arce","shapeGroup":"BOL","gid":"BOL-2-8"},"id":"BOL-2-8"},{"arcs":[[53,54,55,56,57,58,59,60,61]],"type":"Polygon","properties":{"name":"Aroma","shapeGroup":"BOL","gid":"BOL-2-9"},"id":"BOL-2-9"},{"arcs":[[-26,62,63,64,65,66,67]],"type":"Polygon","properties":{"name":"Arque","shapeGroup":"BOL","gid":"BOL-2-10"},"id":"BOL-2-10"},{"arcs":[[-52,68,69,70,71,72]],"type":"Polygon","properties":{"name":"Avilés","shapeGroup":"BOL","gid":"BOL-2-11"},"id":"BOL-2-11"},{"arcs":[[73,74,75,76,77,78]],"type":"Polygon","properties":{"name":"Ayopaya","shapeGroup":"BOL","gid":"BOL-2-12"},"id":"BOL-2-12"},{"arcs":[[79,80,81,82,83]],"type":"Polygon","properties":{"name":"Azurduy","shapeGroup":"BOL","gid":"BOL-2-13"},"id":"BOL-2-13"},{"arcs":[[84,85,86,87,88]],"type":"Polygon","properties":{"name":"Bautista Saavedra","shapeGroup":"BOL","gid":"BOL-2-14"},"id":"BOL-2-14"},{"arcs":[[89,90,91,92]],"type":"Polygon","properties":{"name":"Belisario Boeto","shapeGroup":"BOL","gid":"BOL-2-15"},"id":"BOL-2-15"},{"arcs":[[-25,93,94,-63]],"type":"Polygon","properties":{"name":"Bolivar","shapeGroup":"BOL","gid":"BOL-2-16"},"id":"BOL-2-16"},{"arcs":[[-87,95,96,97]],"type":"Polygon","properties":{"name":"Camacho","shapeGroup":"BOL","gid":"BOL-2-17"},"id":"BOL-2-17"},{"arcs":[[-93,98,99,100,101,102,103,104]],"type":"Polygon","properties":{"name":"Campero","shapeGroup":"BOL","gid":"BOL-2-18"},"id":"BOL-2-18"},{"arcs":[[-67,105,106,107,108]],"type":"Polygon","properties":{"name":"Capinota","shapeGroup":"BOL","gid":"BOL-2-19"},"id":"BOL-2-19"},{"arcs":[[109,110,111,112]],"type":"Polygon","properties":{"name":"Caranavi","shapeGroup":"BOL","gid":"BOL-2-20"},"id":"BOL-2-20"},{"arcs":[[113,114,115,116,117,118]],"type":"Polygon","properties":{"name":"Carangas","shapeGroup":"BOL","gid":"BOL-2-21"},"id":"BOL-2-21"},{"arcs":[[-45,119,120,121,122,-103,123]],"type":"Polygon","properties":{"name":"Carrasco","shapeGroup":"BOL","gid":"BOL-2-22"},"id":"BOL-2-22"},{"arcs":[[[-53,-73,124,125]],[[-55,126,127,128,-64,-95,129,130,131,132,133,134,135,136,137]],[[-107,138,139,140]],[[141,142,143,144,145,146]]],"type":"MultiPolygon","properties":{"name":"Cercado","shapeGroup":"BOL","gid":"BOL-2-23"},"id":"BOL-2-23"},{"arcs":[[-75,147,148,149,-121,150,151,152,153,-140,154]],"type":"Polygon","properties":{"name":"Chapare","shapeGroup":"BOL","gid":"BOL-2-24"},"id":"BOL-2-24"},{"arcs":[[-22,155,156,157,-101,158,159,160]],"type":"Polygon","properties":{"name":"Chárcas","shapeGroup":"BOL","gid":"BOL-2-25"},"id":"BOL-2-25"},{"arcs":[[-5,161,-160,162,163,164]],"type":"Polygon","properties":{"name":"Chayanta","shapeGroup":"BOL","gid":"BOL-2-26"},"id":"BOL-2-26"},{"arcs":[[-32,165,166,167,-34,168,169]],"type":"Polygon","properties":{"name":"Chiquitos","shapeGroup":"BOL","gid":"BOL-2-27"},"id":"BOL-2-27"},{"arcs":[[-27,-170,170,171,172,173,174]],"type":"Polygon","properties":{"name":"Cordillera","shapeGroup":"BOL","gid":"BOL-2-28"},"id":"BOL-2-28"},{"arcs":[[-164,175,176,177,178,179]],"type":"Polygon","properties":{"name":"Cornelio Saavedra","shapeGroup":"BOL","gid":"BOL-2-29"},"id":"BOL-2-29"},{"arcs":[[[180]],[[181]],[[182,183,184,185]]],"type":"MultiPolygon","properties":{"name":"Daniel Campos","shapeGroup":"BOL","gid":"BOL-2-30"},"id":"BOL-2-30"},{"arcs":[[186,187]],"type":"Polygon","properties":{"name":"Enrique Baldivieso","shapeGroup":"BOL","gid":"BOL-2-31"},"id":"BOL-2-31"},{"arcs":[[-108,-141,-154,188,189,190,-157,191]],"type":"Polygon","properties":{"name":"Esteban Arze","shapeGroup":"BOL","gid":"BOL-2-32"},"id":"BOL-2-32"},{"arcs":[[-17,192,193,194]],"type":"Polygon","properties":{"name":"Federico Román","shapeGroup":"BOL","gid":"BOL-2-33"},"id":"BOL-2-33"},{"arcs":[[-28,-175,195,196,197]],"type":"Polygon","properties":{"name":"Florida","shapeGroup":"BOL","gid":"BOL-2-34"},"id":"BOL-2-34"},{"arcs":[[-14,198,199,200,-89,201]],"type":"Polygon","properties":{"name":"Franz Tamayo","shapeGroup":"BOL","gid":"BOL-2-35"},"id":"BOL-2-35"},{"arcs":[[-21,-68,-109,-192,-156]],"type":"Polygon","properties":{"name":"General Bilbao","shapeGroup":"BOL","gid":"BOL-2-36"},"id":"BOL-2-36"},{"arcs":[[-13,202,203,204,205,206,-199]],"type":"Polygon","properties":{"name":"General José Ballivián","shapeGroup":"BOL","gid":"BOL-2-37"},"id":"BOL-2-37"},{"arcs":[[207,208,209]],"type":"Polygon","properties":{"name":"General José Manuel Pando","shapeGroup":"BOL","gid":"BOL-2-38"},"id":"BOL-2-38"},{"arcs":[[-33,210,-171,-169]],"type":"Polygon","properties":{"name":"Germán Busch","shapeGroup":"BOL","gid":"BOL-2-39"},"id":"BOL-2-39"},{"arcs":[[-153,211,-189]],"type":"Polygon","properties":{"name":"Germán Jordán","shapeGroup":"BOL","gid":"BOL-2-40"},"id":"BOL-2-40"},{"arcs":[[-50,212,213,214]],"type":"Polygon","properties":{"name":"Gran Chaco","shapeGroup":"BOL","gid":"BOL-2-41"},"id":"BOL-2-41"},{"arcs":[[[-57,215,-137,216,217]],[[-59,218,219,220]]],"type":"MultiPolygon","properties":{"name":"Gualberto Villarroe","shapeGroup":"BOL","gid":"BOL-2-42"},"id":"BOL-2-42"},{"arcs":[[-58,-218,221,222,-219]],"type":"Polygon","properties":{"name":"Gualberto Villarroel","shapeGroup":"BOL","gid":"BOL-2-43"},"id":"BOL-2-43"},{"arcs":[[-143,223,224,225,226,227,228]],"type":"Polygon","properties":{"name":"Guarayos","shapeGroup":"BOL","gid":"BOL-2-44"},"id":"BOL-2-44"},{"arcs":[[-80,229,230,231,232,233]],"type":"Polygon","properties":{"name":"Hernando Siles","shapeGroup":"BOL","gid":"BOL-2-45"},"id":"BOL-2-45"},{"arcs":[[-29,-198,234,-122,-150,-228,235]],"type":"Polygon","properties":{"name":"Ichilo","shapeGroup":"BOL","gid":"BOL-2-46"},"id":"BOL-2-46"},{"arcs":[[-61,236,-210,237,238,239]],"type":"Polygon","properties":{"name":"Ingavi","shapeGroup":"BOL","gid":"BOL-2-47"},"id":"BOL-2-47"},{"arcs":[[-78,240,-128,241,242]],"type":"Polygon","properties":{"name":"Inquisivi","shapeGroup":"BOL","gid":"BOL-2-48"},"id":"BOL-2-48"},{"arcs":[[-142,243,244,245,246,-224]],"type":"Polygon","properties":{"name":"Iténez","shapeGroup":"BOL","gid":"BOL-2-49"},"id":"BOL-2-49"},{"arcs":[[-39,247,-179,248,-82,249,250]],"type":"Polygon","properties":{"name":"José María Linares","shapeGroup":"BOL","gid":"BOL-2-50"},"id":"BOL-2-50"},{"arcs":[[-2,-44,251,-183,252,253,254,255]],"type":"Polygon","properties":{"name":"Ladislao Cabrera","shapeGroup":"BOL","gid":"BOL-2-51"},"id":"BOL-2-51"},{"arcs":[[-85,-201,256,-113,257,258,259,260]],"type":"Polygon","properties":{"name":"Larecaja","shapeGroup":"BOL","gid":"BOL-2-52"},"id":"BOL-2-52"},{"arcs":[[-115,261,262,263]],"type":"Polygon","properties":{"name":"Litoral","shapeGroup":"BOL","gid":"BOL-2-53"},"id":"BOL-2-53"},{"arcs":[[-54,264,265,-242,-127]],"type":"Polygon","properties":{"name":"Loayza","shapeGroup":"BOL","gid":"BOL-2-54"},"id":"BOL-2-54"},{"arcs":[[-239,266,267,-259,268]],"type":"Polygon","properties":{"name":"Los Andes","shapeGroup":"BOL","gid":"BOL-2-55"},"id":"BOL-2-55"},{"arcs":[[-173,269,-214,270,-231,271,272]],"type":"Polygon","properties":{"name":"Luis Calvo","shapeGroup":"BOL","gid":"BOL-2-56"},"id":"BOL-2-56"},{"arcs":[[-12,273,274,-203]],"type":"Polygon","properties":{"name":"Madre de Dios","shapeGroup":"BOL","gid":"BOL-2-57"},"id":"BOL-2-57"},{"arcs":[[-147,275,276,277,-244]],"type":"Polygon","properties":{"name":"Mamoré","shapeGroup":"BOL","gid":"BOL-2-58"},"id":"BOL-2-58"},{"arcs":[[[278]],[[279,280]],[[281]],[[282]]],"type":"MultiPolygon","properties":{"name":"Manco Kapac","shapeGroup":"BOL","gid":"BOL-2-59"},"id":"BOL-2-59"},{"arcs":[[-104,-123,-235,-197,283]],"type":"Polygon","properties":{"name":"Manuel María Caballero","shapeGroup":"BOL","gid":"BOL-2-60"},"id":"BOL-2-60"},{"arcs":[[-16,284,285,-18,-195,286,-274]],"type":"Polygon","properties":{"name":"Manuripi","shapeGroup":"BOL","gid":"BOL-2-61"},"id":"BOL-2-61"},{"arcs":[[-144,-229,-149,287]],"type":"Polygon","properties":{"name":"Marbán","shapeGroup":"BOL","gid":"BOL-2-62"},"id":"BOL-2-62"},{"arcs":[[288,289]],"type":"Polygon","properties":{"name":"Mejillones","shapeGroup":"BOL","gid":"BOL-2-63"},"id":"BOL-2-63"},{"arcs":[[-72,290,291,292,-125]],"type":"Polygon","properties":{"name":"Méndez","shapeGroup":"BOL","gid":"BOL-2-64"},"id":"BOL-2-64"},{"arcs":[[-46,-124,-102,-158,-191,293]],"type":"Polygon","properties":{"name":"Mizque","shapeGroup":"BOL","gid":"BOL-2-65"},"id":"BOL-2-65"},{"arcs":[[-70,294,295]],"type":"Polygon","properties":{"name":"Modesto Omiste","shapeGroup":"BOL","gid":"BOL-2-66"},"id":"BOL-2-66"},{"arcs":[[-74,-206,296,-145,-288,-148]],"type":"Polygon","properties":{"name":"Moxos","shapeGroup":"BOL","gid":"BOL-2-67"},"id":"BOL-2-67"},{"arcs":[[-86,-261,297,-96]],"type":"Polygon","properties":{"name":"Muñecas","shapeGroup":"BOL","gid":"BOL-2-68"},"id":"BOL-2-68"},{"arcs":[[-62,-240,-269,-258,-112,298,299,-265]],"type":"Polygon","properties":{"name":"Murillo","shapeGroup":"BOL","gid":"BOL-2-69"},"id":"BOL-2-69"},{"arcs":[[-19,-286,300]],"type":"Polygon","properties":{"name":"Nicolás Suárez","shapeGroup":"BOL","gid":"BOL-2-70"},"id":"BOL-2-70"},{"arcs":[[-118,301,-222,-217,-136,302]],"type":"Polygon","properties":{"name":"Nor Carangas","shapeGroup":"BOL","gid":"BOL-2-71"},"id":"BOL-2-71"},{"arcs":[[-40,-251,303,304,305]],"type":"Polygon","properties":{"name":"Nor Chichas","shapeGroup":"BOL","gid":"BOL-2-72"},"id":"BOL-2-72"},{"arcs":[[-81,-234,306,-304,-250]],"type":"Polygon","properties":{"name":"Nor Cinti","shapeGroup":"BOL","gid":"BOL-2-73"},"id":"BOL-2-73"},{"arcs":[[[-42,307,308,-188,309,310,-185,311]],[[312]]],"type":"MultiPolygon","properties":{"name":"Nor Lipez","shapeGroup":"BOL","gid":"BOL-2-74"},"id":"BOL-2-74"},{"arcs":[[-111,313,-299]],"type":"Polygon","properties":{"name":"Nor Yungas","shapeGroup":"BOL","gid":"BOL-2-75"},"id":"BOL-2-75"},{"arcs":[[-167,314,315,-225,-247,316]],"type":"Polygon","properties":{"name":"Ñuflo De Chávez","shapeGroup":"BOL","gid":"BOL-2-76"},"id":"BOL-2-76"},{"arcs":[[-49,-126,-293,317,-232,-271,-213]],"type":"Polygon","properties":{"name":"O'Connor","shapeGroup":"BOL","gid":"BOL-2-77"},"id":"BOL-2-77"},{"arcs":[[-226,-316,318,319]],"type":"Polygon","properties":{"name":"Obispo Santistéban","shapeGroup":"BOL","gid":"BOL-2-78"},"id":"BOL-2-78"},{"arcs":[[-97,-298,-260,-268,320,-281,321]],"type":"Polygon","properties":{"name":"Omasuyos","shapeGroup":"BOL","gid":"BOL-2-79"},"id":"BOL-2-79"},{"arcs":[[-100,322,323,-176,-163,-159]],"type":"Polygon","properties":{"name":"Oropeza","shapeGroup":"BOL","gid":"BOL-2-80"},"id":"BOL-2-80"},{"arcs":[[-60,-221,324,325,-208,-237]],"type":"Polygon","properties":{"name":"Pacajes","shapeGroup":"BOL","gid":"BOL-2-81"},"id":"BOL-2-81"},{"arcs":[[-10,326,-132,327,-130,-94,-24,328]],"type":"Polygon","properties":{"name":"Pantaleón Dalence","shapeGroup":"BOL","gid":"BOL-2-82"},"id":"BOL-2-82"},{"arcs":[[-9,329,-133,-327]],"type":"Polygon","properties":{"name":"Poopó","shapeGroup":"BOL","gid":"BOL-2-83"},"id":"BOL-2-83"},{"arcs":[[-47,-294,-190,-212,-152,330]],"type":"Polygon","properties":{"name":"Punata","shapeGroup":"BOL","gid":"BOL-2-84"},"id":"BOL-2-84"},{"arcs":[[-66,331,-76,-155,-139,-106]],"type":"Polygon","properties":{"name":"Quillacollo","shapeGroup":"BOL","gid":"BOL-2-85"},"id":"BOL-2-85"},{"arcs":[[-11,-329,-23,-161,-162]],"type":"Polygon","properties":{"name":"Rafael Bustillo","shapeGroup":"BOL","gid":"BOL-2-86"},"id":"BOL-2-86"},{"arcs":[[[332]],[[-254,333,-290,334,335,-263,336]]],"type":"MultiPolygon","properties":{"name":"Sabaya","shapeGroup":"BOL","gid":"BOL-2-87"},"id":"BOL-2-87"},{"arcs":[[-116,-264,-336,337,-325,338]],"type":"Polygon","properties":{"name":"Sajama","shapeGroup":"BOL","gid":"BOL-2-88"},"id":"BOL-2-88"},{"arcs":[[-117,-339,-220,-223,-302]],"type":"Polygon","properties":{"name":"San Pedro de Totora","shapeGroup":"BOL","gid":"BOL-2-89"},"id":"BOL-2-89"},{"arcs":[[-30,-236,-227,-320,339]],"type":"Polygon","properties":{"name":"Sara","shapeGroup":"BOL","gid":"BOL-2-90"},"id":"BOL-2-90"},{"arcs":[[-119,-303,-135,340,341]],"type":"Polygon","properties":{"name":"Saucarí","shapeGroup":"BOL","gid":"BOL-2-91"},"id":"BOL-2-91"},{"arcs":[[-4,342,-7,343,-37]],"type":"Polygon","properties":{"name":"Sebastián Pagador","shapeGroup":"BOL","gid":"BOL-2-92"},"id":"BOL-2-92"},{"arcs":[[-79,-243,-266,-300,-314,-110,-257,-200,-207]],"type":"Polygon","properties":{"name":"Sud Yungas","shapeGroup":"BOL","gid":"BOL-2-93"},"id":"BOL-2-93"},{"arcs":[[-114,-342,344,-255,-337,-262]],"type":"Polygon","properties":{"name":"Sur Carangas","shapeGroup":"BOL","gid":"BOL-2-94"},"id":"BOL-2-94"},{"arcs":[[-41,-306,345,-291,-71,-296,346,347,-308]],"type":"Polygon","properties":{"name":"Sur Chichas","shapeGroup":"BOL","gid":"BOL-2-95"},"id":"BOL-2-95"},{"arcs":[[-233,-318,-292,-346,-305,-307]],"type":"Polygon","properties":{"name":"Sur Cinti","shapeGroup":"BOL","gid":"BOL-2-96"},"id":"BOL-2-96"},{"arcs":[[-187,-309,-348,348,-310]],"type":"Polygon","properties":{"name":"Sur Lipez","shapeGroup":"BOL","gid":"BOL-2-97"},"id":"BOL-2-97"},{"arcs":[[-65,-129,-241,-77,-332]],"type":"Polygon","properties":{"name":"Tapacarí","shapeGroup":"BOL","gid":"BOL-2-98"},"id":"BOL-2-98"},{"arcs":[[-48,-331,-151,-120]],"type":"Polygon","properties":{"name":"Tiraque","shapeGroup":"BOL","gid":"BOL-2-99"},"id":"BOL-2-99"},{"arcs":[[-56,-138,-216]],"type":"Polygon","properties":{"name":"Tomás Barrón","shapeGroup":"BOL","gid":"BOL-2-100"},"id":"BOL-2-100"},{"arcs":[[-6,-165,-180,-248,-38,-344]],"type":"Polygon","properties":{"name":"Tomás Frías","shapeGroup":"BOL","gid":"BOL-2-101"},"id":"BOL-2-101"},{"arcs":[[-84,349,-91,350,-272,-230]],"type":"Polygon","properties":{"name":"Tomina","shapeGroup":"BOL","gid":"BOL-2-102"},"id":"BOL-2-102"},{"arcs":[[-194,351,-277,352,-204,-275,-287]],"type":"Polygon","properties":{"name":"Vaca Diez","shapeGroup":"BOL","gid":"BOL-2-103"},"id":"BOL-2-103"},{"arcs":[[-90,-105,-284,-196,-174,-273,-351]],"type":"Polygon","properties":{"name":"Vallegrande","shapeGroup":"BOL","gid":"BOL-2-104"},"id":"BOL-2-104"},{"arcs":[[-35,-168,-317,-246,353]],"type":"Polygon","properties":{"name":"Velasco","shapeGroup":"BOL","gid":"BOL-2-105"},"id":"BOL-2-105"},{"arcs":[[-31,-340,-319,-315,-166]],"type":"Polygon","properties":{"name":"Warnes","shapeGroup":"BOL","gid":"BOL-2-106"},"id":"BOL-2-106"},{"arcs":[[-146,-297,-205,-353,-276]],"type":"Polygon","properties":{"name":"Yacuma","shapeGroup":"BOL","gid":"BOL-2-107"},"id":"BOL-2-107"},{"arcs":[[-177,-324,354]],"type":"Polygon","properties":{"name":"Yamparáez","shapeGroup":"BOL","gid":"BOL-2-108"},"id":"BOL-2-108"},{"arcs":[[-83,-249,-178,-355,-323,-99,-92,-350]],"type":"Polygon","properties":{"name":"Zudáñez","shapeGroup":"BOL","gid":"BOL-2-109"},"id":"BOL-2-109"}]}}}