{"type":"Topology","arcs":[[[3660,2115],[36,-32],[39,15],[31,-35],[-31,-67],[-37,-40],[39,-55],[73,-24],[82,28],[38,41],[106,44]],[[4036,1990],[17,-75],[92,-74],[41,-119],[-8,-16]],[[4178,1706],[44,-27]],[[4222,1679],[-7,-81],[-59,-54],[2,-23]],[[4158,1521],[-61,-49],[-5,-68]],[[4092,1404],[-29,-28],[-130,-32],[-42,-46]],[[3891,1298],[-103,94],[-47,-29],[-136,9],[-140,65],[-40,-23]],[[3425,1414],[-1,127],[-85,104],[7,23],[-93,33],[-102,53]],[[3151,1754],[76,118],[25,85],[45,23],[33,74]],[[3330,2054],[31,0],[28,70]],[[3389,2124],[30,-27],[97,7],[48,-22],[29,26],[67,7]],[[6915,2008],[30,-58],[4,-60]],[[6949,1890],[-33,-70],[-103,-45]],[[6813,1775],[-25,54]],[[6788,1829],[-18,43],[94,34],[54,58],[-3,44]],[[2860,2423],[68,4]],[[2928,2427],[21,-39]],[[2949,2388],[14,-63],[-110,-43]],[[2853,2282],[-88,1]],[[2765,2283],[38,33],[59,88],[-44,25]],[[2818,2429],[42,-6]],[[550,1574],[-97,-110],[-66,-11],[-25,-47],[-76,-59],[-15,-53],[38,-90]],[[309,1204],[-68,-1],[-87,57],[-154,31],[31,31],[10,71],[59,14],[42,116],[0,77],[73,43],[123,-4],[75,45]],[[413,1684],[114,-50],[23,-60]],[[5892,1402],[-1,-36],[-50,-43],[4,-105],[49,-31],[29,-74],[0,-66]],[[5923,1047],[-5,-29],[-101,-94],[-29,-4]],[[5788,920],[-102,20],[-94,-56],[-72,-3],[-67,-62]],[[5453,819],[-42,70]],[[5411,889],[7,41]],[[5418,930],[51,-4],[67,55],[66,24]],[[5602,1005],[73,57],[24,41],[-28,123],[-28,61],[35,33],[9,139],[86,32],[30,36],[100,-3]],[[5903,1524],[-11,-122]],[[7461,2100],[-4,-105],[-28,-91],[-27,-14]],[[7402,1890],[-139,12]],[[7263,1902],[18,75]],[[7281,1977],[8,9]],[[7289,1986],[75,27],[65,84]],[[7429,2097],[32,3]],[[3427,780],[85,-95]],[[3512,685],[-28,-42],[-84,-27],[-70,4]],[[3330,620],[22,43]],[[3352,663],[43,51],[28,80]],[[3423,794],[4,-14]],[[3512,685],[90,40],[23,85]],[[3625,810],[4,3]],[[3629,813],[26,19]],[[3655,832],[42,5],[74,-24],[49,22]],[[3820,835],[-52,-75],[-18,-78]],[[3750,682],[-114,-93],[-30,-77],[7,-73],[-55,-24],[-56,15],[-32,-21],[-7,-50],[-47,-17],[-46,26]],[[3370,368],[-43,-13],[-44,66],[-23,67]],[[3260,488],[1,2]],[[3261,490],[22,60],[-13,42],[60,28]],[[4388,765],[-2,-40],[57,-19],[17,-32],[9,-151],[-18,-25]],[[4451,498],[-109,84]],[[4342,582],[-79,84],[-8,44],[24,75],[33,36]],[[4312,821],[76,-56]],[[7461,2100],[67,3],[51,48],[32,-9]],[[7611,2142],[8,-131],[17,-27]],[[7636,1984],[-62,-37]],[[7574,1947],[-28,-22],[-105,-25]],[[7441,1900],[-39,-10]],[[525,1205],[-6,-59],[-50,-59],[20,-67],[-19,-73],[-92,-65]],[[378,882],[-15,70],[33,36],[-61,64]],[[335,1052],[-5,44]],[[330,1096],[87,98],[108,11]],[[2295,1309],[37,-43],[41,-152]],[[2373,1114],[-93,-19],[-56,-37],[-5,-83],[-41,-41],[-24,-56],[-70,18],[-51,-15]],[[2033,881],[-36,19],[-36,103],[79,75],[-26,81],[28,62]],[[2042,1221],[43,-31],[60,0],[17,74],[73,40]],[[2235,1304],[60,5]],[[3330,2054],[-80,49],[-59,100],[-47,14],[-3,65],[-57,34]],[[3084,2316],[53,39]],[[3137,2355],[79,6],[101,-22],[61,0],[70,25],[28,38]],[[3476,2402],[101,-42]],[[3577,2360],[-103,-146],[-42,-18],[-43,-72]],[[1406,2177],[-50,-60],[-8,-68],[-66,-28],[7,-54]],[[1289,1967],[-56,-13],[-24,33],[-96,-13],[-47,-54],[5,-43],[-27,-69]],[[1044,1808],[-106,-25],[-86,-75],[-95,33],[-51,36],[-45,58]],[[661,1835],[-62,102],[-30,122],[18,80],[45,86],[-38,76],[41,34],[24,89],[61,35],[30,73],[-10,38],[55,59],[57,31],[73,-19],[44,42]],[[969,2683],[61,-46],[5,-42],[40,-38],[70,8],[59,-42],[69,-5],[5,-65],[44,-173],[97,-64],[-13,-39]],[[5923,1047],[115,-18],[31,-42]],[[6069,987],[8,-153],[83,-17],[35,-59],[110,-77]],[[6305,681],[-38,-34],[0,-95],[-48,-28]],[[6219,524],[-48,-36],[-71,38],[-76,-26]],[[6024,500],[-23,20],[10,84],[-43,2],[1,72],[-28,72],[-35,27],[-65,93],[-53,28]],[[5788,898],[0,22]],[[2373,1114],[74,-19],[8,-45],[-21,-61]],[[2434,989],[-40,-40],[12,-73],[-25,-118],[26,-42],[-17,-44],[31,-49],[17,-74],[64,-54],[34,-62],[9,-75],[74,-76]],[[2619,282],[-63,-90]],[[2556,192],[-60,13],[-63,41],[-1,44],[-57,41],[-78,-6],[-102,40],[-28,51],[14,44],[-41,84],[-138,70]],[[2002,614],[-45,54],[-8,74],[62,77],[22,62]],[[7071,3743],[39,-41],[-13,-63],[62,-24],[48,-40],[46,-10],[17,-67],[89,31],[99,-49],[-13,-68],[-77,-33],[-43,12],[-52,-31],[43,-95],[28,-12],[70,31],[66,-59],[10,-82],[19,-20],[-29,-70],[12,-26],[-28,-107],[-56,-30],[-34,-53],[-52,-29],[-27,-73]],[[7295,2735],[-154,24],[-69,-4],[46,-63],[-56,-64],[-103,13],[-34,43],[-73,0],[-107,40]],[[6745,2724],[-13,54],[9,70],[-16,69],[30,57],[-30,93],[49,88],[-8,71],[35,64],[-15,99],[24,76],[10,137],[51,7],[102,119],[56,-17],[42,32]],[[2487,2410],[57,-32],[51,-69],[30,-67]],[[2625,2242],[-21,-122],[26,-25]],[[2630,2095],[-81,-2],[-128,43],[-3,-93],[36,-55],[-26,-44],[-91,-28]],[[2337,1916],[-5,100],[-113,104],[-10,50],[-76,30],[-15,59]],[[2118,2259],[228,22],[69,-4],[72,133]],[[2042,1221],[11,34],[-33,152],[-37,21]],[[1983,1428],[21,34],[-13,79]],[[1991,1541],[37,120],[33,39],[9,95]],[[2070,1795],[41,-22],[27,-125],[49,7],[93,-35]],[[2280,1620],[-1,-31],[-84,-35],[-30,-69],[0,-71],[27,-62],[43,-48]],[[682,909],[-114,-163],[-38,12]],[[530,758],[-8,30],[-73,69]],[[449,857],[132,66],[124,52]],[[705,975],[-23,-66]],[[6840,1717],[60,-100]],[[6900,1617],[-48,-57],[-1,-38]],[[6851,1522],[-89,-15],[-54,83],[-54,26]],[[6654,1616],[-8,63]],[[6646,1679],[29,40],[99,-12],[66,10]],[[705,975],[66,44],[60,68]],[[831,1087],[-3,-27],[108,-78]],[[936,982],[-1,-63]],[[935,919],[13,-79]],[[948,840],[-28,-61],[4,-45],[-127,-80],[-15,-24]],[[782,630],[-52,20],[-37,43]],[[693,693],[23,67],[-21,37],[34,37],[-37,29]],[[692,863],[-10,46]],[[6560,1802],[-95,-83],[-66,14],[-61,-95]],[[6338,1638],[-5,36],[43,107]],[[6376,1781],[3,40]],[[6379,1821],[128,-6],[49,23]],[[6556,1838],[4,-36]],[[6760,1110],[-102,-97],[-3,-78],[25,-16]],[[6680,919],[-53,-54]],[[6627,865],[-25,10],[-80,102],[-42,-17],[-40,-81],[-30,68]],[[6410,947],[36,73]],[[6446,1020],[113,23],[46,35]],[[6605,1078],[28,21],[89,16]],[[6722,1115],[38,-5]],[[4478,3948],[78,51],[135,-56],[86,-70],[61,67],[33,-10],[104,47],[42,42],[106,-16],[67,-54],[102,-8]],[[5292,3941],[32,-13],[-8,-62],[21,-28],[-11,-111],[-40,-16],[-42,-93],[49,-53],[97,-22],[6,-56],[38,-71],[-13,-52]],[[5421,3364],[-35,-24],[-67,-131],[50,-6],[-5,-162],[-14,-48],[-51,6],[8,-78],[29,-77],[0,-82],[-29,-82],[-28,3],[-18,-98],[23,-68],[-11,-36],[53,-104]],[[5326,2377],[14,-87]],[[5340,2290],[-76,77],[-111,47],[-95,6],[-57,84],[-50,14],[-115,6],[-77,88],[-42,-13]],[[4717,2599],[-26,5],[-13,105],[-27,38],[12,122],[54,105],[-12,60],[-49,115],[-70,-6],[-39,41]],[[4547,3184],[-25,76],[5,62],[75,23],[26,61],[-3,129],[-48,33],[6,60],[-56,7],[-34,86],[46,97],[-9,51],[-52,79]],[[2796,3046],[27,-84],[97,-35],[47,-114],[-65,-36],[-12,-42],[14,-62]],[[2904,2673],[6,-71],[-23,-20]],[[2887,2582],[-23,63],[-75,72]],[[2789,2717],[-93,37],[-36,56]],[[2660,2810],[21,65],[67,18],[28,31],[-12,96],[32,26]],[[5340,2290],[49,-87],[101,-83],[20,-49],[64,-56],[33,-85]],[[5607,1930],[-140,-70]],[[5467,1860],[-65,6],[-115,142],[-69,2],[-67,-45]],[[5151,1965],[-128,149],[-126,50],[-29,35],[-85,21]],[[4783,2220],[-20,62]],[[4763,2282],[25,14],[-65,223],[-6,80]],[[4670,483],[-63,-41],[-30,-40]],[[4577,402],[-33,26]],[[4544,428],[8,123],[21,66]],[[4573,617],[41,-81],[44,-8],[12,-45]],[[6875,568],[16,-162]],[[6891,406],[-82,-129],[-99,-41],[-107,17],[-85,51]],[[6518,304],[21,64],[-19,74],[17,17]],[[6537,459],[61,-10],[38,37],[29,91],[1,56],[32,29]],[[6698,662],[38,-64],[-24,-76],[72,-16],[91,62]],[[6680,919],[86,-17],[-8,75],[55,17]],[[6813,994],[49,-71]],[[6862,923],[-3,-35],[-87,-31],[15,-59],[-18,-52]],[[6769,746],[-30,68],[-62,44],[-50,7]],[[3425,1414],[7,-94],[-21,-59],[14,-53]],[[3425,1208],[-56,51],[-74,-2],[-63,50],[-122,2]],[[3110,1309],[-49,45],[-77,191],[-86,40],[-29,54],[-52,44],[-89,-26],[-48,37]],[[2680,1694],[136,149],[71,1],[37,-20],[65,43],[44,8]],[[3033,1875],[118,-121]],[[2280,1620],[-17,122],[57,72],[114,27],[-19,43],[-85,10]],[[2330,1894],[7,22]],[[2630,2095],[6,-23]],[[2636,2072],[-151,-118],[60,-63],[-10,-61],[5,-125],[-11,-39]],[[2529,1666],[-93,-118],[-74,-22],[-28,-27],[-21,-83],[9,-56],[-27,-51]],[[2556,192],[2,-63],[30,-38]],[[2588,91],[-60,-24],[-61,40],[-77,7],[-27,-59],[-29,-5],[-81,32],[59,55],[27,85],[-133,35],[-89,34],[-14,38],[-56,-3]],[[2047,326],[26,57],[-1,88],[-27,28]],[[2045,499],[-43,115]],[[3476,2402],[39,74],[70,17],[133,83],[-6,60],[-32,18],[-64,-8],[-32,84]],[[3584,2730],[13,21],[-26,94],[38,43],[109,-2],[43,-33]],[[3761,2853],[72,-23],[104,66],[-31,-150],[-36,-81],[13,-45],[-42,-25],[-67,-84],[-3,-85],[-37,-25]],[[3734,2401],[-93,9],[-64,-50]],[[6305,681],[-7,84]],[[6298,765],[29,-25],[63,5],[57,-24],[31,17],[101,9],[32,-91],[88,7]],[[6699,663],[-1,-1]],[[6537,459],[-17,32],[-74,6],[-44,21],[-117,-40],[-66,46]],[[4342,582],[-19,15],[-156,-11],[-22,-75],[-84,-54]],[[4061,457],[-30,56],[-23,90]],[[4008,603],[50,18],[-7,100],[36,33],[-19,88]],[[4068,842],[69,47],[103,23],[72,-91]],[[1478,1116],[-4,-88],[29,-43],[-46,-124],[-77,-83],[-39,-5]],[[1341,773],[-86,70],[-43,99]],[[1212,942],[-5,12]],[[1207,954],[24,18],[36,101],[38,47],[41,11],[51,-21],[81,6]],[[3014,374],[82,-88]],[[3096,286],[-45,-68],[-3,-54],[-54,9],[-23,-44],[-96,-21]],[[2875,108],[-44,9],[5,82],[-69,55],[-8,63]],[[2759,317],[39,97],[41,-16],[59,-77],[50,41],[66,12]],[[7410,596],[30,-44]],[[7440,552],[-25,-114],[-29,-43],[11,-74]],[[7397,321],[-29,-16],[-250,-40],[-121,58],[-103,82]],[[6894,405],[28,89],[113,-1],[50,69],[3,30],[84,-32],[160,90]],[[7332,650],[35,-52],[43,-2]],[[4068,842],[-63,58],[-90,-19],[-41,23]],[[3874,904],[-2,92]],[[3872,996],[57,42],[-1,65],[31,35],[-12,47],[82,96],[52,32],[43,-15]],[[4124,1298],[31,-110],[79,18],[55,-4],[33,-27],[7,-73],[-16,-46],[-47,-22],[36,-85],[95,-79],[48,-5],[51,-61]],[[4496,804],[-108,-39]],[[1991,1541],[-96,22],[-48,32],[-17,63],[-38,21],[-66,74]],[[1726,1753],[87,24],[100,67],[48,-5],[-7,67],[22,34]],[[1976,1940],[97,-63],[-3,-82]],[[1896,2245],[1,-103]],[[1897,2142],[-60,-23],[-99,12]],[[1738,2131],[-40,21]],[[1698,2152],[15,25],[-56,124]],[[1657,2301],[59,-48],[87,-27],[55,30],[38,-11]],[[935,919],[72,-20],[88,-7],[117,50]],[[1341,773],[19,-54],[-17,-31]],[[1343,688],[-58,-43],[-47,1],[-59,32],[-29,-41]],[[1150,637],[-80,47],[-10,96],[-112,60]],[[2759,317],[-52,25],[-46,-33]],[[2661,309],[-6,52],[27,27],[8,147],[87,-2],[2,48],[-40,28],[-10,61],[21,26]],[[2750,696],[67,8]],[[2817,704],[97,-73],[10,-90]],[[2924,541],[2,-72],[88,-95]],[[1657,2301],[-19,59],[4,108],[-30,26],[-6,77],[-23,46],[88,161]],[[1671,2778],[81,-18],[99,-102],[52,-110],[51,-13]],[[1954,2535],[1,-1]],[[1955,2534],[-30,-36],[-6,-222],[-23,-31]],[[4783,2220],[-101,-72],[9,-111],[-66,-80]],[[4625,1957],[-54,38],[0,29],[-79,42],[-46,73],[3,44],[52,38]],[[4501,2221],[64,49],[82,-33],[94,50],[22,-5]],[[6915,2008],[58,-18],[45,-72],[46,-2],[38,-33],[21,-102]],[[7123,1781],[-19,-11]],[[7104,1770],[-65,5],[-26,32],[-16,82],[-48,1]],[[6594,1581],[24,-36],[1,-71],[-43,-45]],[[6576,1429],[-31,-3],[-67,-50],[-35,0]],[[6443,1376],[-94,143]],[[6349,1519],[56,36],[78,24],[111,2]],[[3352,663],[-75,64],[-30,6]],[[3247,733],[4,65],[-40,144],[4,51]],[[3215,993],[52,13]],[[3267,1006],[14,-65],[37,-50],[102,-21]],[[3420,870],[3,-76]],[[3655,832],[-15,45],[21,67]],[[3661,944],[53,-7],[56,64]],[[3770,1001],[77,-20],[25,15]],[[3874,904],[-54,-69]],[[6769,746],[13,-33],[-83,-50]],[[6298,765],[36,13],[3,57],[51,53],[22,59]],[[1478,1116],[-18,74],[81,45],[-13,42],[77,109],[-37,41],[-29,68]],[[1539,1495],[172,14],[25,35],[60,-59],[76,-37]],[[1872,1448],[-30,-32],[-9,-76],[-55,-17],[-96,37],[-2,-45],[-54,-45],[12,-94],[-12,-71],[67,-73],[22,-50]],[[1715,982],[14,-82]],[[1729,900],[-49,-40],[-134,20],[-93,-128]],[[1453,752],[-65,-53],[-45,-11]],[[936,982],[98,38],[25,33],[24,91],[68,-114],[56,-76]],[[2904,2673],[84,-13]],[[2988,2660],[-12,-52],[23,-67]],[[2999,2541],[-41,-66],[-39,12]],[[2919,2487],[-9,73],[-23,22]],[[831,1087],[113,13],[100,77],[-45,89],[-2,64],[62,25],[23,43],[132,85],[-4,47],[47,68]],[[1257,1598],[132,-83],[57,10],[93,-30]],[[3734,2401],[41,-29]],[[3775,2372],[-32,-33],[-30,-112],[15,-38],[-49,-26],[-19,-48]],[[6470,3328],[-3,-55],[-39,-90],[-59,-69],[-43,-17],[-26,-70],[31,-66],[7,-56],[-40,-31],[34,-50],[40,-5]],[[6372,2819],[-56,-85],[-48,-33],[-106,16],[-42,-20]],[[6120,2697],[-77,-62],[-135,-5],[-71,30],[-48,-3]],[[5789,2657],[36,74],[42,50],[-58,12],[6,101],[-104,104],[-61,-3],[-8,43],[22,52],[-41,123],[-101,47],[-63,81]],[[5459,3341],[43,9],[58,-47],[61,-6],[60,16],[89,-9],[102,-46],[108,12],[62,-27],[-3,-40],[32,-43],[119,10],[25,34],[80,46],[43,1],[35,86],[44,12],[53,-21]],[[2989,2224],[16,-50],[-10,-121]],[[2995,2053],[-104,39],[-120,4]],[[2771,2096],[39,31],[57,11],[26,62],[87,15]],[[2980,2215],[9,9]],[[2680,1694],[-44,3],[-107,-31]],[[2636,2072],[135,24]],[[2995,2053],[38,-178]],[[4496,804],[50,-40],[22,-47]],[[4568,717],[5,-100]],[[4544,428],[-93,70]],[[2045,499],[-67,-25],[-93,3],[-47,-14],[-35,117]],[[1803,580],[12,76],[57,25],[13,57],[-36,116],[-46,12],[-44,-28]],[[1759,838],[-30,62]],[[1715,982],[61,11],[46,-15],[71,52],[10,62],[-26,165],[-1,57],[40,34],[-28,96]],[[1888,1444],[95,-16]],[[2070,1795],[67,60],[56,-26],[59,17],[78,48]],[[2817,704],[79,37],[22,-35],[78,-21]],[[2996,685],[66,-26],[3,-62]],[[3065,597],[-6,-40],[-135,-16]],[[2434,989],[34,-11],[62,23],[72,-8]],[[2602,993],[57,-89],[11,-90],[26,-96],[54,-22]],[[2661,309],[-42,-27]],[[2550,3381],[20,-126],[-34,-116],[12,-68]],[[2548,3071],[-39,-59],[-54,-6]],[[2455,3006],[-79,22],[-63,-1],[-22,-36]],[[2291,2991],[-81,25],[-59,121],[-3,40]],[[2148,3177],[86,-9],[100,102],[42,9],[41,77],[60,52],[73,-27]],[[2148,3177],[-59,2],[-45,-73],[-55,3],[-32,49]],[[1957,3158],[34,23],[17,95],[-12,42],[16,55],[76,74],[19,48],[56,20],[-133,76],[4,107]],[[2034,3698],[36,24],[66,-15],[41,21],[117,-65],[139,-112],[13,-52],[104,51],[26,-64]],[[2576,3486],[-26,-36],[0,-69]],[[2660,2810],[-48,0],[-9,74],[-71,47],[-77,75]],[[2548,3071],[78,80],[45,-53],[46,19]],[[2717,3117],[97,-5],[-18,-66]],[[7509,1019],[0,-4]],[[7509,1015],[-48,-53],[-39,-81],[-45,-49],[-73,-130]],[[7304,702],[-121,137],[-1,82]],[[7182,921],[114,73],[61,17],[42,44]],[[7399,1055],[110,-36]],[[6069,987],[100,100],[-35,32],[20,70],[71,76],[29,2]],[[6254,1267],[56,-12],[80,-58]],[[6390,1197],[-15,-129],[71,-48]],[[3594,993],[41,-43]],[[3635,950],[-80,-36]],[[3555,914],[-64,51]],[[3491,965],[11,31],[92,-3]],[[2996,685],[20,70],[70,4],[26,25]],[[3112,784],[23,-19]],[[3135,765],[-9,-17],[3,-138],[-64,-13]],[[5788,898],[-25,-15],[-15,-86],[-42,-63],[14,-45],[-38,-61],[-66,-31],[-34,11]],[[5582,608],[-30,47],[-55,29],[0,43],[-44,92]],[[2860,2423],[16,106],[-49,58],[-90,-21],[-43,-29]],[[2694,2537],[-19,33]],[[2675,2570],[29,72],[58,12],[27,63]],[[2919,2487],[9,-60]],[[4008,603],[-62,-29],[0,-47],[-43,-67]],[[3903,460],[-53,3]],[[3850,463],[-60,76],[-40,143]],[[1897,2142],[14,-38]],[[1911,2104],[-41,-53]],[[1870,2051],[-132,80]],[[7281,1977],[-190,51],[-62,44],[-92,19]],[[6937,2091],[61,78]],[[6998,2169],[37,-24],[83,17],[87,-13],[74,-81]],[[7279,2068],[-21,-49],[31,-33]],[[6875,568],[24,39],[43,13],[51,98],[-19,83],[57,57],[0,41]],[[7031,899],[5,20]],[[7036,919],[34,1],[48,44],[28,-13]],[[7146,951],[36,-30]],[[7304,702],[28,-52]],[[6894,405],[-3,1]],[[6288,2383],[21,-97],[-35,-64],[6,-75]],[[6280,2147],[-148,30],[-85,-67],[-86,-92]],[[5961,2018],[-134,20]],[[5827,2038],[-8,50],[-43,50],[52,70],[38,77]],[[5866,2285],[110,-33],[53,32],[109,21],[24,-26],[56,60],[6,46],[64,-2]],[[4158,1521],[91,-36],[28,-38],[55,-17],[72,-83],[89,-56],[63,13],[64,-29]],[[4620,1275],[49,-88],[28,2],[36,-56],[38,17],[30,-49],[45,-12],[74,34],[88,-71],[-8,-73],[32,-16],[5,-119]],[[5037,844],[-24,-21]],[[5013,823],[-32,33],[-39,-5],[-40,-53]],[[4902,798],[-126,-9],[-61,11],[-86,-60],[-61,-23]],[[4124,1298],[7,86],[-39,20]],[[6390,1197],[46,0],[9,79]],[[6445,1276],[88,-24],[38,-72],[-10,-24],[44,-78]],[[2675,2570],[-55,-36],[-55,-2],[-74,-59]],[[2491,2473],[-10,32],[-55,36],[-30,100],[-51,49],[6,150]],[[2351,2840],[11,40],[-71,111]],[[2602,993],[43,37],[153,2],[32,-48],[73,81],[75,0]],[[2978,1065],[87,-112],[-1,-53],[29,-28],[19,-88]],[[7123,1781],[82,43]],[[7205,1824],[48,-106],[52,-18],[98,-111]],[[7403,1589],[-64,-21],[-62,22],[-81,-4]],[[7196,1586],[-95,25],[-28,77],[-37,41]],[[7036,1729],[68,41]],[[7399,1055],[-1,72],[34,57],[60,18],[26,65],[45,40],[-75,98]],[[7488,1405],[11,59],[35,48],[5,51]],[[7539,1563],[66,25],[60,55]],[[7665,1643],[62,47],[72,-19],[73,-60],[50,-98],[2,-59],[34,-43],[16,-97],[-13,-41]],[[7961,1273],[-78,-105],[-9,-29]],[[7874,1139],[-57,-26],[-104,-6],[-39,-24],[-75,-14],[-35,-33],[-55,-17]],[[1406,2177],[38,-38]],[[1444,2139],[66,-122]],[[1510,2017],[-1,-19]],[[1509,1998],[-35,-27],[-77,9],[-85,-29]],[[1312,1951],[-23,16]],[[2118,2259],[-11,55],[-41,20],[-39,93],[6,48],[-40,59],[-38,0]],[[1954,2535],[15,77],[70,78],[-2,36],[82,62],[87,-8],[60,62],[85,-2]],[[2491,2473],[-4,-63]],[[3584,2730],[-56,-37],[7,-78],[-56,-56],[-102,-18],[-106,-80],[-89,-36]],[[3182,2425],[25,40],[-70,85]],[[3137,2550],[37,39],[72,37],[53,88]],[[3299,2714],[57,2],[62,75],[-73,104],[-83,-8],[-61,34],[33,120],[91,73],[20,44],[-11,86]],[[3334,3244],[10,111],[119,21],[44,-16],[59,58],[26,77],[85,111],[38,68],[11,64],[94,13]],[[3820,3751],[4,-121],[15,-45],[-9,-105],[13,-33],[-47,-43],[21,-29],[-25,-74],[53,-90],[-2,-66],[32,-41],[-22,-196],[-31,-37],[-61,-18]],[[6445,1276],[-2,100]],[[6576,1429],[58,-50],[79,-45],[57,-12]],[[6770,1322],[2,-66],[-32,-48],[-18,-93]],[[7403,1589],[63,-5]],[[7466,1584],[73,-21]],[[7488,1405],[13,-96],[-115,-78],[-29,-49]],[[7357,1182],[-25,99],[-23,20],[7,63],[-55,39],[-87,4],[-51,19],[-77,-43]],[[7046,1383],[-70,2]],[[6976,1385],[21,50],[52,11],[32,69],[115,71]],[[7373,2466],[5,-4]],[[7378,2462],[-84,-58],[-5,-48],[39,-84],[45,-42]],[[7373,2230],[-39,-77]],[[7334,2153],[-12,-9]],[[7322,2144],[-52,53],[-39,100]],[[7231,2297],[-52,69],[-11,68],[205,32]],[[6862,923],[66,-18],[103,-6]],[[3247,733],[-46,2]],[[3201,735],[-66,30]],[[2978,1065],[-16,40],[62,16],[17,98],[29,25]],[[3070,1244],[71,-109],[4,-86],[70,-56]],[[6745,2724],[-36,-77]],[[6709,2647],[-70,13],[-65,37],[-47,61],[-137,33]],[[6390,2791],[-18,28]],[[6470,3328],[16,8],[8,105],[65,26],[-4,82],[-79,59],[24,30],[-22,63],[66,72],[23,94]],[[6567,3867],[65,85],[10,35],[61,6],[23,-50],[60,-6],[108,-79],[39,0],[110,-38],[28,-77]],[[3629,813],[-30,-1],[-85,67]],[[3514,879],[41,35]],[[3635,950],[26,-6]],[[4222,1679],[70,39],[101,-31],[43,3],[73,-52],[90,-17],[37,14],[135,6],[37,-43],[44,-85]],[[4852,1513],[92,-131],[-94,-39],[-93,50],[-56,-33],[-81,-85]],[[5292,3941],[38,66],[66,-18],[3,-38],[82,-2],[88,-31],[41,-41],[46,48],[56,-34],[16,-49],[57,-37],[40,57],[58,4],[94,-77],[52,22],[100,-35],[31,9],[103,-20],[44,14],[63,-16],[98,68],[99,36]],[[5459,3341],[-38,23]],[[3425,1208],[12,-104]],[[3437,1104],[-16,-38]],[[3421,1066],[-45,29],[-39,-57],[-70,-32]],[[3070,1244],[40,65]],[[1698,2152],[-7,6]],[[1691,2158],[-46,-43],[-49,-3],[-37,-62],[-49,-33]],[[1444,2139],[71,41],[27,44],[95,42],[20,35]],[[8699,839],[38,-42],[-8,-225],[-36,-43],[0,-41],[-120,-58],[-102,7],[-88,24],[-50,72],[-186,106],[-26,-8]],[[8121,631],[-15,48]],[[8106,679],[98,23],[92,68],[47,10],[72,-12],[81,-59],[92,56],[47,81],[64,-7]],[[4178,1706],[143,151],[124,1],[54,20],[126,79]],[[5151,1965],[29,-24],[0,-76],[-19,-29]],[[5161,1836],[-37,-80],[7,-105],[-52,-46],[-155,-49],[-72,-43]],[[7961,1273],[95,54],[133,23],[39,17],[15,82],[-4,125],[20,32],[47,-22],[43,-142],[58,-34],[123,-1]],[[8530,1407],[-34,-39],[24,-83],[-31,-90],[28,-105]],[[8517,1090],[-52,25],[-61,-9],[-122,-130],[-110,104],[-60,15],[-119,-7]],[[7993,1088],[-119,51]],[[2034,3698],[-18,40],[-55,4],[-62,41],[-74,19]],[[1825,3802],[48,63],[-28,43],[115,130],[14,42],[62,-20],[46,50],[0,30],[66,42],[46,73],[49,43],[70,11],[39,-14],[64,47],[116,-33],[25,55],[54,-12],[45,37],[-12,67],[52,29],[103,8],[23,-33],[59,12],[71,-82],[25,-51]],[[2977,4339],[-38,-101],[11,-55],[-53,-34],[-23,-78],[7,-80],[57,-77],[41,-106],[-6,-88],[-36,-27],[-120,53],[-71,-74],[-109,-65],[-5,-71],[-56,-50]],[[2875,108],[3,-7]],[[2878,101],[11,-101],[-132,30],[-109,-24],[-60,85]],[[2999,2541],[95,34],[43,-25]],[[3137,2550],[-16,-51],[-60,-50],[9,-54],[-33,-19]],[[3037,2376],[-48,25],[-40,-13]],[[1957,3158],[-56,-29],[2,-73],[-34,-100],[-49,-21],[-30,-71],[-39,-10]],[[1751,2854],[-35,89],[-6,138]],[[1710,3081],[3,125],[-63,47],[-34,-3],[-31,46],[-62,41],[-15,34]],[[1508,3371],[21,29],[132,83],[24,76],[36,21],[20,56],[36,11],[40,73],[8,82]],[[1759,838],[-33,-56],[-42,-118],[-36,-43],[-55,57],[-86,16],[-54,58]],[[7357,1182],[-41,-39],[-56,-82]],[[7260,1061],[-113,85],[-36,68],[-43,25],[12,73],[-34,71]],[[2977,4339],[203,26],[57,-52],[67,-33],[43,-70],[48,52],[64,1],[45,-49],[62,3],[-21,66],[20,43],[-17,46],[113,-12],[52,-28],[13,-54],[133,-57],[49,-2],[35,42],[65,2],[29,-83],[75,-20],[69,-74],[28,-93],[24,-14],[111,20],[89,-48]],[[4433,3951],[-27,-53],[-74,-68],[-69,6],[-32,-20],[2,-118],[27,-114],[-23,-37],[-61,-4],[-70,21],[-52,-39],[-51,28],[-59,119],[12,48],[-56,57],[-80,-26]],[[3334,3244],[-162,78],[-36,2],[-61,57],[-46,19],[-51,-32],[-62,2],[-57,-35],[-41,-98],[-80,-69],[-21,-51]],[[1691,2158],[-28,-75],[43,-37],[28,20],[46,-68]],[[1780,1998],[-33,-36],[-18,-75],[77,21],[-2,-61],[-77,-6],[-62,-32]],[[1665,1809],[-13,1]],[[1652,1810],[-57,63],[-6,48],[-80,77]],[[7410,596],[23,43],[43,9],[11,38],[81,98],[-24,59],[16,30],[-34,55],[-17,87]],[[7993,1088],[-21,-13],[-25,-100],[-36,-48],[23,-31],[93,-41],[48,-75],[-18,-45]],[[8057,735],[-66,-26],[-82,41]],[[7909,750],[-62,-53],[-61,-8],[-75,-34]],[[7711,655],[-94,-3],[-23,-45],[-68,-50],[-86,-5]],[[6390,2791],[15,-63],[-16,-27],[3,-104],[-26,-60],[-4,-62],[-38,-37]],[[6324,2438],[-20,-10]],[[6304,2428],[-74,48],[-32,53],[-65,51],[-13,117]],[[3427,780],[104,-21],[49,4],[45,47]],[[7665,1643],[30,44],[12,150]],[[7707,1837],[32,-5],[17,56]],[[7756,1888],[82,0],[22,28],[63,7]],[[7923,1923],[44,-71],[58,-5],[34,-39],[58,-15],[52,29],[80,-94],[106,25],[52,39],[89,-43],[60,1],[136,-64],[58,15]],[[8750,1701],[-8,-29],[-89,-10],[-31,27],[-78,-28],[66,-90],[-5,-64],[-47,-95],[-28,-5]],[[1872,1448],[16,-4]],[[6304,2428],[-16,-45]],[[5866,2285],[-41,58],[-52,40],[23,46],[-5,76]],[[5791,2505],[-22,48],[20,104]],[[1976,1940],[32,82],[-12,54],[-85,28]],[[6709,2647],[-39,-88],[23,-61],[-72,-31],[-44,-39],[-17,-52]],[[6560,2376],[-79,31],[-84,-3],[-73,34]],[[6654,1616],[-60,-35]],[[6349,1519],[-19,42],[8,77]],[[6560,1802],[86,-123]],[[2853,2282],[127,-67]],[[2625,2242],[121,22],[19,19]],[[1539,1495],[-26,66],[8,65],[-14,67],[111,80]],[[1618,1773],[34,37]],[[1665,1809],[61,-56]],[[525,1205],[80,89]],[[605,1294],[77,-28],[28,-33],[28,-79],[93,-67]],[[449,857],[-21,-20]],[[428,837],[-50,45]],[[5418,930],[-25,34],[-92,75],[-17,47],[-54,64],[-34,16],[-41,60],[-71,13],[0,45],[-41,47],[40,83],[-14,48],[60,70],[9,48],[34,35],[11,70],[-21,69],[-1,82]],[[5467,1860],[64,-111],[11,-49],[-25,-76],[19,-90],[-24,-80],[-52,-107],[19,-48],[-19,-64],[34,-25],[14,-97],[47,-84],[47,-24]],[[7146,951],[19,110],[-106,19],[-94,65],[-43,65]],[[6922,1210],[-19,60],[39,28],[41,68]],[[6983,1366],[-7,19]],[[7260,1061],[-78,-140]],[[7036,1729],[-55,-57],[-40,-3],[-41,-52]],[[6840,1717],[-27,58]],[[1671,2778],[80,76]],[[6024,500],[-61,-28],[-70,0],[-56,-91],[47,-130]],[[5884,251],[-71,13],[-87,-13]],[[5726,251],[-10,51],[-45,14],[34,94],[-83,40],[-3,55],[-37,103]],[[6556,1838],[-38,40],[-10,51],[94,59]],[[6602,1988],[59,-59],[32,-65],[95,-35]],[[3370,368],[-20,-15],[22,-103],[-12,-80],[-50,38],[-41,-115]],[[3269,93],[-111,-25],[-180,2],[-100,31]],[[3096,286],[102,90],[-51,33],[113,79]],[[6518,304],[-69,22],[-116,4],[-120,-7],[-125,32],[-109,-116],[-95,12]],[[4501,2221],[18,69],[-106,22],[-144,-7],[7,65],[-19,47]],[[4257,2417],[-69,28],[-46,58],[-36,84],[-17,82],[-29,52],[59,51],[12,99],[33,26],[81,-17],[44,25],[22,-33],[145,43],[42,27],[40,147],[9,95]],[[3137,2355],[45,70]],[[1357,366],[-25,-35],[-60,15],[-118,-24],[-45,25],[-109,-34],[-87,102],[13,53]],[[926,468],[65,-24],[83,37],[19,64],[65,14]],[[1158,559],[110,-25],[16,-53],[76,-20],[13,-34],[-16,-61]],[[5726,251],[-4,4],[-362,-34],[-103,-1]],[[5257,220],[-25,42],[2,62],[-38,18],[-111,-16],[-30,59],[-44,28],[-61,-1],[-90,21]],[[4860,433],[-4,69],[90,105],[18,57],[85,92],[-36,67]],[[5037,844],[55,4],[92,34],[36,62],[46,-63],[73,-8],[72,16]],[[3891,1298],[-195,-127],[-54,-6],[-66,-41]],[[3576,1124],[-88,3],[-51,-23]],[[7909,750],[-25,-47],[26,-93],[3,-74],[31,-72]],[[7944,464],[-139,-79]],[[7805,385],[-53,44],[-36,107],[23,57],[-28,62]],[[3084,2316],[-82,-29]],[[3002,2287],[35,89]],[[3775,2372],[95,-55],[10,-51],[41,2]],[[3921,2268],[18,-55],[47,-33],[-10,-82],[60,-108]],[[7611,2142],[113,52],[71,-8],[29,49]],[[7824,2235],[120,25],[29,-18]],[[7973,2242],[-42,-18],[-58,-71],[-20,-167],[70,-63]],[[7756,1888],[-39,98],[-45,22],[-36,-24]],[[3770,1001],[-77,-4],[-21,31],[-62,7]],[[3610,1035],[-34,89]],[[1803,580],[-62,-87],[-14,-86]],[[1727,407],[-65,6],[-16,50],[-42,-2]],[[1604,461],[17,36],[-27,49],[-71,-40],[-24,71],[12,31],[-120,43],[-48,37]],[[7805,385],[-102,-60],[-80,-14],[-167,41],[-59,-31]],[[7707,1837],[-73,29],[-60,81]],[[7279,2068],[43,76]],[[7334,2153],[95,-56]],[[3420,870],[1,16]],[[3421,886],[93,-7]],[[2989,2224],[13,63]],[[7973,2242],[60,55],[63,-46],[132,14],[51,-45],[119,21],[21,35],[56,4],[10,-101],[34,-17],[28,-88],[31,-29],[-29,-115],[38,-51],[9,-50],[63,-65],[33,-7],[58,-56]],[[5903,1524],[-39,49],[9,64],[-75,64],[-28,111],[-6,79],[-23,11],[-21,90]],[[5720,1992],[45,40],[62,6]],[[5961,2018],[49,-51],[65,-6],[93,-35],[32,-88],[-9,-40],[58,-11],[42,-57],[85,51]],[[6254,1267],[71,23],[-70,36],[-86,-28],[-102,75],[-62,101],[-113,-72]],[[1312,1951],[63,-119],[58,-6],[14,-38],[171,-15]],[[1257,1598],[-19,56],[-84,26],[-48,87],[-62,41]],[[7441,1900],[31,-50],[8,-98],[33,-45],[-7,-64],[-40,-59]],[[7205,1824],[58,78]],[[2047,326],[-74,1],[-92,-29],[-62,45],[-30,67],[-62,-3]],[[8121,631],[-59,-8],[-92,-144],[-26,-15]],[[8057,735],[49,-56]],[[1150,637],[8,-78]],[[926,468],[-34,35],[8,56],[-118,71]],[[3850,463],[-86,-69],[-35,-83],[19,-98],[-146,-59],[-231,-66],[-102,5]],[[4257,2417],[-56,-59],[-108,8],[-83,-76],[-64,2],[-25,-24]],[[4433,3951],[45,-3]],[[8517,1090],[24,-64],[28,0],[72,-49],[-12,-48],[60,-34],[10,-56]],[[1780,1998],[90,53]],[[3594,993],[16,42]],[[2988,2660],[45,30],[46,66],[206,-28],[14,-14]],[[6602,1988],[-15,54],[33,72],[-64,41]],[[6556,2155],[39,82],[6,62],[-41,77]],[[6709,2647],[52,-65],[5,-39],[89,-112],[99,-152]],[[6954,2279],[23,-25],[21,-85]],[[6937,2091],[10,-56],[-32,-27]],[[4902,798],[-22,-33],[-80,-38],[-19,-41],[29,-30],[0,-51],[-43,-15],[-97,-107]],[[5607,1930],[57,-9],[40,20],[16,51]],[[4061,457],[-39,-25],[-119,28]],[[6770,1322],[38,48]],[[6808,1370],[175,-4]],[[6922,1210],[-44,-50],[-20,-74],[112,-94],[66,-73]],[[6813,994],[-53,116]],[[428,837],[-95,-124],[-19,54],[-2,92],[26,133],[-3,60]],[[1710,3081],[-66,-31],[-37,-39],[-45,34],[-42,-14],[-31,-50],[-157,-1],[14,58],[-52,13],[-57,120]],[[1237,3171],[44,48],[61,39],[17,44],[69,69],[80,0]],[[413,1684],[4,84],[28,71],[42,23],[51,-67],[40,-27],[83,67]],[[605,1294],[28,122],[-7,59],[-76,99]],[[1604,461],[-105,-44],[-10,23],[-132,-74]],[[5257,220],[-88,-1],[-68,-21],[-60,6],[-46,40],[-77,-23],[-32,52],[-126,29],[-109,44]],[[4651,346],[11,23],[71,7],[43,39],[62,-39],[22,57]],[[2818,2429],[-79,55],[-45,53]],[[5791,2505],[-54,-36],[-70,-17],[-105,4],[-90,56],[6,-122],[-152,-13]],[[330,1096],[-21,108]],[[6851,1522],[5,-75],[-38,-15],[-10,-62]],[[7378,2462],[45,2],[28,-85],[60,-40],[12,-45]],[[7523,2294],[-48,-32],[-102,-32]],[[6954,2279],[71,36],[152,-50],[54,32]],[[3261,490],[-25,33],[-43,-14],[-45,95],[40,32],[13,99]],[[7295,2735],[55,-79],[-46,-73],[43,-52],[26,-65]],[[6379,1821],[-18,92],[9,29],[-42,105]],[[6328,2047],[228,108]],[[6280,2147],[48,-100]],[[3421,1066],[17,-27],[-5,-77]],[[3433,962],[-12,-76]],[[969,2683],[41,96],[81,53],[18,83],[38,9],[16,63],[64,24],[-7,80],[17,80]],[[3433,962],[58,3]],[[693,693],[-80,-52]],[[613,641],[15,43],[-15,53],[79,126]],[[4651,346],[-74,56]],[[7523,2294],[82,29],[31,32],[47,-37],[3,-55],[45,-17],[53,23],[40,-34]],[[613,641],[-107,42],[24,75]]],"transform":{"scale":[0.0003858701963428562,0.000342003238148235],"translate":[88.74839014100007,26.700655537000046]},"objects":{"BTN":{"type":"GeometryCollection","geometries":[{"arcs":[[0,1,2,3,4,5,6,7,8,9,10]],"type":"Polygon","properties":{"name":"Athang","shapeGroup":"BTN","gid":"BTN-2-0"},"id":"BTN-2-0"},{"arcs":[[11,12,13,14]],"type":"Polygon","properties":{"name":"Balam","shapeGroup":"BTN","gid":"BTN-2-1"},"id":"BTN-2-1"},{"arcs":[[15,16,17,18,19,20]],"type":"Polygon","properties":{"name":"Bapisa","shapeGroup":"BTN","gid":"BTN-2-2"},"id":"BTN-2-2"},{"arcs":[[21,22,23]],"type":"Polygon","properties":{"name":"Bara","shapeGroup":"BTN","gid":"BTN-2-3"},"id":"BTN-2-3"},{"arcs":[[24,25,26,27,28,29,30,31]],"type":"Polygon","properties":{"name":"Bardo","shapeGroup":"BTN","gid":"BTN-2-4"},"id":"BTN-2-4"},{"arcs":[[32,33,34,35,36,37]],"type":"Polygon","properties":{"name":"Bartsham","shapeGroup":"BTN","gid":"BTN-2-5"},"id":"BTN-2-5"},{"arcs":[[38,39,40,41,42]],"type":"Polygon","properties":{"name":"Barzhong","shapeGroup":"BTN","gid":"BTN-2-6"},"id":"BTN-2-6"},{"arcs":[[-40,43,44,45,46,47,48,49,50,51]],"type":"Polygon","properties":{"name":"Beteni","shapeGroup":"BTN","gid":"BTN-2-7"},"id":"BTN-2-7"},{"arcs":[[52,53,54,55]],"type":"Polygon","properties":{"name":"Bhur","shapeGroup":"BTN","gid":"BTN-2-8"},"id":"BTN-2-8"},{"arcs":[[-33,56,57,58,59,60]],"type":"Polygon","properties":{"name":"Bidung","shapeGroup":"BTN","gid":"BTN-2-9"},"id":"BTN-2-9"},{"arcs":[[61,62,63,64]],"type":"Polygon","properties":{"name":"Biru","shapeGroup":"BTN","gid":"BTN-2-10"},"id":"BTN-2-10"},{"arcs":[[65,66,67,68,69]],"type":"Polygon","properties":{"name":"Bjachho","shapeGroup":"BTN","gid":"BTN-2-11"},"id":"BTN-2-11"},{"arcs":[[-10,70,71,72,73,74]],"type":"Polygon","properties":{"name":"Bjena","shapeGroup":"BTN","gid":"BTN-2-12"},"id":"BTN-2-12"},{"arcs":[[75,76,77,78,79]],"type":"Polygon","properties":{"name":"Bji","shapeGroup":"BTN","gid":"BTN-2-13"},"id":"BTN-2-13"},{"arcs":[[-26,80,81,82,83,84,85]],"type":"Polygon","properties":{"name":"Bjoka","shapeGroup":"BTN","gid":"BTN-2-14"},"id":"BTN-2-14"},{"arcs":[[-67,86,87,88,89,90]],"type":"Polygon","properties":{"name":"Bongo","shapeGroup":"BTN","gid":"BTN-2-15"},"id":"BTN-2-15"},{"arcs":[[91,92,93]],"type":"Polygon","properties":{"name":"Bumdeling","shapeGroup":"BTN","gid":"BTN-2-16"},"id":"BTN-2-16"},{"arcs":[[94,95,96,97,98]],"type":"Polygon","properties":{"name":"Chang","shapeGroup":"BTN","gid":"BTN-2-17"},"id":"BTN-2-17"},{"arcs":[[-69,99,100,101,102,103]],"type":"Polygon","properties":{"name":"Chapchha","shapeGroup":"BTN","gid":"BTN-2-18"},"id":"BTN-2-18"},{"arcs":[[104,105,106,107]],"type":"Polygon","properties":{"name":"Chargharay","shapeGroup":"BTN","gid":"BTN-2-19"},"id":"BTN-2-19"},{"arcs":[[108,109,110,111,112]],"type":"Polygon","properties":{"name":"Chaskhar","shapeGroup":"BTN","gid":"BTN-2-20"},"id":"BTN-2-20"},{"arcs":[[-108,113,114,115,116,117,118,119,120]],"type":"Polygon","properties":{"name":"Chengmari","shapeGroup":"BTN","gid":"BTN-2-21"},"id":"BTN-2-21"},{"arcs":[[121,122,123,124,125]],"type":"Polygon","properties":{"name":"Chhali","shapeGroup":"BTN","gid":"BTN-2-22"},"id":"BTN-2-22"},{"arcs":[[126,127,128,129,130,131,132]],"type":"Polygon","properties":{"name":"Chhimung","shapeGroup":"BTN","gid":"BTN-2-23"},"id":"BTN-2-23"},{"arcs":[[133,134,135,136,137,138,139]],"type":"Polygon","properties":{"name":"Chhoekhor","shapeGroup":"BTN","gid":"BTN-2-24"},"id":"BTN-2-24"},{"arcs":[[140,141,142,143,144]],"type":"Polygon","properties":{"name":"Chhubu","shapeGroup":"BTN","gid":"BTN-2-25"},"id":"BTN-2-25"},{"arcs":[[-138,145,146,147,148,149,150]],"type":"Polygon","properties":{"name":"Chhume","shapeGroup":"BTN","gid":"BTN-2-26"},"id":"BTN-2-26"},{"arcs":[[151,152,153,154]],"type":"Polygon","properties":{"name":"Chhuzagang","shapeGroup":"BTN","gid":"BTN-2-27"},"id":"BTN-2-27"},{"arcs":[[155,156,157,158,159]],"type":"Polygon","properties":{"name":"Chokhorling","shapeGroup":"BTN","gid":"BTN-2-28"},"id":"BTN-2-28"},{"arcs":[[-128,160,161,162,163]],"type":"Polygon","properties":{"name":"Chongshing","shapeGroup":"BTN","gid":"BTN-2-29"},"id":"BTN-2-29"},{"arcs":[[-8,164,165,166,167,168]],"type":"Polygon","properties":{"name":"Daga","shapeGroup":"BTN","gid":"BTN-2-30"},"id":"BTN-2-30"},{"arcs":[[-70,-104,169,170,-97,171,172,173]],"type":"Polygon","properties":{"name":"Dagala","shapeGroup":"BTN","gid":"BTN-2-31"},"id":"BTN-2-31"},{"arcs":[[-90,174,175,176,177]],"type":"Polygon","properties":{"name":"Dala","shapeGroup":"BTN","gid":"BTN-2-32"},"id":"BTN-2-32"},{"arcs":[[-74,178,179,180,181]],"type":"Polygon","properties":{"name":"Dangchhu","shapeGroup":"BTN","gid":"BTN-2-33"},"id":"BTN-2-33"},{"arcs":[[-83,182,183,184,-159,185]],"type":"Polygon","properties":{"name":"Dechhenling","shapeGroup":"BTN","gid":"BTN-2-34"},"id":"BTN-2-34"},{"arcs":[[-55,186,187,188,189]],"type":"Polygon","properties":{"name":"Dekiling","shapeGroup":"BTN","gid":"BTN-2-35"},"id":"BTN-2-35"},{"arcs":[[190,191,192,193]],"type":"Polygon","properties":{"name":"Denchhukha","shapeGroup":"BTN","gid":"BTN-2-36"},"id":"BTN-2-36"},{"arcs":[[194,195,196,197]],"type":"Polygon","properties":{"name":"Deorali","shapeGroup":"BTN","gid":"BTN-2-37"},"id":"BTN-2-37"},{"arcs":[[198,199,200,201,202]],"type":"Polygon","properties":{"name":"Dewathang","shapeGroup":"BTN","gid":"BTN-2-38"},"id":"BTN-2-38"},{"arcs":[[-56,-190,203,204,205,206,207]],"type":"Polygon","properties":{"name":"Doban","shapeGroup":"BTN","gid":"BTN-2-39"},"id":"BTN-2-39"},{"arcs":[[-102,208,209,210]],"type":"Polygon","properties":{"name":"Doga","shapeGroup":"BTN","gid":"BTN-2-40"},"id":"BTN-2-40"},{"arcs":[[211,212,213,214,215]],"type":"Polygon","properties":{"name":"Dopshari","shapeGroup":"BTN","gid":"BTN-2-41"},"id":"BTN-2-41"},{"arcs":[[-117,216,-192,217,218,219]],"type":"Polygon","properties":{"name":"Dorokha","shapeGroup":"BTN","gid":"BTN-2-42"},"id":"BTN-2-42"},{"arcs":[[-198,220,221,222,223,224]],"type":"Polygon","properties":{"name":"Dorona","shapeGroup":"BTN","gid":"BTN-2-43"},"id":"BTN-2-43"},{"arcs":[[-216,225,226,227,228]],"type":"Polygon","properties":{"name":"Doteng","shapeGroup":"BTN","gid":"BTN-2-44"},"id":"BTN-2-44"},{"arcs":[[-150,229,230,231]],"type":"Polygon","properties":{"name":"Dragteng","shapeGroup":"BTN","gid":"BTN-2-45"},"id":"BTN-2-45"},{"arcs":[[-12,232,233,234]],"type":"Polygon","properties":{"name":"Drametse","shapeGroup":"BTN","gid":"BTN-2-46"},"id":"BTN-2-46"},{"arcs":[[235,236,237,238]],"type":"Polygon","properties":{"name":"Drepung","shapeGroup":"BTN","gid":"BTN-2-47"},"id":"BTN-2-47"},{"arcs":[[-42,239,240,241,242,243]],"type":"Polygon","properties":{"name":"Drugyelgang","shapeGroup":"BTN","gid":"BTN-2-48"},"id":"BTN-2-48"},{"arcs":[[-47,244,245,246,-205,247]],"type":"Polygon","properties":{"name":"Dunglegang","shapeGroup":"BTN","gid":"BTN-2-49"},"id":"BTN-2-49"},{"arcs":[[-129,-164,248,-184,249]],"type":"Polygon","properties":{"name":"Dungmin","shapeGroup":"BTN","gid":"BTN-2-50"},"id":"BTN-2-50"},{"arcs":[[-191,250,251,252,253,254,255,-218]],"type":"Polygon","properties":{"name":"Dungna","shapeGroup":"BTN","gid":"BTN-2-51"},"id":"BTN-2-51"},{"arcs":[[-116,256,-193,-217]],"type":"Polygon","properties":{"name":"Dungtoe","shapeGroup":"BTN","gid":"BTN-2-52"},"id":"BTN-2-52"},{"arcs":[[-142,257,258,259,260]],"type":"Polygon","properties":{"name":"Dzoma","shapeGroup":"BTN","gid":"BTN-2-53"},"id":"BTN-2-53"},{"arcs":[[-115,261,262,-251,-194,-257]],"type":"Polygon","properties":{"name":"Gakiling","shapeGroup":"BTN","gid":"BTN-2-54"},"id":"BTN-2-54"},{"arcs":[[-11,-75,-182,263,264]],"type":"Polygon","properties":{"name":"Gangte","shapeGroup":"BTN","gid":"BTN-2-55"},"id":"BTN-2-55"},{"arcs":[[265,266,267,268,269]],"type":"Polygon","properties":{"name":"Gangzur","shapeGroup":"BTN","gid":"BTN-2-56"},"id":"BTN-2-56"},{"arcs":[[270,271,272,273]],"type":"Polygon","properties":{"name":"Gasetsho Gom","shapeGroup":"BTN","gid":"BTN-2-57"},"id":"BTN-2-57"},{"arcs":[[-168,274,-173,275,-272,276]],"type":"Polygon","properties":{"name":"Gasetsho Om","shapeGroup":"BTN","gid":"BTN-2-58"},"id":"BTN-2-58"},{"arcs":[[-53,-208,277,278,-154,279]],"type":"Polygon","properties":{"name":"Gelephu","shapeGroup":"BTN","gid":"BTN-2-59"},"id":"BTN-2-59"},{"arcs":[[-68,-91,-178,280,281,282,-254,283,284,-100]],"type":"Polygon","properties":{"name":"Geling","shapeGroup":"BTN","gid":"BTN-2-60"},"id":"BTN-2-60"},{"arcs":[[-103,285,-170]],"type":"Polygon","properties":{"name":"Genye","shapeGroup":"BTN","gid":"BTN-2-61"},"id":"BTN-2-61"},{"arcs":[[-224,286,287,288]],"type":"Polygon","properties":{"name":"Gesarling","shapeGroup":"BTN","gid":"BTN-2-62"},"id":"BTN-2-62"},{"arcs":[[-88,289,290,-222,291]],"type":"Polygon","properties":{"name":"Getana","shapeGroup":"BTN","gid":"BTN-2-63"},"id":"BTN-2-63"},{"arcs":[[292,293,294,295,296]],"type":"Polygon","properties":{"name":"Goenkhame","shapeGroup":"BTN","gid":"BTN-2-64"},"id":"BTN-2-64"},{"arcs":[[-297,297,298,299,300]],"type":"Polygon","properties":{"name":"Goenkhatoe","shapeGroup":"BTN","gid":"BTN-2-65"},"id":"BTN-2-65"},{"arcs":[[-145,301,-294,302,303]],"type":"Polygon","properties":{"name":"Goenshari","shapeGroup":"BTN","gid":"BTN-2-66"},"id":"BTN-2-66"},{"arcs":[[304,305,306,307,308]],"type":"Polygon","properties":{"name":"Gomdar","shapeGroup":"BTN","gid":"BTN-2-67"},"id":"BTN-2-67"},{"arcs":[[-82,309,310,311,-130,-250,-183]],"type":"Polygon","properties":{"name":"Gongdue","shapeGroup":"BTN","gid":"BTN-2-68"},"id":"BTN-2-68"},{"arcs":[[312,313,314,315]],"type":"Polygon","properties":{"name":"Gosarling","shapeGroup":"BTN","gid":"BTN-2-69"},"id":"BTN-2-69"},{"arcs":[[-288,316,317,318]],"type":"Polygon","properties":{"name":"Gozhi","shapeGroup":"BTN","gid":"BTN-2-70"},"id":"BTN-2-70"},{"arcs":[[-27,-86,319,320]],"type":"Polygon","properties":{"name":"Gozhing","shapeGroup":"BTN","gid":"BTN-2-71"},"id":"BTN-2-71"},{"arcs":[[-16,321,322,323,-143,-261,324]],"type":"Polygon","properties":{"name":"Guma","shapeGroup":"BTN","gid":"BTN-2-72"},"id":"BTN-2-72"},{"arcs":[[-48,-248,-204,-189,325,326,327]],"type":"Polygon","properties":{"name":"Hiley","shapeGroup":"BTN","gid":"BTN-2-73"},"id":"BTN-2-73"},{"arcs":[[-213,328,329,330]],"type":"Polygon","properties":{"name":"Hungrel","shapeGroup":"BTN","gid":"BTN-2-74"},"id":"BTN-2-74"},{"arcs":[[-36,331,332,333,334]],"type":"Polygon","properties":{"name":"Jamkhar","shapeGroup":"BTN","gid":"BTN-2-75"},"id":"BTN-2-75"},{"arcs":[[-156,335,336,337,338,-307,339,-202,340]],"type":"Polygon","properties":{"name":"Jangchhubling","shapeGroup":"BTN","gid":"BTN-2-76"},"id":"BTN-2-76"},{"arcs":[[341,342,343,344,345]],"type":"Polygon","properties":{"name":"Jaray","shapeGroup":"BTN","gid":"BTN-2-77"},"id":"BTN-2-77"},{"arcs":[[-5,346,347,348,349,350,-278,-207,351]],"type":"Polygon","properties":{"name":"Jigmichhoeling","shapeGroup":"BTN","gid":"BTN-2-78"},"id":"BTN-2-78"},{"arcs":[[-131,-312,352,353]],"type":"Polygon","properties":{"name":"Jurmey","shapeGroup":"BTN","gid":"BTN-2-79"},"id":"BTN-2-79"},{"arcs":[[-144,-324,354,355,356,-295,-302]],"type":"Polygon","properties":{"name":"Kabjisa","shapeGroup":"BTN","gid":"BTN-2-80"},"id":"BTN-2-80"},{"arcs":[[-223,-291,357,358,-317,-287]],"type":"Polygon","properties":{"name":"Kalidzingkha","shapeGroup":"BTN","gid":"BTN-2-81"},"id":"BTN-2-81"},{"arcs":[[-234,359,360,361,362,363]],"type":"Polygon","properties":{"name":"Kanglung","shapeGroup":"BTN","gid":"BTN-2-82"},"id":"BTN-2-82"},{"arcs":[[-309,364,365,366,367,368,369]],"type":"Polygon","properties":{"name":"Kangpara","shapeGroup":"BTN","gid":"BTN-2-83"},"id":"BTN-2-83"},{"arcs":[[-76,370,371,372,373,374]],"type":"Polygon","properties":{"name":"Katsho","shapeGroup":"BTN","gid":"BTN-2-84"},"id":"BTN-2-84"},{"arcs":[[-99,375,-228,376,-356,377]],"type":"Polygon","properties":{"name":"Kawang","shapeGroup":"BTN","gid":"BTN-2-85"},"id":"BTN-2-85"},{"arcs":[[-180,378,379,380,381,382,383]],"type":"Polygon","properties":{"name":"Kazhi","shapeGroup":"BTN","gid":"BTN-2-86"},"id":"BTN-2-86"},{"arcs":[[-132,-354,384,-237,385,386]],"type":"Polygon","properties":{"name":"Kengkhar","shapeGroup":"BTN","gid":"BTN-2-87"},"id":"BTN-2-87"},{"arcs":[[-362,387,388,-366,389,390,391,392]],"type":"Polygon","properties":{"name":"Khaling","shapeGroup":"BTN","gid":"BTN-2-88"},"id":"BTN-2-88"},{"arcs":[[393,394,395,396,397,398]],"type":"Polygon","properties":{"name":"Khamdang","shapeGroup":"BTN","gid":"BTN-2-89"},"id":"BTN-2-89"},{"arcs":[[-160,-185,-249,-163,399,-336]],"type":"Polygon","properties":{"name":"Khar","shapeGroup":"BTN","gid":"BTN-2-90"},"id":"BTN-2-90"},{"arcs":[[-241,400,401,-318,-359,402,403]],"type":"Polygon","properties":{"name":"Khipisa","shapeGroup":"BTN","gid":"BTN-2-91"},"id":"BTN-2-91"},{"arcs":[[-94,404,405,406,-266,407,408]],"type":"Polygon","properties":{"name":"Khoma","shapeGroup":"BTN","gid":"BTN-2-92"},"id":"BTN-2-92"},{"arcs":[[-46,409,410,-314,411,-245]],"type":"Polygon","properties":{"name":"Kikorthang","shapeGroup":"BTN","gid":"BTN-2-93"},"id":"BTN-2-93"},{"arcs":[[-4,412,413,-347]],"type":"Polygon","properties":{"name":"Korphu","shapeGroup":"BTN","gid":"BTN-2-94"},"id":"BTN-2-94"},{"arcs":[[-135,414,-408,-270,415]],"type":"Polygon","properties":{"name":"Kurtoe","shapeGroup":"BTN","gid":"BTN-2-95"},"id":"BTN-2-95"},{"arcs":[[-166,416,417,418,-242,-404,419]],"type":"Polygon","properties":{"name":"Lajab","shapeGroup":"BTN","gid":"BTN-2-96"},"id":"BTN-2-96"},{"arcs":[[-215,420,421,-372,422]],"type":"Polygon","properties":{"name":"Lamgong","shapeGroup":"BTN","gid":"BTN-2-97"},"id":"BTN-2-97"},{"arcs":[[423,424,425]],"type":"Polygon","properties":{"name":"Langchhenphu","shapeGroup":"BTN","gid":"BTN-2-98"},"id":"BTN-2-98"},{"arcs":[[-3,426,-230,-149,427,428,-413]],"type":"Polygon","properties":{"name":"Langthil","shapeGroup":"BTN","gid":"BTN-2-99"},"id":"BTN-2-99"},{"arcs":[[-369,429,430,431,432]],"type":"Polygon","properties":{"name":"Lauri","shapeGroup":"BTN","gid":"BTN-2-100"},"id":"BTN-2-100"},{"arcs":[[-300,433,434,435]],"type":"Polygon","properties":{"name":"Laya","shapeGroup":"BTN","gid":"BTN-2-101"},"id":"BTN-2-101"},{"arcs":[[-89,-292,-221,-197,436,437,-175]],"type":"Polygon","properties":{"name":"Lhamoizingkha","shapeGroup":"BTN","gid":"BTN-2-102"},"id":"BTN-2-102"},{"arcs":[[-17,-325,-260,438,439,440]],"type":"Polygon","properties":{"name":"Lingmukha","shapeGroup":"BTN","gid":"BTN-2-103"},"id":"BTN-2-103"},{"arcs":[[-299,441,442,443,444,-434]],"type":"Polygon","properties":{"name":"Lingzhi","shapeGroup":"BTN","gid":"BTN-2-104"},"id":"BTN-2-104"},{"arcs":[[-255,-283,445]],"type":"Polygon","properties":{"name":"Logchina","shapeGroup":"BTN","gid":"BTN-2-105"},"id":"BTN-2-105"},{"arcs":[[-391,446,447]],"type":"Polygon","properties":{"name":"Lumang","shapeGroup":"BTN","gid":"BTN-2-106"},"id":"BTN-2-106"},{"arcs":[[-293,-301,-436,448,449,-383,450,-303]],"type":"Polygon","properties":{"name":"Lunana","shapeGroup":"BTN","gid":"BTN-2-107"},"id":"BTN-2-107"},{"arcs":[[-373,-422,451,452,453,454]],"type":"Polygon","properties":{"name":"Lungnyi","shapeGroup":"BTN","gid":"BTN-2-108"},"id":"BTN-2-108"},{"arcs":[[-199,455,-305,-370,-433,456,457,458,459]],"type":"Polygon","properties":{"name":"Martshala","shapeGroup":"BTN","gid":"BTN-2-109"},"id":"BTN-2-109"},{"arcs":[[-267,-407,460,461,462]],"type":"Polygon","properties":{"name":"Menbi","shapeGroup":"BTN","gid":"BTN-2-110"},"id":"BTN-2-110"},{"arcs":[[-39,463,-44]],"type":"Polygon","properties":{"name":"Mendrelgang","shapeGroup":"BTN","gid":"BTN-2-111"},"id":"BTN-2-111"},{"arcs":[[-368,464,465,466,467,468,-430]],"type":"Polygon","properties":{"name":"Merak","shapeGroup":"BTN","gid":"BTN-2-112"},"id":"BTN-2-112"},{"arcs":[[-253,469,-284]],"type":"Polygon","properties":{"name":"Metap","shapeGroup":"BTN","gid":"BTN-2-113"},"id":"BTN-2-113"},{"arcs":[[-268,-463,470,-346,471,472]],"type":"Polygon","properties":{"name":"Metsho","shapeGroup":"BTN","gid":"BTN-2-114"},"id":"BTN-2-114"},{"arcs":[[-98,-171,-286,-211,473,-329,-212,-229,-376]],"type":"Polygon","properties":{"name":"Mewang","shapeGroup":"BTN","gid":"BTN-2-115"},"id":"BTN-2-115"},{"arcs":[[-406,474,475,-461]],"type":"Polygon","properties":{"name":"Minjay","shapeGroup":"BTN","gid":"BTN-2-116"},"id":"BTN-2-116"},{"arcs":[[-112,476,-239,477,-122,478]],"type":"Polygon","properties":{"name":"Mongar","shapeGroup":"BTN","gid":"BTN-2-117"},"id":"BTN-2-117"},{"arcs":[[-19,479,-273,-276,-172,-96,480]],"type":"Polygon","properties":{"name":"Nahi","shapeGroup":"BTN","gid":"BTN-2-118"},"id":"BTN-2-118"},{"arcs":[[-101,-285,-470,-252,481,482,-454,483,-209]],"type":"Polygon","properties":{"name":"Naja","shapeGroup":"BTN","gid":"BTN-2-119"},"id":"BTN-2-119"},{"arcs":[[-62,484,485,-114,-107,486,487]],"type":"Polygon","properties":{"name":"Namgyel Chhoeling","shapeGroup":"BTN","gid":"BTN-2-120"},"id":"BTN-2-120"},{"arcs":[[-30,488,-428,-148,489]],"type":"Polygon","properties":{"name":"Nangkor","shapeGroup":"BTN","gid":"BTN-2-121"},"id":"BTN-2-121"},{"arcs":[[-339,490,491,492,-392,-448,493]],"type":"Polygon","properties":{"name":"Nanong","shapeGroup":"BTN","gid":"BTN-2-122"},"id":"BTN-2-122"},{"arcs":[[-13,-235,-364,494,-109,495]],"type":"Polygon","properties":{"name":"Narang","shapeGroup":"BTN","gid":"BTN-2-123"},"id":"BTN-2-123"},{"arcs":[[-227,496,-442,-298,-296,-357,-377]],"type":"Polygon","properties":{"name":"Naro","shapeGroup":"BTN","gid":"BTN-2-124"},"id":"BTN-2-124"},{"arcs":[[-85,497,498,499,-320]],"type":"Polygon","properties":{"name":"Ngangla","shapeGroup":"BTN","gid":"BTN-2-125"},"id":"BTN-2-125"},{"arcs":[[-14,-496,-113,-479,-126,500,501]],"type":"Polygon","properties":{"name":"Ngatshang","shapeGroup":"BTN","gid":"BTN-2-126"},"id":"BTN-2-126"},{"arcs":[[-50,502,503,-437,-196,504]],"type":"Polygon","properties":{"name":"Nichula","shapeGroup":"BTN","gid":"BTN-2-127"},"id":"BTN-2-127"},{"arcs":[[-84,-186,-158,505,-498]],"type":"Polygon","properties":{"name":"Norbugang","shapeGroup":"BTN","gid":"BTN-2-128"},"id":"BTN-2-128"},{"arcs":[[-139,-151,-232,506,507]],"type":"Polygon","properties":{"name":"Nubi","shapeGroup":"BTN","gid":"BTN-2-129"},"id":"BTN-2-129"},{"arcs":[[-73,508,-379,-179]],"type":"Polygon","properties":{"name":"Nyisho","shapeGroup":"BTN","gid":"BTN-2-130"},"id":"BTN-2-130"},{"arcs":[[509,510,511]],"type":"Polygon","properties":{"name":"Pagli","shapeGroup":"BTN","gid":"BTN-2-131"},"id":"BTN-2-131"},{"arcs":[[-28,-321,-500,512,513,514,-349,515]],"type":"Polygon","properties":{"name":"Pangkhar","shapeGroup":"BTN","gid":"BTN-2-132"},"id":"BTN-2-132"},{"arcs":[[-7,516,517,-417,-165]],"type":"Polygon","properties":{"name":"Patakla","shapeGroup":"BTN","gid":"BTN-2-133"},"id":"BTN-2-133"},{"arcs":[[-459,518,519,520]],"type":"Polygon","properties":{"name":"Pemathang","shapeGroup":"BTN","gid":"BTN-2-134"},"id":"BTN-2-134"},{"arcs":[[-72,521,522,-440,-380,-509]],"type":"Polygon","properties":{"name":"Phangyuel","shapeGroup":"BTN","gid":"BTN-2-135"},"id":"BTN-2-135"},{"arcs":[[-1,-265,523,524]],"type":"Polygon","properties":{"name":"Phobji","shapeGroup":"BTN","gid":"BTN-2-136"},"id":"BTN-2-136"},{"arcs":[[-58,525,526,527,-467,528]],"type":"Polygon","properties":{"name":"Phongme","shapeGroup":"BTN","gid":"BTN-2-137"},"id":"BTN-2-137"},{"arcs":[[-6,-352,-206,-247,529,530,-517]],"type":"Polygon","properties":{"name":"Phuentenchhu","shapeGroup":"BTN","gid":"BTN-2-138"},"id":"BTN-2-138"},{"arcs":[[-256,-446,-282,531,532,533]],"type":"Polygon","properties":{"name":"Phuentsholing","shapeGroup":"BTN","gid":"BTN-2-139"},"id":"BTN-2-139"},{"arcs":[[-200,-460,-521,534]],"type":"Polygon","properties":{"name":"Phuntsthothang","shapeGroup":"BTN","gid":"BTN-2-140"},"id":"BTN-2-140"},{"arcs":[[-59,-529,-466,535]],"type":"Polygon","properties":{"name":"Radi","shapeGroup":"BTN","gid":"BTN-2-141"},"id":"BTN-2-141"},{"arcs":[[-37,-335,536,-397,537]],"type":"Polygon","properties":{"name":"Ramjar","shapeGroup":"BTN","gid":"BTN-2-142"},"id":"BTN-2-142"},{"arcs":[[-43,-244,538,539,-410,-45,-464]],"type":"Polygon","properties":{"name":"Rangthangling","shapeGroup":"BTN","gid":"BTN-2-143"},"id":"BTN-2-143"},{"arcs":[[-9,-169,-277,-271,540,-522,-71]],"type":"Polygon","properties":{"name":"Ruepisa","shapeGroup":"BTN","gid":"BTN-2-144"},"id":"BTN-2-144"},{"arcs":[[-468,-528,541]],"type":"Polygon","properties":{"name":"Sakteng","shapeGroup":"BTN","gid":"BTN-2-145"},"id":"BTN-2-145"},{"arcs":[[-32,542,543,-344,544,-123,-478,-238,-385,-353,-311,545]],"type":"Polygon","properties":{"name":"Saleng","shapeGroup":"BTN","gid":"BTN-2-146"},"id":"BTN-2-146"},{"arcs":[[-77,-375,546,-482,-263,547]],"type":"Polygon","properties":{"name":"Sama","shapeGroup":"BTN","gid":"BTN-2-147"},"id":"BTN-2-147"},{"arcs":[[-34,-61,548,-388,-361,549]],"type":"Polygon","properties":{"name":"Samkhar","shapeGroup":"BTN","gid":"BTN-2-148"},"id":"BTN-2-148"},{"arcs":[[-177,550,-532,-281]],"type":"Polygon","properties":{"name":"Samphelling","shapeGroup":"BTN","gid":"BTN-2-149"},"id":"BTN-2-149"},{"arcs":[[-425,551,-519,-458,552]],"type":"Polygon","properties":{"name":"Samrang","shapeGroup":"BTN","gid":"BTN-2-150"},"id":"BTN-2-150"},{"arcs":[[-118,-220,553,-511,554]],"type":"Polygon","properties":{"name":"Samtse","shapeGroup":"BTN","gid":"BTN-2-151"},"id":"BTN-2-151"},{"arcs":[[-49,-328,555,-503]],"type":"Polygon","properties":{"name":"Senge","shapeGroup":"BTN","gid":"BTN-2-152"},"id":"BTN-2-152"},{"arcs":[[-140,-508,556,-524,-264,-181,-384,-450,557]],"type":"Polygon","properties":{"name":"Sephu","shapeGroup":"BTN","gid":"BTN-2-153"},"id":"BTN-2-153"},{"arcs":[[-426,-553,-457,-432,558]],"type":"Polygon","properties":{"name":"Serthig","shapeGroup":"BTN","gid":"BTN-2-154"},"id":"BTN-2-154"},{"arcs":[[-210,-484,-453,559,-330,-474]],"type":"Polygon","properties":{"name":"Shapa","shapeGroup":"BTN","gid":"BTN-2-155"},"id":"BTN-2-155"},{"arcs":[[-246,-412,-313,560,-530]],"type":"Polygon","properties":{"name":"Shemjong","shapeGroup":"BTN","gid":"BTN-2-156"},"id":"BTN-2-156"},{"arcs":[[-259,561,-381,-439]],"type":"Polygon","properties":{"name":"Shengabjimi","shapeGroup":"BTN","gid":"BTN-2-157"},"id":"BTN-2-157"},{"arcs":[[-15,-502,562,563,-475,564,565,-333,566]],"type":"Polygon","properties":{"name":"Shermung","shapeGroup":"BTN","gid":"BTN-2-158"},"id":"BTN-2-158"},{"arcs":[[-155,-279,-351,567]],"type":"Polygon","properties":{"name":"Sherzhong","shapeGroup":"BTN","gid":"BTN-2-159"},"id":"BTN-2-159"},{"arcs":[[-31,-490,-147,568,-543]],"type":"Polygon","properties":{"name":"Shingkhar","shapeGroup":"BTN","gid":"BTN-2-160"},"id":"BTN-2-160"},{"arcs":[[-188,569,-326]],"type":"Polygon","properties":{"name":"Shompangkha","shapeGroup":"BTN","gid":"BTN-2-161"},"id":"BTN-2-161"},{"arcs":[[-60,-536,-465,-367,-389,-549]],"type":"Polygon","properties":{"name":"Shongphu","shapeGroup":"BTN","gid":"BTN-2-162"},"id":"BTN-2-162"},{"arcs":[[-133,-387,570,571,-492,572,-337,-400,-162,573]],"type":"Polygon","properties":{"name":"Shumer","shapeGroup":"BTN","gid":"BTN-2-163"},"id":"BTN-2-163"},{"arcs":[[-25,-546,-310,-81]],"type":"Polygon","properties":{"name":"Silambi","shapeGroup":"BTN","gid":"BTN-2-164"},"id":"BTN-2-164"},{"arcs":[[-63,-488,574]],"type":"Polygon","properties":{"name":"Sipsu","shapeGroup":"BTN","gid":"BTN-2-165"},"id":"BTN-2-165"},{"arcs":[[-444,575,576]],"type":"Polygon","properties":{"name":"Soe","shapeGroup":"BTN","gid":"BTN-2-166"},"id":"BTN-2-166"},{"arcs":[[-24,577,-78,-548,-262,-486,578]],"type":"Polygon","properties":{"name":"Sombey","shapeGroup":"BTN","gid":"BTN-2-167"},"id":"BTN-2-167"},{"arcs":[[-219,-534,579,-512,-554]],"type":"Polygon","properties":{"name":"Tading","shapeGroup":"BTN","gid":"BTN-2-168"},"id":"BTN-2-168"},{"arcs":[[-514,580,581]],"type":"Polygon","properties":{"name":"Taklai","shapeGroup":"BTN","gid":"BTN-2-169"},"id":"BTN-2-169"},{"arcs":[[-21,582,-322]],"type":"Polygon","properties":{"name":"Talo","shapeGroup":"BTN","gid":"BTN-2-170"},"id":"BTN-2-170"},{"arcs":[[-136,-416,-269,-473,583]],"type":"Polygon","properties":{"name":"Tang","shapeGroup":"BTN","gid":"BTN-2-171"},"id":"BTN-2-171"},{"arcs":[[-2,-525,-557,-507,-231,-427]],"type":"Polygon","properties":{"name":"Tangsibji","shapeGroup":"BTN","gid":"BTN-2-172"},"id":"BTN-2-172"},{"arcs":[[-22,-579,-485,-65,584]],"type":"Polygon","properties":{"name":"Tendu","shapeGroup":"BTN","gid":"BTN-2-173"},"id":"BTN-2-173"},{"arcs":[[-111,585,-571,-386,-236,-477]],"type":"Polygon","properties":{"name":"Thangrong","shapeGroup":"BTN","gid":"BTN-2-174"},"id":"BTN-2-174"},{"arcs":[[-18,-441,-523,-541,-274,-480]],"type":"Polygon","properties":{"name":"Thedtsho","shapeGroup":"BTN","gid":"BTN-2-175"},"id":"BTN-2-175"},{"arcs":[[-308,-494,-447,-390,-365]],"type":"Polygon","properties":{"name":"Thrimshing","shapeGroup":"BTN","gid":"BTN-2-176"},"id":"BTN-2-176"},{"arcs":[[-20,-481,-95,-378,-355,-323,-583]],"type":"Polygon","properties":{"name":"Toepisa","shapeGroup":"BTN","gid":"BTN-2-177"},"id":"BTN-2-177"},{"arcs":[[-395,586,587]],"type":"Polygon","properties":{"name":"Toetsho","shapeGroup":"BTN","gid":"BTN-2-178"},"id":"BTN-2-178"},{"arcs":[[-141,-304,-451,-382,-562,-258]],"type":"Polygon","properties":{"name":"Toewang","shapeGroup":"BTN","gid":"BTN-2-179"},"id":"BTN-2-179"},{"arcs":[[-334,-566,588,-398,-537]],"type":"Polygon","properties":{"name":"Tomzhangtshen","shapeGroup":"BTN","gid":"BTN-2-180"},"id":"BTN-2-180"},{"arcs":[[-41,-52,589,-401,-240]],"type":"Polygon","properties":{"name":"Trashiding","shapeGroup":"BTN","gid":"BTN-2-181"},"id":"BTN-2-181"},{"arcs":[[-93,590,-399,-589,-565,-405]],"type":"Polygon","properties":{"name":"Trashiyangtse","shapeGroup":"BTN","gid":"BTN-2-182"},"id":"BTN-2-182"},{"arcs":[[-29,-516,-348,-414,-429,-489]],"type":"Polygon","properties":{"name":"Trong","shapeGroup":"BTN","gid":"BTN-2-183"},"id":"BTN-2-183"},{"arcs":[[-125,591,592,-563,-501]],"type":"Polygon","properties":{"name":"Tsakaling","shapeGroup":"BTN","gid":"BTN-2-184"},"id":"BTN-2-184"},{"arcs":[[-124,-545,-343,593,-592]],"type":"Polygon","properties":{"name":"Tsamang","shapeGroup":"BTN","gid":"BTN-2-185"},"id":"BTN-2-185"},{"arcs":[[-243,-419,594,595,-539]],"type":"Polygon","properties":{"name":"Tsangkha","shapeGroup":"BTN","gid":"BTN-2-186"},"id":"BTN-2-186"},{"arcs":[[-51,-505,-195,-225,-289,-319,-402,-590]],"type":"Polygon","properties":{"name":"Tsendagang","shapeGroup":"BTN","gid":"BTN-2-187"},"id":"BTN-2-187"},{"arcs":[[-342,-471,-462,-476,-564,-593,-594]],"type":"Polygon","properties":{"name":"Tsenkhar","shapeGroup":"BTN","gid":"BTN-2-188"},"id":"BTN-2-188"},{"arcs":[[-80,596,-576,-443,-497,-226,-423,-371]],"type":"Polygon","properties":{"name":"Tsento","shapeGroup":"BTN","gid":"BTN-2-189"},"id":"BTN-2-189"},{"arcs":[[-66,-174,-275,-167,-420,-403,-358,-290,-87]],"type":"Polygon","properties":{"name":"Tseza","shapeGroup":"BTN","gid":"BTN-2-190"},"id":"BTN-2-190"},{"arcs":[[-315,-411,-540,-596,597]],"type":"Polygon","properties":{"name":"Tsholingkhor","shapeGroup":"BTN","gid":"BTN-2-191"},"id":"BTN-2-191"},{"arcs":[[-316,-598,-595,-418,-518,-531,-561]],"type":"Polygon","properties":{"name":"Tsirangtoe","shapeGroup":"BTN","gid":"BTN-2-192"},"id":"BTN-2-192"},{"arcs":[[-110,-495,-363,-393,-493,-572,-586]],"type":"Polygon","properties":{"name":"Udzorong","shapeGroup":"BTN","gid":"BTN-2-193"},"id":"BTN-2-193"},{"arcs":[[-374,-455,-483,-547]],"type":"Polygon","properties":{"name":"Uesu","shapeGroup":"BTN","gid":"BTN-2-194"},"id":"BTN-2-194"},{"arcs":[[-120,598,599]],"type":"Polygon","properties":{"name":"Ugentse","shapeGroup":"BTN","gid":"BTN-2-195"},"id":"BTN-2-195"},{"arcs":[[-152,-568,-350,-515,-582,600]],"type":"Polygon","properties":{"name":"Umling","shapeGroup":"BTN","gid":"BTN-2-196"},"id":"BTN-2-196"},{"arcs":[[-137,-584,-472,-345,-544,-569,-146]],"type":"Polygon","properties":{"name":"Ura","shapeGroup":"BTN","gid":"BTN-2-197"},"id":"BTN-2-197"},{"arcs":[[-214,-331,-560,-452,-421]],"type":"Polygon","properties":{"name":"Wangchang","shapeGroup":"BTN","gid":"BTN-2-198"},"id":"BTN-2-198"},{"arcs":[[-203,-340,-306,-456]],"type":"Polygon","properties":{"name":"Wangphu","shapeGroup":"BTN","gid":"BTN-2-199"},"id":"BTN-2-199"},{"arcs":[[-38,-538,-396,-588,601,-526,-57]],"type":"Polygon","properties":{"name":"Yalang","shapeGroup":"BTN","gid":"BTN-2-200"},"id":"BTN-2-200"},{"arcs":[[-35,-550,-360,-233,-567,-332]],"type":"Polygon","properties":{"name":"Yangnyer","shapeGroup":"BTN","gid":"BTN-2-201"},"id":"BTN-2-201"},{"arcs":[[-105,-121,-600,602]],"type":"Polygon","properties":{"name":"Yoeseltse","shapeGroup":"BTN","gid":"BTN-2-202"},"id":"BTN-2-202"},{"arcs":[[-127,-574,-161]],"type":"Polygon","properties":{"name":"Yurung","shapeGroup":"BTN","gid":"BTN-2-203"},"id":"BTN-2-203"},{"arcs":[[-338,-573,-491]],"type":"Polygon","properties":{"name":"Zobel","shapeGroup":"BTN","gid":"BTN-2-204"},"id":"BTN-2-204"}]}}}