{"type":"Topology","arcs":[[[4286,3428],[11,-13],[42,-3],[48,-16],[41,9],[48,-6],[21,-18],[46,-21],[41,22],[44,-14],[11,-16],[53,-23],[13,-13],[80,-26],[22,2],[42,-20],[2,-15],[-21,-43],[5,-67],[25,-33],[47,-18]],[[4907,3096],[-134,-60],[-68,-81],[-359,-167]],[[4346,2788],[-21,40],[1,42],[-40,34],[-72,51],[-67,40],[-40,15],[-98,-21],[-122,63],[-17,-2]],[[3870,3050],[2,75],[8,32],[39,56],[-4,33],[-31,8],[-50,-21],[-27,11],[16,52],[-30,7],[15,54],[85,2],[57,-4],[44,6],[70,19],[78,43],[27,8],[80,1]],[[4249,3432],[37,-4]],[[4199,2588],[-48,-105],[-59,-53],[-45,-17],[-89,-99],[-45,-7],[-27,-23],[-37,-64],[-80,-51],[-33,-26],[-51,-29]],[[3685,2114],[-37,26],[-26,38],[-16,57],[3,39],[33,71],[13,52],[9,79],[-5,82],[-14,68],[4,12],[42,8],[15,27]],[[3706,2673],[47,-25],[39,13],[53,2],[35,-12],[22,-32],[-2,-16],[-36,-23],[-8,-43],[27,-12],[30,20],[79,-7],[43,-18],[42,2],[43,37],[26,36],[53,-7]],[[3115,1179],[-83,27]],[[3032,1206],[-38,-3]],[[2994,1203],[24,79],[25,28],[-1,48]],[[3042,1358],[87,105]],[[3129,1463],[54,65]],[[3183,1528],[103,-75],[22,-39]],[[3308,1414],[-91,-24],[-45,-2],[-35,-26],[15,-59],[-4,-38],[-33,-86]],[[2409,4183],[3,-59],[-41,-54],[8,-32],[52,-2],[3,-136],[80,26],[0,-26],[28,-3],[33,27],[28,4],[16,71],[24,-56],[-10,-128],[34,15],[11,-30],[20,26],[32,-9],[-29,62],[75,95],[56,-18],[7,-18],[-26,-44],[60,-35],[-17,-22],[-12,-53],[69,29],[12,34],[24,-52],[37,10],[38,34],[102,-55],[26,-63],[29,-15],[26,-30],[30,-10],[24,3],[54,44],[30,6],[-14,-124]],[[3331,3595],[-33,-15],[-55,-212],[-569,-483]],[[2674,2885],[-161,244],[-128,195],[-168,257],[-140,214]],[[2077,3795],[-4,401],[3,50],[18,-15],[46,13],[-2,17],[49,36],[31,12],[28,-13],[6,-20],[27,8],[10,-47],[29,-15],[34,-46],[27,10],[30,-3]],[[3685,2114],[-6,-21],[44,-49],[-2,-27]],[[3721,2017],[-45,-40],[-22,-34],[-19,-1],[-43,-55],[-118,77],[-228,155],[-27,21]],[[3219,2140],[-83,131],[-67,23],[-156,233],[-4,10]],[[2909,2537],[30,45],[91,-9],[19,-10],[113,-14],[90,3],[25,-5],[46,14],[44,32],[12,21],[77,66],[44,7],[94,-27],[58,24],[54,-6]],[[3706,2678],[0,-5]],[[4346,2788],[-64,-34],[-83,-166]],[[3706,2678],[7,38],[16,30],[35,22],[4,18],[-55,13],[-28,19],[-3,39],[16,27],[49,34],[29,58],[9,35],[38,16],[39,6],[8,17]],[[3115,1179],[-38,-113],[-23,-38],[-7,-53],[-23,-64]],[[3024,911],[-61,29]],[[2963,940],[28,107]],[[2991,1047],[41,159]],[[2909,2537],[-8,8],[-227,340]],[[3331,3595],[154,67],[53,43],[16,20],[61,22],[60,0],[73,-16],[22,23],[43,10],[39,0],[58,-35],[22,-1]],[[3932,3728],[2,-44],[12,-13],[5,-42],[18,-74],[45,-70],[41,-7],[17,-25],[73,-23],[34,11],[63,2],[7,-11]],[[3024,911],[0,-27],[-36,-83],[-64,-44],[-24,-23],[-40,-19],[-94,4]],[[2766,719],[98,198],[22,13],[77,10]],[[4907,3096],[41,10],[21,-39],[25,-25],[-11,-19],[-67,3],[-20,-19],[-63,-2],[-11,-9],[-28,-66],[6,-20],[-29,-61],[-27,8],[-20,-24],[-65,-19],[-42,-30],[-41,-3],[-21,-14],[-34,10],[-55,-4],[-36,-26],[-7,-16],[-35,-19],[-21,-26],[1,-26],[-64,-64],[5,-26],[-47,-46],[-15,-32],[-2,-30],[-50,-36],[-65,-81],[-21,22],[-15,-17],[-29,3],[-11,-28],[-7,-53],[-26,-23],[-35,0],[-16,-25],[-22,16],[-31,-10],[-24,-39],[-32,-9],[-41,-34],[-40,-50],[-2,-33],[-30,17],[-2,-27],[-19,-39]],[[3727,2016],[-6,1]],[[2409,4183],[352,31],[5,177],[-96,46],[0,296],[0,301],[-2,45]],[[2668,5079],[280,1],[255,1]],[[3203,5081],[3,-26],[-18,-34],[9,-29],[36,-53],[51,-144],[12,-61],[45,-34],[32,6],[23,-27],[-15,-25],[35,-9],[17,-41],[40,-14],[45,-31],[22,-51],[44,-7],[10,-29],[41,-3],[8,-22],[50,-9],[35,-16],[47,-1],[29,-40],[43,1],[28,-39],[21,-53],[9,-48],[-1,-77],[-6,-51]],[[3898,4114],[0,-35],[10,-40],[-41,-61],[-11,-70],[7,-24],[37,-28],[28,-62],[4,-66]],[[2909,2537],[-1,-11],[-95,-212],[-12,-18]],[[2801,2296],[-284,1],[-289,0],[-287,1],[-306,1]],[[1635,2299],[-301,-1],[-266,1],[-319,0],[-331,2],[-249,-1],[-169,1]],[[0,2301],[0,414],[0,429],[536,-1],[-3,652]],[[533,3795],[210,-2],[237,-2],[213,-1],[226,0]],[[1419,3790],[303,1],[355,4]],[[0,1764],[1006,-477],[158,2]],[[1164,1289],[2,-318],[-170,-3],[-435,-693],[-232,-13]],[[329,262],[41,46],[6,22],[57,82],[9,41],[19,26],[-24,83],[11,31],[-15,17],[-10,75],[-32,33],[-5,23],[-24,33],[8,60],[-30,36],[16,53],[-50,35],[-25,45],[8,21],[-27,21],[-21,42],[-12,51],[-23,49],[-50,40],[-15,32],[-43,8],[-30,18],[-24,35],[-21,14],[-23,35],[0,395]],[[1635,2299],[0,-67],[-54,-6],[0,-94],[53,1],[0,-278]],[[1634,1855],[-1,-246],[-2,-294],[27,-9]],[[1658,1306],[0,-20],[-494,3]],[[0,1764],[0,252],[0,285]],[[1658,1306],[335,2],[188,0],[85,-99]],[[2266,1209],[8,-330],[79,-90],[50,-1],[5,-58],[-12,-4]],[[2396,726],[-18,4],[-37,-13],[-44,26],[-54,66],[-75,-19],[-44,22],[-33,-6],[-16,30],[-60,49],[-6,22],[-62,24],[-14,33],[-59,34],[-32,35],[-11,-22],[-34,17],[-85,6],[-35,-25],[-35,-11],[-31,23],[-17,-29],[-4,-28],[-32,-24],[-12,-32],[-21,-14],[3,-25],[-20,-36],[6,-63],[-28,-33],[-16,-45],[21,-13],[-37,-49],[5,-34],[-3,-46],[-29,-3],[2,-31],[-22,-34],[-26,-11],[-2,-33],[-16,-22],[-38,15],[-26,-14],[-33,-60],[-59,-19],[-31,-30],[-20,-71],[-43,-48],[-18,-33],[-57,-26],[-73,4],[-13,-11],[5,-59],[-6,-18],[-36,-33],[-45,-7],[-14,12],[-41,-9],[-53,23],[-42,-1],[-109,-30],[-35,14],[-30,2],[-25,26],[-39,8],[-39,-16],[-31,-26],[-29,-9],[-30,21],[-15,29],[-1,131],[-11,18],[3,63]],[[3183,1528],[-25,11],[-16,23],[5,51],[36,52],[38,460],[-2,15]],[[3727,2016],[-8,-41],[2,-41],[-35,-136],[-10,-8],[-9,-109],[-36,-23],[-25,1],[-34,-32],[0,-16],[-43,-19],[-40,-50],[-24,-66],[-29,-31],[-128,-31]],[[2991,1047],[-76,0],[-40,-8],[-52,11],[-62,49],[-55,-60],[-60,-25],[-55,-8],[-29,13],[-26,40],[-23,67],[-40,-1],[-27,-13],[-25,-46],[-33,-25],[-22,1],[-9,80],[-14,70],[-14,10],[-47,-9]],[[2282,1193],[35,94],[28,53],[47,51],[45,14],[52,3],[25,-11],[56,-51],[64,-36],[70,-11],[26,-35],[-5,-25],[-22,-36],[2,-31],[101,-12],[85,6],[80,24],[23,13]],[[3129,1463],[-40,48],[-147,111],[-48,65],[-22,40],[-60,91],[-23,51],[-4,44],[13,249],[10,111],[-7,23]],[[533,3795],[1,424],[0,217],[0,534],[0,551],[252,-1],[554,132],[259,62],[62,12],[53,1]],[[1714,5727],[-11,-675],[-31,-33],[-47,-15],[-75,17],[-33,15],[-62,-15],[-80,5],[-16,-689],[31,-63],[37,-31],[26,-56],[2,-78],[-14,-90],[-18,-141],[-4,-88]],[[3042,1358],[-52,2],[-82,53],[-345,117],[-301,104],[-307,107],[-321,114]],[[3898,4114],[39,16],[44,-8],[19,8],[51,-14],[28,7],[32,-4],[21,-19],[3,-22],[-13,-37],[2,-39],[14,-56],[-11,-58],[-13,-20],[2,-44],[10,-13],[-14,-63],[36,-58],[21,-14],[58,-81],[9,-39],[31,-60],[-5,-37],[24,-31]],[[2668,5079],[-365,2],[-217,2],[-8,2],[2,466]],[[2080,5551],[20,14],[5,28],[25,10],[49,49],[24,6],[45,57],[16,-4],[41,13],[32,33],[30,-1],[34,-38],[1,-23],[46,-11],[30,53],[97,81],[82,34],[24,-21],[17,15],[14,-20],[39,21],[11,20],[54,-12],[-14,-50],[0,-26],[17,-25],[7,-36],[22,-43],[18,-8],[34,-44],[37,-88],[18,-58],[46,-66],[22,-14],[32,-57],[21,-4],[20,-24],[6,-32],[-4,-43],[16,-56],[65,-43],[24,-57]],[[1714,5727],[50,0],[17,-53],[26,-35],[19,-45],[60,-45],[17,-43],[6,-88],[24,-18],[57,44],[39,35],[9,25],[22,16],[20,31]],[[2282,1193],[-16,16]],[[2766,719],[-24,2],[-40,23],[-19,-3],[-59,-56],[-57,-8],[-34,12],[-24,-10],[-42,12],[-19,16],[-52,19]]],"transform":{"scale":[0.001869045454545455,0.0015501482870291467],"translate":[19.999999,-26.87553]},"objects":{"BWA":{"type":"GeometryCollection","geometries":[{"arcs":[[0,1,2,3,4]],"type":"Polygon","properties":{"name":"Bobonong","shapeGroup":"BWA","gid":"BWA-2-0"},"id":"BWA-2-0"},{"arcs":[[5,6,7]],"type":"Polygon","properties":{"name":"Machaneng","shapeGroup":"BWA","gid":"BWA-2-1"},"id":"BWA-2-1"},{"arcs":[[8,9,10,11,12,13,14]],"type":"Polygon","properties":{"name":"Gaborone","shapeGroup":"BWA","gid":"BWA-2-2"},"id":"BWA-2-2"},{"arcs":[[15,16,17,18]],"type":"Polygon","properties":{"name":"Lethlakane","shapeGroup":"BWA","gid":"BWA-2-3"},"id":"BWA-2-3"},{"arcs":[[-7,19,20,21,22,23]],"type":"Polygon","properties":{"name":"Mahalapye","shapeGroup":"BWA","gid":"BWA-2-4"},"id":"BWA-2-4"},{"arcs":[[-3,24,-8,-24,25]],"type":"Polygon","properties":{"name":"Palapye","shapeGroup":"BWA","gid":"BWA-2-5"},"id":"BWA-2-5"},{"arcs":[[-9,26,27,28,29]],"type":"Polygon","properties":{"name":"South East","shapeGroup":"BWA","gid":"BWA-2-6"},"id":"BWA-2-6"},{"arcs":[[-4,-26,-23,30,-17,31,32]],"type":"Polygon","properties":{"name":"Serowe","shapeGroup":"BWA","gid":"BWA-2-7"},"id":"BWA-2-7"},{"arcs":[[-28,33,34]],"type":"Polygon","properties":{"name":"Barolong","shapeGroup":"BWA","gid":"BWA-2-8"},"id":"BWA-2-8"},{"arcs":[[-2,35,36,-20,-6,-25]],"type":"Polygon","properties":{"name":"Tuli","shapeGroup":"BWA","gid":"BWA-2-9"},"id":"BWA-2-9"},{"arcs":[[-16,37,38,39,40,-32]],"type":"Polygon","properties":{"name":"Tutume","shapeGroup":"BWA","gid":"BWA-2-10"},"id":"BWA-2-10"},{"arcs":[[-18,-31,41,42,43,44,45,46]],"type":"Polygon","properties":{"name":"Ghanzi","shapeGroup":"BWA","gid":"BWA-2-11"},"id":"BWA-2-11"},{"arcs":[[47,48,49]],"type":"Polygon","properties":{"name":"Gemsbok","shapeGroup":"BWA","gid":"BWA-2-12"},"id":"BWA-2-12"},{"arcs":[[-44,50,51,52,-48,53]],"type":"Polygon","properties":{"name":"Hukunsti","shapeGroup":"BWA","gid":"BWA-2-13"},"id":"BWA-2-13"},{"arcs":[[-49,-53,54,55,56]],"type":"Polygon","properties":{"name":"Tshabong","shapeGroup":"BWA","gid":"BWA-2-14"},"id":"BWA-2-14"},{"arcs":[[-14,57,-21,-37,58]],"type":"Polygon","properties":{"name":"Kgatleng","shapeGroup":"BWA","gid":"BWA-2-15"},"id":"BWA-2-15"},{"arcs":[[-10,-30,59,60]],"type":"Polygon","properties":{"name":"Ngwaketse Central","shapeGroup":"BWA","gid":"BWA-2-16"},"id":"BWA-2-16"},{"arcs":[[-13,61,-42,-22,-58]],"type":"Polygon","properties":{"name":"Kweneng North","shapeGroup":"BWA","gid":"BWA-2-17"},"id":"BWA-2-17"},{"arcs":[[-46,62,63]],"type":"Polygon","properties":{"name":"Ngamiland West","shapeGroup":"BWA","gid":"BWA-2-18"},"id":"BWA-2-18"},{"arcs":[[-12,64,-51,-43,-62]],"type":"Polygon","properties":{"name":"Kweneng South","shapeGroup":"BWA","gid":"BWA-2-19"},"id":"BWA-2-19"},{"arcs":[[-5,-33,-41,65]],"type":"Polygon","properties":{"name":"Masungu","shapeGroup":"BWA","gid":"BWA-2-20"},"id":"BWA-2-20"},{"arcs":[[-39,66,67]],"type":"Polygon","properties":{"name":"Chobe","shapeGroup":"BWA","gid":"BWA-2-21"},"id":"BWA-2-21"},{"arcs":[[-19,-47,-64,68,-67,-38]],"type":"Polygon","properties":{"name":"Ngamiland East","shapeGroup":"BWA","gid":"BWA-2-22"},"id":"BWA-2-22"},{"arcs":[[-11,-61,69,-55,-52,-65]],"type":"Polygon","properties":{"name":"Ngwaketse North","shapeGroup":"BWA","gid":"BWA-2-23"},"id":"BWA-2-23"},{"arcs":[[-29,-35,70,-56,-70,-60]],"type":"Polygon","properties":{"name":"Ngwaketse South","shapeGroup":"BWA","gid":"BWA-2-24"},"id":"BWA-2-24"}]}}}