{"type":"Topology","arcs":[[[13156,3165],[16,144],[-17,25],[23,64],[65,70],[21,79],[-84,90],[2,32],[122,101],[-36,44],[-34,140],[8,42],[31,48],[-2,46],[16,62]],[[13287,4152],[38,-89],[34,-8],[61,15],[18,-48],[57,2],[42,-16],[44,-55],[37,12],[62,-38],[4,-31],[39,-5],[47,-103],[-8,-31],[53,-30],[1,-62],[-25,-23],[-31,-99],[14,-99],[37,-60],[22,-6],[16,-68],[102,-77],[30,-81],[-191,84],[-35,2],[-49,37],[-104,25],[-170,-77],[-53,-98],[-83,-1],[-22,44],[-45,19],[-73,-22]],[[13156,3165],[-37,8],[-108,-22],[-15,-30],[-69,16],[-11,43],[-87,47],[-56,12],[-94,61],[-102,53],[-42,-48],[-51,-4],[-71,41],[-27,-45],[-66,-10],[-34,32],[-38,-27],[-50,62],[-43,-19],[-59,74]],[[12096,3409],[82,13],[24,83],[34,68],[39,24],[29,56],[33,12],[49,61],[36,3]],[[12422,3729],[63,23],[25,-6],[75,29],[28,84],[47,22],[100,67],[153,47],[81,36],[31,3],[24,42],[-22,53],[18,76]],[[13045,4205],[43,2],[56,-37],[30,22],[48,-19],[25,21],[40,-42]],[[12422,3729],[-4,69],[-32,50],[-2,42],[-28,43],[-37,11],[4,-79],[-43,43],[-27,-11],[-53,20],[-136,-34],[-39,-21],[4,-42],[-48,6],[-71,-22],[-27,49],[-5,142],[-60,25],[-134,-18],[-53,-40],[-52,4],[-48,-35]],[[11531,3931],[3,68],[36,48],[-39,67],[-56,-9],[-19,46],[-38,25],[-2,45],[-37,-4],[-20,35],[-159,135],[7,18],[90,-26],[70,40],[11,54],[65,10],[6,36],[-43,55],[-70,67],[-41,11],[-41,47],[-119,-5],[-95,-105],[-74,8],[-30,-20],[-138,143],[-226,269]],[[10572,4989],[53,26],[-26,53],[38,14],[-2,106],[31,30],[160,17],[22,39],[38,23],[-14,67],[21,115],[-47,54],[-7,88],[77,161],[-78,141],[-20,71],[12,43],[-27,55],[7,45],[-23,60],[-2,125],[22,114],[-72,70],[-3,44],[-59,20],[-82,75],[-5,40]],[[10586,6685],[54,-6],[25,-21],[48,26],[79,-5],[14,-37],[60,-33],[96,17],[115,-14],[29,-24],[40,10],[61,-23],[26,-89],[34,-69],[29,-10],[28,-47],[88,-39],[43,-54],[93,20],[77,-75],[39,-69],[-3,-52],[11,-93],[-64,-20],[-62,-66],[23,-36],[4,-51],[96,-28],[56,-72],[28,-64],[43,-6],[51,-36],[33,-43],[56,9],[10,-25],[117,-56],[57,-14],[54,-32],[68,-8],[21,-49],[57,-12],[48,-66],[56,0],[2,-27],[51,-14],[20,-51],[3,-61],[25,-10],[-6,-48],[32,-36],[71,-5],[10,-62],[66,-17],[21,-49],[51,16],[35,-33],[40,-1],[35,-30],[-41,-81],[-91,-103],[13,-32],[-5,-68],[17,-26],[52,-23],[35,-46],[92,-20],[-14,-75],[66,0],[-18,-120],[59,-96]],[[12096,3409],[-40,27],[-55,-10],[-19,61],[-86,-38],[-66,-2],[-35,-36],[-58,-29],[-23,-83],[-22,-19],[39,-88],[-26,-40],[-9,-49],[-66,-3],[-30,-19],[-146,-35],[-25,-58],[-106,66],[-47,-12],[-11,-27],[-55,-2],[-12,-27],[-53,2],[-17,-33],[-61,-2],[-11,19],[-61,10],[14,51],[-44,9],[-13,53],[-54,11],[-37,55],[-37,11]],[[10824,3172],[53,-4],[-7,75],[38,26],[41,75],[100,-15],[56,43],[119,40],[2,67],[112,65],[-19,26],[63,39],[23,141],[13,120],[50,37],[21,35],[42,-11]],[[10824,3172],[-60,3],[-73,18],[-24,-117],[-77,-11],[-15,-67],[-56,20],[-85,-65],[-27,26],[-110,-60],[-50,12],[-1,-64],[-75,18],[-55,1],[-65,-52],[-70,0],[-41,-24],[-64,-7]],[[9876,2803],[7,52],[48,149],[37,51],[11,65],[39,47],[-21,84],[-88,100],[-16,51],[-43,40],[174,165],[-17,82],[-3,68],[-24,26],[-84,9],[-36,-36],[-47,-12],[-116,11],[-84,-71]],[[9613,3684],[-24,13],[0,88],[34,35],[-50,32],[-14,51],[35,93],[-1,64],[-52,54],[-32,138]],[[9509,4252],[26,23],[0,68],[24,44],[99,6],[11,60],[24,34],[38,16],[119,84],[722,402]],[[9876,2803],[-29,1],[-33,-44],[-60,-47],[-48,0],[-34,-31],[4,-51],[-55,-13],[-54,18],[-71,71],[-34,4],[-39,55],[-39,17],[-55,-33],[-102,49],[-33,80],[-76,-9],[-27,-28],[9,-49],[-61,-52],[-21,26],[-38,-13],[-52,-100]],[[8928,2654],[-51,71],[10,37],[-37,36]],[[8850,2798],[-14,33],[-82,41],[-4,83]],[[8750,2955],[19,72],[150,-1],[55,-110],[99,-29],[-6,30],[45,28],[-2,32],[28,69],[73,104],[4,34],[36,27],[35,-6],[62,33],[2,37],[87,25],[15,83],[33,72],[45,23],[-7,25],[24,69],[25,20],[41,92]],[[8928,2654],[-2,-73],[-28,-37],[-1,-52],[-48,19],[-68,-16],[-15,-96],[37,-23],[-45,-31],[-33,-62],[4,-79],[-68,-67],[-55,-31],[-81,-6]],[[8525,2100],[16,82],[57,42],[-14,153],[6,55],[49,23],[30,51],[75,156],[84,74],[22,62]],[[8525,2100],[-111,-7],[-96,43],[-37,43],[-45,27],[-48,4]],[[8188,2210],[43,59],[-12,73],[34,71],[41,46],[20,50],[-23,31],[-62,9],[-92,-31],[-52,21]],[[8085,2539],[16,21],[-85,116],[-30,-4],[-47,39],[-65,4]],[[7874,2715],[7,86],[26,45],[7,130],[52,63],[4,29],[-44,78]],[[7926,3146],[610,0],[45,-60],[28,-57],[103,-73],[38,-1]],[[9509,4252],[-423,115],[-52,92],[-43,2],[-45,-19],[-56,19],[-157,-23]],[[8733,4438],[1,54],[33,36],[95,39],[-106,30],[-18,56],[-50,6],[3,50],[72,31],[43,55],[5,79],[-80,53],[-85,25],[-58,32],[-10,24],[-50,-7],[-43,31],[-62,5],[20,71],[52,-12],[61,41]],[[8556,5137],[60,51],[82,-2],[22,85],[39,28],[68,75],[53,37],[35,1],[34,41],[29,149],[-10,65],[6,53],[21,30],[56,10],[58,-13],[59,125],[37,7],[21,83],[37,41],[61,-4],[14,43],[70,11],[57,41],[57,-8],[54,23],[61,59],[43,62],[52,26],[50,71],[-5,73],[43,40],[-8,82],[-86,92],[-45,87],[-32,23],[-23,95],[-123,211],[-11,53],[27,139],[-7,41],[56,86],[11,57],[43,109],[42,58],[-19,99],[32,82]],[[9677,7754],[36,-8],[-18,-65],[34,-34]],[[9729,7647],[-34,-144],[54,-59],[38,-1],[28,49],[26,-17],[-4,-97],[-46,-77],[-30,-22],[-13,-51],[18,-53],[48,-14],[41,33],[40,3],[35,-24],[72,-12],[97,25],[63,-22],[46,12],[69,-24],[27,8],[63,-16],[137,-2],[57,-14],[-28,-50],[42,-42],[-42,-40],[-70,-90],[-24,-108],[24,-50],[36,-33],[87,-30]],[[7926,3146],[77,76],[30,77],[-1,124],[12,43],[-11,58],[6,62]],[[8039,3586],[46,34],[11,30],[60,24],[70,79],[1,36],[-26,37],[21,70],[17,161],[39,44],[-13,31],[56,53],[112,45],[21,-31],[65,9],[36,-9],[93,49],[38,67],[1,43],[46,80]],[[9677,7754],[-33,-4],[-53,-48],[-27,-145],[-15,-48],[-44,-28],[-80,-7]],[[9425,7474],[-129,75],[-88,83],[-35,11],[-23,73],[-82,-22],[-137,49],[-77,61],[-91,-30],[-101,12],[-26,35],[-5,46],[-80,27],[11,43],[-72,39],[-35,-26],[-46,-2],[-37,39],[-56,30],[-39,67],[-31,1],[-97,-63],[-213,62],[-27,30],[-124,-27]],[[7785,8087],[-54,64],[-89,-3],[-17,31],[-22,170],[-50,5],[-29,-47],[-75,-41],[-50,-39],[-15,-47],[-101,-61],[-41,4],[-88,-24],[-44,-26],[-31,-59],[-30,-25],[-62,-20],[-43,-57],[-50,9],[-17,25]],[[6877,7946],[4,46],[75,71],[41,66],[63,55],[0,48],[53,101],[21,-15],[44,22],[13,55],[55,59],[24,5],[39,69],[55,42],[71,-25],[32,17],[64,71],[45,121],[66,71],[85,2],[56,25],[23,54],[30,6],[9,83],[25,45],[-8,42],[-42,77],[16,134],[121,47],[31,-13],[54,52],[106,29],[9,75],[35,25],[70,2],[68,-20],[24,58],[56,50],[22,-9],[55,42],[99,23],[55,43],[68,-28],[76,11],[57,-22],[123,-12],[19,-27],[99,-11],[1,-18],[144,-231],[148,-105],[113,-122],[54,-34],[152,-255],[238,-399],[29,-216],[-75,-137],[6,-108],[35,-9],[-26,-105],[13,-65],[-49,-65],[-60,-53],[-62,-7],[-15,-32]],[[8188,2210],[-51,26],[-51,-13],[-96,14],[-54,45],[-77,27],[-65,-13],[-30,14],[-97,-66],[-98,24]],[[7569,2268],[70,-5],[71,32],[22,61],[143,21],[31,-21],[15,65],[-16,21],[51,47],[108,2],[21,48]],[[7569,2268],[-41,20],[-45,-13]],[[7483,2275],[67,98],[-3,81],[-82,52],[-19,-3],[-34,83],[1,38],[-22,74]],[[7391,2698],[44,24],[128,7],[6,64],[81,24]],[[7650,2817],[35,-57],[158,-74],[31,29]],[[7483,2275],[-27,2],[-86,69],[-44,-23],[-15,-35],[-55,15],[-64,37],[-42,67],[-51,16]],[[7099,2423],[-15,59],[45,46],[11,73],[-11,19],[55,54]],[[7184,2674],[56,104],[28,24],[123,-104]],[[7099,2423],[-87,35],[-50,-5],[-67,12],[-50,-34],[-89,12],[-133,-24],[-69,50],[-57,68]],[[6497,2537],[105,54],[126,128],[65,100],[37,17],[45,47],[40,-8],[61,14],[-13,111],[43,75]],[[7006,3075],[10,-55],[30,-71],[56,-90],[45,-27],[-2,-35],[-32,-46],[8,-32],[41,-8],[22,-37]],[[9425,7474],[-125,-105],[-3,-122],[-33,-36],[-45,13],[-86,-15],[-123,-53],[-139,0],[-96,-55],[-72,-76],[-31,-5],[-57,22],[-54,-9]],[[8561,7033],[3,48],[-26,43],[-99,7],[-72,28],[-94,61],[-17,105],[-24,56],[1,77],[-77,44],[-13,57],[-72,49],[-34,54],[-56,30],[-15,63],[-51,73],[-14,115],[-66,54],[-16,56],[-34,34]],[[8556,5137],[-6,81],[-66,126],[-5,66],[-28,95],[54,115],[23,29],[-44,86],[21,31],[-40,144],[-43,51],[-170,-88],[-63,-1],[-88,-32],[-61,-66],[-66,-34],[-63,-2],[-38,15],[-35,48],[-96,0],[-46,147],[-41,82],[-104,61],[-64,10],[-92,-26],[-87,49],[-95,-71]],[[7213,6053],[-8,113],[-28,31],[30,84],[-12,94],[355,5],[-80,170],[95,66],[18,45],[46,3],[81,-24],[19,48],[56,13],[81,49],[27,0],[36,-54],[40,-26],[15,-60],[29,-20],[117,31],[-31,98],[41,83],[-2,46],[-49,118],[50,78],[91,24],[89,-44],[222,-20],[20,29]],[[7213,6053],[-25,-30],[-10,-59],[-48,-34],[23,-83],[-47,-54],[-115,-157]],[[6991,5636],[-306,1142],[-130,38],[-113,-7],[-72,-27],[-72,-70],[-61,-24],[-100,28],[-55,55],[-74,2],[-35,27],[3,29],[-59,69],[-12,50],[-80,97],[-45,31],[-67,6],[-114,-3],[-59,41],[-101,28],[-83,50],[-22,43],[-53,0],[-52,-30],[-91,-10],[-116,-41]],[[5022,7160],[-65,30],[-22,34],[-41,16],[-28,37],[-33,-5],[-12,49],[-49,31],[54,50],[71,19],[101,83],[146,18],[60,-18],[94,1],[12,14],[158,-12],[66,12],[144,-12],[87,32],[99,6],[148,44],[49,46],[55,13],[30,-38],[71,31],[49,-27],[81,-12],[46,4],[67,32],[58,80],[11,75],[33,5],[9,40],[71,-22],[69,0],[-12,44],[23,24],[100,30],[55,32]],[[8039,3586],[-57,7],[-25,26],[-63,25],[-108,16]],[[7786,3660],[-7,49],[103,86],[21,3],[83,-64],[48,49],[47,177],[6,80]],[[8087,4040],[-41,62],[-27,99],[-55,7],[-48,152],[-50,32],[4,24],[80,133],[-44,96],[22,123],[-24,41],[-75,1],[-41,53],[-36,67],[0,62],[-30,38],[37,23],[13,90],[-23,44],[6,54],[-38,33],[2,68],[-28,121],[9,117],[-36,28],[-72,-9],[-60,11],[-21,25],[16,169],[-40,74],[-91,58],[-65,1],[-38,24],[-80,92]],[[8087,4040],[-86,-38],[-24,-44],[-81,-35],[-21,-27],[-191,-55],[-53,38],[-22,76],[-91,89],[-95,31],[-37,-9],[-156,78],[-74,-56],[-81,0],[-125,23],[5,59],[-18,19],[-32,109],[-28,13],[-6,46],[-62,33]],[[6809,4390],[-104,143],[100,36],[3,398],[19,48],[-18,35],[19,39],[-12,78],[64,42],[83,3],[27,43],[47,7],[52,-14],[33,15],[-31,101],[-100,272]],[[7650,2817],[7,65],[-49,79],[3,188],[-38,29],[-27,-15],[-99,69],[-32,12],[-41,45],[-86,-79],[-5,133],[9,32],[47,42],[0,88],[37,61],[73,90],[85,51],[16,110]],[[7550,3817],[49,-89],[-11,-29],[35,-83],[31,-4],[24,-46],[62,8],[46,86]],[[7006,3075],[-41,113],[15,39],[36,33],[12,36],[2,130]],[[7030,3426],[-4,53],[35,42],[-9,75],[-42,43],[87,22],[6,65],[33,43],[-37,58],[29,24],[40,-14],[42,-64],[61,24],[49,-26],[84,42],[38,40],[24,-31],[48,16],[36,-21]],[[7030,3426],[-8,-13],[-84,24],[-31,-57],[-48,-20],[-82,-7],[-2,68],[-48,62],[-452,-44],[-11,44],[29,10],[32,74],[39,63]],[[6364,3630],[17,363],[-58,-14],[25,52]],[[6348,4031],[58,20],[22,-18],[71,0],[34,61],[3,70],[27,22],[57,-19],[52,-63],[20,18],[-6,67],[39,64],[77,75],[7,62]],[[6991,5636],[-48,-64],[-89,-51],[-86,28],[-43,-10],[-42,-128],[-63,-62],[-67,-4],[-31,-28],[-62,-28],[-41,10],[-54,-10],[-35,20],[-82,-1],[-89,66]],[[6159,5374],[-104,64],[-34,44],[-128,84],[-20,50],[7,30],[-27,37],[-33,-10],[-37,76],[-45,13],[-4,69],[-51,40]],[[5683,5871],[-63,24],[-81,16],[22,74],[-95,101],[-43,-13],[-39,13],[-39,38],[-38,-20],[-41,62],[30,32],[-29,48],[33,32],[-20,34],[24,44],[-15,49],[32,16],[-25,40],[17,32],[-28,76],[-64,51],[-48,77],[-10,59],[-87,82],[-17,54],[-25,14],[-20,105],[-12,8]],[[5002,7019],[-31,19]],[[4971,7038],[64,78],[-13,44]],[[6348,4031],[-52,53],[-34,9],[24,68],[-28,46],[9,36],[-49,34],[-36,-52],[-64,33],[-51,44],[-35,-16],[-35,15],[-36,-14],[-16,51],[-82,-61],[-32,22]],[[5831,4299],[-10,50],[31,24],[-21,64],[37,88],[-32,55],[-87,36],[-28,32],[0,46]],[[5721,4694],[150,-1],[-29,131],[13,41],[71,82],[109,86],[13,50],[59,45],[23,90],[30,68],[-1,88]],[[6497,2537],[-24,51],[20,39],[-25,51],[-37,19],[-23,78],[-36,37],[-105,24],[-34,33],[-42,73],[-85,20],[-104,76],[-82,7],[-65,56]],[[5855,3101],[77,89],[18,74],[5,149],[13,42],[50,91]],[[6018,3546],[52,-86],[41,85],[40,33],[-1,73],[73,66],[54,-5],[41,-53],[46,-29]],[[6018,3546],[-2,52],[-544,-9],[-47,69]],[[5425,3658],[12,23],[85,10],[98,87],[33,63],[-4,36],[-74,33],[18,34],[-29,133],[104,79]],[[5668,4156],[38,50],[64,0],[61,93]],[[5855,3101],[-50,85],[-110,23],[-45,22],[-67,-18],[-95,22],[-52,-31],[-54,11],[-63,-39],[-10,-25],[-84,-51],[-53,-22],[-40,-73],[-59,9]],[[5073,3014],[-47,63],[-8,36],[-39,27],[-9,40],[-57,65],[2,71],[27,81],[-31,79],[-13,72],[-51,24],[-46,48],[-7,123],[-31,26]],[[4763,3769],[81,26],[75,41],[136,-31],[26,-31],[117,-42],[12,-24],[61,-13],[125,-43],[29,6]],[[4763,3769],[-142,12],[-60,36],[-34,63]],[[4527,3880],[-3,107],[-17,70],[28,51],[-18,52],[73,30],[67,46],[63,65],[34,15]],[[4754,4316],[-13,-56],[57,-60],[9,-33],[164,0],[81,43],[140,-48],[72,0]],[[5264,4162],[24,4],[142,-10],[238,0]],[[5264,4162],[-2,20],[53,53],[17,75],[108,126],[39,-10],[41,32],[2,92],[-16,62],[5,108]],[[5511,4720],[157,-17]],[[5668,4703],[53,-9]],[[5668,4703],[28,50],[-9,35],[-49,21],[-30,-5],[-30,65],[-39,7],[-18,41],[21,42],[65,20],[30,-6],[50,20],[-3,42],[44,23],[11,32],[-14,71],[12,41],[-25,79],[45,81],[-10,66],[-80,61],[-3,65],[-37,61],[-27,123],[21,67],[23,10],[39,56]],[[5073,3014],[-37,-10],[-44,-78],[-50,-114],[-87,-73],[-18,-53],[-38,-13],[-7,-32],[-58,-48]],[[4734,2593],[-89,5],[-45,-31],[2,-59],[-53,-2],[-39,28],[-19,39],[-47,21],[-28,55],[-54,38],[-47,1]],[[4315,2688],[-32,91],[0,36],[42,121],[-47,54],[-3,38],[-112,52],[-29,38]],[[4134,3118],[39,33],[94,140],[60,64],[60,30],[140,43],[62,87],[-13,63],[-18,14],[-60,187]],[[4498,3779],[29,101]],[[4401,1851],[23,4],[62,-36]],[[4486,1819],[-18,-101],[28,-172],[4,-113],[-63,39],[-17,50],[-67,47],[-31,-51],[-34,4]],[[4288,1522],[-32,41],[9,52],[46,105],[-60,2],[-29,24],[-55,2],[-32,37],[72,82],[75,37],[57,-50],[62,-3]],[[4288,1522],[-118,-25],[-30,7],[-20,-54],[-34,-48],[-47,-8],[-33,72],[-30,14],[-82,5],[-58,-29],[-59,40],[-27,-25],[-59,-17],[-22,80],[-119,19],[-116,3],[-55,26],[-66,58],[-45,3],[-50,-32],[-44,-52]],[[3174,1559],[-15,62],[26,53]],[[3185,1674],[82,28],[50,-5],[4,31],[-37,40],[30,26],[0,47],[28,69],[-7,66],[37,65],[31,79],[104,46],[-23,67],[-46,27],[-79,101]],[[3359,2361],[43,31],[-15,82],[27,60]],[[3414,2534],[80,-3]],[[3494,2531],[99,21],[69,-27],[18,-50],[37,7],[34,-26],[35,23],[102,-13],[27,-26],[66,32]],[[3981,2472],[46,-46],[31,-82],[23,-18],[64,-6],[51,-58],[26,-53],[7,-87],[-7,-89],[43,-32],[37,-61],[50,-21],[9,-38],[40,-30]],[[3185,1674],[-43,73],[-61,24],[-58,41],[-63,24],[-93,17],[-66,44],[-45,7],[-56,61]],[[2700,1965],[-2,20],[49,119],[89,6],[54,37],[7,31],[37,17],[30,40],[51,-58],[59,65],[15,34],[59,32],[27,55],[67,-24],[43,0],[32,32],[42,-10]],[[3174,1559],[-48,-25],[-70,15],[-31,-43],[-85,-1],[-55,-18],[-34,9],[-32,-35],[-58,-9],[-30,23],[-89,10],[-16,-45],[-69,1],[-45,28],[-103,-20],[-55,-41]],[[2354,1408],[-62,51],[-81,0],[-63,34],[-61,-8],[-40,41],[17,63],[28,31],[101,149],[-9,22],[-75,56],[-77,6]],[[2032,1853],[-46,50],[63,56],[48,16],[32,42],[67,-15],[87,13],[41,36],[46,0],[0,105],[57,91]],[[2427,2247],[70,-17]],[[2497,2230],[36,-25],[63,-72],[19,-42],[85,-126]],[[1778,496],[25,44],[21,99],[56,34],[35,58],[61,1],[-27,83],[-40,69],[-4,73],[-62,26],[-7,32],[95,71],[16,74],[67,27],[6,36],[-24,26],[86,24],[57,-28],[102,12],[34,29],[40,62]],[[2315,1348],[-11,-99],[-36,-84],[7,-37],[-55,-88],[-1,-33],[32,-80],[-47,-88],[-3,-64],[32,-42],[6,-39],[-104,-231],[-212,-463],[-52,36],[12,22],[-28,87],[-71,106],[5,58],[-18,32],[19,74],[-12,81]],[[2354,1408],[-39,-60]],[[1778,496],[2,44],[-19,343],[-301,276],[-45,-29],[-424,516]],[[991,1646],[59,25],[51,44],[42,4]],[[1143,1719],[36,-46],[51,5],[42,38],[60,-21],[61,3],[76,-67],[27,14],[-13,91],[-42,54]],[[1441,1790],[-20,73],[11,24],[170,79],[123,-16],[86,1],[30,-82],[12,-76],[99,12],[80,48]],[[991,1646],[-284,342],[83,27]],[[790,2015],[62,-27],[112,-29],[51,14],[39,44]],[[1054,2017],[28,-46],[-11,-33],[27,-65],[40,-54],[5,-100]],[[790,2015],[-21,67],[-26,16],[-27,207],[-63,70],[-13,53],[-133,55],[-18,30],[-64,31],[-71,77],[-29,59],[0,66]],[[325,2746],[130,-4],[2,-35],[109,-7],[308,2],[29,-44]],[[903,2658],[57,-104],[-15,-90],[15,-78],[45,-108],[32,-43],[31,-78],[5,-67],[37,-37],[-3,-31]],[[1107,2022],[-53,-5]],[[325,2746],[-8,69],[2,108],[-28,62],[7,41],[-12,55]],[[286,3081],[60,4],[111,-22],[76,2],[33,16]],[[566,3081],[25,-9],[52,-60],[43,2],[34,52],[249,4],[27,19],[73,-21]],[[1069,3068],[37,-129],[25,-127],[25,-65],[89,-69]],[[1245,2678],[-18,-41],[-115,-2],[-158,34],[-51,-11]],[[286,3081],[-10,84],[22,13],[-48,130],[-86,24],[-46,50],[97,234],[-27,125],[38,113],[-12,145],[4,55],[-34,34],[-41,-19],[-60,10],[-33,70],[-41,32],[-9,42],[24,54],[50,37],[73,73],[30,-5],[172,82],[69,92],[-9,48],[32,48],[98,228]],[[539,4880],[31,-33],[40,-98],[27,-44],[55,-17],[1,-54],[-24,-29],[6,-41],[65,-31],[34,-74],[-1,-52],[-36,-46],[-1,-64],[15,-52],[0,-62],[39,-30],[-12,-33],[8,-101],[95,-85],[89,-21],[68,13],[91,-88],[15,-34],[65,-55],[-68,-59],[-99,-51],[60,-55],[1,-23]],[[1103,3561],[-82,-3],[-123,10],[6,84],[-73,6],[-25,-78],[-206,60],[-82,46],[-20,62],[-33,9],[45,-191],[95,-68],[14,-19],[-6,-95],[-47,-53],[-93,-54],[1,-132],[7,-37],[77,-10],[8,-17]],[[539,4880],[31,82]],[[570,4962],[66,1],[100,19],[101,31],[7,-82],[85,-57],[37,-54],[12,-140],[12,-9],[21,-93],[32,-44],[62,-32],[39,26],[63,-16],[69,44]],[[1276,4556],[36,22],[77,21],[52,47],[21,-16]],[[1462,4630],[17,-50],[-78,-74],[-11,-36],[73,-86],[36,-77],[-1,-111],[18,-82],[32,-28],[47,-8],[6,-66]],[[1601,4012],[5,-56],[34,-20],[-19,-95],[-60,-75],[-67,-48],[1,-104],[-22,-131],[-21,-72],[21,-26],[33,-126],[7,-109]],[[1513,3150],[-144,2]],[[1369,3152],[-26,69],[-54,68],[-88,30],[-33,34],[-34,71],[-31,137]],[[1369,3152],[4,-68],[-135,4],[-79,35],[-90,-55]],[[570,4962],[21,47],[82,6],[24,29],[76,210]],[[773,5254],[134,-22],[62,-3],[29,39],[65,54],[101,9],[67,-17],[43,19]],[[1274,5333],[-10,-58],[-72,-51],[-32,-46],[8,-76],[-39,-107],[7,-72],[-7,-87],[43,-47],[46,-126],[23,-23],[35,-84]],[[773,5254],[24,89],[66,62],[-14,68],[5,52],[77,91],[103,80],[80,86],[43,76],[57,-15],[195,8],[16,-45],[71,-41],[178,47],[69,56],[19,48],[114,19],[24,22],[40,-10]],[[1940,5947],[-62,-52],[-15,-42],[-10,-93],[14,-115],[-51,-18],[-48,-45],[-9,-57],[6,-73]],[[1765,5452],[-85,2],[-27,-18],[-76,25],[-44,-44],[-69,31],[-116,-41],[-35,-21],[-39,-53]],[[1940,5947],[26,7],[52,47],[110,31],[27,36],[-18,63],[79,19],[28,62],[69,34],[21,-115],[51,-13],[20,-42],[3,-55],[27,-37],[49,0],[50,-35],[35,-79],[23,1]],[[2592,5871],[-15,-73]],[[2577,5798],[17,-52],[-39,-26],[-16,-57],[-2,-101],[-32,-68],[23,-52],[-12,-61],[-61,-93],[-30,-19],[14,-49],[29,-24],[14,-52],[-3,-72]],[[2479,5072],[2,-47],[35,-78],[-8,-44]],[[2508,4903],[-30,-12],[-74,23],[-41,-27],[-42,-51],[-82,-56],[-36,39],[-147,23],[-45,-23],[-154,-10]],[[1857,4809],[-25,98],[-62,172],[-15,145],[-41,89],[-22,97],[25,30],[48,12]],[[2592,5871],[32,9],[86,104],[102,0],[79,60],[50,-22],[9,49],[46,33],[55,5],[7,40],[33,45],[29,-4],[83,51],[44,0],[34,31],[31,-29],[51,64],[61,-2],[85,59],[70,-8]],[[3579,6356],[-84,-52],[-7,-67],[-19,-33],[-37,-13],[-33,-45],[-6,-347],[-76,-65],[6,-39],[-28,-36]],[[3295,5659],[-86,-57],[-40,-39],[-42,-67],[-66,-10],[-23,35],[-72,-7]],[[2966,5514],[-52,27],[-51,-2],[-113,37],[-84,-4],[-34,39],[-1,35],[-59,6],[-1,56],[54,43],[-48,47]],[[3579,6356],[194,-18]],[[3773,6338],[-20,-76],[37,-130],[86,-10],[40,-27],[29,-54],[166,-131],[70,-81],[113,54],[25,-19],[8,-76],[33,-33],[42,-12],[-45,-76],[13,-63],[-11,-52],[18,-67],[49,-30],[53,-73],[102,-8],[28,21]],[[4609,5395],[8,-51],[-26,-90],[-40,-41]],[[4551,5213],[-98,37],[-54,-15],[-55,11],[-16,36],[-69,44],[-37,-2],[-93,79],[-32,-19],[-278,-198],[-43,-44]],[[3776,5142],[-17,24],[-58,-37],[-55,-20],[-30,23],[-51,-8],[-72,77],[-42,10]],[[3451,5211],[-26,9],[-23,58],[-50,36],[-141,147],[9,62],[36,14],[31,50],[8,72]],[[5002,7019],[-18,-117],[17,-62],[-37,-68],[-3,-47],[-25,-10],[9,-53],[35,-14],[12,-82],[-17,-21],[11,-78],[-33,-57],[-8,-107],[-15,-49],[-35,-37],[17,-95],[29,-10],[-324,-160],[9,-47],[130,-355],[-66,-35],[-17,-70],[-64,-50]],[[3773,6338],[109,55],[142,6],[178,15],[291,20],[38,49],[-7,61],[46,73],[119,45],[43,34],[101,150],[55,51],[21,55],[40,7],[22,79]],[[5511,4720],[-76,-1],[-131,-46],[-115,-2],[-69,-24],[-38,0],[-77,40],[-32,66],[-48,23],[-193,-39],[-69,1]],[[4663,4738],[24,84],[97,49],[8,37],[-72,42],[-78,61],[19,56],[-29,5],[-19,79],[-62,62]],[[4754,4316],[18,33],[53,13],[3,31],[-52,37],[6,103],[-32,59],[-57,44],[-49,62],[19,40]],[[1857,4809],[-95,0],[-62,-26],[-12,-85],[-18,-11],[-88,32],[-72,-38],[-48,-51]],[[3451,5211],[-18,-41],[-60,33],[-30,-13],[-5,-57],[23,-24],[-18,-46],[-6,-85],[-53,-87],[-19,-121],[-24,6],[-25,50],[-9,62],[10,42],[-38,61],[-55,62],[-5,58],[-49,35],[-85,23],[-2,85]],[[2983,5254],[11,28],[-25,65],[-34,128],[31,39]],[[4498,3779],[-132,-70],[-73,-26],[-15,74],[-27,69],[35,45],[-71,27],[-80,2],[1,39],[-51,10],[-104,-13],[-33,22],[-65,-14],[-25,13],[1,45],[-64,21],[-55,40],[-30,-6]],[[3710,4057],[-15,128],[21,53],[-130,-2],[-144,96],[-10,41],[7,63],[42,31],[72,90],[12,143],[-13,81],[32,72],[36,43],[52,5],[43,28],[-5,99],[48,32],[45,7],[4,38],[-31,37]],[[1107,2022],[107,1],[52,64],[49,-23],[-50,-134],[6,-74],[30,-50],[107,-34],[33,18]],[[1245,2678],[-3,29],[69,87],[44,13],[61,-32],[94,-75],[153,21],[60,-7],[70,-36],[39,-71],[4,-79],[63,-113],[38,-4],[112,11],[57,-17],[86,-3],[3,-58],[94,-70],[138,-27]],[[1513,3150],[47,22],[54,64],[33,76],[41,-30],[-2,-82],[49,-58],[51,3]],[[1786,3145],[66,-42],[-9,-33],[33,-48],[33,1],[9,-68],[68,-125],[70,-68],[54,13],[21,-41],[33,7],[26,-29],[138,-37],[31,-51],[49,20],[7,-38],[62,-25],[69,-61],[18,-33],[75,-65]],[[2639,2422],[-100,-109],[-42,-83]],[[1601,4012],[56,-6],[30,-46],[124,-20],[78,58],[18,74],[72,-3]],[[1979,4069],[10,-75],[69,-85],[64,-37],[78,-64],[9,-43],[50,-64],[4,-26]],[[2263,3675],[-1,-52],[-30,-117],[31,-81],[10,-55]],[[2273,3370],[-92,-47],[-172,-62],[-124,-71],[-99,-45]],[[2508,4903],[10,-48],[29,-16],[1,-40],[57,-42],[13,-41],[68,-41],[48,33],[110,-14],[68,-37],[-1,-42],[-40,-8],[-44,-37],[-23,-57],[-45,-19],[0,-47],[-28,-68],[15,-71],[-76,-17]],[[2670,4291],[-31,-30],[-71,7],[-47,-20],[-35,-57],[-44,-2],[-74,25],[-41,98],[-42,27],[-15,135],[-40,-25],[-61,23],[-51,53],[-41,4],[-38,-72],[-51,-29],[-10,-52],[-60,-58],[-11,-78],[60,-8],[38,-45],[-26,-118]],[[2983,5254],[-105,-7],[-73,-18],[-54,-97],[-75,-2],[-35,-71],[-38,-29],[-48,2],[-76,40]],[[3710,4057],[-81,-79]],[[3629,3978],[-202,-122],[-66,-7],[-152,-1],[-154,17],[-81,3]],[[2974,3868],[-174,7],[-45,70],[-2,67]],[[2753,4012],[-13,50],[-31,42],[-20,130],[-19,57]],[[2753,4012],[-43,-33],[-69,-9],[-79,-31],[-37,1],[-79,-49],[-15,-58],[-62,-72],[-35,-11],[-25,-42],[-46,-33]],[[4134,3118],[-30,22],[-31,111],[-31,25]],[[4042,3276],[-26,40],[-51,6],[-32,66],[-29,12],[-57,66],[-9,37],[-71,63],[-38,15],[-56,73],[12,85],[-36,33],[-3,61],[-22,56],[5,89]],[[4315,2688],[-45,-13],[-76,23],[-40,-46],[8,-82],[-94,-41],[-87,-57]],[[3494,2531],[-29,199],[68,237],[134,84],[119,44],[256,181]],[[2639,2422],[91,-44],[51,-44],[50,-7],[23,43]],[[2854,2370],[-17,57],[58,69],[-4,70],[19,35],[64,32],[66,14],[53,-24],[44,12],[70,-4],[46,-59],[61,22],[60,-13]],[[3374,2581],[40,-47]],[[2273,3370],[101,56],[89,71],[75,-41],[43,-9],[109,32],[133,-94],[90,-140],[-135,-83],[46,-78]],[[2824,3084],[-4,-52],[-76,-21],[-61,-58],[-73,-31],[-5,-132],[-11,-50],[21,-58],[44,-47],[46,-114],[46,-22],[58,-114],[45,-15]],[[2824,3084],[96,7],[32,-38],[75,-30],[26,-43],[35,-14]],[[3088,2966],[18,-38],[166,-85],[55,-64],[47,-198]],[[3088,2966],[-1,33],[24,136],[52,90],[38,102],[3,87],[15,81],[-5,34],[-34,15],[-169,21],[-74,221],[37,82]],[[4525,2360],[-26,12],[-65,-49]],[[4434,2323],[-22,52],[-2,51],[38,15],[77,-81]],[[4734,2593],[-22,-111],[-27,-54],[-71,-57],[-89,-11]],[[4434,2323],[8,-48],[46,-95],[53,-147],[14,-84],[-13,-39],[-38,-24],[-18,-67]]],"transform":{"scale":[0.0009316467634646993,0.0009054920078374755],"translate":[14.415542600000038,2.220833]},"objects":{"CAF":{"type":"GeometryCollection","geometries":[{"arcs":[[0,1]],"type":"Polygon","properties":{"name":"Bambouti","shapeGroup":"CAF","gid":"CAF-2-0"},"id":"CAF-2-0"},{"arcs":[[-1,2,3,4,5]],"type":"Polygon","properties":{"name":"Obo","shapeGroup":"CAF","gid":"CAF-2-1"},"id":"CAF-2-1"},{"arcs":[[-5,6,7,8,9]],"type":"Polygon","properties":{"name":"Djéma","shapeGroup":"CAF","gid":"CAF-2-2"},"id":"CAF-2-2"},{"arcs":[[-4,10,11,-7]],"type":"Polygon","properties":{"name":"Zémio","shapeGroup":"CAF","gid":"CAF-2-3"},"id":"CAF-2-3"},{"arcs":[[-8,-12,12,13,14,15]],"type":"Polygon","properties":{"name":"Rafaï","shapeGroup":"CAF","gid":"CAF-2-4"},"id":"CAF-2-4"},{"arcs":[[-14,16,17,18,19]],"type":"Polygon","properties":{"name":"Bangassou","shapeGroup":"CAF","gid":"CAF-2-5"},"id":"CAF-2-5"},{"arcs":[[-18,20,21]],"type":"Polygon","properties":{"name":"Ouango","shapeGroup":"CAF","gid":"CAF-2-6"},"id":"CAF-2-6"},{"arcs":[[-19,-22,22,23,24,25,26]],"type":"Polygon","properties":{"name":"Gambo","shapeGroup":"CAF","gid":"CAF-2-7"},"id":"CAF-2-7"},{"arcs":[[-9,-16,27,28,29,30,31]],"type":"Polygon","properties":{"name":"Yalinga","shapeGroup":"CAF","gid":"CAF-2-8"},"id":"CAF-2-8"},{"arcs":[[-15,-20,-27,32,33,-28]],"type":"Polygon","properties":{"name":"Bakouma","shapeGroup":"CAF","gid":"CAF-2-9"},"id":"CAF-2-9"},{"arcs":[[-31,34,35,36,37]],"type":"Polygon","properties":{"name":"Birao","shapeGroup":"CAF","gid":"CAF-2-10"},"id":"CAF-2-10"},{"arcs":[[-24,38,39]],"type":"Polygon","properties":{"name":"Satéma","shapeGroup":"CAF","gid":"CAF-2-11"},"id":"CAF-2-11"},{"arcs":[[-25,-40,40,41,42,43]],"type":"Polygon","properties":{"name":"Kembé","shapeGroup":"CAF","gid":"CAF-2-12"},"id":"CAF-2-12"},{"arcs":[[-42,44,45,46]],"type":"Polygon","properties":{"name":"Mobaye","shapeGroup":"CAF","gid":"CAF-2-13"},"id":"CAF-2-13"},{"arcs":[[-46,47,48,49]],"type":"Polygon","properties":{"name":"Zangba","shapeGroup":"CAF","gid":"CAF-2-14"},"id":"CAF-2-14"},{"arcs":[[-36,50,51]],"type":"Polygon","properties":{"name":"Ouanda-Djallé","shapeGroup":"CAF","gid":"CAF-2-15"},"id":"CAF-2-15"},{"arcs":[[-30,52,53,-51,-35]],"type":"Polygon","properties":{"name":"Ouadda","shapeGroup":"CAF","gid":"CAF-2-16"},"id":"CAF-2-16"},{"arcs":[[-37,-52,-54,54,55,56]],"type":"Polygon","properties":{"name":"Ndélé","shapeGroup":"CAF","gid":"CAF-2-17"},"id":"CAF-2-17"},{"arcs":[[-29,-34,57,58,59,-53]],"type":"Polygon","properties":{"name":"Bria","shapeGroup":"CAF","gid":"CAF-2-18"},"id":"CAF-2-18"},{"arcs":[[-55,-60,60,61]],"type":"Polygon","properties":{"name":"Ippy","shapeGroup":"CAF","gid":"CAF-2-19"},"id":"CAF-2-19"},{"arcs":[[-26,-44,62,63,-58,-33]],"type":"Polygon","properties":{"name":"Mingala","shapeGroup":"CAF","gid":"CAF-2-20"},"id":"CAF-2-20"},{"arcs":[[-43,-47,-50,64,65,-63]],"type":"Polygon","properties":{"name":"Alindao","shapeGroup":"CAF","gid":"CAF-2-21"},"id":"CAF-2-21"},{"arcs":[[-59,-64,-66,66,67,68,-61]],"type":"Polygon","properties":{"name":"Bambari","shapeGroup":"CAF","gid":"CAF-2-22"},"id":"CAF-2-22"},{"arcs":[[-56,69,70,71,72,73]],"type":"Polygon","properties":{"name":"Bamingui","shapeGroup":"CAF","gid":"CAF-2-23"},"id":"CAF-2-23"},{"arcs":[[-62,-69,74,75,76,-70]],"type":"Polygon","properties":{"name":"Bakala","shapeGroup":"CAF","gid":"CAF-2-24"},"id":"CAF-2-24"},{"arcs":[[-49,77,78,79,-67,-65]],"type":"Polygon","properties":{"name":"Kouango","shapeGroup":"CAF","gid":"CAF-2-25"},"id":"CAF-2-25"},{"arcs":[[-68,-80,80,81,82,-75]],"type":"Polygon","properties":{"name":"Grimari","shapeGroup":"CAF","gid":"CAF-2-26"},"id":"CAF-2-26"},{"arcs":[[-79,83,84,85,-81]],"type":"Polygon","properties":{"name":"Djoukou","shapeGroup":"CAF","gid":"CAF-2-27"},"id":"CAF-2-27"},{"arcs":[[-82,-86,86,87,88,89]],"type":"Polygon","properties":{"name":"Sibut","shapeGroup":"CAF","gid":"CAF-2-28"},"id":"CAF-2-28"},{"arcs":[[-76,-83,-90,90,91,92]],"type":"Polygon","properties":{"name":"Mala","shapeGroup":"CAF","gid":"CAF-2-29"},"id":"CAF-2-29"},{"arcs":[[-71,-77,-93,93]],"type":"Polygon","properties":{"name":"Mbrès","shapeGroup":"CAF","gid":"CAF-2-30"},"id":"CAF-2-30"},{"arcs":[[-85,94,95,96,97,98,-87]],"type":"Polygon","properties":{"name":"Damara","shapeGroup":"CAF","gid":"CAF-2-31"},"id":"CAF-2-31"},{"arcs":[[99,100,101]],"type":"Polygon","properties":{"name":"Mongoumba","shapeGroup":"CAF","gid":"CAF-2-32"},"id":"CAF-2-32"},{"arcs":[[-102,102,103,104,105,106,107,108]],"type":"Polygon","properties":{"name":"Mbaïki","shapeGroup":"CAF","gid":"CAF-2-33"},"id":"CAF-2-33"},{"arcs":[[-105,109,110]],"type":"Polygon","properties":{"name":"Boda","shapeGroup":"CAF","gid":"CAF-2-34"},"id":"CAF-2-34"},{"arcs":[[-104,111,112,113,114,115,-110]],"type":"Polygon","properties":{"name":"Bambio","shapeGroup":"CAF","gid":"CAF-2-35"},"id":"CAF-2-35"},{"arcs":[[116,117]],"type":"Polygon","properties":{"name":"Bayanga","shapeGroup":"CAF","gid":"CAF-2-36"},"id":"CAF-2-36"},{"arcs":[[-113,118,-117,119,120,121,122]],"type":"Polygon","properties":{"name":"Nola","shapeGroup":"CAF","gid":"CAF-2-37"},"id":"CAF-2-37"},{"arcs":[[-121,123,124,125]],"type":"Polygon","properties":{"name":"Dédé-Mokouba","shapeGroup":"CAF","gid":"CAF-2-38"},"id":"CAF-2-38"},{"arcs":[[-125,126,127,128,129]],"type":"Polygon","properties":{"name":"Gamboula","shapeGroup":"CAF","gid":"CAF-2-39"},"id":"CAF-2-39"},{"arcs":[[-128,130,131,132,133,134]],"type":"Polygon","properties":{"name":"Amada-Gaza","shapeGroup":"CAF","gid":"CAF-2-40"},"id":"CAF-2-40"},{"arcs":[[-132,135,136,137]],"type":"Polygon","properties":{"name":"Baboua","shapeGroup":"CAF","gid":"CAF-2-41"},"id":"CAF-2-41"},{"arcs":[[-137,138,139,140,141,142,143,144]],"type":"Polygon","properties":{"name":"Bouar","shapeGroup":"CAF","gid":"CAF-2-42"},"id":"CAF-2-42"},{"arcs":[[-133,-138,-145,145]],"type":"Polygon","properties":{"name":"Abba","shapeGroup":"CAF","gid":"CAF-2-43"},"id":"CAF-2-43"},{"arcs":[[-140,146,147,148]],"type":"Polygon","properties":{"name":"Koui","shapeGroup":"CAF","gid":"CAF-2-44"},"id":"CAF-2-44"},{"arcs":[[-148,149,150,151]],"type":"Polygon","properties":{"name":"Ngaoundaye","shapeGroup":"CAF","gid":"CAF-2-45"},"id":"CAF-2-45"},{"arcs":[[-151,152,153,154,155,156,157]],"type":"Polygon","properties":{"name":"Paoua","shapeGroup":"CAF","gid":"CAF-2-46"},"id":"CAF-2-46"},{"arcs":[[-154,158,159,160,161]],"type":"Polygon","properties":{"name":"Markounda","shapeGroup":"CAF","gid":"CAF-2-47"},"id":"CAF-2-47"},{"arcs":[[-160,162,163,164,165,166,167]],"type":"Polygon","properties":{"name":"Batangafo","shapeGroup":"CAF","gid":"CAF-2-48"},"id":"CAF-2-48"},{"arcs":[[-73,168,-164,169]],"type":"Polygon","properties":{"name":"Kabo","shapeGroup":"CAF","gid":"CAF-2-49"},"id":"CAF-2-49"},{"arcs":[[-72,-94,-92,170,171,-165,-169]],"type":"Polygon","properties":{"name":"Kaga-Bandoro","shapeGroup":"CAF","gid":"CAF-2-50"},"id":"CAF-2-50"},{"arcs":[[-89,172,-171,-91]],"type":"Polygon","properties":{"name":"Dékoa","shapeGroup":"CAF","gid":"CAF-2-51"},"id":"CAF-2-51"},{"arcs":[[-141,-149,-152,-158,173]],"type":"Polygon","properties":{"name":"Bocaranga","shapeGroup":"CAF","gid":"CAF-2-52"},"id":"CAF-2-52"},{"arcs":[[-161,-168,174,175]],"type":"Polygon","properties":{"name":"Nana-Bakassa","shapeGroup":"CAF","gid":"CAF-2-53"},"id":"CAF-2-53"},{"arcs":[[-88,-99,176,177,-166,-172,-173]],"type":"Polygon","properties":{"name":"Bouca","shapeGroup":"CAF","gid":"CAF-2-54"},"id":"CAF-2-54"},{"arcs":[[-122,-126,-130,178]],"type":"Polygon","properties":{"name":"Sosso-Nakombo","shapeGroup":"CAF","gid":"CAF-2-55"},"id":"CAF-2-55"},{"arcs":[[-114,-123,-179,-129,-135,179]],"type":"Polygon","properties":{"name":"Berbérati","shapeGroup":"CAF","gid":"CAF-2-56"},"id":"CAF-2-56"},{"arcs":[[-115,-180,-134,-146,-144,180,181,182]],"type":"Polygon","properties":{"name":"Carnot","shapeGroup":"CAF","gid":"CAF-2-57"},"id":"CAF-2-57"},{"arcs":[[-143,183,184,185,186,-181]],"type":"Polygon","properties":{"name":"Baoro","shapeGroup":"CAF","gid":"CAF-2-58"},"id":"CAF-2-58"},{"arcs":[[-142,-174,-157,187,188,-184]],"type":"Polygon","properties":{"name":"Bozoum","shapeGroup":"CAF","gid":"CAF-2-59"},"id":"CAF-2-59"},{"arcs":[[-155,-162,-176,189]],"type":"Polygon","properties":{"name":"Nagha Boguila","shapeGroup":"CAF","gid":"CAF-2-60"},"id":"CAF-2-60"},{"arcs":[[-156,-190,-175,-167,-178,190,191,192,193,-188]],"type":"Polygon","properties":{"name":"Bossangoa","shapeGroup":"CAF","gid":"CAF-2-61"},"id":"CAF-2-61"},{"arcs":[[-185,-189,-194,194]],"type":"Polygon","properties":{"name":"Bossemtélé","shapeGroup":"CAF","gid":"CAF-2-62"},"id":"CAF-2-62"},{"arcs":[[-98,195,196,-191,-177]],"type":"Polygon","properties":{"name":"Bogangolo","shapeGroup":"CAF","gid":"CAF-2-63"},"id":"CAF-2-63"},{"arcs":[[-97,197,-108,198,-196]],"type":"Polygon","properties":{"name":"Boali","shapeGroup":"CAF","gid":"CAF-2-64"},"id":"CAF-2-64"},{"arcs":[[-106,-111,-116,-183,199,200,201]],"type":"Polygon","properties":{"name":"Boganda","shapeGroup":"CAF","gid":"CAF-2-65"},"id":"CAF-2-65"},{"arcs":[[-182,-187,202,203,-200]],"type":"Polygon","properties":{"name":"Gadzi","shapeGroup":"CAF","gid":"CAF-2-66"},"id":"CAF-2-66"},{"arcs":[[-201,-204,204,205]],"type":"Polygon","properties":{"name":"Boganangone","shapeGroup":"CAF","gid":"CAF-2-67"},"id":"CAF-2-67"},{"arcs":[[-107,-202,-206,206,-192,-197,-199]],"type":"Polygon","properties":{"name":"Bossembélé","shapeGroup":"CAF","gid":"CAF-2-68"},"id":"CAF-2-68"},{"arcs":[[-186,-195,-193,-207,-205,-203]],"type":"Polygon","properties":{"name":"Yaloké","shapeGroup":"CAF","gid":"CAF-2-69"},"id":"CAF-2-69"},{"arcs":[[207,208]],"type":"Polygon","properties":{"name":"Bangui","shapeGroup":"CAF","gid":"CAF-2-70"},"id":"CAF-2-70"},{"arcs":[[-96,209,-209,210,-100,-109,-198]],"type":"Polygon","properties":{"name":"Bimbo","shapeGroup":"CAF","gid":"CAF-2-71"},"id":"CAF-2-71"}]}}}