{"type":"Topology","arcs":[[[7016,3616],[333,-56],[33,41],[43,-23],[74,24],[106,-5],[99,12],[63,-20],[40,-114],[16,-21],[140,84],[79,58]],[[8042,3596],[157,-126],[49,-246],[-32,-87],[-75,-60],[-35,-70],[29,-78],[-37,-84],[42,-75],[99,-47],[26,-44],[15,-66],[46,13],[9,-44],[38,-34],[-24,-58],[21,-75],[-17,-23],[5,-68]],[[8358,2324],[-167,-12],[-70,-15],[-105,19],[-26,27],[-64,12],[-118,-10],[-30,-11],[-180,-26],[-57,40],[-122,-129]],[[7419,2219],[-79,21],[-81,-22],[-298,47],[24,73],[-73,-7],[-51,-29],[-118,-30],[-36,90],[44,14],[20,37],[55,54],[-24,51],[-29,21],[-43,95],[-61,1],[-69,24],[-45,96]],[[6555,2755],[-2,59],[-54,58],[-40,22],[-9,106],[0,104],[-35,12],[-34,54],[61,53],[21,46],[-48,81],[-224,45],[-177,165]],[[6014,3560],[67,243]],[[6081,3803],[40,-5],[163,-157],[96,21],[20,-30],[-31,-31],[12,-53],[69,4],[74,36],[47,7],[186,-44],[83,4],[90,18],[41,41],[45,2]],[[1548,8910],[60,-54],[20,-141],[113,-27],[75,-46],[12,-54],[33,-34],[6,-57],[58,-27],[74,-66],[31,-43],[56,-44],[35,2],[66,-93],[-1,-47],[79,-17],[24,13],[50,-21],[75,-82],[5,-63],[27,-34],[-4,-46],[35,-63],[43,-12]],[[2520,7854],[32,-21],[8,-123],[23,-53],[-6,-46],[34,-67],[57,-48],[-36,-67],[16,-66],[-44,-36],[31,-26],[53,-86],[-31,-18],[-2,-46],[45,-61],[-46,-53],[18,-66],[26,-24],[-10,-37],[32,-47]],[[2720,6863],[-91,-19],[-234,-1],[-16,62],[-70,99],[-46,12],[-155,103],[-34,7],[-17,52],[-68,-19],[-31,-76],[-48,-48],[-7,-45],[23,-32],[-27,-191],[31,-26],[-44,-106],[-144,-24],[-46,-26],[-74,10],[-55,57],[-112,26],[-46,82],[-46,39],[-43,3],[-16,112],[-43,9],[-43,-26],[-55,22]],[[1163,6919],[-64,121],[-56,22],[27,53],[-3,132],[-39,-21],[-30,14],[-69,-61],[-48,40],[-50,18],[-51,-14],[-47,10],[-32,41],[-91,47],[12,63],[34,29],[-12,79],[19,54],[-49,129],[14,90],[65,18],[16,43],[38,1],[80,-33],[54,2],[64,43],[41,-21],[107,-17],[9,20],[62,5],[48,-22],[14,-37],[-21,-37],[68,-36],[73,-13],[23,33],[-14,61],[15,32],[50,-13],[28,-27],[73,-174],[150,-11],[40,7],[-70,99],[2,67],[21,22],[0,56],[-64,97],[0,26],[55,93],[-46,65],[-39,5],[-52,61],[2,79],[-54,-2],[-29,16],[25,44],[-150,24],[-15,31],[-61,-25],[-52,-2],[-34,29],[-25,63],[1,53],[31,-4],[10,52],[35,29],[-47,34],[37,52],[-29,85],[68,58],[14,36],[54,2],[38,75],[26,-26],[51,27],[57,1],[55,-17],[22,16]],[[4291,11128],[-50,-65],[24,-43],[-42,-32],[16,-38],[-69,-33],[13,-30],[-35,-109],[93,-29],[118,-8],[64,-27],[7,-37],[-36,-39],[-54,-21],[-17,-45],[8,-40],[78,-67],[73,-24],[61,-40],[63,-81],[-45,-64],[-42,17],[-42,53],[-18,-26],[-8,-106],[29,-85],[-36,-102],[-19,0],[-58,-55],[5,-92],[-8,-58],[21,-70],[-44,-89],[-110,-47],[-60,-43],[-5,-140],[-20,-17],[20,-58],[-50,-119],[-49,-46]],[[4067,9173],[-36,1],[-56,-100],[-55,-54],[-28,-67],[-44,-49],[-63,-10],[-47,162],[-114,21],[-19,-73],[33,-31],[-19,-54],[-73,-29],[-77,16],[-85,-11]],[[3384,8895],[6,72],[-43,30],[-65,2]],[[3282,8999],[30,53],[-35,39],[22,71],[3,87],[16,36],[-89,50],[11,104],[-33,28],[-2,57],[59,53],[-59,24],[61,61],[0,31],[36,33],[4,48],[-60,65],[-21,-2],[-14,85],[19,55],[41,63],[3,77],[28,91],[-51,22],[34,52],[-9,66],[32,13],[-18,90],[-52,72],[-19,59],[-73,-1],[-96,16],[-86,-5],[-62,16]],[[2902,10608],[17,48],[55,59],[-3,67],[54,71],[78,60],[126,6],[52,-61],[92,4],[57,38],[109,42],[46,29],[-13,53],[6,83],[-55,11],[-25,32],[12,68],[-62,131]],[[3448,11349],[31,20],[-10,62],[38,49],[-26,56],[-54,30],[-7,113],[18,30],[10,78],[-21,21],[36,84],[1,42],[58,6],[27,-59],[32,-31],[43,-8],[38,-46],[66,-21],[45,2],[93,-19],[40,51],[-16,86],[-2,106],[30,20],[142,-47],[113,106],[70,-26],[-29,-51],[-5,-72],[61,-44],[-46,-50],[36,-58],[-33,-52],[-30,-13],[-9,-44],[44,4],[34,-47],[71,-21],[-45,-39],[5,-47],[47,-41],[-43,-24],[-7,-47],[33,-39],[-45,-50],[23,-28],[-67,-19],[0,-92],[50,-20],[3,-32]],[[6081,3803],[-68,6],[-52,-35],[-51,3],[-36,96],[13,44],[-13,65],[35,66],[-44,19],[-8,37],[42,40]],[[5899,4144],[40,43],[-6,58],[24,63],[87,36],[49,44],[110,125],[45,35],[56,6],[59,34],[33,-42],[96,-23]],[[6492,4523],[20,-40],[51,-14],[-1,-33],[-41,-75],[57,-38],[-27,-58],[18,-25],[54,0],[61,47],[61,10],[115,-45],[17,-60]],[[6877,4192],[5,-45],[-56,-76],[32,-48],[23,14],[50,-38],[-24,-56],[51,-15],[9,-48],[-4,-116],[-26,-71],[47,-19],[32,-58]],[[7061,5998],[25,-94]],[[7086,5904],[-73,-13],[-129,-77],[48,-240],[29,-43],[24,-90],[-61,-36],[-19,-39],[-10,-83],[-23,-87],[-10,-81],[-70,-47],[55,-109],[-47,-68],[5,-84],[-88,-86],[-51,-21],[-113,11],[-54,-32]],[[6499,4679],[-21,17],[-14,89],[-63,41],[-28,84],[-28,40],[-62,6],[-49,33],[-40,65],[-72,-4],[-56,13],[-34,37],[-61,2],[-90,42],[-110,-20],[-47,-31],[-90,-25]],[[5634,5068],[-68,30],[-11,73],[25,84],[-76,37],[-53,-32],[-61,-1],[-42,26],[12,61],[-88,26],[-41,41],[44,52]],[[5275,5465],[24,32],[98,11],[27,20],[121,23],[39,23],[76,-2],[16,-52],[39,-2],[15,-53],[25,-19],[112,5],[54,-25],[81,113],[38,-14],[29,23],[25,64],[44,37],[45,6],[49,36],[12,41],[51,37],[37,-8],[28,51],[87,80],[49,23],[86,-7],[-8,75],[77,99],[5,66],[45,-13],[33,-58],[91,-16],[26,30],[91,-93],[72,-25],[47,25]],[[4067,9173],[29,-26],[82,8],[54,-65],[13,-42],[-66,-107],[-16,-46],[34,-63],[8,-65],[198,-100],[11,-57],[228,-411],[12,-35],[41,-45],[122,-9],[355,-205],[120,11]],[[5292,7916],[36,5],[57,-56],[-10,-32],[86,-42],[32,-37],[-32,-27],[-76,36],[-74,-49],[86,-44],[58,-61],[83,-4],[39,-36],[88,-51],[27,-39],[38,-16],[10,-43],[46,-87],[33,-25],[-22,-108],[-50,4],[-31,-22]],[[5716,7182],[17,-38],[-1,-60],[-49,-4],[-42,25],[-22,-19],[-105,3],[5,-43],[-49,-47],[-8,-37],[-40,-32],[-292,6],[-13,-75],[-25,-30],[2,-67],[-33,-74],[-3,-81],[18,-77],[-18,-17],[59,-100],[91,-93],[-10,-78],[9,-56],[-61,-28],[35,-27],[27,-55],[-15,-48],[-53,-8]],[[5140,6022],[-27,77],[-46,20],[-58,82],[28,56],[-20,58],[-1,82],[-74,21],[-28,-29],[-45,-9],[-137,-6],[-51,46],[-31,-14],[-70,2],[-50,-85],[16,-29],[-34,-59],[-65,-38]],[[4447,6197],[-50,31],[-54,10],[-32,34],[-50,16],[2,84],[-44,53],[3,32],[-43,11]],[[4179,6468],[7,188],[15,29],[-18,40],[2,64],[21,28],[-47,78],[-26,-3],[-29,75],[-15,133],[4,36],[-17,106],[-45,81],[-13,96],[4,121],[-9,81],[-23,45],[-86,13],[-3,45],[-28,16],[6,46],[-48,19],[58,76],[-26,83],[7,57],[-27,54],[6,39],[-28,53],[32,55],[43,23],[6,64],[23,78],[-63,36],[-20,-32],[-43,91],[-57,65],[-31,4],[-60,43],[7,45],[-33,31],[-95,-45],[-15,29],[-59,1],[-50,-33],[-24,72],[12,46],[-25,39],[18,64],[-3,52]],[[10725,8372],[-164,-112],[-130,-79],[-269,-86],[-145,16],[-46,-33],[3,-96],[14,-29],[-74,-56],[-112,36],[-53,4],[-35,-33],[3,-27],[-172,-84],[-19,-35],[-53,-15],[29,-74],[-13,-45],[-38,-37],[-21,-122],[-112,-12],[-44,-66],[-53,-28],[-45,-5],[-130,-57],[-40,-31],[-24,42],[1,61],[-101,123],[-42,2],[-76,-96],[-129,26],[-57,-13],[-16,24],[9,71],[-96,86],[-13,50],[-38,7],[-56,40],[-24,39]],[[8344,7728],[20,10],[18,79],[-101,42],[1,41],[72,24],[76,52],[-32,55],[-49,44],[3,24]],[[8352,8099],[3,56],[124,53],[18,58],[94,101],[8,79],[-32,15],[-7,55],[-49,41],[-17,60],[-51,20],[-21,48],[41,17],[36,-14],[34,41],[26,3],[61,42],[-69,52],[-31,-2],[-64,79],[0,44],[78,4],[-10,55],[-72,-29],[-35,41],[6,45],[36,36],[-88,0],[-44,67],[-67,-6],[-58,17],[-75,80],[-101,17],[-77,-64],[-54,61],[48,45],[-69,117],[40,34],[16,66],[-35,29],[11,63],[-74,56],[-17,34],[1,77],[-63,39],[-57,72]],[[7696,9903],[45,81],[-2,60],[33,82],[1,80],[116,30],[36,23],[30,57],[37,15],[23,46],[72,-51],[80,-20],[44,53],[84,-10],[20,76],[102,22],[27,44],[170,-18],[37,52],[128,23],[51,-15],[42,8],[39,43],[35,6],[36,-38],[196,-12],[32,9],[70,-31],[36,18],[58,-12],[27,-30],[98,-2],[-8,-68],[78,-34],[67,78],[26,15],[35,59],[19,0],[-4,-98],[11,-87],[79,26],[90,-77],[0,-70],[58,-86],[84,29],[23,-30],[54,-138],[38,-55],[19,-82],[195,-241],[70,-61],[54,-22],[120,138],[8,-113],[22,-80],[-11,-37],[-72,-54],[-1,-56],[29,-34],[46,-8],[32,-38],[-9,-42],[-47,-21],[-39,-41],[-34,-89],[-57,-17],[-19,-28],[25,-85],[-33,-72],[42,-38],[70,-3],[87,-21],[25,-36],[8,-104],[44,-30],[20,-36],[-9,-69],[42,-78],[-3,-24],[-49,-30],[1,-32]],[[1054,4955],[103,-40],[47,7],[46,-31],[79,-145],[378,-11],[39,-36],[15,-82],[63,-20],[-29,-71],[64,-112],[0,-42],[80,-54],[191,-101],[146,-107],[90,-124],[79,-73],[42,-62],[38,-122]],[[2525,3729],[12,-126],[-61,-67],[-7,-46],[37,-39],[64,-1],[53,-26],[27,-34],[42,-180],[-12,-320],[6,-420]],[[2686,2470],[-302,-39],[-32,-48],[-46,13],[-39,-17],[-39,18],[-72,-13]],[[2156,2384],[-62,69],[-35,83],[-21,91],[26,40],[-24,60],[18,72],[-53,36],[-17,-88],[-60,24],[-34,54],[-38,-46],[-25,31],[5,48],[-52,47],[-52,-6],[-46,21],[-33,57],[-48,-16],[-1,-58],[-141,112],[3,37],[-55,16],[13,87],[-26,57],[15,35],[-65,39],[-24,-40],[-19,97],[13,121],[16,35],[-35,46],[-75,61],[-149,62],[-37,39],[-136,-43],[-24,12],[-56,-42],[-65,-3],[-59,39],[-52,5],[-41,38],[-73,-6],[-5,53],[-39,-3],[-44,42],[-118,-33],[-6,48],[29,14],[-25,107],[-51,37],[-20,59],[-73,-110],[-35,12],[-55,88],[-37,25],[-53,-1],[20,47],[12,84],[52,-6],[6,49],[46,18],[32,54],[65,27],[24,38]],[[257,4356],[-3,-12],[209,-141],[32,38],[103,34],[-8,50],[10,49],[44,0],[-17,51],[56,54],[38,-38],[33,38],[-10,63],[44,17],[47,54],[52,32],[-40,70],[39,45],[-30,23],[54,36],[12,28],[44,1],[60,61],[28,46]],[[8358,2324],[21,-53],[43,-16],[48,-63],[5,-34],[49,4],[34,-75],[-11,-28],[30,-31],[-21,-63],[77,-59],[41,1],[-7,-57],[40,-20],[1,-28],[53,-29]],[[8761,1773],[-124,-50],[-36,27],[-63,-61],[-21,-60]],[[8517,1629],[-34,12],[-183,38],[-232,-21],[-28,-10],[-176,-24]],[[7864,1624],[-22,115],[-85,-9],[-41,63],[-27,212],[36,7],[-19,114],[-114,52],[-37,27],[-92,-2],[-44,16]],[[5899,4144],[-3,70],[-57,22],[-102,-4],[-41,39],[9,57]],[[5705,4328],[22,34],[-10,72],[-83,155],[-67,46],[-5,83],[-41,18],[-31,75],[46,49],[8,110],[34,79],[56,19]],[[6499,4679],[31,-25],[-7,-55],[-31,-76]],[[2902,10608],[-68,12],[-62,-6],[-83,16],[-27,-135],[-65,-14],[-43,-43],[-66,-41],[-62,-6],[-44,-63],[-130,-85],[-68,-71],[11,-41],[-49,-13],[-62,19],[-76,-15],[-144,69],[-83,26],[62,35],[24,82],[-39,162],[9,41],[-42,59],[-81,13],[-5,26],[-54,32],[-52,0],[-47,-33],[-35,-68],[-13,-52],[-35,-18],[-156,-16],[-450,-62]],[[867,10418],[-58,-10],[18,69],[-22,29],[-50,22],[20,34],[68,26],[-5,35],[-33,21],[35,69],[8,59],[54,11],[122,56],[-2,78],[71,68],[26,-29],[48,-7],[39,28],[71,11],[46,69],[69,62],[54,76],[53,40],[-2,78],[64,9],[-27,55],[32,41],[40,6],[111,115],[65,-61],[69,-26],[72,81],[92,-25],[42,-50],[-19,-27],[57,-127],[26,22],[62,-2],[17,-35],[4,-82],[-42,-70],[80,-22],[49,33],[60,17],[23,-11],[188,-12],[42,-17],[46,-54],[51,-7],[11,-25],[-23,-47],[63,-45],[72,22],[31,30],[20,74],[-63,83],[62,89],[81,103],[64,-22],[34,13],[51,-8],[88,78],[53,-47],[69,-5],[30,-23],[72,-13],[32,28]],[[5275,5465],[-3,46],[-39,39],[-78,45],[50,69],[-60,29],[-21,69],[31,71],[-2,38],[-35,21],[5,44],[40,24],[6,35],[-29,27]],[[5716,7182],[66,-99],[41,12],[61,-32],[52,-66],[53,-11],[102,-51],[4,-59],[80,-87],[24,26],[101,18],[31,-8],[56,38],[66,7],[74,-11],[39,-31],[210,75],[130,16],[4,29],[100,25],[51,-18],[55,-111],[59,-52],[-30,-134],[81,-92],[68,-15]],[[7294,6551],[-11,-94],[41,-76],[13,-119],[20,-31],[1,-76],[-40,-24],[-31,24],[-61,13],[-50,-40],[-20,-52],[-73,-21],[-22,-57]],[[4684,2198],[77,11],[41,26],[72,-11],[130,-4],[51,38],[4,40],[50,90],[156,-111],[66,-37],[36,42],[48,17],[23,-101],[69,-32],[70,-68],[13,-61],[88,-5],[23,-58],[58,-10],[-29,-55],[-49,-28],[-55,-106],[2,-27],[40,-35]],[[5668,1713],[-47,-8],[-5,-123],[-66,-45],[-16,-111],[38,-46]],[[5572,1380],[-40,-17],[-177,-10],[-73,-21],[-176,-20],[-113,-19],[-179,-48],[-111,-43],[-20,-23],[-93,-40],[-73,-8],[-24,-35],[-67,-37],[-108,-44],[-106,-59],[-109,-33]],[[4103,923],[6,49],[-30,17],[-26,46],[-36,10],[-62,-20],[-8,74],[49,31],[40,46],[-14,69],[-37,35],[-5,44],[46,23],[-14,28],[13,76],[-10,34],[-46,31],[-38,62],[-4,140],[-134,-7],[-17,31]],[[3776,1742],[60,148],[-6,94],[10,91],[-29,48],[-5,56],[-46,-12],[-22,35],[25,30],[-11,35],[206,-10],[65,25],[12,37],[78,58],[57,-10],[72,19],[22,19],[33,-70],[-16,-32],[7,-88],[34,-42],[-61,-131],[42,-32],[66,-30],[24,-57],[149,7],[45,-54],[46,5],[31,48],[-2,56],[62,91],[-48,68],[8,54]],[[6014,3560],[-100,50],[-36,-5],[-37,-31],[-40,27],[-27,-10],[-114,-91],[-23,-69],[-58,-26],[-71,11],[-16,-27],[-49,24],[-57,-18],[-44,23],[-25,-19],[-68,47],[-134,46],[-63,-87],[-1,-210],[-38,-88],[6,-121],[-78,-49],[-204,-270],[-34,7],[-107,-225]],[[4596,2449],[-27,12],[-61,110],[16,32],[-69,33],[-19,34],[-131,-4],[-58,-109],[-19,29],[21,53],[-17,59],[-31,36],[-5,74],[-50,40],[-23,132],[-118,186],[-45,122],[-57,124],[14,252]],[[3917,3664],[127,26],[42,63],[173,-16],[286,316],[33,47]],[[4578,4100],[205,-5],[312,-46],[36,42],[4,40],[38,28],[29,-43],[36,-20],[99,47],[73,18],[-15,39],[71,37],[52,11],[25,-27],[27,59],[98,52],[37,-4]],[[10725,8372],[78,-4],[33,-206],[57,-397],[70,-452],[0,-45],[-114,-104],[-83,14],[-32,-42],[-7,-52],[54,-90],[-21,-58],[-92,-4],[-48,-18],[-10,-35],[-53,-50],[-56,-91],[-27,45],[-31,12],[-16,-165],[-77,-87],[5,-34],[-39,-60],[-133,-291],[-15,-120],[3,-91],[-31,-104],[-27,-157],[-19,-60],[-4,-128],[41,-62],[-126,-176],[-17,-121],[-81,-38]],[[9907,5101],[-62,73],[-35,55],[-94,84],[-67,28],[3,41],[-46,70],[-6,125],[-17,37],[-98,-1],[30,-78],[-85,-25],[-61,-44],[-44,82],[-48,24],[-16,60],[-51,30],[-26,-19],[-61,20]],[[9123,5663],[-4,25],[34,45],[2,73],[-37,40],[-42,72],[-56,15],[-53,43],[3,26],[45,38],[-16,56],[-58,19],[-60,-35],[-63,97],[-1,28],[-45,13],[-44,35],[-2,130],[-43,-6],[-76,20],[-49,-6],[1,41],[-27,22],[-61,8],[33,40],[-37,33],[26,54],[-36,64],[-63,3],[-40,24],[-51,0],[6,44],[70,69],[-1,45],[-103,-15],[-36,-33],[-29,52],[50,61],[-43,73]],[[8217,6976],[40,111],[104,-6],[-90,118],[-79,26],[-3,36],[44,62],[-95,108],[36,36],[127,-12],[19,88],[-38,11],[38,82],[-56,4],[-25,54],[60,10],[45,24]],[[7864,1624],[-416,-42],[-6,-7],[-160,-15],[-201,-27],[-208,-40],[-212,-12],[-57,-10],[-134,-6],[-368,-25],[-91,-1],[-312,-37],[-127,-22]],[[5668,1713],[62,-17],[-13,-68],[64,-7],[112,-109],[45,31],[90,3],[72,57],[8,47],[111,8],[-15,-82],[50,-39],[72,37],[0,79],[32,15],[31,66],[-57,64],[15,41],[-12,43],[96,291],[-5,57],[-42,73],[39,37],[31,72],[59,16],[43,69],[-59,94],[-5,61],[25,35],[10,52],[28,16]],[[1054,4955],[50,91],[37,21],[37,64],[66,36],[119,-79],[74,-27],[60,-49],[37,-4],[11,74],[62,63],[31,-23],[43,3],[35,-33],[85,-15],[26,18],[91,6],[13,25],[-39,74],[65,60],[33,52],[-26,92],[-63,106],[37,82],[36,55],[2,74],[37,21],[26,46],[32,5],[161,121],[67,8],[39,33],[-12,51],[16,97],[55,71],[5,46],[30,29],[72,-2],[71,114],[42,5],[51,-20],[34,7]],[[2702,6353],[-1,-68],[23,-80],[45,-58],[45,8],[52,-56],[0,-58],[-47,5],[-44,-25],[20,-96],[46,-68],[-28,-58],[-52,-9],[4,-39],[-69,-58],[42,-61],[-18,-60],[10,-26],[-16,-115],[20,-56],[-42,-26],[55,-69],[-14,-32],[34,-80],[-24,-86],[-13,-81],[12,-19],[-12,-83],[44,-68],[-31,-52],[-8,-76],[37,-24],[62,-6],[26,-69],[-9,-37],[24,-46],[-13,-52],[30,-21],[-29,-45],[12,-63],[-7,-60],[-63,-66],[39,-60]],[[2844,4154],[-234,-186],[-36,9],[-12,-58],[47,-47],[-41,-18],[-31,-45],[-12,-80]],[[5292,7916],[-15,49],[21,74],[-48,16],[-44,-28],[-35,41],[27,60],[6,62],[28,76],[-46,33],[3,35],[-52,24],[48,126],[46,-24],[113,8],[44,57],[44,-3],[85,16],[50,-8],[24,-24],[46,30],[-57,33],[45,51],[-41,29],[23,74],[25,-25],[36,114],[-38,29],[-63,18],[-27,44],[27,46],[65,15],[-12,46],[59,86],[-21,30],[64,49],[-2,43],[29,41],[1,81],[42,11],[54,99],[-13,54]],[[5833,9504],[75,8],[93,26],[78,38],[26,-16],[23,-70],[66,-79],[160,-48],[51,-5],[31,-39],[-6,-121],[59,-53],[-13,-52],[38,-18],[50,-50],[90,-46],[1,-32],[-41,-131],[-14,-111],[-79,-63],[631,-15],[92,12],[46,-25],[36,5],[52,-57],[-42,-104],[35,-71],[39,-41],[27,-1],[30,-58],[125,27],[34,-57],[83,23],[31,21],[45,-43],[43,-89],[56,-38],[27,48],[144,-65],[61,36],[41,-23],[30,9],[95,-43],[47,-11],[23,17]],[[8217,6976],[-131,-76],[-10,-23],[57,-50],[-32,-90],[-61,-5],[-65,-34],[-8,-22],[-92,-2],[-59,56],[-45,12],[-35,-46],[-40,-1],[2,-49],[-72,-53],[-185,-32],[-99,-23],[-48,13]],[[4447,6197],[-394,-231],[-15,-114],[-20,-26],[-168,-365],[0,-14],[144,19],[20,-15],[129,-21],[123,1],[1,70],[52,-1],[77,48],[52,-51],[1,-47],[105,-58],[208,-77],[-116,-16],[-4,-68],[-327,-214],[-33,-37],[-21,-185],[55,-143],[10,-145],[89,-120],[22,-43],[-7,-38],[29,-27],[-3,-99],[122,-80]],[[3917,3664],[-59,-8],[-71,-41],[-56,-20],[-148,112],[-44,-39],[-118,-6],[-157,-32],[-120,-11],[-56,7],[-126,186],[-80,88],[-9,70],[57,57],[-50,118],[-36,9]],[[2702,6353],[-4,145]],[[2698,6498],[149,15],[317,-4],[368,-2],[35,-8],[246,-114],[170,67],[60,13],[136,3]],[[9123,5663],[-39,-15],[-48,-60],[38,-39],[-14,-31],[-77,8],[-1,-58],[26,-42],[-29,-79],[-84,29],[-22,-55],[14,-84],[66,-44],[55,-20],[-26,-33],[-52,26],[0,-43],[-29,-40],[-73,5],[-100,-79],[-48,-16],[-43,-56],[-2,-40]],[[8635,4897],[-83,28],[-16,34],[-98,19],[-43,-32],[-46,23],[-65,3],[-71,24],[-31,-5]],[[8182,4991],[-104,4],[-50,166],[-11,60],[-133,32],[-45,104],[-32,-19],[-134,61],[-56,-11],[-55,28],[-57,8],[-77,56],[-67,-15],[-76,47],[-20,59],[-37,41],[-16,44],[40,34],[-25,43],[-48,37],[-12,51],[-81,83]],[[9907,5101],[-28,-16],[-250,-431],[2,-93],[43,-39],[2,-42],[-35,-62],[-11,-59],[-33,-32],[-10,-76],[35,-19],[-7,-106],[66,-272],[58,-197],[-5,-88]],[[9734,3569],[-39,-76],[-16,-52],[17,-49],[-49,-100],[-13,-155],[-48,-60],[-27,-10],[33,-86],[-70,-12],[-49,-48]],[[9473,2921],[-81,-22],[-107,6],[-55,26],[34,54],[-11,50],[59,23],[3,53],[20,24],[-27,77],[-33,23],[9,32],[40,9],[-25,66],[28,36],[-54,98],[-59,-2],[-40,40],[27,52],[-11,99],[-56,57],[-16,51],[11,45],[-37,36],[-30,-37],[-54,40],[-28,-15],[-31,52],[-2,39],[-73,42],[20,40],[-20,91],[-24,17],[4,56],[-53,31],[13,104],[-32,4],[-30,-31],[-73,5],[-19,-25]],[[8660,4267],[-7,52],[-46,58],[59,52],[-41,58],[-18,51],[65,60],[19,70],[-48,47],[20,47],[55,61],[-13,59],[-70,15]],[[1548,8910],[-83,50],[-60,67],[-24,69],[-44,33],[-49,-52],[-69,44],[-20,68],[73,145],[-7,82],[36,72],[13,79],[-97,0],[-108,-41],[-119,-8],[-102,96],[-58,97],[-30,67],[-15,109],[51,122],[-18,67],[29,43],[-15,54],[21,54],[-9,34],[33,43],[-10,114]],[[3282,8999],[-106,-57],[-33,-31],[-67,11],[-47,-41],[-16,-93],[7,-126],[-28,11],[-47,56],[-32,-18],[-43,16],[-59,-10],[-38,24],[-57,92],[-75,30],[-61,-88],[-42,-12],[-8,-66],[-91,-7],[1,-52],[23,-15],[-17,-86],[40,-121],[-6,-84],[17,-49],[-13,-60],[-25,-47],[0,-87],[28,-99],[-8,-41],[40,-37],[1,-58]],[[4684,2198],[-28,4],[-60,126],[11,71],[-11,50]],[[8042,3596],[-85,140],[43,258],[84,40],[22,-21],[34,42],[64,34],[89,67],[34,-33],[99,25],[38,-36],[58,-1],[50,81],[40,15],[48,60]],[[9473,2921],[-4,-31],[-56,-40],[-55,6],[-20,-40],[-1,-67],[-55,-60],[-20,-41],[24,-22],[97,-28],[129,-17],[-41,-124],[-101,-16],[-68,-39],[-16,-56],[-47,-4],[-132,-101],[-88,-8],[-30,-380],[-29,-20],[-35,-60],[17,-59],[-28,-28],[-72,6],[-34,-46],[-46,0],[-21,38],[20,89]],[[3776,1742],[-45,51],[-85,-2],[-52,-33],[-81,-19],[-14,-28],[-42,4],[0,127],[-65,13],[-55,67],[-4,68],[-92,24],[-74,66],[-63,10],[-21,-15],[-93,10],[-28,-35],[-57,3],[-94,38],[-26,90],[-39,15],[4,52],[-16,53],[15,62],[-63,107]],[[4291,11128],[32,-25],[88,-28],[105,3],[53,-27],[90,-14],[73,101],[-7,41],[59,11],[41,-31],[35,46],[-19,30],[36,36],[-8,27],[17,76],[72,29],[34,50]],[[4992,11453],[46,-13],[-7,-50],[-65,-20],[26,-114],[38,-47],[-10,-55],[19,-49],[-29,-43],[40,-66],[75,-93],[-8,-32],[31,-60],[-21,-40],[19,-67],[-18,-38],[28,-79],[11,-81],[54,-35],[-4,-61],[35,-47],[60,-29],[1,-45],[-41,-54],[61,-27],[45,-35],[57,-23],[62,32],[54,-6],[51,30],[27,-72],[26,-24],[121,-64],[30,-55],[65,-83],[27,5],[12,-84],[-10,-81],[-53,-15],[47,-114],[-38,-9],[-23,-106]],[[4103,923],[-109,-42],[-59,-7],[-99,-41],[-5,-20],[-108,-27],[-89,-7],[-79,-37],[-5,-17],[-77,-49],[-102,-21],[-10,-24],[-280,-38],[-87,-20],[-8,-41],[-80,-43],[-36,-48],[-79,-58],[-11,-35],[-69,-20],[-212,-28],[-104,-65],[-14,-41],[-98,-24],[-28,-39],[-74,-45],[-53,-19],[-35,-30],[-129,-37],[-91,5],[-31,12],[-39,60],[32,54],[-25,73],[25,40],[1,43],[-22,37],[13,30],[-29,81],[47,36],[-41,143],[26,33],[-1,64],[-17,61],[-46,52],[18,59],[-16,29],[5,68],[-12,53],[55,6],[29,29],[39,-11],[-24,81],[-35,22],[29,33],[-24,74],[15,27],[-26,76],[62,55],[53,-2],[25,31],[28,92],[-26,73],[44,123],[53,35],[62,12],[35,26],[-14,48],[-69,67],[-12,48],[-36,39],[19,38],[42,-5],[-14,56],[27,23],[29,136],[-4,44],[28,20],[5,55]],[[9734,3569],[35,-6],[82,-166],[51,-298],[108,-285],[-24,-253],[145,-9],[-26,-150],[57,-37],[59,26],[9,30],[56,36],[14,-33],[72,-42],[50,-8],[50,-64],[8,-257],[63,-111],[-11,-68],[-77,-34],[15,-74],[-48,-22],[67,-69],[-1,-58],[59,-160],[-60,-70],[-32,23],[-127,-9],[-63,37],[-33,-76],[-52,13],[-37,-24],[-55,11],[-79,59],[-96,-9],[-55,15],[-11,-56],[-262,56],[-37,1],[-371,78],[-146,8],[-121,21],[-329,69],[-64,25]],[[4992,11453],[62,45],[46,-20],[62,5],[46,50],[56,16],[69,-25],[68,1],[39,15],[59,-44],[68,-68],[36,-50],[27,-70],[29,-8],[53,-63],[90,-34],[13,32],[46,-21],[71,53],[19,-20],[83,12],[54,-6],[60,-50],[77,30],[14,-43],[-14,-54],[61,-51],[14,-51],[36,-39],[-16,-39],[-5,-84],[84,-24],[33,-58],[29,-3],[56,-69],[-35,-62],[45,-34],[25,-59],[-42,-77],[53,-46],[64,20],[35,-21],[104,-24],[13,-42],[36,1],[16,-47],[5,-78],[15,-50],[78,-7],[57,-111],[39,-26],[44,17],[22,50],[39,-17],[24,38],[50,-57],[37,-4],[33,46],[0,64],[47,4],[23,-61],[-28,-39],[3,-62],[18,-33],[99,5],[47,21],[36,-40],[1,-35],[30,-52],[29,-4],[15,52],[31,10],[71,-55]],[[2720,6863],[-15,-60],[8,-58],[-48,-36],[-33,-52],[1,-44],[71,-12],[-6,-103]],[[257,4356],[51,34],[-5,34],[35,50],[46,28],[63,110],[13,103],[-18,44],[13,43],[31,6],[-27,119],[62,31],[23,39],[-28,31],[-27,131],[45,121],[-2,48],[-154,127],[22,44],[-72,108],[-11,158],[-25,26],[14,50],[-30,100],[-4,49],[-45,-7],[-32,48],[79,79],[47,65],[38,-31],[-5,-46],[77,3],[54,38],[8,-36],[67,-31],[97,-74],[60,50],[12,32],[-18,59],[26,65],[93,149],[42,144],[-54,68],[-11,94],[61,128],[23,95],[84,79],[44,-18],[34,19],[98,-59],[12,16]],[[8182,4991],[-544,-317],[23,-20],[-38,-47],[-35,16],[-108,3],[-17,-69],[-76,4],[61,-51],[-39,-16],[-8,-43],[-101,-30],[-47,47],[-25,-15],[45,-49],[-32,-167],[13,-39],[-57,-33],[-146,85],[-38,-22],[-73,-13],[-63,-23]]],"transform":{"scale":[0.0005549741720331987,0.0005285676711092746],"translate":[-8.578286204999927,4.360553222000021]},"objects":{"CIV":{"type":"GeometryCollection","geometries":[{"arcs":[[0,1,2,3,4,5,6]],"type":"Polygon","properties":{"name":"Agneby-Tiassa","shapeGroup":"CIV","gid":"CIV-2-0"},"id":"CIV-2-0"},{"arcs":[[7,8,9,10]],"type":"Polygon","properties":{"name":"Bafing","shapeGroup":"CIV","gid":"CIV-2-1"},"id":"CIV-2-1"},{"arcs":[[11,12,13,14,15,16]],"type":"Polygon","properties":{"name":"Bagoue","shapeGroup":"CIV","gid":"CIV-2-2"},"id":"CIV-2-2"},{"arcs":[[[-7,17,18,19,20]],[[21,22,23,24,25]]],"type":"MultiPolygon","properties":{"name":"Belier","shapeGroup":"CIV","gid":"CIV-2-3"},"id":"CIV-2-3"},{"arcs":[[-13,26,27,28,29,30,31]],"type":"Polygon","properties":{"name":"Bere","shapeGroup":"CIV","gid":"CIV-2-4"},"id":"CIV-2-4"},{"arcs":[[32,33,34,35]],"type":"Polygon","properties":{"name":"Bounkani","shapeGroup":"CIV","gid":"CIV-2-5"},"id":"CIV-2-5"},{"arcs":[[36,37,38,39,40]],"type":"Polygon","properties":{"name":"Cavally","shapeGroup":"CIV","gid":"CIV-2-6"},"id":"CIV-2-6"},{"arcs":[[-3,41,42,43,44]],"type":"Polygon","properties":{"name":"District Autonome D'Abidjan","shapeGroup":"CIV","gid":"CIV-2-7"},"id":"CIV-2-7"},{"arcs":[[-19,45,46,-24,47]],"type":"Polygon","properties":{"name":"District Autonome De Yamoussoukro","shapeGroup":"CIV","gid":"CIV-2-8"},"id":"CIV-2-8"},{"arcs":[[-16,48,49]],"type":"Polygon","properties":{"name":"Folon","shapeGroup":"CIV","gid":"CIV-2-9"},"id":"CIV-2-9"},{"arcs":[[-26,50,-29,51,52]],"type":"Polygon","properties":{"name":"Gbeke","shapeGroup":"CIV","gid":"CIV-2-10"},"id":"CIV-2-10"},{"arcs":[[53,54,55,56,57]],"type":"Polygon","properties":{"name":"Gbokle","shapeGroup":"CIV","gid":"CIV-2-11"},"id":"CIV-2-11"},{"arcs":[[-6,58,59,60,61,-46,-18]],"type":"Polygon","properties":{"name":"Goh","shapeGroup":"CIV","gid":"CIV-2-12"},"id":"CIV-2-12"},{"arcs":[[-33,62,63,64,65]],"type":"Polygon","properties":{"name":"Gontougo","shapeGroup":"CIV","gid":"CIV-2-13"},"id":"CIV-2-13"},{"arcs":[[-4,-45,66,-55,67]],"type":"Polygon","properties":{"name":"Grands Ponts","shapeGroup":"CIV","gid":"CIV-2-14"},"id":"CIV-2-14"},{"arcs":[[-37,68,69,70]],"type":"Polygon","properties":{"name":"Guemon","shapeGroup":"CIV","gid":"CIV-2-15"},"id":"CIV-2-15"},{"arcs":[[-28,71,72,-34,-66,73,-52]],"type":"Polygon","properties":{"name":"Hambol","shapeGroup":"CIV","gid":"CIV-2-16"},"id":"CIV-2-16"},{"arcs":[[-31,74,-61,75,-70,76,77]],"type":"Polygon","properties":{"name":"Haut-Sassandra","shapeGroup":"CIV","gid":"CIV-2-17"},"id":"CIV-2-17"},{"arcs":[[-22,-53,-74,-65,78,79,80]],"type":"Polygon","properties":{"name":"Iffou","shapeGroup":"CIV","gid":"CIV-2-18"},"id":"CIV-2-18"},{"arcs":[[-64,81,82,83,84,-79]],"type":"Polygon","properties":{"name":"Indenie-Djuablin","shapeGroup":"CIV","gid":"CIV-2-19"},"id":"CIV-2-19"},{"arcs":[[-8,85,-49,-15,86]],"type":"Polygon","properties":{"name":"Kabadougou","shapeGroup":"CIV","gid":"CIV-2-20"},"id":"CIV-2-20"},{"arcs":[[-5,-68,-54,87,-59]],"type":"Polygon","properties":{"name":"Loh-Djiboua","shapeGroup":"CIV","gid":"CIV-2-21"},"id":"CIV-2-21"},{"arcs":[[-25,-47,-62,-75,-30,-51]],"type":"Polygon","properties":{"name":"Marahoue","shapeGroup":"CIV","gid":"CIV-2-22"},"id":"CIV-2-22"},{"arcs":[[-2,88,-84,89,-42]],"type":"Polygon","properties":{"name":"Me","shapeGroup":"CIV","gid":"CIV-2-23"},"id":"CIV-2-23"},{"arcs":[[-38,-71,-76,-60,-88,-58,90]],"type":"Polygon","properties":{"name":"Nawa","shapeGroup":"CIV","gid":"CIV-2-24"},"id":"CIV-2-24"},{"arcs":[[-12,91,92,-72,-27]],"type":"Polygon","properties":{"name":"Poro","shapeGroup":"CIV","gid":"CIV-2-25"},"id":"CIV-2-25"},{"arcs":[[-39,-91,-57,93]],"type":"Polygon","properties":{"name":"San Pedro","shapeGroup":"CIV","gid":"CIV-2-26"},"id":"CIV-2-26"},{"arcs":[[-43,-90,-83,94]],"type":"Polygon","properties":{"name":"Sud-Comoe","shapeGroup":"CIV","gid":"CIV-2-27"},"id":"CIV-2-27"},{"arcs":[[-35,-73,-93,95]],"type":"Polygon","properties":{"name":"Tchologo","shapeGroup":"CIV","gid":"CIV-2-28"},"id":"CIV-2-28"},{"arcs":[[-10,96,-77,-69,-41,97]],"type":"Polygon","properties":{"name":"Tonkpi","shapeGroup":"CIV","gid":"CIV-2-29"},"id":"CIV-2-29"},{"arcs":[[-9,-87,-14,-32,-78,-97]],"type":"Polygon","properties":{"name":"Worodougou","shapeGroup":"CIV","gid":"CIV-2-30"},"id":"CIV-2-30"},{"arcs":[[-20,-48,-23,-81,98]],"type":"Polygon","properties":{"name":"N'Zi","shapeGroup":"CIV","gid":"CIV-2-31"},"id":"CIV-2-31"},{"arcs":[[-1,-21,-99,-80,-85,-89]],"type":"Polygon","properties":{"name":"Moronou","shapeGroup":"CIV","gid":"CIV-2-32"},"id":"CIV-2-32"}]}}}