{"type":"Topology","arcs":[[[2095,37],[-40,89],[-81,37],[-7,15]],[[1967,178],[73,42],[60,-3],[57,-17],[34,44]],[[2191,244],[110,-25],[109,-81],[40,-53],[-23,-85],[-222,64],[-66,-2],[-44,-25]],[[4943,390],[-18,18],[-73,-50],[-40,0],[-126,41]],[[4686,399],[6,43],[-28,116]],[[4664,558],[26,10],[106,107],[24,38],[-72,56],[-27,36],[-41,117],[-62,72],[0,56],[-18,23]],[[4600,1073],[74,50],[44,12],[45,-22],[55,-76],[-22,-62],[34,-33],[17,-50],[2,-58],[26,-64],[48,-69],[-2,-54],[35,-67],[-7,-19],[28,-92],[-34,-79]],[[1967,178],[-30,39],[-41,11],[-6,33],[-88,-4],[-83,77],[-58,27],[-70,59],[-71,20]],[[1520,440],[17,32],[39,-4],[57,32],[23,-33],[124,-9],[68,-36],[75,2],[21,-31],[71,-48],[52,-2],[20,-42],[70,-24],[34,-33]],[[671,2918],[-59,-4],[-171,6]],[[441,2920],[26,126],[-15,52]],[[452,3098],[-8,156],[39,39],[45,142],[141,33]],[[669,3468],[26,-24],[24,-91],[-25,-58],[-11,-78],[-22,-20],[-11,-65],[34,-55],[-18,-77],[5,-82]],[[513,2150],[-10,-247],[-6,-22]],[[497,1881],[-85,-15],[-97,6],[-89,40],[-68,78],[-23,82]],[[135,2072],[60,1],[295,111]],[[490,2184],[23,-34]],[[441,2920],[-41,-83],[-34,-33],[-45,-86],[77,-58],[5,-111],[47,-171]],[[450,2378],[-275,6],[-44,15],[40,38],[-13,47],[-44,13]],[[114,2497],[29,25],[-23,102],[1,157],[39,111],[-17,29],[-4,78],[37,82]],[[176,3081],[49,-1],[126,-48],[19,62],[82,4]],[[490,2184],[2,70]],[[492,2254],[34,-20]],[[526,2234],[39,-17],[-2,-33]],[[563,2184],[-50,-34]],[[526,2234],[131,27],[106,2],[84,39]],[[847,2302],[25,-142],[-20,-34],[35,-43],[22,-90],[33,-20],[32,-78],[92,-82],[11,-48],[25,-18],[-50,-35],[-28,-74],[-102,-52],[-56,5],[-65,43]],[[801,1634],[28,56],[-24,66],[-4,129],[-49,105],[-189,194]],[[801,1634],[-47,59],[-22,4],[-91,68],[-38,49],[-11,38],[-95,29]],[[176,3081],[8,71],[-24,48],[4,44],[-34,61],[16,14],[16,111],[27,53],[94,72],[131,24],[21,22],[51,-2],[75,-27],[24,9],[54,-24],[13,-72],[17,-17]],[[135,2072],[-43,49],[-53,25],[10,22],[-31,63],[-18,68],[42,64],[72,134]],[[450,2378],[42,-124]],[[4943,390],[26,-161],[-11,-40],[20,-25],[-9,-84],[-30,-43],[-50,-12],[-76,28],[6,73],[-83,90],[-38,27]],[[4698,243],[13,33],[-42,44],[-4,40],[21,39]],[[4603,643],[-148,-36],[-57,0],[-248,21],[-75,61]],[[4075,689],[37,-8],[78,9],[28,25],[64,-4],[85,20],[69,46],[35,45],[62,9],[13,28]],[[4546,859],[39,-71],[33,-34],[23,-86],[-38,-25]],[[2095,37],[-34,50],[-76,25],[-27,-28],[-158,35],[-96,-23],[-57,129],[-58,13],[-35,42],[-3,37],[-28,27],[-15,73],[12,23]],[[671,2918],[-52,-182],[36,-87],[-4,-61],[84,-72],[24,-43],[41,-112],[47,-59]],[[4664,558],[-76,56],[15,29]],[[4546,859],[4,55],[38,26],[-1,40],[-43,38],[5,35],[51,20]],[[4698,243],[-91,32],[-29,58],[-46,36],[-51,8],[-72,108],[-171,61],[-75,-12],[-213,94],[-41,35],[-121,52],[-29,31],[7,41],[83,-13],[20,-37],[133,-20],[73,-28]]],"transform":{"scale":[0.0002622728003214141,0.00028494918078311574],"translate":[43.22855599999999,-12.391377999999998]},"objects":{"COM":{"type":"GeometryCollection","geometries":[{"arcs":[[0,1,2]],"type":"Polygon","properties":{"name":"Djando","shapeGroup":"COM","gid":"COM-2-0"},"id":"COM-2-0"},{"arcs":[[3,4,5,6]],"type":"Polygon","properties":{"name":"Domoni","shapeGroup":"COM","gid":"COM-2-1"},"id":"COM-2-1"},{"arcs":[[-2,7,8]],"type":"Polygon","properties":{"name":"Fomboni","shapeGroup":"COM","gid":"COM-2-2"},"id":"COM-2-2"},{"arcs":[[9,10,11,12]],"type":"Polygon","properties":{"name":"Hamahamet-Mboinkou","shapeGroup":"COM","gid":"COM-2-3"},"id":"COM-2-3"},{"arcs":[[13,14,15,16]],"type":"Polygon","properties":{"name":"Hambou","shapeGroup":"COM","gid":"COM-2-4"},"id":"COM-2-4"},{"arcs":[[-11,17,18,19,20]],"type":"Polygon","properties":{"name":"Itsandra-Hamanvou","shapeGroup":"COM","gid":"COM-2-5"},"id":"COM-2-5"},{"arcs":[[-17,21,22,23,24]],"type":"Polygon","properties":{"name":"Kartala","shapeGroup":"COM","gid":"COM-2-6"},"id":"COM-2-6"},{"arcs":[[-24,25,26,27]],"type":"Polygon","properties":{"name":"Mbadjini Est","shapeGroup":"COM","gid":"COM-2-7"},"id":"COM-2-7"},{"arcs":[[-14,-25,-28,28]],"type":"Polygon","properties":{"name":"Mbadjini Ouest","shapeGroup":"COM","gid":"COM-2-8"},"id":"COM-2-8"},{"arcs":[[-12,-21,29]],"type":"Polygon","properties":{"name":"Mitsamiouli-Mboudé","shapeGroup":"COM","gid":"COM-2-9"},"id":"COM-2-9"},{"arcs":[[-16,30,-19,31,-22]],"type":"Polygon","properties":{"name":"Moroni-Bambao","shapeGroup":"COM","gid":"COM-2-10"},"id":"COM-2-10"},{"arcs":[[-4,32,33]],"type":"Polygon","properties":{"name":"Mrémani","shapeGroup":"COM","gid":"COM-2-11"},"id":"COM-2-11"},{"arcs":[[34,35,36]],"type":"Polygon","properties":{"name":"Mutsamudu","shapeGroup":"COM","gid":"COM-2-12"},"id":"COM-2-12"},{"arcs":[[-1,37,-8]],"type":"Polygon","properties":{"name":"Nioumachioi","shapeGroup":"COM","gid":"COM-2-13"},"id":"COM-2-13"},{"arcs":[[-10,38,-26,-23,-32,-18]],"type":"Polygon","properties":{"name":"Oichili-Dimani","shapeGroup":"COM","gid":"COM-2-14"},"id":"COM-2-14"},{"arcs":[[-6,39,-37,40]],"type":"Polygon","properties":{"name":"Ouani","shapeGroup":"COM","gid":"COM-2-15"},"id":"COM-2-15"},{"arcs":[[-5,-34,41,-35,-40]],"type":"Polygon","properties":{"name":"Sima","shapeGroup":"COM","gid":"COM-2-16"},"id":"COM-2-16"}]}}}