{"type":"Topology","arcs":[[[4203,32],[-101,13],[-70,50],[-81,92],[-54,19],[-81,97],[-79,38],[-15,43],[-1,152]],[[3721,536],[56,14],[55,-10],[79,23],[99,10],[123,53],[58,9]],[[4191,635],[-9,-28],[38,-70],[46,-32],[59,-6],[-23,-87],[-37,-30],[-2,-95],[-18,-65],[6,-47],[-48,-143]],[[4593,8353],[-43,-55],[9,-53],[-60,20],[-70,68],[-50,-17]],[[4379,8316],[-4,64],[-23,59]],[[4352,8439],[55,45],[126,-61],[60,-70]],[[9447,2402],[17,-67],[70,-10],[32,-33],[81,-27],[63,37],[60,-81],[-3,-37],[26,-60],[-24,-38],[29,-111],[19,-30],[-2,-70],[14,-91],[-7,-55],[25,-47],[-2,-51],[-120,-131],[-54,-11],[-70,-46],[-25,-38],[-151,2],[-91,36],[-41,64],[-59,27],[-21,80],[6,106],[27,114],[39,48],[8,109],[-49,53],[21,87],[88,70],[25,58],[58,44],[-24,38],[35,61]],[[10576,9273],[44,-69],[75,-29],[-47,-131],[34,-29],[14,-58],[51,-66],[-20,-39],[-47,-13],[-16,-38],[23,-60],[-11,-40],[19,-81],[51,-68],[-2,-58],[36,-66],[-65,-67],[-57,-98],[8,-70],[56,-106],[-98,14],[-46,-48],[-42,17],[0,113],[-30,80],[-51,70],[51,106],[-18,77],[-40,33],[-90,19],[-45,-27],[-30,33],[20,41],[-23,94],[43,75],[-35,32],[-37,177],[4,77],[63,87],[106,46],[56,0],[71,35],[25,35]],[[4642,657],[-23,-6],[-205,-1],[-135,170]],[[4279,820],[-22,59],[-54,59],[-40,73]],[[4163,1011],[22,25],[113,71],[161,-39],[18,-36],[52,-6],[26,-53],[40,-31],[4,-72],[26,-23],[7,-64],[23,-40],[-13,-86]],[[1258,10779],[-102,-33]],[[1156,10746],[-37,-36],[-94,-30],[-45,-35]],[[980,10645],[-14,94]],[[966,10739],[86,55],[137,16],[69,-31]],[[2935,772],[-1,-63],[-59,-1],[60,64]],[[2796,0],[10,64],[27,0],[17,87],[-14,19],[7,95],[-60,26],[-21,68]],[[2762,359],[156,61],[28,-16],[25,-105],[32,-82],[-5,-105],[-26,-59],[-72,-47],[-104,-6]],[[4593,8353],[48,-33],[49,-65],[66,38],[48,-15],[67,11],[41,32],[86,-32],[44,1],[88,-39],[69,-68],[95,-13],[39,42],[93,-36],[39,11],[184,-37],[56,-33],[37,-76],[54,8],[66,-71],[-65,-93],[-92,37],[-44,5],[-81,-38],[-42,22],[-81,1],[-19,-16],[-69,42],[-28,51],[-76,16],[-77,46],[-17,26],[-135,-10],[-33,19],[-71,3],[-80,-29],[-24,-33],[-61,1],[-32,-51],[-58,-39],[-9,-82],[-29,-7],[-24,-104],[-38,-43],[-15,-113],[-32,-21]],[[4530,7568],[-15,39],[20,34],[9,131],[45,89],[4,69],[-55,215],[-82,47],[-98,20],[-7,85],[28,19]],[[1258,10779],[111,-46],[99,-13],[26,-22]],[[1494,10698],[-61,-87],[-57,-26],[-40,-43],[-45,-98],[-23,-13]],[[1268,10431],[-53,10]],[[1215,10441],[12,67],[-29,103],[-39,3],[21,88],[-24,44]],[[4191,635],[23,99],[65,86]],[[4642,657],[32,-121],[18,-195],[-28,-86],[-76,-87],[-81,-44],[-35,-33],[-173,-68],[-96,9]],[[11166,6407],[-76,-114],[-69,-36],[-47,-82],[57,-20],[67,-89],[-7,-24],[44,-63],[66,-17],[50,-136],[36,-48],[-11,-32],[43,-71],[-45,-36],[-6,-47],[-87,-37],[-22,-53],[-74,-38],[-17,-49],[19,-120],[30,-42]],[[11117,5253],[-78,34],[-100,8],[-178,-16],[-82,97],[-117,31],[-113,50],[-52,60],[-23,73],[47,132],[-6,66],[60,56],[61,12],[84,82],[16,123],[-8,47],[-55,105],[38,113],[-36,22],[7,84],[57,-24],[72,-61],[120,-33],[125,3],[117,32],[93,58]],[[814,10286],[-59,-50],[-57,3],[-101,-13],[-46,-39],[-64,-23],[-49,4],[-66,-25],[-66,-45],[-71,28],[-15,-34],[-76,-53],[-35,-11]],[[109,10028],[-57,6],[-46,71],[-6,65],[35,74],[44,24],[18,77],[144,49],[29,22],[90,2],[43,42],[86,11],[66,35]],[[555,10506],[52,-38],[23,-47],[97,-60],[62,-7],[25,-68]],[[1494,10698],[-9,-71],[70,-122],[115,-69],[39,5],[14,-115],[-78,-96]],[[1645,10230],[-128,47],[-44,68],[-56,40],[-100,22],[-49,24]],[[1215,10441],[-70,-71],[-65,-6],[-119,-49],[-51,6]],[[910,10321],[24,29],[5,76],[26,79],[-64,27],[8,38],[71,75]],[[2796,0],[-63,59],[-32,57],[-48,13],[19,55],[-20,21],[17,72],[93,82]],[[11166,6407],[52,-5],[118,-58],[120,-11],[28,-51],[20,-84],[101,-113],[37,-28],[3,-58],[-21,-62],[44,-136],[-25,-82],[-21,-17],[-15,-73],[-31,-40],[-42,-5],[-77,-70],[-53,-14],[-137,-79],[-18,-26],[-78,-38],[-40,-47],[-14,-57]],[[1645,10230],[-22,-56],[-46,-17],[-121,-92],[-90,-54],[-115,-6],[-55,-21],[-56,-63],[-127,-118],[-25,-52],[-75,-23],[-67,-109],[-67,-63],[-67,-12],[-46,-36],[-32,25],[-56,-9],[-64,39],[-122,2],[-118,-67],[-35,24],[-56,101],[1,37],[39,50],[-7,41],[-43,66],[16,65],[-12,62],[-30,59],[-38,25]],[[814,10286],[96,35]],[[3721,536],[8,76],[38,75],[21,90],[151,144],[56,21],[64,50],[42,-8],[62,27]],[[7231,1748],[10,-61],[29,-33],[35,23],[110,-72],[7,-86],[52,-2],[73,46]],[[7547,1563],[-6,-55],[20,-74]],[[7561,1434],[-51,-49],[-112,-3],[-12,-71],[30,-61],[-22,-25],[20,-81]],[[7414,1144],[-39,-13],[-21,-96],[-43,12],[-59,-55],[-28,-82],[19,-43],[-82,-99]],[[7161,768],[-53,18],[-25,51],[42,29],[4,63],[-109,104],[-40,-19],[-71,132],[-27,7],[-26,131],[36,25],[-1,124],[44,58],[-29,98],[14,34],[0,116],[34,52]],[[6954,1791],[23,-28],[79,21],[39,-40],[54,51],[43,-42],[39,-5]],[[7547,1563],[74,36],[39,56],[44,28]],[[7704,1683],[33,-74],[84,-53],[56,21],[52,-49],[12,-54],[111,-37],[1,-47],[51,-115]],[[8104,1275],[-16,-80],[-30,-69],[-38,-36],[-67,-25]],[[7953,1065],[-41,17],[-13,39],[-55,12],[-2,32]],[[7842,1165],[13,54],[-64,58],[-43,8],[-39,-24],[-71,59]],[[7638,1320],[-9,61],[-60,3],[-8,50]],[[6954,1791],[10,105],[36,21],[21,60],[-19,46],[-52,21],[-28,150],[-38,4],[3,49],[46,9],[14,124],[90,4],[54,-23],[47,28],[74,-33],[62,-73],[-43,-109],[10,-61],[36,-67],[71,-23],[35,-34]],[[7383,1989],[-41,-48],[5,-32],[-75,-66],[10,-31],[-51,-64]],[[7842,1165],[-49,-10],[-22,-42],[-82,-58],[-103,-29],[-57,17]],[[7529,1043],[-59,64]],[[7470,1107],[35,57],[72,49],[-11,36],[25,49],[47,22]],[[7383,1989],[70,-18],[41,-54],[82,-36],[44,-86],[36,-33],[48,-79]],[[8060,825],[181,-74]],[[8241,751],[16,-39],[-67,-103],[-35,-129],[-88,-14],[-26,29],[-58,-68],[-172,32]],[[7811,459],[5,36],[-54,75],[3,72],[-56,38],[-30,87]],[[7679,767],[89,22],[75,32],[50,-27],[25,35],[92,15],[50,-19]],[[7811,459],[-201,15],[-21,19],[-64,-28],[-25,48]],[[7500,513],[-16,63],[22,42],[13,83],[30,59],[-8,83]],[[7541,843],[115,-73],[23,-3]],[[7414,1144],[56,-37]],[[7529,1043],[23,-35],[4,-62],[-34,-73],[19,-30]],[[7500,513],[-58,12],[-76,64],[-65,21],[-78,55],[-43,47],[-19,56]],[[555,10506],[53,57],[91,73],[62,1],[57,22],[50,63],[98,17]],[[7953,1065],[-35,-75],[92,-67],[50,-98]],[[8104,1275],[42,-37],[29,-84],[49,-40],[67,-29],[34,-107],[38,-33],[-28,-43],[30,-86],[-60,-6],[-64,-59]],[[3324,8234],[45,-40],[-34,-61],[-88,9],[-18,43],[95,49]],[[2934,8451],[61,-50],[-6,-52],[-74,80],[19,22]],[[2533,9048],[119,-51],[20,-72],[39,-14],[23,-61],[33,-40],[158,12],[11,-31],[-30,-45],[-97,-5],[-50,-15],[-89,6],[-30,75],[-69,46],[-80,29],[-22,66],[64,100]],[[1910,9575],[51,-30],[20,-36],[-44,-76],[21,-64],[51,-43],[92,-33],[52,20],[23,-31],[-41,-43],[39,-57],[-22,-99],[-48,-23],[-95,5],[-90,-57],[-114,-25],[-52,-26],[-54,-4],[-27,-35],[-113,36],[-34,35],[-156,59],[-32,-12],[-34,35],[-5,50],[-53,31],[-45,73],[52,33],[25,59],[45,2],[8,50],[115,45],[16,-34],[62,-23],[38,6],[25,54],[17,81],[60,20],[34,42],[58,-52],[82,4],[21,57],[52,6]],[[4530,7568],[-56,31],[15,55],[-43,115],[-48,35],[-24,90],[-35,17],[4,60],[-22,36],[-92,26],[-143,97],[-35,48],[-5,119],[21,50],[105,33],[77,56],[56,-19],[47,22]]],"transform":{"scale":[0.00023088230827905584,0.00022093147789083812],"translate":[-25.36118768999995,14.807318758000063]},"objects":{"CPV":{"type":"GeometryCollection","geometries":[{"arcs":[[0,1,2]],"type":"Polygon","properties":{"name":"Nossa Senhora Da Conceicao","shapeGroup":"CPV","gid":"CPV-2-0"},"id":"CPV-2-0"},{"arcs":[[3,4,5]],"type":"Polygon","properties":{"name":"Nossa Senhora Da Lapa","shapeGroup":"CPV","gid":"CPV-2-1"},"id":"CPV-2-1"},{"arcs":[[6]],"type":"Polygon","properties":{"name":"Nossa Senhora Da Luz","shapeGroup":"CPV","gid":"CPV-2-2"},"id":"CPV-2-2"},{"arcs":[[7]],"type":"Polygon","properties":{"name":"Nossa Senhora Das Dores","shapeGroup":"CPV","gid":"CPV-2-3"},"id":"CPV-2-3"},{"arcs":[[8,9,10]],"type":"Polygon","properties":{"name":"Nossa Senhora Da Ajuda","shapeGroup":"CPV","gid":"CPV-2-4"},"id":"CPV-2-4"},{"arcs":[[11,12,13,14]],"type":"Polygon","properties":{"name":"Nossa Senhora Do Livramento","shapeGroup":"CPV","gid":"CPV-2-5"},"id":"CPV-2-5"},{"arcs":[[[15]],[[16,17]]],"type":"MultiPolygon","properties":{"name":"Sao Joao Baptista","shapeGroup":"CPV","gid":"CPV-2-6"},"id":"CPV-2-6"},{"arcs":[[-4,18,19]],"type":"Polygon","properties":{"name":"Nossa Senhora Do Rosario","shapeGroup":"CPV","gid":"CPV-2-7"},"id":"CPV-2-7"},{"arcs":[[-12,20,21,22,23]],"type":"Polygon","properties":{"name":"Nossa Senhora Do Rosario","shapeGroup":"CPV","gid":"CPV-2-8"},"id":"CPV-2-8"},{"arcs":[[-3,24,-9,25]],"type":"Polygon","properties":{"name":"Santa Catarina Do Fogo","shapeGroup":"CPV","gid":"CPV-2-9"},"id":"CPV-2-9"},{"arcs":[[26,27]],"type":"Polygon","properties":{"name":"Santa Isabel","shapeGroup":"CPV","gid":"CPV-2-10"},"id":"CPV-2-10"},{"arcs":[[28,29,30]],"type":"Polygon","properties":{"name":"Santo Andre","shapeGroup":"CPV","gid":"CPV-2-11"},"id":"CPV-2-11"},{"arcs":[[-22,31,32]],"type":"Polygon","properties":{"name":"Santo Antonio Das Pombas","shapeGroup":"CPV","gid":"CPV-2-12"},"id":"CPV-2-12"},{"arcs":[[-13,-24,33,34]],"type":"Polygon","properties":{"name":"Santo Crucifixo","shapeGroup":"CPV","gid":"CPV-2-13"},"id":"CPV-2-13"},{"arcs":[[-17,35]],"type":"Polygon","properties":{"name":"Nossa Senhora Do Monte","shapeGroup":"CPV","gid":"CPV-2-14"},"id":"CPV-2-14"},{"arcs":[[-27,36]],"type":"Polygon","properties":{"name":"Sao Joao Baptista","shapeGroup":"CPV","gid":"CPV-2-15"},"id":"CPV-2-15"},{"arcs":[[-23,-33,37,-29,38,-34]],"type":"Polygon","properties":{"name":"Sao Joao Baptista","shapeGroup":"CPV","gid":"CPV-2-16"},"id":"CPV-2-16"},{"arcs":[[-2,39,-10,-25]],"type":"Polygon","properties":{"name":"Sao Lourenco","shapeGroup":"CPV","gid":"CPV-2-17"},"id":"CPV-2-17"},{"arcs":[[40,41,42,43,44,45]],"type":"Polygon","properties":{"name":"Santa Catarina","shapeGroup":"CPV","gid":"CPV-2-18"},"id":"CPV-2-18"},{"arcs":[[-42,46,47,48,49,50,51]],"type":"Polygon","properties":{"name":"Santiago Maior","shapeGroup":"CPV","gid":"CPV-2-19"},"id":"CPV-2-19"},{"arcs":[[-46,52,53]],"type":"Polygon","properties":{"name":"Santo Amaro Abade","shapeGroup":"CPV","gid":"CPV-2-20"},"id":"CPV-2-20"},{"arcs":[[-51,54,55,56]],"type":"Polygon","properties":{"name":"Sao Lourenco Dos Orgaos","shapeGroup":"CPV","gid":"CPV-2-21"},"id":"CPV-2-21"},{"arcs":[[-41,-54,57,-47]],"type":"Polygon","properties":{"name":"Sao Miguel Arcanjo","shapeGroup":"CPV","gid":"CPV-2-22"},"id":"CPV-2-22"},{"arcs":[[58,59,60,61]],"type":"Polygon","properties":{"name":"Nossa Senhora Da Graca","shapeGroup":"CPV","gid":"CPV-2-23"},"id":"CPV-2-23"},{"arcs":[[-61,62,63,64]],"type":"Polygon","properties":{"name":"Santissimo Nome De Jesus","shapeGroup":"CPV","gid":"CPV-2-24"},"id":"CPV-2-24"},{"arcs":[[-44,65,-56,66,-64,67]],"type":"Polygon","properties":{"name":"Sao Joao Baptista","shapeGroup":"CPV","gid":"CPV-2-25"},"id":"CPV-2-25"},{"arcs":[[-43,-52,-57,-66]],"type":"Polygon","properties":{"name":"Sao Salvador Do Mundo","shapeGroup":"CPV","gid":"CPV-2-26"},"id":"CPV-2-26"},{"arcs":[[-14,-35,-39,-31,68]],"type":"Polygon","properties":{"name":"Sao Pedro Apostolo","shapeGroup":"CPV","gid":"CPV-2-27"},"id":"CPV-2-27"},{"arcs":[[-50,69,-62,-65,-67,-55]],"type":"Polygon","properties":{"name":"Sao Nicolau Tolentino","shapeGroup":"CPV","gid":"CPV-2-28"},"id":"CPV-2-28"},{"arcs":[[-49,70,-59,-70]],"type":"Polygon","properties":{"name":"Nossa Senhora Da Luz","shapeGroup":"CPV","gid":"CPV-2-29"},"id":"CPV-2-29"},{"arcs":[[[71]],[[72]],[[73]],[[74]]],"type":"MultiPolygon","properties":{"name":"Nossa Senhora Da Luz","shapeGroup":"CPV","gid":"CPV-2-30"},"id":"CPV-2-30"},{"arcs":[[-5,-20,75]],"type":"Polygon","properties":{"name":"Sao Francisco De Assis","shapeGroup":"CPV","gid":"CPV-2-31"},"id":"CPV-2-31"}]}}}