{"type":"Topology","arcs":[[[20628,947],[70,-77],[-7,-45],[38,-127],[55,-57],[39,-103]],[[20823,538],[-22,-24],[-1,-68],[-103,-86],[85,-132],[-7,-109]],[[20775,119],[-147,-59],[-97,12],[-99,-4],[-28,20],[-238,-88],[-166,56],[-24,110],[98,177],[50,0],[50,60],[81,150],[51,133],[102,84],[43,47],[-10,73],[78,-19],[37,39],[72,37]],[[20670,5509],[84,77],[142,59],[131,135],[-52,87],[3,49],[-21,102],[39,55],[-31,60],[21,77],[27,29]],[[21013,6239],[42,-44],[30,0],[44,71],[-52,27],[-6,58],[-44,45],[-65,18],[-45,54],[3,92],[-21,61],[-46,14],[-63,71],[17,36],[-9,55],[51,5],[70,-92],[47,-7],[173,-87],[43,-64],[40,-15],[82,-59],[58,-20],[67,-77],[22,11],[42,-55],[50,-27],[14,-36],[68,12],[4,-75],[67,-71],[83,-14],[72,-40],[61,-89],[45,-100],[52,-53],[31,-3],[111,-155],[19,-68]],[[22170,5618],[-47,-22],[-33,-97],[-188,-57],[-44,36],[-100,34],[-5,-197],[-66,-45],[-39,-76],[-2,-101]],[[21646,5093],[-117,3],[-348,37],[-44,33],[-182,26],[-77,90],[-29,13]],[[20849,5295],[-31,65],[-109,51],[-39,98]],[[20865,6273],[-6,-6]],[[20859,6267],[-68,177],[-38,22],[-25,125],[-31,-12],[-49,74],[13,44],[68,24],[37,-88],[67,14],[3,-41],[57,-46],[-79,-20],[-8,61],[-64,-28],[29,-83],[94,-217]],[[20316,7055],[12,28],[-3,26],[36,52],[72,67],[120,-89],[101,-146],[-8,-35],[49,-28],[8,-38],[105,-59],[-19,-46],[-91,-31],[-49,63],[-40,-38],[-21,47],[-55,1],[-71,35],[-108,3],[39,61],[16,66],[3,96],[-49,16],[-47,-51]],[[20823,538],[70,76],[48,-56],[10,-48],[69,13],[42,-33],[7,-37],[79,26],[73,8],[35,22],[40,-14],[20,-37],[48,51],[45,8],[-3,42],[36,23]],[[21442,582],[98,18],[41,-18],[101,9],[77,24],[23,66]],[[21782,681],[51,-62],[39,-95],[-16,-52],[21,-53]],[[21877,419],[-19,-35],[94,-124],[-5,-35]],[[21947,225],[-121,-16],[-68,23],[-98,6],[-46,31],[-40,1],[-50,38],[-70,-5],[-66,-32],[-102,27],[-120,-12],[-66,-67],[7,-36],[-37,-83],[-76,-2],[-61,-25],[-64,0],[-68,51],[-26,-5]],[[25461,3628],[56,14],[42,-67],[25,25],[54,-7],[48,31],[63,-16],[129,-3],[94,-74],[13,-71],[59,-12],[-4,-133],[-27,-11],[-51,21],[-13,57],[-48,10],[-5,63],[-42,65],[-93,-28],[-41,-39],[-155,-17],[-46,32],[-90,18]],[[25429,3486],[-79,91],[63,69],[48,-18]],[[20149,7210],[-23,-38],[58,-18],[30,35],[51,-23],[61,139],[26,-84],[55,38],[18,-31],[-101,-84],[-1,-60],[-13,-31],[21,-29],[-27,-19],[-21,18],[12,33],[-66,-12],[-58,37],[-42,-36],[-45,71],[-50,-45],[-74,30],[29,30],[47,-41],[34,24],[-9,52],[-46,26],[-15,81],[81,22],[68,-85]],[[18545,7233],[6,67],[33,46],[173,9],[55,21],[171,209],[67,-9],[18,120],[-31,71]],[[19037,7767],[65,-28],[76,-141],[78,-89],[8,-99],[32,-53],[28,18],[67,-54],[49,-114],[38,-32],[58,347],[-108,94],[-8,190],[-32,23],[-7,61],[-164,35],[-65,129],[-46,21],[-42,-19],[-54,49],[14,81],[54,42],[20,-33],[57,-36],[50,30],[-7,44],[-50,51],[-36,65],[-14,66],[-28,6],[-1,9],[5,13],[1,14],[-8,40],[23,13],[10,-23],[49,-10],[10,-28],[64,5],[7,89],[90,-43],[46,-99],[-69,-11],[-21,-24],[8,-59],[34,-32],[50,26],[8,56],[81,-55],[21,-56],[72,44],[31,-79],[39,-27],[5,-49],[-44,4],[-12,-33],[41,-68],[130,-54],[-29,-104],[34,-86],[56,22],[80,-46],[6,-34],[51,-58],[70,40],[51,-42],[88,-5],[34,37],[51,-16],[57,-92],[19,-84],[-6,-42],[-68,-31],[-32,-96],[83,-61],[-29,-40],[-63,-12],[-21,-26],[-44,37],[-21,47],[-76,20],[-51,35],[-139,8],[-62,20],[-31,53],[37,101],[-53,69],[-59,-41],[-15,-48],[-79,-19],[-42,32],[-57,-345],[36,-71],[35,-100],[61,-2],[32,48],[1,79],[20,26],[-40,72],[27,66],[11,85],[89,-55],[27,-45],[-66,0],[-61,-52],[22,-51],[38,-40],[80,-114],[62,-2],[34,40],[27,-82],[17,-97],[32,-87],[79,-27],[37,-27]],[[20080,6741],[-37,-141],[-108,114],[-46,-26],[-47,19],[-18,-39],[-48,-39],[-94,-3],[-48,-61],[-88,37],[2,-60],[30,-125],[-29,6],[-65,76],[-41,-39],[139,-200],[-18,-95]],[[19564,6165],[-84,-3],[-62,36],[-62,-37]],[[19356,6161],[-44,65],[-87,27],[-25,81],[-47,62],[-55,-9],[-67,40],[-42,100]],[[18989,6527],[-63,147],[-68,117],[-67,-29],[-4,-84],[-19,-35],[-109,21]],[[18659,6664],[37,83],[3,66],[79,2],[61,36],[-17,62],[-49,58],[-71,57],[-16,46],[-61,24],[-77,98],[-3,37]],[[19605,8537],[5,42],[77,-43],[43,-98],[37,-121],[77,-129],[98,-88],[-35,-22],[-96,70],[-47,73],[14,69],[-30,4],[-35,111],[-31,50],[-8,48],[-69,34]],[[19414,8715],[35,-5],[75,-90],[34,-68],[-41,-13],[-12,59],[-27,9],[-64,108]],[[22379,1909],[150,-32],[125,14],[2,95],[96,140],[-43,40],[50,76],[-89,41],[-95,111],[-28,91],[129,4],[-25,41],[19,57],[72,-10],[29,46]],[[22771,2623],[217,-9],[60,23],[41,42],[11,-77],[46,3],[-13,-65],[72,-12],[49,-164],[23,-34],[97,-56]],[[23374,2274],[-82,-110],[35,-56],[-35,-63],[10,-54],[-17,-115],[10,-39],[51,-51],[23,-70],[11,-81]],[[23380,1635],[-59,-24],[-74,43],[-62,-78],[-47,3],[18,-91],[-48,-28],[-54,-3],[-49,-32],[-32,-62]],[[22973,1363],[-46,-22],[-56,34],[-34,-43],[-40,2],[-45,109],[-66,78],[-68,24]],[[22618,1545],[-42,1],[-72,216],[-104,24],[-21,123]],[[6950,11188],[5,37],[68,45],[32,-1]],[[7055,11269],[12,-77]],[[7067,11192],[-20,-45],[4,-69],[-66,-4],[-24,-51]],[[6961,11023],[-17,63],[28,29],[-22,73]],[[17297,9594],[58,-2],[53,-23],[79,-104],[-34,-22],[-53,36],[-60,-4],[-13,54],[21,28],[-51,37]],[[17239,8529],[56,54],[-9,45],[35,78],[40,36],[39,-35],[35,17],[26,-70],[53,-28],[30,9],[85,-77],[112,-20],[36,-61],[96,-89],[38,-23],[76,-3],[70,18],[31,-10],[59,30],[11,-48],[46,-56],[38,-81]],[[18242,8215],[-119,-49],[-50,-30],[-17,25],[-60,12],[-102,104],[-59,16],[-42,-25],[-91,-90],[47,-248],[54,-91],[55,0],[24,-92],[-4,-99],[16,-32]],[[17894,7616],[-131,-110],[-34,-3],[-41,-41]],[[17688,7462],[-78,189],[-86,-6],[-41,57],[-57,27],[-35,-51],[-49,42],[8,41],[52,50],[6,42],[35,20],[55,144],[-83,18],[-37,-12],[-61,18],[-27,-11]],[[17290,8030],[49,87],[28,20],[17,57],[-19,25],[-23,126],[8,22],[-72,90],[-39,72]],[[18337,8863],[53,10],[31,90],[34,-17],[37,-5],[30,24],[114,-33],[15,39],[44,26],[102,-44],[156,-43],[89,-138],[40,-124],[-16,-72],[0,-70],[1,-35],[7,-24],[-10,5],[-5,-5],[0,-19],[-18,3],[-31,60],[-70,31],[-11,-46],[12,-98],[-21,-28],[-43,77],[1,37],[-88,60],[-122,-18],[-84,103],[6,35],[-39,29],[-87,124],[-73,11],[-54,55]],[[18721,9038],[56,25],[68,63],[71,-124],[-35,-4],[-33,110],[-35,-49],[-60,-38],[-32,17]],[[17283,9177],[62,77],[7,63],[-40,28],[-7,44],[27,53],[32,-34],[57,-4],[45,-33],[32,66],[73,-59],[43,-12],[54,-62],[102,-16],[65,22],[84,-20],[84,20],[28,41],[73,40],[107,-9],[42,-39],[2,-58],[39,-54],[51,-12],[162,-240],[-25,-30],[-33,4],[-23,11],[-19,0],[-13,46],[-87,-80],[-105,33],[-56,-27],[-63,-50],[-51,37],[39,34],[-11,71],[-56,-13],[-58,-36],[-111,17],[-85,-6],[-6,60],[-36,36],[-68,7],[-50,24],[-206,47],[-21,19],[-80,-6]],[[1667,7945],[34,35],[48,4],[54,33],[44,-21],[63,61],[95,1],[28,73]],[[2033,8131],[75,64],[42,-15],[32,-67],[66,-91],[53,-6],[53,-28],[79,-5],[45,-41],[14,-52],[48,-20],[63,-61],[25,5],[84,-43]],[[2712,7771],[-64,-74],[-1,-71],[23,-44],[54,-49],[-93,-126],[17,-74],[-11,-48],[-41,-72],[-64,-45],[-25,24],[-113,58],[-156,-15],[-94,-49],[-161,-54],[-62,-3],[-109,-68],[-121,-101],[-61,-71],[-201,-195],[-51,-20],[-67,-4],[-46,-22],[-59,7],[12,157],[31,27],[30,72],[92,119],[7,34],[-24,91],[-22,35],[-81,52],[-156,16],[-185,-55],[-28,-23],[-133,-49],[-116,-61],[-64,-62],[-43,-78],[-62,-66],[-38,-23],[-56,0],[-118,30],[-158,25],[-45,25],[-48,73],[-1,43],[60,153],[38,7],[49,-92],[94,-12],[82,18],[42,42],[-37,61],[27,40],[31,-25],[-6,-73],[40,-5],[54,47],[49,18],[163,122],[223,85],[108,53],[150,127],[123,41],[17,-34],[-19,-60],[91,-42],[34,2],[120,103],[58,2],[57,-34],[27,-50],[-12,-28],[65,-50],[32,11],[21,72],[22,13],[65,-33],[11,91],[-1,118],[-46,-121],[-46,-35],[-39,45],[19,77],[-12,69],[-68,68],[15,100],[-34,17]],[[18545,7233],[-65,37],[5,161],[-56,2],[-86,68],[-16,-59],[-63,-19],[-88,-56],[-42,8],[-71,53],[-34,55],[18,58],[-20,36],[-91,15],[-42,24]],[[18242,8215],[50,-43],[61,-15],[21,-48],[46,-36],[47,-3],[22,-39],[42,-18],[87,-92],[93,20],[-26,64],[67,15],[33,-21],[36,-71],[102,-98],[79,-24],[35,-39]],[[11635,9095],[48,13],[70,-32],[97,9],[65,-8]],[[11915,9077],[15,-64],[50,-78],[-48,-16],[-6,-97],[-18,-59],[21,-31]],[[11929,8732],[-2,-65],[-50,-65],[-44,20],[-54,1],[-54,-48],[-11,-106],[-27,-111],[-94,-98],[-56,54],[-82,-38],[-32,-48],[52,-149],[-38,-50]],[[11437,8029],[-221,219]],[[11216,8248],[14,101],[-47,-1],[-27,131],[48,92],[-20,73],[24,51],[-92,25],[59,62],[3,62],[25,57],[-62,29],[48,78],[88,78],[67,30],[58,55],[82,-14],[27,-34],[73,-34],[51,6]],[[2308,9565],[79,8],[33,63],[-10,52],[54,41],[74,-21],[23,76],[51,56],[47,-36],[41,-4],[53,95],[67,24],[5,52],[84,22],[22,-59],[26,21],[12,89],[62,12]],[[3031,10056],[26,-38],[19,-66],[-21,-129],[56,-119],[44,-40],[-38,-54],[-30,3],[-93,-68],[-42,-72],[8,-39],[53,-60],[9,-65],[-28,-43],[-31,-108],[38,-19],[44,40],[46,-6],[31,-49]],[[3122,9124],[14,-79],[-18,-17]],[[3118,9028],[-35,-59],[-77,-65],[-32,-85],[-47,43],[-42,-12],[-60,-60],[-1,-82],[-120,-26]],[[2704,8682],[6,97],[39,5],[15,69],[-73,-12],[-36,18],[-58,-81],[-29,58],[-22,93],[-35,57],[-71,83],[-45,8]],[[2395,9077],[-57,33],[-91,78],[0,49],[35,24],[0,40],[31,66],[50,66],[-55,132]],[[9724,11237],[83,32],[154,84],[121,37],[46,-12],[33,13],[8,-48],[73,-40],[120,-166],[104,-117],[54,5],[55,-29],[61,18],[34,83]],[[10670,11097],[46,-8],[23,-40],[23,-182],[-44,-18],[0,-43]],[[10718,10806],[-29,-112],[-46,-60],[-14,-63],[64,-24],[103,-4],[-10,-104],[-72,-69]],[[10714,10370],[-45,76],[-4,69],[-46,18],[-40,-23],[-20,38],[-42,-50],[-44,59],[-67,24],[-39,43],[-45,94],[-33,19],[-1,60],[-72,32],[42,68],[-55,-8],[-32,26],[-50,-41]],[[10121,10874],[-26,21],[-16,59],[-86,14],[-31,-8],[-85,60],[-55,-52]],[[9822,10968],[-90,60],[74,58],[-77,103],[-5,48]],[[10084,11390],[76,17],[358,225],[64,-5],[-100,-62],[-6,-41],[-44,-14],[-23,37],[-84,-50],[-28,-29],[-91,-47],[-26,-33],[-34,6],[-62,-4]],[[23448,3518],[86,-42],[23,68],[69,25],[58,-8],[119,-60],[127,-84],[-51,-91],[-14,-84],[49,-23],[46,86],[134,-27]],[[24094,3278],[17,-50],[-30,-90],[43,-61],[-89,-86],[-7,-68],[-114,5],[-10,41],[-127,-5],[-33,-20],[-38,-83],[-76,-115],[-72,-65]],[[23558,2681],[-14,-22],[-112,91],[-213,13],[-15,185],[-30,38]],[[23174,2986],[-26,105],[-35,11],[5,148],[-44,39],[5,76],[49,-18],[33,14],[74,-8],[19,-49],[44,1],[0,44],[39,3],[13,127],[98,39]],[[22368,4314],[0,112],[23,32],[59,22],[-63,134],[-13,64],[-24,23],[11,84],[37,84],[16,83],[74,119],[11,138],[27,31],[47,150]],[[22573,5390],[76,-67],[138,-10],[67,-25],[51,-35],[72,16],[57,-70],[15,-55],[-50,-55],[-71,-50],[-73,1],[18,37],[-64,28],[-10,-63],[71,-63],[50,-18],[23,-36],[51,16],[22,48],[-44,31],[-2,30],[49,36],[54,-7],[69,-50],[108,-22],[33,19],[33,-39],[-7,-64],[16,-54],[-34,-7],[-30,-48],[-82,13],[-55,-82],[50,-37],[56,57],[48,-71],[36,-29],[45,-3]],[[23359,4662],[7,-54],[-28,-124],[2,-122],[-80,-48],[-70,9],[-23,22],[-67,-81],[-66,26],[-19,-37],[-82,1],[48,-61],[-68,-72],[-85,15],[-2,-57],[-41,-47],[8,-70],[-46,-50],[-11,-59]],[[22736,3853],[-131,14],[-64,30],[8,28],[-67,13]],[[22482,3938],[0,104],[-29,93],[-41,31],[-93,10],[61,78],[-12,60]],[[23484,5000],[6,-69],[-109,-40],[-26,-27]],[[23355,4864],[-33,42],[-4,50],[32,8],[53,55],[81,-19]],[[14117,10511],[46,72],[-7,15],[42,32],[-4,-83],[-55,-18],[-22,-18]],[[14093,10682],[121,-36],[-70,-46],[-51,82]],[[13856,10739],[69,67],[123,-1],[7,-169],[-58,53],[-27,-1],[-20,55],[-35,-36],[-45,-12],[-14,44]],[[14148,10841],[52,-25],[40,-78],[-62,-20],[-15,95],[-30,-32],[-34,31],[49,29]],[[13284,10944],[4,38],[68,51],[48,-23],[62,-4],[73,-58],[-55,-35],[-90,30],[-76,-13],[-34,14]],[[13630,10980],[34,61],[23,-41],[-15,-45],[-42,25]],[[13466,11124],[43,62],[53,-65],[-16,-22],[56,-76],[-27,-26],[-31,78],[-56,-26],[0,57],[-22,18]],[[12799,11350],[12,49],[170,13],[102,-10],[38,-65],[33,-2],[76,-73],[61,-44],[49,0],[21,-60],[-84,-49],[-10,-75],[-32,-7],[-9,57],[25,40],[-95,22],[-43,43],[-89,-24],[-35,98],[-61,36],[-32,47],[-28,-47],[-69,51]],[[13035,9854],[16,73],[46,30],[0,49],[84,22],[77,81],[-105,143],[27,45],[-12,37],[20,41],[-92,58],[-35,104],[0,79]],[[13061,10616],[74,19],[82,52],[80,13],[-24,54],[3,39],[46,17],[17,-35],[46,-1],[37,-48],[69,-1],[63,-36],[115,29],[57,-148],[66,-89],[48,-20],[72,10],[56,-78]],[[13968,10393],[-43,-99],[-12,-103],[-52,-10],[72,-201],[48,-70],[-55,-41],[-33,-66]],[[13893,9803],[-103,85],[-19,37],[-57,1],[-42,30],[-12,90],[-89,38],[-49,-30],[-96,-88],[-34,-90]],[[13392,9876],[-18,-18],[-91,67],[-153,-77],[-79,-10],[-16,16]],[[13203,10861],[22,34],[-15,54],[21,36],[51,-98],[60,-45],[-58,-33],[-81,52]],[[17877,4989],[166,113],[3,30],[89,54],[47,-7],[101,-53],[29,-78],[94,45],[76,-1],[30,23],[55,3],[32,83],[29,34],[20,63],[78,18]],[[18726,5316],[18,-50],[70,-50],[47,68],[36,3],[37,-55],[66,-5],[70,-68],[-26,-52],[-60,-39],[28,-104],[-36,-78],[50,-40],[71,-32],[61,-62]],[[19158,4752],[44,-73],[57,-34],[-125,-209],[63,-40],[31,27],[41,-39]],[[19269,4384],[-9,-101],[-44,-95],[-11,-99]],[[19205,4089],[-40,-68],[-246,-9],[-154,-56],[-8,-67],[76,-91],[71,-15],[0,-29],[-49,-64],[-31,10],[-111,-122],[-6,-104]],[[18707,3474],[-34,14],[-79,-21],[3,37],[-29,96],[-24,18],[-11,78],[-87,21],[-69,40],[-30,78],[-85,40],[-53,-15],[-48,38],[-8,59],[-28,49],[-115,74],[-39,41],[-62,15],[-22,106],[14,97],[-34,131],[15,85],[-16,75],[-56,94],[7,126],[-24,68],[47,5],[37,66]],[[12037,11161],[43,-18],[14,-62],[47,-14],[37,-44],[67,-138],[71,-10],[60,9],[58,-42],[19,-47],[162,-79],[72,-8],[35,33],[-23,35],[12,101],[42,-25],[44,26],[97,14],[9,63],[100,44],[73,-4],[52,17],[21,-47],[-14,-58],[-27,-12],[-10,-91],[-79,-28],[-42,36],[-49,-7],[-78,12],[-87,-44],[10,-40],[59,-45]],[[12832,10688],[-67,-128],[18,-75],[30,-8],[-39,-115],[-41,8],[-2,-62],[-40,-135],[-39,23],[-22,-48],[-20,-115]],[[12610,10033],[-37,-21],[-16,67],[-90,98],[-37,7],[-28,-43],[-41,3],[-71,-67],[-32,58],[-58,57],[-67,45]],[[12133,10237],[-54,106],[-86,-18],[-98,-91],[-103,104]],[[11792,10338],[-129,105]],[[11663,10443],[-1,39],[-39,50],[39,43],[31,-25],[33,101],[-35,50],[-25,75],[28,78],[48,5],[52,-24],[71,20],[98,-19],[61,17],[17,117],[-42,81],[38,110]],[[19356,6161],[-15,-61],[-58,-33],[-64,-146],[1,-79],[-37,18],[-68,-12],[-6,-62],[-41,-68],[17,-56],[-7,-52],[-80,-85],[-68,0],[-33,-77],[-42,-25],[-17,-44],[-43,4],[-69,-67]],[[17877,4989],[-62,43],[-34,-6],[-2,55],[-45,64],[-15,96],[3,75],[-23,98],[-44,62],[-21,118],[-54,126],[-57,78],[-65,68]],[[17458,5866],[167,136],[221,123],[77,68],[55,-82],[34,123]],[[18012,6234],[158,-108],[-59,-83],[75,-38],[45,15],[28,-25],[-18,-45],[9,-66],[65,-27],[58,-48],[27,69],[91,-19],[22,91],[25,54],[60,79],[106,0],[57,-19],[44,9],[136,129],[-22,43],[38,59],[7,114],[22,50],[3,59]],[[4357,10549],[58,23],[-9,27],[66,74],[60,48],[27,46],[118,88],[120,59],[48,5],[95,-57],[-27,-60],[-39,4],[-5,-70],[15,-57],[51,15],[50,-17],[13,91],[-33,74],[41,51],[44,21],[104,-9],[74,40],[62,6],[38,-15],[71,34],[41,-5],[29,-54],[-17,-26],[-47,45],[-41,-73],[115,-64],[52,65],[54,-6]],[[5585,10852],[16,-29],[-55,-68],[31,-95]],[[5577,10660],[11,-35],[-28,-54],[22,-113]],[[5582,10458],[-112,16],[-55,27],[-129,-108],[-82,15],[-107,-95],[10,-38]],[[5107,10275],[-11,-22],[-140,-63],[-77,14],[-41,40],[-67,28],[-69,-39],[-90,-27],[-103,-12],[-91,-39],[-6,-42]],[[4412,10113],[-100,-4],[-15,46],[28,36],[-8,37],[27,65],[-25,22],[29,106],[38,36],[19,47],[-48,45]],[[23374,2274],[89,-52],[145,-69],[34,131],[96,112],[8,75]],[[23746,2471],[29,24],[103,-55],[66,12],[37,-67],[89,1],[36,-16],[58,-84],[19,-66],[29,10]],[[24212,2230],[45,-126],[-19,-116],[-37,-23],[-75,47],[2,129],[-45,47],[-16,-25],[19,-75],[-57,-121],[-7,-100],[-39,-36],[-153,61],[-31,-146],[-41,-81],[-19,-6],[-12,-234]],[[23727,1425],[-17,-39],[-64,12]],[[23646,1398],[0,61],[-71,31],[-18,39],[-48,12],[-23,32],[-46,5],[-60,57]],[[15749,7048],[57,-54],[108,-23],[20,-53],[-26,-23],[-30,-123],[5,-80],[-29,-37],[6,-59],[29,-16],[16,-52],[35,29],[63,-1],[36,-33],[149,42]],[[16188,6565],[166,-57],[82,-19]],[[16436,6489],[91,-66],[50,-6],[15,-52],[-7,-162],[-88,-109]],[[16497,6094],[-85,-33],[-42,18],[-69,-11],[-47,-43],[-70,-28],[-54,-38],[-81,-11],[-24,-17],[-117,-17],[-124,23],[-109,43],[-54,46],[-58,24],[-73,67],[-135,-42],[-133,31],[-135,133],[-68,-80]],[[15019,6159],[9,92],[-48,37],[45,43],[88,44],[1,28],[55,25],[54,3],[33,26],[30,-28],[49,38],[3,67],[24,10],[-19,70],[28,40],[114,34],[51,56],[-26,44],[96,54],[6,69],[73,136],[64,1]],[[14824,9723],[41,2],[2,-42],[53,-82],[37,-19],[15,-81],[65,-131]],[[15037,9370],[2,-62],[-29,-57],[31,-24],[32,-94],[44,-51],[43,-20],[73,-63],[6,-41],[46,-62],[70,11]],[[15355,8907],[32,-31],[-1,-56],[-24,-32],[23,-76],[9,-112],[84,-22],[123,-60],[31,-31],[-115,-106],[26,-105]],[[15543,8276],[-73,46],[-74,31],[-54,-5],[-48,21],[-62,-60],[-45,-5],[-29,-47]],[[15158,8257],[-36,91],[-42,11],[-40,91],[-61,87],[-33,-1],[-64,73],[-80,14],[-37,83],[-41,53],[0,40],[-65,43]],[[14659,8842],[23,33],[56,17],[74,46],[48,89],[-51,52],[2,88],[53,27],[-9,53],[-52,50],[-126,68],[-33,51],[22,48],[164,174],[-6,85]],[[18659,6664],[-88,-13],[-45,63],[-6,49],[-44,98],[-51,-6],[-99,-84]],[[18326,6771],[-26,51],[-114,12],[-7,-57],[-178,12],[-67,-26],[-39,-36],[-79,-6],[1,56],[39,17],[-49,60],[29,82],[82,42],[-2,42],[-41,76]],[[17875,7096],[-41,110],[-1,34],[-81,49],[-60,74],[17,39],[-21,60]],[[11437,8029],[55,-55],[43,-14],[124,-16],[111,-32],[119,-5],[38,22],[80,-39],[28,-30],[2,-97],[36,-113]],[[12073,7650],[-28,-10],[-77,25],[-77,8],[-132,-1],[-82,16],[-193,-16],[-107,-24],[-86,-30],[-122,4],[-138,17],[-180,72],[-42,7],[-92,49],[-83,83],[-7,40],[-46,88],[-23,104],[0,164],[-35,48],[-36,91],[-50,68],[-71,1],[-24,-17],[64,-231],[-6,-113],[-24,-52],[-5,-55],[30,-203],[-68,136],[-72,48],[-93,-111],[-21,-78],[-83,9],[-65,-44],[-57,45],[-1,39],[-55,46],[-21,105],[18,24],[-67,105],[-102,-2],[-60,15],[-39,-25],[-50,68],[-49,20],[-142,-97],[-26,50],[-216,-4],[-64,28],[-30,-22],[-45,19],[-60,0],[-7,-38],[-46,5],[-28,-72],[-90,65],[-79,-4],[-86,65],[-23,151],[-45,54],[-35,-6],[-188,55],[-69,44],[-100,89],[-113,65],[-116,28],[-19,19],[20,68],[-51,38],[-39,-52],[-33,17],[1,47],[-47,52],[34,85],[102,40],[56,-13],[83,6],[192,-8],[81,34],[68,-23],[78,20],[109,-11],[55,-19],[90,9],[101,42],[26,-4],[56,58],[30,-25],[103,12],[85,54],[14,37],[51,38],[-16,53],[13,113]],[[9151,9345],[52,-2],[30,-56],[30,-19],[52,7],[54,49],[48,-7],[81,49],[38,5],[20,56],[115,139],[54,24],[112,2],[19,-19],[116,-28]],[[9972,9545],[8,-27],[80,-21],[73,-59],[82,-19],[37,17],[12,-54],[57,-57],[16,-76],[25,-41],[132,-160],[1,-40],[89,-29],[32,39],[40,8],[23,-72],[32,-2],[94,74],[45,-18]],[[10850,9008],[-35,-81],[28,-64],[-108,-42],[-4,-181],[121,-134],[-148,-180],[-17,-46],[18,-85],[32,-49],[66,-3],[83,-30],[25,-64],[47,-19],[47,14],[26,48],[51,18],[95,-16],[39,154]],[[15019,6159],[-64,76],[-58,18],[-61,-8],[7,50],[-37,51],[-133,67],[-73,0],[-86,-43]],[[14514,6370],[-3,109],[29,51],[-42,74],[44,67],[64,-1],[12,43],[-24,71],[51,46],[2,36],[39,71],[-7,48],[20,48],[72,-22],[-46,119]],[[14725,7130],[68,46],[-12,53],[15,68],[79,5],[27,-31],[61,12],[0,49],[-109,142],[16,28]],[[14870,7502],[135,23],[-4,36],[137,-29],[50,-65],[84,9]],[[15272,7476],[35,-37],[88,32],[62,-10],[12,-25],[65,-17],[46,-74],[16,-110],[185,40]],[[15781,7275],[-8,-122],[-24,-105]],[[9822,10968],[-14,-61],[-39,16],[-74,-12],[-84,7],[-66,-15],[-41,-28],[-102,24],[-50,32],[-45,4],[-74,31],[-102,-38],[-91,-77],[-43,-85]],[[8997,10766],[-31,31],[-2,46],[-86,21],[10,41],[41,7],[56,77]],[[8985,10989],[26,27],[-8,45],[-32,41],[22,56],[55,-52],[34,60],[5,50],[-36,100],[21,104]],[[9072,11420],[76,38],[50,-8],[68,11],[115,-33],[58,-45],[40,-82],[14,-57],[-26,-79],[-91,-53],[3,-51],[45,-6],[128,35],[61,95],[9,53],[28,24],[74,-25]],[[26943,672],[75,15],[20,80],[81,-24],[-6,-46]],[[27113,697],[-37,-65],[1,-34],[101,-62],[-34,-52],[-45,8],[28,-90],[-85,-50],[-48,5],[-26,-37],[34,-31],[-85,-37],[-35,3],[-86,-33],[-15,-21],[-84,-13],[-18,23]],[[26679,211],[-96,203],[199,-14],[0,39],[34,36],[40,1],[30,47],[87,53],[-44,58],[14,38]],[[27296,801],[55,19],[-5,-78],[66,-42],[18,16]],[[27430,716],[3,-53],[48,-28]],[[27481,635],[61,-12],[22,-38],[43,-17],[87,-75]],[[27694,493],[5,-40],[-39,-77],[-42,-51],[-107,-45],[-82,-4],[-74,-26],[-25,13],[-61,-23],[-153,-15],[-9,46],[83,72],[31,59],[72,7],[1,54],[-93,-23],[-21,68],[62,62],[63,6],[-1,66],[45,57],[-53,102]],[[10670,11097],[30,33],[38,82],[60,47],[76,22],[38,-42],[63,11],[36,-122],[65,-28],[117,21],[52,33],[104,29],[124,12],[33,-18],[63,46],[56,22],[99,6],[43,-37],[37,20],[93,-32],[50,36],[15,42],[75,-119]],[[11663,10443],[-69,-77],[-124,60],[7,70],[49,23],[-16,66],[-124,-57],[-57,-51],[-152,-20],[-1,-47],[-62,-35]],[[11114,10375],[-9,62],[-63,7],[-5,62],[-41,13],[-45,62],[21,77],[7,106],[-143,-38],[-60,72],[-58,8]],[[10987,11300],[25,-7],[119,51],[87,77],[94,41],[1,77],[123,-35],[15,-43],[66,-39],[-32,-33],[-124,-31],[-26,39],[-105,-10],[-60,-39],[-82,-35],[-63,-66],[-38,53]],[[26943,672],[-48,82],[67,157],[-37,22],[-6,38],[21,77],[-50,20],[17,63],[-32,27]],[[26875,1158],[2,57],[-24,39],[152,56]],[[27005,1310],[22,-45],[48,-34],[-3,-31],[53,-40],[-12,-41],[60,-9],[97,7],[-16,-94],[21,-35],[60,5],[85,31],[6,-123],[-14,-41],[24,-93],[-6,-51]],[[27296,801],[-57,-21],[-12,-60],[-34,-34],[-80,11]],[[23947,4898],[30,-40],[109,-58],[38,-34],[84,-19],[58,-67],[45,-11],[79,-43],[10,-38],[40,-22],[1,-153],[-15,-31],[60,-41],[26,22],[-19,69],[100,-34]],[[24593,4398],[-62,-21],[-15,-45],[-78,-60],[-47,53],[-33,-21],[-11,-48],[-36,-45],[12,-44],[-37,-76],[8,-80],[-43,-35]],[[24251,3976],[-43,42],[-58,10],[-51,-22],[-85,-1],[12,-51],[-47,3],[-37,35],[-92,-23],[-75,2],[-59,30],[-38,95],[-89,-17],[-63,9],[-12,48],[-40,26]],[[23474,4162],[-22,38],[10,52],[73,-18],[69,7],[-23,63],[84,61],[28,44],[54,13],[157,96],[-12,55],[-41,30],[22,41],[32,3],[42,251]],[[15037,9370],[44,-40],[54,-4],[10,-30],[85,-3],[82,-108],[17,-65],[29,-41],[71,-38]],[[15429,9041],[-82,-109],[8,-25]],[[15847,9694],[117,7],[-16,-45],[-101,38]],[[15857,9529],[13,59],[48,15],[11,-61],[-60,-36],[-12,23]],[[14553,10439],[25,13],[81,-82],[-53,-25],[-53,20],[22,56],[-22,18]],[[14489,10481],[38,23],[46,-46],[-56,-28],[-28,51]],[[14432,10488],[27,58],[48,-34],[-75,-24]],[[15032,9772],[55,92],[104,-92],[88,-24],[74,-38],[32,-43],[58,-129],[-26,-28],[-43,44],[10,74],[-113,24],[-29,-14],[-71,73],[-58,6],[-34,-29],[-47,84]],[[14729,10186],[20,53],[108,38],[36,-10],[80,-84],[56,-84],[152,-119],[24,-2],[97,-66],[105,-101],[52,-7],[94,-127],[57,-60],[2,-41],[-70,34],[-24,76],[-49,8],[-105,107],[-66,57],[-133,-51],[-45,109],[-99,35],[-4,98],[-13,34],[-60,25],[-1,53],[-33,54],[-96,-13],[-50,-54],[-35,38]],[[4412,10113],[-12,-25],[6,-89]],[[4406,9999],[-50,-62],[-42,16],[-115,-52],[7,-69],[-86,0],[-9,-162]],[[4111,9670],[-59,-40],[40,-56],[-48,-40],[-43,0],[-26,82],[-85,-23],[-8,-60],[-82,-21]],[[3800,9512],[-51,84],[20,56],[-81,90],[-23,118],[-77,80],[-3,45],[32,90],[-9,74],[-23,33]],[[3585,10182],[68,32],[16,45],[-30,45],[78,38],[26,-18],[83,6],[25,-23],[46,100],[48,49],[51,-45],[97,37],[40,68],[44,48],[46,-27],[82,-25],[-3,-44],[41,-3],[14,84]],[[3330,8712],[36,-21],[7,-69],[64,-10],[66,9],[20,-62],[28,-25],[17,-67],[35,-33],[-4,-38],[102,-81],[26,-130]],[[3727,8185],[-53,-70],[-44,-16],[-38,-41],[-15,50],[-40,41],[-44,-65],[-34,17],[-56,-4],[-50,-30],[-72,-15],[-61,8],[-50,43],[-35,-21]],[[3135,8082],[-30,49],[2,171],[105,49],[-16,73],[33,23],[-10,45],[17,118],[-12,42],[33,30],[73,30]],[[28364,2506],[31,-23],[20,-50],[41,7],[92,-84],[54,-29],[44,-62],[34,3],[24,-44],[57,-48],[-3,-39],[38,-70],[53,-25],[46,-139],[37,-21],[49,-108],[44,-3],[18,35],[43,-12],[175,-164],[41,-15],[128,3],[57,-10],[31,30]],[[29518,1638],[31,-53],[-49,-131],[9,-41],[-24,-57],[-108,-49],[-49,3],[-83,-49],[-40,-55],[-50,-38]],[[29155,1168],[-38,39],[-51,2],[-51,63],[-75,40],[-61,-4],[-32,-34],[-59,24],[-52,2],[-28,38],[-20,131],[-31,58],[-63,4],[-28,-24],[-16,-89],[-59,-24],[-26,41],[-33,-4]],[[28432,1431],[-22,78],[-59,28],[-13,81],[21,19],[-15,64],[-57,83]],[[28287,1784],[-24,60],[-47,17],[-2,42],[56,9],[50,-27],[45,45],[-23,30],[1,75],[-50,-43],[-14,31],[-99,102]],[[28180,2125],[-23,43],[24,138],[45,94],[50,49],[88,57]],[[8985,10989],[-40,13],[-111,65],[-16,40],[-149,-23],[-37,-23],[-48,32],[-46,-9]],[[8538,11084],[-72,158],[-51,22],[-13,36],[-129,27],[-57,-37],[-55,-2],[-79,20],[77,69],[-64,4],[-127,75],[-76,16]],[[7892,11472],[17,53]],[[7909,11525],[77,37],[43,-7],[77,23],[71,-14],[67,-66],[90,-21],[71,2],[57,-16],[73,0],[32,-29],[42,18],[201,-17],[137,4],[27,26],[98,-45]],[[27481,635],[-2,35],[44,18],[244,-10],[51,32],[60,104],[32,4],[12,76],[-37,40],[-5,79],[5,174],[27,65],[22,99],[41,71],[-44,62]],[[27931,1484],[53,23],[38,61],[64,15],[85,112],[61,-15],[43,57],[12,47]],[[28432,1431],[-6,-83],[20,-103],[-62,-9],[-63,-79],[8,-48],[-55,-87],[44,-100],[27,-17],[34,-65],[-5,-58]],[[28374,782],[-84,-27],[-65,6],[-83,-31],[-40,13],[-25,-24],[-54,-2],[-100,-97],[-23,-59],[-103,-50],[-71,3],[-32,-21]],[[24593,4398],[162,-64],[26,19],[116,8],[90,33],[29,42],[96,-5],[2,-82],[37,-8],[-6,81],[52,43],[38,-4]],[[25235,4461],[10,-54],[-38,-40],[98,-95],[-50,-124],[-28,-15],[18,-53],[-9,-60],[-116,-58],[27,-101]],[[25147,3861],[-65,0],[-86,27],[-51,-27],[-18,-71],[-43,-18],[-97,2],[-87,-46],[-12,-41],[-68,-15],[-91,40],[-44,-6]],[[24485,3706],[8,62],[27,69],[-20,31],[-2,90],[-65,-20],[-53,1],[-84,-25],[-45,62]],[[3031,10056],[32,9],[56,-25],[63,12],[28,45],[232,94],[4,81],[51,-50],[88,-40]],[[3800,9512],[-7,-27],[-136,-116],[-37,1],[-73,-41],[-31,-34]],[[3516,9295],[-13,28],[-56,-1],[-24,-58],[13,-32],[-38,-29],[-61,15],[-48,-47],[-59,-79],[-71,59],[-37,-27]],[[17290,8030],[10,-74],[-23,-60],[-43,27],[-93,-118],[-59,0],[-16,25],[-68,-25],[-51,7]],[[16947,7812],[-13,89],[-24,34],[-54,26],[-35,-32],[-63,58],[-104,10],[-102,57],[-65,21],[-84,10]],[[16403,8085],[33,61],[-3,31],[42,121],[58,39],[29,86],[26,118],[18,6],[18,74],[48,56],[29,105],[-6,58]],[[16695,8840],[121,27],[73,-53],[77,-19],[55,5],[49,32],[36,-6],[28,-85],[-14,-82],[39,-82],[80,-48]],[[29155,1168],[-43,-54],[-20,-116],[5,-53],[27,-52],[-1,-54]],[[29123,839],[-56,-14],[-76,12],[-61,-31],[-71,5],[-109,-49],[-95,23],[-116,-43],[-165,40]],[[5577,10660],[53,12],[7,-33],[60,1],[89,48],[29,-13],[49,33],[39,-36],[14,-42]],[[5917,10630],[-23,-67],[38,-13],[28,-49],[239,-14],[95,-1]],[[6294,10486],[-5,-59],[29,-47],[2,-58],[23,-47]],[[6343,10275],[12,-127],[-22,-6],[-30,-121],[17,-154]],[[6320,9867],[-58,28],[-122,26],[-64,-12],[-54,-43],[-8,-39],[29,-52],[-44,-38],[0,-81],[-30,-44],[-66,-61]],[[5903,9551],[-147,153],[-52,109],[-10,97],[-35,42],[9,40],[-53,38],[-94,95],[-6,33],[-61,49],[52,58],[164,94],[-50,97],[-38,2]],[[6294,10486],[14,84],[48,18],[4,76],[-26,68],[-37,53],[6,65]],[[6303,10850],[29,87],[-24,87],[18,24]],[[6326,11048],[36,-4],[84,26],[58,-4],[65,37],[26,-27]],[[6595,11076],[-14,-86],[12,-54],[-66,-37],[6,-54],[75,-38],[-9,-56],[24,-87]],[[6623,10664],[-17,-152],[14,-70],[-55,-16]],[[6565,10426],[-115,-100],[-4,-21],[-103,-30]],[[5107,10275],[36,-13],[7,-56],[62,-39],[41,-83],[59,37],[48,-48],[40,-8],[-2,-42],[48,-74],[-3,-51],[70,-48],[96,-184],[47,-114],[-3,-37],[50,-19],[18,-41]],[[5721,9455],[-71,-81],[-65,4],[-67,-16],[2,-40],[-29,-31],[-187,-61],[-81,-53],[-27,12],[-55,-18]],[[5141,9171],[-104,28],[-58,73],[-33,101],[-16,163],[18,78],[-93,112],[-21,38],[-50,-21],[-7,151],[-122,-61],[-99,-40],[-59,9],[-12,49],[17,42],[-26,76],[-70,30]],[[15429,9041],[39,-89],[95,-42],[79,-54],[83,-17],[4,-37],[69,-33],[39,41],[67,18],[141,-56],[39,20],[61,60],[85,-57],[24,0],[112,47],[90,7],[32,19],[84,-21],[123,-7]],[[16403,8085],[0,-66],[-49,-91],[-17,-89]],[[16337,7839],[-37,3],[-92,57],[-76,67],[-63,2],[-65,49]],[[16004,8017],[-89,47],[-145,21],[-47,21],[-14,-30],[-46,-8]],[[15663,8068],[-51,51],[-17,79],[-56,47],[4,31]],[[7892,11472],[41,-58],[14,-65],[-12,-59],[-43,-64],[-1,-40],[-36,-59]],[[7855,11127],[-78,58],[-45,3]],[[7732,11188],[-28,61],[7,59],[-67,35],[72,79],[18,58],[-226,-10],[-8,-44],[-63,-8],[-74,-30],[-39,15]],[[7324,11403],[-15,41],[-76,6],[-21,-22]],[[7212,11428],[-25,20],[70,47],[77,25],[34,-14],[176,47],[62,2],[155,-35],[116,14],[32,-9]],[[3118,9028],[25,-33],[29,-159],[72,-15],[23,-54],[63,-55]],[[3135,8082],[-50,-23],[-114,33],[-99,-26],[-70,-56]],[[2802,8010],[-42,150],[-37,25],[16,80],[36,22],[-25,49],[-55,61],[66,31],[46,67],[-23,115],[-43,17],[-37,55]],[[26263,3124],[8,16],[109,24],[98,-40],[60,1],[66,-22],[60,-42],[24,17],[74,-30],[56,34],[57,-25],[52,22],[206,-89],[98,-3],[84,-86]],[[27315,2901],[11,-79],[56,-29],[62,-54],[16,-102]],[[27460,2637],[-21,-5],[-70,72],[-73,-33],[-166,4],[-29,31],[-27,70],[-13,78],[-61,23],[-34,35],[-26,-93],[-32,-7],[-5,-119],[-24,-26],[-88,20],[-49,-18],[-21,-46],[-49,-6],[-48,16],[-11,72],[-42,43],[-29,-4],[-19,-97],[-38,7],[-71,-29],[13,-98],[-20,-54]],[[26407,2473],[-59,-33],[-60,2],[-42,29]],[[26246,2471],[10,120],[-23,92],[15,77],[45,55],[13,84],[19,12],[27,110],[-9,25],[-60,22],[-20,56]],[[6595,11076],[-8,28],[74,22]],[[6661,11126],[29,-9],[98,71],[27,1],[1,-94]],[[6816,11095],[10,-41],[-47,-55],[60,-155],[62,16]],[[6901,10860],[47,28],[-6,-136],[26,-26]],[[6968,10726],[-166,-52],[-50,30],[-129,-40]],[[28180,2125],[-62,-9],[-50,-44],[-68,-21],[-118,9],[-79,48],[-43,54],[3,26],[-55,37],[-61,-43],[-54,-4],[-5,-96],[45,-37],[-48,-37],[-37,96],[-83,-19],[-40,56]],[[27425,2141],[-8,12]],[[27417,2153],[30,71],[8,68],[22,4],[-15,207],[27,28],[-29,106]],[[27315,2901],[80,19],[-20,53],[60,-7],[30,37],[65,-21],[56,16],[116,-43],[36,-68],[32,-12],[53,18],[92,-30],[-8,-36],[67,-38],[41,-49],[58,20],[27,-20],[122,-5],[49,16],[51,-58],[-35,-87],[56,-32],[21,-68]],[[29518,1638],[23,26],[162,30],[90,-51],[146,-171],[38,-149],[-29,-95],[-49,-52],[-109,-75],[-61,-28],[-38,-68],[-1,-88],[-23,-36],[-79,-48],[-68,-7],[-44,50],[-64,-11],[-63,13],[-129,-15],[-97,-24]],[[16436,6489],[1,126],[43,15],[104,-42],[-13,58],[26,134],[56,12],[7,84],[18,32],[-17,50],[80,37],[52,77],[55,-15]],[[16848,7057],[37,-70],[3,-67],[32,-65],[-23,-88],[70,-64],[63,39],[80,-68],[22,55],[0,48],[67,38],[184,-148],[36,108],[87,-55]],[[17506,6720],[-42,-95],[-87,-89],[47,-109],[4,-212],[-9,-213],[-29,-57]],[[17390,5945],[-135,33],[-49,-2],[-52,-40],[-47,20],[65,176],[-12,81],[-38,20],[-32,-35],[-109,-14],[-75,4],[-34,-40],[-64,-10],[-18,-58],[-113,28],[-180,-14]],[[25429,3486],[8,-66],[26,-39],[-29,-52]],[[25434,3329],[-61,-18],[-39,15],[-24,-31],[-55,-14],[-20,-48],[-107,-46],[-79,30]],[[25049,3217],[-9,50],[134,97],[-104,106],[62,97],[69,52],[-25,59],[25,47],[-9,50],[-45,86]],[[25235,4461],[89,44],[80,-45],[79,5],[32,17],[67,-3],[109,-81],[16,-37],[-6,-86],[95,20],[59,-3],[121,-194],[7,-35],[-48,-157],[-68,-87],[3,-64],[-30,-14],[-85,-106],[-40,-6],[2,55],[-70,86],[-94,16],[-32,-22],[-35,-125],[-25,-11]],[[11635,9095],[42,40],[6,43],[-48,36],[-1,84],[77,15],[39,-11],[78,26],[44,45],[3,82],[-82,38],[16,37],[-63,65],[-43,2],[-61,56],[-191,20]],[[11451,9673],[-34,46],[1,65],[-38,70],[53,-9],[134,63],[75,44],[-16,79],[26,47],[49,-13],[-10,63],[77,133],[24,77]],[[12133,10237],[-4,-62],[55,-39],[33,-75],[-2,-46],[-73,3],[-21,-71],[71,-69],[1,-41],[-30,-119],[-4,-74],[39,-23],[-2,-94],[24,-50],[42,-17],[22,-81],[-14,-36]],[[12270,9343],[-61,-24],[-18,-72],[-94,-124],[-79,-20],[-40,-46],[-63,20]],[[14514,6370],[-94,76],[-47,66],[-43,-30],[-93,22],[-30,-97],[2,-66],[-47,21],[-19,89],[-45,-3],[0,44],[-44,10],[-23,54],[-13,92],[-34,-11],[-6,-51],[-39,-3],[-106,21],[-109,40],[-49,-18],[-42,56],[-6,67],[-32,69],[-147,28],[-44,36]],[[13404,6882],[28,2],[12,59],[-2,83],[25,28],[15,60],[58,46],[71,85],[3,65],[30,10]],[[13644,7320],[110,56],[18,50],[99,30],[22,73],[30,30],[49,-40],[30,3],[134,-25],[7,-29],[53,-21],[23,-35],[44,7]],[[14263,7419],[21,-41],[47,11],[82,-37],[43,16],[39,-23],[7,-53],[36,9],[48,-22],[40,-45],[34,-74],[65,-30]],[[25049,3217],[-41,-89],[-30,-120]],[[24978,3008],[-80,-4],[-53,-16],[-4,-41],[29,-38],[0,-42],[-42,0],[-54,-143]],[[24774,2724],[-41,27],[-25,128],[-78,9],[-162,62],[-88,9],[-23,60],[-52,23],[-65,193]],[[24240,3235],[42,5],[30,80],[40,35],[36,107],[-28,104],[23,89],[102,51]],[[16848,7057],[19,59],[-30,90],[-50,70],[34,57],[101,-6],[30,-35],[105,28],[12,43]],[[17069,7363],[50,65],[32,-13],[33,32],[107,-74],[53,48],[32,-45],[66,-48],[-25,-217],[48,-11],[-9,-94],[-1,-161],[57,-30]],[[17512,6815],[-6,-95]],[[17875,7096],[-50,-7],[-128,108],[-74,-106],[-2,-32],[95,-117],[-76,-60],[-21,-39],[-107,-28]],[[17069,7363],[-52,38],[-69,1],[10,48],[-70,73]],[[16888,7523],[36,88],[5,114],[25,42],[-7,45]],[[13968,10393],[60,-5],[9,54],[31,41],[-26,29],[51,-2],[26,-9],[10,15],[47,-4],[69,30],[37,39],[32,-14],[-2,-48],[-45,-8],[0,-49],[-153,14],[-27,-101],[36,-55],[-4,-85],[76,14],[80,-5],[46,-22],[68,-59],[99,-48],[52,-56],[40,18],[42,57],[62,-30]],[[14684,10104],[-27,-66],[17,-89],[-77,-23],[-52,-66],[-15,-63],[17,-30],[-45,-34],[-43,-57],[-21,-56],[-58,-12],[-69,-120],[-46,-5],[-57,-45],[-14,-104]],[[14194,9334],[-130,-8],[-6,62],[-35,26],[-40,-19],[-72,14]],[[13911,9409],[-8,65],[36,55],[-5,81],[27,62],[-40,52],[4,52],[-32,27]],[[16888,7523],[-89,-71],[-34,6],[-126,78],[-92,5]],[[16547,7541],[12,60],[-113,128],[-21,51],[-88,59]],[[21877,419],[70,26],[63,-6],[11,42],[123,-24],[46,71],[3,39],[41,2],[30,-28],[47,80],[63,-9],[109,66],[44,62]],[[22527,740],[51,17],[54,-20],[75,-54],[87,-11],[43,-33],[75,-5],[33,-39],[21,55],[93,-41],[49,-2],[4,58],[32,25],[41,-35],[69,-2],[28,40],[-26,91]],[[23256,784],[110,-58],[54,11],[79,60],[94,42],[23,88],[63,-17]],[[23679,910],[73,-30],[78,-4],[36,-36],[46,28],[52,-90],[50,22],[63,-29],[75,21],[53,-17]],[[24205,775],[34,-42],[93,-31],[114,-21],[50,33],[107,23],[9,-39]],[[24612,698],[0,-53],[150,-30],[38,63],[51,-39],[11,-50],[70,-56],[2,-63]],[[24934,470],[-50,-25],[-44,21],[-54,-20],[-106,31],[-74,-7],[-159,59],[-39,34],[-57,-21],[-56,-2],[-33,22],[-75,19],[-152,-20],[-101,-66],[-52,4],[-69,-51],[-18,35],[-47,-9],[-93,21],[-50,-29],[-57,13],[-85,-25],[-32,-22],[-124,-15],[-66,14],[-35,-23],[-70,27],[-192,31],[-113,-64],[-147,17],[-53,-35],[-103,-19],[-107,22],[-33,-6],[-77,-72],[-70,-49],[-183,-55],[-60,-3],[-51,23]],[[19269,4384],[36,22],[56,-24],[60,42],[72,-57],[121,-15],[43,21],[42,76],[147,-5],[98,110],[52,72],[52,30],[-10,40]],[[20038,4696],[85,11],[20,-67],[33,-15],[109,14],[13,-55],[-55,-44],[5,-106],[68,-47],[-3,-36],[62,-71],[64,-8]],[[20439,4272],[-91,-190],[-32,-25],[112,-149]],[[20428,3908],[9,-119],[-109,31],[-66,106],[-68,-38],[48,-75],[-70,-63],[-1,-67],[31,-41],[-63,-41],[-253,-7]],[[19886,3594],[-50,36],[-2,102],[-40,14],[-54,-31],[-112,-29],[0,83],[14,43],[-56,37],[-14,37],[85,88],[4,80],[-31,79],[-93,-64],[-108,0],[-55,-18],[-3,92],[-84,49],[-1,-121],[-81,18]],[[27931,1484],[-92,111],[-28,3],[-79,55],[-21,-97],[-40,-43],[-62,-24],[-60,-63],[-79,6],[-65,50],[-36,78],[-94,-22],[-1,58],[-43,103],[90,60],[30,94],[-10,38],[49,48],[41,81],[-27,71],[21,50]],[[22618,1545],[-17,-32],[2,-105],[-59,22]],[[22544,1430],[-44,32],[-55,-13],[-84,56],[-46,-1],[-83,-25],[-16,-32],[-59,-33],[-20,-107],[19,-32],[-16,-50],[-85,-76],[-91,-16]],[[21964,1133],[5,37],[-24,57],[-10,91],[-65,59],[-6,78],[-33,41],[6,83],[44,57],[30,75],[55,-41],[37,65],[49,-12],[28,30],[21,101],[-115,101],[-162,64],[-59,11]],[[21765,2030],[31,57],[9,104]],[[21805,2191],[8,36],[82,4],[54,30],[53,55],[68,6],[129,-135],[56,4],[67,-77],[-91,-43],[94,-68],[22,-84],[32,-10]],[[5903,9551],[-128,-47],[-54,-49]],[[15158,8257],[-50,-88],[-26,-87],[1,-66],[-41,17],[-100,-59],[-63,101],[-92,-28]],[[14787,8047],[-76,117],[-26,-53],[-85,-33],[-98,4],[18,48],[-15,54],[-70,32],[-16,-32],[-44,22],[-47,-60],[17,-27],[-49,-65]],[[14296,8054],[-13,29],[-55,15],[-43,46],[11,34],[-16,87],[-38,19],[-37,103],[-37,7]],[[14068,8394],[155,24],[6,38],[-52,35],[53,74],[-35,60],[-57,-8],[-6,52],[30,67],[32,10],[68,62],[31,74],[44,-16],[31,-40]],[[14368,8826],[38,-32],[41,19],[55,-36],[97,29],[60,36]],[[5141,9171],[40,-48],[-63,-99],[-8,-45],[-40,-78],[-62,-184],[-76,-87],[-65,-14],[-57,17],[-65,57],[-74,-12],[-22,-37],[17,-33]],[[4666,8608],[-67,48],[-2,93],[-33,45],[-10,48],[11,62],[-31,68],[-20,133],[29,71],[1,88],[-19,177],[-38,72],[-1,50],[-27,41],[5,51],[-42,47],[-188,-63],[-56,-34],[-40,62],[-27,3]],[[21964,1133],[19,-104],[27,-39],[-83,-78],[-10,-45],[-88,-72]],[[21829,795],[-28,57],[-31,19],[-50,115],[-58,56],[-94,9],[-26,76],[73,83],[-51,73],[-73,54],[-25,113],[-83,2],[-35,54],[-1,43],[44,53]],[[21391,1602],[27,-66],[110,48],[51,76],[20,78],[87,52],[45,84],[8,162],[26,-6]],[[21442,582],[-34,52],[-107,-41],[-97,14],[-15,21],[46,62],[20,51],[-26,69],[-30,-28],[-43,5],[-29,38],[-29,171],[39,40],[-88,99],[-5,51],[-150,25]],[[20894,1211],[24,57],[50,46],[127,44],[179,76],[51,69],[1,97],[65,2]],[[21829,795],[4,-79],[-51,-35]],[[18012,6234],[31,112],[147,33],[95,178],[56,-6],[-15,220]],[[6950,11188],[-43,1],[-91,-94]],[[6661,11126],[56,52],[109,75],[60,-5],[97,101],[56,27]],[[7039,11376],[16,-107]],[[11451,9673],[-49,-6],[-41,24],[-164,4],[-83,-60],[-54,54],[-66,-85],[-55,31]],[[10939,9635],[-83,31],[-8,75],[-34,45],[-4,112]],[[10810,9898],[68,26],[58,-20],[74,14],[23,59],[-14,76],[-73,51],[30,64],[35,12],[16,41],[48,57],[22,86],[17,11]],[[19158,4752],[124,120],[26,41],[16,100],[40,65],[24,79],[74,13],[191,-49],[45,27],[81,98],[43,11],[211,4],[17,-23],[85,-2]],[[20135,5236],[208,-109],[-6,-42],[-115,-6],[-39,-103],[-85,0],[-3,-33],[-56,-25],[-24,-58],[46,-1],[10,-98],[-33,-65]],[[10714,10370],[-31,-37],[-1,-44],[37,-77]],[[10719,10212],[-125,-8],[2,-57],[-76,-14],[12,-71],[-63,-9],[15,-143],[-117,-18]],[[10367,9892],[-1,44],[-35,38],[0,184],[-242,-26],[-90,77],[-59,73],[20,46]],[[9960,10328],[-32,124],[-24,44],[33,28],[33,102],[34,19],[6,109],[98,41],[13,79]],[[25017,1610],[52,27],[17,70],[83,10],[66,-14],[26,34],[-21,42],[95,4],[-11,47],[-62,1],[-10,165]],[[25252,1996],[110,64],[65,65],[66,47],[31,-47],[27,5],[97,-53],[49,29],[80,-12]],[[25777,2094],[16,-44],[-81,-46],[33,-52],[2,-90],[62,-82]],[[25809,1780],[-35,-52],[-35,-10],[-3,-61],[-41,-20],[-4,-48],[-48,-66],[-28,-149],[-74,14],[-19,-18],[-37,-152],[-68,-60],[49,-105]],[[25466,1053],[-13,-24],[-96,-18],[-48,-24],[-35,-68],[-121,-4],[-52,25]],[[25101,940],[0,61],[-20,44],[-116,98],[-50,105],[40,20],[28,87],[-35,28],[15,73],[61,86],[-7,68]],[[12486,8948],[53,116],[13,74],[-45,34],[26,65],[34,129],[15,3]],[[12582,9369],[62,2],[-5,-119],[52,-20],[12,56],[47,22],[80,-5],[9,83],[84,100],[94,-41],[40,-97],[-38,-88],[52,15],[-1,-90],[13,-19]],[[13083,9168],[-30,-150],[56,-5],[-6,-153],[-86,-40]],[[13017,8820],[-23,-14],[8,-70],[-56,1],[3,-50],[-66,-37],[-41,-55],[-72,17]],[[12770,8612],[-60,5],[-34,63],[-44,7],[-4,83],[-36,127],[-27,-16],[-28,53],[-51,14]],[[24612,698],[16,45],[92,67],[100,83],[123,44],[49,33],[109,-30]],[[25466,1053],[9,-15],[98,-49],[45,34],[55,-11],[57,14],[33,-61],[32,2],[92,-53],[71,-3],[65,-30],[29,-56],[74,-33],[95,13]],[[26221,805],[3,-85],[-14,-95],[51,-91],[48,-20],[107,-118],[41,-83],[99,-61],[30,-66]],[[26586,186],[-29,20],[-106,5],[-31,-10],[-73,67],[-40,-49],[-107,-25],[-58,18],[-47,-12],[-177,34],[-74,36],[-100,93],[-101,36],[-16,60],[-66,-5],[-70,-28],[-33,28],[-98,13],[-64,-6],[-9,27],[-130,1],[-4,51],[99,122],[-79,-5],[-8,-82],[-39,0],[24,-82],[-70,3],[-146,-26]],[[3516,9295],[67,-88],[73,-44],[9,-21],[77,-14],[38,-59],[-46,-41],[152,-170],[45,-13],[46,-57],[25,8],[38,-46],[-7,-88],[58,-78],[20,-156],[12,-153],[53,-102]],[[4176,8173],[-8,-42],[-92,-60],[-30,39],[-94,21],[-70,47],[23,44],[-47,64],[-45,6],[-32,-26],[-54,-81]],[[13644,7320],[-46,36],[-8,51],[30,76],[-22,93],[-54,23],[-7,50],[-62,39],[21,63],[1,70],[-70,121],[35,35],[10,108],[-46,25],[15,44],[55,85],[11,76]],[[13507,8315],[34,88],[32,42],[64,-14],[41,17],[6,47],[-60,56],[42,53],[-26,51],[40,17],[26,47]],[[13706,8719],[73,-97],[51,3],[54,-68],[70,-31],[48,-97],[37,-1],[29,-34]],[[14296,8054],[5,-23],[66,-36],[18,-41],[-51,-33],[58,-34],[26,-34],[9,-76],[-30,-76],[-47,-19],[-63,34],[1,-60],[-37,-31],[16,-47],[-22,-26],[52,-51],[-3,-54],[-31,-28]],[[26679,211],[-2,-17],[-91,-8]],[[26221,805],[64,27],[-4,60],[71,45],[67,28],[-109,107],[-11,65]],[[26299,1137],[45,48],[54,-32],[41,-2],[20,98],[53,41],[26,-45],[14,-88],[38,-24],[20,113],[65,28],[68,-40],[12,-49],[-19,-47],[43,-33],[39,7],[57,46]],[[5585,10852],[46,37],[-58,43],[-81,9],[33,49],[117,-3],[70,17],[57,-6],[67,16],[85,-13],[70,25],[56,-5],[26,-63],[69,42],[96,27],[45,-2],[43,23]],[[6303,10850],[-74,-73],[-41,-11],[-63,-59],[-63,-35],[-68,8],[-67,-7],[-10,-43]],[[7312,11112],[79,30],[33,51]],[[7424,11193],[128,-91]],[[7552,11102],[-4,-121],[36,-31],[-46,-69],[-87,-25]],[[7451,10856],[-111,144],[-28,112]],[[4666,8608],[-59,-4],[8,-96],[-22,-30],[-83,-56],[4,-49],[26,-34],[-82,-43],[-4,-33],[-43,-65],[-49,-24],[-40,14],[-72,-68],[-59,13],[-15,40]],[[20849,5295],[-18,-54],[25,-76],[-1,-76],[-42,-73],[14,-42],[-125,-154],[-26,-90],[-38,-54],[-14,-54],[-62,-76],[5,-55],[-52,-66],[-24,-68],[-44,-42],[-8,-43]],[[20135,5236],[9,65],[-52,27],[-26,152],[67,-11],[51,94]],[[20184,5563],[98,-71],[105,-17],[89,-34],[104,-5],[90,73]],[[13017,8820],[33,-63],[23,-77],[52,4],[41,-23],[25,-44],[43,-25],[39,24],[6,-60],[56,-92],[69,-74],[13,-62],[47,-5]],[[13464,8323],[-9,-26],[-163,-43],[-34,57],[19,32],[-89,41],[-34,32],[-85,-58],[-8,-42]],[[13061,8316],[-123,19],[-41,50],[-4,63],[-25,78],[-98,86]],[[9972,9545],[32,38],[13,52]],[[10017,9635],[9,24],[56,13],[5,31],[81,16],[71,0],[48,21],[42,49],[-5,61],[43,42]],[[10719,10212],[97,-206],[7,-44],[-13,-64]],[[10939,9635],[-8,-60],[102,-15],[33,-22],[-4,-202],[-45,-55],[31,-52],[81,-20],[-72,-95],[-52,-86],[-45,30],[-63,-69],[-47,19]],[[22482,3938],[-41,-42],[-117,-50],[-51,-65],[-1,-70],[-50,-28],[-9,-96],[-70,-20],[-5,-57],[67,-144],[-48,-41],[-42,-143]],[[22115,3182],[-28,7],[-39,-42],[-63,26],[-62,-60],[-39,24],[-51,75],[-99,2]],[[21734,3214],[-30,51],[20,112],[37,-30],[24,31],[0,75],[28,-6],[46,-58],[40,-3],[74,75],[4,141],[14,100],[-133,12],[-5,53],[-28,35],[-88,155],[1,31],[-66,20],[3,46],[-75,13],[-37,26],[-71,-100],[-27,51],[-97,87],[-45,-31],[-20,-47],[-64,11],[-45,-39]],[[21194,4025],[31,55],[9,65],[87,93],[14,46],[65,-4],[12,40],[126,45],[30,22],[30,134],[31,44],[0,41],[43,59]],[[21672,4665],[28,-11],[-9,-55],[98,16],[20,-56],[32,-1],[10,-89],[41,-52],[94,-9],[28,-37],[51,-9],[20,-54],[82,-28],[111,-3],[90,37]],[[7929,10449],[1,78],[17,53],[53,80],[133,-148],[12,54],[35,5],[-7,83],[60,61]],[[8233,10715],[44,-41],[74,-2],[40,21],[18,-34],[76,-40],[30,-61],[2,-42],[57,-96]],[[8574,10420],[-54,-27],[-57,-70],[-49,60],[-9,-47],[-56,-11],[-13,-46],[4,-99],[-46,-31],[-37,-49],[-35,-2],[20,-68],[14,-100],[0,-117]],[[8256,9813],[-181,-29],[-52,3],[-120,-41],[-99,47]],[[7804,9793],[-4,58],[40,45],[65,36],[58,106],[-9,31],[31,84],[25,20],[-28,58],[-34,156],[27,49],[-46,13]],[[22736,3853],[81,14],[5,25],[57,45],[30,-6]],[[22909,3931],[-48,-193],[39,-24],[-3,-65],[13,-144],[-41,-14],[-77,-117],[31,-33],[-39,-40],[121,-154],[-70,-42]],[[22835,3105],[-168,-130],[-44,-7]],[[22623,2968],[-42,184],[-322,15],[-31,-13],[-113,28]],[[1667,7945],[-141,15],[-17,31],[-16,113],[7,75],[-46,17],[56,216],[21,98],[-3,73],[37,113],[45,33],[3,68],[31,-9],[71,71],[27,79],[29,14],[29,56],[62,80],[0,33],[57,3],[45,28],[64,85],[81,212],[75,33],[67,-52],[30,23],[6,84],[21,28]],[[2395,9077],[-25,-39],[-12,-74],[-58,-62],[30,-90],[-25,-73],[-80,-17],[-56,-57],[-15,-63],[20,-38],[-59,-87],[-65,-15],[-2,-221],[-52,-58],[37,-52]],[[25809,1780],[26,-67],[67,-64],[108,1],[63,40],[134,13],[48,16]],[[26255,1719],[29,-35],[19,-62],[-34,-80],[26,-29],[-28,-100],[18,-44],[-11,-79],[-22,-21],[5,-105],[42,-27]],[[26246,2471],[-62,-47],[-41,-61],[-42,20],[-50,-53],[-64,-13],[-90,26],[-24,-40],[12,-42],[-55,-113],[-53,-2],[0,-52]],[[25252,1996],[-63,5],[-53,67],[-45,112]],[[25091,2180],[58,76],[24,55],[0,52],[-35,22],[34,77],[59,18],[44,80],[75,56],[-68,85],[-51,27],[-13,30],[-44,1],[-50,-53],[-14,31],[5,79],[-18,115],[-66,2],[17,53],[-70,22]],[[25434,3329],[-25,-97],[-5,-76],[71,-137],[70,-7],[25,-29],[88,21],[1,96],[87,47],[26,67],[28,0],[66,61],[64,-116],[0,-93],[67,73],[44,12],[-41,53],[-1,44],[31,25],[64,-13],[36,66],[32,-26],[75,-118],[26,-58]],[[19564,6165],[15,-57],[60,-21],[62,-44],[41,-84],[76,-16],[60,-58]],[[19878,5885],[77,-54],[15,-47],[49,-47],[33,-60],[49,-39],[6,-39],[77,-36]],[[14368,8826],[4,61],[-23,49],[-69,39],[1,71],[-42,81],[-26,17],[-26,87],[17,76],[-10,27]],[[14684,10104],[38,-88],[-2,-68],[29,-63],[42,-127],[33,-35]],[[21646,5093],[173,5],[-58,-70],[-14,-88],[-83,-69],[-23,-117],[31,-89]],[[21194,4025],[-127,10],[-9,-101]],[[21058,3934],[-20,-3],[-58,87],[51,40],[-39,57],[-66,-12],[-73,50],[29,68],[4,60],[-52,1],[-102,-32],[8,-90],[-45,-83],[13,-47],[-77,5],[-92,38],[-4,-46],[55,-72]],[[20590,3955],[-162,-47]],[[23448,3518],[28,112],[-10,48],[4,128],[46,74],[-7,70],[-161,6]],[[23348,3956],[-10,72],[39,33],[32,106],[65,-5]],[[24240,3235],[-44,41],[-102,2]],[[16188,6565],[-59,72],[18,48],[58,31],[51,123],[-14,118],[26,73],[40,69],[43,120],[6,62],[126,-46],[38,34],[18,73],[-27,69],[32,65],[3,65]],[[23727,1425],[48,-2],[37,-35],[84,-35],[15,-68],[130,55],[64,9],[36,-24],[31,-57],[63,-62],[61,-39],[73,43]],[[24369,1210],[2,-49],[-32,-67],[-3,-43],[-39,-39],[-43,-1],[-35,-70],[-14,-166]],[[23679,910],[-12,130],[12,60],[35,31],[-15,65],[-60,58],[9,75],[-32,31],[30,38]],[[13404,6882],[-51,-13],[-201,104],[-44,48],[-27,-3],[-112,94],[-55,22],[-54,72],[-12,48],[-41,34],[-30,64],[-105,74],[-30,56],[-60,59],[18,37]],[[12600,7578],[46,27],[37,-48],[45,5],[43,30],[-50,74],[13,57],[-17,26],[59,81],[42,18],[64,-37],[-3,56],[40,30],[-32,59],[3,47],[28,25],[50,83],[-20,57]],[[12948,8168],[61,7],[25,44],[-11,56],[38,41]],[[13464,8323],[43,-8]],[[22771,2623],[17,27],[-18,101],[38,27],[-161,147],[-24,43]],[[22835,3105],[-7,-66],[92,29],[48,-108],[74,-27],[41,33],[32,-38],[59,58]],[[23558,2681],[54,-87],[85,-3],[71,-28],[-58,-61],[36,-31]],[[24774,2724],[-60,-63],[32,-22],[-54,-117]],[[24692,2522],[-48,25],[-49,-91],[21,-91],[45,-12],[-57,-82],[-72,17],[-49,-13]],[[24483,2275],[-117,15],[-62,-60],[-65,18],[-27,-18]],[[9151,9345],[15,61],[-10,46]],[[9156,9452],[97,110],[-10,32],[43,97],[10,108],[43,74],[-241,136],[6,140],[42,13],[10,57],[-55,13],[-6,54],[-56,47],[-16,71]],[[9023,10404],[15,52],[7,109],[-7,40],[34,56]],[[9072,10661],[65,0],[41,-33],[84,-17],[48,17],[9,87],[48,24],[39,-46],[55,-18],[14,-114],[60,44],[6,-61],[44,-59],[42,2],[24,-35]],[[9651,10452],[-15,-85],[-32,-10],[-27,-76],[50,-46],[-16,-101],[-15,-18],[4,-75],[-26,-46],[72,2],[86,-25],[47,-57],[136,-18],[80,41],[28,-44],[-26,-46],[-14,-76],[3,-97],[31,-40]],[[15272,7476],[19,32],[5,86],[28,64],[52,66],[45,-10],[0,49],[-31,50],[3,48],[78,18],[71,60],[27,1],[70,61],[24,67]],[[16004,8017],[-50,-65],[76,-96],[37,-6],[37,-68],[-84,-77],[-36,-10],[-12,-115],[39,-11],[-28,-121],[-75,-46],[-106,-92],[-21,-35]],[[20080,6741],[54,11],[36,-47],[190,5]],[[20360,6710],[-40,-54],[8,-62],[-27,-75],[12,-45],[-113,-126],[-39,-69],[26,-112],[40,-62],[1,-40],[-46,-23],[-99,-126],[-100,-7],[-31,-28],[-56,36],[-18,-32]],[[26407,2473],[54,-24],[32,23],[1,-134],[-34,-15],[-61,-65],[10,-59],[34,-44],[45,-11],[33,-48],[5,-47]],[[26526,2049],[-4,-70],[-47,-17],[-40,26],[-51,-169],[-116,-68],[-13,-32]],[[13392,9876],[18,-157],[-37,-82],[4,-90],[-73,-50]],[[13304,9497],[-65,-76],[11,-57],[-29,-30],[-44,45],[-36,-74],[45,-52],[14,-46],[-67,-55],[-50,16]],[[12582,9369],[0,43],[-35,16],[-58,71],[-36,-30],[-62,-94],[-58,-27],[-63,-5]],[[12610,10033],[65,19],[146,-45],[24,-38],[78,-27],[112,-88]],[[19886,3594],[-142,-234],[-5,-138],[-20,-142]],[[19719,3080],[-35,14],[-151,1],[-29,-76],[-32,-34],[-106,37],[-101,-19],[-118,5],[-16,66],[-43,-22],[-84,86],[-43,17],[-100,67],[-39,119],[-38,55],[-55,33],[-22,45]],[[13706,8719],[-57,46],[-82,24],[-8,49],[-62,-7],[2,108],[42,63],[71,54],[-11,73],[21,40],[-45,128]],[[13577,9297],[-10,48],[37,22],[57,-9],[58,17],[45,-5],[147,39]],[[8574,10420],[51,-31]],[[8625,10389],[-21,-21],[17,-63],[-9,-41],[12,-76],[72,-30],[-12,-134],[-49,-81],[-39,-8],[-61,-110]],[[8535,9825],[-127,-18],[-114,12],[-38,-6]],[[7312,11112],[-3,41],[-46,60]],[[7263,11213],[-33,38],[-24,61]],[[7206,11312],[-2,5]],[[7204,11317],[59,-8]],[[7263,11309],[102,-52],[59,-64]],[[7855,11127],[-31,-64],[17,-33],[51,7],[44,-52],[77,29],[35,-14],[60,58],[9,-148],[53,-30],[82,2],[21,-19]],[[8273,10863],[-22,-75],[-30,-27],[12,-46]],[[7929,10449],[-55,-56],[-86,8],[-53,-41],[-50,15],[-51,-8],[42,-94],[-114,-11],[-44,10]],[[7518,10272],[-110,21]],[[7408,10293],[-65,18],[-17,60],[13,98]],[[7339,10469],[50,-19],[54,16],[-38,118],[-39,36],[-15,103],[2,67]],[[7353,10790],[142,-14],[-44,80]],[[7552,11102],[-1,49],[139,-19],[42,56]],[[6968,10726],[12,-1]],[[6980,10725],[20,-48],[-33,-63]],[[6967,10614],[-2,-41],[-54,-77],[1,-59],[-33,-42]],[[6879,10395],[-13,21],[-81,-53],[-6,-57],[-104,38]],[[6675,10344],[-54,61],[-56,21]],[[27417,2153],[-77,63],[-71,4],[-34,30],[-107,-39],[-27,-27],[-53,40],[-62,-5],[-3,-37],[-58,-119],[3,-75],[-21,-66]],[[26907,1922],[-23,8],[-57,79],[-56,-32],[-124,143],[-57,-19],[-18,-61],[-46,9]],[[12486,8948],[-51,-89],[-60,-42],[-23,-69],[-28,-34],[51,-44],[29,21],[64,-1],[20,-70],[-6,-93],[-44,-115],[57,-23],[-15,-77],[-35,-43]],[[12445,8269],[-12,-29],[-110,9],[-127,-12],[-16,-18]],[[12180,8219],[-25,37],[-10,75],[43,106],[-17,93],[-71,56],[-55,24],[-27,63],[-89,59]],[[21805,2191],[-23,12],[-26,78],[-52,81],[-51,43],[-100,31],[-35,-21],[-83,46],[-78,15],[-16,76],[33,101],[58,23],[47,80],[-73,79],[-37,10],[-2,44]],[[21367,2889],[12,71],[49,-4],[16,123],[-46,140],[336,-5]],[[7324,11403],[-61,-94]],[[7204,11317],[13,32]],[[7217,11349],[54,34],[-1,29],[-58,16]],[[13304,9497],[61,-89],[6,-94],[91,-5],[56,-96],[23,60],[36,24]],[[7408,10293],[-33,-19],[-55,-93],[-95,-54],[-20,-36],[-38,12],[-10,-95],[-75,9]],[[7082,10017],[-47,1],[-97,48],[-7,77],[17,24],[-66,75],[19,106],[-22,47]],[[6967,10614],[53,23],[40,-78],[63,-14],[-2,-47],[66,-5],[82,17],[70,-41]],[[12832,10688],[96,-77],[61,-23],[72,28]],[[7039,11376],[41,56],[51,-5]],[[7131,11427],[2,-45]],[[7133,11382],[-27,-61],[-51,-52]],[[9651,10452],[32,-16],[67,3],[103,-37],[107,-74]],[[12948,8168],[-56,-40],[-53,49],[-135,-1],[-60,78],[-30,-42],[-35,41],[-105,-51],[-4,61],[-25,6]],[[24369,1210],[-2,68],[38,170],[34,30],[53,-77],[26,45],[-57,59],[-6,61],[44,47],[34,-10],[28,-41],[8,-64],[51,52],[-6,58],[-70,43],[39,106],[-94,38],[15,74],[-31,45],[-8,55],[40,33],[49,2],[-1,128]],[[24553,2132],[59,8],[12,-61],[60,14],[51,-23],[41,32],[27,-18],[-29,-56],[48,-18],[27,-37],[61,-28],[41,-51],[22,-116],[38,-27],[5,-68],[-32,-32],[33,-41]],[[9156,9452],[-57,19],[-87,69],[-93,108],[-69,47],[-116,57],[-199,73]],[[8625,10389],[57,-14],[39,50],[92,-27],[20,44],[36,-20],[106,-1],[48,-17]],[[20360,6710],[77,-6],[40,-53],[56,-42],[59,15],[0,-62],[50,-50],[-1,-30],[51,-34],[91,-35],[25,-120],[51,-26]],[[20865,6273],[55,6],[93,-40]],[[24553,2132],[10,46],[-80,97]],[[24692,2522],[68,-36],[92,-78],[50,-83],[110,-16],[16,-21],[-45,-60],[108,-48]],[[7804,9793],[-72,32],[-98,25]],[[7634,9850],[0,110],[-44,71],[-5,71],[-33,29],[-34,141]],[[20628,947],[98,161],[60,18],[108,85]],[[27005,1310],[7,134],[-43,73],[17,87],[-101,-2],[-39,55],[35,82],[53,69],[21,55],[-48,59]],[[22170,5618],[47,-12],[25,-42],[43,-5],[94,-59],[69,-11],[28,15],[28,-88],[69,-26]],[[8997,10766],[31,-63],[44,-42]],[[8273,10863],[76,-6],[53,69],[7,79],[55,107],[74,-28]],[[6961,11023],[-89,-43],[-7,-60],[44,-18],[-8,-42]],[[7206,11312],[-44,11]],[[7162,11323],[0,35]],[[7162,11358],[21,76]],[[7183,11434],[30,-18],[4,-67]],[[21367,2889],[-62,-26],[-7,-51],[-81,125],[-68,91],[-77,30]],[[21072,3058],[5,92],[45,45],[5,100],[-28,82],[-3,107],[-21,47],[11,40],[-10,158],[-24,70],[12,68],[-6,67]],[[23359,4662],[65,69],[57,82],[-39,31],[-87,20]],[[23484,5000],[18,20],[58,-24],[50,14],[138,-14],[76,-32],[40,-36],[83,-30]],[[23348,3956],[-144,-3],[-54,-31],[-75,-21],[-91,27],[-75,3]],[[23256,784],[-58,-26],[-51,-2],[-90,87],[0,57],[-20,43],[22,73],[-43,29],[-25,94],[1,71],[-14,44],[25,42],[-30,67]],[[7082,10017],[-24,-31],[-15,-140]],[[7043,9846],[-157,-13],[-154,21],[-71,-58],[-32,-1],[-22,63]],[[6607,9858],[11,97],[-1,126],[50,30],[38,112],[-30,61],[0,60]],[[2802,8010],[-40,-33],[-54,-113],[4,-93]],[[14787,8047],[26,-43],[-98,-68],[41,-67],[-44,-41],[-7,-36],[55,-73],[-62,-16],[-1,-160],[-17,-39],[16,-41],[91,23],[26,-9],[57,25]],[[7263,11213],[-60,10],[-79,-15]],[[7124,11208],[-3,61],[41,54]],[[21072,3058],[-109,-18],[-92,-54],[-29,8],[-37,-43],[-64,-9]],[[20741,2942],[-75,99],[0,112],[-11,35],[16,67],[18,189],[-35,7],[-29,45],[1,63],[49,30],[-15,59],[18,69],[62,114],[-56,67],[-34,-15],[-60,72]],[[12600,7578],[-72,42],[-36,-21],[-53,101],[17,39],[52,-27],[54,20],[37,100],[-91,98],[-36,-17],[-1,104],[-81,46],[-21,45],[-78,-15],[-57,27],[-40,-51],[3,-32],[157,-166],[10,-32],[75,-82],[-9,-51],[14,-49],[-45,-34],[-74,55],[-61,23],[-51,0]],[[12213,7701],[31,48],[63,-9],[-53,216],[-30,10],[-70,97],[20,92],[30,22],[-24,42]],[[7133,11382],[29,-24]],[[7124,11208],[-57,-16]],[[7131,11427],[52,7]],[[22527,740],[-46,102],[26,43],[-11,39],[34,49],[9,70],[75,89],[-7,58],[27,39],[-37,23],[-10,65],[-43,113]],[[7124,11208],[10,-83],[23,-27],[-10,-95],[74,-61],[52,-19],[23,-42],[-10,-73]],[[7286,10808],[-38,-33],[-55,17],[1,-65],[-74,-24],[-105,60],[-35,-38]],[[7286,10808],[67,-18]],[[7634,9850],[-118,8],[-214,-19],[-67,-17],[-192,24]],[[17458,5866],[-68,79]],[[20741,2942],[-20,-40],[-54,4],[-58,38],[-143,45],[-57,2],[-163,-28],[-97,19],[-48,-21],[-29,27],[-110,-33],[-98,44],[-19,24],[-55,5],[-71,52]],[[6607,9858],[-63,5],[-116,-34],[-108,38]],[[12213,7701],[-79,-16],[-61,-35]],[[9389,6114],[19,58],[58,29],[7,-39],[61,-37],[30,83],[39,34],[47,-17],[40,14],[55,48],[-4,24],[54,53],[19,-9],[-69,-94],[-72,-49],[-134,-115],[-42,10],[-90,-35],[-18,42]],[[6954,5978],[-45,2],[-11,52],[131,-38],[-18,-50],[-57,34]],[[8141,6254],[9,18],[106,-13],[21,-24],[-20,-84],[-115,-43],[-52,4],[25,49],[58,0],[53,88],[-85,5]],[[8415,6119],[-1,52],[106,94],[18,39],[101,22],[-31,-56],[-72,-29],[-68,-68],[-26,-57],[-27,3]],[[8080,6077],[-20,-30],[-61,-11],[-37,-52],[-31,41],[25,52],[30,-6],[65,46],[29,-40]],[[7249,5970],[23,60],[104,32],[3,-49],[-52,-18],[-45,7],[-33,-32]],[[7907,6077],[-39,55],[74,6],[-35,-61]],[[5171,6787],[10,44],[71,134],[62,42],[12,33],[69,80],[56,28],[87,62],[-26,60],[52,-1],[64,-39],[66,11],[35,-11],[93,19],[120,-60],[56,-37],[43,-7],[55,-34],[34,28],[49,-49],[86,-9],[42,-80],[-55,-86],[7,-42],[33,-17],[-5,-50],[44,-14],[115,-90],[50,2],[5,-52],[78,-68],[-43,-96],[5,-39],[-36,-92],[63,-111],[52,-5],[-12,-92],[52,-112],[1,-66],[-39,-4],[-94,-100],[-53,-12],[-37,-43],[-79,-3],[-38,-33],[-60,-20],[-62,-49],[-105,-33],[-49,-35],[-215,-69],[-111,-18],[-98,24],[-2,24],[-78,-4],[-121,42],[-130,1],[-89,16],[-25,21],[-75,133],[-8,32],[-75,12],[-49,111],[-43,66],[51,91],[78,-58],[21,-56],[56,-68],[93,-14],[38,16],[51,-41],[106,51],[-21,68],[81,-31],[49,116],[-58,35],[-26,99],[-30,43],[-11,54],[-44,70],[-39,11],[-50,134],[-102,174],[2,63]]],"transform":{"scale":[0.00036093587750608814,0.0002903162138927098],"translate":[-84.9514496,19.8265556]},"objects":{"CUB":{"type":"GeometryCollection","geometries":[{"arcs":[[0,1,2]],"type":"Polygon","properties":{"name":"Niquero","shapeGroup":"CUB","gid":"CUB-2-0"},"id":"CUB-2-0"},{"arcs":[[[3,4,5,6,7]],[[8,9]],[[10]]],"type":"MultiPolygon","properties":{"name":"Nuevitas","shapeGroup":"CUB","gid":"CUB-2-1"},"id":"CUB-2-1"},{"arcs":[[-2,11,12,13,14,15]],"type":"Polygon","properties":{"name":"Pilón","shapeGroup":"CUB","gid":"CUB-2-2"},"id":"CUB-2-2"},{"arcs":[[16,17]],"type":"Polygon","properties":{"name":"Antilla","shapeGroup":"CUB","gid":"CUB-2-3"},"id":"CUB-2-3"},{"arcs":[[[18]],[[19,20,21,22,23,24,25]],[[26]],[[27]]],"type":"MultiPolygon","properties":{"name":"Esmeralda","shapeGroup":"CUB","gid":"CUB-2-4"},"id":"CUB-2-4"},{"arcs":[[28,29,30,31,32,33]],"type":"Polygon","properties":{"name":"Bayamo","shapeGroup":"CUB","gid":"CUB-2-5"},"id":"CUB-2-5"},{"arcs":[[34,35,36,37]],"type":"Polygon","properties":{"name":"Marianao","shapeGroup":"CUB","gid":"CUB-2-6"},"id":"CUB-2-6"},{"arcs":[[[38]],[[39,40,41,42,43]],[[44]],[[45]],[[46]]],"type":"MultiPolygon","properties":{"name":"Morón","shapeGroup":"CUB","gid":"CUB-2-7"},"id":"CUB-2-7"},{"arcs":[[47,48,49]],"type":"Polygon","properties":{"name":"Sandino","shapeGroup":"CUB","gid":"CUB-2-8"},"id":"CUB-2-8"},{"arcs":[[-20,50,-41,51]],"type":"Polygon","properties":{"name":"Bolivia","shapeGroup":"CUB","gid":"CUB-2-9"},"id":"CUB-2-9"},{"arcs":[[52,53,54,55,56]],"type":"Polygon","properties":{"name":"Aguada de Pasajeros","shapeGroup":"CUB","gid":"CUB-2-10"},"id":"CUB-2-10"},{"arcs":[[57,58,59,60,61,62]],"type":"Polygon","properties":{"name":"Minas de Matahambre","shapeGroup":"CUB","gid":"CUB-2-11"},"id":"CUB-2-11"},{"arcs":[[[63,64,65,66,67,68]],[[69]]],"type":"MultiPolygon","properties":{"name":"Cárdenas","shapeGroup":"CUB","gid":"CUB-2-12"},"id":"CUB-2-12"},{"arcs":[[70,71,72,73]],"type":"Polygon","properties":{"name":"Cacocum","shapeGroup":"CUB","gid":"CUB-2-13"},"id":"CUB-2-13"},{"arcs":[[[74,75,76,77,78]],[[79,80]]],"type":"MultiPolygon","properties":{"name":"Puerto Padre","shapeGroup":"CUB","gid":"CUB-2-14"},"id":"CUB-2-14"},{"arcs":[[[81]],[[82]],[[83]],[[84]],[[85]],[[86]],[[87]],[[88]],[[89,90,91,92,93]],[[94]]],"type":"MultiPolygon","properties":{"name":"Sagua La Grande","shapeGroup":"CUB","gid":"CUB-2-15"},"id":"CUB-2-15"},{"arcs":[[95,96,97,98,99,100]],"type":"Polygon","properties":{"name":"Vertientes","shapeGroup":"CUB","gid":"CUB-2-16"},"id":"CUB-2-16"},{"arcs":[[101,102,103,104,105,106]],"type":"Polygon","properties":{"name":"Corralillo","shapeGroup":"CUB","gid":"CUB-2-17"},"id":"CUB-2-17"},{"arcs":[[-24,107,-96,108,109,110]],"type":"Polygon","properties":{"name":"Florida","shapeGroup":"CUB","gid":"CUB-2-18"},"id":"CUB-2-18"},{"arcs":[[111,112,113,114,115,116]],"type":"Polygon","properties":{"name":"Bahía Honda","shapeGroup":"CUB","gid":"CUB-2-19"},"id":"CUB-2-19"},{"arcs":[[-31,117,118,119,120,121]],"type":"Polygon","properties":{"name":"Jiguaní","shapeGroup":"CUB","gid":"CUB-2-20"},"id":"CUB-2-20"},{"arcs":[[122,123,124,125,126]],"type":"Polygon","properties":{"name":"La Sierpe","shapeGroup":"CUB","gid":"CUB-2-21"},"id":"CUB-2-21"},{"arcs":[[127,128,129,130,131,132]],"type":"Polygon","properties":{"name":"Remedios","shapeGroup":"CUB","gid":"CUB-2-22"},"id":"CUB-2-22"},{"arcs":[[-26,133,134,135,-42,-51]],"type":"Polygon","properties":{"name":"Primero de Enero","shapeGroup":"CUB","gid":"CUB-2-23"},"id":"CUB-2-23"},{"arcs":[[-56,136,137,138,139,140]],"type":"Polygon","properties":{"name":"Ciénaga de Zapata","shapeGroup":"CUB","gid":"CUB-2-24"},"id":"CUB-2-24"},{"arcs":[[-127,141,142,143,144,145,146]],"type":"Polygon","properties":{"name":"Sancti Spiritus","shapeGroup":"CUB","gid":"CUB-2-25"},"id":"CUB-2-25"},{"arcs":[[-69,147,148,149,150]],"type":"Polygon","properties":{"name":"Matanzas","shapeGroup":"CUB","gid":"CUB-2-26"},"id":"CUB-2-26"},{"arcs":[[[151,152,153]],[[154,155,156,157]]],"type":"MultiPolygon","properties":{"name":"Caimanera","shapeGroup":"CUB","gid":"CUB-2-27"},"id":"CUB-2-27"},{"arcs":[[[-65,158,-107,159,160]],[[161]]],"type":"MultiPolygon","properties":{"name":"Martí","shapeGroup":"CUB","gid":"CUB-2-28"},"id":"CUB-2-28"},{"arcs":[[-152,162,163,164,-155,165]],"type":"Polygon","properties":{"name":"Guantánamo","shapeGroup":"CUB","gid":"CUB-2-29"},"id":"CUB-2-29"},{"arcs":[[166,167,168,169]],"type":"Polygon","properties":{"name":"Gibara","shapeGroup":"CUB","gid":"CUB-2-30"},"id":"CUB-2-30"},{"arcs":[[[-129,170,171]],[[172]],[[173]],[[174]],[[175]],[[176]],[[177]],[[178]]],"type":"MultiPolygon","properties":{"name":"Caibarién","shapeGroup":"CUB","gid":"CUB-2-31"},"id":"CUB-2-31"},{"arcs":[[-117,179,180,181,182,183]],"type":"Polygon","properties":{"name":"La Palma","shapeGroup":"CUB","gid":"CUB-2-32"},"id":"CUB-2-32"},{"arcs":[[184,185,186]],"type":"Polygon","properties":{"name":"San Luis","shapeGroup":"CUB","gid":"CUB-2-33"},"id":"CUB-2-33"},{"arcs":[[187,188,189,190,191,192]],"type":"Polygon","properties":{"name":"Baracoa","shapeGroup":"CUB","gid":"CUB-2-34"},"id":"CUB-2-34"},{"arcs":[[-150,193,194,195,196]],"type":"Polygon","properties":{"name":"Santa Cruz del Norte","shapeGroup":"CUB","gid":"CUB-2-35"},"id":"CUB-2-35"},{"arcs":[[-157,197,198,-191,199,200]],"type":"Polygon","properties":{"name":"San Antonio del Sur","shapeGroup":"CUB","gid":"CUB-2-36"},"id":"CUB-2-36"},{"arcs":[[-168,201,202,203,204]],"type":"Polygon","properties":{"name":"Rafael Freyre","shapeGroup":"CUB","gid":"CUB-2-37"},"id":"CUB-2-37"},{"arcs":[[-59,205,-183,206,207]],"type":"Polygon","properties":{"name":"Viñales","shapeGroup":"CUB","gid":"CUB-2-38"},"id":"CUB-2-38"},{"arcs":[[-44,208,209,210,211]],"type":"Polygon","properties":{"name":"Chambas","shapeGroup":"CUB","gid":"CUB-2-39"},"id":"CUB-2-39"},{"arcs":[[-190,212,213,-200]],"type":"Polygon","properties":{"name":"Imías","shapeGroup":"CUB","gid":"CUB-2-40"},"id":"CUB-2-40"},{"arcs":[[-114,214,215,216,217,218,219]],"type":"Polygon","properties":{"name":"Artemisa","shapeGroup":"CUB","gid":"CUB-2-41"},"id":"CUB-2-41"},{"arcs":[[-217,220,221,222,223,224,225]],"type":"Polygon","properties":{"name":"Caimito","shapeGroup":"CUB","gid":"CUB-2-42"},"id":"CUB-2-42"},{"arcs":[[-116,226,227,228,-180]],"type":"Polygon","properties":{"name":"San Cristóbal","shapeGroup":"CUB","gid":"CUB-2-43"},"id":"CUB-2-43"},{"arcs":[[-130,-172,229,-211,230,231,232,233]],"type":"Polygon","properties":{"name":"Yaguajay","shapeGroup":"CUB","gid":"CUB-2-44"},"id":"CUB-2-44"},{"arcs":[[-196,234,235,236,237,238]],"type":"Polygon","properties":{"name":"Habana del Este","shapeGroup":"CUB","gid":"CUB-2-45"},"id":"CUB-2-45"},{"arcs":[[-61,239,-187,240,241]],"type":"Polygon","properties":{"name":"San Juan y Martínez","shapeGroup":"CUB","gid":"CUB-2-46"},"id":"CUB-2-46"},{"arcs":[[242,243,244,245,246]],"type":"Polygon","properties":{"name":"Frank País","shapeGroup":"CUB","gid":"CUB-2-47"},"id":"CUB-2-47"},{"arcs":[[-224,247,248,249,250,251]],"type":"Polygon","properties":{"name":"Bauta","shapeGroup":"CUB","gid":"CUB-2-48"},"id":"CUB-2-48"},{"arcs":[[-193,252,253,254,-244,255]],"type":"Polygon","properties":{"name":"Moa","shapeGroup":"CUB","gid":"CUB-2-49"},"id":"CUB-2-49"},{"arcs":[[-189,256,-213]],"type":"Polygon","properties":{"name":"Maisí","shapeGroup":"CUB","gid":"CUB-2-50"},"id":"CUB-2-50"},{"arcs":[[-125,257,258,259,260]],"type":"Polygon","properties":{"name":"Venezuela","shapeGroup":"CUB","gid":"CUB-2-51"},"id":"CUB-2-51"},{"arcs":[[-18,261,262,263,-203,264]],"type":"Polygon","properties":{"name":"Banes","shapeGroup":"CUB","gid":"CUB-2-52"},"id":"CUB-2-52"},{"arcs":[[-53,265,266,-105,267,268]],"type":"Polygon","properties":{"name":"Los Arabos","shapeGroup":"CUB","gid":"CUB-2-53"},"id":"CUB-2-53"},{"arcs":[[-143,269,270,271,272]],"type":"Polygon","properties":{"name":"Trinidad","shapeGroup":"CUB","gid":"CUB-2-54"},"id":"CUB-2-54"},{"arcs":[[-204,-264,273,274,275,276]],"type":"Polygon","properties":{"name":"Báguanos","shapeGroup":"CUB","gid":"CUB-2-55"},"id":"CUB-2-55"},{"arcs":[[-259,277,278,279]],"type":"Polygon","properties":{"name":"Ciego de Ávila","shapeGroup":"CUB","gid":"CUB-2-56"},"id":"CUB-2-56"},{"arcs":[[-43,-136,280,-279,281,282,-209]],"type":"Polygon","properties":{"name":"Ciro Redondo","shapeGroup":"CUB","gid":"CUB-2-57"},"id":"CUB-2-57"},{"arcs":[[-92,283,284,285,286]],"type":"Polygon","properties":{"name":"Encrucijada","shapeGroup":"CUB","gid":"CUB-2-58"},"id":"CUB-2-58"},{"arcs":[[-210,-283,287,288,-231]],"type":"Polygon","properties":{"name":"Florencia","shapeGroup":"CUB","gid":"CUB-2-59"},"id":"CUB-2-59"},{"arcs":[[-15,289,290,291,292,293,294,295]],"type":"Polygon","properties":{"name":"Guamá","shapeGroup":"CUB","gid":"CUB-2-60"},"id":"CUB-2-60"},{"arcs":[[-99,296,297,298,299,300]],"type":"Polygon","properties":{"name":"Najasa","shapeGroup":"CUB","gid":"CUB-2-61"},"id":"CUB-2-61"},{"arcs":[[-192,-199,301,-253]],"type":"Polygon","properties":{"name":"Yateras","shapeGroup":"CUB","gid":"CUB-2-62"},"id":"CUB-2-62"},{"arcs":[[-34,302,303,304,305,306]],"type":"Polygon","properties":{"name":"Yara","shapeGroup":"CUB","gid":"CUB-2-63"},"id":"CUB-2-63"},{"arcs":[[-115,-220,307,-227]],"type":"Polygon","properties":{"name":"Candelaria","shapeGroup":"CUB","gid":"CUB-2-64"},"id":"CUB-2-64"},{"arcs":[[-132,308,309,310,311,312]],"type":"Polygon","properties":{"name":"Placetas","shapeGroup":"CUB","gid":"CUB-2-65"},"id":"CUB-2-65"},{"arcs":[[-181,-229,313,314]],"type":"Polygon","properties":{"name":"Los Palacios","shapeGroup":"CUB","gid":"CUB-2-66"},"id":"CUB-2-66"},{"arcs":[[-305,315,316,317]],"type":"Polygon","properties":{"name":"Manzanillo","shapeGroup":"CUB","gid":"CUB-2-67"},"id":"CUB-2-67"},{"arcs":[[-13,318,319,-317,320]],"type":"Polygon","properties":{"name":"Campechuela","shapeGroup":"CUB","gid":"CUB-2-68"},"id":"CUB-2-68"},{"arcs":[[-25,-111,321,-134]],"type":"Polygon","properties":{"name":"Céspedes","shapeGroup":"CUB","gid":"CUB-2-69"},"id":"CUB-2-69"},{"arcs":[[-35,322,-249,323,324]],"type":"Polygon","properties":{"name":"Playa","shapeGroup":"CUB","gid":"CUB-2-70"},"id":"CUB-2-70"},{"arcs":[[-106,-267,325,326,327,-160]],"type":"Polygon","properties":{"name":"Colón","shapeGroup":"CUB","gid":"CUB-2-71"},"id":"CUB-2-71"},{"arcs":[[-98,328,329,-297]],"type":"Polygon","properties":{"name":"Jimaguayú","shapeGroup":"CUB","gid":"CUB-2-72"},"id":"CUB-2-72"},{"arcs":[[-67,330,331,332,333]],"type":"Polygon","properties":{"name":"Jovellanos","shapeGroup":"CUB","gid":"CUB-2-73"},"id":"CUB-2-73"},{"arcs":[[334,335,336,337,338,339]],"type":"Polygon","properties":{"name":"San Luis","shapeGroup":"CUB","gid":"CUB-2-74"},"id":"CUB-2-74"},{"arcs":[[340,341,342,343,344]],"type":"Polygon","properties":{"name":"Santa Isabel de las Lajas","shapeGroup":"CUB","gid":"CUB-2-75"},"id":"CUB-2-75"},{"arcs":[[-295,345,-339,346,347,348]],"type":"Polygon","properties":{"name":"Santiago de Cuba","shapeGroup":"CUB","gid":"CUB-2-76"},"id":"CUB-2-76"},{"arcs":[[-60,-208,349,350,-185,-240]],"type":"Polygon","properties":{"name":"Pinar del Río","shapeGroup":"CUB","gid":"CUB-2-77"},"id":"CUB-2-77"},{"arcs":[[-272,351,352,353,-311,354]],"type":"Polygon","properties":{"name":"Manicaragua","shapeGroup":"CUB","gid":"CUB-2-78"},"id":"CUB-2-78"},{"arcs":[[-154,355,-348,356,357,-163]],"type":"Polygon","properties":{"name":"Niceto Pérez","shapeGroup":"CUB","gid":"CUB-2-79"},"id":"CUB-2-79"},{"arcs":[[-113,358,-222,359,-215]],"type":"Polygon","properties":{"name":"Mariel","shapeGroup":"CUB","gid":"CUB-2-80"},"id":"CUB-2-80"},{"arcs":[[360,361,362,363]],"type":"Polygon","properties":{"name":"Cotorro","shapeGroup":"CUB","gid":"CUB-2-81"},"id":"CUB-2-81"},{"arcs":[[-182,-315,364,-350,-207]],"type":"Polygon","properties":{"name":"Consolación del Sur","shapeGroup":"CUB","gid":"CUB-2-82"},"id":"CUB-2-82"},{"arcs":[[-8,365,-298,-330,366,367]],"type":"Polygon","properties":{"name":"Sibanicú","shapeGroup":"CUB","gid":"CUB-2-83"},"id":"CUB-2-83"},{"arcs":[[-344,368,369,370]],"type":"Polygon","properties":{"name":"Cruces","shapeGroup":"CUB","gid":"CUB-2-84"},"id":"CUB-2-84"},{"arcs":[[-140,371,372,-332,373,-327,374]],"type":"Polygon","properties":{"name":"Jagüey Grande","shapeGroup":"CUB","gid":"CUB-2-85"},"id":"CUB-2-85"},{"arcs":[[-79,375,376,377,378,379]],"type":"Polygon","properties":{"name":"Las Tunas","shapeGroup":"CUB","gid":"CUB-2-86"},"id":"CUB-2-86"},{"arcs":[[380,381,382,383,384]],"type":"Polygon","properties":{"name":"Güines","shapeGroup":"CUB","gid":"CUB-2-87"},"id":"CUB-2-87"},{"arcs":[[-78,385,386,387,388,-376]],"type":"Polygon","properties":{"name":"Majibacoa","shapeGroup":"CUB","gid":"CUB-2-88"},"id":"CUB-2-88"},{"arcs":[[-48,389,-63,390]],"type":"Polygon","properties":{"name":"Mantua","shapeGroup":"CUB","gid":"CUB-2-89"},"id":"CUB-2-89"},{"arcs":[[-66,-161,-328,-374,-331]],"type":"Polygon","properties":{"name":"Perico","shapeGroup":"CUB","gid":"CUB-2-90"},"id":"CUB-2-90"},{"arcs":[[-338,391,392,-357,-347]],"type":"Polygon","properties":{"name":"Songo - La Maya","shapeGroup":"CUB","gid":"CUB-2-91"},"id":"CUB-2-91"},{"arcs":[[-247,393,-336,394,395,-274,-263,396]],"type":"Polygon","properties":{"name":"Mayarí","shapeGroup":"CUB","gid":"CUB-2-92"},"id":"CUB-2-92"},{"arcs":[[-23,397,398,-367,-329,-97,-108]],"type":"Polygon","properties":{"name":"Camagüey","shapeGroup":"CUB","gid":"CUB-2-93"},"id":"CUB-2-93"},{"arcs":[[-133,-313,399,-285,400]],"type":"Polygon","properties":{"name":"Camajuaní","shapeGroup":"CUB","gid":"CUB-2-94"},"id":"CUB-2-94"},{"arcs":[[-7,401,-379,402,403,404,-299,-366]],"type":"Polygon","properties":{"name":"Guáimaro","shapeGroup":"CUB","gid":"CUB-2-95"},"id":"CUB-2-95"},{"arcs":[[-71,405,406,-169,-205,-277,407]],"type":"Polygon","properties":{"name":"Holguín","shapeGroup":"CUB","gid":"CUB-2-96"},"id":"CUB-2-96"},{"arcs":[[-124,408,-288,-282,-278,-258]],"type":"Polygon","properties":{"name":"Majagua","shapeGroup":"CUB","gid":"CUB-2-97"},"id":"CUB-2-97"},{"arcs":[[-121,409,410,-293,411]],"type":"Polygon","properties":{"name":"Tercer Frente","shapeGroup":"CUB","gid":"CUB-2-98"},"id":"CUB-2-98"},{"arcs":[[-57,-141,-375,-326,-266]],"type":"Polygon","properties":{"name":"Calimete","shapeGroup":"CUB","gid":"CUB-2-99"},"id":"CUB-2-99"},{"arcs":[[-271,412,413,414,-370,415,-352]],"type":"Polygon","properties":{"name":"Cumanayagua","shapeGroup":"CUB","gid":"CUB-2-100"},"id":"CUB-2-100"},{"arcs":[[-30,416,-388,417,-73,418,-118]],"type":"Polygon","properties":{"name":"Cauto Cristo","shapeGroup":"CUB","gid":"CUB-2-101"},"id":"CUB-2-101"},{"arcs":[[-72,-408,-276,419,420,421,-119,-419]],"type":"Polygon","properties":{"name":"Urbano Noris","shapeGroup":"CUB","gid":"CUB-2-102"},"id":"CUB-2-102"},{"arcs":[[-139,422,423,424,425,426,-372]],"type":"Polygon","properties":{"name":"Unión de Reyes","shapeGroup":"CUB","gid":"CUB-2-103"},"id":"CUB-2-103"},{"arcs":[[-146,427,-233,428]],"type":"Polygon","properties":{"name":"Taguasco","shapeGroup":"CUB","gid":"CUB-2-104"},"id":"CUB-2-104"},{"arcs":[[-22,429,430,-398]],"type":"Polygon","properties":{"name":"Sierra de Cubitas","shapeGroup":"CUB","gid":"CUB-2-105"},"id":"CUB-2-105"},{"arcs":[[-246,431,432,-392,-337,-394]],"type":"Polygon","properties":{"name":"Segundo Frente","shapeGroup":"CUB","gid":"CUB-2-106"},"id":"CUB-2-106"},{"arcs":[[-94,433,434,-342,435,-268,-104,436]],"type":"Polygon","properties":{"name":"Santo Domingo","shapeGroup":"CUB","gid":"CUB-2-107"},"id":"CUB-2-107"},{"arcs":[[-100,-301,437,438]],"type":"Polygon","properties":{"name":"Santa Cruz del Sur","shapeGroup":"CUB","gid":"CUB-2-108"},"id":"CUB-2-108"},{"arcs":[[-286,-400,-312,-354,439,440]],"type":"Polygon","properties":{"name":"Santa Clara","shapeGroup":"CUB","gid":"CUB-2-109"},"id":"CUB-2-109"},{"arcs":[[-383,441,442,443]],"type":"Polygon","properties":{"name":"San Nicolás","shapeGroup":"CUB","gid":"CUB-2-110"},"id":"CUB-2-110"},{"arcs":[[-361,444,445,446,447,448]],"type":"Polygon","properties":{"name":"San Miguel del Padrón","shapeGroup":"CUB","gid":"CUB-2-111"},"id":"CUB-2-111"},{"arcs":[[-236,449,450,-381,451,452,453,454,455,-363,456]],"type":"Polygon","properties":{"name":"San José de las Lajas","shapeGroup":"CUB","gid":"CUB-2-112"},"id":"CUB-2-112"},{"arcs":[[-225,-252,457,458,459,460,461]],"type":"Polygon","properties":{"name":"San Antonio de los Baños","shapeGroup":"CUB","gid":"CUB-2-113"},"id":"CUB-2-113"},{"arcs":[[-245,-255,462,463,-432]],"type":"Polygon","properties":{"name":"Sagua de Tánamo","shapeGroup":"CUB","gid":"CUB-2-114"},"id":"CUB-2-114"},{"arcs":[[-54,-269,-436,-341,464,465,466]],"type":"Polygon","properties":{"name":"Rodas","shapeGroup":"CUB","gid":"CUB-2-115"},"id":"CUB-2-115"},{"arcs":[[-29,-307,467,468,-377,-389,-417]],"type":"Polygon","properties":{"name":"Río Cauto","shapeGroup":"CUB","gid":"CUB-2-116"},"id":"CUB-2-116"},{"arcs":[[-238,469,-448,470,471]],"type":"Polygon","properties":{"name":"Regla","shapeGroup":"CUB","gid":"CUB-2-117"},"id":"CUB-2-117"},{"arcs":[[-343,-435,472,-440,-353,-416,-369]],"type":"Polygon","properties":{"name":"Ranchuelo","shapeGroup":"CUB","gid":"CUB-2-118"},"id":"CUB-2-118"},{"arcs":[[-454,473,474,-460,475]],"type":"Polygon","properties":{"name":"Quivicán","shapeGroup":"CUB","gid":"CUB-2-119"},"id":"CUB-2-119"},{"arcs":[[-90,-437,-103,476]],"type":"Polygon","properties":{"name":"Quemado de Güines","shapeGroup":"CUB","gid":"CUB-2-120"},"id":"CUB-2-120"},{"arcs":[[-325,477,478,479]],"type":"Polygon","properties":{"name":"Plaza de la Revolución","shapeGroup":"CUB","gid":"CUB-2-121"},"id":"CUB-2-121"},{"arcs":[[-333,-373,-427,480]],"type":"Polygon","properties":{"name":"Pedro Betancourt","shapeGroup":"CUB","gid":"CUB-2-122"},"id":"CUB-2-122"},{"arcs":[[-345,-371,-415,481,-465]],"type":"Polygon","properties":{"name":"Palmira","shapeGroup":"CUB","gid":"CUB-2-123"},"id":"CUB-2-123"},{"arcs":[[-294,-411,482,483,-340,-346]],"type":"Polygon","properties":{"name":"Palma Soriano","shapeGroup":"CUB","gid":"CUB-2-124"},"id":"CUB-2-124"},{"arcs":[[-424,484,-443,485]],"type":"Polygon","properties":{"name":"Nueva Paz","shapeGroup":"CUB","gid":"CUB-2-125"},"id":"CUB-2-125"},{"arcs":[[-4,-368,-399,-431,486,-9,487]],"type":"Polygon","properties":{"name":"Minas","shapeGroup":"CUB","gid":"CUB-2-126"},"id":"CUB-2-126"},{"arcs":[[-335,-484,488,-421,489,-395]],"type":"Polygon","properties":{"name":"Mella","shapeGroup":"CUB","gid":"CUB-2-127"},"id":"CUB-2-127"},{"arcs":[[-385,490,491,-452]],"type":"Polygon","properties":{"name":"Melena del Sur","shapeGroup":"CUB","gid":"CUB-2-128"},"id":"CUB-2-128"},{"arcs":[[-1,492,-319,-12]],"type":"Polygon","properties":{"name":"Media Luna","shapeGroup":"CUB","gid":"CUB-2-129"},"id":"CUB-2-129"},{"arcs":[[-156,-165,493,-463,-254,-302,-198]],"type":"Polygon","properties":{"name":"Manuel Tames","shapeGroup":"CUB","gid":"CUB-2-130"},"id":"CUB-2-130"},{"arcs":[[-6,494,-75,-380,-402]],"type":"Polygon","properties":{"name":"Manati","shapeGroup":"CUB","gid":"CUB-2-131"},"id":"CUB-2-131"},{"arcs":[[-149,495,-425,-486,-442,-382,-451,496,-194]],"type":"Polygon","properties":{"name":"Madruga","shapeGroup":"CUB","gid":"CUB-2-132"},"id":"CUB-2-132"},{"arcs":[[-68,-334,-481,-426,-496,-148]],"type":"Polygon","properties":{"name":"Limonar","shapeGroup":"CUB","gid":"CUB-2-133"},"id":"CUB-2-133"},{"arcs":[[-38,497,-250,-323]],"type":"Polygon","properties":{"name":"La Lisa","shapeGroup":"CUB","gid":"CUB-2-134"},"id":"CUB-2-134"},{"arcs":[[-447,498,499,500,501,-471]],"type":"Polygon","properties":{"name":"La Habana Vieja","shapeGroup":"CUB","gid":"CUB-2-135"},"id":"CUB-2-135"},{"arcs":[[-378,-469,502,503,-403]],"type":"Polygon","properties":{"name":"Jobabo","shapeGroup":"CUB","gid":"CUB-2-136"},"id":"CUB-2-136"},{"arcs":[[-77,504,-80,505,-170,-407,506,-386]],"type":"Polygon","properties":{"name":"Jesús Menéndez","shapeGroup":"CUB","gid":"CUB-2-137"},"id":"CUB-2-137"},{"arcs":[[-123,-147,-429,-232,-289,-409]],"type":"Polygon","properties":{"name":"Jatibonico","shapeGroup":"CUB","gid":"CUB-2-138"},"id":"CUB-2-138"},{"arcs":[[-195,-497,-450,-235]],"type":"Polygon","properties":{"name":"Jaruco","shapeGroup":"CUB","gid":"CUB-2-139"},"id":"CUB-2-139"},{"arcs":[[-32,-122,-412,-292,507]],"type":"Polygon","properties":{"name":"Guisa","shapeGroup":"CUB","gid":"CUB-2-140"},"id":"CUB-2-140"},{"arcs":[[-461,-475,508,509,510]],"type":"Polygon","properties":{"name":"Güira de Melena","shapeGroup":"CUB","gid":"CUB-2-141"},"id":"CUB-2-141"},{"arcs":[[-49,-391,-62,-242,511]],"type":"Polygon","properties":{"name":"Guane","shapeGroup":"CUB","gid":"CUB-2-142"},"id":"CUB-2-142"},{"arcs":[[-216,-360,-221]],"type":"Polygon","properties":{"name":"Guanajay","shapeGroup":"CUB","gid":"CUB-2-143"},"id":"CUB-2-143"},{"arcs":[[-237,-457,-362,-449,-470]],"type":"Polygon","properties":{"name":"Guanabacoa","shapeGroup":"CUB","gid":"CUB-2-144"},"id":"CUB-2-144"},{"arcs":[[-144,-273,-355,-310,512]],"type":"Polygon","properties":{"name":"Fomento","shapeGroup":"CUB","gid":"CUB-2-145"},"id":"CUB-2-145"},{"arcs":[[-164,-358,-393,-433,-464,-494]],"type":"Polygon","properties":{"name":"El Salvador","shapeGroup":"CUB","gid":"CUB-2-146"},"id":"CUB-2-146"},{"arcs":[[-446,513,514,-499]],"type":"Polygon","properties":{"name":"Diez de Octubre","shapeGroup":"CUB","gid":"CUB-2-147"},"id":"CUB-2-147"},{"arcs":[[-275,-396,-490,-420]],"type":"Polygon","properties":{"name":"Cueto","shapeGroup":"CUB","gid":"CUB-2-148"},"id":"CUB-2-148"},{"arcs":[[-120,-422,-489,-483,-410]],"type":"Polygon","properties":{"name":"Contramaestre","shapeGroup":"CUB","gid":"CUB-2-149"},"id":"CUB-2-149"},{"arcs":[[-404,-504,515,516]],"type":"Polygon","properties":{"name":"Colombia","shapeGroup":"CUB","gid":"CUB-2-150"},"id":"CUB-2-150"},{"arcs":[[-93,-287,-441,-473,-434]],"type":"Polygon","properties":{"name":"Cifuentes","shapeGroup":"CUB","gid":"CUB-2-151"},"id":"CUB-2-151"},{"arcs":[[-414,517,518,-466,-482]],"type":"Polygon","properties":{"name":"Cienfuegos","shapeGroup":"CUB","gid":"CUB-2-152"},"id":"CUB-2-152"},{"arcs":[[-36,-480,519,-500,-515,520]],"type":"Polygon","properties":{"name":"Cerro","shapeGroup":"CUB","gid":"CUB-2-153"},"id":"CUB-2-153"},{"arcs":[[-479,521,-501,-520]],"type":"Polygon","properties":{"name":"Centro Habana","shapeGroup":"CUB","gid":"CUB-2-154"},"id":"CUB-2-154"},{"arcs":[[-74,-418,-387,-507,-406]],"type":"Polygon","properties":{"name":"Calixto García","shapeGroup":"CUB","gid":"CUB-2-155"},"id":"CUB-2-155"},{"arcs":[[-131,-234,-428,-145,-513,-309]],"type":"Polygon","properties":{"name":"Cabaiguán","shapeGroup":"CUB","gid":"CUB-2-156"},"id":"CUB-2-156"},{"arcs":[[-33,-508,-291,522,-303]],"type":"Polygon","properties":{"name":"Buey Arriba","shapeGroup":"CUB","gid":"CUB-2-157"},"id":"CUB-2-157"},{"arcs":[[-37,-521,523,524,-458,-251,-498]],"type":"Polygon","properties":{"name":"Boyeros","shapeGroup":"CUB","gid":"CUB-2-158"},"id":"CUB-2-158"},{"arcs":[[-455,-476,-459,-525,525]],"type":"Polygon","properties":{"name":"Bejucal","shapeGroup":"CUB","gid":"CUB-2-159"},"id":"CUB-2-159"},{"arcs":[[-453,-492,526,-509,-474]],"type":"Polygon","properties":{"name":"Batabanó","shapeGroup":"CUB","gid":"CUB-2-160"},"id":"CUB-2-160"},{"arcs":[[-14,-321,-316,-304,-523,-290]],"type":"Polygon","properties":{"name":"Bartolomé Masó","shapeGroup":"CUB","gid":"CUB-2-161"},"id":"CUB-2-161"},{"arcs":[[-110,527,-260,-280,-281,-135,-322]],"type":"Polygon","properties":{"name":"Baraguá","shapeGroup":"CUB","gid":"CUB-2-162"},"id":"CUB-2-162"},{"arcs":[[-364,-456,-526,-524,-514,-445]],"type":"Polygon","properties":{"name":"Arroyo Naranjo","shapeGroup":"CUB","gid":"CUB-2-163"},"id":"CUB-2-163"},{"arcs":[[-300,-405,-517,528,-438]],"type":"Polygon","properties":{"name":"Amancio","shapeGroup":"CUB","gid":"CUB-2-164"},"id":"CUB-2-164"},{"arcs":[[-218,-226,-462,-511,529]],"type":"Polygon","properties":{"name":"Alquízar","shapeGroup":"CUB","gid":"CUB-2-165"},"id":"CUB-2-165"},{"arcs":[[-55,-467,-519,530,-137]],"type":"Polygon","properties":{"name":"Abreus","shapeGroup":"CUB","gid":"CUB-2-166"},"id":"CUB-2-166"},{"arcs":[[[531]],[[532]],[[533]],[[534]],[[535]],[[536]],[[537]],[[538]]],"type":"MultiPolygon","properties":{"name":"Isle of Youth","shapeGroup":"CUB","gid":"CUB-2-167"},"id":"CUB-2-167"}]}}}