{"type":"Topology","arcs":[[[6418,4504],[-21,19],[13,76],[-16,28],[-15,166],[86,-20],[23,59],[-11,79],[7,85],[44,21],[19,45],[80,73],[-18,35],[20,44],[-22,56],[-56,6],[14,64],[-80,70],[75,87],[77,-19],[52,39],[-12,97],[43,115],[47,21],[-20,55],[-34,186],[14,23],[71,-11],[10,84],[-55,74],[27,39],[-64,104],[-69,54],[18,70],[-30,74],[53,15],[-3,122],[-34,49],[-81,-6],[-24,20],[19,57],[-42,60],[20,92],[84,-59],[72,28],[2,74],[134,37],[18,54],[41,15],[30,77],[75,57],[41,61],[47,-29],[79,3],[30,-27],[66,9],[26,196],[25,-18],[71,1],[33,-58],[54,-30],[37,24],[16,87],[41,-1],[16,63],[45,34],[-11,73],[48,38],[98,-89],[50,12],[62,-34],[37,27],[16,44],[-10,50],[54,-11],[82,-44],[50,24],[91,-24],[38,65],[-41,82],[74,38],[-31,46],[-88,37],[-81,-18],[-1,127],[-47,28],[57,101],[35,5],[20,55],[-41,42],[-43,95],[-11,60],[28,54],[52,-8],[9,67],[27,10],[-28,66],[-29,-16],[-75,33],[-34,-8],[-145,76]],[[7838,8612],[-29,26],[49,70],[1,59],[-45,80],[-44,-10],[5,-67],[-65,0],[-25,97],[-42,-12],[-1,68],[-20,43],[24,27],[42,-4],[62,39],[45,-32],[63,66],[33,-4],[22,-48],[54,1],[22,45],[49,7],[19,-67],[29,-32],[32,23],[46,-9],[7,56],[43,-10],[85,19],[55,-17],[17,-44],[-31,-45],[17,-25],[-10,-85],[-35,-70],[16,-38],[46,-22],[50,23],[3,82],[72,39],[21,-91],[44,-49],[30,79],[41,36],[56,2],[78,-61],[-21,-141],[31,-69],[42,-14],[28,-109],[-60,-58],[15,-65],[-83,-71],[108,-41],[12,79],[25,39],[51,35],[37,-22],[-39,-72],[60,-8],[4,-86],[-22,-66],[18,-33],[-25,-56],[28,-30],[204,4],[21,65],[40,11],[24,35],[-38,44],[97,53]],[[9326,8181],[-12,-59],[13,-56],[82,-2],[-47,-70],[49,-100],[-54,-25],[-7,-33],[86,-38],[51,-167],[-26,-23],[-51,12],[-32,-32],[22,-36],[-30,-79],[39,-79],[53,-31],[-25,-73],[44,-41],[-26,-60],[-36,-44],[3,-117],[28,-52],[5,-48],[40,-46],[102,-85],[48,3],[44,-38],[10,-70],[-49,-39],[-17,-76],[14,-29],[48,11],[-11,-67],[32,-37],[-10,-69],[85,-8],[58,-61],[66,10],[4,-81],[66,-25],[62,-78]],[[10047,6143],[47,-86],[27,-27],[30,-91],[-29,-44],[14,-55],[-7,-57],[13,-92],[-52,-24],[41,-47],[-2,-70],[-58,-62],[20,-26],[-26,-91],[10,-48],[61,-52],[31,0],[9,-66],[30,-15],[-2,-112],[-70,-58],[-66,-5],[17,83],[-40,43],[-38,-42],[-5,-72],[-47,-12],[-38,-33],[-8,88],[-46,42],[-20,-28],[-108,74],[9,-64],[-37,-19],[-3,-52],[95,-151],[56,-54],[-57,-19],[-9,-51],[25,-20],[21,-100],[-29,-41],[5,-54],[-15,-47],[-70,10],[-75,-33]],[[9651,4463],[-25,6],[-42,110],[-35,27],[-70,4],[-65,27],[-60,70],[-75,32],[-36,52],[-41,17],[-77,-35],[-62,-5],[10,72],[-56,59],[-64,-33],[-52,0],[-4,-42],[-59,-91],[-50,-6],[-26,-66],[-33,-27],[-185,20],[-16,-60],[-72,-44],[-13,-35],[-71,-8],[-42,43],[-49,24],[-93,-7],[-62,-47],[-23,-46],[-74,29],[-33,49],[-71,34],[-62,-12],[-65,-37],[-52,12],[-16,31],[-84,-6],[-22,22],[16,78],[-43,31],[-15,-44],[-90,10],[-40,22],[-25,-31],[-37,20],[-13,118],[-108,5],[-71,-19],[-31,81],[-26,-4],[-14,-67],[-44,-35],[-39,0],[-38,-59],[-64,42],[-125,-5],[-38,-82],[-46,28],[-48,-28],[-6,-81],[-80,-17],[17,-73],[-51,-49],[-78,19],[-23,41],[-46,7]],[[6418,4504],[-16,-58],[33,-69],[41,-6],[43,-59],[-10,-46],[-44,-14],[-57,-82],[16,-26],[-33,-104],[4,-37],[-47,-17]],[[6348,3986],[-43,0],[-68,42],[-25,40],[-47,-22],[-32,28],[-75,-22],[-71,29],[-62,4],[-124,-84],[-9,-50],[21,-38],[-36,-57],[51,-40],[-18,-59],[-78,-6],[-31,-41],[-35,81],[-74,-3],[-79,56],[-8,104],[8,36],[-69,34],[-29,-64],[10,-40],[-35,-32],[-28,31],[-88,43],[-9,57],[-32,59],[59,77],[-13,39],[33,54],[-10,50],[16,85],[-67,20],[-49,57],[-18,50],[10,47],[-6,84],[50,48],[-34,56],[5,58],[23,10],[19,83],[-92,-3],[-42,42],[-91,49],[-69,-9],[-78,75],[-38,4],[-53,36],[-130,25],[38,40],[-30,48],[-38,15]],[[4628,5212],[17,28],[0,73],[34,52],[70,0],[26,76],[34,31],[60,0],[35,32],[43,73],[16,79],[37,123],[42,94],[72,116],[38,79],[80,36]],[[5232,6104],[99,84],[44,85],[15,98],[36,87],[83,118],[33,195],[-10,58],[37,109],[45,80],[-42,28],[32,57],[86,66],[41,60],[53,27],[12,50],[-70,49],[-1,65],[61,59],[39,100],[-50,-5],[-28,44],[68,54],[27,116],[-21,29],[-96,4],[-25,56],[43,40],[-46,80],[-42,173],[-20,48],[17,106]],[[5652,8324],[40,22],[52,0],[35,-54],[33,-6],[69,-90],[14,-41],[61,-68],[69,13],[67,86],[-24,69],[-16,105],[-21,63],[186,54],[-11,-45],[20,-36],[5,-120],[50,-121],[39,-38],[88,-39],[61,-3],[43,45],[12,-75],[38,-55],[32,42],[76,14],[37,-42],[-1,-36],[-50,-64],[-54,61],[-56,-52],[17,-68],[-9,-97],[-53,-15],[-6,-56],[41,-29],[18,46],[54,-42],[40,57],[43,30],[19,81],[26,-21],[33,42],[50,21],[-41,56],[25,54],[45,57],[54,15],[59,-27],[58,3],[21,73],[33,37],[76,-12],[15,-59],[45,43],[-28,46],[-59,37],[35,118]],[[7157,8303],[39,-15],[84,22],[122,-11],[55,17],[57,92],[45,29],[-23,37],[9,45],[78,58],[51,-34],[60,40],[43,-45],[50,9],[11,65]],[[6268,1601],[37,-88],[-61,17],[-27,63],[51,8]],[[6348,3986],[-9,-43],[23,-57],[-58,-32],[-14,-30],[17,-64],[-74,-40],[-39,3],[-18,-78],[84,-91],[10,-118],[26,-57],[62,-24],[-8,-47],[-42,-29],[16,-39],[84,-27],[11,70],[98,0],[31,-41],[18,-71],[54,-28],[48,-101],[127,-43],[32,13],[19,-58],[39,-20],[37,-64],[-49,-42],[-57,-3],[24,-70],[106,-37],[30,-166],[-1,-115],[-19,-38],[82,-5],[47,24],[-11,-86],[64,-17],[93,-58],[28,-66],[-39,-57],[-29,-76],[-33,-2],[-42,58],[-42,-7],[39,-149],[-28,-25]],[[7085,1933],[-20,27],[-49,9],[-19,-39],[79,-96],[56,-48],[55,-26],[43,-44],[29,6],[52,-50],[15,-107],[72,-87],[-11,-64],[-63,14],[-87,-11],[-58,76],[-71,-7],[-85,39],[13,47],[86,-68],[42,27],[-29,39],[-155,79],[-54,-6],[-84,37],[-41,-12],[6,-39],[105,-57],[31,-40],[-35,-50],[-114,-74],[-100,-34],[-41,15],[-4,50],[-50,40],[16,63],[-27,45],[-45,-1],[-42,98],[-81,-71],[-1,-42],[50,-7],[13,-55],[-14,-53],[-76,52],[-65,12],[12,93],[-48,42],[26,55],[37,26],[-57,46],[-42,-35],[-26,54],[-6,57],[-29,4],[-24,46],[-32,-127],[-51,9],[-17,123],[-53,3],[-28,-47],[-49,-18],[-72,-51],[-69,10],[-34,-31],[-53,-94],[-10,-56],[-63,-47],[-27,-43],[36,-51],[-34,-33],[134,-115],[61,16],[65,-8],[69,88],[52,-28],[64,38],[-5,-75],[-19,-29],[20,-108],[-49,-61],[-46,18],[20,41],[-28,42],[-94,34],[-16,-58],[-56,-14],[-58,-59],[22,-47],[61,-11],[-134,-52],[-81,37],[-31,-40],[-116,17],[-73,66],[-1,60],[-21,18],[-109,7],[-76,30],[-87,-97],[-36,5],[-29,-43],[-44,2],[-27,-27],[-30,-67],[-47,24],[-103,-51],[-45,21],[-94,7],[-24,-47],[-69,10],[-21,41],[7,42],[-43,60],[-48,4],[-62,-24],[-41,21],[-27,-68],[-34,-42],[-98,-46],[-71,-10],[-46,-31],[-65,9],[-63,80],[95,48],[-35,75],[-48,18],[-58,-73],[-67,47],[5,52],[-38,42],[-15,57],[-65,63],[-38,52],[-14,140],[56,56],[18,76],[-38,117],[-2,34],[44,151],[29,70],[-16,94],[15,58],[45,59],[-5,82],[16,47],[73,114],[-23,107],[-86,114],[5,88],[-10,91],[22,79],[-5,61],[38,44],[17,101],[61,88],[33,85],[47,47],[52,217],[10,76],[28,30],[68,34],[18,56],[-29,148],[8,100],[65,189],[7,119],[59,44],[20,34],[3,179],[-7,100],[62,112],[26,85],[106,68],[154,202]],[[9651,4463],[9,-19],[6,-18],[-5,-40],[-39,-2],[-83,-47],[-18,-64],[-84,-10],[-68,63],[-36,-32],[-113,-44],[-17,-52],[31,-26],[-52,-41],[-8,-50],[-56,-38],[-50,-70],[72,-40],[-4,-56],[28,-19],[72,-151],[50,-67],[7,-101],[-18,-49],[51,-110],[4,-98],[47,-180],[65,-75],[9,-45],[-14,-70],[22,-74],[-37,-94],[16,-55],[-33,-50],[-10,-98],[-61,-29],[-4,-53],[56,-67],[-21,-106],[1,-144],[17,-91],[50,-92],[-80,-36],[-69,-68],[39,-52],[81,-42],[-12,-66],[6,-79],[51,-58],[-25,-45],[3,-52],[-107,-77],[-28,31],[-20,62],[-127,5],[-94,-107],[-41,20],[-106,19],[-29,38],[-51,15],[-58,-24],[-5,-48],[-59,-25],[-14,-55],[-90,-78],[-107,-44],[-62,11],[-15,23],[-153,-97]],[[8261,1130],[-115,12],[-46,57],[-4,43],[-72,125],[-29,-5],[-106,30],[-61,40],[-126,-27],[-84,47],[-106,76],[-55,57],[-33,109],[-69,35],[-75,55],[-43,11],[-33,48],[-119,90]],[[11100,959],[-32,94],[3,34],[77,28],[76,62],[5,23],[-41,95],[-50,26],[14,76],[-74,-12],[-62,43],[-55,-37],[-60,-2],[-40,21],[50,113],[-5,30],[66,60],[-46,23],[-74,-89],[-60,-48],[-58,44],[26,51],[12,176],[43,24],[46,-5],[6,48],[-70,52],[-3,58],[37,70],[14,65],[-50,21],[79,72],[-27,33],[26,136],[71,225],[22,25],[-30,44],[-10,57],[18,42],[-45,33],[-77,-20],[52,151],[53,37],[-49,227],[62,9],[77,-17],[93,157],[28,164],[55,-8],[42,-53],[-7,-46],[38,-29],[30,33],[112,-35],[75,-8],[-30,164],[46,49],[-15,62],[40,21],[41,-65],[54,42],[-15,92],[35,95],[62,-3],[31,118],[46,85],[12,56],[-32,63],[50,54],[43,6],[48,42],[119,31],[-6,60],[-49,27],[-23,-35],[-38,79],[-63,18],[-22,33],[-4,98],[-58,42],[-123,52],[10,34],[53,-4],[14,95],[-79,13],[-13,56],[-89,-23],[-64,0],[-61,69],[40,25],[-86,139],[-11,56],[-30,41],[9,35],[-18,79],[35,12],[-22,66],[29,66],[-66,31],[39,61],[-58,21],[-4,52],[44,-4],[61,46],[-39,69],[-40,1],[-12,48],[-62,31]],[[11212,5733],[58,16],[25,39],[76,28],[91,77],[47,13],[-10,48],[-35,25],[75,106],[55,20],[59,-8],[27,76],[33,49],[-5,45],[91,129],[98,-2],[42,-72],[3,-58],[133,-47],[48,69],[36,-8],[79,55],[14,28],[-22,119],[-25,28]],[[12205,6508],[20,15],[92,-64],[113,-6],[25,43],[87,-20],[-17,-91],[-31,-45],[59,-25],[-4,-55],[128,-210]],[[12677,6050],[72,-32],[7,-36],[87,-10],[102,-64],[-7,-53],[58,-83],[-47,-17],[-4,-117],[-34,-12],[6,-76],[40,-7],[29,-35],[-6,-37],[-55,-45],[-20,-37],[28,-44],[-132,-41],[4,-52],[26,-19],[-34,-86],[79,-76],[-8,-58],[60,-54],[-43,-107],[179,-68],[12,41],[49,-7],[117,-85],[59,-16],[38,20],[92,-40],[41,11],[12,-39],[-6,-127],[20,-67],[-29,-49],[38,-30],[69,2],[6,-27],[-29,-96],[19,-19],[41,-99],[41,-35],[70,44],[27,-13],[117,3],[61,-17],[19,-89],[49,-52],[1,-66],[50,-47],[27,2],[5,-72],[18,-21],[134,21],[14,-51],[42,32],[63,18],[14,54],[41,13],[12,37],[60,7],[9,42],[45,46],[-1,76],[37,14],[80,58],[57,-10],[43,-27],[17,-60],[47,5],[126,-185],[42,-6],[23,-35],[87,22],[33,-42],[62,-42],[110,24],[40,-16],[57,-50],[59,-100],[49,-58],[51,-8],[9,-39],[-24,-57],[67,-83],[50,-24]],[[15653,3370],[-148,-13],[-30,-23],[-38,-107],[-44,-51],[-63,-24],[-29,-83],[-38,20],[-43,-75],[10,-80],[52,-86],[128,-123],[49,-72],[24,-127],[36,-46],[81,-28],[97,-174],[38,-98],[47,-93],[-1,-29],[-41,-51],[-43,-99],[-56,-55],[12,-74],[-21,-62],[-31,-12],[-36,-74],[62,-50],[129,-3],[37,49],[79,-31],[37,-60],[45,-36],[-8,-64],[43,-103],[-3,-46],[-72,-93],[20,-49],[-63,-18],[-2,-35],[29,-59],[-54,-87],[33,-33],[3,-115],[-47,-31],[-56,-70],[-34,63],[-28,-27],[-47,20],[-95,63],[-54,56],[-9,34],[-62,31],[-10,55],[-66,-4],[-52,42],[-33,82],[62,111],[38,7],[-78,77],[-19,-2],[-48,65],[-7,55],[-51,48],[-148,4],[-24,-31],[-55,14],[-50,-8],[-24,-27],[-48,-122],[-85,15],[-54,-40],[-104,87],[-27,66],[-27,21],[5,65],[-30,16],[-145,-45],[-57,48],[-134,-33],[-49,-31],[-31,53],[12,60],[40,78],[-34,33],[-50,-84],[-95,-64],[-47,2],[14,-75],[28,-42],[38,-97],[21,-99],[-50,-34],[-15,35],[-86,-32],[-55,22],[-72,-6],[-48,32],[-92,-25],[-14,41],[-176,-37],[-43,3],[-110,-46],[-37,-67],[-40,-1],[-107,33],[-79,-13],[-100,5],[-88,-19],[-61,30],[-60,-40],[-41,-93],[2,-107],[-34,-39],[-148,-35],[-40,15],[-70,0],[-31,31],[-56,-55],[-72,-108],[54,-28],[16,-63],[-171,10],[-16,-39],[-88,-42],[-3,-72],[-38,-34],[-111,-2],[58,127],[-92,4],[-20,-22],[-93,-23],[-59,-30],[-31,-62],[-202,5],[-40,-10],[-79,21],[5,63],[25,45],[-56,78],[-107,122],[-63,-23],[-25,14],[1,58],[76,67],[-42,68]],[[12677,6050],[28,103],[4,102],[67,-15],[30,34],[73,28],[76,-38],[11,-58],[73,-25],[35,5],[63,106],[126,13],[73,-80],[78,-128],[-11,-68],[112,64],[19,-36],[101,-7],[81,-33],[29,-68],[5,-73],[56,12],[48,-106],[-56,-69],[-9,-113],[15,-84],[-26,-45],[1,-67],[67,-11],[4,38],[137,49],[77,78],[11,54],[33,3],[30,43],[94,14],[-4,31],[55,25],[39,-7],[40,-47],[60,35],[75,71],[11,82],[33,57],[34,14],[-41,58],[29,172],[56,-30],[23,17],[-12,55],[16,99],[-36,64],[65,79],[55,-15],[12,66],[49,49],[194,49],[22,24],[54,-30],[34,2],[96,62],[42,-30],[27,56],[59,-16],[55,25],[134,31],[43,-37],[30,16],[12,63],[61,-37],[64,80],[67,0],[97,-22],[38,-32],[6,-61],[83,-53],[61,-10],[2,55],[67,78],[-11,31],[25,58]],[[16153,6849],[13,-34],[-14,-72],[78,-79],[68,-31],[88,25],[28,-7],[123,-108],[69,-108],[47,-27],[27,-172],[-14,-57],[89,-78],[36,-11],[80,-77],[28,3],[-3,97],[49,18],[32,-21],[93,1],[11,-56],[33,-40],[37,-10],[35,-48],[38,-116],[36,-48],[100,-7],[30,32],[45,-73],[-1,-30],[34,-76],[61,-25],[6,-55],[43,-65],[-25,-57],[60,-37],[-22,-59],[-5,-83],[-53,-59],[85,-83],[-44,0],[14,-74],[-13,-78],[29,-78],[-11,-50],[-46,-60],[13,-48],[-81,-110],[-36,37],[-23,-71],[8,-51],[-45,-61],[-49,17],[-89,59],[-25,53],[-61,19],[-58,55],[-41,-35],[-31,8],[-85,88],[-49,9],[-6,-59],[-63,-59],[-56,28],[-24,-58],[24,-36],[-8,-52],[26,-43],[-68,-190],[28,-92],[-41,-104],[-10,-78],[-20,-37],[-89,-68],[-94,-116],[-141,-93],[-26,-8],[-150,8],[-117,-59],[-112,-8],[-47,-38],[-88,-36],[-36,-61],[-76,-88],[-48,-28]],[[12205,6508],[-41,46],[-32,95],[-61,-2],[-14,42],[20,50],[-7,49],[-37,23],[13,54],[-98,39],[-14,81],[105,10],[-39,77],[22,30],[-56,34],[-39,74],[-31,-16],[-93,29],[-37,73],[72,66],[53,-34],[17,35],[112,-11],[53,-39],[124,85],[26,110],[60,69],[-5,26],[43,46],[26,63],[62,49],[29,-24],[101,-35],[49,21],[-4,60],[53,73],[34,75],[-9,37],[-40,16],[-17,54],[-64,6],[25,140],[-74,12],[-10,19],[137,97],[-24,97],[40,40],[47,18],[-13,49],[-48,38],[4,61],[-32,52],[8,26],[-44,32],[41,7],[-7,63]],[[12591,8795],[8,33],[70,43],[-6,59],[79,44],[4,61],[35,93],[61,15],[40,-27],[19,59],[45,27],[38,46],[109,-9],[37,41],[42,-14],[34,26],[30,125],[-26,22],[-21,112],[-40,30],[-2,100],[125,2],[39,29],[110,14],[69,20],[151,29],[28,-25],[49,57],[55,-67],[55,33],[157,53],[22,26],[-7,89],[97,10],[43,82]],[[14140,10033],[111,-10],[40,-84],[22,27],[63,-80],[76,-44],[65,-10],[21,-58],[40,30],[39,-50],[30,3],[1,-83],[-44,-34],[17,-48],[133,-39],[21,-17],[4,-69],[-61,-70],[-22,-80],[-32,-9],[1,-69],[-56,-15],[1,-66],[-20,-18],[22,-66],[-13,-19],[-141,-86],[-8,-32],[26,-76],[29,-8],[38,-96],[84,-31],[9,-26],[81,-4],[18,-74],[-27,-78],[23,-95],[40,11],[37,-45],[3,-45],[29,-36],[-14,-59],[39,-113],[71,-43],[52,-12],[-10,-81],[20,-116],[21,-64],[-5,-58],[51,-30],[66,-5],[13,-39],[40,-14],[55,-55],[1,-70],[54,-58],[-8,-40],[52,-23],[101,10],[63,-43],[8,65],[88,-26],[66,-2],[50,-32],[69,-78],[56,-28],[-7,-92],[18,-54],[47,1],[11,-49],[45,-11],[12,-65],[62,-39],[-9,-55],[43,-23],[43,-54],[49,-30]],[[12591,8795],[-36,-66],[7,-23],[13,2],[23,-16],[-17,-30],[19,-45],[-8,-50],[-31,-38],[-73,34],[-95,-22],[-26,-57],[-56,3],[-41,-23],[-40,13],[-6,59],[-44,98],[-48,-17],[-71,-100],[-46,-27],[-33,-88],[-46,6],[-25,-34],[-98,-9],[-62,-27],[-160,13],[-45,39],[-60,130],[-53,-49],[-32,28],[59,35],[-6,74],[-75,81],[-56,-10],[-121,69],[18,55],[-45,97],[27,57],[-33,61],[-50,-1],[-39,-69],[-90,-14],[-29,-44],[-50,27],[-55,69],[-57,18],[-41,42],[-77,-30],[-55,-69],[72,-28],[-3,-57],[-38,1],[-69,-44],[-36,74],[-44,-10],[-148,61]],[[10360,8944],[-28,57],[-15,80],[-31,9],[-98,-39],[16,63],[-72,59],[12,46],[-31,46],[43,122],[95,-27],[12,21],[79,-4],[97,-62],[40,-7],[53,26],[6,34],[54,37],[61,4],[17,99],[114,128],[39,92],[-28,48],[37,49],[16,130],[23,35],[52,-31],[33,4],[39,43],[-14,50],[25,40],[43,23],[-6,119],[42,94],[-53,56],[-17,-35],[-117,-11],[-37,17],[-11,61],[19,38],[-3,65],[-59,67],[3,38],[-56,24]],[[10754,10652],[-7,62],[96,-24],[68,38],[15,-41],[39,-9],[60,50],[-13,85],[-94,17],[-21,56],[-52,-10],[-64,84],[-58,19],[-1,42],[30,42],[-30,68],[76,-20],[54,51],[26,48],[41,-23],[58,49],[69,-18],[25,33],[57,-44],[86,26],[56,-70],[43,-74],[25,49],[86,-18],[23,-56],[68,32],[35,44],[57,4],[97,-132],[-61,-80],[32,-84],[83,-14],[32,39],[109,-86],[27,25],[-1,55],[25,60],[-20,44],[11,119],[40,30],[-30,122],[-22,29],[18,60],[-13,86],[-40,100],[27,40],[146,34],[-4,62],[56,11],[-7,33],[58,9],[39,-27],[80,1],[38,-58],[-41,-39],[-4,-164],[68,-45],[67,2],[14,-57],[-20,-52],[89,-20],[2,-77],[99,46],[6,31],[59,25],[67,-57],[55,20],[172,29],[64,55],[91,6],[60,-99],[62,42],[30,-3],[43,55],[75,31]],[[13385,11351],[58,-30],[78,-102],[3,-137],[58,-15],[53,-56],[70,10],[63,-14],[19,-40]],[[13787,10967],[54,-37],[-7,-57],[39,-51],[-29,-28],[-65,-27],[25,-88],[108,-39],[97,-138],[32,-74],[-46,-90],[10,-115],[24,-34],[40,2],[84,-86],[-13,-72]],[[9326,8181],[-29,161],[63,87],[41,34],[58,-41],[34,-57],[90,29],[0,85],[40,23],[143,-50],[41,29],[102,-17],[39,34],[51,9],[-56,114],[-10,43],[59,26],[-65,35],[-3,41],[46,58],[71,51],[33,-8],[30,57],[63,-32],[60,6],[11,38],[122,8]],[[11212,5733],[-68,69],[-77,0],[-22,45],[-90,10],[-28,35],[46,25],[-6,60],[-73,30],[-35,-33],[-2,-51],[-83,33],[-23,-75],[-88,18],[-42,47],[34,26],[21,81],[-48,103],[-54,5],[-38,35],[25,88],[-81,4],[-22,61],[-94,-5],[-31,-41],[15,-46],[-88,-11],[-38,20],[-143,-27],[-5,-58],[-27,-38]],[[7157,8303],[-44,88],[-37,1],[2,68],[77,76],[3,65],[-32,31],[11,97],[75,25],[51,144],[-51,44],[-47,13],[15,54],[46,30],[-11,43],[-47,14],[-38,-26],[-31,99],[-96,174],[11,35],[-27,283],[-23,123],[67,3],[-23,43],[-10,135],[-42,23],[-59,-15],[-20,38],[50,62],[-4,80],[46,72],[63,15],[95,3],[19,35],[52,-1],[77,-51],[78,56],[-19,37],[117,30],[37,-24],[73,8],[48,-30],[44,28],[31,-36],[71,-1],[46,-120],[42,-48],[50,3],[94,35],[76,17],[14,52],[-25,114],[31,16],[14,65],[-66,27],[7,63],[31,8],[-46,113],[86,28],[19,-37],[76,29],[14,-39],[48,2],[69,48],[40,-11],[32,26],[-65,32],[30,76],[113,40],[94,107],[3,111],[-32,54]],[[8550,11105],[23,21],[35,145],[-18,40],[24,45],[40,-27],[61,15],[13,-35],[103,-56],[51,5],[79,42],[157,132],[17,50],[46,20],[51,103],[0,77]],[[9232,11682],[107,102],[38,68],[74,-75],[42,24],[98,18],[10,-50],[30,-7],[22,-92],[54,-2],[111,-74],[54,8],[24,-41],[-12,-61],[27,-12],[49,-111],[48,-5],[19,-41],[-37,-38],[8,-37],[80,-20],[57,37],[31,-97],[52,-2],[17,-37],[63,-37],[46,35],[39,-99],[86,-12],[-19,-80],[29,-65],[-26,-86],[39,-74],[-17,-12],[19,-77],[114,-10],[51,16],[20,-51],[46,-25],[33,28],[-4,64]],[[11100,959],[-72,-8],[-30,-24],[-59,-5],[-79,-45],[-30,21],[-14,54],[-87,12],[-52,23],[-40,52],[-91,0],[-83,39],[-55,-129],[-31,11],[-77,-7],[-78,19],[-76,55]],[[10146,1027],[-52,-187],[20,-62],[51,-13],[15,-52],[-10,-54],[23,-76],[-83,-67],[-21,-81],[-40,-48],[-35,-7],[-19,-71],[-65,-69],[-18,-70],[-53,-50],[-22,10],[-74,-68],[-34,1],[-75,-62],[-68,23],[-61,-24],[11,92],[24,-7],[46,45],[-14,109],[73,132],[-23,56],[-31,-31],[-52,33],[-44,-13],[-8,-61],[-53,-6],[-50,30],[-43,-75],[-37,140],[-31,58],[59,29],[22,39],[-26,42],[-5,67],[-47,-11],[-37,38],[1,34],[-39,47],[-77,-25],[-31,60],[18,15],[-67,66],[-4,49],[-50,12],[-43,-31],[-33,45],[-38,8],[-46,-45],[-33,29],[-84,28],[22,44],[4,69],[-55,61],[-55,-2],[-47,-56],[-61,-162],[-37,57],[-45,-3],[-27,25],[-62,2],[-52,49],[-41,2],[-16,46]],[[10146,1027],[41,53],[-9,60],[-71,-10],[-17,-26],[56,-77]],[[16837,19448],[11,-56],[61,-49],[11,-57],[-27,-14],[-15,-74],[21,-47],[86,-15],[76,-62],[8,-80],[74,-20],[16,-46],[72,-16],[-56,-50],[-40,-112],[123,-28],[26,-24],[75,-15],[28,-41],[54,-11],[-53,-109],[11,-55],[-40,-9],[-57,-50],[21,-38],[-64,-32],[-50,-101],[-27,32],[24,71],[-42,54],[-48,-8],[-30,53],[-62,-22],[-65,3],[-45,45],[-78,-20],[-39,89],[-96,-39],[19,-83],[-14,-38],[-72,6],[-3,38],[-98,69],[-68,-30],[-35,62],[-48,-41],[-55,-1],[-9,57],[-111,-20],[-80,-44],[-1,-32],[-75,10],[-37,46],[-39,8],[72,99],[-31,41],[4,55],[32,51],[91,108],[-52,34],[-57,-9],[30,141],[33,-12],[9,109],[32,56],[94,-43],[25,23],[-36,47],[42,79],[96,-5],[40,52],[1,70],[59,-64],[-2,-48],[62,-25],[87,24],[46,68],[61,-46],[59,98],[65,43]],[[16240,14878],[-15,86],[-22,26],[21,82],[-45,46],[10,52],[44,69],[2,69],[-40,55],[-10,67],[-54,3],[-44,44],[46,75],[-61,49],[-29,48],[-61,-47],[-94,150]],[[15888,15752],[229,141],[17,18],[-16,68],[54,74],[-57,47],[21,38],[-35,42],[27,29],[7,99],[-46,67],[-41,122],[61,18],[-3,46],[-38,36],[-30,-21],[-96,-28],[-80,8],[-4,71],[17,35],[-131,13],[-21,57],[-45,10],[10,44],[-94,16],[-2,-24],[-143,8],[-19,118],[-72,-19],[-78,10],[1,41],[-73,45],[-31,-1],[-126,83],[-53,-13],[-9,-50],[-67,-10],[-25,-38],[-141,14],[-7,64],[-82,22],[-31,30],[-10,58],[-44,5],[-23,-67],[-44,8],[-90,91],[-66,10],[-68,84],[-29,82],[-87,41],[-25,96],[-44,29],[-63,113],[96,167],[41,2],[11,63],[-49,42],[-24,95],[27,81],[100,179],[-54,70],[37,24],[-14,38],[20,58],[-64,66],[50,28],[44,103],[19,71],[-38,29],[-24,58],[-42,-33],[-41,62],[-4,49],[-48,21],[-32,-83],[-82,-18],[-39,69],[41,44],[-26,42],[-71,-37],[39,117],[48,51],[-17,25],[-3,158],[70,-26],[60,39],[19,151],[-79,150],[13,79],[30,16],[-38,76],[39,94],[46,1],[29,64],[-31,56],[-26,108],[5,32],[-57,25],[-35,40],[-45,-46],[-86,4],[-29,35],[-86,5],[-10,34],[-47,9],[-109,-5],[-54,-41],[-109,55],[-78,7],[-57,56],[-65,1],[-38,24],[10,53],[41,37],[-42,59],[-94,13],[-49,74],[-71,26],[-65,-39],[-44,30],[3,49],[-36,35],[-49,-15],[-43,26],[34,73],[-43,32],[-54,-21]],[[12674,20748],[-77,23],[-24,33],[-63,-16],[-66,27],[-66,71],[-34,15],[-102,-22],[-99,-59],[-42,-3],[-64,82],[-49,32],[-44,63],[-4,64]],[[11940,21058],[54,-19],[76,9],[153,-32],[4,106],[95,-11],[49,12],[51,-40],[112,-13],[47,48],[-13,44],[42,70],[-27,86],[11,65],[60,12],[89,95],[137,-1],[81,-37],[4,-52],[88,37],[132,4],[-27,92],[100,-21],[68,88],[136,4],[44,91],[98,2],[8,78],[-16,47],[94,54],[-13,63],[63,0],[5,-74],[116,7],[15,39],[60,-72],[41,15],[9,38],[85,16],[35,-91],[43,-29],[59,13],[227,-96],[-5,-61],[80,-36],[38,-90],[48,23],[68,-4],[10,25],[106,-1],[124,-63],[49,37],[71,-1],[13,-83],[125,-35],[78,0],[-19,-55],[33,-62],[45,-4],[56,27],[87,15],[21,-41],[47,-31],[52,50],[100,21],[62,-7],[-34,-71],[32,-53],[97,46],[50,75],[68,14],[24,45],[50,8],[-8,73],[66,7],[43,49],[65,-1],[51,-109],[54,-14],[49,111],[-8,34],[110,86],[87,-26],[52,16],[63,-127],[32,23],[62,128],[15,54],[51,-39],[48,9],[54,90],[36,13],[-15,116],[20,51],[39,-8],[28,43],[1,56],[37,59],[98,18],[40,38],[-15,30],[25,55],[139,95],[27,31],[140,-29],[52,14],[55,74],[-109,54],[-3,64],[17,73],[32,-22],[56,-88],[122,-61],[-8,-111],[94,-62],[-33,-87],[33,-36],[63,32],[121,15],[12,-17],[86,-3],[11,-56],[70,6],[51,25],[37,69],[33,-2],[89,-66],[64,1],[41,40],[38,-42],[3,-109],[-27,-87],[-57,-93],[-211,-214],[-24,-76],[57,-5],[79,27],[88,-21],[24,-25],[122,17],[-9,61],[88,35],[32,94],[71,-9],[62,23],[11,27],[68,21]],[[18898,21805],[-12,-75],[18,-25],[14,-93],[53,-6],[11,-50],[-43,-77],[-49,-57],[-8,-47],[-61,-30],[-25,-107],[11,-53],[37,-52],[-19,-108],[-20,-30],[-9,-91],[-62,-118],[-32,-17],[-71,-78],[-124,-97],[-63,-20],[-140,-94],[-11,-35],[30,-184],[21,-45],[-9,-48],[-61,-79],[-16,-55],[45,-49],[140,-16],[160,-162],[160,-83],[161,-199],[26,-58],[49,-22],[16,-45],[98,-71],[128,-65],[64,-46],[39,-87],[56,-49],[-52,-68],[-26,-82],[19,-75],[49,-65],[-47,-55],[-10,-48],[-66,-79],[-44,-10],[-33,-47],[5,-47],[-27,-64],[39,-76],[0,-73],[20,-90],[34,-26],[17,-69],[-21,-24],[48,-82],[212,-61],[52,-72],[-16,-87],[-44,-46],[28,-67],[4,-58],[-52,-69],[5,-102],[41,-67],[91,-46],[39,-70],[-31,-43],[10,-39],[-18,-71],[-61,-71],[17,-35],[-37,-62],[36,-92],[-31,-55],[-28,-122],[-155,-157],[-28,-3],[-48,-69],[0,-62],[33,-57],[89,-34],[21,-99],[21,-39],[-17,-58],[26,-55],[174,-179],[24,-53],[-10,-121],[26,-75],[-78,-91]],[[19600,15515],[-49,56],[-2,-75],[-72,-93],[-76,13],[-66,-15],[-24,78],[-65,34],[-49,-63],[-71,-34],[-34,19],[-101,-11],[-29,-43],[-70,-26],[-49,16],[-53,-62],[-80,-62],[-10,44],[-108,45],[-99,3],[-36,25],[-83,-2],[-85,15],[3,-72],[-67,-6],[-27,-83],[-48,-22],[33,-47],[-36,-27],[-75,29],[-7,-30],[44,-39],[16,-55],[-43,-23],[3,-74],[-105,-120],[8,-46],[-68,12],[5,65],[-47,7],[-27,-24],[-123,-51],[-44,24],[-275,-74],[-56,9],[-49,37],[-19,-23],[-196,7],[-15,45],[-39,13],[-42,-23],[-57,18],[-8,64],[-129,35],[5,36],[-83,26],[-59,91],[-53,-75],[-42,2],[-99,-39],[-59,-42],[-1,-44],[-58,4],[-9,-29],[-86,10],[-15,35]],[[6743,20658],[-55,16],[-14,28],[-77,1],[-26,-18],[-132,76],[-107,-15],[-41,33]],[[6291,20779],[-5,113],[-78,39],[-36,114],[-59,71],[-16,90],[-27,26],[-66,11],[-111,53],[-59,45],[-43,95]],[[5791,21436],[79,-2],[20,-38],[52,-30],[55,35],[45,-17],[-38,-44],[26,-61],[76,53],[80,-79],[74,25],[69,-11],[28,-56],[127,-12],[36,10],[55,-24],[4,-33],[72,-52],[84,-4],[54,67],[44,-14],[61,-77],[-55,-57],[14,-72],[-5,-66],[22,-75],[-14,-51],[-64,-42],[-5,-41],[-44,-10]],[[5807,22319],[24,74],[28,33],[81,50],[5,32]],[[5945,22508],[3,36],[-117,134],[-45,102],[82,20]],[[5868,22800],[30,5],[129,-53],[69,45],[43,-46],[-55,-50],[29,-83],[29,-23],[-10,-86],[28,-33],[-72,-97],[-63,-16],[-39,14],[-179,-58]],[[9822,22178],[-106,-53],[-36,-68],[-45,-16],[-106,5],[-45,31],[-42,61],[-61,16],[-65,96],[-61,38],[-50,-103],[-99,-71],[-78,55],[-16,-35],[-56,14],[11,42],[-38,72],[-97,-67],[-134,114],[6,85],[-86,53],[28,61],[-24,58],[20,47],[-98,12]],[[8544,22625],[15,71],[74,140],[101,-108],[45,5],[128,152],[24,81],[34,11],[99,-24],[56,8],[-1,68],[19,42],[93,2],[55,25],[29,55],[6,58],[76,-17],[101,64],[53,-8],[13,-30],[-75,-64],[4,-51],[-32,-40],[113,-90],[47,-103],[-63,-47],[15,-102],[-95,-25],[-9,-50],[27,-23],[-21,-45],[30,-90],[55,-27],[46,27],[18,-75],[44,-57],[57,-30],[11,-39],[63,-45],[62,-7],[-39,-59]],[[5652,8324],[-30,78],[-60,80],[-27,115],[-29,67],[2,51],[53,54],[121,50],[42,75],[52,59],[-17,39],[-71,-12],[-40,15],[-32,96],[-59,94],[12,92],[-23,48],[-38,12],[-33,85],[26,105],[-27,113],[-44,88],[-71,72],[-39,60],[-62,62],[-128,29],[-128,-42],[-108,-61],[-96,-17],[-153,-88],[-177,-21],[-50,39],[-14,85],[-62,55],[-54,64],[-58,42],[-12,55]],[[4218,10062],[65,65],[75,-1],[-13,55],[30,86],[88,-32],[41,25],[54,-8],[-12,55],[23,34],[-94,68],[-17,67],[61,43],[23,52],[59,8],[13,37],[106,30],[24,-38],[46,10],[58,49],[-45,42],[-29,56],[23,34],[80,7],[6,-21],[71,-23],[33,59]],[[4987,10821],[19,12],[87,-16],[64,45],[50,10],[23,-59],[54,-40],[75,52],[57,-23],[75,78],[27,54],[-30,57],[-49,17],[44,132],[38,53],[55,18],[38,44],[53,33],[84,29],[15,-29],[75,-37],[69,72],[85,-6],[43,10],[12,50],[-55,39],[153,150],[89,3],[55,-38],[61,14],[58,-34],[37,34],[52,-73],[-15,-57],[41,-32],[77,-5],[22,52],[55,-68],[44,38],[88,-20],[24,54],[66,23],[-20,51],[29,93],[146,21],[2,-103],[26,-54],[53,4],[32,-82],[50,3],[91,34],[45,-1],[86,54],[61,13],[13,-66],[47,-27],[24,94],[85,-42],[47,-89],[-38,-95],[127,-39],[32,52],[49,10],[15,55],[57,65],[28,1]],[[7989,11409],[20,-101],[99,-66],[50,-46],[126,44],[43,-41],[89,-37],[41,-41],[93,-16]],[[4987,10821],[-7,80],[-36,37],[11,42],[-56,33],[-36,132],[-43,41],[-58,27],[2,45],[-67,3],[-21,66],[21,94],[44,31],[-51,72],[-14,76],[4,64],[22,38],[78,80],[47,30],[37,-14],[10,-39],[77,-14],[59,86],[44,128],[-53,51],[28,81],[-68,97],[0,49],[35,54]],[[4996,12291],[37,35],[52,133],[-32,98],[-35,27],[-23,76],[89,54],[18,50],[49,56],[78,64],[85,113],[49,-17],[30,-58],[69,16],[72,-4],[36,41],[6,58],[85,74],[66,14],[-16,89],[29,31],[-8,56],[42,13]],[[5774,13310],[86,-51],[100,5],[16,-21],[62,-4],[87,44],[81,127],[60,-20],[20,-37],[55,-23],[71,14],[23,-60],[36,-13],[145,0],[96,-17],[83,43],[22,-49],[40,-22],[17,-53],[54,-5],[61,-96],[41,64],[60,-25],[82,19],[42,-72],[-45,-41],[43,-41],[52,-104],[7,-48],[64,-9],[40,-33],[67,15],[62,-31],[19,-62],[104,20],[28,-39],[78,16],[32,-82],[51,4],[22,46],[56,5],[28,-38],[-35,-27],[80,-31],[55,-42],[27,-69],[61,40],[23,39],[61,34],[70,-28],[17,-82],[-10,-53],[35,-117],[56,-44],[-62,-92],[48,-82],[-65,-47],[-11,-33],[-62,18],[-62,48],[-26,60],[-86,-10],[-43,25],[-13,-68],[49,-36],[-33,-85],[-8,-64],[34,-52],[-68,-36],[-36,-102],[3,-59],[-44,-77],[57,-61],[55,-94]],[[5774,13310],[-10,22],[50,47],[12,37],[65,55],[11,30],[-42,76],[24,71],[-57,60],[109,83],[112,-2],[122,-26],[75,51],[63,3],[-60,69],[5,26],[92,87],[49,60],[-19,74],[41,40],[-58,35],[-31,114],[20,43],[-33,42],[-81,0],[-12,-21],[-114,-27],[-42,-50],[-35,3],[-34,72],[-48,36],[65,75],[43,91],[72,72],[35,-14],[29,58],[37,23],[-8,39],[46,16],[71,-18],[89,46],[69,20],[110,-49],[79,56],[110,-12],[19,140],[-65,7],[2,68],[-56,79],[-8,39],[50,34],[128,55]],[[6865,15245],[75,20],[42,-3],[34,-34],[82,5],[35,-32],[-33,-107],[20,-56],[36,-22],[65,12],[38,-16],[79,88],[70,-25],[0,78],[56,60],[50,0],[49,64],[48,-11],[17,38],[-11,51],[31,58],[101,146],[-32,13],[-42,62],[77,39],[121,19],[30,70]],[[7903,15762],[120,25],[-6,-81],[71,-30],[43,48],[48,-52],[98,15],[60,-22],[3,-53],[51,-56],[41,-19],[25,-42],[-15,-35],[-87,57],[-43,-31],[50,-76],[-74,-17],[10,-64],[-73,-49],[52,-91],[74,-91],[-28,-28],[-6,-50],[35,-93],[-32,-34],[-77,-39],[-33,13],[-42,-94],[16,-50],[-42,-10],[43,-68],[30,8],[51,-60],[64,1],[27,-33],[139,-46],[53,-31],[79,41],[15,67],[-65,-23],[-96,165],[80,16],[40,47],[61,25],[38,-8],[5,84],[40,-1],[64,-31],[12,42],[94,16],[72,-89],[-6,-63]],[[8982,14772],[-11,-26],[15,-101],[29,-20],[13,-58],[-22,-39],[68,-26],[30,-61],[46,13],[123,-40],[-30,-41],[47,-56],[-1,-76],[51,-4],[51,-41],[65,7],[16,-39],[61,12],[94,-86],[22,-39],[-50,-36],[7,-81],[-15,-24],[12,-63],[-20,-19],[-69,145],[-84,-65],[51,-60],[46,-6],[2,-36],[-69,-79],[24,-52],[-20,-55],[78,-26],[74,-77],[-54,-99],[-97,-19],[-57,65],[-59,-16],[-90,21],[-57,-24],[-18,-93],[47,-47],[28,-100],[-53,-6],[-85,20],[-91,-5],[16,-71],[60,-56],[43,52],[46,-25],[36,-47],[33,-78],[-70,-45],[-12,-42],[18,-52],[-71,-55],[-40,27],[-54,-43],[10,-43],[-28,-55],[24,-31],[-6,-44],[-52,-13],[24,-50],[-10,-114],[-51,-56],[18,-39],[-56,-51],[-34,-62],[11,-41],[-13,-73],[96,-1],[53,-27],[51,52],[-43,52],[4,36],[49,0],[63,39],[104,-10],[46,-65],[29,-80],[-4,-49],[-52,22],[-45,-47],[25,-52],[-5,-98],[23,-60],[-38,-79],[4,-58]],[[12398,24305],[47,-10],[-12,-81],[-73,-150],[-102,41],[-48,-10],[-25,46],[0,63],[60,45],[85,41],[68,15]],[[17539,24843],[33,-16],[46,-135],[54,-76],[91,-79],[87,-51],[64,-16],[108,-59],[75,-88],[204,-189],[87,-102],[99,-72],[-41,-46],[17,-124],[-38,-37],[-300,-6],[-48,19],[-47,-19],[-64,-75],[-82,17],[-55,32],[-24,-61],[-44,-19],[-77,10],[-92,52],[28,50],[131,22],[62,39],[37,93],[-35,133],[-55,42],[4,71],[28,33],[73,12],[44,-18],[-3,-117],[70,20],[36,-48],[49,-30],[33,143],[-2,60],[-33,71],[-63,-23],[-15,111],[-64,64],[-114,4],[15,-89],[-56,-85],[-100,-28],[28,103],[-16,54],[-84,-38],[-43,-67],[-69,1],[-13,39],[58,67],[37,107],[13,74],[-18,41],[-67,35],[-35,51],[-21,87],[24,34],[83,22]],[[16181,25995],[38,-31],[53,4],[5,-46],[-88,-29],[-12,-34],[-136,-43],[51,121],[40,43],[49,15]],[[16078,26393],[-60,-115],[15,-126],[-71,-67],[2,68],[29,74],[-1,116],[46,44],[40,6]],[[11940,21058],[-45,52],[-73,27],[-62,-27],[-14,50],[35,111],[-31,19],[-96,19],[4,38],[-51,8],[-56,35],[-61,76],[-77,156],[-40,10],[-2,68],[-46,118],[-119,22],[-32,32],[-115,-116],[-70,-40],[-21,27],[-73,11],[-48,35],[-20,40],[-54,22],[-25,55],[-58,44],[-53,-9],[-102,12],[-79,-25]],[[10456,21928],[9,50],[40,25],[3,146],[31,106],[43,24],[91,-23],[19,84],[42,-8],[127,69],[19,55],[53,20],[18,64],[29,31],[-19,117],[60,-35],[98,25],[33,-3],[31,46],[-3,65],[16,95],[47,62],[9,46],[-36,26],[7,67],[-43,54],[-79,22],[-79,-20],[-88,72],[-11,69],[-75,36],[-31,51],[32,121],[-24,92],[-31,39],[0,65],[52,78],[69,14],[37,59],[62,12],[2,30],[59,34],[17,35],[64,-33],[-1,-62],[57,10],[49,34],[-43,33],[-98,19],[32,78],[-13,38]],[[11139,24062],[66,29],[113,85],[127,65],[125,26],[101,-15],[79,20],[60,-97],[86,-54],[-1,-110],[61,-41],[34,1],[58,38],[26,53],[29,-3],[56,-75],[52,14],[41,-14],[-7,-49],[73,-38],[47,20],[44,64],[4,98],[31,33],[-4,69],[39,79],[149,87],[22,39],[-10,60],[62,16],[31,31],[4,49],[-26,41],[-60,-31],[-23,-44],[-88,-85],[-6,61],[40,67],[123,51],[165,167],[174,4],[80,-28],[115,-6],[85,22],[273,98],[54,-7],[86,14],[26,20],[45,-27],[45,28],[53,64],[52,91],[107,90],[184,101],[76,66],[56,91],[88,184],[67,53],[73,114],[26,85],[65,127],[73,-82],[39,-17],[118,-17],[138,-29],[154,1],[161,-8],[225,18],[13,-62],[-115,-51],[-95,34],[-43,-21],[-159,-8],[-43,62],[-62,0],[-88,-79],[-33,54],[-61,-52],[-77,-31],[6,-51],[-58,7],[-77,-63],[-48,35],[-85,-3],[-67,-27],[5,-289],[109,37],[-12,92],[138,32],[-3,96],[45,27],[43,-5],[1,-45],[54,11],[160,105],[-25,27],[105,48],[16,-28],[11,-111],[109,-6],[35,29],[42,-33],[12,-45],[82,-24],[82,66],[4,54],[28,62],[63,44],[61,9],[92,41],[13,33],[59,-1],[13,-45],[-30,-43],[12,-57],[50,-59],[54,11],[46,-63],[-31,-46],[79,-32],[32,101],[232,-9],[7,60],[-58,157],[-44,-23],[-94,17],[47,92],[144,30],[39,33],[7,53],[-62,-2],[7,92],[-69,-26],[-85,38],[-8,84],[36,29],[121,29],[60,-8],[86,-53],[4,56],[128,103],[14,-42],[-24,-79],[24,-36],[-38,-46],[60,-9],[37,64],[59,-72],[-19,-51],[14,-43],[65,-23],[14,-47],[73,34],[6,-36],[-28,-58],[46,-17],[32,-52],[-69,-23],[2,-27],[76,-22],[68,3],[36,75],[-24,60],[3,65],[-99,16],[-7,48],[28,101],[-24,99],[-51,16],[-73,-4],[-47,62],[-62,14],[-25,29],[-3,55],[-28,66],[-97,-75],[11,-42],[-121,-63],[-76,-10],[30,103],[68,126],[-12,74],[-40,-9],[-82,-65],[24,-112],[-53,-31],[-84,-88],[-19,46],[63,32],[42,46],[24,61],[-16,84],[71,89],[82,48],[107,6],[93,31],[113,3],[22,-29],[-23,-60],[-83,-32],[-31,-57],[14,-85],[53,-88],[61,-46],[56,-14],[283,49],[103,4],[58,-35],[41,-48],[4,-71],[-27,-78],[-77,-59],[-55,-21],[-27,-81],[-43,12],[-17,-71],[17,-75],[78,-128],[132,-8],[75,-84],[32,-67],[58,-51],[-38,-98],[-24,-23],[-9,-63],[-133,-20],[3,56],[64,23],[39,36],[-69,36],[28,57],[-22,17],[-86,-25],[-54,-47],[-14,42],[-66,37],[-54,-47],[-97,16],[-88,-64],[-12,-36],[-93,-49],[-20,-60],[-85,-38],[15,-80],[50,44],[35,-35],[16,-62],[-56,-43],[-186,55],[25,46],[-86,16],[-43,-20],[-63,45],[-91,20],[-39,57],[-34,7],[-72,-36],[59,-76],[57,29],[95,-96],[69,5],[53,-18],[30,-40],[20,-75],[90,-140],[71,43],[46,-27],[18,-60],[71,-108],[-2,-39],[65,-90],[46,-12],[-27,126],[115,44],[104,3],[105,28],[160,115],[3,-82],[81,-47],[39,-4],[78,-89],[48,-34],[-28,-38],[-1,-45],[-48,-64],[26,-32],[-53,-55],[-3,-72],[78,-71],[85,-41],[79,-115],[54,-35],[44,-75],[-24,-39],[-85,-38],[-39,-81],[-29,4],[-34,-71],[9,-42],[64,-9],[84,-65],[68,-5],[147,-49],[80,-7],[111,5],[104,-13],[129,-4],[203,-61],[30,-63],[-37,-68],[14,-33],[-15,-164],[38,-58],[-27,-53],[29,-33],[-2,-87],[73,-59],[-11,-139],[5,-51],[-26,-43],[30,-59],[24,-119],[53,-28],[16,-140],[29,-3],[-5,-86],[10,-85],[35,-76],[14,-66],[-11,-57],[33,-23],[15,-63]],[[7903,15762],[-51,-11]],[[7852,15751],[44,22],[-31,71],[36,16],[3,65],[57,36],[81,79],[86,44],[34,0],[8,82],[45,46],[-5,52],[83,76],[66,38],[-9,24],[89,41],[1,57],[78,94],[88,-53],[67,-5],[43,67],[47,8],[52,37],[33,0],[97,58],[31,-34],[43,35],[53,-58],[87,40],[-30,112],[67,2],[19,29],[71,-68],[19,75],[28,38],[73,-12],[156,-5],[34,41],[-23,55],[19,90],[-6,91],[-18,44],[21,53],[-7,75],[-45,39],[-9,66],[43,57],[-30,60],[17,83],[51,53],[53,-31],[31,20],[21,76],[-23,56],[-37,6],[-118,68],[-48,-31],[-30,36],[-154,-25],[-62,11],[-105,-4],[3,99],[64,21],[12,100],[61,12],[37,30],[-1,108],[121,-17],[7,105],[28,8],[-7,66],[-32,57],[67,18],[41,-11],[40,40],[10,68],[36,12],[79,-28],[-5,54],[46,20],[34,72],[-35,75],[37,84],[-34,16]],[[9746,18858],[34,61],[127,65],[20,58],[52,-38],[70,46],[-58,16],[-8,38],[41,22],[30,90],[-74,81],[58,89],[-34,59],[-13,60],[-31,43],[-17,70],[90,133],[-8,60],[98,145],[32,-24],[144,84],[63,0],[60,-62],[50,-71],[86,-82],[64,-28],[55,60],[63,6],[80,45]],[[10820,19884],[-7,-47],[78,-124],[-7,-55],[18,-67],[62,13],[19,-62],[59,-94],[40,-39],[59,-131],[57,-58],[75,52],[28,-6],[-3,-62],[-79,-62],[-5,-80],[47,-115],[110,-139],[-75,16],[-69,-32],[-22,-113],[32,-25],[32,-69],[60,-52],[99,-115],[27,-2],[44,-53],[5,-64],[-69,-38],[-91,-10],[21,-47],[67,-67],[7,-31],[-59,-38],[36,-76],[51,-10],[17,-89],[30,2],[29,-52],[-20,-36],[-106,-26],[-35,-43],[13,-77],[36,-23],[54,2],[1,-68],[-32,-59],[-63,-31],[-19,-30],[-71,-51],[-77,-10],[0,-31],[63,-29],[5,-48],[-19,-59],[-63,11],[-126,-2],[-111,-41],[-94,9],[-49,-9],[-133,8],[-124,-30],[17,-61],[-36,-34],[-86,-29],[-60,12],[-26,-23],[56,-77],[43,-20],[92,-85],[-76,-51],[0,-64],[77,-48],[2,-69],[-37,-61],[-36,-9],[-30,-54],[-40,-6],[-17,-36],[-6,-115],[22,-44],[-8,-58],[24,-49],[77,-36],[13,-70],[38,-76],[42,-31],[-11,-67],[16,-88],[69,-88]],[[10692,15733],[-54,-14],[-9,-32],[-77,-36],[14,-42],[-25,-34],[12,-51],[61,-22],[-21,-71],[-45,14],[-54,61],[-114,-80],[-113,-1],[-30,58],[-64,38],[-83,33],[-51,-22],[-64,8],[3,-94],[-24,-70],[-44,-39],[-13,-46],[-90,-43],[-4,-49],[-121,-37],[-26,-46],[-61,59],[-34,-24],[-9,-66],[-26,-58],[-49,4],[-78,-61],[-81,15],[-11,-54],[-53,39],[-97,-69],[-44,-47],[-48,-9],[-53,-62],[-30,-11]],[[6743,20658],[38,-69],[-65,-87],[19,-73],[40,-75],[3,-41],[45,-94],[30,32],[36,-33],[49,138],[128,-15],[39,-75],[66,7],[15,-25],[102,-11],[109,-75],[-54,-67],[31,-51],[-20,-87],[104,-18],[26,-29],[51,32],[73,-1],[-6,-134],[44,-5],[-15,-51],[53,-23],[20,-96],[114,28],[39,-32],[136,8],[0,-79],[57,-3],[-7,-90],[79,-28],[107,20],[-6,-44],[124,-111],[-13,-29],[24,-62],[67,-32],[59,9],[19,115],[125,-16],[75,-54],[5,-28],[74,-34],[89,28],[40,-33],[89,-21],[67,0],[0,-43],[52,1],[-52,-102],[46,-50],[197,3],[9,-41],[69,-67],[66,-33],[80,56],[84,-46],[114,-45],[14,81]],[[7852,15751],[-94,9],[10,58],[36,29],[-19,57],[29,56],[-28,62],[15,34],[-42,42],[120,148],[15,44],[-18,62],[27,38],[-16,57],[60,50],[-123,3],[-92,34],[-60,-32],[20,145],[-28,74],[-84,9],[-49,47],[-8,52],[20,54],[-7,42],[-37,13],[-74,-15],[-57,-38],[-53,75],[49,49],[1,53],[-45,79],[-5,97],[30,42],[-27,50],[-47,20],[-41,51],[51,50],[-32,55],[-63,12],[-20,-21],[-87,28],[-32,29],[-79,-57],[-11,163],[72,21],[1,98],[54,57],[-82,82],[-129,47],[-25,59],[55,31],[-7,29],[29,110],[46,17],[19,53],[67,-22],[60,59],[31,61],[7,56],[48,61],[0,58],[-65,77],[19,50],[74,67],[-108,73],[-78,16],[-31,-73],[-34,-9],[-24,-72],[-47,-17],[-29,-92],[-113,-93],[-52,12],[-31,-31],[-75,-24],[-151,34],[-90,-39],[-78,73],[13,61],[-30,65],[13,122],[-24,35],[1,79],[-60,31],[-42,51],[-211,-111],[-90,31],[-17,19],[-111,-83],[-10,-110],[-53,-48],[-67,12],[-89,-25],[-31,32],[-107,13]],[[5375,18663],[32,174],[-2,94],[72,37],[14,38],[-85,124],[-39,231],[34,63],[3,69],[62,18],[159,112],[78,-1],[36,37],[16,70],[-25,36],[13,39],[-30,46],[19,52],[73,-4],[87,41],[35,29],[-8,42],[186,72],[36,38],[-14,35],[10,96],[25,71],[44,-17],[46,26],[-17,75],[5,93],[-68,8],[-34,69],[48,114],[33,-6],[25,75],[47,20]],[[12674,20748],[-85,-82],[-35,-49],[-38,31],[-44,-30],[-31,-145],[28,-67],[-78,-7],[-34,-20],[-106,-105],[-70,-14],[-55,-41],[-121,-51],[-2,44],[-60,-25],[-58,-4],[-45,67],[-146,16],[-92,-23],[-44,14],[12,48],[-72,-12],[-60,14],[-85,-8],[-23,-83],[-49,-45],[-63,-80],[-97,11],[-24,-38],[-41,35],[-69,-29],[-76,10],[-64,-59],[-33,-51],[6,-86]],[[5791,21436],[-10,69],[26,182],[-3,116],[23,79],[-20,244],[0,193]],[[5868,22800],[-80,179],[-2,140],[100,262],[30,142],[53,140],[19,-9],[89,139],[121,34],[46,-49],[27,3],[99,-107],[114,-59],[80,3],[158,-17],[160,40],[88,-18],[80,65],[104,38],[203,8],[180,-30],[-5,37]],[[7532,23741],[104,-61],[106,-152],[122,-244],[23,-31],[117,-88],[36,-39],[56,-122],[20,-116],[31,-53],[82,-63],[194,-121],[121,-26]],[[9822,22178],[50,-30],[99,-1],[97,-81],[183,-103],[121,-18],[44,-31],[40,14]],[[2043,22817],[-16,-52],[-50,4],[-79,-47],[35,-48],[-96,-21],[-89,66],[-21,76],[249,46],[67,-24]],[[2285,22950],[-26,-80],[-50,49],[76,31]],[[2674,23091],[-54,-29],[-170,-22],[-194,-32],[-52,17],[253,46],[217,20]],[[5375,18663],[15,-80],[40,-29],[-18,-74],[108,-57],[63,-22],[113,-89],[20,-89],[39,-75],[-23,-68],[17,-97],[-17,-34],[5,-104],[-26,-70],[24,-50],[106,-27],[-5,-32],[-54,-71],[-61,-16],[-90,-64],[-19,-27],[14,-51],[-50,-28],[-142,64],[-28,-27],[-99,50],[-127,-128],[-31,-81],[-83,7],[-135,-68]],[[4931,17226],[-66,39],[-105,-21],[-56,-45],[-28,-51],[-142,58],[-11,38],[-57,83],[34,24],[125,48],[30,38],[80,-2],[-13,161],[51,13],[-39,44],[-73,-17],[-38,24],[-51,-3],[-58,46],[-3,66],[48,79],[-6,118],[68,35],[-53,55],[-1,50],[39,15],[83,-8],[-85,113],[-13,87],[-113,76],[-108,-41],[-79,9],[-181,102],[-25,4],[-26,120],[-31,70],[-46,8],[-140,69],[-59,-101],[-14,-53],[70,-41],[-44,-62],[-27,-90],[-36,-36],[-54,4],[-112,-80],[-92,-51],[-48,-77],[-65,-10],[-55,-75],[-98,-29],[-43,-59],[-176,1],[-144,8],[-71,-19],[-43,-64],[-79,-8]],[[2652,17888],[-52,54],[-33,77],[-2,53],[45,86],[21,79],[35,51],[0,76],[-30,93],[-51,12],[-55,95],[-42,138],[-31,-7],[-34,-77],[-46,-31],[-176,58],[-17,29],[-176,0],[-48,15],[-122,81],[17,122],[-55,119],[78,-17],[23,53],[57,-15],[32,16],[-106,91],[19,94],[-29,43],[62,66],[78,23],[91,-14],[121,19],[90,-23],[54,-31],[83,30],[146,-49],[30,38],[36,603],[46,98],[-12,43],[39,51],[170,277],[69,251],[-30,252],[8,116],[-44,31],[-9,59],[25,85],[60,129],[-11,110],[-47,322],[119,2],[32,40],[-197,22],[-243,-3],[-90,16],[-44,71],[28,171],[-5,64],[34,190],[-4,19],[55,93],[-44,86],[43,13],[63,-10],[36,-40],[88,46],[-42,70],[-59,62],[56,85],[72,58],[25,69],[192,138],[117,42],[137,24],[41,-15],[227,2],[106,-42],[135,31],[256,84],[30,-14],[104,8],[51,28],[97,6],[181,24],[211,-21],[51,-23],[-19,-51],[19,-121],[28,-59],[63,18],[29,-15],[65,-100],[17,-57],[57,11],[15,-57],[-30,-22],[64,-141],[-37,-97],[-130,-41],[-74,12],[0,-83],[30,-72],[49,-59],[85,24],[35,-17],[130,-168],[77,-11],[77,54],[38,62],[-3,40],[40,53],[5,209],[-37,41],[-76,-26],[-77,8],[27,221],[39,60],[67,50],[79,6],[49,-30],[79,-116],[113,-43],[59,-33],[110,-1],[84,-52],[11,-47]],[[3273,23225],[-47,-42],[-122,-32],[-121,0],[-48,-17],[-115,6],[3,38],[97,42],[105,-2],[188,17],[60,-10]],[[3457,23225],[-88,-15],[-68,24],[76,34],[89,-18],[-9,-25]],[[3776,23351],[108,-6],[6,-38],[-125,4],[-127,-18],[-14,-70],[-99,4],[19,77],[48,37],[184,10]],[[4113,23432],[192,-1],[0,-24],[-97,-39],[-70,-12],[-158,10],[37,47],[96,19]],[[4464,23478],[-37,-64],[-49,40],[86,24]],[[681,14086],[-21,35],[-95,-47],[-49,-41],[-39,6],[-20,41],[-12,135],[39,8],[-29,72],[28,17],[87,98],[12,43],[53,75],[33,92],[46,23],[81,76],[-26,105],[-20,35],[40,272],[-23,58],[-2,80],[-29,53],[-49,38],[-44,101],[-59,52],[-20,42],[-67,47],[41,147],[19,34],[-67,13],[-113,47],[-23,131],[6,59],[-81,46],[-83,-1],[-6,39],[85,62],[-28,111],[-73,96],[40,47],[68,-22],[136,78],[18,47],[66,-52],[95,-14],[67,-23],[1,73],[-50,32],[-42,102],[70,25],[64,-45],[22,-65],[43,-25],[103,2],[39,21],[43,-22],[17,-67],[89,5],[35,-52],[99,-30]],[[1196,16401],[57,-90],[71,7],[48,27],[80,-7],[100,-74],[54,45],[34,-29],[53,18],[57,-36],[23,-44],[70,1],[49,-32],[104,-9],[8,-71],[101,-13],[87,-50],[117,62],[60,-98],[-2,-52],[-48,-21],[-7,-78],[-23,-23],[1,-125],[-76,-16],[8,-32],[-46,-47],[18,-70],[-57,-37],[52,-41],[7,-38],[56,-77],[20,-71],[75,-70],[115,31],[31,58],[42,25],[17,-38],[66,-25],[45,-94],[74,-14]],[[2737,15153],[10,-68],[54,-73],[-23,-27],[31,-40],[-57,-63],[11,-86],[73,-25],[23,-36],[-31,-82],[46,-60],[2,-45],[51,-65],[128,72],[36,-24],[-23,-72],[52,-58],[-16,-20],[26,-58],[54,-42]],[[3184,14281],[-21,-54],[6,-136],[21,-12],[-57,-139],[-48,10],[-19,40],[-72,10],[-48,-33],[-77,2],[17,-96],[-91,-26],[-30,53],[-44,20],[-49,-13],[-35,-39],[-33,27],[-44,-6],[-58,-36],[-17,-59],[-2,-102],[-34,-24],[-77,14],[-39,35],[-52,-62],[-85,33],[-30,38],[-51,-39],[17,-55],[-58,-36],[-38,73],[-76,-10],[19,-84],[-50,-16],[-52,-83],[-93,3],[-80,39],[-71,-22],[-125,20],[28,32],[-18,74],[-76,10],[-60,-40],[-25,-47],[-47,32],[40,47],[-66,22],[7,100],[-102,-7],[-39,34],[-58,-8],[-27,87],[-65,110],[-38,8],[9,46],[-30,36],[-113,45],[-69,-77],[-78,66]],[[821,11902],[-29,-76],[-34,-5],[-28,-69],[-42,20],[-8,57],[64,43],[49,76],[28,-46]],[[852,12079],[-78,19],[33,57],[45,-76]],[[3184,14281],[56,41],[18,-40],[110,27],[12,-60],[75,-17],[2,-73],[-22,-59],[37,-30],[42,-73],[107,-155],[-20,-34],[48,-24],[144,21],[55,-37],[-14,-53],[57,-47],[118,43],[27,22],[41,-119],[31,-25],[25,-82],[-22,-92],[51,-73],[70,7],[26,-103],[-14,-41]],[[4244,13205],[-21,-39],[-75,-33],[40,-70],[-4,-74],[-23,-45],[39,-38],[-81,-22],[-66,-92],[-67,-23],[29,-84],[-52,-38],[-7,-61],[-83,9],[-59,-51],[-25,-65],[-62,30],[-68,-46],[-43,-13],[-49,-42],[-77,-8],[-48,-22],[-36,29],[-80,-10],[-18,-51],[21,-68],[-36,-61],[7,-57],[-46,-26],[-73,-17],[-17,-20],[-90,-26],[-88,12],[-12,72],[-29,1],[-19,-88],[-78,-33],[-15,-52],[-63,43],[-53,-93],[-102,65],[-113,-142],[-49,-26],[-54,20],[-65,-32],[20,-68],[-49,-36],[-51,14],[6,-80],[41,-16],[-13,-121],[-55,-15],[-40,-42],[-40,39],[-62,29],[-25,69],[-72,-25],[-25,-77],[17,-44],[-47,-35],[57,-31],[35,-42],[-32,-83],[31,-82],[35,-47]],[[2065,11125],[-66,-2],[-85,-31],[-58,-35],[-86,105],[-25,-17],[-13,-69],[-58,12],[4,84],[-50,48],[-132,-79],[-28,11],[-101,-111],[-58,20],[6,54],[-28,44],[-62,7],[-17,59],[-47,-35],[25,-120],[49,-85],[-45,1]],[[1190,10986],[-14,81],[-125,124],[62,104],[-7,36],[24,73],[-33,52],[-50,32],[3,75],[-72,64],[-25,-13],[-61,25],[-87,-26],[-31,33],[-44,88],[33,82],[31,2],[24,43],[10,75],[73,148],[-16,48],[-45,0],[-33,30],[-26,-32],[-71,0],[21,56],[-21,31],[-56,22],[-87,129],[-9,45],[-101,4],[-89,37],[16,52],[-42,27],[14,74],[-117,88],[20,43],[43,-31],[48,46],[-20,88],[58,45],[70,-16],[32,93],[-29,75],[38,88],[-164,60],[-6,101],[24,74],[-129,-13],[-28,32],[-129,-49],[19,98],[-59,56],[-2,72],[-25,50],[57,6],[46,49],[55,-114],[66,35],[4,57],[89,109],[61,22],[50,68],[34,11],[36,57],[53,15],[132,70],[-81,53],[79,41]],[[4931,17226],[-46,-167],[70,-72],[12,-125],[36,-15],[74,-69],[24,-47],[-50,-78],[55,-55],[12,-57],[55,-27],[31,-59],[-33,-67],[62,-6],[16,-48],[38,-23],[-8,-106],[56,-14],[50,-56],[41,-102]],[[5426,16033],[-54,-111],[-1,-65],[-64,-48],[-106,-19],[-42,90],[-112,109],[-81,13],[-26,-50],[-62,18],[-46,31],[-76,-8],[-91,21],[-41,-17],[-14,-54],[-63,19],[-60,-3],[-16,46],[-115,44],[-7,43],[-119,-52],[-60,39],[-37,-4],[-36,-68],[-50,-20],[-21,57],[-72,-56],[-92,9],[-16,-33],[-84,-30],[-57,-48],[-52,80],[-3,51],[-84,-5],[-14,55],[-107,-69],[54,-82],[-12,-120],[48,-111],[-11,-45],[-141,-105],[-55,13],[-73,-52],[29,-34],[-6,-82],[27,-58],[-56,-27],[-45,5],[-49,37],[6,34],[-50,53],[-53,30],[-52,-1],[-103,-42],[-93,-1],[-31,-21],[33,-82],[-2,-120],[-73,-34]],[[1196,16401],[-11,60],[14,31],[-46,31],[6,43],[82,-29],[51,-2],[25,-33],[82,21],[8,21],[117,51],[66,43],[115,38],[81,41],[51,-21],[54,-50],[148,121],[22,105],[66,19],[-4,106],[-34,16],[-130,110],[-84,41],[-59,0],[15,107],[90,18],[35,39],[21,119],[134,-1],[75,8],[40,35],[19,92],[67,77],[86,13],[51,87],[24,73],[76,-1],[92,35],[11,23]],[[6865,15245],[-54,3],[-109,82],[-25,65],[-75,1],[-15,-43],[-68,10],[-16,-46],[65,-94],[-64,-77],[-42,-82],[-47,-32],[-57,64],[-46,-22],[-71,48],[-51,1],[-30,30],[-54,-10],[-52,20],[-42,-18],[-29,-41],[-54,1],[-61,81],[-36,156],[-26,-13],[-32,64],[-7,92],[73,48],[8,26],[59,24],[88,65],[-6,99],[-15,44],[-43,41],[-41,-2],[-101,64],[-11,75],[-37,54],[-76,-11],[-137,-5],[-102,26]],[[4996,12291],[-59,64],[-87,-31],[-45,9],[2,101],[-89,106],[-69,68],[-4,88],[21,96],[-21,68],[-64,16],[-72,-1],[-51,96],[-118,27],[10,94],[39,63],[-51,11],[-43,35],[-51,4]],[[4218,10062],[-20,58],[-131,-69],[-70,-80],[-15,-36],[62,-29],[10,-37],[149,-87],[14,-55],[64,-50],[-2,-77],[28,-16],[67,34],[102,-46],[44,-66],[19,-108],[63,-5],[47,-95],[-32,-29],[20,-47],[-80,-78],[12,-39],[-1,-123],[-77,-32],[-61,-5],[-18,35],[-83,-50],[-56,23],[-41,-25],[-111,-105],[-17,-28],[28,-61],[-34,-51],[3,-41],[-39,-69],[-58,-46],[-49,-5],[5,63],[23,13],[-6,72],[14,30],[-27,48],[-37,-51],[-52,-2],[-43,-24],[-49,32],[-65,15],[-15,48],[-49,-35],[6,-64],[-150,-17],[-63,-74],[24,-120],[16,-11],[-8,-83],[-43,-15],[-79,38],[-48,-16],[-49,-63],[-20,-53],[-122,-54]],[[3118,8199],[-32,84],[-84,-26],[-31,44],[-48,-5],[-51,77],[-36,24],[-68,-28],[-70,23],[-61,101],[-69,33]],[[2568,8526],[50,54],[-14,61],[38,33],[-38,31],[191,251],[-6,66],[135,126],[56,64],[106,84],[-7,29],[-72,65],[-32,74],[48,57],[45,91],[-72,26],[-70,102],[-14,42],[-81,7],[-24,34],[-24,95],[-50,38],[-1,70],[-35,36],[-65,12],[-32,-15],[-88,73],[-54,3],[8,104],[-12,83],[-46,69],[38,60],[-44,120],[52,103],[78,-50],[50,12],[14,48],[38,33],[28,103],[-62,44],[-99,21],[-48,29],[29,57],[36,3],[28,38],[-20,69],[-125,-72],[-36,-74],[-42,-8],[-58,53],[-43,-8],[-40,23],[-38,-27],[-47,39],[-37,81],[5,37]],[[2568,8526],[-34,-40],[-77,15],[-158,-66],[-33,7],[-25,-36],[-51,-4],[-48,-80],[-48,33],[-78,-79],[-67,-44],[-31,8],[-195,-75],[-29,10],[-98,-88],[-54,83],[-56,-4],[-35,-40],[-52,7],[-50,41],[-103,26],[-34,-12],[-77,20]],[[1135,8208],[3,26],[-49,43],[50,38],[-15,39],[55,39],[48,63],[42,129],[-27,39],[68,86],[47,22],[58,70],[-14,129],[34,25],[-13,54],[25,82],[-10,30],[-64,25],[-37,38],[-36,-40],[-50,-4],[-76,43],[-74,102],[-49,-6],[-15,-39],[-54,114],[-108,40],[-63,70],[-14,130],[-34,49],[-41,23],[-34,-9],[-29,59],[10,47],[-53,53],[1,88],[-36,26],[11,36],[-49,74],[18,15],[-2,78],[34,97],[9,78],[35,25],[-33,98],[16,31],[80,1],[15,34],[-27,104],[-5,68],[48,10],[41,68],[95,39],[42,-5],[32,44],[-14,55],[91,110],[17,-29],[79,-13],[27,33],[49,4]],[[5232,6104],[-39,31],[-166,12],[-36,28],[-80,13],[-52,56],[-150,85],[-47,-8],[-23,58],[-70,54],[-44,-64],[-53,32],[-49,-58],[-37,40],[-43,12],[-45,50],[-35,16],[-56,-65],[-63,-1],[-20,29],[-112,-23],[-17,-14],[-93,35],[-4,67],[-63,35],[-82,-11],[-78,61],[-29,86],[-40,49],[-7,125],[-76,-24],[-53,61],[-153,-27],[5,-38]],[[3322,6806],[-42,4],[-98,138],[-7,76],[-29,56],[110,94],[5,63],[67,-2],[30,48],[-10,45],[30,29],[-3,49],[24,64],[-23,63],[-60,-1],[-23,59],[-54,-3],[-93,36],[21,35],[-28,68],[-56,22],[-32,79],[121,76],[-9,61],[-42,2],[6,77],[40,93],[-50,20],[1,42]],[[3322,6806],[-14,-66],[-72,5],[-36,-27],[-34,-71],[-35,-2],[-83,48],[-108,-31],[-28,30],[-53,-34],[-53,29],[-22,48],[-48,-12],[-11,61],[-35,-8],[15,-80],[-77,-68],[-24,29],[5,62],[-42,118],[17,76],[-79,11],[-54,54],[-34,-23],[-44,49],[-47,22],[-56,-49],[-76,49],[-46,-33],[31,-49],[15,-91],[-32,-6],[7,-57],[-30,-22],[-113,62],[-98,-16],[-61,88],[45,64],[-26,54],[-53,-21],[-22,102],[-57,144],[-157,138],[15,29],[-66,64],[-5,29],[63,8],[-20,37],[8,60],[-51,11],[-50,47],[-5,40],[27,47],[-58,36],[-56,54],[-29,5],[-48,53],[-53,1],[-25,34],[-79,-44],[-59,20],[1,120],[-23,102],[51,72]],[[19600,15515],[-41,-69],[40,-46],[14,-86],[66,-25],[68,-4],[123,-102],[102,-27],[40,6],[22,-37],[47,-5],[60,-109],[-34,-115],[13,-82],[42,-48],[-15,-29],[2,-86],[34,-67],[35,-24],[6,-54],[48,-27],[7,-84],[-16,-69],[18,-26],[-36,-55],[-30,-87],[2,-80],[-34,-70],[17,-47],[-23,-28],[10,-66],[-32,-54],[-3,-114],[-56,-109],[-35,-127],[-39,-85],[-7,-50],[-32,-8],[-22,-80],[8,-32],[-44,-30],[-19,-52],[-107,-118],[12,-56],[-33,-67],[-22,-101],[-75,-12],[-47,36],[-50,-27],[-30,68],[-41,-10],[-57,41],[-36,-3],[-65,33],[38,143],[37,28],[-6,94],[-73,-21],[-75,-41],[-50,40],[44,59],[35,76],[6,87],[-45,48],[-86,36],[-17,22],[-74,20],[21,76],[-37,1],[3,-72],[-41,7],[-45,38],[-71,-59],[-82,27],[-5,41],[-45,25],[-56,-23],[-44,59],[-54,-32],[-33,-100],[-27,-38],[-5,-82],[50,-30],[57,27],[41,-8],[-40,-103],[83,-31],[84,-12],[33,-64],[-37,-27],[5,-63],[-55,-5],[-128,-49],[-83,41],[-69,-46],[-29,-84],[-49,-28],[-88,-14],[-63,-49],[-96,-29],[-24,-48],[-123,-12],[-72,39],[-81,-46],[-32,-62],[-78,14],[-36,-84],[33,-64],[-50,-54],[-40,18],[-15,-56],[-62,-11],[-44,33],[-108,9],[-40,-31],[-27,23],[-48,-60],[-41,10],[-45,43],[-34,-5]],[[17217,12451],[-78,65],[-27,78],[-23,23],[-47,-15],[-49,59],[48,74],[-48,31],[-16,42],[-48,1],[-37,35],[22,59],[-29,40],[-30,91],[-63,35],[-4,77],[-66,72],[14,48],[86,73],[-78,13],[-26,57],[52,90],[-18,25],[-89,44],[-32,40],[-97,-21],[-38,-33],[-110,-21],[-88,-85],[13,74],[40,40],[-32,54],[22,35],[6,101],[-25,146],[14,109],[-57,25],[-30,47],[-35,172]],[[16214,14251],[19,36],[-23,35],[44,68],[-22,30],[17,58],[-26,129],[21,50],[-27,20],[7,69],[-45,25],[61,107]],[[13385,11351],[-44,38],[-10,51],[53,18],[61,90],[39,27],[-45,68],[-56,40],[-67,-1],[-37,84],[31,43],[63,11],[44,49],[-23,62],[145,90],[-21,38],[68,51],[26,-36],[-36,-49],[67,-65],[-1,-45],[-40,-49],[33,-46],[44,-14],[54,25],[3,67],[52,8],[31,-43],[43,55],[-55,24],[11,29],[71,33],[-2,72],[38,14],[55,-25],[42,49],[56,-34],[70,58],[76,30],[52,107],[-105,17],[-26,33],[-21,74],[38,34],[-13,44],[-59,-16],[-25,31],[4,57],[27,35],[51,-24],[45,46],[8,59],[-77,-3],[-23,72],[23,33],[73,-22],[46,24],[90,18],[2,50],[36,32],[92,15],[31,-40],[62,60],[24,87],[61,49],[54,0],[22,49],[38,-25],[48,20],[30,-18],[72,17],[75,-10],[31,57],[-53,85],[-28,137]],[[14929,13352],[36,-7],[116,23],[44,79],[76,-25],[-25,69],[-36,34],[38,32],[-31,89],[26,73],[37,42],[-2,48],[95,-23],[60,-35],[148,10],[39,56],[-38,112],[-70,48],[71,94],[20,90],[25,26],[132,45],[67,-11],[56,-57],[64,-13],[1,40],[126,34],[97,-8],[1,27],[112,7]],[[17217,12451],[-60,-27],[-50,-46],[-102,16],[-63,-56],[37,-77],[-70,-86],[25,-52],[-60,-28],[-71,-106],[-116,59],[-16,59],[-51,37],[-10,-62],[-24,-33],[-65,-22],[-40,-37],[10,-74],[-73,-24],[-27,65],[-40,-3],[-59,-47],[-23,-75],[12,-31],[-76,-124],[2,-43],[-91,19],[-48,35],[-69,-55],[-100,-6],[-29,36],[-45,-88],[-6,-144],[-53,-47],[-28,-51],[-104,-29],[-259,174],[-54,-38],[-133,-62],[-11,-38],[-49,-49],[-144,12],[-56,16],[-37,-36],[-44,6],[-49,-29],[-102,-7],[-57,-95],[14,-53],[-51,-5],[-62,-49],[-10,-49],[-74,-13],[-21,-124],[-51,-15],[-46,-115],[15,-38],[-54,-31],[-21,-96],[33,-54],[-42,-74],[-60,32],[-32,39],[36,106],[-120,90],[59,45],[-42,34],[-101,17],[-13,73],[6,51],[-31,54],[-83,-2],[-49,-23],[-52,9]],[[14929,13352],[-36,43],[-45,-12],[-66,32],[-36,63],[-56,35],[-14,34],[12,66],[-27,47],[-59,-7],[-44,52],[-64,-2],[-62,21],[-39,-25],[-48,27],[7,35],[-55,34],[-107,-43]],[[14190,13752],[-117,42],[-13,57],[38,41],[-101,40],[2,65],[36,85],[-44,6],[-8,68],[25,34],[-26,159],[-34,2],[-11,128],[-47,94],[103,38],[-46,287],[20,80],[-56,1],[2,66],[-20,43],[59,24],[0,45],[61,10],[3,46],[-24,38],[-2,82],[85,58],[3,50],[134,-2],[58,61],[105,38],[129,-22],[4,62],[39,39],[35,-25],[103,19],[60,-8],[135,44],[61,-10],[58,17],[37,40],[1,39],[45,71],[67,-3],[73,-40],[50,-9],[44,64],[87,38],[27,32],[40,-40],[12,-62],[61,26],[5,-59],[164,11],[-10,55],[65,13],[53,-55],[7,-60],[61,37]],[[14190,13752],[11,-13],[-66,-79],[8,-60],[70,-66],[-4,-45],[-66,-106],[-49,-49],[-3,-87],[-42,-33],[-48,52],[-34,69],[-53,-46],[-89,18],[-58,30],[-81,-28],[-85,28],[-23,52],[-72,-2],[7,94],[-42,16],[-33,41],[-48,-22],[-14,42],[-58,65],[-57,-17],[-65,4],[-66,-19],[-112,36],[-71,50],[-45,-6],[-9,80],[-17,25],[-79,40],[-74,-18],[-40,33],[-67,20],[-57,-61],[-50,9],[-84,-8],[-48,36],[4,53],[-32,69],[47,6],[16,38],[-19,40],[-5,82],[-43,13],[-7,43],[-33,15],[-55,-35],[-36,53],[-55,14],[43,88],[79,2],[59,89],[29,83],[34,14],[-118,119],[15,42],[-65,7],[-18,100],[-28,53],[-105,11],[-22,72],[-80,-29],[-71,-6],[-64,45],[-70,-37],[-34,13],[-53,-17],[-56,42],[-56,13],[-68,42],[-117,-42],[-59,3],[-27,51],[-29,1],[14,77],[-27,63],[27,39],[-73,67],[-16,75],[16,74],[-52,20],[-76,119],[26,65],[81,-25],[15,42],[-112,31],[-62,75],[-55,-8],[-34,30],[-73,10],[-46,26],[-139,-24]],[[11543,26126],[175,-29],[69,-48],[80,-8],[44,-126],[50,-54],[50,-94],[32,-102],[-127,32],[-151,-9],[-31,-26],[-115,2],[-57,27],[15,79],[-15,50],[-70,27],[-120,-40],[-11,26],[14,121],[46,105],[73,84],[49,-17]],[[6277,26224],[13,-17],[-31,-128],[-47,-72],[-83,-29],[-39,2],[-63,68],[-9,72],[84,25],[35,36],[140,43]],[[5956,26290],[34,-38],[-25,-30],[-46,7],[-62,42],[77,31],[22,-12]],[[6170,26533],[-109,-38],[-119,9],[184,49],[44,-20]],[[5475,26713],[41,-158],[80,-128],[-70,-17],[-133,158],[-25,46],[44,77],[63,22]],[[5969,26923],[50,-39],[-22,-174],[-27,-46],[-180,1],[-72,45],[-110,27],[-17,50],[35,83],[37,32],[128,13],[108,22],[70,-14]],[[7532,23741],[-50,27],[-111,18],[-127,-10],[-199,14],[-66,-6],[-6,37],[-110,8],[-122,118],[-36,65],[-54,142],[-40,44],[-52,105],[18,43],[90,37],[101,-16],[29,-25],[70,12],[29,83],[-83,115],[-41,130],[-80,15],[-77,-51],[-68,88],[-44,115],[27,112],[31,28],[-5,80],[28,72],[-5,78],[-45,46],[-66,-34],[-121,42],[-70,-23],[-35,-30],[-84,29],[-48,56],[-47,23],[-19,73],[7,42],[91,-10],[33,33],[72,31],[-1,63],[-74,4],[-11,55],[44,36],[59,-10],[94,7],[150,39],[102,-25],[123,54],[80,77],[25,53],[96,36],[18,106],[-59,111],[-85,-42],[6,-44],[-37,-30],[-34,-76],[-50,-36],[-114,0],[-77,34],[27,59],[-28,42],[65,34],[79,74],[14,62],[-21,59],[54,126],[-15,43],[-87,60],[-33,98],[-114,48],[-61,55],[-2,64],[-24,62],[-56,77],[-40,81],[9,48],[-37,69],[-57,9],[-33,86],[-80,79],[10,134],[-20,26],[-206,-15],[-63,-34],[-60,-52],[-89,-37],[-81,41],[-30,62],[-68,-11],[-1,-34],[-58,-18],[-24,-57],[10,-88],[-19,-115],[20,-80],[-47,-45],[18,451],[22,122],[45,123],[62,132],[82,201],[79,-8],[47,-69],[-99,-43],[-55,-52],[-39,-78],[19,-36],[1,-171],[41,-66],[104,-52],[130,-3],[56,27],[218,15],[61,33],[1,49],[93,-2],[106,-64],[106,10],[78,37],[57,-1],[25,-30],[96,28],[124,-9],[148,-58],[74,-52],[93,-6],[117,10],[214,-83],[-10,-68],[32,-77],[44,9],[160,-31],[67,67],[22,61],[63,11],[39,-54],[76,16],[76,34],[192,162],[97,-23],[-52,-91],[299,-112],[15,3],[101,-96],[34,-66],[56,-67],[92,-29],[56,73],[29,82],[98,-56],[43,-83],[27,-139],[104,-108],[-10,-148],[5,-95],[-17,-83],[3,-160],[-28,-29],[-36,-85],[-75,-69],[-106,-49],[-120,-69],[-15,-48],[23,-29],[116,21],[13,30],[162,23],[30,18],[272,38],[124,-98],[-40,-109],[37,-57],[8,-75],[-85,-76],[54,-28],[39,17],[28,122],[38,51],[148,29],[21,40],[83,6],[107,-30],[189,-122],[146,-46],[133,-58],[86,-57],[42,-70],[45,-25],[15,-40],[49,-19],[73,16],[41,-13],[68,22],[88,65],[94,101],[78,34],[54,52],[40,10],[154,-30],[10,-32],[110,32],[39,55],[44,17],[38,-22],[-5,-60],[-81,-58],[-38,-55],[10,-137],[16,-90],[-4,-99],[26,-190],[-51,-22],[-52,-59],[-203,-127],[-142,-168],[-56,-35],[-113,30],[-68,-84],[-50,-36],[-21,-81],[46,-100],[32,-43],[116,-20],[64,0],[35,-45],[5,-63],[38,-18]]],"transform":{"scale":[0.0004521898968492692,0.0002778908998211107],"translate":[5.866755375000025,47.270265007000035]},"objects":{"DEU":{"type":"GeometryCollection","geometries":[{"arcs":[[0,1,2,3,4]],"type":"Polygon","properties":{"name":"Stuttgart","shapeGroup":"DEU","gid":"DEU-2-0"},"id":"DEU-2-0"},{"arcs":[[-1,5,6,7,8,9,10]],"type":"Polygon","properties":{"name":"Karlsruhe","shapeGroup":"DEU","gid":"DEU-2-1"},"id":"DEU-2-1"},{"arcs":[[[11]],[[-7,12,13]]],"type":"MultiPolygon","properties":{"name":"Freiburg","shapeGroup":"DEU","gid":"DEU-2-2"},"id":"DEU-2-2"},{"arcs":[[-5,14,15,-13,-6]],"type":"Polygon","properties":{"name":"Tübingen","shapeGroup":"DEU","gid":"DEU-2-3"},"id":"DEU-2-3"},{"arcs":[[16,17,18,19,20]],"type":"Polygon","properties":{"name":"Oberbayern","shapeGroup":"DEU","gid":"DEU-2-4"},"id":"DEU-2-4"},{"arcs":[[-20,21,22]],"type":"Polygon","properties":{"name":"Niederbayern","shapeGroup":"DEU","gid":"DEU-2-5"},"id":"DEU-2-5"},{"arcs":[[-19,23,24,25,-22]],"type":"Polygon","properties":{"name":"Oberpfalz","shapeGroup":"DEU","gid":"DEU-2-6"},"id":"DEU-2-6"},{"arcs":[[-25,26,27,28,29,30]],"type":"Polygon","properties":{"name":"Oberfranken","shapeGroup":"DEU","gid":"DEU-2-7"},"id":"DEU-2-7"},{"arcs":[[-3,31,-27,-24,-18,32]],"type":"Polygon","properties":{"name":"Mittelfranken","shapeGroup":"DEU","gid":"DEU-2-8"},"id":"DEU-2-8"},{"arcs":[[-2,-11,33,34,35,-28,-32]],"type":"Polygon","properties":{"name":"Unterfranken","shapeGroup":"DEU","gid":"DEU-2-9"},"id":"DEU-2-9"},{"arcs":[[-4,-33,-17,36,37,-15],[38]],"type":"Polygon","properties":{"name":"Schwaben","shapeGroup":"DEU","gid":"DEU-2-10"},"id":"DEU-2-10"},{"arcs":[[39]],"type":"Polygon","properties":{"name":"Berlin","shapeGroup":"DEU","gid":"DEU-2-11"},"id":"DEU-2-11"},{"arcs":[[40,41,42,43,44,45],[-40]],"type":"Polygon","properties":{"name":"Brandenburg","shapeGroup":"DEU","gid":"DEU-2-12"},"id":"DEU-2-12"},{"arcs":[[[46,47,48]],[[49,50,51]]],"type":"MultiPolygon","properties":{"name":"Bremen","shapeGroup":"DEU","gid":"DEU-2-13"},"id":"DEU-2-13"},{"arcs":[[52,53]],"type":"Polygon","properties":{"name":"Hamburg","shapeGroup":"DEU","gid":"DEU-2-14"},"id":"DEU-2-14"},{"arcs":[[-10,54,55,56,57,-34]],"type":"Polygon","properties":{"name":"Darmstadt","shapeGroup":"DEU","gid":"DEU-2-15"},"id":"DEU-2-15"},{"arcs":[[-57,58,59,60]],"type":"Polygon","properties":{"name":"Gießen","shapeGroup":"DEU","gid":"DEU-2-16"},"id":"DEU-2-16"},{"arcs":[[-35,-58,-61,61,62,63,64]],"type":"Polygon","properties":{"name":"Kassel","shapeGroup":"DEU","gid":"DEU-2-17"},"id":"DEU-2-17"},{"arcs":[[[65]],[[66]],[[67]],[[68]],[[-44,69,70,71]]],"type":"MultiPolygon","properties":{"name":"Mecklenburg-Vorpommern","shapeGroup":"DEU","gid":"DEU-2-18"},"id":"DEU-2-18"},{"arcs":[[-64,72,73,74,75,76]],"type":"Polygon","properties":{"name":"Braunschweig","shapeGroup":"DEU","gid":"DEU-2-19"},"id":"DEU-2-19"},{"arcs":[[-47,77,-74,78,79]],"type":"Polygon","properties":{"name":"Hannover","shapeGroup":"DEU","gid":"DEU-2-20"},"id":"DEU-2-20"},{"arcs":[[-43,80,-75,-78,-49,81,-52,82,83,-53,84,-70]],"type":"Polygon","properties":{"name":"Lüneburg","shapeGroup":"DEU","gid":"DEU-2-21"},"id":"DEU-2-21"},{"arcs":[[[85]],[[86]],[[87]],[[-48,-80,88,89,90,-50,-82]],[[91]],[[92]],[[93]],[[94]],[[95]]],"type":"MultiPolygon","properties":{"name":"Weser-Ems","shapeGroup":"DEU","gid":"DEU-2-22"},"id":"DEU-2-22"},{"arcs":[[96,97,98,99]],"type":"Polygon","properties":{"name":"Düsseldorf","shapeGroup":"DEU","gid":"DEU-2-23"},"id":"DEU-2-23"},{"arcs":[[[100]],[[101]],[[-100,102,103,104,105]]],"type":"MultiPolygon","properties":{"name":"Köln","shapeGroup":"DEU","gid":"DEU-2-24"},"id":"DEU-2-24"},{"arcs":[[-90,106,107,-98,108]],"type":"Polygon","properties":{"name":"Münster","shapeGroup":"DEU","gid":"DEU-2-25"},"id":"DEU-2-25"},{"arcs":[[-63,109,-107,-89,-79,-73]],"type":"Polygon","properties":{"name":"Detmold","shapeGroup":"DEU","gid":"DEU-2-26"},"id":"DEU-2-26"},{"arcs":[[-60,110,-103,-99,-108,-110,-62]],"type":"Polygon","properties":{"name":"Arnsberg","shapeGroup":"DEU","gid":"DEU-2-27"},"id":"DEU-2-27"},{"arcs":[[-56,111,112,113,-104,-111,-59]],"type":"Polygon","properties":{"name":"Koblenz","shapeGroup":"DEU","gid":"DEU-2-28"},"id":"DEU-2-28"},{"arcs":[[-105,-114,114,115]],"type":"Polygon","properties":{"name":"Trier","shapeGroup":"DEU","gid":"DEU-2-29"},"id":"DEU-2-29"},{"arcs":[[-9,116,117,-112,-55]],"type":"Polygon","properties":{"name":"Rheinhessen-Pfalz","shapeGroup":"DEU","gid":"DEU-2-30"},"id":"DEU-2-30"},{"arcs":[[-113,-118,118,-115]],"type":"Polygon","properties":{"name":"Saarland","shapeGroup":"DEU","gid":"DEU-2-31"},"id":"DEU-2-31"},{"arcs":[[-46,119,120,121]],"type":"Polygon","properties":{"name":"Dresden","shapeGroup":"DEU","gid":"DEU-2-32"},"id":"DEU-2-32"},{"arcs":[[-30,122,123,-121,124]],"type":"Polygon","properties":{"name":"Chemnitz","shapeGroup":"DEU","gid":"DEU-2-33"},"id":"DEU-2-33"},{"arcs":[[-41,-122,-124,125,126]],"type":"Polygon","properties":{"name":"Leipzig","shapeGroup":"DEU","gid":"DEU-2-34"},"id":"DEU-2-34"},{"arcs":[[-42,-127,127,-76,-81]],"type":"Polygon","properties":{"name":"Sachsen-Anhalt","shapeGroup":"DEU","gid":"DEU-2-35"},"id":"DEU-2-35"},{"arcs":[[[128]],[[129]],[[130]],[[131]],[[132]],[[133]],[[-54,-84,134,-71,-85]]],"type":"MultiPolygon","properties":{"name":"Schleswig-Holstein","shapeGroup":"DEU","gid":"DEU-2-36"},"id":"DEU-2-36"},{"arcs":[[-29,-36,-65,-77,-128,-126,-123]],"type":"Polygon","properties":{"name":"Thüringen","shapeGroup":"DEU","gid":"DEU-2-37"},"id":"DEU-2-37"}]}}}