{"type":"Topology","arcs":[[[1252,1376],[-270,-191],[-34,-21],[-72,-61]],[[876,1103],[-86,126]],[[790,1229],[0,27]],[[790,1256],[96,56],[-23,52],[23,29],[30,12],[2,32],[23,31],[26,-7],[57,32],[109,45],[17,1],[26,-64],[76,-99]],[[790,1229],[-30,-46],[-52,-131],[-35,-52],[-57,-117],[-42,-56]],[[574,827],[-58,54],[-92,165],[-48,59]],[[376,1105],[32,46],[50,42],[17,58],[42,58],[65,73],[56,-20],[32,-21],[102,-98],[18,13]],[[1252,1376],[32,-49],[22,-4],[31,-62],[14,-93],[22,-30],[15,-78],[-11,-86],[-31,-61],[-48,-1],[-108,-26],[-95,-101]],[[1095,785],[-22,22],[-82,130]],[[991,937],[-101,134],[-14,32]],[[991,937],[-177,-152],[-32,-35],[-93,-77]],[[689,673],[-35,51],[-80,103]],[[689,673],[-37,-24],[-71,-67]],[[581,582],[-98,60],[-153,137],[-30,34],[-76,60]],[[224,873],[47,63],[105,169]],[[1095,785],[-15,-16],[-64,-11],[-25,-27],[-60,11],[-88,-40],[-17,-41],[-41,-41],[-22,-76],[-77,7],[-44,24],[-16,-17]],[[626,558],[-45,24]],[[626,558],[6,-37],[40,-31]],[[672,490],[-74,-57],[-154,-152]],[[444,281],[0,31],[-129,-18],[-141,-5],[-88,-14],[-57,3]],[[29,278],[-2,67],[-27,133],[1,28],[23,78],[1,29],[27,85],[47,23],[7,28],[65,40],[53,84]],[[828,555],[42,18],[57,-2],[137,15],[61,-15],[44,11],[35,-63],[29,-13],[18,-30],[-51,-86]],[[1200,390],[-84,62],[-31,31],[-47,11],[-70,-37],[-86,-35]],[[882,422],[-54,133]],[[672,490],[26,-20],[33,13],[38,-6],[3,25],[-23,16],[79,37]],[[882,422],[-19,-20],[-84,-29],[-30,-20],[6,-130],[-3,-90]],[[752,133],[-20,15],[-26,-16],[-94,-32],[-63,-45],[-44,13],[-38,-5]],[[467,63],[-5,72],[-18,146]],[[1200,390],[-164,-271],[-32,-61],[-103,-7],[-38,8],[-9,38],[-33,37],[-41,-17],[-28,16]],[[467,63],[-48,-18],[-54,-7],[-15,14],[-39,0],[-53,-16],[-11,-30],[-55,-6],[-51,20],[-35,3],[-93,26],[8,31],[8,198]]],"transform":{"scale":[0.0011819654176425814,0.0011633664715441463],"translate":[41.775490000161426,10.916415000415839]},"objects":{"DJI":{"type":"GeometryCollection","geometries":[{"arcs":[[0,1,2,3]],"type":"Polygon","properties":{"name":"Alaili Dadda","shapeGroup":"DJI","gid":"DJI-2-0"},"id":"DJI-2-0"},{"arcs":[[-3,4,5,6]],"type":"Polygon","properties":{"name":"Dorra","shapeGroup":"DJI","gid":"DJI-2-1"},"id":"DJI-2-1"},{"arcs":[[-1,7,8,9]],"type":"Polygon","properties":{"name":"Obock","shapeGroup":"DJI","gid":"DJI-2-2"},"id":"DJI-2-2"},{"arcs":[[-2,-10,10,11,-5]],"type":"Polygon","properties":{"name":"Randa","shapeGroup":"DJI","gid":"DJI-2-3"},"id":"DJI-2-3"},{"arcs":[[-6,-12,12,13,14]],"type":"Polygon","properties":{"name":"Balha","shapeGroup":"DJI","gid":"DJI-2-4"},"id":"DJI-2-4"},{"arcs":[[-9,15,16,-13,-11]],"type":"Polygon","properties":{"name":"Tadjourah","shapeGroup":"DJI","gid":"DJI-2-5"},"id":"DJI-2-5"},{"arcs":[[-14,-17,17,18,19,20]],"type":"Polygon","properties":{"name":"YobokiI","shapeGroup":"DJI","gid":"DJI-2-6"},"id":"DJI-2-6"},{"arcs":[[21,22,23]],"type":"Polygon","properties":{"name":"Djibouti","shapeGroup":"DJI","gid":"DJI-2-7"},"id":"DJI-2-7"},{"arcs":[[-19,24,-24,25,26,27]],"type":"Polygon","properties":{"name":"Dilkhil","shapeGroup":"DJI","gid":"DJI-2-8"},"id":"DJI-2-8"},{"arcs":[[-23,28,-26]],"type":"Polygon","properties":{"name":"Ali Sabeh","shapeGroup":"DJI","gid":"DJI-2-9"},"id":"DJI-2-9"},{"arcs":[[-20,-28,29]],"type":"Polygon","properties":{"name":"As Eyla","shapeGroup":"DJI","gid":"DJI-2-10"},"id":"DJI-2-10"}]}}}