{"type":"Topology","arcs":[[[177103,47304],[-74,10],[-66,66],[-13,131],[-139,-46],[-101,-10],[-124,-62],[-40,-50]],[[176546,47343],[-64,34],[-86,-35],[9,84],[37,27],[-77,63],[6,132],[218,143],[49,74],[44,-26],[62,31],[57,-108],[63,-29],[46,9],[45,102],[36,0]],[[176991,47844],[31,-52],[106,-329],[56,-41],[-81,-118]],[[177073,47877],[-35,-40],[-47,7]],[[176991,47844],[-20,57],[-57,46],[-24,50],[18,65],[117,14],[68,-67],[-20,-132]],[[122671,51015],[-89,56],[-36,118],[58,27],[87,-17],[14,-37],[96,-21],[40,-41],[-32,-83],[27,-29],[-13,-148],[18,-56],[-97,-30],[-34,29],[21,65],[-16,131],[-44,36]],[[122586,50631],[-19,42],[22,30],[14,-64],[-17,-8]],[[123152,50659],[-11,-56],[-80,-76],[-55,117],[17,89],[-11,51],[119,-68],[21,-57]],[[122262,51156],[30,37],[80,-54],[-122,-55],[12,72]],[[121849,51340],[0,22],[49,19],[-17,-61],[-32,20]],[[121659,51286],[-85,3],[-2,69],[65,59],[30,-65],[72,-62],[60,6],[59,-34],[-65,-57],[-101,29],[-33,52]],[[121250,51530],[-13,49],[92,-32],[-29,-31],[-50,14]],[[121205,51108],[30,39],[47,-22],[15,-76],[-50,-24],[-42,83]],[[120765,51237],[-78,18]],[[120687,51255],[-13,26]],[[120674,51281],[-64,69],[27,68],[108,-15],[48,-127]],[[120793,51276],[-28,-39]],[[122739,51879],[-41,34],[108,98],[77,-40],[28,-52],[150,31],[7,-58],[54,-31],[118,25],[-24,-74],[-129,6],[-60,-55],[-61,-10],[-39,-58],[19,-43],[-108,-46],[-83,-52],[-24,59],[16,72],[-38,58],[30,136]],[[148091,80],[13,-6],[-40,-74],[-4,14],[31,66]],[[122063,53676],[17,36],[44,-13],[-61,-23]],[[123053,52142],[16,21],[23,-24],[-21,-24],[-18,27]],[[122917,51257],[-7,38],[44,79],[60,5],[88,-29],[54,24],[31,-41],[4,-110],[-53,-2],[-58,-55],[-73,-4],[-95,19],[5,76]],[[120687,51255],[-69,-14],[-36,-67],[-78,-11],[-15,49],[-70,20],[90,109],[165,-60]],[[120793,51276],[71,14],[84,-57],[56,-17],[-33,-84],[37,-70],[-89,-5],[41,-96],[53,-74],[-63,-7],[-96,-51],[-95,-30],[-40,35],[0,76],[37,32],[-10,121],[41,90],[-22,84]],[[120632,51066],[85,10],[31,-53],[-27,-45],[-59,-30],[-9,-43],[-73,-79],[-41,54],[-64,-28],[-52,70],[-75,13],[-24,40],[101,34],[50,-7],[157,64]],[[218440,34530],[-69,40],[-96,-35],[-11,-42],[-88,5]],[[218176,34498],[-57,66],[-60,-1],[-32,41]],[[218027,34604],[-6,64],[69,89],[12,83],[38,45],[59,18],[92,129]],[[218291,35032],[50,-30],[8,-140],[-30,-66],[-39,-16],[15,-84],[45,-73],[68,28],[47,-39],[-15,-82]],[[218027,34604],[-103,-28],[-64,-59],[-95,3],[-103,-42],[-21,-52],[-74,-25],[-68,15],[-52,-44],[-77,-5]],[[217370,34367],[-65,93],[33,66],[136,29],[60,42],[62,12],[85,78],[52,86],[106,69],[-4,97],[92,46],[135,47],[229,0]],[[218440,34530],[-107,-260],[-102,-93],[-70,-34],[-111,16],[-54,42]],[[217996,34201],[8,43],[92,49],[68,70],[12,135]],[[217996,34201],[-64,33],[20,53],[-103,46],[-55,-38],[-7,-38],[-201,-14],[-186,35],[-30,89]],[[177743,46596],[10,61],[-33,67],[-57,175],[-51,29],[-57,79],[-107,-10],[-59,67],[40,80],[-60,62]],[[177369,47206],[31,63],[122,166],[104,22],[7,36]],[[177633,47493],[75,68],[63,-15],[82,72]],[[177853,47618],[84,-3],[19,-70],[64,29],[25,90],[82,26],[-8,-77],[69,-39],[-8,-76],[62,-166],[-11,-57],[60,-84],[-124,-91],[-42,101],[-140,-27],[-71,-102],[41,-57],[81,-16],[15,-46],[72,-77],[-43,-154],[-127,-74],[64,-92],[-79,-65],[-54,-14],[-80,42],[-61,77]],[[178161,47037],[72,3],[30,-76],[-50,-57],[-71,28],[-44,-16],[-1,85],[64,33]],[[177633,47493],[-20,5],[24,125],[-18,70],[-65,60],[-58,17],[-2,95]],[[177494,47865],[32,8],[47,115],[99,1],[10,-75],[105,-20],[-20,-82],[44,-82],[-29,-36],[23,-59],[48,-17]],[[178008,47912],[-51,-175],[-38,-75],[-65,12],[-15,38],[79,74],[-1,65],[54,59],[37,2]],[[177845,48034],[-55,21],[7,47],[83,-6],[-35,-62]],[[177073,47877],[68,33]],[[177141,47910],[47,-59],[65,60]],[[177253,47911],[58,64],[0,58],[183,-168]],[[177369,47206],[-159,41],[-60,59],[-47,-2]],[[177600,48284],[10,-71],[-80,-30],[-32,32],[5,52],[82,49],[15,-32]],[[177217,47978],[-2,-2]],[[177215,47976],[-103,89],[4,43],[69,32],[59,-16],[-8,-68],[-85,-19],[66,-59]],[[177141,47910],[10,72],[64,-6]],[[177217,47978],[36,-67]],[[177743,46596],[-57,-63],[-31,100],[-75,8],[39,-104],[-131,-34],[-70,48],[-54,-17],[10,-47],[-173,2],[-36,27],[21,56],[-50,66],[-28,-61],[-242,47],[-44,99],[-82,50],[-24,68],[-37,31],[51,70],[-42,146],[67,65],[-69,56],[-12,134],[-110,-27],[-18,27]],[[4978,68024],[-55,20],[4,80]],[[4927,68124],[44,49],[2,61],[46,69],[-32,34],[26,85]],[[5013,68422],[74,24],[44,40],[66,97],[39,7],[18,67]],[[5254,68657],[110,-87]],[[5364,68570],[60,-9],[15,-101],[-50,-37],[-87,5],[-68,-38],[-44,-77],[-85,-50],[-44,16],[-61,-69],[-22,-186]],[[4978,68024],[-25,-41],[-84,-10],[-11,88],[15,52]],[[4873,68113],[54,11]],[[4873,68113],[11,77],[31,31],[29,129],[-24,48]],[[4920,68398],[93,24]],[[5879,68740],[-3,40],[-67,3],[-53,52],[-42,-12],[-26,162]],[[5688,68985],[27,1],[68,86],[37,-1],[43,-82],[14,-99],[68,18],[25,45],[73,24],[26,-44],[-75,-128],[8,-73],[-54,-57],[-75,-49],[-14,71],[20,43]],[[5915,69284],[-5,-115],[-42,-45],[-57,-9],[-109,-121],[-58,23],[-7,100],[70,79],[90,163],[90,16],[28,-91]],[[102144,53419],[12,-45],[-51,-38],[-19,37],[58,46]],[[101956,52591],[21,8],[59,-32],[-74,-3],[-6,27]],[[108051,64269],[39,13],[38,-22],[-45,-19],[-32,28]],[[109461,62773],[45,3],[-8,-29],[-37,26]],[[109870,62440],[37,-35],[-8,-39],[-29,74]],[[104330,60994],[37,-61],[-45,-27],[-39,42],[-9,92],[60,8],[-4,-54]],[[110600,60931],[17,-38],[-57,12],[6,37],[34,-11]],[[121958,59803],[-21,-28],[-32,18],[19,24],[34,-14]],[[123367,60833],[2,33],[56,26],[18,-19],[-76,-40]],[[126107,61267],[32,-20],[48,10],[39,-12],[-73,-18],[-52,21],[6,19]],[[127027,61893],[-35,17],[22,25],[22,-17],[-9,-25]],[[139636,36140],[34,-33],[-48,-11],[14,44]],[[138703,36153],[13,62],[57,-107],[-70,45]],[[5879,68740],[-37,-11],[-8,-108],[-53,-60],[-158,0],[-72,199],[32,93],[-75,20]],[[5508,68873],[-53,-15],[-45,25],[80,59]],[[5490,68942],[42,-1],[72,60],[84,-16]],[[4920,68398],[67,77],[58,34],[78,203]],[[5123,68712],[78,-45],[53,-10]],[[5123,68712],[55,120],[50,21]],[[5228,68853],[110,-56],[18,-41],[101,-1]],[[5457,68755],[16,-120],[-48,-46],[-61,-19]],[[5724,69544],[49,-69],[-23,-57],[32,-61],[-30,-36],[-143,124],[20,61],[69,51],[26,-13]],[[5508,68873],[-8,-68],[-43,-50]],[[5228,68853],[54,71],[-13,25],[64,80],[21,54],[179,88],[36,-72],[-48,-28],[27,-85],[-58,-44]],[[149536,22707],[3,-39],[-32,-21],[-3,61],[32,-1]],[[198538,41914],[74,4],[-17,-86],[-86,-83],[4,89],[46,-7],[31,55],[-52,28]],[[168177,38447],[47,-15],[-7,-46],[-66,15],[26,46]],[[190521,45737],[-27,-13],[-12,14],[22,16],[17,-17]],[[101068,45707],[-38,-103],[-51,12],[15,73],[-4,96],[84,15],[-6,-93]],[[100145,51062],[-7,122],[41,-21],[-1,-72],[-33,-29]],[[138920,34789],[53,-39],[-18,-44],[-67,-28],[32,111]],[[129045,48160],[-29,-42],[-39,71],[21,28],[47,-57]],[[130366,47346],[37,59],[43,-62],[-80,3]],[[130100,46903],[19,15],[15,-16],[-40,-25],[-46,15],[52,11]],[[133659,39491],[-47,32],[37,12],[10,-44]],[[137619,36634],[27,21],[13,35],[4,54],[-28,84],[13,4],[29,-90],[-12,-73],[-49,-55],[-22,-3],[-26,17],[51,6]],[[136587,35739],[-1,-40],[-39,10],[1,22],[39,8]],[[137279,36031],[43,-6],[7,-11],[-55,-6],[5,23]],[[138277,34362],[-15,12],[198,50],[233,186],[75,30],[-208,-141],[-90,-84],[-193,-53]],[[54887,51283],[51,20],[5,-102],[-108,17],[52,65]],[[47784,45665],[49,-9],[-18,-7],[-31,16]],[[59611,50229],[45,-45],[-35,-23],[-47,47],[37,21]],[[60148,61082],[39,6],[3,-32],[-38,-2],[-4,28]],[[74235,52358],[19,31],[36,-25],[-4,-29],[-51,23]],[[76027,51951],[45,-50],[-17,-32],[-42,32],[14,50]],[[81611,51275],[-40,36],[51,34],[62,-36],[-73,-34]],[[18632,71817],[1,-13],[-57,-57],[-9,6],[65,64]],[[25879,70594],[114,46],[-12,-58],[-71,-79],[-57,-5],[-10,45],[36,51]],[[1,58735],[23,1],[-1,-27],[-23,5],[1,21]]],"transform":{"scale":[0.00011695241747728358,0.00012366096324533212],"translate":[137.48635224,1.036734062853575]},"objects":{"FSM":{"type":"GeometryCollection","geometries":[{"arcs":[[[0,1,2]],[[3,4]]],"type":"MultiPolygon","properties":{"name":"Sokehs","shapeGroup":"FSM","gid":"FSM-2-0"},"id":"FSM-2-0"},{"arcs":[[5]],"type":"Polygon","properties":{"name":"Fefen","shapeGroup":"FSM","gid":"FSM-2-1"},"id":"FSM-2-1"},{"arcs":[[6]],"type":"Polygon","properties":{"name":"Siis","shapeGroup":"FSM","gid":"FSM-2-2"},"id":"FSM-2-2"},{"arcs":[[7]],"type":"Polygon","properties":{"name":"Uman","shapeGroup":"FSM","gid":"FSM-2-3"},"id":"FSM-2-3"},{"arcs":[[8]],"type":"Polygon","properties":{"name":"Parem","shapeGroup":"FSM","gid":"FSM-2-4"},"id":"FSM-2-4"},{"arcs":[[9]],"type":"Polygon","properties":{"name":"Eot","shapeGroup":"FSM","gid":"FSM-2-5"},"id":"FSM-2-5"},{"arcs":[[10]],"type":"Polygon","properties":{"name":"Udot","shapeGroup":"FSM","gid":"FSM-2-6"},"id":"FSM-2-6"},{"arcs":[[11]],"type":"Polygon","properties":{"name":"Romanum","shapeGroup":"FSM","gid":"FSM-2-7"},"id":"FSM-2-7"},{"arcs":[[12]],"type":"Polygon","properties":{"name":"Fanapanges","shapeGroup":"FSM","gid":"FSM-2-8"},"id":"FSM-2-8"},{"arcs":[[13,14,15,16]],"type":"Polygon","properties":{"name":"Wonei","shapeGroup":"FSM","gid":"FSM-2-9"},"id":"FSM-2-9"},{"arcs":[[17]],"type":"Polygon","properties":{"name":"Weno","shapeGroup":"FSM","gid":"FSM-2-10"},"id":"FSM-2-10"},{"arcs":[[18]],"type":"Polygon","properties":{"name":"Kapingamarangi","shapeGroup":"FSM","gid":"FSM-2-11"},"id":"FSM-2-11"},{"arcs":[[19]],"type":"Polygon","properties":{"name":"PiisPenau","shapeGroup":"FSM","gid":"FSM-2-12"},"id":"FSM-2-12"},{"arcs":[[20]],"type":"Polygon","properties":{"name":"Fono","shapeGroup":"FSM","gid":"FSM-2-13"},"id":"FSM-2-13"},{"arcs":[[21]],"type":"Polygon","properties":{"name":"Tonoas","shapeGroup":"FSM","gid":"FSM-2-14"},"id":"FSM-2-14"},{"arcs":[[-15,22]],"type":"Polygon","properties":{"name":"Paata","shapeGroup":"FSM","gid":"FSM-2-15"},"id":"FSM-2-15"},{"arcs":[[-17,23]],"type":"Polygon","properties":{"name":"Tol","shapeGroup":"FSM","gid":"FSM-2-16"},"id":"FSM-2-16"},{"arcs":[[24]],"type":"Polygon","properties":{"name":"Polle","shapeGroup":"FSM","gid":"FSM-2-17"},"id":"FSM-2-17"},{"arcs":[[25,26,27,28]],"type":"Polygon","properties":{"name":"Lelu","shapeGroup":"FSM","gid":"FSM-2-18"},"id":"FSM-2-18"},{"arcs":[[-28,29,30]],"type":"Polygon","properties":{"name":"Tafunsak","shapeGroup":"FSM","gid":"FSM-2-19"},"id":"FSM-2-19"},{"arcs":[[-26,31,32]],"type":"Polygon","properties":{"name":"Malem","shapeGroup":"FSM","gid":"FSM-2-20"},"id":"FSM-2-20"},{"arcs":[[-27,-33,33,-30]],"type":"Polygon","properties":{"name":"Utwe","shapeGroup":"FSM","gid":"FSM-2-21"},"id":"FSM-2-21"},{"arcs":[[[34,35,36,37]],[[38]]],"type":"MultiPolygon","properties":{"name":"Madolenihmw","shapeGroup":"FSM","gid":"FSM-2-22"},"id":"FSM-2-22"},{"arcs":[[[-37,39,40]],[[41]],[[42]]],"type":"MultiPolygon","properties":{"name":"U","shapeGroup":"FSM","gid":"FSM-2-23"},"id":"FSM-2-23"},{"arcs":[[[-3,-4,43,44,45,-40,-36,46]],[[47]],[[48,49]]],"type":"MultiPolygon","properties":{"name":"Nett","shapeGroup":"FSM","gid":"FSM-2-24"},"id":"FSM-2-24"},{"arcs":[[-45,50,-49,51]],"type":"Polygon","properties":{"name":"Kolonia","shapeGroup":"FSM","gid":"FSM-2-25"},"id":"FSM-2-25"},{"arcs":[[-1,-47,-35,52]],"type":"Polygon","properties":{"name":"Kitti","shapeGroup":"FSM","gid":"FSM-2-26"},"id":"FSM-2-26"},{"arcs":[[53,54,55,56,57]],"type":"Polygon","properties":{"name":"Rull","shapeGroup":"FSM","gid":"FSM-2-27"},"id":"FSM-2-27"},{"arcs":[[-54,58,59]],"type":"Polygon","properties":{"name":"Gilman","shapeGroup":"FSM","gid":"FSM-2-28"},"id":"FSM-2-28"},{"arcs":[[-55,-60,60,61]],"type":"Polygon","properties":{"name":"Kanifay","shapeGroup":"FSM","gid":"FSM-2-29"},"id":"FSM-2-29"},{"arcs":[[62,63]],"type":"Polygon","properties":{"name":"Gagil","shapeGroup":"FSM","gid":"FSM-2-30"},"id":"FSM-2-30"},{"arcs":[[64]],"type":"Polygon","properties":{"name":"Maap","shapeGroup":"FSM","gid":"FSM-2-31"},"id":"FSM-2-31"},{"arcs":[[65]],"type":"Polygon","properties":{"name":"Pollap","shapeGroup":"FSM","gid":"FSM-2-32"},"id":"FSM-2-32"},{"arcs":[[66]],"type":"Polygon","properties":{"name":"Tamatam","shapeGroup":"FSM","gid":"FSM-2-33"},"id":"FSM-2-33"},{"arcs":[[67]],"type":"Polygon","properties":{"name":"Makur","shapeGroup":"FSM","gid":"FSM-2-34"},"id":"FSM-2-34"},{"arcs":[[68]],"type":"Polygon","properties":{"name":"Onou","shapeGroup":"FSM","gid":"FSM-2-35"},"id":"FSM-2-35"},{"arcs":[[69]],"type":"Polygon","properties":{"name":"Unanu","shapeGroup":"FSM","gid":"FSM-2-36"},"id":"FSM-2-36"},{"arcs":[[70]],"type":"Polygon","properties":{"name":"Onoun","shapeGroup":"FSM","gid":"FSM-2-37"},"id":"FSM-2-37"},{"arcs":[[71]],"type":"Polygon","properties":{"name":"Piherech","shapeGroup":"FSM","gid":"FSM-2-38"},"id":"FSM-2-38"},{"arcs":[[72]],"type":"Polygon","properties":{"name":"Nomwin","shapeGroup":"FSM","gid":"FSM-2-39"},"id":"FSM-2-39"},{"arcs":[[73]],"type":"Polygon","properties":{"name":"Fananu","shapeGroup":"FSM","gid":"FSM-2-40"},"id":"FSM-2-40"},{"arcs":[[74]],"type":"Polygon","properties":{"name":"Ruo","shapeGroup":"FSM","gid":"FSM-2-41"},"id":"FSM-2-41"},{"arcs":[[75]],"type":"Polygon","properties":{"name":"Murillo","shapeGroup":"FSM","gid":"FSM-2-42"},"id":"FSM-2-42"},{"arcs":[[76]],"type":"Polygon","properties":{"name":"Lekinoch","shapeGroup":"FSM","gid":"FSM-2-43"},"id":"FSM-2-43"},{"arcs":[[77]],"type":"Polygon","properties":{"name":"Oneop","shapeGroup":"FSM","gid":"FSM-2-44"},"id":"FSM-2-44"},{"arcs":[[-63,78,79,80]],"type":"Polygon","properties":{"name":"Tomil","shapeGroup":"FSM","gid":"FSM-2-45"},"id":"FSM-2-45"},{"arcs":[[-56,-62,81,82]],"type":"Polygon","properties":{"name":"Dalipebinaw","shapeGroup":"FSM","gid":"FSM-2-46"},"id":"FSM-2-46"},{"arcs":[[-57,-83,83,84,85]],"type":"Polygon","properties":{"name":"Weloy","shapeGroup":"FSM","gid":"FSM-2-47"},"id":"FSM-2-47"},{"arcs":[[86]],"type":"Polygon","properties":{"name":"Rumung","shapeGroup":"FSM","gid":"FSM-2-48"},"id":"FSM-2-48"},{"arcs":[[-80,87,-85,88]],"type":"Polygon","properties":{"name":"Fanif","shapeGroup":"FSM","gid":"FSM-2-49"},"id":"FSM-2-49"},{"arcs":[[89]],"type":"Polygon","properties":{"name":"Nukuoro","shapeGroup":"FSM","gid":"FSM-2-50"},"id":"FSM-2-50"},{"arcs":[[90]],"type":"Polygon","properties":{"name":"Pingelap","shapeGroup":"FSM","gid":"FSM-2-51"},"id":"FSM-2-51"},{"arcs":[[91]],"type":"Polygon","properties":{"name":"Sapwuafik","shapeGroup":"FSM","gid":"FSM-2-52"},"id":"FSM-2-52"},{"arcs":[[92]],"type":"Polygon","properties":{"name":"Mwokilloa","shapeGroup":"FSM","gid":"FSM-2-53"},"id":"FSM-2-53"},{"arcs":[[93]],"type":"Polygon","properties":{"name":"Houk","shapeGroup":"FSM","gid":"FSM-2-54"},"id":"FSM-2-54"},{"arcs":[[94]],"type":"Polygon","properties":{"name":"Polowat","shapeGroup":"FSM","gid":"FSM-2-55"},"id":"FSM-2-55"},{"arcs":[[95]],"type":"Polygon","properties":{"name":"Satowan","shapeGroup":"FSM","gid":"FSM-2-56"},"id":"FSM-2-56"},{"arcs":[[96]],"type":"Polygon","properties":{"name":"Nema","shapeGroup":"FSM","gid":"FSM-2-57"},"id":"FSM-2-57"},{"arcs":[[97]],"type":"Polygon","properties":{"name":"Losap","shapeGroup":"FSM","gid":"FSM-2-58"},"id":"FSM-2-58"},{"arcs":[[98]],"type":"Polygon","properties":{"name":"PiisEmwar","shapeGroup":"FSM","gid":"FSM-2-59"},"id":"FSM-2-59"},{"arcs":[[99]],"type":"Polygon","properties":{"name":"Namoluk","shapeGroup":"FSM","gid":"FSM-2-60"},"id":"FSM-2-60"},{"arcs":[[100]],"type":"Polygon","properties":{"name":"Ettal","shapeGroup":"FSM","gid":"FSM-2-61"},"id":"FSM-2-61"},{"arcs":[[101]],"type":"Polygon","properties":{"name":"Kuttu","shapeGroup":"FSM","gid":"FSM-2-62"},"id":"FSM-2-62"},{"arcs":[[102]],"type":"Polygon","properties":{"name":"Moch","shapeGroup":"FSM","gid":"FSM-2-63"},"id":"FSM-2-63"},{"arcs":[[103]],"type":"Polygon","properties":{"name":"Ta","shapeGroup":"FSM","gid":"FSM-2-64"},"id":"FSM-2-64"},{"arcs":[[104]],"type":"Polygon","properties":{"name":"Woleai","shapeGroup":"FSM","gid":"FSM-2-65"},"id":"FSM-2-65"},{"arcs":[[105]],"type":"Polygon","properties":{"name":"Eauripik","shapeGroup":"FSM","gid":"FSM-2-66"},"id":"FSM-2-66"},{"arcs":[[106]],"type":"Polygon","properties":{"name":"Ifalik","shapeGroup":"FSM","gid":"FSM-2-67"},"id":"FSM-2-67"},{"arcs":[[107]],"type":"Polygon","properties":{"name":"Faraulep","shapeGroup":"FSM","gid":"FSM-2-68"},"id":"FSM-2-68"},{"arcs":[[108]],"type":"Polygon","properties":{"name":"Elato","shapeGroup":"FSM","gid":"FSM-2-69"},"id":"FSM-2-69"},{"arcs":[[109]],"type":"Polygon","properties":{"name":"Lamotrek","shapeGroup":"FSM","gid":"FSM-2-70"},"id":"FSM-2-70"},{"arcs":[[110]],"type":"Polygon","properties":{"name":"Satawal","shapeGroup":"FSM","gid":"FSM-2-71"},"id":"FSM-2-71"},{"arcs":[[111]],"type":"Polygon","properties":{"name":"Ulithi","shapeGroup":"FSM","gid":"FSM-2-72"},"id":"FSM-2-72"},{"arcs":[[112]],"type":"Polygon","properties":{"name":"Fais","shapeGroup":"FSM","gid":"FSM-2-73"},"id":"FSM-2-73"},{"arcs":[[113]],"type":"Polygon","properties":{"name":"Ngulu","shapeGroup":"FSM","gid":"FSM-2-74"},"id":"FSM-2-74"}]}}}