{"type":"Topology","arcs":[[[1882,3749],[-117,-23],[-37,-65],[10,-36],[-61,-61],[-29,-12],[5,-47],[-135,-119],[-86,-48],[-54,-66],[-37,-28]],[[1341,3244],[-87,-51],[-85,-32],[-14,71],[-72,32],[-67,-69],[-51,16]],[[965,3211],[62,60],[45,76],[-24,42],[-26,93],[-12,147]],[[1010,3629],[43,38],[-39,18]],[[1014,3685],[22,92],[37,53],[-2,31],[44,90],[-1,17]],[[1114,3968],[32,1],[94,-43],[51,-1],[106,80],[54,60],[73,10],[2,17]],[[1526,4092],[197,66],[285,101]],[[2008,4259],[5,-125],[-12,-54],[-77,-143],[-9,-66],[-25,-36],[11,-36],[-19,-50]],[[2853,5523],[5,-100],[-43,-56],[-144,-219]],[[2671,5148],[-111,-5],[-119,-16],[-106,0]],[[2335,5127],[0,129],[30,279],[228,9],[52,10],[74,-32],[134,1]],[[2853,5523],[175,6],[71,-8],[131,29],[33,-20],[93,9],[83,-15],[28,-16],[117,-15],[71,21],[41,-13],[47,12],[67,1],[49,-13],[92,38],[77,-9],[48,-35],[-3,-135],[-10,-29],[-68,-56],[0,-33],[-42,-52],[23,-49],[-11,-52],[-23,-24],[-6,-121],[-16,-37],[51,-54],[44,-96],[9,-70],[-13,-28],[-47,-19],[-20,-34]],[[3944,4606],[-35,-15],[-214,2],[-72,9],[-385,9]],[[3238,4611],[53,146],[51,97],[15,70],[-11,22],[-56,19],[-73,5],[-51,35],[-59,0],[-123,-54],[-57,-3],[-64,33],[-38,-35],[-74,5],[-10,126],[-43,55],[-27,16]],[[3238,4611],[-25,-4]],[[3213,4607],[-122,-39],[-70,-33],[-71,-12],[-125,-52],[-134,-38],[-44,-22],[-113,-35],[-88,-34],[-36,-5],[-27,46],[-50,16]],[[2333,4399],[1,362],[1,366]],[[4646,3791],[-136,77],[-65,19],[-25,40],[-123,68],[-95,109],[-41,21],[-28,46],[-51,119],[55,76],[59,17],[54,59],[85,67],[3,168]],[[4338,4677],[47,27],[94,13],[38,57],[195,-14],[35,-27],[80,9],[57,-12],[68,-57],[11,-54],[0,-74],[18,-42],[51,-30],[34,-81],[75,-76],[-27,-30],[10,-47],[-100,-108],[-12,-66],[-79,-67],[-114,1],[-28,-7],[-31,-40],[14,-22],[-21,-45],[-71,-40],[-36,-54]],[[3944,4606],[24,-24],[73,1],[79,57],[39,8],[78,-16],[57,11],[44,34]],[[4646,3791],[-41,-71],[18,-145],[37,-32],[-36,-86]],[[4624,3457],[-67,0],[-129,73],[-119,18],[-52,17],[-202,5]],[[4055,3570],[-88,12],[-74,47],[-19,74],[-37,28],[-48,0],[-39,21],[-57,-26],[-88,15],[-48,48],[-66,-32],[-54,25]],[[3437,3782],[-5,67],[-42,83],[-65,43],[-72,10],[-29,24],[-112,4],[19,73],[-48,65],[-9,35],[25,69],[-7,26]],[[3092,4281],[5,117],[108,180],[8,29]],[[2008,4259],[15,15],[1,65],[13,59]],[[2037,4398],[296,1]],[[3092,4281],[-113,-73],[-56,-45],[-155,-96]],[[2768,4067],[-219,-142],[-107,-76],[59,-50],[40,-51]],[[2541,3748],[-376,-2],[-282,-6],[-1,9]],[[3437,3782],[-27,-9],[-117,6],[-38,-16],[-3,-56],[-40,-50],[-42,-22],[-106,-80],[-136,-11],[-61,40],[-32,71],[-3,84],[-35,65],[-6,78],[-25,74],[9,78],[-7,33]],[[1526,4092],[-38,80],[15,64],[30,43],[-1,119]],[[1532,4398],[505,0]],[[1114,3968],[-33,4],[-50,89],[-42,11],[-82,-18],[-102,6]],[[805,4060],[6,101],[-57,189],[30,57],[51,8],[17,33],[87,3],[31,-49],[43,2],[57,-49],[52,-20],[24,20],[6,43],[380,0]],[[681,3826],[-85,134]],[[596,3960],[52,44],[27,-52],[55,-37],[-16,-61],[-33,-28]],[[1014,3685],[-75,9],[-58,21],[-87,55],[-14,20],[-56,-20],[-43,56]],[[596,3960],[-43,23],[-1,77],[171,38],[40,-77],[42,39]],[[3437,3782],[-9,-84],[-24,-91],[-90,-419],[-136,-47]],[[3178,3141],[-209,-69],[-172,-64]],[[2797,3008],[-165,-62],[-105,-27]],[[2527,2919],[-38,125],[-33,54],[-42,35],[-21,63],[-7,64],[-50,63],[-6,123],[-48,49],[26,70],[41,31],[144,68],[46,34],[2,50]],[[4055,3570],[0,-34],[-61,-89],[21,-19],[10,-78],[41,-12],[60,-93],[169,-329],[12,-54],[-123,-189],[-102,-119]],[[4082,2554],[-28,-31]],[[4054,2523],[-93,45],[15,-57],[1,-81],[-39,-14],[-7,-28],[-73,-68],[-68,-5],[-2,-37],[-43,-43],[0,-45],[-41,-50],[-7,-39],[-32,-48]],[[3665,2053],[-26,70],[38,177],[-3,47]],[[3674,2347],[-1,54],[-47,19],[-93,166],[-65,6],[-27,20],[-36,55],[-31,17],[-20,43],[19,18],[-17,54],[22,68],[4,58],[-39,93],[-53,26],[-29,-3],[-69,49],[-14,51]],[[3674,2347],[-172,-2],[-114,6],[-58,-5],[28,-138],[51,-79],[-14,-79],[-43,-42],[-17,-41],[-10,-97]],[[3325,1870],[-7,-3]],[[3318,1867],[-16,22],[-85,12],[-92,38]],[[3125,1939],[-70,63],[-79,121]],[[2976,2123],[64,124],[26,23],[2,77],[-29,69],[0,72],[-79,29],[6,30],[89,34],[14,27],[6,82],[27,29],[-21,40],[-44,13],[-46,-37],[-51,-15],[-37,9],[-51,135],[-16,81],[-39,63]],[[3665,2053],[-2,-41]],[[3663,2012],[-25,-173]],[[3638,1839],[-51,32],[-82,-3],[-81,11],[-38,-37],[-61,28]],[[3663,2012],[105,36],[61,4],[115,-39],[70,-63],[35,-13],[75,19]],[[4124,1956],[-17,-158],[19,-31],[68,-8],[38,-28]],[[4232,1731],[-33,-144],[-70,-38],[-33,-84],[-31,-50]],[[4065,1415],[-56,23],[-50,-8],[-71,43],[-24,0],[-26,100],[-18,25],[-39,-7],[-25,101],[-25,29],[-35,100],[-58,18]],[[4232,1731],[47,-6],[92,57],[38,-51],[3,-30],[32,-52],[24,-12]],[[4468,1637],[-39,-79],[-53,-43],[-20,-42],[-46,-26],[-61,-69],[-95,4],[-89,33]],[[5069,2666],[5,-50],[25,-63],[-4,-30],[28,-33],[-11,-72],[-18,-45],[37,-29],[-32,-99],[19,-32],[-81,-71],[25,-44],[36,-9],[-31,-47],[-6,-132],[-14,-23],[-104,-51],[-30,-148],[-29,-60],[-39,-23],[-5,-29],[52,-58],[1,-31],[-69,-44],[-11,-50],[-27,-53],[-70,-7],[-40,31],[-55,-11],[-36,16],[8,50]],[[4593,1419],[92,42],[40,76],[15,168],[-20,45],[-48,51],[-64,48],[-57,117],[8,19]],[[4559,1985],[60,-29],[86,45],[41,31],[55,83],[6,59],[43,69],[-29,102],[-37,85],[-34,53]],[[4750,2483],[-11,31],[35,54]],[[4774,2568],[26,20],[195,85],[74,-7]],[[4559,1985],[-31,15],[-57,68],[0,52]],[[4471,2120],[46,16],[24,39],[40,120],[3,118]],[[4584,2413],[52,0],[74,73],[40,-3]],[[4584,2413],[-102,74]],[[4482,2487],[23,25],[-8,118],[44,10],[89,53]],[[4630,2693],[22,-14],[70,28],[78,-30],[1,-37],[-27,-72]],[[4630,2693],[59,46],[43,70]],[[4732,2809],[85,77],[181,265]],[[4998,3151],[44,-17],[85,-68],[25,-44],[-1,-62],[-39,-97],[3,-77],[-35,-53],[-11,-67]],[[4732,2809],[-47,23],[-51,8],[-85,91],[42,59],[35,20],[60,72],[16,58],[47,60],[108,-11]],[[4857,3189],[1,-45],[40,8],[100,-1]],[[4471,2120],[-95,25],[-1,247],[6,16],[-42,62],[3,53]],[[4342,2523],[41,40],[38,-11],[22,-64],[39,-1]],[[4054,2523],[20,-7],[64,-88],[-29,-93],[5,-73],[36,-102],[-26,-204]],[[4624,3457],[-54,-76],[4,-35],[35,-39],[41,16],[54,-15],[57,1],[60,-29],[36,-91]],[[4342,2523],[-73,30],[-42,-15],[-38,16],[-79,-17],[-28,17]],[[3318,1867],[12,-124],[14,-68],[40,-61],[13,-47],[-18,-67],[8,-35],[-25,-82],[-258,1],[-95,-15],[-67,74],[-35,10]],[[2907,1453],[-22,55],[-2,48],[19,44],[0,42],[31,57],[60,42],[35,-11],[57,52],[38,65],[10,67],[-8,25]],[[2678,1386],[-31,54],[-70,28]],[[2577,1468],[-39,33],[-33,47],[-51,43],[-71,121]],[[2383,1712],[73,5],[28,26],[30,82],[20,6]],[[2534,1831],[59,-28],[-11,-93],[38,-64],[-8,-99],[77,-11],[8,-24],[-19,-126]],[[2907,1453],[-96,-26],[-55,-29],[-32,-40],[-46,28]],[[2534,1831],[3,66],[54,50],[92,27],[102,55],[61,74],[100,24]],[[2946,2127],[30,-4]],[[2946,2127],[-10,48],[22,38],[-11,139],[-17,34],[-45,43],[-30,9],[-113,96],[-32,42],[-7,75],[-27,-5],[-54,-41],[-60,-15],[-35,10],[-13,102],[-30,48],[-7,63],[8,40],[41,63]],[[2526,2916],[1,3]],[[2383,1712],[-31,59]],[[2352,1771],[-29,84],[-83,207],[11,78],[-1,87]],[[2250,2227],[-3,105],[26,92],[-18,128],[16,48],[-40,47],[3,48],[-32,28],[-29,-2],[42,174],[63,102]],[[2278,2997],[49,-40],[94,-33],[105,-8]],[[2457,371],[-119,-35],[-65,-73],[-22,-37],[5,-83],[-22,-47],[-20,-96],[-83,58],[-65,61],[-36,49],[-17,82],[-48,55]],[[1965,305],[57,31],[19,51],[39,56],[93,89],[4,29]],[[2177,561],[38,-13],[34,-49],[51,-7],[112,-64],[45,-57]],[[1965,305],[-106,98],[-136,96],[7,75],[-23,36],[-55,40],[-65,92],[-107,103],[-58,47]],[[1422,892],[60,25],[23,-41],[58,-2],[40,39],[5,34],[54,89],[39,13]],[[1701,1049],[4,-22],[77,-60],[45,-64],[19,-98],[26,-19]],[[1872,786],[83,-64],[56,-9],[44,-47],[4,-34],[31,-31],[87,-40]],[[1872,786],[106,19],[95,109],[36,1],[34,-38],[48,38],[69,19],[13,65],[63,25]],[[2336,1024],[60,-18],[33,22],[40,-4],[54,-103],[103,-89],[11,-58],[24,-39],[66,-32],[28,-29],[65,-32],[73,-20],[71,-48]],[[2964,574],[1,-15],[-63,-92],[-81,-59],[-2,-44],[60,-40],[-53,-105],[-28,-4],[-139,63],[-84,113],[-73,29],[-45,-49]],[[1701,1049],[-34,199],[0,150]],[[1667,1398],[70,-56],[32,-45],[17,-53],[43,-85],[42,-23],[67,50],[49,57],[65,8],[52,-13],[41,25],[54,5]],[[2199,1268],[21,-17],[46,-92],[45,-60],[25,-75]],[[2199,1268],[106,48]],[[2305,1316],[51,-51],[70,-11],[84,-82],[100,-27]],[[2610,1145],[-20,-51],[10,-45],[27,-19],[185,-57],[160,-66],[9,-19],[-46,-126],[-58,-64],[40,-26],[47,-98]],[[1667,1398],[13,81],[43,12]],[[1723,1491],[85,25],[122,12],[138,22],[21,29]],[[2089,1579],[54,-3],[21,-32],[6,-60],[71,-41],[21,-67],[43,-60]],[[2577,1468],[-1,-23],[34,-71],[-9,-73],[45,-128],[-36,-28]],[[2089,1579],[-21,60],[50,68]],[[2118,1707],[23,11],[47,80],[51,-27],[81,-10],[32,10]],[[1723,1491],[-30,60],[-68,77],[-18,66],[-31,55],[14,49],[-44,39]],[[1546,1837],[85,11],[45,-41],[35,35],[-6,43]],[[1705,1885],[94,2],[53,17],[130,12],[52,25]],[[2034,1941],[32,-97],[-21,-48],[73,-89]],[[1422,892],[-60,51],[-47,25],[-189,142],[-109,109],[-66,78],[63,6],[125,-77],[7,-34],[39,-2],[49,44],[53,5],[28,19],[-66,47],[-17,-43],[-95,62],[-44,8],[-25,39],[-68,-10],[-60,-36],[-30,43],[-58,6],[-42,49],[-19,47],[-8,89]],[[783,1559],[16,49],[38,1],[4,-57],[25,-36],[42,15],[118,69],[21,45],[93,93],[28,15],[114,31],[117,17],[75,28]],[[1474,1829],[25,20],[47,-12]],[[2034,1941],[24,60],[-72,115],[-18,47],[-43,64],[-36,12],[-37,79],[107,43],[-39,93],[16,32],[51,-13],[55,-38],[38,-116],[36,-53],[70,-39],[64,0]],[[1705,1885],[-17,32],[-107,32],[-22,137],[4,81],[43,47],[-42,42],[-10,77],[18,103],[-7,26],[-62,46],[-7,27]],[[1496,2535],[25,53],[29,25],[-4,58],[46,23],[37,71],[2,73],[58,34],[73,90],[30,49],[43,-1],[27,-28],[28,34],[31,2]],[[1921,3018],[14,-16],[58,38],[152,10],[57,12],[76,-65]],[[1341,3244],[80,14],[171,-79],[122,12],[66,-30],[72,-51],[69,-92]],[[1496,2535],[-137,5],[-54,-39],[-68,-74]],[[1237,2427],[-57,4],[-67,58]],[[1113,2489],[-17,11],[30,70],[-19,132],[-26,21],[-117,0],[-87,55],[-30,33],[-47,195]],[[800,3006],[5,17],[-16,125],[96,44],[80,19]],[[1474,1829],[-89,15],[-20,-5],[-42,38],[-75,23],[-87,9],[-33,28],[-31,61],[-39,44],[30,51],[37,12],[32,34],[4,49],[-16,76],[23,54],[66,71],[3,38]],[[783,1559],[-9,15],[-112,95],[-48,52],[-70,93],[82,-19],[69,1],[-11,-44],[43,-21],[10,75],[-39,57],[-57,-12],[-38,30],[-90,-13],[-19,22],[8,68],[-15,97],[-18,44],[-107,124],[-69,92],[41,-7],[73,-110],[60,-46],[42,-15],[10,-102],[36,3],[61,32],[65,14],[67,-5],[-34,44],[-4,68],[-39,12],[-9,-38],[-51,-49],[-64,-13],[-18,14],[-23,77],[38,20],[-27,75],[-25,-30],[-51,-15],[-27,21],[1,41],[-54,-5],[-68,49],[3,48],[-32,14],[-10,70],[-55,77]],[[199,2559],[63,7],[42,-35],[134,-58],[122,-81],[163,9],[102,-39],[33,-42],[30,-10],[92,2],[31,91],[73,50],[29,36]],[[800,3006],[-55,58],[-95,29],[-47,60],[-34,87],[-18,13]],[[551,3253],[-1,66],[25,64],[10,61],[-9,46],[15,30],[-33,182],[-17,59],[46,63],[25,-39],[-9,-50],[16,-46],[37,0],[28,-28],[57,15],[38,-12],[17,-41],[53,26],[19,-18],[47,3],[42,-18],[53,13]],[[283,2811],[-32,11],[-18,98],[39,10],[34,-13],[1,-90],[-24,-16]],[[199,2559],[-1,51],[-39,18],[-32,38],[-20,58],[-49,93],[-58,127],[49,-9],[35,-44],[13,-74],[45,-19],[32,80],[43,-11],[16,-49],[48,-51],[33,51],[9,43],[50,51],[-7,47],[47,43],[31,53],[72,81],[35,76],[0,41]],[[4593,1419],[35,36],[-46,70],[-51,59],[-13,34],[-50,19]]],"transform":{"scale":[0.0011283489719613393,0.001134497969472728],"translate":[8.700145523597087,-3.99105205770627]},"objects":{"GAB":{"type":"GeometryCollection","geometries":[{"arcs":[[0,1,2,3,4,5,6,7]],"type":"Polygon","properties":{"name":"Komo","shapeGroup":"GAB","gid":"GAB-2-0"},"id":"GAB-2-0"},{"arcs":[[8,9,10]],"type":"Polygon","properties":{"name":"Ntem","shapeGroup":"GAB","gid":"GAB-2-1"},"id":"GAB-2-1"},{"arcs":[[-9,11,12,13]],"type":"Polygon","properties":{"name":"Haut-Ntem","shapeGroup":"GAB","gid":"GAB-2-2"},"id":"GAB-2-2"},{"arcs":[[-10,-14,14,15,16]],"type":"Polygon","properties":{"name":"Woleu","shapeGroup":"GAB","gid":"GAB-2-3"},"id":"GAB-2-3"},{"arcs":[[17,18]],"type":"Polygon","properties":{"name":"Zadiè","shapeGroup":"GAB","gid":"GAB-2-4"},"id":"GAB-2-4"},{"arcs":[[-13,19,-18,20,21,22,23,24,-15]],"type":"Polygon","properties":{"name":"Ivindo","shapeGroup":"GAB","gid":"GAB-2-5"},"id":"GAB-2-5"},{"arcs":[[-8,25,26,-16,-25,27,28,29]],"type":"Polygon","properties":{"name":"Okano","shapeGroup":"GAB","gid":"GAB-2-6"},"id":"GAB-2-6"},{"arcs":[[-24,30,-28]],"type":"Polygon","properties":{"name":"Mvoung","shapeGroup":"GAB","gid":"GAB-2-7"},"id":"GAB-2-7"},{"arcs":[[-7,31,32,-26]],"type":"Polygon","properties":{"name":"Haut-Komo","shapeGroup":"GAB","gid":"GAB-2-8"},"id":"GAB-2-8"},{"arcs":[[-6,33,34,-32]],"type":"Polygon","properties":{"name":"Noya","shapeGroup":"GAB","gid":"GAB-2-9"},"id":"GAB-2-9"},{"arcs":[[35,36]],"type":"Polygon","properties":{"name":"Libreville","shapeGroup":"GAB","gid":"GAB-2-10"},"id":"GAB-2-10"},{"arcs":[[-5,37,-37,38,-34]],"type":"Polygon","properties":{"name":"Komo-Mondah","shapeGroup":"GAB","gid":"GAB-2-11"},"id":"GAB-2-11"},{"arcs":[[-29,-31,39,40,41,42]],"type":"Polygon","properties":{"name":"Lopè","shapeGroup":"GAB","gid":"GAB-2-12"},"id":"GAB-2-12"},{"arcs":[[-23,43,44,45,46,47,-40]],"type":"Polygon","properties":{"name":"Mouloundou","shapeGroup":"GAB","gid":"GAB-2-13"},"id":"GAB-2-13"},{"arcs":[[-41,-48,48,49,50,51,52]],"type":"Polygon","properties":{"name":"Lolo-Bouenguidi","shapeGroup":"GAB","gid":"GAB-2-14"},"id":"GAB-2-14"},{"arcs":[[-47,53,54,55,-49]],"type":"Polygon","properties":{"name":"Lombo-Bouenguidi","shapeGroup":"GAB","gid":"GAB-2-15"},"id":"GAB-2-15"},{"arcs":[[-55,56,57,58,59]],"type":"Polygon","properties":{"name":"Lèkoko","shapeGroup":"GAB","gid":"GAB-2-16"},"id":"GAB-2-16"},{"arcs":[[-59,60,61]],"type":"Polygon","properties":{"name":"Ogoouè-Lètili","shapeGroup":"GAB","gid":"GAB-2-17"},"id":"GAB-2-17"},{"arcs":[[62,63,64,65,66]],"type":"Polygon","properties":{"name":"Plateaux","shapeGroup":"GAB","gid":"GAB-2-18"},"id":"GAB-2-18"},{"arcs":[[-65,67,68,69]],"type":"Polygon","properties":{"name":"Djouori-Agnili","shapeGroup":"GAB","gid":"GAB-2-19"},"id":"GAB-2-19"},{"arcs":[[-66,-70,70,71,72]],"type":"Polygon","properties":{"name":"Lèkoni-Lèkori","shapeGroup":"GAB","gid":"GAB-2-20"},"id":"GAB-2-20"},{"arcs":[[-67,-73,73,74,75]],"type":"Polygon","properties":{"name":"Djouè","shapeGroup":"GAB","gid":"GAB-2-21"},"id":"GAB-2-21"},{"arcs":[[-75,76,77]],"type":"Polygon","properties":{"name":"Bayi-Brikolo","shapeGroup":"GAB","gid":"GAB-2-22"},"id":"GAB-2-22"},{"arcs":[[-69,78,79,-71]],"type":"Polygon","properties":{"name":"Lèkabi-Lèwolo","shapeGroup":"GAB","gid":"GAB-2-23"},"id":"GAB-2-23"},{"arcs":[[-46,80,-57,-54]],"type":"Polygon","properties":{"name":"Lèbombi-Leyou","shapeGroup":"GAB","gid":"GAB-2-24"},"id":"GAB-2-24"},{"arcs":[[-22,81,-77,-74,-72,-80,82,-44]],"type":"Polygon","properties":{"name":"Sèbè-Brikolo","shapeGroup":"GAB","gid":"GAB-2-25"},"id":"GAB-2-25"},{"arcs":[[-51,83,84]],"type":"Polygon","properties":{"name":"Louetsi-Bibaka","shapeGroup":"GAB","gid":"GAB-2-26"},"id":"GAB-2-26"},{"arcs":[[85,86,87,88]],"type":"Polygon","properties":{"name":"Louetsi-Wano","shapeGroup":"GAB","gid":"GAB-2-27"},"id":"GAB-2-27"},{"arcs":[[-52,-85,89,-89,90,91]],"type":"Polygon","properties":{"name":"Boumi-Louetsi","shapeGroup":"GAB","gid":"GAB-2-28"},"id":"GAB-2-28"},{"arcs":[[-42,-53,-92,92,93]],"type":"Polygon","properties":{"name":"Offouè-Onoyè","shapeGroup":"GAB","gid":"GAB-2-29"},"id":"GAB-2-29"},{"arcs":[[-88,94,95,96,97,-93,-91]],"type":"Polygon","properties":{"name":"Ogoulou","shapeGroup":"GAB","gid":"GAB-2-30"},"id":"GAB-2-30"},{"arcs":[[98,99,100]],"type":"Polygon","properties":{"name":"Haute-Banio","shapeGroup":"GAB","gid":"GAB-2-31"},"id":"GAB-2-31"},{"arcs":[[-100,101,102,103,104]],"type":"Polygon","properties":{"name":"Basse-Banio","shapeGroup":"GAB","gid":"GAB-2-32"},"id":"GAB-2-32"},{"arcs":[[-101,-105,105,106,107]],"type":"Polygon","properties":{"name":"Mongo","shapeGroup":"GAB","gid":"GAB-2-33"},"id":"GAB-2-33"},{"arcs":[[-104,108,109,110,-106]],"type":"Polygon","properties":{"name":"Mougoutsi","shapeGroup":"GAB","gid":"GAB-2-34"},"id":"GAB-2-34"},{"arcs":[[-107,-111,111,112,113]],"type":"Polygon","properties":{"name":"Doutsita","shapeGroup":"GAB","gid":"GAB-2-35"},"id":"GAB-2-35"},{"arcs":[[-110,114,115,116,-112]],"type":"Polygon","properties":{"name":"Douigni","shapeGroup":"GAB","gid":"GAB-2-36"},"id":"GAB-2-36"},{"arcs":[[-87,117,-113,-117,118,119,-95]],"type":"Polygon","properties":{"name":"Dola","shapeGroup":"GAB","gid":"GAB-2-37"},"id":"GAB-2-37"},{"arcs":[[-116,120,121,122,123,-119]],"type":"Polygon","properties":{"name":"Mougalaba","shapeGroup":"GAB","gid":"GAB-2-38"},"id":"GAB-2-38"},{"arcs":[[-103,124,125,126,-121,-115,-109]],"type":"Polygon","properties":{"name":"Ndougou","shapeGroup":"GAB","gid":"GAB-2-39"},"id":"GAB-2-39"},{"arcs":[[-96,-120,-124,127]],"type":"Polygon","properties":{"name":"Douya-Onoyè","shapeGroup":"GAB","gid":"GAB-2-40"},"id":"GAB-2-40"},{"arcs":[[-97,-128,-123,128,129,130]],"type":"Polygon","properties":{"name":"Tsamba-Magotsi","shapeGroup":"GAB","gid":"GAB-2-41"},"id":"GAB-2-41"},{"arcs":[[-2,131,-130,132,133,134,135]],"type":"Polygon","properties":{"name":"Ogoouè et Lacs","shapeGroup":"GAB","gid":"GAB-2-42"},"id":"GAB-2-42"},{"arcs":[[-122,-127,136,-133,-129]],"type":"Polygon","properties":{"name":"Ndolou","shapeGroup":"GAB","gid":"GAB-2-43"},"id":"GAB-2-43"},{"arcs":[[-126,137,138,-134,-137]],"type":"Polygon","properties":{"name":"Etimbouè","shapeGroup":"GAB","gid":"GAB-2-44"},"id":"GAB-2-44"},{"arcs":[[-3,-136,139,140]],"type":"Polygon","properties":{"name":"Komo-Ocèan","shapeGroup":"GAB","gid":"GAB-2-45"},"id":"GAB-2-45"},{"arcs":[[-1,-30,-43,-94,-98,-131,-132]],"type":"Polygon","properties":{"name":"Abanga-Bignè","shapeGroup":"GAB","gid":"GAB-2-46"},"id":"GAB-2-46"},{"arcs":[[[141]],[[-135,-139,142,-140]]],"type":"MultiPolygon","properties":{"name":"Bendjè","shapeGroup":"GAB","gid":"GAB-2-47"},"id":"GAB-2-47"},{"arcs":[[-45,-83,-79,-68,-64,143,-61,-58,-81]],"type":"Polygon","properties":{"name":"Mpassa","shapeGroup":"GAB","gid":"GAB-2-48"},"id":"GAB-2-48"}]}}}