{"type":"Topology","arcs":[[[5947,7184],[58,-134],[-23,-16]],[[5982,7034],[-116,13],[-39,18]],[[5827,7065],[95,125],[25,-6]],[[5982,6966],[29,-35],[18,-76]],[[6029,6855],[-77,11]],[[5952,6866],[-40,12],[26,108],[44,-20]],[[5982,6966],[3,7]],[[5985,6973],[37,68],[87,-17],[45,-34],[177,-52]],[[6331,6938],[-74,-92],[-62,-13],[-122,28],[-44,-6]],[[5982,7034],[3,-61]],[[5952,6866],[-93,-69],[-78,35]],[[5781,6832],[11,48],[-22,54],[8,58]],[[5778,6992],[49,73]],[[5781,6832],[-96,-24],[-30,62],[-100,34]],[[5555,6904],[-10,57],[23,65],[65,0],[41,-38],[104,4]],[[4715,5141],[38,14],[31,-62]],[[4784,5093],[-40,-26],[-96,15]],[[4648,5082],[-1,42],[68,17]],[[4655,5212],[47,-25]],[[4702,5187],[-3,-35]],[[4699,5152],[-114,-45]],[[4585,5107],[6,24]],[[4591,5131],[28,13],[36,68]],[[4715,5141],[-16,11]],[[4702,5187],[23,65],[74,26]],[[4799,5278],[21,32],[54,-11]],[[4874,5299],[35,-66]],[[4909,5233],[19,-43]],[[4928,5190],[-78,-67]],[[4850,5123],[-66,-30]],[[4976,5607],[-7,-54]],[[4969,5553],[-69,-16],[-44,11]],[[4856,5548],[-44,179],[83,50],[27,-92],[54,-78]],[[4395,5919],[24,-11],[20,-140],[-52,3]],[[4387,5771],[8,148]],[[6653,5686],[24,107],[65,33],[55,-48],[4,-60]],[[6801,5718],[-72,-4],[-76,-28]],[[6653,5686],[-106,-17],[-75,38],[-36,-18],[-23,-55]],[[6413,5634],[-128,-77],[-15,7]],[[6270,5564],[-70,32],[-88,-5]],[[6112,5591],[9,57],[65,10],[-9,73],[39,23],[-17,144],[21,28]],[[6220,5926],[-2,166]],[[6218,6092],[41,38],[164,20],[107,95],[33,-13],[84,77],[-6,40],[111,-41],[64,-6],[15,38]],[[6831,6340],[102,-44],[-9,-36],[-54,-8],[-39,-63],[-1,-74],[49,-158],[103,-168],[132,-188],[-30,-33],[-43,13],[-74,-30],[-42,9],[-95,110],[-29,48]],[[6841,5567],[92,-88],[26,4],[70,-87]],[[7029,5396],[-49,-18],[-59,-65],[-11,-54],[-77,79],[-8,69],[26,49],[-88,71]],[[6763,5527],[78,40]],[[6413,5634],[76,44],[75,-56],[45,32],[152,24],[80,-111]],[[6763,5527],[-38,-81],[-70,6],[1,-72],[-62,-15],[9,-47],[-69,-21],[-62,-1],[5,81],[-98,11],[-51,-97]],[[6328,5291],[-88,30],[-30,41]],[[6210,5362],[37,52],[-5,68],[28,82]],[[6220,5926],[-73,14],[-83,-21],[-78,69],[-24,79],[62,21],[27,60],[52,41],[49,-2],[66,-95]],[[5687,4499],[65,39],[73,-37],[-35,-91],[-61,8],[-40,29],[-2,52]],[[5995,4105],[24,46],[71,-32],[24,-53],[-83,-69],[-41,78],[5,30]],[[6443,4249],[46,4],[61,-32],[39,-43],[55,-6],[-56,-97]],[[6588,4075],[-39,-21],[-15,-47],[-100,-54],[-34,-50]],[[6400,3903],[-67,108],[-14,73],[19,72],[-31,31],[136,62]],[[5997,4639],[83,-104],[-57,-17],[-5,-55],[-76,79],[55,97]],[[4475,3640],[31,56],[97,3],[11,-47],[67,-72],[42,50],[41,-53]],[[4764,3577],[-19,-30],[10,-69],[114,25],[62,-30],[27,-42],[-26,-54],[61,-42],[12,-82],[-12,-102]],[[4993,3151],[-123,-60],[47,-125],[-79,-55],[-60,-6],[-42,-45]],[[4736,2860],[-40,28],[-36,-13],[-25,66],[-94,80],[-81,-44],[-82,117]],[[4378,3094],[-27,59],[7,42],[-30,41],[18,58],[-27,31],[55,112],[-1,34],[58,43],[4,86],[40,40]],[[5024,4213],[-53,10],[-52,-186],[-55,21],[-46,63],[-58,42],[-35,91],[111,51],[53,39],[48,10]],[[4937,4354],[87,-141]],[[5112,4583],[9,59],[-31,79],[34,29],[63,-42],[2,-64],[36,-82],[-86,-31],[-27,52]],[[4856,2267],[36,-19],[108,35],[42,-16]],[[5042,2267],[5,-155]],[[5047,2112],[-140,-76],[-91,43],[-60,-30],[-58,53]],[[4698,2102],[43,85],[47,33]],[[4788,2220],[68,47]],[[4788,2220],[-37,9],[6,68],[-50,47]],[[4707,2344],[-29,41],[38,54]],[[4716,2439],[18,-46],[118,-29],[4,-97]],[[4698,2102],[-106,12],[7,-37],[-157,-1]],[[4442,2076],[26,122],[43,20],[51,85],[46,48],[71,23],[28,-30]],[[4716,2439],[40,92],[45,38],[34,69]],[[4835,2638],[128,-56],[18,-54],[80,-39]],[[5061,2489],[17,-76],[-33,-60],[-3,-86]],[[3436,772],[69,-4],[37,-35],[-11,-67],[-60,-14]],[[3471,652],[-71,79],[36,41]],[[3998,905],[-6,-93],[-37,-46],[45,-66]],[[4000,700],[-32,-8],[-72,78],[38,77],[64,58]],[[5477,2622],[30,-7],[60,42]],[[5567,2657],[-14,-29],[34,-53],[-26,-45],[75,-130]],[[5636,2400],[-167,-50],[-48,92],[22,118],[34,11],[0,51]],[[6987,4107],[15,-101],[-149,-38],[-12,-35],[-79,-57],[-48,86],[-57,21]],[[6657,3983],[-67,5],[19,62],[-21,25]],[[6588,4075],[77,11],[61,41],[63,-35],[42,22],[61,-22],[34,31],[61,-16]],[[6709,2931],[-59,-29],[-71,69],[17,33],[86,-11]],[[6682,2993],[27,-62]],[[7719,2434],[-33,-29],[-135,25]],[[7551,2430],[12,58],[126,-36],[30,-18]],[[7449,2430],[13,-33],[-66,-27],[-10,-54],[-80,-14],[-51,13],[-61,43]],[[7194,2358],[88,113]],[[7282,2471],[60,0],[107,-41]],[[7552,2186],[-22,-62],[-49,-8],[-35,40],[-44,-20],[-44,18],[26,52],[50,41],[-26,60]],[[7408,2307],[8,40],[67,7],[132,-22],[9,-56],[-64,17],[-64,-77],[56,-30]],[[6326,2285],[15,41],[104,-36],[-30,-50],[25,-39]],[[6440,2201],[-58,-29],[-35,-50]],[[6347,2122],[-53,31]],[[6294,2153],[42,29],[-10,103]],[[5652,2410],[25,43],[73,-37],[38,25],[142,-12],[102,-32],[34,-39],[57,-22]],[[6123,2336],[30,-73]],[[6153,2263],[-9,-50],[22,-45]],[[6166,2168],[-164,-8],[-64,22],[-137,1],[-16,-54],[-59,-11]],[[5726,2118],[3,61],[-52,38],[27,78],[-50,69],[-2,46]],[[6123,2336],[68,27],[7,-50]],[[6198,2313],[5,-45],[-50,-5]],[[6462,2374],[10,57],[53,-41],[67,-25]],[[6592,2365],[-16,-38]],[[6576,2327],[-13,4]],[[6563,2331],[-9,22],[-92,21]],[[6326,2285],[-29,34],[14,65],[-22,56]],[[6289,2440],[100,49],[28,-23],[-8,-76],[53,-16]],[[6563,2331],[-60,-45],[-21,-74],[-42,-11]],[[6294,2153],[-74,20],[-54,-5]],[[6198,2313],[68,65],[-23,62]],[[6243,2440],[46,0]],[[6439,3410],[35,-20],[-7,-63],[38,-43]],[[6505,3284],[-66,-92],[13,-119]],[[6452,3073],[-51,31],[-78,-6],[-58,81]],[[6265,3179],[34,48],[-42,81],[45,9],[43,54],[94,39]],[[6898,1458],[84,-68],[-2,-63]],[[6980,1327],[-152,42]],[[6828,1369],[-25,55],[95,34]],[[6073,1363],[43,13],[0,-62],[-38,-19],[-5,68]],[[5841,1448],[-97,72]],[[5744,1520],[61,41],[44,-22],[29,-60],[-37,-31]],[[5886,1280],[31,-2],[51,-47],[93,-21],[33,-50],[-78,-56],[-21,-78],[-100,-33],[-75,77],[-82,59],[-55,18],[23,43],[45,3],[100,44],[35,43]],[[5555,6904],[-71,-6],[-11,-71],[-57,-4],[-72,-42],[-87,33],[-108,-26]],[[5149,6788],[-2,111],[-114,95],[-17,53],[32,28],[-59,71],[26,43],[12,96]],[[5027,7285],[80,-13],[42,32],[26,57],[49,-6],[88,45],[57,-43],[38,17],[13,60],[29,22]],[[5449,7456],[82,5],[65,-24],[48,14],[30,-30]],[[5674,7421],[45,-17],[21,-91],[51,-10],[1,54],[64,32]],[[5856,7389],[39,-138],[52,-67]],[[4928,5190],[97,-45]],[[5025,5145],[63,3]],[[5088,5148],[48,-10],[40,22],[61,-15],[31,19]],[[5268,5164],[21,-23],[-2,-140],[19,-70]],[[5306,4931],[-71,-63],[-74,-18],[-79,-104],[-60,-13],[-55,-43],[1,-81]],[[4968,4609],[-46,-43],[-82,-33],[-89,74],[-57,-2]],[[4694,4605],[26,64],[-72,46],[40,74],[30,-4],[40,52],[70,-2],[38,22],[37,57],[40,5],[13,91],[-89,34],[-17,79]],[[4694,4605],[-24,-18]],[[4670,4587],[-93,21],[-22,94],[-42,78],[-46,30]],[[4467,4810],[-14,27],[51,48],[-25,42],[-65,55],[-52,13]],[[4362,4995],[-8,8],[-6,8],[-4,7],[-2,37]],[[4342,5055],[30,29],[41,-28],[84,16]],[[4497,5072],[63,-24],[57,5],[31,29]],[[4475,3640],[-74,-7],[-98,65],[-70,82],[107,84],[71,3],[30,78],[-17,33],[-84,-51],[-5,67],[57,91],[3,66],[48,78],[-48,43],[-97,35],[-7,35],[35,71],[-17,35]],[[4309,4448],[44,60],[53,-1],[45,44],[46,-31],[75,6],[37,-70],[60,44],[1,87]],[[4968,4609],[-5,-67],[-44,-14],[-29,-57],[27,-36],[52,15],[-12,-82],[-20,-14]],[[5024,4213],[11,-74],[47,0],[13,-53],[-20,-57],[-4,-127],[-45,-53],[22,-50]],[[5048,3799],[-65,-24],[-4,-77],[-41,-29],[-51,-2],[-6,-54],[-49,20],[-68,-56]],[[3405,786],[-8,-76],[33,-64],[-50,-14],[-68,42],[-111,-1],[-31,-41],[-91,-1],[-91,-19],[-4,42],[-58,-26],[-35,-150],[-56,9],[-46,-59],[-34,9],[-22,-76],[-63,-5],[-33,-34],[31,-109],[-56,-65],[-38,-8],[-45,-48],[-42,49],[10,26],[-52,94],[-96,31],[-48,33],[-56,-32],[6,-53],[-30,-28],[-82,-26],[-38,51],[25,32],[-19,55],[32,58],[38,3],[77,72],[54,4],[37,-38],[34,48],[59,28],[70,63],[77,89],[6,88],[60,16],[29,39],[18,126],[149,108],[45,-1],[23,36],[5,71],[72,39],[23,66],[79,61],[5,83],[-12,100],[20,37]],[[3107,1520],[72,-22],[36,-71],[-18,-29],[-8,-91],[57,-57],[20,-43],[22,-108],[30,-19],[-9,-71],[68,-82],[1,-60],[27,-81]],[[1602,40],[19,-12],[-10,-28],[-19,10],[10,30]],[[5061,2489],[56,38],[47,-19],[82,122],[68,-51],[31,48],[56,-28],[46,33],[30,-10]],[[5636,2400],[16,10]],[[5726,2118],[-30,-19],[-2,-101],[-62,6],[-22,-53],[-48,-4],[54,-145],[-2,-177],[22,-30],[-50,-50],[-50,47],[-30,2],[-70,47],[-104,-29]],[[5332,1612],[-68,-27],[-56,-40],[-16,49],[-45,34],[-18,55],[-42,50],[-72,13]],[[5015,1746],[-33,58],[57,85],[45,117],[-7,53],[-30,53]],[[6439,3410],[27,49],[-14,61],[37,16],[38,-38],[45,91],[42,12]],[[6614,3601],[71,-77],[7,-57],[76,6],[31,-79]],[[6799,3394],[-34,10],[-49,-67],[1,-45],[-34,-60],[-48,-18],[-128,51],[-2,19]],[[6709,2931],[-16,-67],[-42,32],[-113,-35]],[[6538,2861],[-26,65],[-102,58],[42,89]],[[6799,3394],[28,-38],[62,-30],[-11,-86]],[[6878,3240],[-53,-66],[16,-40],[-70,-12],[-106,-104],[17,-25]],[[5027,7285],[-96,77],[-62,-48],[-54,9],[-40,101],[25,19],[3,178],[77,36],[-17,75],[-51,-11],[-32,62],[-49,17],[-29,79]],[[4702,7879],[50,52],[5,57],[130,138],[82,-8],[36,27],[-6,48],[134,94],[-35,70],[-9,69],[-42,37],[-41,77],[76,30],[70,82],[15,43],[54,40],[0,45],[44,27]],[[5265,8807],[83,-136],[58,-32],[25,-82],[44,6],[130,-103],[41,-128],[10,-128],[-25,-34],[19,-72],[32,-21],[-17,-75],[61,-128],[-24,-38],[55,-128]],[[5757,7708],[-22,-31],[-129,16]],[[5606,7693],[-96,-60],[-17,-64]],[[5493,7569],[-55,-42],[11,-71]],[[5271,1223],[16,79],[44,10],[37,-23],[43,49],[53,-16]],[[5464,1322],[15,-46],[80,-41]],[[5559,1235],[-59,-29],[-91,-1],[-57,-27],[-81,45]],[[5332,1612],[93,-150],[36,-39],[3,-101]],[[5271,1223],[-6,-41],[36,-52],[45,7],[-9,-116],[-65,-8],[-75,15],[-18,21],[-94,5],[-153,30],[-41,-79],[-144,120],[-134,81],[-101,23],[-31,-23]],[[4481,1206],[-6,74],[58,41],[-58,39]],[[4475,1360],[58,44],[81,3],[113,51],[49,59],[1,74],[86,27],[40,-67],[96,44],[-32,39],[44,55],[4,57]],[[4969,5553],[5,-89],[30,-56]],[[5004,5408],[-85,13],[-12,-20]],[[4907,5401],[-101,28],[-7,50],[-42,19]],[[4757,5498],[49,3],[50,47]],[[4976,5607],[47,-18],[38,-60]],[[5061,5529],[23,-22],[7,-91]],[[5091,5416],[-17,-31]],[[5074,5385],[-70,23]],[[5025,5145],[25,28],[-13,90],[30,54]],[[5067,5317],[7,68]],[[5091,5416],[44,-15]],[[5135,5401],[20,-54]],[[5155,5347],[4,-56]],[[5159,5291],[-76,-88],[5,-55]],[[5135,5401],[65,106],[44,-11],[28,47]],[[5272,5543],[15,-11]],[[5287,5532],[86,-117]],[[5373,5415],[-47,-42]],[[5326,5373],[-78,32],[-70,-59],[-23,1]],[[5061,5529],[23,73],[72,-33],[13,61]],[[5169,5630],[46,-18],[36,20],[21,-89]],[[4874,5299],[48,7],[-15,95]],[[5067,5317],[-49,11],[-64,-32],[-45,-63]],[[5159,5291],[67,-43],[46,5]],[[5272,5253],[30,-22],[-34,-67]],[[5326,5373],[-19,-82],[-35,-38]],[[4799,5278],[-77,80],[-55,31]],[[4667,5389],[36,125],[54,-16]],[[4591,5131],[-63,94],[21,57],[-47,39]],[[4502,5321],[30,43]],[[4532,5364],[54,-28]],[[4586,5336],[69,-124]],[[4585,5107],[-45,4],[-82,66],[-30,89]],[[4428,5266],[74,55]],[[4586,5336],[7,40],[74,13]],[[4428,5266],[-28,40],[-23,82],[-31,51],[39,100],[46,65],[51,22]],[[4482,5626],[5,-31],[-76,-84],[-15,-89],[61,-41],[24,43],[51,-60]],[[4342,5055],[-82,129],[23,24],[117,65],[34,-102],[63,-99]],[[5650,5518],[48,-21],[72,29],[85,-44]],[[5855,5482],[44,-47],[-13,-56]],[[5886,5379],[-58,0],[-65,-63]],[[5763,5316],[-34,22],[-47,-12],[-130,37],[-32,-39],[-54,6]],[[5466,5330],[-18,60]],[[5448,5390],[177,62],[25,66]],[[6210,5362],[-44,-46],[-8,-52],[-73,-15],[-30,-29]],[[6055,5220],[-47,41],[-58,-3],[-10,65],[-54,56]],[[5855,5482],[78,13],[21,44]],[[5954,5539],[37,22],[121,30]],[[6055,5220],[-26,-57],[6,-42],[-52,-44]],[[5983,5077],[-38,-15],[-70,41]],[[5875,5103],[-6,35],[-94,139],[-12,39]],[[5875,5103],[-53,-17],[-21,36],[-108,-55],[-54,9],[-11,48],[-44,35],[8,38],[-73,43],[-5,62],[-48,28]],[[5606,7693],[39,-38],[-7,-43],[60,-39]],[[5698,7573],[-3,-28]],[[5695,7545],[-88,-12],[-114,36]],[[5757,7708],[36,-82],[-31,-46],[-64,-7]],[[5698,7573],[49,4],[15,-14],[28,46],[58,-64],[-6,-32]],[[5842,7513],[-48,-21],[-79,3]],[[5715,7495],[-20,50]],[[5674,7421],[-9,63],[50,11]],[[5842,7513],[14,-124]],[[5405,3992],[38,36],[34,-31]],[[5477,3997],[21,-26],[9,-86]],[[5507,3885],[-5,-91],[-35,9],[-59,-80]],[[5408,3723],[-39,4],[-73,-39],[-30,32],[14,45]],[[5280,3765],[4,44]],[[5284,3809],[64,54],[-20,45],[37,28]],[[5365,3936],[40,56]],[[5638,3700],[5,100]],[[5643,3800],[47,13],[70,-14],[30,-34],[-34,-89],[-118,24]],[[5280,3765],[-18,13],[-109,-17]],[[5153,3761],[-23,110],[41,20],[9,55]],[[5180,3946],[51,-6]],[[5231,3940],[13,-131],[40,0]],[[5231,3940],[20,4]],[[5251,3944],[35,25],[79,-33]],[[5507,3885],[65,-114],[71,29]],[[5638,3700],[-19,-34],[-61,-23],[-73,20],[-80,5]],[[5405,3668],[3,55]],[[5251,3944],[-23,50],[23,51]],[[5251,4045],[78,34],[38,-12],[38,-75]],[[5180,3946],[-36,1],[-18,78],[56,46],[69,-26]],[[5255,5881],[55,28],[14,123],[75,4],[130,-66]],[[5529,5970],[28,-78],[-15,-111],[27,-40]],[[5569,5741],[-29,9],[-47,-54]],[[5493,5696],[-34,57],[-153,47],[-64,44]],[[5242,5844],[13,37]],[[5169,5630],[-23,61],[36,42],[3,71],[57,40]],[[5493,5696],[19,-48],[-126,-73],[-34,4],[-65,-47]],[[5569,5741],[50,-57],[45,-18]],[[5664,5666],[-38,-43],[1,-79],[23,-26]],[[5448,5390],[-75,25]],[[5529,5970],[92,-10],[105,18],[56,-7],[31,48],[78,-13],[-5,-103],[-35,-13],[54,-139],[-10,-32]],[[5895,5719],[-84,-34],[-95,16],[-52,-35]],[[5895,5719],[49,-74],[-9,-70],[19,-36]],[[6923,2401],[17,2]],[[6940,2403],[6,2]],[[6946,2405],[-1,-20]],[[6945,2385],[-27,4]],[[6918,2389],[0,7]],[[6918,2396],[5,5]],[[7150,2391],[-52,4]],[[7098,2395],[-26,44]],[[7072,2439],[44,20],[25,62]],[[7141,2521],[-1,-45],[37,-24],[-27,-61]],[[6752,2577],[105,48]],[[6857,2625],[46,-55],[-9,-32]],[[6894,2538],[-28,-57]],[[6866,2481],[-36,-26]],[[6830,2455],[-46,68]],[[6784,2523],[-32,54]],[[7201,2344],[-54,-74],[-6,-34]],[[7141,2236],[-63,36]],[[7078,2272],[6,51],[36,15],[-3,52]],[[7117,2390],[84,-46]],[[6830,2455],[19,-28]],[[6849,2427],[-21,-12]],[[6828,2415],[-11,3]],[[6817,2418],[-15,4]],[[6802,2422],[-33,-6],[-44,41]],[[6725,2457],[8,34],[51,32]],[[7141,2236],[-10,-96],[-81,-76]],[[7050,2064],[-35,54]],[[7015,2118],[-25,75],[-44,60]],[[6946,2253],[0,2]],[[6946,2255],[4,8]],[[6950,2263],[54,-19],[35,42]],[[7039,2286],[39,-14]],[[6918,2396],[-69,31]],[[6866,2481],[25,-5]],[[6891,2476],[32,-75]],[[7015,2118],[-34,14],[-74,-77],[-28,52]],[[6879,2107],[34,36],[-15,67]],[[6898,2210],[6,32]],[[6904,2242],[42,11]],[[6802,2422],[-6,-47]],[[6796,2375],[-50,-14],[-82,12]],[[6664,2373],[25,82]],[[6689,2455],[36,2]],[[6857,2625],[66,34],[80,-16]],[[7003,2643],[0,-52]],[[7003,2591],[-25,-60]],[[6978,2531],[-84,7]],[[7039,2286],[-45,50]],[[6994,2336],[38,28],[47,3],[38,23]],[[6940,2403],[-16,67]],[[6924,2470],[37,19]],[[6961,2489],[38,-39]],[[6999,2450],[0,-12]],[[6999,2438],[-53,-33]],[[6817,2418],[39,-79]],[[6856,2339],[-34,-8]],[[6822,2331],[-19,25]],[[6803,2356],[-7,19]],[[6978,2531],[-17,-42]],[[6924,2470],[-33,6]],[[6689,2455],[-23,87]],[[6666,2542],[86,35]],[[7194,2358],[-44,33]],[[7141,2521],[-9,36]],[[7132,2557],[74,13],[76,-99]],[[6592,2365],[12,96],[-21,61]],[[6583,2522],[83,20]],[[6664,2373],[-4,-45],[-41,-20]],[[6619,2308],[-43,19]],[[6803,2356],[-53,-9],[-73,-90]],[[6677,2257],[-58,51]],[[6828,2415],[57,-64]],[[6885,2351],[-29,-12]],[[6795,2279],[3,-7]],[[6798,2272],[10,-64]],[[6808,2208],[-5,-14]],[[6803,2194],[-62,20]],[[6741,2214],[54,65]],[[6904,2242],[-11,11]],[[6893,2253],[-9,69],[19,29]],[[6903,2351],[15,38]],[[6918,2389],[8,-88],[20,-46]],[[6950,2263],[36,100]],[[6986,2363],[8,-27]],[[6898,2210],[-90,-2]],[[6798,2272],[52,14],[43,-33]],[[7098,2395],[-33,-24],[-44,14]],[[7021,2385],[-22,53]],[[6999,2450],[32,7]],[[7031,2457],[41,-18]],[[7031,2457],[1,108]],[[7032,2565],[44,-36],[56,28]],[[6822,2331],[-27,-52]],[[6741,2214],[-64,43]],[[6945,2385],[41,-22]],[[6879,2107],[-76,67],[0,20]],[[7021,2385],[-76,0]],[[7003,2591],[29,-26]],[[6885,2351],[18,0]],[[6243,2440],[-36,39],[7,142],[37,78],[-42,52],[-124,5],[-37,56],[53,75],[-27,74],[-2,95],[37,67],[-56,19]],[[6053,3142],[-4,45],[83,45],[64,9],[39,-90],[30,28]],[[6538,2861],[-24,-30],[-74,13],[-45,61],[-22,-27],[52,-57],[10,-47],[52,-32],[92,-111],[-27,-19],[31,-90]],[[6987,4107],[68,29],[-4,49],[77,38],[33,-2]],[[7161,4221],[-13,-70],[12,-61],[42,-43],[-24,-34],[13,-118],[26,-19],[62,10],[50,-19],[53,-69],[0,-27]],[[7382,3771],[-46,-40],[42,-120],[69,-67],[-69,-43],[-36,56],[-36,-38],[27,-62],[43,20],[80,-19],[-20,-92],[-64,-9],[-24,-62],[13,-78]],[[7361,3217],[-50,-24],[-60,65],[-63,0],[-11,-49],[-53,-19],[-52,-62]],[[7072,3128],[-24,71],[-51,15],[-92,-63],[-27,89]],[[6614,3601],[-27,85],[47,8],[68,72],[18,50],[-11,59],[-51,29],[-1,79]],[[5149,6788],[-68,-9],[-51,-48],[9,-64],[-60,-31],[50,-48],[-8,-100],[-122,-45]],[[4899,6443],[-99,-47],[-55,10],[-34,-61],[-49,12],[-54,42],[-33,-35]],[[4575,6364],[-50,11],[-25,-46],[-64,6],[-30,62],[-61,-115],[-57,-56],[-60,41],[4,68],[34,111],[-107,-58],[-85,141],[-2,80],[-68,109],[-117,151],[41,59],[22,90],[-5,58],[55,99],[60,61],[0,65],[32,98],[99,111],[69,18],[44,-33],[86,91]],[[4390,7586],[24,65],[57,19],[86,89]],[[4557,7759],[145,120]],[[5983,5077],[28,-51],[-31,-24],[5,-114],[-54,-31],[-55,-3],[20,-90],[-38,-54],[55,-174],[11,-113]],[[5924,4423],[-66,-9],[-43,-46],[-63,-104],[-73,-5],[3,-65],[-41,-29]],[[5641,4165],[-92,47],[33,78],[47,-4],[22,75],[-35,34],[-130,43],[-43,1],[-25,58],[26,81],[55,34],[3,55],[-87,226],[-109,38]],[[3436,772],[-31,14]],[[3107,1520],[18,140],[86,-13],[30,-28],[75,4],[74,101],[-5,78],[11,109],[105,40],[168,10],[33,16],[114,-2]],[[3816,1975],[-3,-80],[-98,-4],[4,-58],[26,-34],[135,-86],[45,-4],[-17,-59],[68,-18],[13,33],[85,8],[35,-19],[1,-61],[39,8],[68,-61],[76,9],[-19,-56],[53,-13],[64,10],[13,-85],[54,6],[17,-51]],[[4481,1206],[-128,-49],[-82,-1],[-57,-17],[-37,-62],[-52,-37],[-77,60],[6,-68],[-56,-127]],[[4000,700],[-9,-49],[-82,-43],[-25,-41],[-15,-76],[-52,-55],[-46,33],[-43,-11],[-30,65],[-51,53],[-64,17],[-37,-22],[-72,40],[-3,41]],[[6898,1458],[17,133],[35,23],[42,-17],[10,140],[35,99]],[[7037,1836],[19,4]],[[7056,1840],[72,7],[33,-48],[132,11],[126,-138],[83,-40],[80,21],[39,-36],[62,-6],[29,-71],[36,-27]],[[7748,1513],[-69,5],[-38,-20],[-62,-65],[-57,-25],[-184,-49],[-101,-122],[-43,-1],[-214,91]],[[7551,2430],[-62,-42],[-40,42]],[[7003,2643],[-1,92],[35,47],[102,33],[17,39],[8,90],[-43,3],[-16,130],[-33,51]],[[7361,3217],[53,19],[31,-36],[69,32],[87,17],[24,-22],[2,-67],[50,-85],[67,-14],[64,23],[111,-35]],[[7919,3049],[56,-19],[44,12],[99,-17],[-74,-78],[31,-35],[-8,-72],[-79,-55],[-78,-9],[-51,97],[-69,-46],[-18,-69],[-35,-29],[-56,8],[-56,-45],[121,-1],[36,45],[47,-20],[-13,-145],[-59,-26],[-51,-43],[13,-68]],[[7813,2511],[-55,-50],[-24,52],[31,30],[48,-32]],[[4993,3151],[21,-68],[65,-14],[55,79],[109,-7],[169,58],[83,88]],[[5495,3287],[31,-58],[58,-63],[-2,-65]],[[5582,3101],[18,-98],[-36,-84],[4,-92],[-32,-31],[28,-65],[3,-74]],[[4835,2638],[-27,26],[-83,-89]],[[4725,2575],[5,58],[-26,84],[32,143]],[[6347,2122],[27,-34],[13,-79],[-14,-38],[-51,22],[-38,-52],[82,-185]],[[6366,1756],[-123,-96],[-52,-196],[21,-67]],[[6212,1397],[-75,-10],[-83,5],[-25,-25],[29,-54],[-26,-24],[-62,53],[-80,48],[-49,58]],[[5744,1520],[143,-172],[-27,-41],[-137,-47],[-68,-54],[-96,29]],[[7552,2186],[18,34],[68,3],[32,-55],[88,-10],[26,-22],[93,12],[24,24],[164,21],[79,1],[64,20],[45,-9],[-15,-92],[-46,-18],[29,-125],[0,-82],[-24,-51],[-157,-97],[-115,-25],[-55,-52],[-28,-83],[12,-84],[-106,17]],[[7056,1840],[-14,107],[22,50],[-14,67]],[[7201,2344],[48,-40],[93,-15],[66,18]],[[7788,2249],[42,-67],[-46,-26],[-34,24],[-78,-1],[-29,45],[14,69],[131,-44]],[[4482,5626],[-4,18],[-3,6],[18,54],[-91,23],[-15,44]],[[4395,5919],[-2,66],[165,56],[-36,51],[-6,71],[52,57],[41,74],[-34,70]],[[4899,6443],[-89,-149],[35,-48],[51,-29],[-4,-44],[82,5],[18,-58],[50,-54],[55,11],[41,-69],[60,-30],[20,-70],[37,-27]],[[6400,3903],[-36,-21],[-97,24],[-12,-83],[-101,-1],[-38,-37],[-135,-74]],[[5981,3711],[-90,145],[-186,115],[-33,38],[-9,58],[17,48],[-32,30]],[[5648,4145],[-7,20]],[[5924,4423],[5,-94],[55,-32],[70,45],[115,2],[57,87],[51,40],[52,106],[16,0]],[[6345,4577],[20,-41],[-19,-66],[29,-33],[52,-106],[16,-82]],[[7029,5396],[96,-39],[87,-145],[76,-195],[31,-119],[-5,-119],[-90,-95],[-80,-60],[-68,-114],[4,-50],[85,-36],[33,-68],[45,-23]],[[7243,4333],[4,-60],[-86,-52]],[[6345,4577],[-15,51],[39,66],[47,17],[-18,74],[-12,141],[47,11],[-11,60],[-76,-17],[0,55],[24,58],[-59,155],[17,43]],[[7243,4333],[73,-6],[70,66],[49,141],[44,41],[30,-17],[101,22],[32,-26],[43,26],[55,-2],[21,-34],[114,29],[105,-34],[151,-27],[113,-77],[133,-119],[95,-117],[34,-113],[3,-173]],[[8509,3913],[-62,28],[-34,-36],[36,-74],[-32,-21],[-46,26],[-19,-33],[-66,21],[-101,-67],[-40,-60],[-26,5],[-62,-52],[-126,34],[-86,-12],[-32,28],[-206,13],[24,77],[-141,10],[-94,-13],[-14,-16]],[[6053,3142],[-67,-56],[-75,3],[4,52],[-30,55],[56,68],[-72,107]],[[5869,3371],[16,33],[50,12],[-10,54],[44,47],[5,73],[-20,46],[50,15],[-23,60]],[[6331,6938],[106,-86],[88,-32],[41,-50],[-3,-43],[52,-42],[40,-86],[18,-85],[24,-39],[88,-48],[-9,-45],[55,-42]],[[5582,3101],[46,-48],[77,62],[30,145],[53,36],[35,-36],[46,111]],[[3816,1975],[77,-14],[45,12],[72,-12],[81,-62],[106,-4],[106,43],[67,-11],[64,37],[-17,59],[25,53]],[[5648,4145],[-48,-44],[1,-81],[-19,-17],[-105,-6]],[[5153,3761],[-90,13],[-15,25]],[[8509,3913],[20,-75],[-25,-48],[-6,-73],[-45,-130],[-36,-55],[-9,-131],[-38,-152],[-97,-60],[-27,-57],[-77,-77],[-87,7],[-163,-13]],[[7037,1836],[-142,3],[-33,37],[-107,-63],[-78,-12],[-127,-52],[-77,11],[-58,-26],[-49,22]],[[5495,3287],[-62,60],[-55,-29],[-35,33],[23,94],[-17,86],[44,16],[18,69],[-6,52]],[[6828,1369],[-31,4],[-158,-40],[-91,-4],[-138,-34],[-41,-23],[-34,-59],[-101,77],[-30,61],[8,46]],[[1447,7270],[80,-3],[54,18],[81,-4],[47,35],[60,-29],[80,12],[101,-82],[-16,-44],[36,-40]],[[1970,7133],[-38,-61]],[[1932,7072],[-63,17],[-51,-80]],[[1818,7009],[-36,27],[-187,-77]],[[1595,6959],[-16,28],[-88,-35]],[[1491,6952],[16,121],[-76,97],[33,71],[-17,29]],[[1595,6959],[23,-23],[17,-116],[43,-51],[45,-2],[87,-60],[31,-50]],[[1841,6657],[-39,-65],[22,-95],[-105,-66],[-44,59],[-163,22],[-170,-81],[-38,-58]],[[1304,6373],[-41,30],[-42,-27],[-65,61],[-41,160]],[[1115,6597],[23,8],[37,119],[72,-17],[11,57],[134,150],[99,38]],[[1932,7072],[50,-22]],[[1982,7050],[39,-27]],[[2021,7023],[-12,-51],[-76,-22],[-55,-54],[-56,24],[-4,89]],[[872,7667],[82,4],[32,41],[39,106],[2,69],[79,-39],[104,0],[27,32],[166,53],[45,40],[57,-30],[36,21],[67,-24],[46,-41],[78,38],[72,-43],[30,-57],[-13,-161],[56,5]],[[1877,7681],[-41,-29],[-63,-79],[-29,6],[-29,64],[-34,-2],[-101,-75],[-58,3],[-50,-25],[22,-71],[-66,3]],[[1428,7476],[-33,49],[-41,-42],[-27,22],[-121,-53],[-38,-84],[-73,9],[-22,-48]],[[1073,7329],[-108,37],[-5,102],[-37,21],[5,87],[-39,-1],[-34,73],[17,19]],[[1073,7329],[8,-55],[-32,-15]],[[1049,7259],[-56,9],[-96,-45],[-93,4],[-30,-32],[-113,-56],[-48,-78],[-54,19],[-126,-40],[-39,-27]],[[394,7013],[-95,52],[-69,19],[-17,29],[66,90],[75,-48],[97,71],[80,-13],[-5,69],[56,52],[35,71],[-3,95],[47,15],[-12,87],[51,70],[70,24],[102,-29]],[[1049,7259],[-44,-49],[-9,-103],[35,-89],[-11,-102],[-56,-57],[-51,-8],[-53,-41],[-65,-27],[-112,-26],[30,-49],[-2,-49],[46,0],[29,-67],[50,16]],[[836,6608],[37,-168],[-65,-13],[-102,-104],[-120,-36],[-112,32],[-65,96],[-108,-11],[-42,25],[-18,111],[-69,31],[-33,68],[-50,11],[-23,48],[-66,66],[103,96],[31,59],[48,-18],[85,-1],[15,29],[112,84]],[[2021,7023],[33,-3],[-45,-176]],[[2009,6844],[-68,-50],[-58,-116],[-42,-21]],[[1447,7270],[17,65],[-36,141]],[[1877,7681],[-11,-107],[61,-34],[35,-81],[69,-83],[62,-6],[31,-66],[1,-55],[-57,-68],[-31,-1],[-67,-47]],[[1115,6597],[-41,67],[-101,69],[-106,-128],[-31,3]],[[2009,6844],[28,-48],[76,-25],[64,27],[38,-23],[-10,-63],[40,-50],[28,-73]],[[2273,6589],[-38,-57],[-86,-91],[-28,39],[-118,-14],[-54,-55],[18,-56],[-21,-94],[-57,-63],[-86,-60],[-83,63],[-33,50],[-80,22],[-86,-81],[-103,-9],[-97,-24],[-39,54],[21,35],[13,85],[-12,40]],[[1982,7050],[98,66],[17,-16],[118,16],[46,-49],[7,-71],[38,-50],[12,-98],[24,-61],[-38,-43],[17,-63],[-25,-15],[-23,-77]],[[3896,9288],[-74,-43],[-22,-41]],[[3800,9204],[-49,48]],[[3751,9252],[-52,39],[24,92]],[[3723,9383],[42,31],[38,-42],[60,-1],[42,25],[21,-48],[-47,-20],[17,-40]],[[4390,7586],[-83,-43],[-47,22],[-56,-20],[-51,20],[-126,-18],[-93,12],[-5,-74],[23,-27],[-28,-51],[-113,11],[-84,-84],[-137,-83],[-70,19],[-63,-8],[-102,92],[-147,70],[13,-84],[51,-22],[-11,-135],[-22,-68],[-78,34],[-76,57],[-25,58],[-92,70],[-63,13],[-31,51],[-102,-51],[-21,-43],[37,-91],[10,-62],[34,-29],[-48,-57],[-37,30],[15,55],[-38,51],[-16,72],[-109,102],[-41,95],[24,140],[49,14],[34,-75],[-1,-65],[57,18],[-38,92]],[[2683,7594],[57,20],[37,60],[185,-21],[77,46],[-31,32],[3,45],[80,57],[74,-8],[15,26]],[[3180,7851],[72,46],[15,85],[51,78],[84,12],[55,-50],[46,99],[-19,27],[14,64],[76,36],[14,41]],[[3588,8289],[78,-6],[60,-23],[99,-121],[0,-60],[41,-47],[77,55],[-4,84],[61,41]],[[4000,8212],[30,-13],[94,20],[45,42],[57,-26],[-50,-50],[-1,-77],[74,50],[77,-24],[25,-42],[88,-94],[68,13],[46,-61],[-35,-94],[39,-97]],[[3180,7851],[28,125],[-26,47],[18,33],[-78,63],[23,74],[7,106],[82,60],[-9,64],[-94,18],[-15,39],[-48,9]],[[3068,8489],[17,76],[-33,42],[69,101]],[[3121,8708],[62,9],[49,-55],[65,-38],[67,-14]],[[3364,8610],[39,-77],[-1,-66],[104,-23],[36,37],[70,-77],[-58,-72],[34,-43]],[[4369,9010],[140,42],[85,130],[139,-4],[96,-81],[83,-26],[68,-62]],[[4980,9009],[-86,-92],[-57,-20],[-53,-63],[-64,26],[-61,-27],[-32,24],[-59,-38]],[[4568,8819],[-14,31],[-64,36],[-26,72],[-43,-15],[-61,44]],[[4360,8987],[9,23]],[[3121,8708],[-18,33]],[[3103,8741],[73,57],[73,27]],[[3249,8825],[47,-22],[56,4],[9,-39]],[[3361,8768],[-21,-45],[45,-40],[-21,-73]],[[1670,12624],[17,-45],[-103,-102],[-14,-71],[43,-23],[70,61],[43,-40],[-84,-62],[-34,40],[-83,-40],[17,-40],[-78,-71],[68,-19],[18,-79],[-26,-59],[-52,9],[0,-60],[-110,-82],[-83,10],[7,-52],[-118,23],[57,-106],[-53,11],[-64,-90],[-91,-45],[-65,51],[-18,66],[66,35],[42,88],[64,-6],[7,37],[-66,38],[-117,24],[-11,49],[46,51],[-54,58],[-29,75],[40,61],[35,102],[46,1],[53,-70],[151,45],[-59,97],[87,70],[153,55],[95,104],[117,68],[33,53],[69,-73],[12,-55],[-44,-92]],[[706,11183],[86,-74],[17,-78],[-47,-127],[26,-78],[-39,-24],[68,-45],[-139,-20],[-34,68],[-19,130],[33,97],[-6,84],[-23,46],[77,21]],[[828,11677],[3,-64],[33,-21],[-41,-82],[45,-53],[5,-110],[-64,11],[-79,-17],[-11,40],[-90,64],[-46,-15],[-55,55],[41,33],[14,53],[98,-16],[139,46],[8,76]],[[709,11298],[68,-2],[9,-73],[-54,-36],[-70,25],[-16,72],[63,14]],[[541,10502],[27,85],[47,24],[58,-44],[-49,-62],[-83,-3]],[[1094,12463],[35,-5],[43,-56],[-59,-18],[-19,79]],[[893,11564],[51,-26],[-31,-49],[-60,39],[40,36]],[[3992,9092],[-72,-7],[-89,-93],[-102,-57]],[[3729,8935],[-70,62],[-36,66],[-64,68]],[[3559,9131],[40,31],[137,6],[-19,48],[34,36]],[[3751,9252],[54,-66],[5,-48],[49,-25],[63,8],[70,-29]],[[3781,11523],[68,-210],[-15,-80],[170,36],[27,-40],[50,-15],[16,-78],[-86,-99],[39,-36],[-13,-63],[30,-23],[-20,-69],[-72,-14],[-69,-82],[-58,-26]],[[3848,10724],[-56,-28],[4,-89],[-14,-63],[-35,-58]],[[3747,10486],[-46,-19],[-70,18],[-27,-53],[-123,-7],[-49,15],[-51,-71],[-126,-37],[-58,-88],[-68,47],[-47,-105],[-14,-62],[-57,-28],[-51,3],[2,-51],[83,-7],[-7,-33]],[[3038,10008],[-86,-41],[-130,-33],[-60,15],[-40,-51],[-87,-20],[-11,88],[25,33],[-116,34],[-2,-45],[-69,-6],[-24,34]],[[2438,10016],[6,49],[55,25],[-30,59],[-62,-41],[-113,-114],[-47,-78],[-118,-84],[-75,52],[-114,28],[-83,103],[-5,37],[86,19],[-33,46],[-91,7],[-76,-15],[-68,30],[28,77],[59,16],[50,-12],[80,41],[49,-53],[42,120],[64,10],[-3,34],[44,55],[-108,-18],[-26,30],[42,93],[13,62],[88,15],[-59,71],[122,92],[-33,62],[52,47],[-21,41],[55,64],[-48,24],[-60,-5],[1,47],[99,60],[-75,35],[-85,-48],[-32,108],[-41,83],[32,156],[58,-29],[55,7],[-44,89],[-38,25],[9,85],[101,6],[-21,43],[-100,29],[10,65],[-12,91],[46,24],[67,-8],[13,-97],[39,-48],[35,102],[-63,63],[32,68],[57,-17],[10,-64],[72,-7],[29,66],[44,31],[35,-23],[76,-3],[43,67],[-99,46],[-43,57],[-54,10],[-20,43],[14,66],[109,-63],[33,85],[-32,24],[-54,121],[38,31],[98,11],[81,36],[-15,74],[-48,46],[33,51],[70,19],[-45,45],[51,54],[-60,37],[11,49],[53,29],[32,55],[6,71],[53,-25],[59,9],[69,-58],[47,12],[76,-76],[52,2],[3,65],[65,1],[77,-43],[136,-35],[148,45],[40,23],[77,4],[31,-22],[128,22],[100,70],[104,2],[143,-41],[17,35],[-56,32],[161,14],[59,-19],[114,11],[-37,-120],[-49,-54],[11,-77],[55,2],[-51,-159],[-97,-98],[-138,-52],[-40,-36],[-69,-111],[-204,-155],[-50,-16],[-38,-76],[-116,-55],[-8,-99],[-92,-99],[44,-30],[75,43],[87,-32],[-99,-194],[-28,53],[-56,4],[-82,-71],[-104,-5],[-14,-37],[-95,-76],[7,-19],[139,109],[69,-14],[148,29],[-155,-164],[-52,-98],[48,-23],[119,112],[-16,46],[45,18],[65,-26],[60,9],[85,58]],[[1555,11639],[87,-52],[14,-54],[38,-6],[45,-129],[-6,-174],[18,-63],[-19,-25],[36,-78],[41,-8],[54,-65],[112,-43],[95,50],[74,-15],[-2,-83],[-96,-63],[-20,-68],[-42,-15],[-35,-75],[-57,-50],[-49,-15],[-18,59],[35,100],[49,34],[-76,55],[-63,-20],[-57,42],[-35,-31],[-97,-26],[-111,153],[-27,72],[38,23],[-36,59],[-7,56],[-55,-27],[-9,-70],[-135,50],[-51,128],[54,84],[66,-106],[35,3],[-33,87],[66,7],[-69,66],[6,84],[44,-30],[15,-60],[53,-21],[37,-45],[81,41],[-25,33],[1,88],[-29,44],[64,44],[1,55]],[[1574,10672],[60,-35],[9,-98],[-52,-54],[-128,108],[77,69],[34,10]],[[1873,11297],[-43,-74],[34,-107],[-49,-44],[-33,34],[3,105],[26,60],[62,26]],[[1762,10469],[-4,-54],[-41,-24],[-38,52],[83,26]],[[1919,11001],[-44,-10],[-37,46],[19,30],[64,-25],[-2,-41]],[[2813,8902],[8,102],[53,30],[62,-28],[113,-21]],[[3049,8985],[13,-75],[-29,-58],[-102,13]],[[2931,8865],[-37,34],[-81,3]],[[4568,8819],[-91,0],[-106,-88],[-45,-74],[-23,76],[-51,34],[-52,-13],[-61,26],[-20,47]],[[4119,8827],[63,63],[81,42],[33,-8],[64,63]],[[3781,11523],[62,41],[139,10],[58,58],[102,32],[53,-10],[91,-45],[126,-37],[129,63],[65,-16]],[[4606,11619],[25,-67],[-33,-60],[108,-106],[-20,-41],[-69,-5],[-38,45],[-120,-62],[-40,-70],[56,-107],[-25,-22],[27,-67],[-58,-85],[-63,34],[-99,-42],[-62,-98],[-63,-18],[27,-72],[-48,-48],[-185,-21],[-78,17]],[[3068,8489],[-57,-41]],[[3011,8448],[-32,51],[-86,39],[-92,137],[39,37],[-26,106],[-1,84]],[[2931,8865],[56,-69],[21,-65],[95,10]],[[2488,8673],[91,-63],[28,-103],[-28,-39],[67,-46],[-1,-147],[-97,-31],[-100,47],[-36,62],[15,64],[-49,92],[26,100],[84,64]],[[4265,13797],[89,-53],[78,-70],[-92,-101],[50,-16],[40,25],[75,-67],[55,31],[55,-31],[72,11],[-10,-53],[-57,-34],[-36,-61],[-48,24],[-11,-105],[-57,-133],[-26,36],[-4,69],[81,64],[-69,178],[-41,-35],[-145,-40],[-26,80],[-108,-2],[-9,76],[35,180],[109,27]],[[4213,13249],[-32,-13],[-63,88],[-8,46],[-48,6],[28,75],[42,14],[121,-80],[8,-110],[-48,-26]],[[4477,14071],[-22,-104],[-41,14],[-7,68],[70,22]],[[4404,13833],[50,-23],[11,-42],[-64,-12],[-67,69],[70,8]],[[4754,13809],[29,-69],[59,-34],[-67,-32],[-21,135]],[[4606,13669],[-20,-73],[-65,24],[52,61],[33,-12]],[[4000,8212],[-28,46],[15,71],[31,40],[-2,68],[-36,72],[115,148],[-37,20],[-28,71]],[[4030,8748],[67,72]],[[4097,8820],[22,7]],[[4980,9009],[31,-24],[92,4],[126,-90],[36,-92]],[[5859,15996],[34,-48],[-10,-81],[-44,-22],[54,-87],[65,40],[52,-79],[-22,-33],[102,-47],[-21,-100],[-52,-61],[-18,-102],[31,-35],[-26,-104],[-36,-67],[-31,-116],[-14,-180],[-81,67],[2,73],[37,64],[40,128],[-65,153],[-105,-60],[-67,39],[-3,51],[-119,20],[-12,31],[32,76],[83,-17],[55,37],[111,6],[31,54],[-97,84],[3,42],[-40,60],[-60,46],[113,88],[13,42],[65,38]],[[6091,16151],[63,-15],[9,-102],[-49,-79],[38,-28],[-39,-47],[17,-79],[-77,19],[-43,-16],[-30,161],[66,128],[45,58]],[[6240,16314],[105,-17],[-2,-73],[-78,-117],[-66,-43],[-31,69],[39,47],[-14,60],[47,74]],[[6077,15337],[38,-29],[-23,-95],[-43,25],[28,99]],[[2683,7594],[-11,79],[40,63],[12,75],[43,31],[70,94],[21,83],[-8,64],[61,51],[4,61],[49,48],[51,13],[29,84],[-33,108]],[[3361,8768],[67,57],[57,18]],[[3485,8843],[50,-56],[102,-73],[140,32],[19,18]],[[3796,8764],[131,42],[103,-58]],[[3559,9131],[-65,-1],[-48,-29]],[[3446,9101],[-61,19],[-66,-5],[23,-77],[-54,-9],[-57,18]],[[3231,9047],[-69,60],[-43,92],[-57,16]],[[3062,9215],[-35,57],[-14,64],[-34,52],[-5,81],[21,87],[-153,86],[110,133],[75,25]],[[3027,9800],[53,43],[212,51],[29,-96],[123,53],[39,-33],[-46,-65],[-29,-87],[-38,-3],[3,-83],[42,-37],[157,-43],[56,-70],[34,9],[61,-56]],[[5222,10710],[-35,49],[-94,-36],[-108,25],[8,36],[64,-10],[20,44],[-36,59],[18,55],[126,-11],[57,-23]],[[5242,10898],[-20,-188]],[[4606,11619],[102,-18],[246,-22],[85,42],[91,-37],[64,44],[170,-39],[28,-54],[52,-36],[44,-209],[-71,-126],[-111,-119],[-64,-147]],[[5222,10710],[-107,-176],[11,-88],[-31,-69],[-80,-99],[-84,-62]],[[4931,10216],[-34,-11],[-57,56],[-74,-2],[-47,87],[8,65],[-89,111],[-51,3],[-59,37],[-53,-30],[-62,9],[-49,-21],[-32,-105],[-96,44],[-90,-33],[-30,-31]],[[4116,10395],[-80,-3],[-80,41],[-21,46],[-110,-26],[-78,33]],[[3038,10008],[23,-58],[-51,-63],[-23,-65],[40,-22]],[[3062,9215],[-20,-58],[18,-37],[-7,-110]],[[3053,9010],[-49,17],[-30,52],[-74,33],[-43,-47],[-52,0],[-31,-60],[-39,-122],[-56,13],[-115,93],[-55,-57],[33,-101],[-97,45],[-27,46],[18,102],[-13,58],[35,43],[-34,40],[-37,-72],[-37,13],[-20,-59],[27,-112],[68,-104],[22,-65],[-69,-47],[-48,-67],[-28,-96],[21,-99],[-44,-133],[-31,-31],[-5,-73],[27,-84],[-71,-80],[-73,2],[-63,-30],[-35,21],[5,132],[69,76],[0,196],[20,20],[25,121],[81,147],[-82,49],[0,61],[39,89],[-59,16],[-23,57],[71,155],[41,58],[71,141],[-81,94],[16,126],[80,153],[66,34],[-24,93],[23,59],[72,90]],[[1761,10050],[40,-8],[66,-87],[33,-92],[75,5],[129,-70],[45,-40],[7,-49],[-36,-67],[-120,-89],[-131,18],[-50,-45],[-84,-12],[-88,6],[-67,-29],[-46,59],[23,58],[137,-23],[75,15],[2,38],[-80,-13],[-10,39],[47,42],[19,53],[64,4],[44,68],[-102,-37],[-23,42],[-66,43],[-52,-8],[-32,123],[42,-5],[41,46],[98,15]],[[1749,8997],[-5,-72],[42,-160],[32,-28],[13,-120],[-101,-87],[-39,12],[-63,-81],[-62,18],[31,86],[39,14],[-63,125],[60,33],[-73,30],[-58,-116],[-64,-53],[-32,33],[59,134],[2,104],[54,9],[55,49],[20,-37],[92,90],[61,17]],[[2108,9313],[18,-57],[-135,-256],[-79,-109],[-23,-112],[-62,5],[-44,54],[0,102],[52,70],[74,20],[-52,42],[44,73],[110,78],[97,90]],[[2664,8879],[32,-23],[20,-110],[-51,-17],[-51,20],[-8,109],[-34,10],[-45,74],[32,36],[91,-66],[14,-33]],[[1234,9897],[-67,-26],[-6,-52],[-57,-1],[-13,-64],[-35,-3],[-45,90],[30,38],[66,-15],[49,36],[78,-3]],[[1468,10116],[-45,-106],[-38,-33],[-90,-2],[37,66],[101,79],[35,-4]],[[1744,9270],[-47,-119],[-54,-11],[4,77],[97,53]],[[2218,9577],[-16,-70],[-47,27],[63,43]],[[4097,8820],[-17,88],[-26,44],[-3,104],[19,24]],[[4070,9080],[63,12],[42,-40],[104,25],[90,-67]],[[3049,8985],[43,8]],[[3092,8993],[69,-8],[78,-60]],[[3239,8925],[33,-25],[-23,-75]],[[3231,9047],[19,-76]],[[3250,8971],[-11,-46]],[[3092,8993],[-39,17]],[[3992,9092],[78,-12]],[[3796,8764],[25,48],[-30,67],[-62,56]],[[4931,10216],[-27,-77],[7,-35],[-55,-42],[26,-45],[-49,-82],[-59,-24],[-94,-82],[-16,-47],[-90,15]],[[4574,9797],[1,27],[-94,18],[-73,-3],[-49,-53]],[[4359,9786],[-88,55],[51,113],[-16,110],[-53,4],[-82,51],[-70,118],[33,77],[-48,34],[30,47]],[[4574,9797],[-128,-34],[-55,10]],[[4391,9773],[-32,13]],[[3446,9101],[34,-46],[43,-13],[4,-67],[-106,-28]],[[3421,8947],[-48,-12],[-27,48],[-51,-43],[-45,31]],[[3896,9288],[220,47],[96,47],[-26,43],[-66,22],[-14,44],[110,106],[-18,15]],[[4198,9612],[43,7],[161,91],[42,7],[59,46],[98,-15],[-10,-110],[36,-52],[101,-22],[64,-58],[-95,-89],[-101,-54],[-48,5],[-64,40],[-177,-143],[-21,-82],[-104,-15],[-23,-29],[-100,-14],[-118,52],[-95,-16],[-46,43]],[[4391,9773],[-64,-40],[-88,-94],[-41,-27]],[[3421,8947],[14,-31],[74,-3],[-24,-70]],[[3289,4834],[-18,-22],[-76,31],[-20,41],[-32,7],[6,30],[-50,63],[-4,23],[-24,25],[22,27],[-17,39],[23,72],[-16,44],[71,11],[57,29],[114,-29],[24,-75],[52,-70],[73,8],[68,-13],[-52,-83],[-88,-58],[-13,-45],[-100,-55]],[[3045,5106],[29,-45],[-11,-40],[18,-3],[18,-40],[-36,-7],[-46,70],[-39,30],[67,35]],[[3570,4980],[62,-48],[-30,-81],[-52,-82],[46,-54],[-7,-87],[74,14],[2,-38],[72,-68],[67,46],[103,47],[28,-66],[67,-3],[40,29]],[[4042,4589],[10,-32],[-39,-44],[8,-102]],[[4021,4411],[-19,-35],[-70,-21],[-19,-51],[21,-82],[-16,-51],[-70,-16],[-65,-37],[-42,13],[-28,-40],[-1,-76],[-55,-59]],[[3657,3956],[-30,-4]],[[3627,3952],[-106,-25],[-55,105],[29,85],[32,28],[-1,46],[-79,135],[27,59],[-28,87],[-58,19],[-144,-35],[-77,-57],[-33,-96],[-74,48],[-37,-38],[-76,-27],[-30,21],[101,165],[68,49],[44,2],[71,87],[71,51],[15,69],[-8,52],[54,38],[61,65],[11,40],[66,41],[32,-17],[67,31]],[[3570,4980],[143,73],[-3,35],[60,14],[58,-52],[87,-4],[86,29]],[[4001,5075],[-3,-103],[37,-31],[5,-83],[-63,-37],[-27,-68],[43,-7],[49,-157]],[[4001,5075],[22,27],[100,35]],[[4123,5137],[-26,-75],[56,-42],[-4,-55],[54,-118],[76,-5],[5,-57],[40,-65]],[[4324,4720],[-16,-110],[45,-59],[-87,-22],[-86,-2],[-66,-76]],[[4114,4451],[-12,-24],[-81,-16]],[[4467,4810],[-61,-54],[-82,-36]],[[4123,5137],[44,-14],[96,-73],[79,-79],[20,24]],[[4309,4448],[-50,4],[-48,-39],[-97,38]],[[3657,3956],[56,-14],[-2,-58],[27,-50],[68,41],[-33,-96],[51,-43],[13,-69],[-27,-91],[-21,-162],[-5,-103]],[[3784,3311],[-31,-17],[-56,38],[-40,-34],[-29,28],[-67,-62],[-34,25],[-74,-29],[-18,-39],[-60,-45],[-197,-2],[-82,11]],[[3096,3185],[-95,45],[-16,45]],[[2985,3275],[41,51],[105,-5],[77,64],[44,56],[45,-3],[101,75],[58,88],[43,126],[42,178],[86,47]],[[3096,3185],[11,-37],[51,-46],[-47,-48],[-81,-56],[-67,-4],[17,-84],[42,-42],[20,-95],[-9,-49]],[[3033,2724],[-38,-12],[-32,-102],[-58,-36],[-68,19],[-75,-75],[-96,35],[-22,128],[-109,25],[8,48],[82,28],[4,54],[-30,80],[-38,-4],[-108,20],[2,50],[82,36],[11,28],[96,26],[12,93],[68,-7],[18,-36],[112,34],[3,38],[67,40],[24,61],[37,-20]],[[3784,3311],[30,-65],[66,-69],[-55,-115],[-14,-76],[11,-35],[-50,-62],[-29,-86]],[[3743,2803],[-51,33],[-19,-62],[-42,4]],[[3631,2778],[-56,-13],[-41,-75]],[[3534,2690],[-28,-35],[0,-37],[-55,-14],[-31,39],[-92,-6],[-51,27],[-24,88],[-75,-33],[-82,15],[-63,-10]],[[3631,2778],[41,-48],[11,-53],[-9,-129]],[[3674,2548],[-62,-8],[-36,-48],[-55,-34],[-40,19],[-86,-49],[-58,37],[-26,72],[55,56],[50,-31],[46,9],[24,30],[37,30],[-6,10],[17,49]],[[3743,2803],[31,-50],[86,49],[57,-20],[11,-29]],[[3928,2753],[1,-112],[23,-51]],[[3952,2590],[-88,-6],[-25,-70],[34,-44],[-41,-56],[-52,14]],[[3780,2428],[-75,116],[-31,4]],[[3952,2590],[78,-66],[-14,-40],[22,-46],[-30,-46]],[[4008,2392],[-105,-54]],[[3903,2338],[-68,-5],[-43,46],[-12,49]],[[4008,2392],[139,-6]],[[4147,2386],[32,-13],[24,-52],[44,15],[46,-43]],[[4293,2293],[-3,-60],[-148,-37],[-187,30],[-52,112]],[[4147,2386],[22,60],[63,6]],[[4232,2452],[63,11],[39,-22]],[[4334,2441],[31,-65]],[[4365,2376],[-72,-83]],[[3928,2753],[27,34],[99,58]],[[4054,2845],[55,-157],[57,-99]],[[4166,2589],[19,-78],[47,-59]],[[4166,2589],[34,56],[-52,161]],[[4148,2806],[21,6]],[[4169,2812],[75,-106],[92,-48]],[[4336,2658],[27,-4],[2,-103]],[[4365,2551],[15,-23],[-46,-87]],[[4169,2812],[23,47],[39,-20],[70,6]],[[4301,2845],[19,-35]],[[4320,2810],[25,-108],[-9,-44]],[[4320,2810],[65,-14],[65,-102],[-17,-69],[38,-60]],[[4471,2565],[-74,-33],[-32,19]],[[4725,2575],[-42,-79],[-94,-42]],[[4589,2454],[-22,70],[36,34],[-27,38],[-62,-38],[-43,7]],[[4301,2845],[100,102],[-33,60],[-12,60],[22,27]],[[4589,2454],[-72,-33],[-77,6],[-75,-51]],[[4148,2806],[-19,25],[-75,14]]],"transform":{"scale":[0.0011637884148092085,0.0006700128587023054],"translate":[-8.16227128298903,49.910028359992474]},"objects":{"GBR":{"type":"GeometryCollection","geometries":[{"arcs":[[0,1,2]],"type":"Polygon","properties":{"name":"Hartlepool","shapeGroup":"GBR","gid":"GBR-2-0"},"id":"GBR-2-0"},{"arcs":[[3,4,5]],"type":"Polygon","properties":{"name":"Middlesbrough","shapeGroup":"GBR","gid":"GBR-2-1"},"id":"GBR-2-1"},{"arcs":[[-4,6,7,8]],"type":"Polygon","properties":{"name":"Redcar and Cleveland","shapeGroup":"GBR","gid":"GBR-2-2"},"id":"GBR-2-2"},{"arcs":[[-2,9,-7,-6,10,11,12]],"type":"Polygon","properties":{"name":"Stockton-on-Tees","shapeGroup":"GBR","gid":"GBR-2-3"},"id":"GBR-2-3"},{"arcs":[[-12,13,14]],"type":"Polygon","properties":{"name":"Darlington","shapeGroup":"GBR","gid":"GBR-2-4"},"id":"GBR-2-4"},{"arcs":[[[15,16,17]],[[18,19,20,21,22]]],"type":"MultiPolygon","properties":{"name":"Halton","shapeGroup":"GBR","gid":"GBR-2-5"},"id":"GBR-2-5"},{"arcs":[[-16,23,-20,24,25,26,27,28,29]],"type":"Polygon","properties":{"name":"Warrington","shapeGroup":"GBR","gid":"GBR-2-6"},"id":"GBR-2-6"},{"arcs":[[30,31,32]],"type":"Polygon","properties":{"name":"Blackburn with Darwen","shapeGroup":"GBR","gid":"GBR-2-7"},"id":"GBR-2-7"},{"arcs":[[33,34]],"type":"Polygon","properties":{"name":"Blackpool","shapeGroup":"GBR","gid":"GBR-2-8"},"id":"GBR-2-8"},{"arcs":[[35,36]],"type":"Polygon","properties":{"name":"Kingston upon Hull, City of","shapeGroup":"GBR","gid":"GBR-2-9"},"id":"GBR-2-9"},{"arcs":[[-36,37,38,39,40,41,42,43]],"type":"Polygon","properties":{"name":"East Riding of Yorkshire","shapeGroup":"GBR","gid":"GBR-2-10"},"id":"GBR-2-10"},{"arcs":[[44,45,46]],"type":"Polygon","properties":{"name":"North East Lincolnshire","shapeGroup":"GBR","gid":"GBR-2-11"},"id":"GBR-2-11"},{"arcs":[[-39,47,-47,48,49,50]],"type":"Polygon","properties":{"name":"North Lincolnshire","shapeGroup":"GBR","gid":"GBR-2-12"},"id":"GBR-2-12"},{"arcs":[[-42,51]],"type":"Polygon","properties":{"name":"York","shapeGroup":"GBR","gid":"GBR-2-13"},"id":"GBR-2-13"},{"arcs":[[52]],"type":"Polygon","properties":{"name":"Derby","shapeGroup":"GBR","gid":"GBR-2-14"},"id":"GBR-2-14"},{"arcs":[[53]],"type":"Polygon","properties":{"name":"Leicester","shapeGroup":"GBR","gid":"GBR-2-15"},"id":"GBR-2-15"},{"arcs":[[54,55,56]],"type":"Polygon","properties":{"name":"Rutland","shapeGroup":"GBR","gid":"GBR-2-16"},"id":"GBR-2-16"},{"arcs":[[57]],"type":"Polygon","properties":{"name":"Nottingham","shapeGroup":"GBR","gid":"GBR-2-17"},"id":"GBR-2-17"},{"arcs":[[58,59,60,61,62]],"type":"Polygon","properties":{"name":"Herefordshire, County of","shapeGroup":"GBR","gid":"GBR-2-18"},"id":"GBR-2-18"},{"arcs":[[63,64]],"type":"Polygon","properties":{"name":"Telford and Wrekin","shapeGroup":"GBR","gid":"GBR-2-19"},"id":"GBR-2-19"},{"arcs":[[65]],"type":"Polygon","properties":{"name":"Stoke-on-Trent","shapeGroup":"GBR","gid":"GBR-2-20"},"id":"GBR-2-20"},{"arcs":[[66,67,68,69,70]],"type":"Polygon","properties":{"name":"Bath and North East Somerset","shapeGroup":"GBR","gid":"GBR-2-21"},"id":"GBR-2-21"},{"arcs":[[-71,71,72,73]],"type":"Polygon","properties":{"name":"Bristol, City of","shapeGroup":"GBR","gid":"GBR-2-22"},"id":"GBR-2-22"},{"arcs":[[-70,74,75,-72]],"type":"Polygon","properties":{"name":"North Somerset","shapeGroup":"GBR","gid":"GBR-2-23"},"id":"GBR-2-23"},{"arcs":[[-67,-74,76,77,78]],"type":"Polygon","properties":{"name":"South Gloucestershire","shapeGroup":"GBR","gid":"GBR-2-24"},"id":"GBR-2-24"},{"arcs":[[79,80]],"type":"Polygon","properties":{"name":"Plymouth","shapeGroup":"GBR","gid":"GBR-2-25"},"id":"GBR-2-25"},{"arcs":[[81,82]],"type":"Polygon","properties":{"name":"Torbay","shapeGroup":"GBR","gid":"GBR-2-26"},"id":"GBR-2-26"},{"arcs":[[83,84,85]],"type":"Polygon","properties":{"name":"Swindon","shapeGroup":"GBR","gid":"GBR-2-27"},"id":"GBR-2-27"},{"arcs":[[86,87,88]],"type":"Polygon","properties":{"name":"Peterborough","shapeGroup":"GBR","gid":"GBR-2-28"},"id":"GBR-2-28"},{"arcs":[[89,90]],"type":"Polygon","properties":{"name":"Luton","shapeGroup":"GBR","gid":"GBR-2-29"},"id":"GBR-2-29"},{"arcs":[[91,92]],"type":"Polygon","properties":{"name":"Southend-on-Sea","shapeGroup":"GBR","gid":"GBR-2-30"},"id":"GBR-2-30"},{"arcs":[[93,94,95]],"type":"Polygon","properties":{"name":"Thurrock","shapeGroup":"GBR","gid":"GBR-2-31"},"id":"GBR-2-31"},{"arcs":[[96,97]],"type":"Polygon","properties":{"name":"Medway","shapeGroup":"GBR","gid":"GBR-2-32"},"id":"GBR-2-32"},{"arcs":[[98,99,100,101]],"type":"Polygon","properties":{"name":"Bracknell Forest","shapeGroup":"GBR","gid":"GBR-2-33"},"id":"GBR-2-33"},{"arcs":[[102,103,104,105,106]],"type":"Polygon","properties":{"name":"West Berkshire","shapeGroup":"GBR","gid":"GBR-2-34"},"id":"GBR-2-34"},{"arcs":[[-104,107,108]],"type":"Polygon","properties":{"name":"Reading","shapeGroup":"GBR","gid":"GBR-2-35"},"id":"GBR-2-35"},{"arcs":[[109,110,111,112]],"type":"Polygon","properties":{"name":"Slough","shapeGroup":"GBR","gid":"GBR-2-36"},"id":"GBR-2-36"},{"arcs":[[-99,113,114,-113,115]],"type":"Polygon","properties":{"name":"Windsor and Maidenhead","shapeGroup":"GBR","gid":"GBR-2-37"},"id":"GBR-2-37"},{"arcs":[[-102,116,-105,-109,117,118,-114]],"type":"Polygon","properties":{"name":"Wokingham","shapeGroup":"GBR","gid":"GBR-2-38"},"id":"GBR-2-38"},{"arcs":[[119,120,121,122]],"type":"Polygon","properties":{"name":"Milton Keynes","shapeGroup":"GBR","gid":"GBR-2-39"},"id":"GBR-2-39"},{"arcs":[[123,124,125]],"type":"Polygon","properties":{"name":"Brighton and Hove","shapeGroup":"GBR","gid":"GBR-2-40"},"id":"GBR-2-40"},{"arcs":[[126]],"type":"Polygon","properties":{"name":"Portsmouth","shapeGroup":"GBR","gid":"GBR-2-41"},"id":"GBR-2-41"},{"arcs":[[127,128]],"type":"Polygon","properties":{"name":"Southampton","shapeGroup":"GBR","gid":"GBR-2-42"},"id":"GBR-2-42"},{"arcs":[[129]],"type":"Polygon","properties":{"name":"Isle of Wight","shapeGroup":"GBR","gid":"GBR-2-43"},"id":"GBR-2-43"},{"arcs":[[-3,-13,-15,130,131,132,133,134,135]],"type":"Polygon","properties":{"name":"County Durham","shapeGroup":"GBR","gid":"GBR-2-44"},"id":"GBR-2-44"},{"arcs":[[-29,136,137,138,139,140,141,142]],"type":"Polygon","properties":{"name":"Cheshire East","shapeGroup":"GBR","gid":"GBR-2-45"},"id":"GBR-2-45"},{"arcs":[[-17,-30,-143,143,144,145,146,147,148]],"type":"Polygon","properties":{"name":"Cheshire West and Chester","shapeGroup":"GBR","gid":"GBR-2-46"},"id":"GBR-2-46"},{"arcs":[[-59,149,150,-144,-142,151,-64,152,153]],"type":"Polygon","properties":{"name":"Shropshire","shapeGroup":"GBR","gid":"GBR-2-47"},"id":"GBR-2-47"},{"arcs":[[154,155]],"type":"Polygon","properties":{"name":"Cornwall","shapeGroup":"GBR","gid":"GBR-2-48"},"id":"GBR-2-48"},{"arcs":[[156]],"type":"Polygon","properties":{"name":"Isles of Scilly","shapeGroup":"GBR","gid":"GBR-2-49"},"id":"GBR-2-49"},{"arcs":[[-68,-79,157,-86,158,-107,159,160,161]],"type":"Polygon","properties":{"name":"Wiltshire","shapeGroup":"GBR","gid":"GBR-2-50"},"id":"GBR-2-50"},{"arcs":[[-120,162,163,164]],"type":"Polygon","properties":{"name":"Bedford","shapeGroup":"GBR","gid":"GBR-2-51"},"id":"GBR-2-51"},{"arcs":[[-90,165,166,-121,-165,167,168]],"type":"Polygon","properties":{"name":"Central Bedfordshire","shapeGroup":"GBR","gid":"GBR-2-52"},"id":"GBR-2-52"},{"arcs":[[-133,169,170,171,172,173,174]],"type":"Polygon","properties":{"name":"Northumberland","shapeGroup":"GBR","gid":"GBR-2-53"},"id":"GBR-2-53"},{"arcs":[[175,176,177]],"type":"Polygon","properties":{"name":"Bournemouth, Christchurch and Poole","shapeGroup":"GBR","gid":"GBR-2-54"},"id":"GBR-2-54"},{"arcs":[[-161,178,-176,179,180,181]],"type":"Polygon","properties":{"name":"Dorset","shapeGroup":"GBR","gid":"GBR-2-55"},"id":"GBR-2-55"},{"arcs":[[-32,182,183,184,185]],"type":"Polygon","properties":{"name":"Bolton","shapeGroup":"GBR","gid":"GBR-2-56"},"id":"GBR-2-56"},{"arcs":[[-31,186,187,188,189,-183]],"type":"Polygon","properties":{"name":"Bury","shapeGroup":"GBR","gid":"GBR-2-57"},"id":"GBR-2-57"},{"arcs":[[-138,190,191,-189,192,193,194,195]],"type":"Polygon","properties":{"name":"Manchester","shapeGroup":"GBR","gid":"GBR-2-58"},"id":"GBR-2-58"},{"arcs":[[-194,196,197,198,199,200]],"type":"Polygon","properties":{"name":"Oldham","shapeGroup":"GBR","gid":"GBR-2-59"},"id":"GBR-2-59"},{"arcs":[[-188,201,202,-197,-193]],"type":"Polygon","properties":{"name":"Rochdale","shapeGroup":"GBR","gid":"GBR-2-60"},"id":"GBR-2-60"},{"arcs":[[-27,203,-184,-190,-192,204]],"type":"Polygon","properties":{"name":"Salford","shapeGroup":"GBR","gid":"GBR-2-61"},"id":"GBR-2-61"},{"arcs":[[-139,-196,205,206]],"type":"Polygon","properties":{"name":"Stockport","shapeGroup":"GBR","gid":"GBR-2-62"},"id":"GBR-2-62"},{"arcs":[[-195,-201,207,-206]],"type":"Polygon","properties":{"name":"Tameside","shapeGroup":"GBR","gid":"GBR-2-63"},"id":"GBR-2-63"},{"arcs":[[-28,-205,-191,-137]],"type":"Polygon","properties":{"name":"Trafford","shapeGroup":"GBR","gid":"GBR-2-64"},"id":"GBR-2-64"},{"arcs":[[-26,208,209,-185,-204]],"type":"Polygon","properties":{"name":"Wigan","shapeGroup":"GBR","gid":"GBR-2-65"},"id":"GBR-2-65"},{"arcs":[[-23,210,211,212,213]],"type":"Polygon","properties":{"name":"Knowsley","shapeGroup":"GBR","gid":"GBR-2-66"},"id":"GBR-2-66"},{"arcs":[[-22,214,215,-211]],"type":"Polygon","properties":{"name":"Liverpool","shapeGroup":"GBR","gid":"GBR-2-67"},"id":"GBR-2-67"},{"arcs":[[-19,-214,216,-209,-25]],"type":"Polygon","properties":{"name":"St. Helens","shapeGroup":"GBR","gid":"GBR-2-68"},"id":"GBR-2-68"},{"arcs":[[-212,-216,217,218]],"type":"Polygon","properties":{"name":"Sefton","shapeGroup":"GBR","gid":"GBR-2-69"},"id":"GBR-2-69"},{"arcs":[[-148,219]],"type":"Polygon","properties":{"name":"Wirral","shapeGroup":"GBR","gid":"GBR-2-70"},"id":"GBR-2-70"},{"arcs":[[220,221,222,223,224,225]],"type":"Polygon","properties":{"name":"Barnsley","shapeGroup":"GBR","gid":"GBR-2-71"},"id":"GBR-2-71"},{"arcs":[[-40,-51,226,227,-222,228,229]],"type":"Polygon","properties":{"name":"Doncaster","shapeGroup":"GBR","gid":"GBR-2-72"},"id":"GBR-2-72"},{"arcs":[[-223,-228,230,231,232]],"type":"Polygon","properties":{"name":"Rotherham","shapeGroup":"GBR","gid":"GBR-2-73"},"id":"GBR-2-73"},{"arcs":[[-224,-233,233]],"type":"Polygon","properties":{"name":"Sheffield","shapeGroup":"GBR","gid":"GBR-2-74"},"id":"GBR-2-74"},{"arcs":[[-174,234,235,236]],"type":"Polygon","properties":{"name":"Newcastle upon Tyne","shapeGroup":"GBR","gid":"GBR-2-75"},"id":"GBR-2-75"},{"arcs":[[-173,237,-235]],"type":"Polygon","properties":{"name":"North Tyneside","shapeGroup":"GBR","gid":"GBR-2-76"},"id":"GBR-2-76"},{"arcs":[[-236,238,239,240]],"type":"Polygon","properties":{"name":"South Tyneside","shapeGroup":"GBR","gid":"GBR-2-77"},"id":"GBR-2-77"},{"arcs":[[-135,241,-240,242]],"type":"Polygon","properties":{"name":"Sunderland","shapeGroup":"GBR","gid":"GBR-2-78"},"id":"GBR-2-78"},{"arcs":[[243,244,245,246,247,248,249]],"type":"Polygon","properties":{"name":"Birmingham","shapeGroup":"GBR","gid":"GBR-2-79"},"id":"GBR-2-79"},{"arcs":[[250,251]],"type":"Polygon","properties":{"name":"Coventry","shapeGroup":"GBR","gid":"GBR-2-80"},"id":"GBR-2-80"},{"arcs":[[-248,252,253,254,255]],"type":"Polygon","properties":{"name":"Dudley","shapeGroup":"GBR","gid":"GBR-2-81"},"id":"GBR-2-81"},{"arcs":[[-249,-256,256,257]],"type":"Polygon","properties":{"name":"Sandwell","shapeGroup":"GBR","gid":"GBR-2-82"},"id":"GBR-2-82"},{"arcs":[[-246,258,-251,259,260]],"type":"Polygon","properties":{"name":"Solihull","shapeGroup":"GBR","gid":"GBR-2-83"},"id":"GBR-2-83"},{"arcs":[[-250,-258,261,262]],"type":"Polygon","properties":{"name":"Walsall","shapeGroup":"GBR","gid":"GBR-2-84"},"id":"GBR-2-84"},{"arcs":[[-255,263,-262,-257]],"type":"Polygon","properties":{"name":"Wolverhampton","shapeGroup":"GBR","gid":"GBR-2-85"},"id":"GBR-2-85"},{"arcs":[[264,265,266,267,268]],"type":"Polygon","properties":{"name":"Bradford","shapeGroup":"GBR","gid":"GBR-2-86"},"id":"GBR-2-86"},{"arcs":[[-198,-203,269,-268,270]],"type":"Polygon","properties":{"name":"Calderdale","shapeGroup":"GBR","gid":"GBR-2-87"},"id":"GBR-2-87"},{"arcs":[[-199,-271,-267,271,272,-226,273]],"type":"Polygon","properties":{"name":"Kirklees","shapeGroup":"GBR","gid":"GBR-2-88"},"id":"GBR-2-88"},{"arcs":[[-266,274,275,-272]],"type":"Polygon","properties":{"name":"Leeds","shapeGroup":"GBR","gid":"GBR-2-89"},"id":"GBR-2-89"},{"arcs":[[-221,-273,-276,276,-229]],"type":"Polygon","properties":{"name":"Wakefield","shapeGroup":"GBR","gid":"GBR-2-90"},"id":"GBR-2-90"},{"arcs":[[-134,-175,-237,-241,-242]],"type":"Polygon","properties":{"name":"Gateshead","shapeGroup":"GBR","gid":"GBR-2-91"},"id":"GBR-2-91"},{"arcs":[[277,278,279,280,281,282]],"type":"Polygon","properties":{"name":"City of London","shapeGroup":"GBR","gid":"GBR-2-92"},"id":"GBR-2-92"},{"arcs":[[283,284,285,286]],"type":"Polygon","properties":{"name":"Barking and Dagenham","shapeGroup":"GBR","gid":"GBR-2-93"},"id":"GBR-2-93"},{"arcs":[[287,288,289,290,291,292]],"type":"Polygon","properties":{"name":"Barnet","shapeGroup":"GBR","gid":"GBR-2-94"},"id":"GBR-2-94"},{"arcs":[[293,294,295,296]],"type":"Polygon","properties":{"name":"Bexley","shapeGroup":"GBR","gid":"GBR-2-95"},"id":"GBR-2-95"},{"arcs":[[-292,297,298,299,300,301,302]],"type":"Polygon","properties":{"name":"Brent","shapeGroup":"GBR","gid":"GBR-2-96"},"id":"GBR-2-96"},{"arcs":[[-295,303,304,305,306,307,308,309]],"type":"Polygon","properties":{"name":"Bromley","shapeGroup":"GBR","gid":"GBR-2-97"},"id":"GBR-2-97"},{"arcs":[[-283,310,-298,-291,311,312]],"type":"Polygon","properties":{"name":"Camden","shapeGroup":"GBR","gid":"GBR-2-98"},"id":"GBR-2-98"},{"arcs":[[-306,313,314,315,316]],"type":"Polygon","properties":{"name":"Croydon","shapeGroup":"GBR","gid":"GBR-2-99"},"id":"GBR-2-99"},{"arcs":[[-302,317,318,319,320]],"type":"Polygon","properties":{"name":"Ealing","shapeGroup":"GBR","gid":"GBR-2-100"},"id":"GBR-2-100"},{"arcs":[[-289,321,322,323,324]],"type":"Polygon","properties":{"name":"Enfield","shapeGroup":"GBR","gid":"GBR-2-101"},"id":"GBR-2-101"},{"arcs":[[-296,-310,325,326]],"type":"Polygon","properties":{"name":"Greenwich","shapeGroup":"GBR","gid":"GBR-2-102"},"id":"GBR-2-102"},{"arcs":[[-279,327,328,329,330,331]],"type":"Polygon","properties":{"name":"Hackney","shapeGroup":"GBR","gid":"GBR-2-103"},"id":"GBR-2-103"},{"arcs":[[-301,332,333,334,335,-318]],"type":"Polygon","properties":{"name":"Hammersmith and Fulham","shapeGroup":"GBR","gid":"GBR-2-104"},"id":"GBR-2-104"},{"arcs":[[-290,-325,336,-329,337,-312]],"type":"Polygon","properties":{"name":"Haringey","shapeGroup":"GBR","gid":"GBR-2-105"},"id":"GBR-2-105"},{"arcs":[[-293,-303,-321,338,339]],"type":"Polygon","properties":{"name":"Harrow","shapeGroup":"GBR","gid":"GBR-2-106"},"id":"GBR-2-106"},{"arcs":[[-95,340,-287,341,342]],"type":"Polygon","properties":{"name":"Havering","shapeGroup":"GBR","gid":"GBR-2-107"},"id":"GBR-2-107"},{"arcs":[[-111,343,344,-339,-320,345,346]],"type":"Polygon","properties":{"name":"Hillingdon","shapeGroup":"GBR","gid":"GBR-2-108"},"id":"GBR-2-108"},{"arcs":[[-319,-336,347,348,-346]],"type":"Polygon","properties":{"name":"Hounslow","shapeGroup":"GBR","gid":"GBR-2-109"},"id":"GBR-2-109"},{"arcs":[[-278,-313,-338,-328]],"type":"Polygon","properties":{"name":"Islington","shapeGroup":"GBR","gid":"GBR-2-110"},"id":"GBR-2-110"},{"arcs":[[-300,349,350,-333]],"type":"Polygon","properties":{"name":"Kensington and Chelsea","shapeGroup":"GBR","gid":"GBR-2-111"},"id":"GBR-2-111"},{"arcs":[[351,352,353,354,355]],"type":"Polygon","properties":{"name":"Kingston upon Thames","shapeGroup":"GBR","gid":"GBR-2-112"},"id":"GBR-2-112"},{"arcs":[[-307,-317,356,357,358,359]],"type":"Polygon","properties":{"name":"Lambeth","shapeGroup":"GBR","gid":"GBR-2-113"},"id":"GBR-2-113"},{"arcs":[[-309,360,361,-326]],"type":"Polygon","properties":{"name":"Lewisham","shapeGroup":"GBR","gid":"GBR-2-114"},"id":"GBR-2-114"},{"arcs":[[-316,362,-353,363,-357]],"type":"Polygon","properties":{"name":"Merton","shapeGroup":"GBR","gid":"GBR-2-115"},"id":"GBR-2-115"},{"arcs":[[-285,364,365,-331,366,367]],"type":"Polygon","properties":{"name":"Newham","shapeGroup":"GBR","gid":"GBR-2-116"},"id":"GBR-2-116"},{"arcs":[[-286,-368,368,369,-342]],"type":"Polygon","properties":{"name":"Redbridge","shapeGroup":"GBR","gid":"GBR-2-117"},"id":"GBR-2-117"},{"arcs":[[-335,370,-356,371,-348]],"type":"Polygon","properties":{"name":"Richmond upon Thames","shapeGroup":"GBR","gid":"GBR-2-118"},"id":"GBR-2-118"},{"arcs":[[-281,372,-361,-308,-360]],"type":"Polygon","properties":{"name":"Southwark","shapeGroup":"GBR","gid":"GBR-2-119"},"id":"GBR-2-119"},{"arcs":[[-315,373,-354,-363]],"type":"Polygon","properties":{"name":"Sutton","shapeGroup":"GBR","gid":"GBR-2-120"},"id":"GBR-2-120"},{"arcs":[[-280,-332,-366,374]],"type":"Polygon","properties":{"name":"Tower Hamlets","shapeGroup":"GBR","gid":"GBR-2-121"},"id":"GBR-2-121"},{"arcs":[[-324,375,-369,-367,-330,-337]],"type":"Polygon","properties":{"name":"Waltham Forest","shapeGroup":"GBR","gid":"GBR-2-122"},"id":"GBR-2-122"},{"arcs":[[-334,-351,376,-358,-364,-352,-371]],"type":"Polygon","properties":{"name":"Wandsworth","shapeGroup":"GBR","gid":"GBR-2-123"},"id":"GBR-2-123"},{"arcs":[[-282,-359,-377,-350,-299,-311]],"type":"Polygon","properties":{"name":"Westminster","shapeGroup":"GBR","gid":"GBR-2-124"},"id":"GBR-2-124"},{"arcs":[[-110,-115,-119,377,378,-122,-167,379,-344]],"type":"Polygon","properties":{"name":"Buckinghamshire","shapeGroup":"GBR","gid":"GBR-2-125"},"id":"GBR-2-125"},{"arcs":[[-87,380,381,382,383,384,-168,-164,385]],"type":"Polygon","properties":{"name":"Cambridgeshire","shapeGroup":"GBR","gid":"GBR-2-126"},"id":"GBR-2-126"},{"arcs":[[-132,386,387,388,389,390,-170]],"type":"Polygon","properties":{"name":"Cumbria","shapeGroup":"GBR","gid":"GBR-2-127"},"id":"GBR-2-127"},{"arcs":[[-140,-207,-208,-200,-274,-225,-234,-232,391,392,393],[-53]],"type":"Polygon","properties":{"name":"Derbyshire","shapeGroup":"GBR","gid":"GBR-2-128"},"id":"GBR-2-128"},{"arcs":[[-80,394,-156,395,396,-181,397,-83,398]],"type":"Polygon","properties":{"name":"Devon","shapeGroup":"GBR","gid":"GBR-2-129"},"id":"GBR-2-129"},{"arcs":[[-124,399,400,401,402]],"type":"Polygon","properties":{"name":"East Sussex","shapeGroup":"GBR","gid":"GBR-2-130"},"id":"GBR-2-130"},{"arcs":[[[-93,403,-96,-343,-370,-376,-323,404,-384,405,406]],[[407]]],"type":"MultiPolygon","properties":{"name":"Essex","shapeGroup":"GBR","gid":"GBR-2-131"},"id":"GBR-2-131"},{"arcs":[[-61,408,409,410,-84,-158,-78,411,412]],"type":"Polygon","properties":{"name":"Gloucestershire","shapeGroup":"GBR","gid":"GBR-2-132"},"id":"GBR-2-132"},{"arcs":[[-101,413,414,415,-129,416,-177,-179,-160,-106,-117]],"type":"Polygon","properties":{"name":"Hampshire","shapeGroup":"GBR","gid":"GBR-2-133"},"id":"GBR-2-133"},{"arcs":[[-91,-169,-385,-405,-322,-288,-340,-345,-380,-166]],"type":"Polygon","properties":{"name":"Hertfordshire","shapeGroup":"GBR","gid":"GBR-2-134"},"id":"GBR-2-134"},{"arcs":[[[-97,417,-402,418,-304,-294,419]],[[420]]],"type":"MultiPolygon","properties":{"name":"Kent","shapeGroup":"GBR","gid":"GBR-2-135"},"id":"GBR-2-135"},{"arcs":[[-33,-186,-210,-217,-213,-219,421,-34,422,-388,423,-269,-270,-202,-187]],"type":"Polygon","properties":{"name":"Lancashire","shapeGroup":"GBR","gid":"GBR-2-136"},"id":"GBR-2-136"},{"arcs":[[-57,424,425,426,-393,427,428],[-54]],"type":"Polygon","properties":{"name":"Leicestershire","shapeGroup":"GBR","gid":"GBR-2-137"},"id":"GBR-2-137"},{"arcs":[[-46,429,430,-381,-89,-55,-429,431,-49]],"type":"Polygon","properties":{"name":"Lincolnshire","shapeGroup":"GBR","gid":"GBR-2-138"},"id":"GBR-2-138"},{"arcs":[[-382,-431,432,433]],"type":"Polygon","properties":{"name":"Norfolk","shapeGroup":"GBR","gid":"GBR-2-139"},"id":"GBR-2-139"},{"arcs":[[-56,-88,-386,-163,-123,-379,434,435,-425]],"type":"Polygon","properties":{"name":"Northamptonshire","shapeGroup":"GBR","gid":"GBR-2-140"},"id":"GBR-2-140"},{"arcs":[[-5,-9,436,-43,-52,-41,-230,-277,-275,-265,-424,-387,-131,-14,-11]],"type":"Polygon","properties":{"name":"North Yorkshire","shapeGroup":"GBR","gid":"GBR-2-141"},"id":"GBR-2-141"},{"arcs":[[-50,-432,-428,-392,-231,-227],[-58]],"type":"Polygon","properties":{"name":"Nottinghamshire","shapeGroup":"GBR","gid":"GBR-2-142"},"id":"GBR-2-142"},{"arcs":[[-85,-411,437,-435,-378,-118,-108,-103,-159]],"type":"Polygon","properties":{"name":"Oxfordshire","shapeGroup":"GBR","gid":"GBR-2-143"},"id":"GBR-2-143"},{"arcs":[[-69,-162,-182,-397,438,-75]],"type":"Polygon","properties":{"name":"Somerset","shapeGroup":"GBR","gid":"GBR-2-144"},"id":"GBR-2-144"},{"arcs":[[-65,-152,-141,-394,-427,439,-244,-263,-264,-254,440,-153],[-66]],"type":"Polygon","properties":{"name":"Staffordshire","shapeGroup":"GBR","gid":"GBR-2-145"},"id":"GBR-2-145"},{"arcs":[[-383,-434,441,-406]],"type":"Polygon","properties":{"name":"Suffolk","shapeGroup":"GBR","gid":"GBR-2-146"},"id":"GBR-2-146"},{"arcs":[[-100,-116,-112,-347,-349,-372,-355,-374,-314,-305,-419,-401,442,-414]],"type":"Polygon","properties":{"name":"Surrey","shapeGroup":"GBR","gid":"GBR-2-147"},"id":"GBR-2-147"},{"arcs":[[-245,-440,-426,-436,-438,-410,443,-260,-252,-259]],"type":"Polygon","properties":{"name":"Warwickshire","shapeGroup":"GBR","gid":"GBR-2-148"},"id":"GBR-2-148"},{"arcs":[[-126,444,-415,-443,-400]],"type":"Polygon","properties":{"name":"West Sussex","shapeGroup":"GBR","gid":"GBR-2-149"},"id":"GBR-2-149"},{"arcs":[[-60,-154,-441,-253,-247,-261,-444,-409]],"type":"Polygon","properties":{"name":"Worcestershire","shapeGroup":"GBR","gid":"GBR-2-150"},"id":"GBR-2-150"},{"arcs":[[445,446,447,448,449,450]],"type":"Polygon","properties":{"name":"Antrim and Newtownabbey","shapeGroup":"GBR","gid":"GBR-2-151"},"id":"GBR-2-151"},{"arcs":[[-450,451,452,453,454]],"type":"Polygon","properties":{"name":"Armagh City, Banbridge and Craigavon","shapeGroup":"GBR","gid":"GBR-2-152"},"id":"GBR-2-152"},{"arcs":[[-448,455,456,457]],"type":"Polygon","properties":{"name":"Belfast","shapeGroup":"GBR","gid":"GBR-2-153"},"id":"GBR-2-153"},{"arcs":[[458,459,460,461]],"type":"Polygon","properties":{"name":"Causeway Coast and Glens","shapeGroup":"GBR","gid":"GBR-2-154"},"id":"GBR-2-154"},{"arcs":[[-462,462,463,464]],"type":"Polygon","properties":{"name":"Derry City and Strabane","shapeGroup":"GBR","gid":"GBR-2-155"},"id":"GBR-2-155"},{"arcs":[[-464,465,466]],"type":"Polygon","properties":{"name":"Fermanagh and Omagh","shapeGroup":"GBR","gid":"GBR-2-156"},"id":"GBR-2-156"},{"arcs":[[-449,-458,467,468,-452]],"type":"Polygon","properties":{"name":"Lisburn and Castlereagh","shapeGroup":"GBR","gid":"GBR-2-157"},"id":"GBR-2-157"},{"arcs":[[-446,469,-460,470]],"type":"Polygon","properties":{"name":"Mid and East Antrim","shapeGroup":"GBR","gid":"GBR-2-158"},"id":"GBR-2-158"},{"arcs":[[-451,-455,471,-466,-463,-461,-470]],"type":"Polygon","properties":{"name":"Mid Ulster","shapeGroup":"GBR","gid":"GBR-2-159"},"id":"GBR-2-159"},{"arcs":[[-453,-469,472,473]],"type":"Polygon","properties":{"name":"Newry, Mourne and Down","shapeGroup":"GBR","gid":"GBR-2-160"},"id":"GBR-2-160"},{"arcs":[[-457,474,-473,-468]],"type":"Polygon","properties":{"name":"Ards and North Down","shapeGroup":"GBR","gid":"GBR-2-161"},"id":"GBR-2-161"},{"arcs":[[475,476,477,478]],"type":"Polygon","properties":{"name":"Clackmannanshire","shapeGroup":"GBR","gid":"GBR-2-162"},"id":"GBR-2-162"},{"arcs":[[-390,479,480,481,482,483]],"type":"Polygon","properties":{"name":"Dumfries and Galloway","shapeGroup":"GBR","gid":"GBR-2-163"},"id":"GBR-2-163"},{"arcs":[[-482,484,485,486,487]],"type":"Polygon","properties":{"name":"East Ayrshire","shapeGroup":"GBR","gid":"GBR-2-164"},"id":"GBR-2-164"},{"arcs":[[488,489,490,491]],"type":"Polygon","properties":{"name":"East Lothian","shapeGroup":"GBR","gid":"GBR-2-165"},"id":"GBR-2-165"},{"arcs":[[-487,492,493,494,495]],"type":"Polygon","properties":{"name":"East Renfrewshire","shapeGroup":"GBR","gid":"GBR-2-166"},"id":"GBR-2-166"},{"arcs":[[[496]],[[497]],[[498]],[[499]],[[500]],[[501]],[[502]]],"type":"MultiPolygon","properties":{"name":"Na h-Eileanan Siar","shapeGroup":"GBR","gid":"GBR-2-167"},"id":"GBR-2-167"},{"arcs":[[503,504,505,506]],"type":"Polygon","properties":{"name":"Falkirk","shapeGroup":"GBR","gid":"GBR-2-168"},"id":"GBR-2-168"},{"arcs":[[[507,508,509,510,511]],[[512]],[[513]],[[514]],[[515]],[[516]]],"type":"MultiPolygon","properties":{"name":"Highland","shapeGroup":"GBR","gid":"GBR-2-169"},"id":"GBR-2-169"},{"arcs":[[517,518,519]],"type":"Polygon","properties":{"name":"Inverclyde","shapeGroup":"GBR","gid":"GBR-2-170"},"id":"GBR-2-170"},{"arcs":[[-491,520,521]],"type":"Polygon","properties":{"name":"Midlothian","shapeGroup":"GBR","gid":"GBR-2-171"},"id":"GBR-2-171"},{"arcs":[[-508,522,523]],"type":"Polygon","properties":{"name":"Moray","shapeGroup":"GBR","gid":"GBR-2-172"},"id":"GBR-2-172"},{"arcs":[[[-486,524,525,-520,526,-493]],[[527]]],"type":"MultiPolygon","properties":{"name":"North Ayrshire","shapeGroup":"GBR","gid":"GBR-2-173"},"id":"GBR-2-173"},{"arcs":[[[528]],[[529]],[[530]],[[531]],[[532]],[[533]]],"type":"MultiPolygon","properties":{"name":"Orkney Islands","shapeGroup":"GBR","gid":"GBR-2-174"},"id":"GBR-2-174"},{"arcs":[[-171,-391,-484,534,535,536,-521,-490,537]],"type":"Polygon","properties":{"name":"Scottish Borders","shapeGroup":"GBR","gid":"GBR-2-175"},"id":"GBR-2-175"},{"arcs":[[[538]],[[539]],[[540]],[[541]]],"type":"MultiPolygon","properties":{"name":"Shetland Islands","shapeGroup":"GBR","gid":"GBR-2-176"},"id":"GBR-2-176"},{"arcs":[[-481,542,-525,-485]],"type":"Polygon","properties":{"name":"South Ayrshire","shapeGroup":"GBR","gid":"GBR-2-177"},"id":"GBR-2-177"},{"arcs":[[-483,-488,-496,543,544,545,-535]],"type":"Polygon","properties":{"name":"South Lanarkshire","shapeGroup":"GBR","gid":"GBR-2-178"},"id":"GBR-2-178"},{"arcs":[[-478,-506,546,547,548,549,550]],"type":"Polygon","properties":{"name":"Stirling","shapeGroup":"GBR","gid":"GBR-2-179"},"id":"GBR-2-179"},{"arcs":[[551,552]],"type":"Polygon","properties":{"name":"Aberdeen City","shapeGroup":"GBR","gid":"GBR-2-180"},"id":"GBR-2-180"},{"arcs":[[-509,-524,553,-552,554,555,556]],"type":"Polygon","properties":{"name":"Aberdeenshire","shapeGroup":"GBR","gid":"GBR-2-181"},"id":"GBR-2-181"},{"arcs":[[[-511,557,-550,558,559]],[[560]],[[561]],[[562]],[[563]],[[564]],[[565]],[[566]],[[567]]],"type":"MultiPolygon","properties":{"name":"Argyll and Bute","shapeGroup":"GBR","gid":"GBR-2-182"},"id":"GBR-2-182"},{"arcs":[[-492,-522,-537,568,569]],"type":"Polygon","properties":{"name":"City of Edinburgh","shapeGroup":"GBR","gid":"GBR-2-183"},"id":"GBR-2-183"},{"arcs":[[-494,-527,-519,570,571,572]],"type":"Polygon","properties":{"name":"Renfrewshire","shapeGroup":"GBR","gid":"GBR-2-184"},"id":"GBR-2-184"},{"arcs":[[-549,573,574,-572,575,-559]],"type":"Polygon","properties":{"name":"West Dunbartonshire","shapeGroup":"GBR","gid":"GBR-2-185"},"id":"GBR-2-185"},{"arcs":[[-504,576,-569,-536,-546,577]],"type":"Polygon","properties":{"name":"West Lothian","shapeGroup":"GBR","gid":"GBR-2-186"},"id":"GBR-2-186"},{"arcs":[[-556,578,579,580]],"type":"Polygon","properties":{"name":"Angus","shapeGroup":"GBR","gid":"GBR-2-187"},"id":"GBR-2-187"},{"arcs":[[-580,581,582]],"type":"Polygon","properties":{"name":"Dundee City","shapeGroup":"GBR","gid":"GBR-2-188"},"id":"GBR-2-188"},{"arcs":[[-548,583,584,-574]],"type":"Polygon","properties":{"name":"East Dunbartonshire","shapeGroup":"GBR","gid":"GBR-2-189"},"id":"GBR-2-189"},{"arcs":[[-476,585,586]],"type":"Polygon","properties":{"name":"Fife","shapeGroup":"GBR","gid":"GBR-2-190"},"id":"GBR-2-190"},{"arcs":[[-479,-551,-558,-510,-557,-581,-583,587,-586]],"type":"Polygon","properties":{"name":"Perth and Kinross","shapeGroup":"GBR","gid":"GBR-2-191"},"id":"GBR-2-191"},{"arcs":[[-495,-573,-575,-585,588,-544]],"type":"Polygon","properties":{"name":"Glasgow City","shapeGroup":"GBR","gid":"GBR-2-192"},"id":"GBR-2-192"},{"arcs":[[-505,-578,-545,-589,-584,-547]],"type":"Polygon","properties":{"name":"North Lanarkshire","shapeGroup":"GBR","gid":"GBR-2-193"},"id":"GBR-2-193"},{"arcs":[[[589]],[[590]]],"type":"MultiPolygon","properties":{"name":"Isle of Anglesey","shapeGroup":"GBR","gid":"GBR-2-194"},"id":"GBR-2-194"},{"arcs":[[591,592,593,594,595]],"type":"Polygon","properties":{"name":"Gwynedd","shapeGroup":"GBR","gid":"GBR-2-195"},"id":"GBR-2-195"},{"arcs":[[-592,596,597]],"type":"Polygon","properties":{"name":"Conwy","shapeGroup":"GBR","gid":"GBR-2-196"},"id":"GBR-2-196"},{"arcs":[[-593,-598,598,599,600,601]],"type":"Polygon","properties":{"name":"Denbighshire","shapeGroup":"GBR","gid":"GBR-2-197"},"id":"GBR-2-197"},{"arcs":[[-146,602,-600,603]],"type":"Polygon","properties":{"name":"Flintshire","shapeGroup":"GBR","gid":"GBR-2-198"},"id":"GBR-2-198"},{"arcs":[[-145,-151,604,-601,-603]],"type":"Polygon","properties":{"name":"Wrexham","shapeGroup":"GBR","gid":"GBR-2-199"},"id":"GBR-2-199"},{"arcs":[[-595,605,606,607,608]],"type":"Polygon","properties":{"name":"Ceredigion","shapeGroup":"GBR","gid":"GBR-2-200"},"id":"GBR-2-200"},{"arcs":[[-608,609,610]],"type":"Polygon","properties":{"name":"Pembrokeshire","shapeGroup":"GBR","gid":"GBR-2-201"},"id":"GBR-2-201"},{"arcs":[[-607,611,612,613,614,-610]],"type":"Polygon","properties":{"name":"Carmarthenshire","shapeGroup":"GBR","gid":"GBR-2-202"},"id":"GBR-2-202"},{"arcs":[[-614,615,616]],"type":"Polygon","properties":{"name":"Swansea","shapeGroup":"GBR","gid":"GBR-2-203"},"id":"GBR-2-203"},{"arcs":[[-613,617,618,619,620,-616]],"type":"Polygon","properties":{"name":"Neath Port Talbot","shapeGroup":"GBR","gid":"GBR-2-204"},"id":"GBR-2-204"},{"arcs":[[-620,621,622,623]],"type":"Polygon","properties":{"name":"Bridgend","shapeGroup":"GBR","gid":"GBR-2-205"},"id":"GBR-2-205"},{"arcs":[[-623,624,625,626]],"type":"Polygon","properties":{"name":"Vale of Glamorgan","shapeGroup":"GBR","gid":"GBR-2-206"},"id":"GBR-2-206"},{"arcs":[[-626,627,628,629,630]],"type":"Polygon","properties":{"name":"Cardiff","shapeGroup":"GBR","gid":"GBR-2-207"},"id":"GBR-2-207"},{"arcs":[[-619,631,632,633,-628,-625,-622]],"type":"Polygon","properties":{"name":"Rhondda Cynon Taf","shapeGroup":"GBR","gid":"GBR-2-208"},"id":"GBR-2-208"},{"arcs":[[-629,-634,634,635,636,637,638]],"type":"Polygon","properties":{"name":"Caerphilly","shapeGroup":"GBR","gid":"GBR-2-209"},"id":"GBR-2-209"},{"arcs":[[-637,639,640,641]],"type":"Polygon","properties":{"name":"Blaenau Gwent","shapeGroup":"GBR","gid":"GBR-2-210"},"id":"GBR-2-210"},{"arcs":[[-638,-642,642,643]],"type":"Polygon","properties":{"name":"Torfaen","shapeGroup":"GBR","gid":"GBR-2-211"},"id":"GBR-2-211"},{"arcs":[[-62,-413,644,645,-643,-641,646]],"type":"Polygon","properties":{"name":"Monmouthshire","shapeGroup":"GBR","gid":"GBR-2-212"},"id":"GBR-2-212"},{"arcs":[[-630,-639,-644,-646,647]],"type":"Polygon","properties":{"name":"Newport","shapeGroup":"GBR","gid":"GBR-2-213"},"id":"GBR-2-213"},{"arcs":[[-63,-647,-640,-636,648,-632,-618,-612,-606,-594,-602,-605,-150]],"type":"Polygon","properties":{"name":"Powys","shapeGroup":"GBR","gid":"GBR-2-214"},"id":"GBR-2-214"},{"arcs":[[-633,-649,-635]],"type":"Polygon","properties":{"name":"Merthyr Tydfil","shapeGroup":"GBR","gid":"GBR-2-215"},"id":"GBR-2-215"}]}}}