{"type":"Topology","arcs":[[[1977,13732],[0,-65],[-48,-39],[-104,3],[-5,-50],[39,-38],[7,-84],[13,-22],[-3,-99],[3,-56],[39,-41],[-20,-28],[-18,-106],[-81,-88],[-32,-48],[-72,-85],[-33,-79],[-29,-46],[-16,-70],[0,-93],[-38,-42],[-19,-59],[11,-39],[-5,-55],[31,-45],[-31,-29],[-2,-35],[-26,-61],[-33,-31],[-16,-70],[12,-65],[42,-112],[-5,-114],[-29,-44]],[[1509,11797],[-65,-1],[-75,-41],[-40,-44],[-26,-61],[-41,27],[-32,50],[-57,57],[-56,33],[-58,69],[-32,178],[-14,235],[-37,144],[-47,129],[-44,47],[-129,63],[-104,35],[-78,48],[-69,31],[-68,48],[-69,60],[-60,26],[-114,11],[-91,30],[-59,44],[-33,74],[-11,55],[0,120],[52,173],[39,53],[64,152],[49,30],[25,63],[29,27],[34,66],[119,156],[117,47],[79,46],[47,14],[84,11],[93,29],[85,0],[280,-41],[91,-38],[83,-48],[79,-31],[95,-18],[122,-42],[93,-60],[100,-31],[85,-40],[33,-50]],[[1977,13732],[73,-17],[90,10],[74,39],[74,18],[68,74],[105,43],[148,12],[66,-26],[7,-28],[45,-56],[118,-92],[90,-49],[92,-37]],[[3027,13623],[2,-39],[-33,-51],[-48,-18],[-134,-2],[-66,-55],[21,-91],[19,-37],[10,-62],[40,-85],[6,-41],[27,-58],[0,-62],[16,-63],[-8,-72],[-35,-74],[-34,-53],[-66,-64],[-10,-82],[27,-43],[70,-12],[48,-25],[58,-6],[37,25],[16,7],[68,-10],[54,-54],[70,-125],[15,-65],[0,-56],[-13,-126],[40,-62],[64,-80],[12,-70],[19,-30],[4,-48],[-21,-32],[-3,-10],[-32,-76],[99,-38],[9,-23],[-2,-176],[-53,-70],[-35,-28],[-67,-80],[-20,-35]],[[3198,11266],[-52,-9],[-55,31],[-65,11],[-101,-2],[-63,15],[-79,-3],[-56,9],[-47,-12],[-69,18],[-46,-4],[-86,41],[-33,24],[-61,14],[-100,-48],[-127,4],[-36,55],[-59,41],[-11,42],[-35,67],[-53,49],[-83,28],[-134,-16],[-36,41],[-77,25],[-125,110]],[[3027,13623],[117,-46],[118,-37],[28,-37],[103,-65],[94,-75],[68,-81],[44,-38],[88,-50],[51,-78],[36,-35],[70,-41],[85,-17],[131,0],[69,32],[190,18],[150,-4],[52,-36],[48,-20],[65,-64],[73,-39],[99,-35],[48,-46],[80,-47],[39,0]],[[4973,12782],[-7,-59],[-52,-52],[-7,-72],[-43,-65],[-37,-29],[-69,-33],[-56,-80],[-71,-64],[-13,-42],[-45,-34],[-36,-67],[-35,-38],[-18,-57],[-31,-42],[-8,-57],[-34,-42],[-8,-223],[-41,-63],[3,-116],[-37,-76],[-17,-206],[6,-30],[-61,-64],[-33,-52],[-98,-110],[-53,-26],[-20,-33],[-50,-30],[-38,-92],[-56,-33]],[[3908,10795],[-27,-8],[-73,25],[-16,-10],[-75,-4],[-72,-63],[-56,6],[-36,48],[-20,53],[-41,44],[-27,68],[-117,107],[-30,42],[-30,87],[-90,76]],[[4973,12782],[188,-106],[84,-34],[37,-41],[68,-51],[18,-33],[177,-109],[100,-78],[78,-16],[83,-58],[250,-75],[95,-16],[89,-5],[164,-40],[116,-10],[23,-14],[103,-15],[126,0],[135,-25],[121,-10],[117,-40],[199,-40],[198,1],[80,9],[194,75],[38,43],[86,26]],[[7940,12120],[-2,-104],[-5,-27],[-43,-92],[-20,-66],[-18,-103]],[[7852,11728],[-70,-47],[-39,-72],[-93,-87],[-83,-109],[-111,-84],[-109,-48],[-45,-37],[-168,1],[-76,9],[-64,-2],[-67,32],[-76,11],[-65,30],[-147,-4],[-69,-13],[-76,4],[-44,43],[-28,12],[-154,-2],[-25,-40],[-74,-52],[-120,-40],[-54,-4],[-85,-69],[-65,-23],[-71,-66],[-75,-34],[-59,0],[-22,-20],[-81,-8],[-60,30],[-56,8],[-69,-4],[-66,-32],[-96,-4],[-24,-22],[-90,-25],[-95,-4],[-59,-15],[-66,-30],[-67,-43],[-42,-81],[-3,-97],[-23,-48],[0,-103],[-48,-88],[-40,-43],[-60,-24],[-62,-68],[-57,-9],[-116,-50],[-23,-27],[-12,-65],[2,-138],[-62,-66],[-23,-36],[-53,-37]],[[4167,9888],[-63,58],[-5,103],[-23,77],[-5,70],[-28,128],[-22,150],[-37,139],[-24,60],[-56,98],[4,24]],[[7852,11728],[22,-24],[26,-77],[-32,-25],[-3,-61],[-62,-98],[-9,-58],[-30,-16],[-11,-48],[-30,-45],[-58,-46],[-41,-3],[-31,-20],[-35,-66],[0,-63],[-28,-47],[-136,11],[-46,-37],[-77,11],[-131,-60],[-88,-26],[-92,1],[-26,-29],[-40,-10],[-9,-72],[32,-82],[64,-14],[19,-19],[9,-70],[-32,-42],[-1,-59],[20,-54],[30,-44],[4,-66],[61,-60],[-42,-92],[-58,-20],[-79,-76],[-14,-47],[26,-58]],[[6924,10017],[-12,-18]],[[6912,9999],[-37,-14],[-46,-44],[-21,-39],[-72,-65],[-26,-64],[-82,-8],[-42,34],[-65,44],[-76,17],[-26,29],[-31,-39],[-9,-164],[-136,10],[-26,-13],[-36,-53],[-36,-30],[-78,-10],[-49,-19],[-39,-1],[-58,-29],[-55,-54],[-12,-28],[-55,-15],[-44,-32],[-115,-33],[-36,-45],[-24,-52],[-78,2]],[[5502,9284],[-102,-44],[-58,133],[-80,8],[-53,72],[-78,49],[-81,20],[-91,38],[-99,17],[-84,64],[-123,32],[-31,30],[-58,26],[-60,4],[-45,-10],[-64,-52],[-117,21],[-26,29],[-36,82],[-45,61],[-4,24]],[[7940,12120],[97,80],[46,24],[179,-5],[323,-44],[116,-5],[221,5],[32,20],[36,0],[73,-37],[93,-61],[34,-8],[47,-31],[64,-82],[58,-57],[31,-50],[57,-44],[100,-47],[99,-40],[97,-30],[57,15],[35,57],[40,13],[75,53],[134,35],[215,1],[242,-35],[61,-29],[196,-196],[102,-94],[31,-64],[44,-63],[102,-97],[79,-111],[55,-33],[56,-86],[71,-77],[50,-97],[164,-141],[109,-170]],[[11661,10589],[-43,-74],[-76,-73],[-80,-65],[-11,-40],[-57,-49],[-72,-17],[-21,-271],[-39,-57],[-89,-8],[-26,28],[0,49],[-42,68],[-92,-15],[-115,0],[-76,9],[-62,-15],[-16,-20],[-100,-1],[-50,15],[-23,17],[-56,73],[-52,3],[-65,37],[-43,8],[-82,58],[-54,-21],[-85,-70],[-66,-23],[-50,-3],[-115,16],[-90,-12],[-60,46],[-97,37],[-213,27],[-72,15],[-103,66],[-68,25],[-77,-1],[-39,-23],[-12,-112],[-48,-75],[-78,-14],[-61,-26],[-144,0],[-24,-6],[-80,-173],[-33,-36]],[[8604,9886],[-8,-6],[-49,3],[-36,24],[-25,8],[-82,12],[-79,-21],[-56,-64],[-92,-28],[-49,-41],[-31,-3]],[[8097,9770],[-12,0],[-61,68],[-38,70],[-47,50],[-86,47],[-74,12],[-47,52],[-36,-15],[-48,-105],[-37,-24],[-59,-6],[-56,23],[-59,5],[-48,-14],[-55,-1],[-111,39],[-137,63],[-88,8],[-74,-25]],[[6912,9999],[42,-66],[0,-119],[35,-59],[2,-200],[-6,-64],[27,-46],[43,-45],[74,-148],[10,-96],[-28,-108],[-14,-28],[-33,-46],[-37,-31]],[[7027,8943],[-38,-16],[-56,-63],[-67,-117],[-47,-49],[-47,-78],[-116,-98],[-33,-15],[-61,-57],[-26,-10],[-115,-74],[-38,-12],[-98,-61],[-59,-8],[-32,-29],[-78,-14],[-95,-103],[-34,-73],[-29,-37],[-70,-35],[-85,-69],[-54,-11],[-55,6]],[[5694,7920],[-10,59],[0,79],[-31,147],[0,65],[-15,127],[-12,41],[-3,78],[-48,133],[-28,172],[-34,90],[-35,142],[-37,77],[-7,37],[-33,74],[101,43]],[[8097,9770],[-2,-34],[52,-63],[14,-88],[-29,-59],[-7,-96],[2,-92],[-25,-74],[-3,-36],[-38,-33],[-107,-31],[-40,-116],[-2,-144],[-95,-100],[-16,-6],[-62,-107],[-43,-45],[-71,-154],[-44,-68],[-36,-41],[-28,-11],[-57,-50],[-30,0]],[[7430,8322],[-27,15],[-100,147],[-9,52],[6,115],[73,46],[37,69],[-2,34],[-26,39],[-8,46],[-55,53],[-27,8],[-104,-47],[-152,2],[-9,42]],[[7430,8322],[-10,-69],[-25,-41],[-43,-37],[-34,-113]],[[7318,8062],[-28,-12],[-65,28],[-58,-29],[-50,-68],[33,-34],[17,-117],[-7,-73],[-23,-70],[-27,-33],[-64,-67],[-35,-10],[-98,-2],[-29,6],[-77,73],[-26,4],[-63,56],[-41,12],[-67,56],[-59,-17],[-62,-41],[-30,-101],[-38,-54],[-55,-17],[-25,-13],[-30,-45],[-11,-37],[-45,-76],[-48,-29],[-190,-24],[-51,-22],[-47,2]],[[5919,7308],[-48,31],[-27,50],[-58,38],[-37,81],[-3,49],[-32,160],[-3,83],[-16,72],[-1,48]],[[11661,10589],[137,-53],[33,-33],[109,-51],[349,-74],[48,-18],[29,-27]],[[12366,10333],[-11,-49],[-38,-65],[-110,-124],[-59,-93],[0,-103],[15,-33],[-2,-105],[-53,-80]],[[12108,9681],[-108,-127],[-118,-72],[-70,-20],[-168,-35],[-52,-42],[-42,-108],[-9,-53],[-18,-26],[-29,-65],[-78,-4],[-83,21]],[[11333,9150],[-19,12],[-47,92],[-55,53],[-107,49],[-112,34],[-109,47],[-34,26],[-46,-2],[-73,23],[-95,-24],[-51,-50],[-24,-53],[-72,-99],[-73,-63],[-129,-133],[-53,-26],[-50,-46],[-72,-4],[-40,-20],[-70,6],[-79,37],[-142,84],[-92,73],[-70,37],[-54,5],[-67,-50],[-39,-4],[-30,21],[-60,76]],[[9369,9251],[-101,153],[-79,55],[-34,13],[-51,51],[-160,53],[-36,28]],[[8908,9604],[-38,28],[-61,63],[-83,51],[-70,62],[-52,78]],[[8908,9604],[-46,-81],[-13,-221],[-25,-42],[-34,-29],[-72,-108],[-73,-53],[8,-61],[-72,-48],[-34,-71],[-42,-46],[-82,-53],[-48,-64],[-8,-30],[-74,-170],[0,-51],[-24,-58],[-31,-40],[-2,-40],[9,-50],[-29,-47],[-15,-54],[-30,-47],[-24,-15],[-69,-9],[-92,-148]],[[7986,7968],[-80,-9],[-51,-81],[-17,-67],[-6,-21],[-58,-42],[-65,-15],[-86,23],[-59,44],[-12,17]],[[7552,7817],[-14,34],[2,68],[-52,46],[-61,11],[-19,24],[-90,62]],[[7552,7817],[-51,-42],[-8,-47],[-47,-69],[54,-121],[-33,-9],[-207,15],[-58,-31],[-31,-57],[3,-49],[38,-91],[74,-49],[37,-57],[-23,-62],[3,-61],[-61,-135],[0,-127],[-20,-44],[-68,-11],[-38,12],[-56,-12],[-93,-75],[-25,-30],[-8,-42],[3,-61],[-29,-39],[8,-43],[-29,-36],[-3,-46]],[[6884,6398],[-26,-14],[-256,-1],[-33,-32],[-62,0],[-183,-220],[-55,-29],[-51,31],[-93,1]],[[6125,6134],[-66,112],[-33,144],[-1,57],[27,51],[11,69],[3,108],[-14,99],[-43,109],[-23,152],[-45,141],[-22,132]],[[7986,7968],[88,-17],[37,-25],[66,-16],[10,-51],[27,-16],[73,0],[41,-25],[-8,-100],[-27,-30],[-49,-18],[-84,-97],[-3,-26],[28,-45],[73,-88],[29,-30],[51,-106],[49,-39],[40,-77]],[[8427,7162],[-62,-101],[-58,16],[-12,8],[-80,17],[-53,-17],[-56,-46],[-37,-77],[-33,-28],[-66,46],[-31,-38],[-22,-65],[-45,-48],[-59,-20],[-97,-96],[-45,-96],[-48,-23],[-80,-42],[-16,-3],[-22,-8],[-65,-60]],[[7440,6481],[-76,-12],[-39,-24],[-61,1],[-55,15],[-52,-5],[-55,-33],[-86,-17],[-29,-16],[-93,-3],[-10,11]],[[9369,9251],[-76,-87],[-25,-74],[7,-76],[26,-95],[17,-35],[87,-140],[61,-67],[13,-36],[47,-66],[29,-74],[1,-73]],[[9556,8428],[-13,-8],[-66,-8],[-37,-26],[-102,-13],[-42,12],[-59,-6],[-46,-40],[-23,-42],[-66,-61],[-9,-32],[-6,-113],[-24,-33],[-58,-52],[-6,-132],[6,-121],[-15,-51],[-50,-86],[-83,-99],[-87,-73],[-59,-89],[-47,-136],[-25,-50],[-52,-55]],[[8587,7114],[-37,51],[-46,24],[-53,-33],[-24,6]],[[11333,9150],[-71,-63],[-70,-22],[-193,-104],[-84,-20],[-50,-36],[-30,-57],[-49,-49],[-46,-27],[-70,-67],[-12,-118],[-26,-82],[-80,-123],[-45,-35],[-76,-33],[-11,-103],[-23,-88]],[[10397,8123],[-59,4],[-47,-20],[-17,-78],[-81,-30],[-50,13],[-50,31],[-53,7],[-76,33],[-62,-79],[-42,-42],[-133,-24],[-62,-1]],[[9665,7937],[-3,138],[-41,75],[-7,57],[14,57],[-2,55],[-27,82],[-43,27]],[[9665,7937],[-29,-38],[-71,-159],[-29,-32],[-95,-8],[-106,-67],[-35,-1],[-27,-33],[57,-108],[4,-89],[-177,-207],[6,-113],[30,-66],[27,-40],[6,-38],[-40,-73],[-21,-72]],[[9165,6793],[-42,-9],[-83,53],[-55,12],[-33,-29],[-74,-1],[-64,-35],[-81,7],[-101,107],[-50,69],[-23,19]],[[8559,6986],[-20,24],[50,75],[-2,29]],[[8559,6986],[-24,-39],[5,-80],[-9,-26],[-48,-3],[-17,-30],[-46,-11],[-4,-28],[34,-41],[15,-450],[-27,-45],[8,-71],[-78,-69],[-102,9],[-31,10]],[[8235,6112],[-34,63],[-53,9],[-33,30],[-243,10],[-68,28],[-134,147],[-72,34],[-112,18],[-46,30]],[[8235,6112],[-75,-84],[-3,-61]],[[8157,5967],[-143,-9],[-65,-35],[-96,-100],[-7,-95],[15,-107],[-16,-16]],[[7845,5605],[-122,-63],[-120,120],[-43,-87],[-12,-46],[-33,-46],[-65,-19],[-61,42],[-29,50],[-13,32],[2,114],[-37,21],[-90,-27],[-68,-101],[-122,-58],[-33,5],[-40,39],[-50,29],[-53,2],[-66,-32],[-96,0],[-78,-29],[-54,-2],[-40,13],[-18,25],[-49,27]],[[6455,5614],[-94,-7],[-50,77],[-35,94],[-48,65],[-39,84],[-57,63],[-32,100],[25,44]],[[9165,6793],[31,-55],[4,-118],[-22,-45],[-87,-73],[-66,-87],[16,-39],[118,0],[32,-70],[65,-20],[82,-39],[-27,-43],[-15,-47],[13,-74]],[[9309,6083],[-102,-7],[-101,50],[-88,53],[-83,23],[-11,3],[-78,-5],[-31,-33],[31,-40],[6,-39],[31,-68],[-13,-61],[-41,-41],[-2,-53],[-15,-42]],[[8812,5823],[-34,-13],[-58,33],[-92,-1],[-20,-14],[-50,-60],[-71,-10],[-59,29],[-96,33],[-87,18],[-62,60],[-26,69]],[[10397,8123],[15,-39],[41,-38],[56,-14],[13,-36]],[[10522,7996],[-19,-49],[-86,-81],[-84,-96],[-1,-72],[-70,-38],[-43,-13],[-51,23],[-81,4],[-65,-34],[-24,-27],[28,-114],[50,-93],[14,-164],[-21,-38],[0,-60],[-14,-23],[-86,-89],[-70,-53],[-23,-14],[-11,-47],[28,-42],[45,-91]],[[9938,6785],[19,-105],[0,-89],[20,-49],[55,-67]],[[10032,6475],[0,-28],[-28,-72],[-2,-69],[-48,-101],[-127,-70],[-65,-102]],[[9762,6033],[-181,-4],[-80,-26],[-59,30],[-108,24],[-25,26]],[[12108,9681],[20,-29],[69,-14],[24,-40],[0,-34],[-76,-170],[-19,-115],[54,-110],[15,-58],[44,-79],[6,-51],[1,-200],[-42,-35],[-57,-28],[-77,-21],[-89,-38],[-45,-32],[-4,-70],[-13,-55],[-32,-76],[-57,-69],[-6,-37],[-14,-41],[38,-108],[96,-71],[38,-51],[46,-36],[-11,-51],[9,-76],[24,-55],[2,-44]],[[12052,7787],[-78,-25],[-60,-47]],[[11914,7715],[-47,-28],[-129,-65],[-19,-69],[-22,-31],[-24,-14],[-20,-26],[-56,-29],[-20,-25],[-59,-9],[-45,-26]],[[11473,7393],[-176,1],[-32,-13],[-33,-37],[-65,56],[-44,18],[-32,37],[-56,22],[-19,23],[-133,40],[-28,33],[-18,51],[-8,85],[-21,42],[-104,103],[-31,45],[-71,71],[-45,28],[-35,-2]],[[11473,7393],[-3,-87],[-33,-39],[-15,-53],[7,-60],[0,-115],[-28,-49],[-31,-30]],[[11370,6960],[-55,-2],[-92,-62],[-69,-2],[-71,15],[-81,41],[-54,52],[-24,2],[-96,-40],[-34,-25],[-52,-18],[-56,-39],[-65,-2],[-42,-17],[-146,-1],[-165,84],[-40,2],[-66,-24],[-32,-17],[-69,6],[-39,-23],[-40,-62],[-44,-43]],[[7845,5605],[136,-117],[15,-50],[2,-56],[21,-30],[21,-80],[126,-145],[51,-45],[4,-27],[32,-49],[18,-44],[36,-54],[54,-41],[40,-50],[29,-58],[-9,-48],[5,-218],[-26,-72]],[[8400,4421],[-35,-41],[-39,-16],[-109,3]],[[8217,4367],[-59,21],[-42,76],[-82,49],[-133,0],[-84,-42],[-63,-49],[-83,-13],[-22,103],[-84,23],[-72,40],[-39,43],[-22,47],[-186,4],[7,158],[-42,58],[-36,6],[-46,34],[-80,8],[-136,0],[-69,29],[-128,6],[-195,-2]],[[6521,4966],[-13,135],[11,89],[-34,63],[-17,111],[-47,102],[-40,141],[74,7]],[[8812,5823],[47,-59],[0,-33],[39,-66],[0,-33],[30,-64],[8,-53],[52,-64],[98,-16],[66,-31],[52,-54],[61,-34],[73,-68],[43,-2],[72,-60],[27,-46],[28,-18],[220,1],[69,-98],[17,-84],[7,-146],[-7,-90],[31,-52],[-14,-65]],[[9831,4588],[-71,-9],[-57,-22],[-22,-12],[-22,-51],[-8,-20],[-28,-47],[-18,-70],[-33,-30],[-90,16],[-51,45],[-56,16],[-81,-38],[-75,0]],[[9219,4366],[-95,0],[-40,15],[-55,58],[-8,31],[-43,65],[-52,56],[-146,-15],[-166,-140],[-32,-35]],[[8582,4401],[-71,-8],[-25,-4],[-33,0],[-53,32]],[[9762,6033],[59,-39],[98,-29],[25,-25],[60,-31],[35,-70],[60,-89],[69,-19],[56,-52],[65,-115],[45,-42],[4,-66],[-98,-143],[-19,-75],[-38,-81],[-26,-82],[-6,-111],[-66,-100],[-9,-37],[-41,-85],[-2,-54],[35,-47],[-11,-89],[-46,-37],[-37,-62]],[[9974,4453],[-43,-13],[-42,56],[-29,59],[-29,33]],[[10032,6475],[89,-49]],[[10121,6426],[30,-85],[48,-38],[108,-6],[4,-16],[74,-97],[161,-10],[42,-40],[34,-57],[44,-103],[31,-52],[3,-10],[6,-38],[68,-67],[122,-4],[97,-87],[38,-28],[10,-67],[29,-56]],[[11070,5565],[0,-54],[-32,-95],[8,-42],[120,-160],[80,-87],[67,-67],[52,-86],[9,-82],[57,-55],[52,-123],[-11,-78],[1,-66]],[[11473,4570],[-23,-19],[-91,-27],[-85,0],[-74,-30],[-64,-11],[-136,0],[-82,-55]],[[10918,4428],[-68,-10],[-129,71],[-172,27],[-60,29],[-66,4],[-145,-48],[-84,-69],[-58,-20],[-86,4],[-76,37]],[[10121,6426],[72,43],[115,2],[63,-35],[45,-37],[125,0],[67,-20],[63,-68],[24,-38],[48,-31],[160,2],[111,67],[31,34],[36,61],[86,73],[42,-6],[132,-2],[80,51],[63,27],[13,77]],[[11497,6626],[131,6],[50,-43],[32,-44],[80,-42],[21,-24],[9,-124],[-24,-46],[-57,-57],[16,-24],[28,-81],[-5,-40]],[[11778,6107],[-2,-80],[27,-120],[-45,-64],[-88,-48],[-73,-19],[-35,-22],[-118,-48],[-76,-54],[-71,-35],[-87,-25],[-32,-18],[-108,-9]],[[11370,6960],[0,-84],[17,-30],[0,-86],[67,-91],[43,-43]],[[8217,4367],[-42,-68],[-48,-110],[-33,-58],[-106,-21],[-55,-40],[-27,-40],[-24,-95],[-2,-92],[-19,-64],[-105,-56],[-27,0]],[[7729,3723],[-155,11],[-45,27],[-72,67],[-28,10],[-33,-19],[-105,-34],[-65,-34],[-21,-25],[-2,-96],[-24,-83],[-66,-125],[-29,-33],[-63,-27],[-97,-19],[-64,-41],[-135,-67],[-46,3]],[[6679,3238],[-38,35],[-24,40],[5,122],[-62,24],[-21,-32],[-28,-2],[-23,51],[-32,8],[-73,41],[-43,58]],[[6340,3583],[21,85],[9,95],[25,66],[31,44],[18,58],[20,30],[57,204],[15,85],[25,68],[15,177],[-55,471]],[[6679,3238],[-38,-65],[-78,-40],[-75,-55],[-43,-64],[0,-45],[29,-75],[0,-111],[14,-66],[26,-46],[91,-13],[72,13],[63,0],[36,-16],[133,-32],[57,0],[95,-20],[38,-33],[8,-68]],[[7107,2502],[-14,-79],[-61,-96],[-43,-105],[-55,-58],[-27,-43],[-87,-53],[-42,-51],[-31,-57],[-41,-33],[-22,4],[-64,54],[-94,109],[-137,189],[-97,82],[-63,22],[-204,43],[-150,52],[-104,0],[-111,41],[8,60],[57,76],[14,61],[28,60],[4,149],[23,97],[59,142],[55,98],[69,75],[48,21],[80,0],[50,-19],[37,11],[22,38],[38,110],[55,17],[33,64]],[[7729,3723],[24,-83],[60,-106],[23,-25],[29,-85],[4,-94],[-51,-127],[-10,-50],[-85,-163],[0,-65],[43,-90],[0,-84],[-20,-81],[-27,-57],[0,-84]],[[7719,2529],[-73,-36],[-33,-1],[-169,41],[-81,38],[-77,5],[-44,-8],[-49,-24],[-30,-28],[-56,-14]],[[12366,10333],[132,-33],[133,-45],[44,-5],[59,-25],[105,-12],[39,-28],[36,-57],[82,-38],[117,-2],[114,-45],[40,-63],[56,-127],[14,-50],[147,-107],[80,-1],[111,-74],[93,-25],[45,0],[79,-25],[121,-69],[58,-23],[16,-18],[0,-70],[-27,-50],[-59,-63],[-25,-55],[-69,-68],[-28,-40],[-85,-75],[-58,-124],[-5,-69],[32,-57],[44,-32],[166,-87],[110,-28],[41,-18],[157,-10],[62,-21]],[[14343,8594],[4,-111],[52,-118],[-31,-30],[-10,-71],[-48,-73],[-84,-36],[-37,-41],[-80,-44],[-30,-43],[-3,-48],[-52,-54],[-129,-30],[-7,-8],[-193,-37],[-75,0],[-66,10],[-57,29],[-42,-10],[-85,-58],[-109,-23],[-69,-45],[-17,-33],[-6,-92],[-9,-26]],[[13160,7602],[-43,-9],[-156,72],[-35,44],[-66,31],[-80,4],[-104,-26],[-42,-19],[-73,-7],[-60,32],[-62,7],[-100,32],[-114,13],[-110,0],[-63,11]],[[13160,7602],[87,-74],[82,-38],[173,0],[68,18],[135,69],[59,19],[40,-42],[76,-106],[-34,-39],[-6,-53],[-66,-122],[37,-46],[-8,-38]],[[13803,7150],[-29,-21],[-67,-10],[-117,-74],[-118,-1],[-71,-86],[-79,-58],[-51,-76],[-15,-49],[2,-80],[36,-95],[8,-54],[-3,-93],[-19,-52]],[[13280,6401],[-29,-35],[-65,-44],[-9,-58],[-39,-90],[-26,-107],[-27,-59],[-57,-91],[-42,-16],[-33,-39],[-74,-26]],[[12879,5836],[-14,7],[-33,27],[-132,115],[-17,55],[-68,121]],[[12615,6161],[-5,171],[-9,15],[-83,125],[-29,109],[-73,63],[-42,66],[6,75],[17,31],[-3,49],[-59,110],[-59,65],[-12,32],[-3,121],[-25,58],[-21,93],[-20,32],[-73,69],[-68,27],[-36,28],[-43,59],[-9,66],[-27,31],[-25,59]],[[12615,6161],[-76,2],[-35,-25],[-30,-55],[-32,-28],[-79,1],[-60,23],[-48,42],[-41,9],[-38,37],[-59,27],[-47,7],[-75,-30],[-20,-22],[-96,-14],[-42,-22],[-59,-6]],[[12879,5836],[-1,-39],[-26,-65],[17,-314],[-41,-39],[-20,-20],[-70,-84],[-49,-31],[-54,-138],[22,-28],[6,-64]],[[12663,5014],[-100,-20],[-31,-24],[-47,-4],[-62,-74],[-40,0],[-33,-23],[-64,-9],[-40,-43],[-74,-54],[-29,0],[-46,-31],[-59,0],[-19,-34],[-71,-24],[-26,-20],[-65,-5],[-57,-42],[-65,-6],[-92,-69],[-71,-33]],[[11572,4499],[-89,42],[-10,29]],[[10918,4428],[4,-143],[-52,-81],[-46,-33],[-66,-33],[-18,-32],[27,-96],[4,-132],[-4,-48],[-29,-55],[0,-37],[44,-100],[-12,-39],[-39,-34],[-98,-31],[-34,-15],[-31,-34],[-9,-43],[-50,-73],[-37,-93],[4,-87],[11,-26],[-28,-151],[-24,-31]],[[10435,2981],[-97,-39],[-60,-33],[-33,0],[-117,87],[-159,23],[-66,4],[-139,-39],[-153,-9],[-8,7]],[[9603,2982],[-27,72],[0,83],[-17,66],[-49,119],[-70,112],[-38,34],[-80,47],[-93,128],[-9,72],[-1,651]],[[9603,2982],[-25,-75],[-63,-63],[30,-98],[-48,-107],[5,-101],[-99,-82],[-34,-47],[-41,-97],[-14,-75],[-57,33]],[[9257,2270],[-33,62],[-8,69],[-26,40],[-50,46],[-42,14],[-59,55],[-29,49],[-60,74],[-60,35],[-52,17],[-38,65],[-89,58],[-19,34],[-39,14],[-89,69],[-24,36],[-43,11],[-47,40],[-60,90],[8,40],[1,100],[-17,43],[-10,115],[-38,59],[7,59],[52,58],[0,34],[-24,44],[-4,44],[-26,53],[63,56],[47,24],[17,75],[27,59],[38,39],[57,86],[-6,265]],[[9257,2270],[55,-33],[18,-67],[-6,-28],[-111,24],[-14,-35],[-48,-7],[-87,5],[-30,30],[-45,23],[-14,49],[-54,18],[-85,14],[-29,31],[-28,-12],[-50,19],[-104,-6],[-21,7],[-42,64],[-35,12],[-46,44],[-36,17],[-110,0],[-63,17],[-122,-8],[-11,29],[-65,52],[-50,-3],[-27,-22],[-75,6],[-60,-11],[-52,42],[-17,-19],[-74,7]],[[11572,4499],[37,-46],[53,-136],[66,-33],[42,-47],[35,-8],[36,-55],[7,-200],[41,-38],[49,-15],[63,-76],[38,-32],[30,-81],[31,-43],[4,-33]],[[12104,3656],[-24,-12],[-129,0],[-51,-16],[-94,-102],[-50,-17],[-35,-26],[-175,-231],[3,-109],[-95,-123],[1,-68],[52,-50],[54,0],[21,-72],[33,-63],[-6,-26],[-60,-60],[-9,-44],[-40,-50],[-65,-46],[-10,-18],[-1,-172],[-28,-46],[-4,-176],[-62,-25],[-74,39],[-72,70],[-36,13],[-44,-4],[-60,-27],[-25,-17],[-29,-5]],[[10990,2173],[-35,11],[-13,28],[-69,30],[-52,81],[-109,47],[-6,85],[-10,28],[-103,1],[-14,-30],[-7,-81],[-33,-38],[-76,16],[-49,66],[-50,26],[-8,58],[-31,54],[2,28],[71,76],[18,81],[52,97],[8,92],[-41,52]],[[12104,3656],[66,-16],[16,21],[58,-2],[117,79],[58,-29],[28,-5],[42,-30],[73,-98],[85,-48],[21,-29]],[[12668,3499],[2,-53],[-17,-43],[-33,-27],[-14,-39],[-34,-45],[-16,-41],[-19,-21],[-59,-31],[-54,-59],[-25,-64],[0,-58],[-26,-70],[0,-41],[22,-47],[3,-74],[32,-86],[5,-55],[60,-113],[1,-63],[-48,-28],[-58,-62],[-41,-69],[-32,-21],[-21,-39],[45,-80],[2,-32],[54,-73],[3,-136],[-24,-54],[-10,-70],[-58,-36],[-66,43],[-38,0],[-37,-25],[-46,-58],[-54,-53],[-13,-36],[-3,-88],[-37,-46],[-49,-89],[-72,-23],[-21,-89],[-63,-55],[-67,-3]],[[11742,1247],[-52,18],[-51,60],[-14,57],[0,65],[-52,188],[-165,60],[-26,21],[-110,38],[-57,45],[-63,1],[-44,38],[-40,135],[-89,130],[11,70]],[[12663,5014],[29,-12],[41,29],[51,0],[20,-24],[116,-28],[22,-20],[53,-29],[78,-16],[73,-42],[43,-89],[1,-42],[38,-71],[44,-59],[46,-23],[-2,-86],[22,-53],[75,-16],[98,-4]],[[13511,4429],[52,-107],[1,-47],[40,-14],[93,-2],[113,-134],[78,-12],[36,22],[58,12],[51,31]],[[14033,4178],[104,4],[51,-9],[44,-24],[57,-6],[87,-49],[17,-38],[-2,-95]],[[14391,3961],[-28,-71],[-97,-126],[-36,-27],[-72,-98],[-97,28],[-69,45],[-77,24],[-38,24],[-69,0],[-36,-35],[-4,-44],[-32,-58]],[[13736,3623],[-110,-96],[-56,-79],[-48,-128],[-41,-36],[-92,-13],[-104,1],[-24,-40],[-40,-18],[-57,-46],[-44,-59],[-30,-14],[-36,40],[-35,63],[1,55],[-13,41],[-85,68],[-13,17],[-105,130],[-18,-6],[-118,-4]],[[13280,6401],[79,-86],[80,-103],[40,-36],[69,-44],[138,-171],[26,-61],[11,-57],[-23,-73],[27,-59],[-5,-47],[17,-74],[22,-28],[39,-115],[13,-99],[18,-38],[6,-125],[-11,-55],[-51,-44],[-32,-44],[-96,-49],[-11,-77],[-28,-58],[-1,-57],[-15,-21],[-49,-153],[8,-39],[-25,-36],[-15,-123]],[[13803,7150],[160,-16],[24,25],[77,-36],[1,-22]],[[14065,7101],[-62,-100],[-3,-47],[56,-78],[100,-190],[18,-93],[32,-87],[57,-103],[73,-64],[8,-108],[2,-70],[24,-33],[15,-68],[53,-44],[31,-67],[19,-70],[98,-185],[48,-34],[167,-142],[23,-47],[57,-40],[3,-23],[-22,-44],[-107,-44],[-20,-37],[-7,-120],[-29,-39],[-55,-35],[-53,-19],[-50,-53],[-32,-72],[5,-87],[-35,-68],[-23,-19],[-35,-20],[-42,-3],[-86,-49],[-57,-15],[-28,-65],[-55,-69],[-81,-184],[-12,-75],[-23,-32],[-4,-81]],[[14343,8594],[214,21],[127,43],[81,2],[106,39],[59,2],[48,15],[129,0],[61,14],[64,35],[83,18],[91,-8]],[[15406,8775],[24,-70],[9,-56],[70,-117],[19,-19],[152,-42],[43,-22],[24,-55],[0,-58],[34,-84],[20,-23],[52,-22],[47,-54],[2,-30],[34,-50]],[[15936,8073],[-39,-22],[-55,-64],[-34,-90],[-50,-49]],[[15758,7848],[-72,-7],[-172,2],[-28,9],[-111,-48],[-69,-59],[-42,-70],[-4,-61],[-46,-52],[-64,-1],[-104,-29],[-52,-59],[-25,-54],[14,-111],[-16,-39],[-44,-28],[-34,2],[-67,23],[-43,34],[-124,15],[-61,-1],[-70,-78],[-20,-15],[-33,-53],[-96,-23],[-49,-41],[-14,-47],[-45,-35],[-57,-4],[-28,12],[-81,65],[-36,6]],[[15758,7848],[9,-35],[-27,-34],[11,-56],[75,-70],[13,-42],[0,-112],[26,-58],[78,-54],[55,-72],[-13,-82],[-55,-131],[-2,-65],[26,-75],[107,-148],[-4,-96],[-19,-23],[-9,-87],[-78,-22],[-45,-27],[-26,-102],[-70,-83],[-31,-27],[-42,-64],[-8,-62],[29,-40],[2,-32],[-47,-61],[-8,-28],[4,-139],[27,-46],[0,-44],[-24,-75],[-31,-46],[-4,-107],[42,-52],[63,23],[39,-7],[22,-60],[-4,-107]],[[15839,5400],[-12,-46],[7,-60],[49,-57],[-5,-28],[-38,-38],[-87,-23],[-60,-68],[-30,-50],[-61,-53],[-111,-53],[-20,-28],[-9,-133],[-64,-81],[-91,-102],[36,-72],[49,-24],[80,27],[55,46],[62,-12],[76,-103],[-26,-35],[-27,-94],[-1,-27],[-28,-53],[-27,-17],[-21,-51],[-110,-68],[-23,-79],[-1,-66],[-12,-35]],[[15389,3917],[-41,-31],[-25,-1],[-46,-37],[-111,2],[-59,35],[-269,-3],[-128,16],[-67,0],[-30,24],[-30,-1],[-37,36],[-42,12],[-113,-8]],[[13736,3623],[18,-97],[4,-132],[-35,-125],[31,-83],[6,-206],[-30,-102],[-59,-70],[-9,-16],[-26,-87],[2,-108]],[[13638,2597],[-4,-45],[35,-84],[6,-123],[-41,-63],[-64,-63],[2,-28],[33,-54],[0,-75],[27,-118],[-58,-65],[-70,24],[-40,9],[-46,-32],[-12,-24],[-66,-54],[-89,-11],[-11,-19],[-13,-110],[-32,-48],[0,-68],[-10,-30],[-58,-21],[-45,0],[-43,-21],[-34,-33],[-29,8],[-27,32],[-18,65],[-63,37],[-82,-63],[-63,-77],[-18,-156],[4,-4],[29,-102],[-37,-131],[-3,-58],[-17,-74],[-4,-96],[-31,-109]],[[12646,713],[-17,-1],[-84,45],[-23,31],[-47,19],[-141,17],[-57,-16],[-56,-58],[-102,-24],[-135,-67],[-50,-9],[-5,32],[35,73],[-99,165],[-18,82],[-20,51],[-72,44],[-88,2],[-63,-19],[-29,26],[87,53],[57,44],[23,44]],[[13638,2597],[28,82],[239,-1],[68,11],[63,0],[115,64],[49,10],[33,-9],[99,-59],[52,-45],[9,-41],[-18,-61],[21,-67],[37,-20],[55,-74]],[[14488,2387],[8,-35],[2,-120],[10,-69],[-34,-194],[3,-66],[66,-55],[32,10],[29,-26],[45,-117],[24,-92],[0,-53],[-35,-127],[-30,-39],[-16,-48],[0,-205],[14,-51],[61,-98],[26,-94],[6,-48],[-47,-119],[-39,-34],[-15,-42],[3,-69]],[[14601,596],[-80,-7],[-220,33],[-116,-25],[-44,-43],[-181,-119],[-92,-78],[-28,-55],[-107,33],[-26,16],[-92,83],[-75,4],[-78,-25],[-31,-25],[-62,-2],[-33,12],[-37,37],[-123,70],[-42,9],[-92,-15],[-49,-44],[-102,-47],[-68,1],[-86,260],[-91,44]],[[14488,2387],[57,35],[90,25],[51,41],[37,59],[19,24],[26,31],[39,12],[85,-76],[56,-11],[22,-36],[97,2],[59,24],[92,86],[70,13],[19,20],[66,12],[29,21],[37,59],[8,35],[75,94],[73,7],[103,-21],[45,-45]],[[15743,2798],[51,-48],[41,-84],[2,-39],[-30,-31],[-15,-32],[-45,-97],[5,-149],[36,-44],[42,-9],[40,-49],[1,-21]],[[15871,2195],[-72,-81],[-22,-37],[-6,-56],[26,-40],[42,-96],[47,-48],[52,-11],[68,-40],[60,-8],[84,4],[43,-8],[81,5],[18,-42],[9,-84],[127,-94],[42,-88],[-13,-68],[-68,-67],[-31,-58],[-61,-38],[-17,-49],[50,-62],[-9,-81],[-21,-101],[-14,-67]],[[16286,880],[-2,-45],[-91,44],[-130,115],[-47,-11],[-22,-123],[-61,-6],[-82,29],[-157,7],[-24,35],[-29,72],[-39,35],[-27,-2],[-22,-31],[-43,3],[-55,32],[-36,4],[-6,-66],[13,-101],[-26,-49],[-97,-92],[-98,17],[-102,6],[-91,-4],[-94,-40],[-90,-24],[-65,-49],[-59,-69],[-73,-3],[-30,32]],[[15389,3917],[117,-17],[48,-50]],[[15554,3850],[-3,-45],[-22,-32],[5,-48],[42,-79],[40,-43],[7,-66],[-53,-54],[-3,-73],[62,-65],[65,-41],[8,-78],[-17,-72],[0,-53],[57,-119],[1,-184]],[[15871,2195],[79,69],[86,11],[78,40],[19,22],[103,89],[169,0],[95,14],[24,13],[30,65],[35,24],[22,7],[361,0],[115,-54],[211,-1],[106,-55],[120,-21]],[[17524,2418],[68,-11],[34,-43],[33,-69],[21,-64],[-41,-30],[-19,-47],[4,-48],[35,-31],[12,-64],[-27,-43],[8,-87],[-14,-58],[-62,-95],[-104,-70],[-52,-133],[-58,-7],[-29,21],[-43,76],[-22,2],[-26,-58],[-122,-40],[-108,-76],[-6,-53],[-66,-91],[-64,-26],[-39,-27],[0,-48],[24,-86],[14,-104],[20,-81],[-12,-32],[-6,-72]],[[16877,823],[-127,-54],[-241,-4],[-83,-38],[-50,7],[-95,73],[5,44],[0,29]],[[15554,3850],[36,23],[92,-37],[99,31],[51,40],[95,25],[61,40],[36,37],[48,1],[33,-29],[33,-70],[59,-51],[116,-3],[52,-7],[124,-2],[71,46],[10,41],[-3,56]],[[16567,3991],[39,4],[60,-31],[95,-8],[61,-31],[43,-4],[51,-51],[13,-38],[23,-27],[10,-38],[46,-68],[36,-36]],[[17044,3663],[-13,-64],[-52,-51],[-10,-24],[-40,-22],[25,-77],[48,-46],[9,-49],[40,-8],[42,-31],[102,-17],[75,35],[79,0],[132,-8],[99,-75],[44,-57],[60,-115],[35,-31],[6,-29]],[[17725,2994],[-42,-72],[-4,-29],[-54,-67],[-47,-91],[-4,-25],[-37,-48],[28,-66],[-32,-56],[4,-80],[-13,-42]],[[15839,5400],[67,56],[22,42],[70,80],[80,26],[50,-28],[10,-4],[66,0],[126,-39],[96,0],[33,-15]],[[16459,5518],[147,-162],[2,-86]],[[16608,5270],[-12,-91],[21,-84],[87,-148],[47,-60],[36,-25],[80,-101],[10,-110],[-41,-85],[-16,-15],[-67,-20],[-62,-3],[-81,12],[-14,-46],[-26,-39],[50,-72],[9,-76],[-16,-81],[-28,-41],[-39,-13],[-27,-29],[-13,-61],[44,-43],[17,-48]],[[15936,8073],[49,-28],[28,-47],[-21,-49],[-56,-39],[-11,-73],[9,-30],[67,-74],[42,-21],[47,-40],[133,-24],[38,8],[32,-14],[21,-21],[29,-40],[58,-35]],[[16401,7546],[8,-25],[64,-70],[68,-35],[72,-27],[64,-44],[29,-32],[61,-36],[78,-30],[10,-101],[-52,-90],[-4,-43],[55,-133],[105,-134],[20,-49],[10,-442],[-30,-74],[-58,-92],[-87,-64],[-32,-80],[-58,-75],[-8,-35],[-45,-45],[-5,-51],[34,-44],[52,-97],[-17,-57],[-27,-19],[-27,-25],[-18,-4],[-115,86],[-44,8],[-45,-69]],[[15406,8775],[107,61],[58,88],[62,40],[45,40],[52,9],[68,39],[21,22],[96,45],[54,8],[75,27],[63,38],[91,34],[81,14],[74,53],[101,31],[60,40],[39,8],[62,35],[130,25],[247,3],[206,-37],[90,0],[51,-17],[39,-50],[9,-30],[70,-75],[41,-73],[103,-84],[76,-102],[39,-82]],[[17716,8885],[3,-94],[9,-59],[0,-162],[40,-79],[27,-77],[0,-60],[-17,-35],[-65,-78],[-149,-209],[-68,-26],[-68,-51],[-119,-50],[-38,2],[-77,36],[-15,25],[-60,8],[-38,-45],[-77,-28],[-108,0],[-31,23],[-80,5],[-51,14],[-57,32],[-93,21],[-38,-5],[-58,-56],[-12,-21],[-7,-34],[29,-75],[-6,-81],[2,-90],[-31,-59],[-62,-31]],[[17716,8885],[-16,34],[124,160],[32,65],[23,83],[50,92],[98,93],[78,26],[151,0],[51,-47],[24,-45],[96,-107],[49,-75],[56,-30],[168,-5],[23,10],[154,21],[52,32],[103,-1],[69,-31],[24,-78],[94,-95],[39,-74],[26,-74],[120,-135],[76,-59],[31,-55],[66,-74],[29,-59],[6,-45]],[[19612,8412],[-50,-65],[-14,-45],[-11,-20],[-21,-21],[-14,-17],[-39,-59],[-33,-26],[-17,-58],[-56,-62],[-10,-52],[32,-51],[18,-67],[10,-157],[-23,-43],[-72,-58],[-40,-49],[-55,-29],[-17,-38],[-15,-82],[0,-43],[37,-54],[14,-65]],[[19236,7251],[-105,4],[-80,12],[-72,-56],[-97,-20],[-54,-39],[-52,-15],[-42,-55],[-51,-29],[-61,3],[-83,93],[-54,20],[-28,-35],[-20,-70],[-42,-43],[-24,-43],[-55,-61],[2,-23],[-36,-33],[-19,-52],[-46,-37],[-40,-39],[-75,-10],[-19,-121],[-18,-17],[-38,-30],[-79,-116],[-68,-49],[-12,-55],[30,-65],[0,-39],[37,-53],[0,-31],[-37,-46],[-2,-38],[-35,-35],[-5,-45],[37,-150],[78,-143],[6,-47],[-5,-101],[28,-66],[-4,-40],[-53,-40],[-19,-44],[0,-107],[14,-109],[-37,-64]],[[17901,5072],[-27,-30],[-74,-38],[-46,-4],[-17,23],[-66,9],[-62,27],[-52,-37],[-40,15],[-7,62],[-28,35],[-18,64],[-60,41],[-119,-84],[-81,0],[-176,11],[-89,47],[-72,20],[-104,4],[-84,26],[-71,7]],[[19236,7251],[44,-115],[-12,-55],[-49,-84],[-67,-23],[-59,7],[-57,-45],[-36,-55],[-47,-41],[-55,-82],[-45,-33],[-29,-40],[-15,-205],[-82,-88],[-28,-82],[5,-151],[-31,-67],[-3,-63],[-27,-93],[-30,-36],[-11,-64],[46,-59],[21,-59],[-38,-60],[3,-54],[73,-79],[13,-50],[52,-88],[-31,-27],[-87,-140],[8,-89],[58,-62],[93,-35],[53,-27],[139,-10],[52,-41],[80,-46],[38,-33],[24,-44],[2,-40]],[[19201,4793],[-13,-24],[-64,0],[-53,-17],[-58,-22],[-55,0],[-20,4],[-28,8],[-150,127],[-61,21],[-37,-59],[-64,-43],[-45,-58],[-18,-15],[-4,-6]],[[18531,4709],[-22,-24],[-66,-15],[-60,21],[-39,-3],[-118,21],[-139,35],[-46,54],[2,70],[-15,46],[-37,20],[-25,68],[-65,70]],[[18531,4709],[24,-35],[48,-27],[40,-42],[26,-48],[5,-93]],[[18674,4464],[-10,-12],[-19,-19],[-14,-5],[-43,-7],[-24,13],[-115,3],[-115,69],[-35,0],[-39,-23],[-37,-47],[-59,-111],[10,-65],[-33,-72],[-61,-48],[-28,-41]],[[18052,4099],[-102,17],[-20,26],[-85,96],[-67,37],[-59,-13],[-44,-91],[-8,-43],[-38,-72],[-102,-11],[-27,35],[-60,-25],[-16,-35],[11,-111],[-21,-33],[-35,-6],[-53,-33],[-14,-31],[-5,-19],[-6,-29]],[[17301,3758],[-49,-76],[-57,-61],[-101,46],[-50,-4]],[[17725,2994],[54,-101],[47,-60],[25,-87],[61,0],[41,11],[100,5],[26,24],[66,-2],[153,-36],[28,-24],[59,-80],[66,-45],[53,-56],[31,-68],[22,-70],[-17,-51],[-12,-13],[-10,-44],[0,-65],[15,-48],[113,-128],[17,-105],[2,-96],[40,-61],[27,-79],[41,-58],[5,-42]],[[18778,1615],[-65,-113],[-83,-4],[-8,-72],[-31,-41],[-80,-38],[-54,0],[-121,-71],[-30,-32],[-14,-41],[-32,-39],[-43,-23],[-89,4],[-33,34],[-60,36],[-56,16],[-52,-7],[-42,37],[-11,29],[-48,68],[-72,26],[-11,-31],[7,-76],[-3,-69],[-18,-41],[-2,-56],[27,-45],[16,-51],[60,-42],[92,-29],[39,-34],[80,-6],[39,-38],[-54,-33],[-88,-2],[-47,22],[-22,35],[-96,-9],[-20,12],[-29,53],[-36,-26],[-67,8],[-11,-11],[-92,-2],[-38,-83],[-37,-4],[-13,30],[26,70],[-22,19],[-40,-9],[-17,-24],[-81,11],[-39,48],[-89,12],[-155,8],[-24,-74],[-20,-105],[1,-31],[-26,-44],[-47,-11],[10,67],[-30,30]],[[19612,8412],[98,-183],[42,-41],[107,-7],[63,30],[27,64],[33,20],[200,-26],[77,10],[70,-17],[109,0],[50,13],[118,10],[37,-26],[29,-39],[37,-19],[306,-71],[30,-70],[70,-68],[61,-19],[128,7],[25,-69],[3,-205],[-13,-54],[-41,-94],[-70,-101],[-30,-63],[-3,-73],[24,-92],[-3,-87],[46,-89],[0,-47],[-25,-87],[-26,-30],[-120,16],[-54,0],[-112,-50],[-59,0],[-100,-201],[-9,-72],[-30,-47],[4,-82]],[[20711,6453],[-47,21],[-91,-15],[-32,-26],[-84,2],[-79,24],[-17,21],[-9,17],[-19,19],[-7,53],[15,38],[6,57],[-73,53],[-66,0],[-41,17],[-42,39],[-71,11],[-76,-46],[5,-103],[-25,-114],[-43,-50],[-65,-37],[-24,-24],[-61,-113],[-12,-51],[-52,-119],[5,-65],[96,-139],[17,-71],[31,-66],[4,-132],[29,-88],[-2,-100],[8,-60],[19,-61],[-2,-82],[-23,-35],[-19,-82],[-82,-111],[-76,-39],[-33,-59],[-16,-88],[17,-58],[-91,-115],[-86,-48],[-17,0]],[[19480,4628],[-73,18],[-50,0],[-70,51],[-86,96]],[[20711,6453],[65,-40],[67,-93],[34,-18],[78,-5],[125,-101],[40,-15],[22,-46],[69,-28],[3,-41]],[[21214,6066],[-21,-28],[-15,-66],[-23,-50],[-58,-75],[-81,-70],[-36,-87],[-26,-26],[-123,-57],[-31,-24],[-46,-3],[-71,-63],[-107,-65],[-36,-5],[-36,-35],[-21,-64],[28,-38],[19,-76],[56,-29],[41,-56],[99,-25],[26,-17],[84,-59],[2,-56],[112,-81],[18,-26],[48,-27],[31,-52],[50,-17],[21,-33]],[[21118,4756],[-64,-32],[-23,-45],[-125,-83],[-20,-23],[-30,-68],[-33,-46],[-26,-27],[-33,-24],[-40,-25],[-31,-18],[-58,-24],[-46,0],[-60,-18],[-75,-28],[-34,-31],[-48,-23]],[[20372,4241],[-15,-7],[-114,30],[-72,5],[-120,-25],[-126,-43],[-130,-7],[-90,7],[-64,78],[-60,50],[-48,80],[-17,75],[-20,30],[-31,79],[15,35]],[[18052,4099],[-50,-112],[-4,-47],[35,-20],[65,0],[53,26],[84,6],[163,-74],[37,-32],[-13,-27],[-11,-54],[18,-11],[45,32],[19,-44],[6,-55],[29,-63],[-1,-43],[-17,-78],[-64,-133],[-14,-18],[-95,-74],[-72,-26],[-37,-27],[-33,-119],[-13,-16],[-49,29],[-13,36],[0,74],[-115,45],[-81,72],[-92,35],[-67,88],[-134,83],[-57,23],[-119,7],[-55,25],[-31,82],[-68,69]],[[18674,4464],[146,-176],[26,-66],[91,-135],[26,-28],[27,-4],[34,20],[91,0],[36,-35],[15,-59],[58,-139],[3,-26],[0,-68],[21,-83],[36,-97],[15,-82],[18,-39],[6,-71],[-60,-64],[-62,-92],[-26,-58],[14,-83],[41,-45],[6,-28],[-21,-37],[3,-44],[49,-79],[16,-13],[81,-23],[40,-25],[88,-7],[67,-38],[18,0],[93,-90],[-54,-52],[9,-52],[47,-48],[13,-108],[-16,-57]],[[19669,2333],[-69,0],[-29,-38],[-64,-31],[-40,0],[-54,24],[-41,-108],[-58,-75],[-88,-40],[-64,-51],[-44,21],[-39,-13],[2,-43],[-66,-102],[-219,-301],[-18,39]],[[20372,4241],[69,-112],[12,-62],[0,-103],[44,-81],[164,-111],[58,-65],[60,-91],[34,-93],[30,-41],[6,-112],[-64,-107],[-97,-90],[-20,-37],[0,-34],[41,-42],[60,-38],[67,-73],[41,-83],[17,-34],[12,-44]],[[20906,2788],[-81,-142],[-28,-90],[-35,-81],[-47,-70],[-55,-31],[-69,-63],[-32,-69],[-40,-56],[-6,-108],[-31,-70]],[[20482,2008],[-70,19],[-81,39],[-45,71],[-125,86],[-36,-11],[-68,-68],[-22,-37],[-123,-21],[-47,27],[-50,110],[-29,17],[-93,33],[-87,53],[63,7]],[[21214,6066],[74,-97],[2,-34],[38,-89],[32,-9],[37,54],[62,3],[40,-36],[31,18],[43,0],[38,21],[74,-45],[80,-13],[51,-59],[36,-83],[-10,-61],[53,-60],[4,-107],[30,-18],[28,-46],[43,-5],[18,40],[70,69],[38,-3],[31,-21],[61,9],[16,-85],[44,-20],[46,2],[75,85],[36,2],[23,-55],[4,-76],[29,-85],[48,-65]],[[22539,5197],[21,-57],[12,-87],[4,-133],[-40,-113],[-20,-37],[-45,-41],[-6,-93],[12,-70],[-29,-43],[-69,-52],[-43,-1],[-69,34],[-36,-4],[-80,-30],[-54,0],[-72,-34],[-49,-34],[-58,-65],[-21,-71],[-31,-14]],[[21866,4252],[-49,-3],[-216,112],[-27,27],[-54,28],[-37,36],[-48,86],[-68,53],[-131,57],[-50,85],[-68,23]],[[21866,4252],[14,-138],[-8,-41],[0,-39],[38,-70],[67,-27],[22,-21],[74,-22],[0,-44],[18,-57],[0,-74]],[[22091,3719],[-33,-28],[-39,-40],[-39,-39],[-102,-44],[-33,-34],[-73,-51],[-25,-38],[-26,-84],[-92,-54],[-26,-25],[-72,-23],[-76,-64],[-103,-110],[-20,-49],[-64,-80],[-21,-12],[-97,0],[-53,-36],[-84,-14],[-14,-68],[-20,-18],[-73,-20]],[[22539,5197],[29,52],[73,68],[32,5],[43,-61],[15,-46],[103,41],[72,61],[93,6],[97,-35],[-30,-72],[-3,-39],[39,-21],[34,-53],[57,-56],[13,-95],[69,-62],[66,-15],[35,74],[42,-3],[57,-40],[79,0],[39,30],[34,7],[8,-62],[60,-58],[6,-86],[-14,-32],[-50,-71],[18,-57],[-1,-88],[-41,-49],[-30,-54],[-62,-70],[-50,-37],[-53,-59],[-67,-52],[-74,-87],[-49,-82],[-188,-33],[-59,-58],[-26,13],[-34,55],[-34,7],[-17,-43],[6,-73],[-60,-60],[-28,-107],[0,-47],[18,-18],[-6,-109],[35,-89],[41,-49],[0,-68],[-13,-26]],[[22863,3294],[-94,56],[-108,106],[-123,66],[-16,18],[-78,24],[-22,7],[-96,51],[-93,17],[-70,52],[-72,28]],[[22863,3294],[-18,-35],[36,-21],[3,-31],[34,-26],[-24,-60],[56,-10],[18,-38],[50,-11],[4,-44],[29,0],[-2,93],[18,41],[53,1],[27,28],[18,-42],[-4,-58],[-18,-34],[51,-4],[27,-18],[38,56],[43,12],[35,-18],[-4,-55],[63,-28],[3,-52],[-17,-71],[-61,53],[-35,-20],[-37,5],[-12,-43],[31,-52],[-5,-56],[20,-51],[-13,-21],[74,-62],[0,-30],[23,-116],[30,0],[37,-36],[25,11],[39,-35],[52,-6],[-42,-67]],[[23508,2343],[-68,-81],[-100,-41],[-44,2],[-104,59],[-34,60],[0,68],[29,42],[5,36],[-48,45],[-423,-12],[-127,63],[-83,21],[-90,61],[-53,66],[-75,78],[-32,82],[-46,64],[-18,7],[-120,-2],[-99,-61],[-144,-130],[5,-40],[-16,-70],[-59,-49],[-34,-40],[-20,-43],[6,-66],[-41,-75],[0,-156],[-25,-43],[0,-66],[-23,-60],[4,-219],[69,-72],[23,-76],[-10,-62],[-57,-49],[-32,-55],[-39,-189],[-32,-36],[-76,-57],[-40,-46],[-117,-56],[-58,-48]],[[21262,1097],[-56,-5],[-31,35],[-6,62],[-54,79],[-47,40],[-38,77],[48,40],[21,32],[52,135],[28,6],[69,-15],[15,53],[-50,27],[-75,12],[-35,24],[-35,0],[-31,-25],[-72,0],[-64,71],[-52,25],[-21,32],[-69,0],[-34,-16],[-99,-8],[-43,11],[-3,81],[-51,82],[-39,14],[-8,42]],[[23508,2343],[38,14],[21,36],[28,-12],[-3,-63],[29,-3],[43,38],[36,-17],[32,-42],[-15,-62],[41,-12],[7,38],[24,4],[13,-86],[14,-28],[42,-22],[62,-10],[13,-55],[42,-33],[76,-10],[22,-31],[47,-5],[43,-22],[63,-17],[48,-42],[118,-6],[6,-69],[32,-7],[8,38],[30,-7],[-6,-44],[33,3],[13,-50],[-27,-47],[30,-8],[31,64],[43,-21],[15,-52],[-26,-23],[35,-33],[4,-47],[61,-13],[6,-62],[66,-34],[-58,-33],[45,-56],[-6,-81],[75,-19],[34,-23],[-8,-45],[-46,-22],[-38,-66],[5,-59],[-43,-54],[-23,-87],[-115,-125],[-3,-53],[33,-44],[-3,-54],[-35,-41],[-8,-118],[25,-96],[-51,-103],[-85,-75],[-30,2],[-59,45],[-91,37],[-88,-2],[-43,-37],[-50,-134],[-57,-78],[-26,-57],[-41,-5],[-86,55],[-43,63],[8,103],[-14,31],[-59,-1],[-48,18],[-73,2],[-79,16],[-64,35],[-9,39],[-57,36],[-172,218],[-67,56],[-22,87],[-96,-40],[-50,0],[-27,44],[-57,-24],[-33,29],[-145,7],[-21,34],[-90,5],[-20,-20],[-58,-13],[-12,-80],[-13,-24],[-61,-32],[-44,13],[-6,53],[-55,28],[-53,-11],[-87,7],[-69,-14],[-23,-28],[-197,0],[-132,51],[-48,74],[-66,37],[-117,16],[-190,81],[-104,82],[-35,64]]],"transform":{"scale":[0.0002713854729854093,0.00017939726100651371],"translate":[39.99113784212716,41.05578914951087]},"objects":{"GEO":{"type":"GeometryCollection","geometries":[{"arcs":[[0,1]],"type":"Polygon","properties":{"name":"Gagra","shapeGroup":"GEO","gid":"GEO-2-0"},"id":"GEO-2-0"},{"arcs":[[-1,2,3,4]],"type":"Polygon","properties":{"name":"Gudauta","shapeGroup":"GEO","gid":"GEO-2-1"},"id":"GEO-2-1"},{"arcs":[[-4,5,6,7]],"type":"Polygon","properties":{"name":"Sokhumi","shapeGroup":"GEO","gid":"GEO-2-2"},"id":"GEO-2-2"},{"arcs":[[-7,8,9,10,11]],"type":"Polygon","properties":{"name":"Gulripshi","shapeGroup":"GEO","gid":"GEO-2-3"},"id":"GEO-2-3"},{"arcs":[[-11,12,13,14,15]],"type":"Polygon","properties":{"name":"Ochamchire","shapeGroup":"GEO","gid":"GEO-2-4"},"id":"GEO-2-4"},{"arcs":[[-10,16,17,18,19,-13]],"type":"Polygon","properties":{"name":"Mestia","shapeGroup":"GEO","gid":"GEO-2-5"},"id":"GEO-2-5"},{"arcs":[[-15,20,21,22]],"type":"Polygon","properties":{"name":"Gali","shapeGroup":"GEO","gid":"GEO-2-6"},"id":"GEO-2-6"},{"arcs":[[-14,-20,23,24,-21]],"type":"Polygon","properties":{"name":"Tsalenjikha","shapeGroup":"GEO","gid":"GEO-2-7"},"id":"GEO-2-7"},{"arcs":[[-22,-25,25,26,27]],"type":"Polygon","properties":{"name":"Zugdidi","shapeGroup":"GEO","gid":"GEO-2-8"},"id":"GEO-2-8"},{"arcs":[[-18,28,29,30,31,32,33]],"type":"Polygon","properties":{"name":"Lentekhi","shapeGroup":"GEO","gid":"GEO-2-9"},"id":"GEO-2-9"},{"arcs":[[-19,-34,34,35,36,-26,-24]],"type":"Polygon","properties":{"name":"Chkhorotsku","shapeGroup":"GEO","gid":"GEO-2-10"},"id":"GEO-2-10"},{"arcs":[[-27,-37,37,38,39]],"type":"Polygon","properties":{"name":"Khobi","shapeGroup":"GEO","gid":"GEO-2-11"},"id":"GEO-2-11"},{"arcs":[[-36,40,41,42,-38]],"type":"Polygon","properties":{"name":"Senaki","shapeGroup":"GEO","gid":"GEO-2-12"},"id":"GEO-2-12"},{"arcs":[[-33,43,44,45,-41,-35]],"type":"Polygon","properties":{"name":"Martvili","shapeGroup":"GEO","gid":"GEO-2-13"},"id":"GEO-2-13"},{"arcs":[[-32,46,47,48,-44]],"type":"Polygon","properties":{"name":"Tsageri","shapeGroup":"GEO","gid":"GEO-2-14"},"id":"GEO-2-14"},{"arcs":[[-45,-49,49,50,51]],"type":"Polygon","properties":{"name":"Khoni","shapeGroup":"GEO","gid":"GEO-2-15"},"id":"GEO-2-15"},{"arcs":[[-42,-46,-52,52,53]],"type":"Polygon","properties":{"name":"Abasha","shapeGroup":"GEO","gid":"GEO-2-16"},"id":"GEO-2-16"},{"arcs":[[-39,-43,-54,54,55,56,57]],"type":"Polygon","properties":{"name":"Lanchkhuti","shapeGroup":"GEO","gid":"GEO-2-17"},"id":"GEO-2-17"},{"arcs":[[-51,58,59,60,-55,-53]],"type":"Polygon","properties":{"name":"Samtredia","shapeGroup":"GEO","gid":"GEO-2-18"},"id":"GEO-2-18"},{"arcs":[[-48,61,62,63,64,65,-59,-50]],"type":"Polygon","properties":{"name":"Tsqaltubo","shapeGroup":"GEO","gid":"GEO-2-19"},"id":"GEO-2-19"},{"arcs":[[-31,66,67,68,69,-62,-47]],"type":"Polygon","properties":{"name":"Ambrolauri","shapeGroup":"GEO","gid":"GEO-2-20"},"id":"GEO-2-20"},{"arcs":[[-63,-70,70,71]],"type":"Polygon","properties":{"name":"Tkibuli","shapeGroup":"GEO","gid":"GEO-2-21"},"id":"GEO-2-21"},{"arcs":[[-57,72,73,74,75]],"type":"Polygon","properties":{"name":"Ozurgeti","shapeGroup":"GEO","gid":"GEO-2-22"},"id":"GEO-2-22"},{"arcs":[[-56,-61,76,77,78,79,-73]],"type":"Polygon","properties":{"name":"Chokhatauri","shapeGroup":"GEO","gid":"GEO-2-23"},"id":"GEO-2-23"},{"arcs":[[-60,-66,80,81,-77]],"type":"Polygon","properties":{"name":"Vani","shapeGroup":"GEO","gid":"GEO-2-24"},"id":"GEO-2-24"},{"arcs":[[-65,82,83,84,85,86,-81]],"type":"Polygon","properties":{"name":"Baghdati","shapeGroup":"GEO","gid":"GEO-2-25"},"id":"GEO-2-25"},{"arcs":[[-84,87,88,89]],"type":"Polygon","properties":{"name":"Zestaponi","shapeGroup":"GEO","gid":"GEO-2-26"},"id":"GEO-2-26"},{"arcs":[[-64,-72,90,-88,-83]],"type":"Polygon","properties":{"name":"Terjola","shapeGroup":"GEO","gid":"GEO-2-27"},"id":"GEO-2-27"},{"arcs":[[-75,91,92,93,94]],"type":"Polygon","properties":{"name":"Kobuleti","shapeGroup":"GEO","gid":"GEO-2-28"},"id":"GEO-2-28"},{"arcs":[[-94,95,96]],"type":"Polygon","properties":{"name":"Khelvachauri","shapeGroup":"GEO","gid":"GEO-2-29"},"id":"GEO-2-29"},{"arcs":[[-93,97,98,-96]],"type":"Polygon","properties":{"name":"Keda","shapeGroup":"GEO","gid":"GEO-2-30"},"id":"GEO-2-30"},{"arcs":[[-30,99,100,101,-67]],"type":"Polygon","properties":{"name":"Oni","shapeGroup":"GEO","gid":"GEO-2-31"},"id":"GEO-2-31"},{"arcs":[[-68,-102,102,103,104,105,106]],"type":"Polygon","properties":{"name":"Sachkhere","shapeGroup":"GEO","gid":"GEO-2-32"},"id":"GEO-2-32"},{"arcs":[[-69,-107,107,-89,-91,-71]],"type":"Polygon","properties":{"name":"Chiatura","shapeGroup":"GEO","gid":"GEO-2-33"},"id":"GEO-2-33"},{"arcs":[[-85,-90,-108,-106,108,109,110]],"type":"Polygon","properties":{"name":"Kharagauli","shapeGroup":"GEO","gid":"GEO-2-34"},"id":"GEO-2-34"},{"arcs":[[-78,-82,-87,111,112,113]],"type":"Polygon","properties":{"name":"Adigeni","shapeGroup":"GEO","gid":"GEO-2-35"},"id":"GEO-2-35"},{"arcs":[[-79,-114,114,115]],"type":"Polygon","properties":{"name":"Khulo","shapeGroup":"GEO","gid":"GEO-2-36"},"id":"GEO-2-36"},{"arcs":[[-74,-80,-116,116,-98,-92]],"type":"Polygon","properties":{"name":"Shuakhevi","shapeGroup":"GEO","gid":"GEO-2-37"},"id":"GEO-2-37"},{"arcs":[[-86,-111,117,118,119,-112]],"type":"Polygon","properties":{"name":"Akhaltsikhe","shapeGroup":"GEO","gid":"GEO-2-38"},"id":"GEO-2-38"},{"arcs":[[-119,120,121,122]],"type":"Polygon","properties":{"name":"Aspindza","shapeGroup":"GEO","gid":"GEO-2-39"},"id":"GEO-2-39"},{"arcs":[[-110,123,124,125,126,127,-121,-118]],"type":"Polygon","properties":{"name":"Borjomi","shapeGroup":"GEO","gid":"GEO-2-40"},"id":"GEO-2-40"},{"arcs":[[-105,128,-124,-109]],"type":"Polygon","properties":{"name":"Khashuri","shapeGroup":"GEO","gid":"GEO-2-41"},"id":"GEO-2-41"},{"arcs":[[-104,129,130,-125,-129]],"type":"Polygon","properties":{"name":"Kareli","shapeGroup":"GEO","gid":"GEO-2-42"},"id":"GEO-2-42"},{"arcs":[[-101,131,132,133,134,-130,-103]],"type":"Polygon","properties":{"name":"Java","shapeGroup":"GEO","gid":"GEO-2-43"},"id":"GEO-2-43"},{"arcs":[[-126,-131,-135,135,136,137]],"type":"Polygon","properties":{"name":"Gori","shapeGroup":"GEO","gid":"GEO-2-44"},"id":"GEO-2-44"},{"arcs":[[-122,-128,138,139,140]],"type":"Polygon","properties":{"name":"Akhalkalaki","shapeGroup":"GEO","gid":"GEO-2-45"},"id":"GEO-2-45"},{"arcs":[[-140,141,142,143]],"type":"Polygon","properties":{"name":"Ninotsminda","shapeGroup":"GEO","gid":"GEO-2-46"},"id":"GEO-2-46"},{"arcs":[[-143,144,145,146,147]],"type":"Polygon","properties":{"name":"Dmanisi","shapeGroup":"GEO","gid":"GEO-2-47"},"id":"GEO-2-47"},{"arcs":[[-127,-138,148,149,-145,-142,-139]],"type":"Polygon","properties":{"name":"Tsalka","shapeGroup":"GEO","gid":"GEO-2-48"},"id":"GEO-2-48"},{"arcs":[[-147,150,151,152]],"type":"Polygon","properties":{"name":"Bolnisi","shapeGroup":"GEO","gid":"GEO-2-49"},"id":"GEO-2-49"},{"arcs":[[-146,-150,153,154,155,156,-151]],"type":"Polygon","properties":{"name":"Tetri Sqaro","shapeGroup":"GEO","gid":"GEO-2-50"},"id":"GEO-2-50"},{"arcs":[[-137,157,158,159,-154,-149]],"type":"Polygon","properties":{"name":"Kaspi","shapeGroup":"GEO","gid":"GEO-2-51"},"id":"GEO-2-51"},{"arcs":[[-134,160,161,-158,-136]],"type":"Polygon","properties":{"name":"Akhalgori","shapeGroup":"GEO","gid":"GEO-2-52"},"id":"GEO-2-52"},{"arcs":[[-133,162,163,-161]],"type":"Polygon","properties":{"name":"Kazbegi","shapeGroup":"GEO","gid":"GEO-2-53"},"id":"GEO-2-53"},{"arcs":[[-159,-162,-164,164,165,166,167]],"type":"Polygon","properties":{"name":"Dusheti","shapeGroup":"GEO","gid":"GEO-2-54"},"id":"GEO-2-54"},{"arcs":[[-167,168,169,170]],"type":"Polygon","properties":{"name":"Tianeti","shapeGroup":"GEO","gid":"GEO-2-55"},"id":"GEO-2-55"},{"arcs":[[-155,-160,-168,-171,171,172,173,174]],"type":"Polygon","properties":{"name":"Mtskheta","shapeGroup":"GEO","gid":"GEO-2-56"},"id":"GEO-2-56"},{"arcs":[[-152,-157,175,176]],"type":"Polygon","properties":{"name":"Marneuli","shapeGroup":"GEO","gid":"GEO-2-57"},"id":"GEO-2-57"},{"arcs":[[-166,177,178,179,-169]],"type":"Polygon","properties":{"name":"Akhmeta","shapeGroup":"GEO","gid":"GEO-2-58"},"id":"GEO-2-58"},{"arcs":[[-179,180,181,182,183]],"type":"Polygon","properties":{"name":"Telavi","shapeGroup":"GEO","gid":"GEO-2-59"},"id":"GEO-2-59"},{"arcs":[[-174,184]],"type":"Polygon","properties":{"name":"Tbilisi","shapeGroup":"GEO","gid":"GEO-2-60"},"id":"GEO-2-60"},{"arcs":[[-156,-175,-185,-173,185,186,-176]],"type":"Polygon","properties":{"name":"Gardabani","shapeGroup":"GEO","gid":"GEO-2-61"},"id":"GEO-2-61"},{"arcs":[[-170,-180,-184,187,188,189,-186,-172]],"type":"Polygon","properties":{"name":"Sagarejo","shapeGroup":"GEO","gid":"GEO-2-62"},"id":"GEO-2-62"},{"arcs":[[-182,190,191,192]],"type":"Polygon","properties":{"name":"Qvareli","shapeGroup":"GEO","gid":"GEO-2-63"},"id":"GEO-2-63"},{"arcs":[[-183,-193,193,194,-188]],"type":"Polygon","properties":{"name":"Gurjaani","shapeGroup":"GEO","gid":"GEO-2-64"},"id":"GEO-2-64"},{"arcs":[[-192,195,196,-194]],"type":"Polygon","properties":{"name":"Lagodekhi","shapeGroup":"GEO","gid":"GEO-2-65"},"id":"GEO-2-65"},{"arcs":[[-189,-195,-197,197,198,199]],"type":"Polygon","properties":{"name":"Sighnaghi","shapeGroup":"GEO","gid":"GEO-2-66"},"id":"GEO-2-66"},{"arcs":[[-199,200]],"type":"Polygon","properties":{"name":"Dedoplis Tskaro","shapeGroup":"GEO","gid":"GEO-2-67"},"id":"GEO-2-67"}]}}}