{"type":"Topology","arcs":[[[9090,1697],[-47,5],[-68,63],[-64,7],[-115,-56],[-67,-118],[70,-134]],[[8799,1464],[-42,-27],[-106,20],[-26,93],[-53,46],[-74,19],[-78,-49],[-59,-24],[-25,-48],[14,-44],[-45,-41],[-54,32],[-78,-1]],[[8173,1440],[19,73],[37,60],[11,110],[-23,178],[15,96],[-34,4],[-2,60],[-42,79],[-12,51]],[[8142,2151],[27,3],[128,96],[62,92],[101,38],[26,26],[-31,73],[-6,73],[24,96],[61,67],[1,45],[52,116],[2,103],[-17,114],[24,53]],[[8596,3146],[16,-56],[36,-27],[124,97],[1,44],[60,-17],[62,48],[53,19],[153,8],[120,-4]],[[9221,3258],[-3,-71],[67,-116],[51,-62],[123,-8],[113,54],[34,-4],[-12,-78],[-29,-46],[-4,-84],[-46,-87],[8,-41],[51,-40],[56,-6],[69,-65],[-71,-48],[-32,-41],[-71,-50],[2,-51],[-50,-133],[-11,-65],[21,-48],[61,-29],[74,15],[29,-15],[68,2],[61,-136],[52,-168],[35,-53],[-25,-70],[19,-63],[33,-43],[-72,-8],[-75,10],[-49,116],[-62,24],[5,-62],[-28,-21],[-92,37],[8,53],[-30,20],[-63,-23],[-106,31],[-51,-20],[-71,-8],[-53,23],[-65,-83]],[[1541,5005],[-14,-48],[-55,-86],[-10,-60],[30,-14],[51,-61],[50,27],[26,74],[45,-13],[61,31],[24,-31],[64,-5],[84,-79]],[[1897,4740],[25,-95],[-77,-102],[-62,-12],[-33,-80],[-40,-33],[7,-53],[-58,-25],[-13,-87],[82,-16],[15,-29]],[[1743,4208],[-55,-77],[-34,-77],[-47,-19],[-48,-60],[85,-105],[52,-36],[147,-65],[12,-27]],[[1855,3742],[-45,-86],[-93,-39],[-52,-1],[-68,82],[-136,90],[-70,33],[-46,45],[49,119],[-23,51],[-42,-18],[-10,-48],[11,-54],[-78,-25],[-50,31],[-18,39],[-66,23],[-20,36],[-85,77],[-83,48],[-105,-29],[-17,60],[20,62],[-10,52],[-29,10],[-66,61],[-23,37],[-3,69],[14,43]],[[711,4510],[63,58],[40,70],[56,-20],[51,-38],[44,-52],[57,24],[59,-6],[111,96],[40,75],[34,27],[33,59],[92,105],[31,54],[33,5],[38,44],[48,-6]],[[241,4942],[-27,-1],[-26,65],[30,34],[39,-24],[-16,-74]],[[207,5051],[-74,-97],[40,-26],[-6,-45],[-82,7],[-85,92],[1,61],[95,80],[69,36],[66,-65],[-24,-43]],[[236,5195],[-22,-63],[-60,34],[43,89],[39,-60]],[[711,4510],[-62,-41],[-81,8],[-23,52],[69,116],[-14,31],[14,81],[56,79],[38,101],[-36,-11],[-74,-131],[-11,-34],[-92,-67],[-22,88],[23,76],[-41,-10],[-10,-36],[-41,5],[-16,36],[25,35],[19,82],[-74,-13],[7,35],[-17,99],[58,47],[43,3],[62,57],[-4,47],[-71,-93],[-59,5],[-37,22],[-48,-37],[-29,10],[-13,59],[-47,56],[112,199],[82,211],[105,148],[40,41],[62,14],[143,-13],[257,149],[77,89],[79,8],[36,-21],[49,3],[79,-46],[24,20]],[[1348,6069],[37,-49],[-21,-49],[24,-51],[78,-20],[65,-62],[-31,-98],[41,-22],[77,-67],[26,-52]],[[1644,5599],[19,-36],[47,-25],[71,-137],[-31,-80],[-47,-18],[-27,-60],[61,-74],[-5,-61],[-47,-36],[-144,-67]],[[2037,3471],[96,-10]],[[2133,3461],[-32,-51],[46,-57],[-2,-40],[-49,-68],[12,-48]],[[2108,3197],[-18,-34]],[[2090,3163],[-61,-20],[-67,85],[-91,-6],[16,56],[36,48],[12,123],[51,40],[51,-18]],[[2133,3461],[115,40],[-70,103],[-1,38],[41,15],[17,49],[44,35],[142,35]],[[2421,3776],[73,-113],[-15,-46],[26,-107],[-6,-71],[91,-108],[22,-70]],[[2612,3261],[-62,-22],[-32,13],[-53,-14],[-24,22],[-39,-38],[-21,63],[-73,28],[-53,-37],[-7,-45],[-114,-10],[-26,-24]],[[6134,4559],[-106,67],[-120,9],[-58,-28],[-39,-77],[-56,-19],[-32,-63],[-43,29],[-104,32],[-43,43],[-44,9],[-105,-39],[-50,1],[-69,39],[-76,-54],[-67,-26],[-89,-110],[-123,-8]],[[4910,4364],[-15,80],[-58,8],[-61,38],[-53,9],[28,158],[38,41],[40,118],[0,97],[15,44],[-118,108],[23,51],[73,69],[97,-34],[136,28],[164,90]],[[5219,5269],[12,-30],[-18,-115],[6,-36],[41,-4],[44,32],[68,19],[30,50],[37,-5],[27,42],[89,24],[127,121],[82,-5],[33,14]],[[5797,5376],[4,-102],[-97,-81],[-10,-60],[-23,-35],[-102,-49],[-22,-25],[136,-81],[79,-23],[51,-30],[53,-58],[209,34],[22,-81],[45,-81],[19,-116],[-27,-29]],[[4080,5591],[67,-99],[63,-19],[47,-36],[0,-45],[-22,-62],[17,-65],[25,-37],[78,-36],[82,-16]],[[4437,5176],[2,-85],[-36,-70],[-66,-38],[-62,-8],[-58,45],[-114,-11],[-53,-82],[-57,25],[-49,-54],[-107,-14],[-29,-168],[-90,-70],[-27,-131],[-46,-22],[-44,11],[-37,-20]],[[3564,4484],[-69,34],[-20,59],[-53,22],[13,83]],[[3435,4682],[52,36],[15,74],[59,127],[46,-10],[-2,46],[24,66],[-60,81],[53,12],[69,90],[11,80],[52,-45],[84,111],[-21,65]],[[3817,5415],[63,41],[37,111],[18,19],[93,15],[52,-10]],[[5219,5269],[24,27],[-94,35],[-62,64],[-33,-9],[-36,51],[-40,122]],[[4978,5559],[-1,56],[92,127],[104,31],[89,75],[-18,71],[-79,9],[-17,66],[57,25],[29,34],[-28,35],[31,44],[55,7],[40,80],[-9,144],[32,46],[-64,42],[-36,-3],[-42,33],[9,69],[-18,55]],[[5204,6605],[38,37],[5,49],[82,55],[37,117],[39,-21],[110,24],[56,-29],[19,-56],[42,-41],[76,-36],[-10,-92],[52,-60],[6,-68],[22,-34],[84,-34],[42,26],[26,76],[58,24],[8,56],[51,6],[40,123],[62,-7],[56,33],[0,36],[57,2],[82,69],[14,-36],[60,31],[21,-23],[57,3],[62,-38],[83,6]],[[6641,6803],[-35,-34],[-71,-33],[-60,-43],[-13,-28],[40,-64],[20,-101],[22,-32],[-45,-34],[14,-52],[-39,-37],[1,-34],[-47,-58],[36,-32],[-12,-65],[-39,-31],[-10,-127],[58,-65],[66,-9],[55,-46],[100,-13],[61,-39],[7,-76]],[[6750,5750],[-35,1],[-139,-53],[-27,30],[-46,-9],[-17,28],[-61,28],[-24,-41],[-104,-37],[-47,-62],[-117,-27],[-11,-24],[44,-41],[-92,-80],[-103,-18],[-48,10],[-49,-11],[-3,-39],[-51,0],[-23,-29]],[[1743,4208],[64,-12],[64,26],[63,-51],[55,8],[44,109],[38,28],[30,61],[-27,34],[46,70],[88,17],[30,35]],[[2238,4533],[36,-7],[71,-70],[51,-22],[15,-31],[126,-33]],[[2537,4370],[36,-192],[-10,-56],[-44,-55],[-9,-38],[24,-42],[-157,-108],[44,-103]],[[2037,3471],[-13,40],[-52,-5],[-67,14],[-57,-49],[-55,8],[-39,46],[27,73],[74,94],[0,50]],[[6134,4559],[71,-33],[17,48],[92,-25],[126,-12],[15,-42],[41,-38],[56,46],[46,-19],[-47,-40],[11,-69],[-15,-64],[-30,-37],[-56,14],[-20,-112],[46,-68],[-35,-65],[-134,-109],[2,-49],[-45,-56],[45,-146],[-55,-42],[-8,-64],[11,-47],[-51,-35],[-12,-32],[14,-109],[-33,-81],[13,-46]],[[6199,3227],[16,-63],[43,-46],[-10,-45],[22,-108],[-38,-130],[-38,-23],[6,-40],[-34,-58],[21,-41],[-35,-64]],[[6152,2609],[-17,-39],[-44,-14],[-133,-17]],[[5958,2539],[-80,32],[-93,-3],[9,142],[79,36],[-15,56],[8,80],[-51,29],[-31,68],[-114,16],[19,31],[-55,39],[-7,66],[24,40],[-57,23],[19,28],[-69,60],[-14,66],[-62,32],[-21,71],[-73,99],[-78,69],[-60,29],[-23,29],[-20,116],[-42,34],[-361,-1]],[[4790,3826],[10,76],[43,38],[37,82],[30,92],[-6,40],[21,63],[-15,147]],[[2612,3261],[52,4],[133,98],[91,53],[85,30],[136,16],[82,-25],[95,-103],[31,-11]],[[3317,3323],[-9,-44],[-39,2],[-48,-85],[9,-41],[-37,-62],[-10,-45],[-51,-48],[-45,-10],[10,-53],[-35,-9],[-23,-62],[-62,-17],[-47,16],[-33,-35],[-46,21],[-35,-66],[10,-66],[-64,-126],[-65,-21],[-48,-46],[-48,12],[-37,39],[-38,6],[-36,-24],[-54,3],[-80,-51],[-21,44],[99,102],[-81,17],[-21,31],[21,83],[-19,27],[-6,80],[-35,-13],[-3,-46],[-53,-4],[-47,108],[11,80],[-75,1],[-41,47],[-14,43],[19,52]],[[1897,4740],[70,59],[110,108],[64,13],[39,-37],[-6,-122],[67,20],[57,-52],[-66,-87],[21,-48],[-15,-61]],[[1348,6069],[38,19],[52,-15],[67,16],[36,29],[66,-11],[52,100],[14,-50],[83,-28],[59,33],[-10,72],[11,40],[-11,134],[10,113],[15,48],[-139,60],[-15,47],[-62,22],[-26,44],[-67,14],[-31,52],[58,75],[76,8],[5,55],[68,17],[56,-23],[37,-38],[28,9]],[[1818,6911],[42,5],[51,-35],[64,35],[28,46],[146,-8],[70,21],[40,-98],[49,-23],[-21,-82],[32,-37],[-33,-23],[59,-70],[24,46],[47,-18],[-23,-88],[6,-23],[113,10],[21,31],[67,-8],[59,26],[27,55],[113,-12],[60,33],[48,10],[57,66],[32,-12]],[[2996,6758],[26,-63],[-30,-57],[10,-73],[62,-34],[-46,-55],[54,-56],[8,-58]],[[3080,6362],[-52,-29],[6,-80],[22,-28],[-10,-43],[-40,-23],[49,-38],[42,-70],[57,-5],[5,-78],[-72,-56],[-8,-43],[-44,-38],[-98,-37],[-44,-52],[-56,-37],[-51,-58],[37,-53],[-46,-36],[21,-70],[-28,-35]],[[2770,5453],[-91,-4],[-208,-74],[-51,68],[-6,64],[-25,82],[21,56],[-22,25],[-86,-15],[-90,-56],[-45,13],[27,71],[-18,27],[-49,-5],[-129,8],[-78,-64],[-67,-8],[-71,10],[-105,-57],[-33,5]],[[6152,2609],[23,-89],[-42,-49],[1,-38],[113,21],[52,24],[22,73],[55,-39],[10,-108],[78,-16],[66,-83],[61,58],[21,-64],[44,-16],[62,35],[37,5],[15,-112],[50,-12],[97,54],[33,-18]],[[6950,2235],[-41,-73],[-53,-71],[-20,-112],[71,-55],[5,-63],[-16,-85]],[[6896,1776],[-53,-12],[-85,-71],[-91,-22],[19,96],[-46,33],[-51,11],[-215,-56],[-59,25],[-73,-14],[-79,-122],[-88,-92],[-55,-39],[-58,34],[-103,11],[-34,-64],[-22,15],[27,75],[57,39],[5,120],[25,20],[11,70],[55,45],[-2,23],[79,26],[55,37],[17,51],[-72,86],[-17,47],[-68,44],[-15,211],[18,115],[-20,21]],[[8596,3146],[11,15],[-74,152],[-59,55],[-5,33],[-71,85],[-70,66],[-51,29],[-115,-3],[-115,96],[-90,52],[-180,-72],[-2,-81],[26,-64],[33,-37],[30,34],[44,-25],[0,-69],[20,-27],[-54,-89],[28,-74],[31,-38],[27,-69],[-75,-41],[-60,-18],[-91,8],[-137,-27],[-66,-38],[-93,-10],[-81,32],[-99,-15]],[[7258,3006],[-38,80],[-112,51],[-102,31],[-41,25],[-57,76],[19,28],[-75,58]],[[6852,3355],[-2,25],[125,30],[22,54],[27,14],[38,85],[72,72],[-73,111],[54,30],[65,78],[-35,64],[48,43],[-102,51],[3,52],[69,39],[-22,130],[14,158],[39,86],[54,171],[48,72],[29,15],[145,22],[56,41],[37,168],[25,33]],[[7588,4999],[47,8],[34,88],[36,130],[34,37],[48,18]],[[7787,5280],[45,-40],[14,-81],[43,-6],[43,-48],[5,-50],[72,-263],[19,-34],[121,-61],[25,-4],[39,-64],[9,-98],[-29,-25],[8,-77],[32,-3],[16,-66],[35,-69],[59,-86],[98,-86],[123,-9],[32,-58],[39,14],[40,-37],[54,-13],[77,-50],[118,0],[88,-45],[30,-37],[124,-21],[26,-31],[43,-6]],[[9235,3826],[25,-57],[-64,-43],[55,-35],[31,-93],[-23,-40],[7,-53],[-22,-32],[-9,-70],[12,-48],[-26,-97]],[[8142,2151],[-69,26],[-73,7],[-148,-47],[-105,28],[-88,90],[-108,63],[-106,-26],[-110,-14],[-65,10]],[[7270,2288],[-55,84],[28,21],[7,56],[-40,40],[-52,12],[-28,59],[57,24],[7,44],[-64,16],[-8,56],[-29,30],[9,38],[120,37],[-3,60],[72,81],[-33,60]],[[2537,4370],[93,53],[73,-39],[48,48],[74,159]],[[2825,4591],[11,-56],[32,-7],[55,46],[36,-22],[51,4],[48,-23],[46,-49],[39,13],[88,86],[43,4],[60,37],[73,64],[28,-6]],[[3564,4484],[-37,-133],[-20,-23],[4,-61],[28,-66],[75,-12],[39,29],[136,-21],[4,-62],[43,-59],[12,-43],[39,-35],[42,-119],[-18,-42],[-45,-44],[32,-134]],[[3898,3659],[-105,64],[-82,-21],[-190,-37],[-78,-76],[-61,-145],[-40,-24],[-25,-97]],[[6199,3227],[66,-20],[116,-1],[53,35],[34,60],[49,52],[25,62],[71,-38],[18,-64],[37,-20],[82,67],[39,13],[63,-18]],[[7270,2288],[-55,20],[-114,-12],[-29,17],[-55,-63],[-67,-15]],[[5021,6584],[-47,-49],[-30,-61],[-72,-41],[-40,-1],[-42,-63],[-51,-35],[-41,-63],[-43,31],[-32,-43],[-24,-71],[-51,-46],[-17,-61],[-50,-13],[-50,-48],[-56,-17],[-38,-51],[-45,-24],[-52,-107],[-76,-59],[-21,-29],[-30,-101]],[[4113,5632],[-73,50],[-5,58],[-32,62],[-80,52],[-122,20],[3,100],[-21,118]],[[3783,6092],[128,19],[103,183],[122,87],[42,6],[101,-12],[83,96],[114,79],[49,95],[51,55],[196,156]],[[4772,6856],[-4,-51],[40,-62],[124,-47],[12,-53],[77,-59]],[[1818,6911],[18,50],[36,24],[19,71],[-18,45],[52,89],[-36,71],[-23,5],[-47,114],[4,105],[172,-2],[303,-21],[36,-24],[48,15],[121,-22],[84,8],[103,-32],[7,-51],[-34,-71],[7,-53],[27,-24],[63,1],[47,-17],[37,35],[24,68],[47,5],[55,-35],[16,-39],[70,-14],[58,-64],[86,5],[68,-10],[78,-80]],[[3346,7063],[-2,-18],[-173,-91],[-75,-46],[-100,-150]],[[6750,5750],[131,-93],[40,-41],[4,-101],[52,-47],[25,-194],[15,-62],[80,-104],[132,-47],[359,-62]],[[3817,5415],[-37,-25],[-37,57],[-37,11],[-100,-27],[-36,10],[-40,-68],[-73,33],[-30,105],[7,73],[-111,71],[-36,-14]],[[3287,5641],[6,29],[85,94],[95,73],[13,95],[121,76],[18,24],[-31,74],[20,19]],[[3614,6125],[51,19],[118,-52]],[[4113,5632],[-33,-41]],[[3080,6362],[33,13],[61,82],[43,6],[27,-94],[93,-107],[56,-48],[105,-21],[13,-55],[103,-13]],[[3287,5641],[-39,2],[-25,-65],[-96,-62],[-36,-54],[-12,-64],[-33,-53]],[[3046,5345],[-93,46],[-89,-63],[-36,10],[-11,68],[-47,47]],[[9090,1697],[26,-112],[-16,-45],[7,-74],[18,-54],[70,-51],[53,0],[77,-48],[34,56],[46,-53],[-3,-95],[40,-20],[46,-51],[-3,-48],[-69,44],[-54,-9],[-55,-159],[-44,-65],[1,-33],[57,-50],[-30,-118],[-61,-39],[-5,-52],[-37,-48],[-1,-53],[-56,-65],[-57,46],[-42,13],[-18,33],[-58,-30],[-45,0],[-6,38],[-44,2],[-73,-74],[-123,98],[14,32],[-15,59]],[[8664,672],[3,114],[-55,25],[2,50],[50,91],[-21,48],[54,156],[-54,59],[19,32],[-15,58],[22,42],[38,20],[116,16],[2,56],[-26,25]],[[8173,1440],[-26,-18],[-43,-87],[18,-29],[-47,-88],[-74,-38],[-9,-27],[-129,-150],[-60,-90]],[[7803,913],[-125,-96],[-25,-76],[-32,19]],[[7621,760],[-13,54],[-41,18],[-44,72],[-12,117],[27,34],[-25,73],[-36,29],[18,33],[-20,47],[-5,82],[-69,14],[-2,91],[36,30],[-35,89],[35,20],[3,50],[-61,3],[-54,66],[-43,-34],[-66,19],[41,42],[-61,58],[-45,-17],[-54,18],[13,35],[-50,44],[-42,-68],[-120,-3]],[[3346,7063],[76,41],[43,2],[93,-41],[58,-79],[22,-5],[145,65],[101,18],[83,73],[62,2],[44,-36],[77,14],[36,25],[50,3],[45,-35],[132,-19],[65,7],[65,41],[84,5],[92,22],[95,-2],[107,-38],[-1,-41],[-61,3],[-21,-38],[11,-83],[-26,-61],[-51,-50]],[[4790,3826],[-543,-3],[-27,-84],[-284,-88],[-38,8]],[[4437,5176],[125,129],[72,4],[45,35],[74,103],[78,44],[82,20],[-10,51],[75,-3]],[[7787,5280],[4,21],[103,83],[52,57],[38,98],[42,40],[96,147],[-21,40],[120,46],[90,81],[39,16],[30,43],[23,73]],[[8403,6025],[37,30],[65,1],[-7,-59],[23,-31],[25,-90],[56,-64],[41,-12],[61,47],[45,-108],[60,-24],[80,1],[-34,-64],[77,-25],[-17,-52],[-60,-12],[-60,26],[-43,-36],[17,-56],[-106,-24],[3,-68],[-28,-41],[-50,-7],[-3,-51],[-34,-66],[-38,-31],[-2,-61],[26,-24],[43,21],[51,-20],[73,36],[27,-6],[16,82],[28,45],[48,12],[54,-15],[31,18],[78,-38],[49,-72],[15,-194],[-33,-32],[-39,-81],[45,-27],[-15,-47],[14,-38],[-7,-72],[32,-66],[0,-78],[44,-89],[17,-67],[90,-21],[31,27],[66,-86],[112,-21],[51,-40],[27,-85],[-5,-57],[-34,-41],[-51,-113],[-38,-32],[-82,-36],[-40,-65]],[[8664,672],[-125,5],[-63,-77],[4,-30],[-25,-90],[21,-52],[-67,-82],[-30,-57],[-34,-12]],[[8345,277],[-9,48],[23,53],[-65,74],[-140,185],[-3,87],[-15,51],[-70,24],[-60,2],[15,65],[-46,56],[-35,8],[-137,-17]],[[2825,4591],[-25,24],[44,110],[-16,42],[29,56],[-32,39],[-15,85],[28,159],[50,38],[24,45],[83,28],[23,81],[28,47]],[[6641,6803],[26,-52],[87,-15],[41,-41],[75,0],[42,-56],[97,-1],[53,-34],[93,-11],[32,75],[-6,52],[67,77],[118,27],[83,73],[90,18],[61,-20],[62,44],[14,63],[-5,64],[-29,10],[-29,55],[-65,60],[57,47],[56,7],[47,-26],[41,29],[56,-19],[66,-4],[101,-64],[53,-15],[103,-109],[15,-38],[-39,-55],[-8,-81],[19,-39],[85,-10],[25,-53],[-26,-71],[3,-73],[59,-21],[17,22],[67,-50],[-14,-45],[28,-66],[-36,-212],[-43,-192],[83,-9],[40,-19]],[[5021,6584],[62,-34],[121,55]],[[8345,277],[-54,-77],[17,-87],[-40,-35],[-53,4],[-16,37],[-58,-46],[-77,-15],[-66,-58],[-37,34],[-35,69],[-44,-4],[-49,41],[-49,118],[-63,-14],[-28,59],[-72,9],[-41,-49],[-33,36],[-87,-47],[19,66],[50,52],[26,78],[60,133],[-24,27],[4,66],[23,33],[3,53]]],"transform":{"scale":[0.0007517174204568422,0.0007314966855043393],"translate":[-15.07856369099994,7.200960082000051]},"objects":{"GIN":{"type":"GeometryCollection","geometries":[{"arcs":[[0,1,2,3,4,5]],"type":"Polygon","properties":{"name":"Beyla","shapeGroup":"GIN","gid":"GIN-2-0"},"id":"GIN-2-0"},{"arcs":[[6,7,8,9,10]],"type":"Polygon","properties":{"name":"Boffa","shapeGroup":"GIN","gid":"GIN-2-1"},"id":"GIN-2-1"},{"arcs":[[[11]],[[12]],[[13]],[[-11,14,15,16]]],"type":"MultiPolygon","properties":{"name":"Boke","shapeGroup":"GIN","gid":"GIN-2-2"},"id":"GIN-2-2"},{"arcs":[[17,18,19,20]],"type":"Polygon","properties":{"name":"Conakry","shapeGroup":"GIN","gid":"GIN-2-3"},"id":"GIN-2-3"},{"arcs":[[-19,21,22,23]],"type":"Polygon","properties":{"name":"Coyah","shapeGroup":"GIN","gid":"GIN-2-4"},"id":"GIN-2-4"},{"arcs":[[24,25,26,27]],"type":"Polygon","properties":{"name":"Dabola","shapeGroup":"GIN","gid":"GIN-2-5"},"id":"GIN-2-5"},{"arcs":[[28,29,30,31,32]],"type":"Polygon","properties":{"name":"Dalaba","shapeGroup":"GIN","gid":"GIN-2-6"},"id":"GIN-2-6"},{"arcs":[[-27,33,34,35,36,37]],"type":"Polygon","properties":{"name":"Dinguiraye","shapeGroup":"GIN","gid":"GIN-2-7"},"id":"GIN-2-7"},{"arcs":[[-9,38,39,40,-22,-18,41]],"type":"Polygon","properties":{"name":"Dubreka","shapeGroup":"GIN","gid":"GIN-2-8"},"id":"GIN-2-8"},{"arcs":[[-25,42,43,44,45,46]],"type":"Polygon","properties":{"name":"Faranah","shapeGroup":"GIN","gid":"GIN-2-9"},"id":"GIN-2-9"},{"arcs":[[-20,-24,47,48]],"type":"Polygon","properties":{"name":"Forecariah","shapeGroup":"GIN","gid":"GIN-2-10"},"id":"GIN-2-10"},{"arcs":[[-8,49,-39]],"type":"Polygon","properties":{"name":"Fria","shapeGroup":"GIN","gid":"GIN-2-11"},"id":"GIN-2-11"},{"arcs":[[-16,50,51,52,53,54]],"type":"Polygon","properties":{"name":"Gaoual","shapeGroup":"GIN","gid":"GIN-2-12"},"id":"GIN-2-12"},{"arcs":[[-45,55,56,57]],"type":"Polygon","properties":{"name":"Gueckedou","shapeGroup":"GIN","gid":"GIN-2-13"},"id":"GIN-2-13"},{"arcs":[[-5,58,59,60,61,62,63]],"type":"Polygon","properties":{"name":"Kankan","shapeGroup":"GIN","gid":"GIN-2-14"},"id":"GIN-2-14"},{"arcs":[[-4,64,65,-59]],"type":"Polygon","properties":{"name":"Kerouane","shapeGroup":"GIN","gid":"GIN-2-15"},"id":"GIN-2-15"},{"arcs":[[-23,-41,66,67,-31,68,69,-48]],"type":"Polygon","properties":{"name":"Kindia","shapeGroup":"GIN","gid":"GIN-2-16"},"id":"GIN-2-16"},{"arcs":[[-44,70,-60,-66,71,-56]],"type":"Polygon","properties":{"name":"Kissidougou","shapeGroup":"GIN","gid":"GIN-2-17"},"id":"GIN-2-17"},{"arcs":[[72,73,74,75]],"type":"Polygon","properties":{"name":"Koubia","shapeGroup":"GIN","gid":"GIN-2-18"},"id":"GIN-2-18"},{"arcs":[[-52,76,77]],"type":"Polygon","properties":{"name":"Koundara","shapeGroup":"GIN","gid":"GIN-2-19"},"id":"GIN-2-19"},{"arcs":[[-28,-38,78,-61,-71,-43]],"type":"Polygon","properties":{"name":"Kouroussa","shapeGroup":"GIN","gid":"GIN-2-20"},"id":"GIN-2-20"},{"arcs":[[-33,79,80,81,-74,82]],"type":"Polygon","properties":{"name":"Labe","shapeGroup":"GIN","gid":"GIN-2-21"},"id":"GIN-2-21"},{"arcs":[[-54,83,-81,84,85]],"type":"Polygon","properties":{"name":"Lelouma","shapeGroup":"GIN","gid":"GIN-2-22"},"id":"GIN-2-22"},{"arcs":[[-1,86,87]],"type":"Polygon","properties":{"name":"Lola","shapeGroup":"GIN","gid":"GIN-2-23"},"id":"GIN-2-23"},{"arcs":[[-3,88,89,90,-57,-72,-65]],"type":"Polygon","properties":{"name":"Macenta","shapeGroup":"GIN","gid":"GIN-2-24"},"id":"GIN-2-24"},{"arcs":[[-53,-78,91,-75,-82,-84]],"type":"Polygon","properties":{"name":"Mali","shapeGroup":"GIN","gid":"GIN-2-25"},"id":"GIN-2-25"},{"arcs":[[-26,-47,92,-69,-30,93,-34]],"type":"Polygon","properties":{"name":"Mamou","shapeGroup":"GIN","gid":"GIN-2-26"},"id":"GIN-2-26"},{"arcs":[[-63,94,95]],"type":"Polygon","properties":{"name":"Mandiana","shapeGroup":"GIN","gid":"GIN-2-27"},"id":"GIN-2-27"},{"arcs":[[-2,-88,96,97,-89]],"type":"Polygon","properties":{"name":"Nzerekore","shapeGroup":"GIN","gid":"GIN-2-28"},"id":"GIN-2-28"},{"arcs":[[-32,-68,98,-85,-80]],"type":"Polygon","properties":{"name":"Pita","shapeGroup":"GIN","gid":"GIN-2-29"},"id":"GIN-2-29"},{"arcs":[[-37,99,-95,-62,-79]],"type":"Polygon","properties":{"name":"Siguiri","shapeGroup":"GIN","gid":"GIN-2-30"},"id":"GIN-2-30"},{"arcs":[[-7,-17,-55,-86,-99,-67,-40,-50]],"type":"Polygon","properties":{"name":"Telimele","shapeGroup":"GIN","gid":"GIN-2-31"},"id":"GIN-2-31"},{"arcs":[[-29,-83,-73,100,-35,-94]],"type":"Polygon","properties":{"name":"Tougue","shapeGroup":"GIN","gid":"GIN-2-32"},"id":"GIN-2-32"},{"arcs":[[-90,-98,101]],"type":"Polygon","properties":{"name":"Yomou","shapeGroup":"GIN","gid":"GIN-2-33"},"id":"GIN-2-33"}]}}}