{"type":"Topology","arcs":[[[359,1024],[-117,-10]],[[242,1014],[-27,6]],[[215,1020],[61,48],[83,-44]],[[471,994],[-18,-15]],[[453,979],[-14,33]],[[439,1012],[32,-18]],[[453,979],[-4,-9]],[[449,970],[-10,42]],[[471,994],[-22,-24]],[[5111,639],[73,-13],[34,-51],[66,-32]],[[5284,543],[-27,-75],[-1,-51],[-101,-40],[-82,2],[-51,33]],[[5022,412],[9,136],[-116,113]],[[4915,661],[18,17],[35,86],[52,-33],[19,-46],[36,-6],[36,-40]],[[1843,1349],[69,-195],[40,-149]],[[1952,1005],[-58,19],[-116,-50],[-54,10],[-112,-10]],[[1612,974],[-26,58],[6,97],[20,120],[3,100]],[[1615,1349],[228,0]],[[1234,494],[66,-13],[19,-88],[36,-11],[16,-70],[-16,-74]],[[1355,238],[-327,0]],[[1028,238],[22,96],[-16,49],[-80,69],[-27,-23],[-44,68]],[[883,497],[57,73],[44,-7],[114,69],[61,23]],[[1159,655],[38,-62],[-15,-86],[52,-13]],[[1790,479],[25,-80],[72,-65],[1,-95]],[[1888,239],[-264,1]],[[1624,240],[-33,45],[4,159],[54,70],[-9,70]],[[1640,584],[66,-71],[46,15],[38,-49]],[[1028,238],[-272,3]],[[756,241],[11,66],[63,142],[42,56]],[[872,505],[11,-8]],[[1790,479],[40,30],[57,-39],[84,11],[10,-46]],[[1981,435],[2,-196],[-95,0]],[[1234,494],[78,79],[93,-117],[24,78],[103,-9],[38,54],[70,5]],[[1624,240],[-269,-2]],[[1843,1349],[201,1],[371,-6]],[[2415,1344],[-1,-59],[36,-117]],[[2450,1168],[-64,-68],[-25,-65],[-52,58],[-75,23],[-64,-33],[-59,-61],[-119,-31],[-40,14]],[[4118,1192],[-88,-24]],[[4030,1168],[-40,10],[-47,53],[-8,23]],[[3935,1254],[18,-26],[10,-4],[51,1],[46,-27],[58,-6]],[[2876,939],[1,-233]],[[2877,706],[-106,18],[-165,100]],[[2606,824],[-1,174],[69,1],[1,94]],[[2675,1093],[36,-60],[85,-71],[80,-23]],[[2876,939],[61,32],[23,34],[2,115]],[[2962,1120],[21,37],[79,14],[28,59],[43,-31],[39,60],[52,-32]],[[3224,1227],[-82,-50],[6,-141],[-6,-64],[-37,-110],[-36,-53],[-65,-54],[-127,-49]],[[2606,824],[-64,12],[-100,-96]],[[2442,740],[-66,84],[0,155]],[[2376,979],[34,55],[24,109],[80,-10],[67,-58],[94,18]],[[359,1024],[-55,-85]],[[304,939],[-37,-4]],[[267,935],[1,30]],[[268,965],[-26,49]],[[5022,412],[-28,23],[-78,-20],[-78,1],[-99,21],[-50,42],[-80,93],[-73,4],[-90,68],[38,106],[-2,57]],[[4482,807],[58,2],[-13,70],[2,6]],[[4529,885],[30,-17],[12,-52],[13,-6],[44,60],[50,-33],[6,-41],[11,-13],[28,-14],[37,5],[24,-92],[28,-25],[23,-8],[80,12]],[[1185,888],[-53,22],[-8,36],[16,95],[24,53],[-14,50],[-81,46],[-61,3]],[[1008,1193],[3,102],[-24,55]],[[987,1350],[364,0],[61,-10],[-21,-93],[26,-98],[-28,-43],[-51,2],[-1,-80],[-30,-40],[-69,-39],[-53,-61]],[[5627,636],[2,26],[-76,108],[-24,79],[-78,-33]],[[5451,816],[71,62],[4,15],[-12,86],[48,38],[51,27],[34,-53],[12,-51],[13,-39],[28,-30],[17,-6],[22,2],[6,16],[5,65],[16,10],[7,14],[0,21],[-34,55],[0,57],[63,33],[40,-19],[22,-52],[-4,-93],[62,-10],[-6,-157],[-62,-115],[-46,-39],[-81,-22],[-100,5]],[[2207,756],[-99,-38],[-129,-19]],[[1979,699],[-46,-3],[5,257]],[[1938,953],[131,12],[117,35],[21,28]],[[2207,1028],[0,-272]],[[2442,740],[-48,-25],[-112,-5],[-75,46]],[[2207,1028],[39,47],[74,-91],[56,-5]],[[1159,655],[-4,33],[30,83],[71,78],[49,88],[41,-31],[105,-37],[90,35],[125,3],[152,22],[44,48],[76,-24]],[[1979,699],[2,-264]],[[447,675],[-4,-49],[-62,-111],[28,-47],[2,-226]],[[411,242],[-144,3]],[[267,245],[-5,143],[-53,-7],[-49,44],[-5,45],[151,130],[-7,49]],[[299,649],[56,-11],[56,36],[36,1]],[[756,241],[-345,1]],[[447,675],[10,0]],[[457,675],[44,-89],[55,-24],[91,-10],[66,-40],[66,4],[63,23],[30,-34]],[[299,649],[-54,-14],[-69,24],[-31,30],[-52,-17],[-16,68],[-47,5]],[[30,745],[6,48],[53,28],[57,74],[26,66]],[[172,961],[63,-47]],[[235,914],[15,-23]],[[250,891],[49,-84],[48,51]],[[347,858],[43,-63],[54,16],[28,-74],[-15,-62]],[[267,245],[-61,-53],[16,-33],[-51,-50],[-15,-109],[-78,10],[11,88],[-13,77],[-29,53],[10,149],[-17,122],[-30,26],[6,112],[-16,67],[30,41]],[[1612,974],[-182,-19],[-91,38],[7,113],[38,-10],[21,20],[21,53],[-25,47],[24,59],[3,74],[187,0]],[[4030,1168],[-13,-38],[-52,0],[-49,-186]],[[3916,944],[-75,41],[-76,-10],[-90,30],[-46,45],[-66,19],[-100,91],[-48,81]],[[3415,1241],[66,85],[13,38],[93,38]],[[3587,1402],[22,-78],[23,-23],[106,7],[92,-74],[39,37],[66,-17]],[[1008,1193],[-55,-85],[-111,-55],[-27,-35],[-61,-19],[-32,-50],[7,-37],[-72,-3]],[[657,909],[-18,64],[-113,115],[33,101],[-3,60],[-33,101],[464,0]],[[2995,1565],[-40,45],[-61,-15],[-39,-47],[-32,-103]],[[2823,1445],[-51,36],[-124,-9]],[[2648,1472],[25,109],[71,170],[74,81],[56,24]],[[2874,1856],[59,-105],[66,-84],[-4,-102]],[[2879,1153],[-30,36],[-23,115],[8,119],[27,114],[44,53],[54,8],[43,-70],[41,-27]],[[3043,1501],[-51,-126],[-44,-53],[-69,-169]],[[3415,1241],[-10,86],[-79,1],[-78,-88]],[[3248,1240],[-46,105],[-56,48],[-11,78]],[[3135,1471],[100,74],[73,65],[109,72],[42,8],[88,-73],[79,33],[109,-22],[30,-27],[-6,-66],[-65,-53],[-53,-17],[-54,-63]],[[2962,1120],[-83,33]],[[3043,1501],[40,-27],[52,-3]],[[3248,1240],[-24,-13]],[[4120,1418],[-23,-98],[-48,41],[-135,5],[-35,-25],[-8,-58]],[[3871,1283],[-47,-33],[-93,66],[-100,-2],[-28,74],[25,53],[85,36],[42,38],[19,66],[-5,37],[-84,42],[-48,7],[-66,-29]],[[3571,1638],[-16,97],[-38,41],[-5,57]],[[3512,1833],[58,53]],[[3570,1886],[60,-33],[96,26],[77,-23],[117,-82],[26,-60],[-7,-72],[16,-101],[71,-75],[94,-48]],[[3571,1638],[-22,-3],[-94,60],[-40,-8],[-62,-34],[-113,-84],[-5,-23],[-75,-41]],[[3160,1505],[-27,39],[82,83],[0,83],[66,84],[44,18],[48,-34],[54,36],[85,19]],[[2415,1344],[218,-2],[15,130]],[[2823,1445],[-4,-202],[26,-66],[44,-41],[67,-26],[-4,-102],[-79,-61],[-86,33],[-41,30],[-76,104],[-77,-26],[-34,14],[-45,61],[-64,5]],[[4120,1418],[143,78],[97,16],[94,-13],[45,-36],[53,-81],[48,-164],[31,-58],[-60,-62],[10,-61],[-42,-11],[-77,12],[-32,31],[-45,13],[-5,34],[29,84],[-11,55],[-38,26],[-43,-13],[-33,-54],[15,-189],[-21,-63],[-48,-6],[-24,70],[-42,79],[-25,29],[-20,70],[-56,-4],[-46,30],[-58,-2],[-36,47],[-52,8]],[[5050,1030],[-13,-124],[-48,-56],[6,-61],[-32,-22]],[[4963,767],[-42,-100],[-89,-14],[-44,26],[-22,93],[-6,5],[-35,-5],[-29,14],[-13,24],[-4,31],[-51,33],[-53,-59],[-12,51],[-34,42],[-3,93],[58,37],[-12,60],[80,66],[33,-64],[57,-25],[128,-94],[180,49]],[[267,935],[-17,-44]],[[235,914],[33,51]],[[304,939],[3,-48],[40,-33]],[[172,961],[43,59]],[[5111,639],[-3,42],[7,23],[26,9],[10,16],[4,84],[27,2],[20,26],[86,-55],[19,-4],[6,18],[-11,95],[40,69],[28,26],[21,-3],[14,-11],[11,-37],[-2,-60],[5,-34],[19,-27],[13,-2]],[[5627,636],[-66,-33],[-106,-32],[-171,-28]],[[4118,1192],[17,-60],[51,-74],[48,-115],[50,11],[18,60],[3,61],[-18,117],[39,76],[69,-15],[7,-53],[-24,-84],[-1,-27],[20,-20],[66,-37],[47,-5],[19,-142]],[[4482,807],[2,-58],[-39,-106],[-68,109],[-100,-51],[-113,13],[-58,67],[-28,-2],[-69,160],[-93,5]],[[1185,888],[-7,-21],[-103,-109],[-90,-73],[-50,25],[-108,-41],[-52,-1],[-47,47],[-131,39],[54,88],[6,67]],[[2874,1856],[103,7],[59,-33],[53,-73],[40,0],[33,33],[121,83],[134,75],[153,-62]],[[3160,1505],[-22,-24],[-55,3],[-88,81]],[[5331,947],[-24,74],[65,170],[-18,49]],[[5354,1240],[100,12],[92,62],[150,-42],[46,-41],[52,-91],[-53,-29],[-11,-19],[5,-44],[18,-26],[19,-36],[-8,-26],[-18,-16],[-4,-60],[-8,-17],[-40,11],[-17,21],[-15,39],[-15,61],[-21,41],[-9,6],[-23,-7],[-77,-52],[-7,-18],[13,-83],[-64,-62],[-20,-4],[-20,34],[2,79],[-18,49],[-24,12],[-12,-3],[-20,-15],[-16,-29]],[[5050,1030],[49,96],[55,43],[91,6],[59,56],[50,9]],[[5331,947],[-31,-46],[-9,-114],[-32,34],[-16,53],[-41,24],[-4,-62],[-45,-20],[-5,-88],[-25,-15],[-10,-7],[-6,-14],[-65,-5],[-13,35],[-11,16],[-27,19],[-28,10]]],"transform":{"scale":[0.0005096500290442434,0.00038459490451746476],"translate":[-16.81196579599998,13.07404486200005]},"objects":{"GMB":{"type":"GeometryCollection","geometries":[{"arcs":[[0,1,2]],"type":"Polygon","properties":{"name":"Bakau","shapeGroup":"GMB","gid":"GMB-2-0"},"id":"GMB-2-0"},{"arcs":[[3,4,5]],"type":"Polygon","properties":{"name":"Banjul Central","shapeGroup":"GMB","gid":"GMB-2-1"},"id":"GMB-2-1"},{"arcs":[[-5,6,7]],"type":"Polygon","properties":{"name":"Banjul North","shapeGroup":"GMB","gid":"GMB-2-2"},"id":"GMB-2-2"},{"arcs":[[-4,8,-7]],"type":"Polygon","properties":{"name":"Banjul South","shapeGroup":"GMB","gid":"GMB-2-3"},"id":"GMB-2-3"},{"arcs":[[9,10,11,12]],"type":"Polygon","properties":{"name":"Basse","shapeGroup":"GMB","gid":"GMB-2-4"},"id":"GMB-2-4"},{"arcs":[[13,14,15,16]],"type":"Polygon","properties":{"name":"Central Badibu","shapeGroup":"GMB","gid":"GMB-2-5"},"id":"GMB-2-5"},{"arcs":[[17,18,19,20,21]],"type":"Polygon","properties":{"name":"Foni Bintang Karanai","shapeGroup":"GMB","gid":"GMB-2-6"},"id":"GMB-2-6"},{"arcs":[[22,23,24,25]],"type":"Polygon","properties":{"name":"Foni Bondali","shapeGroup":"GMB","gid":"GMB-2-7"},"id":"GMB-2-7"},{"arcs":[[-20,26,27,28]],"type":"Polygon","properties":{"name":"Foni Brefet","shapeGroup":"GMB","gid":"GMB-2-8"},"id":"GMB-2-8"},{"arcs":[[-23,29,30]],"type":"Polygon","properties":{"name":"Foni Jarrol","shapeGroup":"GMB","gid":"GMB-2-9"},"id":"GMB-2-9"},{"arcs":[[-18,31,-25,32]],"type":"Polygon","properties":{"name":"Foni Kansala","shapeGroup":"GMB","gid":"GMB-2-10"},"id":"GMB-2-10"},{"arcs":[[-14,33,34,35]],"type":"Polygon","properties":{"name":"Illiasa","shapeGroup":"GMB","gid":"GMB-2-11"},"id":"GMB-2-11"},{"arcs":[[36,37,38]],"type":"Polygon","properties":{"name":"Janjanbureh","shapeGroup":"GMB","gid":"GMB-2-12"},"id":"GMB-2-12"},{"arcs":[[39,40,41,42]],"type":"Polygon","properties":{"name":"Jarra central","shapeGroup":"GMB","gid":"GMB-2-13"},"id":"GMB-2-13"},{"arcs":[[-40,43,44,45]],"type":"Polygon","properties":{"name":"Jarra East","shapeGroup":"GMB","gid":"GMB-2-14"},"id":"GMB-2-14"},{"arcs":[[-42,46,47,48]],"type":"Polygon","properties":{"name":"Jarra West","shapeGroup":"GMB","gid":"GMB-2-15"},"id":"GMB-2-15"},{"arcs":[[-1,49,50,51,52]],"type":"Polygon","properties":{"name":"Jeshwang","shapeGroup":"GMB","gid":"GMB-2-16"},"id":"GMB-2-16"},{"arcs":[[-12,53,54,55]],"type":"Polygon","properties":{"name":"Jimara","shapeGroup":"GMB","gid":"GMB-2-17"},"id":"GMB-2-17"},{"arcs":[[56,57,58]],"type":"Polygon","properties":{"name":"Jokadu","shapeGroup":"GMB","gid":"GMB-2-18"},"id":"GMB-2-18"},{"arcs":[[59,60]],"type":"Polygon","properties":{"name":"Kantora","shapeGroup":"GMB","gid":"GMB-2-19"},"id":"GMB-2-19"},{"arcs":[[61,62,63,64]],"type":"Polygon","properties":{"name":"Kiang Central","shapeGroup":"GMB","gid":"GMB-2-20"},"id":"GMB-2-20"},{"arcs":[[-48,65,-65,66]],"type":"Polygon","properties":{"name":"Kiang East","shapeGroup":"GMB","gid":"GMB-2-21"},"id":"GMB-2-21"},{"arcs":[[-22,67,-63,68,-30,-26,-32]],"type":"Polygon","properties":{"name":"Kiang West","shapeGroup":"GMB","gid":"GMB-2-22"},"id":"GMB-2-22"},{"arcs":[[69,70,71,72]],"type":"Polygon","properties":{"name":"Kombo Central","shapeGroup":"GMB","gid":"GMB-2-23"},"id":"GMB-2-23"},{"arcs":[[-28,73,-70,74,75]],"type":"Polygon","properties":{"name":"Kombo East","shapeGroup":"GMB","gid":"GMB-2-24"},"id":"GMB-2-24"},{"arcs":[[-73,76,77,78,79,80,81,-75]],"type":"Polygon","properties":{"name":"Kombo North","shapeGroup":"GMB","gid":"GMB-2-25"},"id":"GMB-2-25"},{"arcs":[[-72,82,-77]],"type":"Polygon","properties":{"name":"Kombo South","shapeGroup":"GMB","gid":"GMB-2-26"},"id":"GMB-2-26"},{"arcs":[[-16,83]],"type":"Polygon","properties":{"name":"Lower Badibu","shapeGroup":"GMB","gid":"GMB-2-27"},"id":"GMB-2-27"},{"arcs":[[-38,84,85,86,87]],"type":"Polygon","properties":{"name":"Lower Fuladu West","shapeGroup":"GMB","gid":"GMB-2-28"},"id":"GMB-2-28"},{"arcs":[[-58,88,89]],"type":"Polygon","properties":{"name":"Lower Niumi","shapeGroup":"GMB","gid":"GMB-2-29"},"id":"GMB-2-29"},{"arcs":[[90,91,92,93]],"type":"Polygon","properties":{"name":"Lower Saloum","shapeGroup":"GMB","gid":"GMB-2-30"},"id":"GMB-2-30"},{"arcs":[[94,95]],"type":"Polygon","properties":{"name":"Niamina Dankunku","shapeGroup":"GMB","gid":"GMB-2-31"},"id":"GMB-2-31"},{"arcs":[[-87,96,97,98]],"type":"Polygon","properties":{"name":"Niamina East","shapeGroup":"GMB","gid":"GMB-2-32"},"id":"GMB-2-32"},{"arcs":[[-45,99,-96,100,-98,101]],"type":"Polygon","properties":{"name":"Niamina West","shapeGroup":"GMB","gid":"GMB-2-33"},"id":"GMB-2-33"},{"arcs":[[102,103,104,105,106]],"type":"Polygon","properties":{"name":"Niani","shapeGroup":"GMB","gid":"GMB-2-34"},"id":"GMB-2-34"},{"arcs":[[-105,107,108]],"type":"Polygon","properties":{"name":"Nianija","shapeGroup":"GMB","gid":"GMB-2-35"},"id":"GMB-2-35"},{"arcs":[[-35,109,-92,110]],"type":"Polygon","properties":{"name":"Sabach Sanjar","shapeGroup":"GMB","gid":"GMB-2-36"},"id":"GMB-2-36"},{"arcs":[[-103,111]],"type":"Polygon","properties":{"name":"Sami","shapeGroup":"GMB","gid":"GMB-2-37"},"id":"GMB-2-37"},{"arcs":[[112,113]],"type":"Polygon","properties":{"name":"Sandu","shapeGroup":"GMB","gid":"GMB-2-38"},"id":"GMB-2-38"},{"arcs":[[-52,114,-80,115]],"type":"Polygon","properties":{"name":"Serrekunda Central","shapeGroup":"GMB","gid":"GMB-2-39"},"id":"GMB-2-39"},{"arcs":[[-51,116,-81,-115]],"type":"Polygon","properties":{"name":"Serrekunda East","shapeGroup":"GMB","gid":"GMB-2-40"},"id":"GMB-2-40"},{"arcs":[[-2,-53,-116,-79,117]],"type":"Polygon","properties":{"name":"Serrekunda West","shapeGroup":"GMB","gid":"GMB-2-41"},"id":"GMB-2-41"},{"arcs":[[-10,118,-60,119]],"type":"Polygon","properties":{"name":"Tumana","shapeGroup":"GMB","gid":"GMB-2-42"},"id":"GMB-2-42"},{"arcs":[[-37,120,-55,121,-85]],"type":"Polygon","properties":{"name":"Upper Fuladu West","shapeGroup":"GMB","gid":"GMB-2-43"},"id":"GMB-2-43"},{"arcs":[[-57,122,-89]],"type":"Polygon","properties":{"name":"Upper Niumi","shapeGroup":"GMB","gid":"GMB-2-44"},"id":"GMB-2-44"},{"arcs":[[-94,123,-106,-109,124]],"type":"Polygon","properties":{"name":"Upper Saloum","shapeGroup":"GMB","gid":"GMB-2-45"},"id":"GMB-2-45"},{"arcs":[[125,126]],"type":"Polygon","properties":{"name":"Wuli East","shapeGroup":"GMB","gid":"GMB-2-46"},"id":"GMB-2-46"},{"arcs":[[-113,127,-126,128]],"type":"Polygon","properties":{"name":"Wuli West","shapeGroup":"GMB","gid":"GMB-2-47"},"id":"GMB-2-47"}]}}}