{"type":"Topology","arcs":[[[2176,3294],[-47,-96],[-21,-133],[-50,-127],[-33,-66],[-19,-90]],[[2006,2782],[-174,50],[-56,-20],[-35,58],[-38,38],[-24,-2],[-110,76],[-24,163],[-21,21]],[[1524,3166],[30,63],[40,23],[38,-14],[68,-50],[61,13],[63,78]],[[1824,3279],[54,42],[129,-18],[92,7],[77,-16]],[[6044,4740],[50,-6],[78,-88],[56,-104],[-4,-63],[-24,-78],[3,-49],[22,-64],[102,-163],[18,-50]],[[6345,4075],[-41,-44],[-36,-4],[-36,-52],[-40,2],[-21,26],[-73,-8]],[[6098,3995],[10,42],[-49,-9],[-43,50],[-29,-50],[-66,62],[-63,-68],[-39,8],[-4,37],[-62,31],[-33,35]],[[5720,4133],[-89,50],[19,37],[36,16],[22,67],[-51,79],[43,33],[47,-13],[12,46],[-34,8],[-2,45],[-70,95],[9,176],[-13,82],[26,80],[-29,114],[17,69]],[[5663,5117],[38,-50],[48,-25],[21,-40],[52,-24],[21,-128],[15,-29],[13,-114],[-15,-44],[20,-25],[34,21],[17,50],[47,30],[44,-25],[26,26]],[[4965,4248],[53,-151],[47,-5],[84,-96],[8,-36],[32,-20],[64,16]],[[5253,3956],[34,-2],[48,-47],[6,-44],[-6,-90],[34,-47],[59,-9],[76,-47],[61,-80],[3,-74],[-19,-44],[26,-88],[-4,-24]],[[5571,3360],[-174,16],[-149,-63],[-52,-30],[-53,-65],[-58,-40],[-79,-72],[0,-36],[-44,-4],[-109,-31],[-25,-20],[-46,-79]],[[4782,2936],[-71,11],[-40,51],[-24,111],[8,88],[71,109],[17,53],[-13,104],[-41,56]],[[4689,3519],[166,-47],[50,2],[45,54],[-1,37],[-43,38],[-1,42],[-57,36],[-52,54],[-29,84],[-40,61],[-125,266],[-18,55]],[[4584,4201],[121,62],[50,-16],[39,19],[72,-43],[31,-3],[68,28]],[[4909,1782],[79,-74],[85,-46],[65,-13],[88,-1],[21,-60],[12,-86],[39,-44],[79,-40]],[[5377,1418],[-77,-224]],[[5300,1194],[-94,76],[-56,2],[-56,-77],[-9,-30],[-77,-54],[-45,3],[-38,-26],[-65,-23],[-42,-91],[-63,-114],[-118,-125],[-74,-26],[-35,-30],[-85,-153],[-17,-73],[-39,-54],[-36,-100]],[[4351,299],[-124,48],[-60,-5],[-81,30],[-58,67],[22,41],[41,12],[43,51],[59,48],[26,44],[-45,57]],[[4174,692],[48,55],[21,61],[-76,211],[19,66],[46,10],[119,-28],[30,15],[7,49],[-46,177],[33,46],[0,49],[21,28],[39,-19],[19,27],[-11,46],[-44,7],[67,86],[-38,21],[-4,49],[45,8],[13,-34],[63,53]],[[4545,1675],[23,-3],[95,55],[38,-12],[69,55],[70,13],[56,-19],[13,18]],[[3438,4940],[-44,-43],[-46,43],[-39,-14],[-53,-87],[-68,7],[-59,-85],[-55,-10],[-20,-34],[5,-44],[-40,-11],[-44,-35],[-58,32],[-43,-11],[-21,-45],[25,-27],[-40,-35],[-73,60],[-52,-97],[45,1],[19,-35],[-26,-53],[-75,-27]],[[2676,4390],[-65,-29],[-67,-50],[-77,65],[-41,64],[-47,39],[-81,25],[-75,110]],[[2223,4614],[-35,28],[-107,22],[-166,72],[-134,-17]],[[1781,4719],[-12,124],[61,61],[7,38],[57,39],[43,135]],[[1937,5116],[192,-77],[173,24],[395,-50],[185,-33],[154,79],[100,60],[234,121],[76,34]],[[3446,5274],[1,-143],[-17,-90],[8,-101]],[[3438,4940],[39,-24],[9,-45],[45,-46]],[[3531,4825],[-1,-74],[-21,-55],[76,-38],[62,-66],[57,-24],[32,6],[34,-81],[83,-37],[42,-46],[49,-76],[52,-55]],[[3996,4279],[-39,-43],[-142,-27],[-133,-49],[-27,-30],[-9,-60],[-37,-30]],[[3609,4040],[-58,44],[-10,39],[-52,66],[-10,81],[-64,36],[-183,-65],[11,-122],[-62,-37],[-35,36],[-69,-11],[-29,-19]],[[3048,4088],[-22,31],[-61,27],[-36,-3],[-54,79],[-84,6],[-5,51],[-38,57],[-26,-4],[-46,58]],[[2944,1984],[-18,-60],[59,-81],[-56,-26],[-6,-23],[-129,-31],[-3,24],[-49,36],[46,51],[46,-12],[31,35],[0,49],[79,38]],[[3478,2424],[27,-15],[-25,-78],[-34,-55],[30,-121],[-55,3],[-47,32],[-14,-49],[-101,-30],[17,-85],[-13,-44],[-77,1],[-12,23],[-66,36],[-86,21],[15,31],[56,6],[29,41],[20,61],[52,21],[59,-3],[-1,31],[36,29],[44,65],[36,-3],[69,28],[41,54]],[[3919,2324],[-116,-137],[-190,-113]],[[3613,2074],[-11,38],[-32,26],[-58,129],[0,57],[29,93],[-13,12]],[[3528,2429],[43,55],[33,64],[38,30],[77,32],[93,5],[47,-21],[37,-70],[8,-149],[15,-51]],[[6426,2160],[-45,91],[-25,112]],[[6356,2363],[27,-26],[52,-2],[85,38],[27,-7],[15,50],[-2,66],[82,44],[71,125],[92,133],[-16,47],[25,47],[-35,99],[-29,46],[-30,3],[-42,-49],[-22,33],[43,56],[100,14],[9,32],[-9,73],[-65,-19],[-41,46],[-35,0],[-6,36],[88,123],[56,-6],[-5,-85],[48,-20],[59,23],[15,88],[34,9],[64,-9],[49,33],[108,-110],[76,-12],[85,57],[34,52],[-6,62],[9,49],[75,-13],[24,67],[-31,58],[40,32],[-10,101],[91,-13],[18,23],[-11,68],[38,37],[-9,100],[43,40]],[[7634,4002],[16,41],[57,28],[39,0]],[[7746,4071],[23,13],[93,-14],[50,-27],[28,-93],[89,-25],[49,-4],[35,-35],[29,-102],[86,-84],[39,-6],[56,-32],[62,-1],[34,-34],[-27,-172],[-4,-108],[-15,-136],[21,-156],[-5,-106],[16,-94],[-22,-36],[3,-169],[-65,-18],[-12,-24],[-65,-33],[-33,-1],[-76,31],[-4,44],[-58,-10],[-36,68],[6,53],[-65,9],[-13,-72],[38,-16],[-52,-87],[-25,-101],[-41,10],[-95,74],[-23,-30],[-17,-68],[-145,-43],[-95,38],[-50,4],[-46,-21],[-71,-71],[-60,20],[-21,36],[-49,34],[-17,35],[-123,-27],[-71,52],[-47,-13],[-38,11],[-57,-19],[-32,36],[-146,-243],[-256,-148]],[[4545,1675],[-111,75],[1,32]],[[4435,1782],[13,21],[-2,98],[24,51],[28,198],[17,46],[58,23],[24,30],[-35,71],[-79,68]],[[4483,2388],[60,91],[37,8],[44,52],[57,44],[39,66],[15,132],[47,155]],[[4782,2936],[47,-35],[65,-101],[76,-8],[42,26],[-30,74],[7,22],[56,8],[52,-9],[11,-22],[-9,-82],[30,-35],[27,38],[30,5],[31,-54],[35,11],[23,-31],[-48,-61],[-34,10],[-22,-42],[57,-21]],[[5228,2629],[-123,-310],[-53,-149],[-77,-188],[-66,-200]],[[3048,4088],[3,-77],[-89,-37],[-20,-30],[-2,-74],[10,-52],[-38,-13],[12,-64],[-25,-53]],[[2899,3688],[-79,-63],[9,-63],[-29,-38]],[[2800,3524],[-43,14],[-46,-21],[-36,23],[2,59],[-15,37],[-52,20],[-60,-28]],[[2550,3628],[-169,21],[18,35],[-9,74],[-31,10],[13,54],[-9,49],[-56,102],[-5,100],[-57,54],[-49,78],[-35,128]],[[2161,4333],[33,9],[8,68],[-22,127],[-34,28],[15,36],[62,13]],[[2161,4333],[-21,-47],[-60,-46],[36,-81],[-58,-138],[-124,-59],[-78,16],[-53,47],[-14,40],[-61,5],[-9,-51],[-46,-34],[-43,-90],[-64,-77],[-114,-106]],[[1452,3712],[-45,-35],[35,-62],[-49,-24],[-43,41],[18,70],[-46,-18],[-14,-41],[-64,-11],[-35,-76],[-62,8]],[[1147,3564],[-18,49],[-78,67],[27,28],[8,95],[-21,65],[-32,53],[-141,144]],[[892,4065],[87,63],[200,122],[60,46],[82,109],[93,74],[118,53],[80,-2],[57,40],[39,94],[38,41],[35,14]],[[5300,1194],[-47,-119],[-14,-66],[-208,-430],[-55,-86],[-12,-56],[-50,-47],[-10,-113],[-124,-69],[-54,-79],[-51,-25],[-16,-32],[-79,-72],[-7,101],[-28,26],[-50,116],[-144,56]],[[1524,3166],[-69,10],[-38,-64],[-64,-32],[-46,13],[-26,-15],[-32,34],[-75,16],[-25,-26],[-74,38],[44,21],[49,147],[15,88],[-15,106],[-21,62]],[[1452,3712],[26,-49],[40,13],[131,3],[23,-50],[26,-159],[40,-84],[36,-32],[50,-75]],[[2550,3628],[-67,-23],[-68,-56],[-140,-136],[-99,-119]],[[4174,692],[-29,33],[-61,17],[-48,-17],[-54,18],[-28,56],[-66,-27],[-50,58],[-142,108],[-35,57],[-10,81],[21,71],[-20,36],[25,44],[-135,121]],[[3542,1348],[112,163],[124,92],[35,-6],[77,-39],[31,7],[44,39],[26,64],[42,39],[34,55],[63,38],[34,42],[17,56],[45,12],[53,-29],[66,-55],[72,-6],[18,-38]],[[5663,5117],[-65,38],[-34,79],[-84,39],[-68,-14],[-92,-75],[-30,-37],[-84,-76]],[[5206,5071],[-78,145],[-25,32],[-60,37],[10,31],[58,70],[14,56],[74,79],[15,89],[-42,74],[-20,67],[-123,52]],[[5029,5803],[49,2],[1079,-5],[229,8],[285,-10]],[[6671,5798],[-15,-57],[-45,-47],[16,-26]],[[6627,5668],[5,-33],[-80,-68],[-30,23],[-49,97],[-51,-28],[15,-113],[32,-17],[-16,-42],[-1,-69],[37,-78],[74,-29],[-15,-68],[-45,-27],[-50,57],[-57,-4],[-34,-54],[-40,-18],[-23,19],[-1,45],[-81,-10],[-35,60],[-34,9],[-42,-28],[-7,-43],[15,-38],[53,-54],[43,5],[21,44],[26,-10],[33,-52],[24,-76],[-25,-35],[-55,18],[-42,-17],[-19,-57],[35,-56],[-21,-28],[-53,-20],[-30,32],[-54,-42],[24,-70],[-37,-3],[7,-50]],[[3919,2324],[43,48],[78,22]],[[4040,2394],[56,-8],[92,12],[118,51],[129,-30],[48,-31]],[[3542,1348],[-74,61],[-56,8],[-30,50],[15,22],[49,225],[60,46],[6,22],[-37,72],[13,62],[35,-39],[64,53],[39,2],[-10,59],[13,27],[-16,56]],[[3446,5274],[144,71],[166,138],[89,111],[82,33],[105,54],[86,62],[169,82],[158,3],[584,-25]],[[5206,5071],[-45,-39],[-130,-40],[-40,5],[-46,-16],[-34,19],[-37,-13]],[[4874,4987],[-6,46],[-48,8],[-39,54],[-73,-3],[-56,-37],[-16,-38],[-49,-32],[-44,5],[-101,-30],[-87,42],[-17,51],[-46,60],[-59,55],[-18,-18],[-100,5],[14,-66],[-61,-4],[-9,-48],[-26,-31],[-37,27],[-27,-28],[-51,-10],[-5,-64],[-27,-18],[-55,4],[-58,-60],[-33,21],[-13,52],[-54,-13],[-142,-92]],[[4040,2394],[10,79],[-26,85],[6,120],[25,94],[-26,63],[-5,44],[-76,182],[6,72],[-5,155]],[[3949,3288],[31,-8],[290,-25],[52,7],[63,43],[119,124],[77,66],[40,20],[68,4]],[[6345,4075],[33,-3],[66,122],[1,30],[32,72],[-7,24],[24,83],[-37,153],[24,43],[34,104],[48,40],[42,-19],[99,42],[34,46],[38,86],[-14,130]],[[6762,5028],[36,21],[37,-16],[187,35],[20,-45],[31,-24],[72,2],[43,24],[57,-75],[47,-22],[69,20]],[[7361,4948],[-4,-15],[-179,-199],[-90,-151],[14,-47],[37,-40],[28,5],[88,-72],[31,-7],[58,20],[67,-177],[76,-93],[12,-44],[39,-62],[96,-64]],[[6356,2363],[-96,3],[-31,64],[-40,30],[-48,2]],[[6141,2462],[-5,22],[55,34],[-7,45],[35,47],[97,69],[20,41],[-71,98],[3,77],[-24,95],[2,61]],[[6246,3051],[-22,74],[23,143],[16,51],[-23,53],[-8,58],[-41,47],[-36,90],[40,70],[1,79],[-35,51],[-4,45],[-99,98],[-7,24],[47,61]],[[6246,3051],[-102,-54],[-42,-5],[-102,85],[-61,9],[-53,55],[-80,107],[-28,23],[-133,62],[-74,27]],[[5253,3956],[25,99],[-11,49],[11,31],[50,-46],[11,-73],[31,4],[15,49],[72,6],[57,-18],[62,43],[109,-18],[5,46],[30,5]],[[4965,4248],[-9,70],[5,67],[-22,104],[25,38],[-71,102],[-26,111],[-15,133],[11,101],[11,13]],[[4584,4201],[-47,19],[-52,1],[-28,17],[-64,-18],[-59,28],[-30,-63],[-28,-17],[-51,88],[-34,17],[-82,-17],[-56,-74],[-18,47],[-39,50]],[[3949,3288],[-103,32],[-131,1]],[[3715,3321],[-25,168],[-26,105],[-71,87],[-20,38],[-66,54],[22,37],[28,-15],[36,49],[-2,49],[22,26],[-17,57],[13,64]],[[3715,3321],[-140,-13],[-49,-23],[-59,-49],[-142,-175]],[[3325,3061],[-43,197],[-52,23],[-64,111],[-53,0]],[[3113,3392],[-26,8],[-39,74],[15,36],[-56,90],[-15,72],[-54,22],[-39,-6]],[[7361,4948],[40,50],[22,56],[-5,77],[-29,70],[16,85],[33,15],[90,-17],[27,9],[62,-11],[89,73],[98,185],[23,25],[89,25],[35,28],[40,96],[15,82]],[[8006,5796],[380,-1],[-4,-220],[69,-170],[37,-115],[34,-1],[49,-97],[15,-83],[0,-103],[-50,-32],[-33,-57],[0,-48],[41,-76],[-4,-33],[-37,-44],[27,-63],[-46,-51],[-37,7],[-33,-56],[-24,-93],[-31,-51],[-37,-3],[-37,71],[-56,16],[-30,-73],[-61,-5],[-24,47],[33,26],[0,53],[-30,3],[-16,-53],[-37,-54],[-21,83],[-67,-6],[-26,-20],[34,-40],[-13,-67],[-173,-25],[-40,-100],[-65,-11],[-3,-65],[24,-68],[32,-47]],[[6671,5798],[471,0],[415,2],[39,-5],[410,1]],[[6762,5028],[-85,121],[-23,50],[-57,82],[25,33],[59,14],[70,-36],[68,3],[72,59],[21,33],[-22,119],[26,38],[-44,41],[-90,25],[-35,-21],[-26,25],[-5,49],[-42,-12],[-47,17]],[[2785,3139],[55,22],[131,-9]],[[2971,3152],[-25,-79],[-4,-139]],[[2942,2934],[-140,-4],[-149,-79],[-97,-81],[-24,-4],[-97,42]],[[2435,2808],[22,43],[39,121],[69,94],[-8,85],[16,40],[55,8],[106,-72],[51,12]],[[5228,2629],[67,-1],[49,-23],[5,-100],[-5,-58],[122,-96],[37,-56],[41,-27],[31,24],[61,-5],[25,35],[5,45],[37,-1],[10,89],[36,10],[34,-33],[26,-80],[35,4],[48,68],[134,6],[51,-9],[64,41]],[[6426,2160],[-108,-65],[-171,-131],[-207,30],[-93,7],[-124,-9],[-106,-108],[-69,-126],[-73,-110],[-55,-112],[-43,-118]],[[2800,3524],[-5,-62],[-39,-50],[9,-47],[39,-80],[-16,-45],[-3,-101]],[[2435,2808],[-44,12],[-189,-17],[-55,-37],[-11,-29],[-130,45]],[[3113,3392],[-29,-40],[-31,-80],[-27,-21],[-55,-99]],[[892,4065],[-123,123],[-128,66],[-30,61],[-64,80],[-113,118],[-97,19],[-65,86],[-47,27],[-54,6],[-75,68],[-32,2],[-48,-33],[-16,15],[77,64],[144,1],[89,-41],[163,44],[93,-32],[82,25],[185,26],[104,-12],[16,43],[91,51],[87,63],[115,70],[127,68],[61,26],[112,-38],[261,71],[84,3],[46,-19]],[[3528,2429],[-41,29],[-44,-1],[-157,119],[3,37],[-28,70],[-150,116]],[[3111,2799],[214,262]],[[3024,537],[65,-17],[-22,-44],[-61,-36],[-18,15],[3,67],[33,15]],[[2205,773],[28,-6],[51,-111],[-25,-44],[-16,-75],[-33,-26],[-51,-10],[-31,18],[13,51],[-17,41],[53,22],[-7,-47],[38,1],[-1,45],[39,66],[-77,65],[36,10]],[[2006,835],[51,-43],[-8,-57],[-47,-6],[-37,-68],[48,-35],[-45,-29],[-39,6],[3,83],[-14,29],[40,44],[48,76]],[[2164,974],[80,-80],[-62,-25],[-45,19],[-3,-39],[-73,42],[73,21],[39,22],[-9,40]],[[2952,1341],[10,-49],[-29,-76],[15,-25],[-13,-65],[-27,-4],[18,83],[-45,-25],[3,-62],[-33,-43],[-56,19],[-17,27],[-40,-100],[44,27],[-18,-98],[9,-46],[-78,8],[-54,36],[-39,61],[64,60],[-52,15],[27,54],[42,46],[-5,45],[69,-9],[9,25],[62,59],[60,37],[74,0]],[[2464,1335],[34,-46],[-29,-68],[-25,38],[-29,-37],[-4,-54],[-53,-83],[24,-17],[-2,-59],[-32,-33],[-87,97],[44,24],[17,59],[-13,20],[48,95],[39,51],[68,13]],[[2623,1565],[-46,-86],[-33,-6],[-39,-36],[45,-34],[3,-35],[-39,-20],[-45,2],[0,35],[26,54],[12,67],[29,37],[49,24],[38,-2]],[[2432,1588],[-7,-76],[-72,-71],[-59,-32],[31,88],[49,39],[23,39],[35,13]],[[742,1376],[46,-58],[48,-10],[0,-34],[-78,14],[-49,-32],[-37,-3],[3,104],[67,19]],[[1744,1725],[-51,-94],[-35,26],[-38,-10],[13,-43],[-35,-18],[-6,65],[29,0],[77,58],[46,16]],[[2203,2030],[49,-16],[10,-88],[-4,-81],[-34,-58],[-113,-65],[-7,45],[-64,6],[-49,-12],[-72,-35],[-138,73],[-1,44],[89,42],[52,101],[56,22],[39,-19],[63,42],[68,-44],[34,5],[22,38]],[[1541,2071],[-15,-68],[-51,-28],[-44,21],[12,-69],[-5,-54],[-54,35],[-15,-65],[-19,-16],[-50,13],[-29,61],[5,38],[66,64],[54,33],[79,5],[66,30]],[[2047,2240],[10,-38],[46,-71],[-22,-39],[-35,-23],[-1,-36],[-43,-19],[-22,16],[-9,66],[53,112],[23,32]],[[1236,2280],[77,-44],[3,-87],[-74,-172],[5,-35],[-65,20],[-43,-39],[-86,68],[-37,-26],[-90,17],[-26,-35],[-42,41],[-20,89],[42,69],[42,27],[72,-12],[38,-48],[77,35],[95,128],[32,4]],[[2143,2315],[41,-80],[78,7],[-1,-98],[30,-35],[-35,-57],[-65,-1],[-42,50],[11,26],[-53,34],[-41,63],[1,24],[45,65],[31,2]],[[1695,567],[17,-23],[92,-5],[43,-45],[-42,-48],[-86,-19],[-34,30],[8,41],[-73,11],[33,37],[42,21]],[[1966,1001],[30,-18],[-14,-67],[-26,-27],[-1,-54],[-24,-45],[-32,7],[-53,78],[58,52],[-19,62],[43,-10],[38,22]],[[1674,1019],[39,-27],[50,11],[80,-40],[-15,-45],[-27,-20],[-43,25],[-8,-52],[49,-24],[-4,-50],[-29,-9],[-28,-84],[16,-37],[50,4],[8,-31],[-76,6],[-36,22],[-24,-20],[-76,30],[7,-59],[-33,-52],[24,-52],[5,-77],[-22,-17],[-82,20],[-49,68],[-81,54],[-56,72],[36,47],[19,-58],[57,28],[13,41],[77,73],[5,125],[66,7],[23,44],[28,-9],[64,20],[-27,66]],[[1371,1361],[49,-11],[15,-59],[61,29],[43,-33],[45,-63],[-15,-66],[-49,-26],[-34,-60],[-39,-17],[-56,12],[-84,-24],[-38,61],[-65,16],[5,30],[54,50],[10,77],[65,19],[33,65]],[[1659,1466],[107,-39],[35,-31],[-15,-35],[-87,-60],[-59,68],[45,26],[-26,71]],[[1517,1482],[50,-41],[-21,-19],[-29,60]],[[1909,1509],[-6,-55],[-79,-10],[18,45],[56,-8],[11,28]],[[3111,2799],[-134,120],[-35,15]]],"transform":{"scale":[0.00035883671092476444,0.00030783196636925686],"translate":[-16.7173456,10.8917638]},"objects":{"GNB":{"type":"GeometryCollection","geometries":[{"arcs":[[0,1,2,3]],"type":"Polygon","properties":{"name":"Setor de Boe","shapeGroup":"GNB","gid":"GNB-2-0"},"id":"GNB-2-0"},{"arcs":[[4,5,6,7,8]],"type":"Polygon","properties":{"name":"Setor de Bafata","shapeGroup":"GNB","gid":"GNB-2-1"},"id":"GNB-2-1"},{"arcs":[[9,10,11,12,13,14]],"type":"Polygon","properties":{"name":"Setor de Bambadinca","shapeGroup":"GNB","gid":"GNB-2-2"},"id":"GNB-2-2"},{"arcs":[[15,16,17,18,19,20]],"type":"Polygon","properties":{"name":"Setor de Bedanda","shapeGroup":"GNB","gid":"GNB-2-3"},"id":"GNB-2-3"},{"arcs":[[21,22,23,24,25,26]],"type":"Polygon","properties":{"name":"Setor de Bigene","shapeGroup":"GNB","gid":"GNB-2-4"},"id":"GNB-2-4"},{"arcs":[[-22,27,28,29,30,31]],"type":"Polygon","properties":{"name":"Setor de Bissora","shapeGroup":"GNB","gid":"GNB-2-5"},"id":"GNB-2-5"},{"arcs":[[[32]],[[33]],[[34,35,36]]],"type":"MultiPolygon","properties":{"name":"Setor de Bolama","shapeGroup":"GNB","gid":"GNB-2-6"},"id":"GNB-2-6"},{"arcs":[[37,38,39,40]],"type":"Polygon","properties":{"name":"Setor de Madina do Bo˒","shapeGroup":"GNB","gid":"GNB-2-7"},"id":"GNB-2-7"},{"arcs":[[-21,41,42,43,44,45]],"type":"Polygon","properties":{"name":"Setor de Buba","shapeGroup":"GNB","gid":"GNB-2-8"},"id":"GNB-2-8"},{"arcs":[[-23,-32,46,47,48,49,50]],"type":"Polygon","properties":{"name":"Setor de Bula","shapeGroup":"GNB","gid":"GNB-2-9"},"id":"GNB-2-9"},{"arcs":[[-24,-51,51,52,53,54]],"type":"Polygon","properties":{"name":"Setor de Cacheu","shapeGroup":"GNB","gid":"GNB-2-10"},"id":"GNB-2-10"},{"arcs":[[-18,55]],"type":"Polygon","properties":{"name":"Setor de Cacine","shapeGroup":"GNB","gid":"GNB-2-11"},"id":"GNB-2-11"},{"arcs":[[-3,56,-53,57]],"type":"Polygon","properties":{"name":"Setor de Caiv","shapeGroup":"GNB","gid":"GNB-2-12"},"id":"GNB-2-12"},{"arcs":[[-4,-58,-52,-50,58]],"type":"Polygon","properties":{"name":"Setor de Canghungo","shapeGroup":"GNB","gid":"GNB-2-13"},"id":"GNB-2-13"},{"arcs":[[-20,59,60,-42]],"type":"Polygon","properties":{"name":"Setor de Catie","shapeGroup":"GNB","gid":"GNB-2-14"},"id":"GNB-2-14"},{"arcs":[[-9,61,62,63,64,65]],"type":"Polygon","properties":{"name":"Contuboel","shapeGroup":"GNB","gid":"GNB-2-15"},"id":"GNB-2-15"},{"arcs":[[-35,66,67,-43,-61,68]],"type":"Polygon","properties":{"name":"Setor de Empada","shapeGroup":"GNB","gid":"GNB-2-16"},"id":"GNB-2-16"},{"arcs":[[-27,69,-63,70,71,-28]],"type":"Polygon","properties":{"name":"Setor de Farim","shapeGroup":"GNB","gid":"GNB-2-17"},"id":"GNB-2-17"},{"arcs":[[-13,-44,-68,72,73]],"type":"Polygon","properties":{"name":"Setor de Fulacunda","shapeGroup":"GNB","gid":"GNB-2-18"},"id":"GNB-2-18"},{"arcs":[[-6,74,75,76,-39,77,78,79]],"type":"Polygon","properties":{"name":"Setor de Gabv","shapeGroup":"GNB","gid":"GNB-2-19"},"id":"GNB-2-19"},{"arcs":[[-7,-80,80,-11,81]],"type":"Polygon","properties":{"name":"Setor de Galomaro","shapeGroup":"GNB","gid":"GNB-2-20"},"id":"GNB-2-20"},{"arcs":[[-8,-82,-10,82,-71,-62]],"type":"Polygon","properties":{"name":"Setor de Gamamundo","shapeGroup":"GNB","gid":"GNB-2-21"},"id":"GNB-2-21"},{"arcs":[[-15,83,-29,-72,-83]],"type":"Polygon","properties":{"name":"Setor de Mansaba","shapeGroup":"GNB","gid":"GNB-2-22"},"id":"GNB-2-22"},{"arcs":[[-14,-74,84,85,-30,-84]],"type":"Polygon","properties":{"name":"Setor de Mansoa","shapeGroup":"GNB","gid":"GNB-2-23"},"id":"GNB-2-23"},{"arcs":[[-31,-86,86,87,88,-47]],"type":"Polygon","properties":{"name":"Setor de Nhacra","shapeGroup":"GNB","gid":"GNB-2-24"},"id":"GNB-2-24"},{"arcs":[[-40,-77,89,90]],"type":"Polygon","properties":{"name":"Setor de Pitche","shapeGroup":"GNB","gid":"GNB-2-25"},"id":"GNB-2-25"},{"arcs":[[-65,91,-90,-76,92]],"type":"Polygon","properties":{"name":"Setor de Pirada","shapeGroup":"GNB","gid":"GNB-2-26"},"id":"GNB-2-26"},{"arcs":[[93,94,95,96]],"type":"Polygon","properties":{"name":"Setor de Prabis","shapeGroup":"GNB","gid":"GNB-2-27"},"id":"GNB-2-27"},{"arcs":[[-16,-46,97,-78,-38,98]],"type":"Polygon","properties":{"name":"Setor de Quebo","shapeGroup":"GNB","gid":"GNB-2-28"},"id":"GNB-2-28"},{"arcs":[[-1,-59,-49,99,-97,100]],"type":"Polygon","properties":{"name":"Setor de Quinh","shapeGroup":"GNB","gid":"GNB-2-29"},"id":"GNB-2-29"},{"arcs":[[-48,-89,101,-94,-100]],"type":"Polygon","properties":{"name":"Setor de Safim","shapeGroup":"GNB","gid":"GNB-2-30"},"id":"GNB-2-30"},{"arcs":[[-5,-66,-93,-75]],"type":"Polygon","properties":{"name":"Setor de Sonaco","shapeGroup":"GNB","gid":"GNB-2-31"},"id":"GNB-2-31"},{"arcs":[[-25,-55,102]],"type":"Polygon","properties":{"name":"Setor de Sto Domingos","shapeGroup":"GNB","gid":"GNB-2-32"},"id":"GNB-2-32"},{"arcs":[[-37,103,104,-87,-85,-73,-67]],"type":"Polygon","properties":{"name":"Setor de Tite","shapeGroup":"GNB","gid":"GNB-2-33"},"id":"GNB-2-33"},{"arcs":[[-12,-81,-79,-98,-45]],"type":"Polygon","properties":{"name":"Setor de Xitole","shapeGroup":"GNB","gid":"GNB-2-34"},"id":"GNB-2-34"},{"arcs":[[[105]],[[106]],[[107]],[[108]],[[109]],[[110]],[[111]],[[112]]],"type":"MultiPolygon","properties":{"name":"Setor de Bubaque","shapeGroup":"GNB","gid":"GNB-2-35"},"id":"GNB-2-35"},{"arcs":[[[113]],[[114]],[[115]],[[116]],[[117]],[[118]],[[119]]],"type":"MultiPolygon","properties":{"name":"Setor de Caravela","shapeGroup":"GNB","gid":"GNB-2-36"},"id":"GNB-2-36"},{"arcs":[[[120]],[[121]],[[122]],[[123]],[[124]],[[125]],[[126]]],"type":"MultiPolygon","properties":{"name":"Setor de Uno","shapeGroup":"GNB","gid":"GNB-2-37"},"id":"GNB-2-37"},{"arcs":[[-88,-105,127,-95,-102]],"type":"Polygon","properties":{"name":"Bissau Autonomous Sector","shapeGroup":"GNB","gid":"GNB-2-38"},"id":"GNB-2-38"}]}}}