{"type":"Topology","arcs":[[[2872,2047],[56,-46],[66,25]],[[2994,2026],[106,-103]],[[3100,1923],[-30,-29],[-8,-68]],[[3062,1826],[-2,-3]],[[3060,1823],[-74,46],[-48,-6],[-86,19],[-98,-65],[-43,0]],[[2711,1817],[-30,76],[27,64],[66,16],[2,41]],[[2776,2014],[66,43],[30,-10]],[[6043,1861],[45,-17],[14,-42],[47,-44],[-14,-89],[-35,-27],[24,-47]],[[6124,1595],[-17,-50],[-28,-17],[-23,87],[-73,3],[-13,-44],[6,-53]],[[5976,1521],[-91,-29],[-43,38],[13,76],[-17,45],[-36,-27],[-65,11]],[[5737,1635],[11,160],[12,54],[-19,30]],[[5741,1879],[0,11]],[[5741,1890],[84,66],[51,-26],[-5,-82],[31,-28],[42,2],[-5,-46],[24,-19],[74,27],[-14,53],[20,24]],[[2398,3934],[28,-49]],[[2426,3885],[-48,-97]],[[2378,3788],[-18,-96],[-37,-12],[-59,11],[-41,-31],[-73,8]],[[2150,3668],[0,124],[-51,37],[-131,10],[-26,18]],[[1942,3857],[-15,46],[15,50],[52,49],[27,48],[-3,58],[15,49],[-14,41],[21,73],[26,24]],[[2066,4295],[0,-177],[32,-83],[145,-118],[155,17]],[[1748,2589],[-30,-73]],[[1718,2516],[-58,19]],[[1660,2535],[-3,46],[42,25],[49,-17]],[[3062,1826],[55,4],[78,-21]],[[3195,1809],[91,-29],[65,-55]],[[3351,1725],[-76,-53],[-25,-48],[-58,-36],[-63,91],[-79,67]],[[3050,1746],[10,77]],[[3657,1794],[77,-61],[74,-103]],[[3808,1630],[-26,-66],[-81,-30],[-19,14]],[[3682,1548],[0,72],[-14,15],[-85,10]],[[3583,1645],[-13,62],[-24,23]],[[3546,1730],[-31,40],[17,105]],[[3532,1875],[7,11]],[[3539,1886],[78,-31],[40,-61]],[[3484,2017],[-21,-62]],[[3463,1955],[19,-78]],[[3482,1877],[-19,-32],[-63,-5],[-49,-115]],[[3351,1725],[-15,188],[-37,26]],[[3299,1939],[-35,42]],[[3264,1981],[75,-9]],[[3339,1972],[80,63],[10,36]],[[3429,2071],[7,17]],[[3436,2088],[34,-28],[14,-43]],[[5976,1521],[5,-59],[-31,-16],[15,-69],[49,-10],[32,-40],[-5,-58],[65,-93],[-14,-30],[-59,2],[-64,-42],[-108,5],[-84,-46]],[[5777,1065],[-55,44],[-18,32],[-72,-4],[-71,29]],[[5561,1166],[-59,17]],[[5502,1183],[34,92],[-33,73],[-23,5],[25,71],[2,51]],[[5507,1475],[73,34],[10,71],[57,-11],[90,66]],[[5777,1065],[-15,-28],[-93,-85],[-14,-23]],[[5655,929],[-40,2],[-51,-28]],[[5564,903],[-21,140],[18,123]],[[372,2505],[-8,-65],[18,-37],[-41,-35],[-64,29],[-13,-89],[10,-37],[-20,-102],[-20,-48]],[[234,2121],[-3,-26]],[[231,2095],[-1,-2]],[[230,2093],[-27,-24],[-60,4]],[[143,2073],[2,64],[64,53],[10,79],[-29,111],[-32,24],[21,66],[-38,72]],[[141,2542],[94,-12],[10,17]],[[245,2547],[37,-25],[29,18],[61,-35]],[[4264,1430],[60,-23]],[[4324,1407],[-22,-2],[-70,-81],[28,-29],[21,-59],[-72,-42],[-79,-28],[2,-53]],[[4132,1113],[-91,-17],[-28,44],[27,90],[0,52],[-27,56],[-4,41],[-38,-6],[-77,-55]],[[3894,1318],[-21,42],[41,40],[-9,25],[34,62],[57,6]],[[3996,1493],[23,23],[-13,62],[51,25]],[[4057,1603],[40,0],[74,-123],[-46,-29],[29,-32],[57,-3],[53,14]],[[2575,4924],[-114,74],[-36,-91]],[[2425,4907],[-17,-90],[-56,0],[-31,37],[-80,22],[-121,-8],[-27,17],[-68,80],[-23,47]],[[2002,5012],[64,43],[16,75],[-32,74],[-36,15],[-34,48],[-59,144],[-64,56],[40,35],[90,6],[57,68]],[[2044,5576],[497,1]],[[2541,5577],[1,-52],[-25,-23],[-25,-98],[46,-16],[32,-61],[75,0],[-14,-57],[46,-20],[-33,-58],[-69,-268]],[[5708,2664],[-33,-63]],[[5675,2601],[-34,29],[-29,-21],[-67,9],[-39,30],[-28,-18],[-48,7]],[[5430,2637],[-94,67]],[[5336,2704],[46,64],[53,16],[-2,67]],[[5433,2851],[11,27]],[[5444,2878],[87,-8],[60,28]],[[5591,2898],[12,-78],[45,-22],[12,-43],[-26,-45],[74,-46]],[[1458,3201],[-69,-39],[-41,8],[-46,-21]],[[1302,3149],[-74,59],[-17,32]],[[1211,3240],[-6,33],[52,74]],[[1257,3347],[26,15],[93,5],[18,12]],[[1394,3379],[15,-116],[33,-9],[16,-53]],[[6067,4530],[5,-5],[-110,-268]],[[5962,4257],[-52,4]],[[5910,4261],[-72,6],[-385,-51],[-228,-27]],[[5225,4189],[-27,10],[-15,112],[16,51],[31,38],[-91,195]],[[5139,4595],[30,19],[5,114]],[[5174,4728],[501,16]],[[5675,4744],[-20,-58],[-11,-209],[67,46],[61,-2],[95,29],[65,5],[59,-26],[76,1]],[[1497,2853],[-5,-28]],[[1492,2825],[-101,-13]],[[1391,2812],[-45,33]],[[1346,2845],[2,59]],[[1348,2904],[52,3]],[[1400,2907],[45,-50],[52,-4]],[[6868,2825],[-19,-47],[-41,-6],[-50,-62],[8,-94],[60,-78]],[[6826,2538],[-73,-37]],[[6753,2501],[-92,1],[-48,17],[-58,-15],[-32,12],[-77,-3],[-11,15],[-12,118],[66,111],[-4,22]],[[6485,2779],[65,21],[89,-42],[49,15],[81,118],[51,-5],[48,-61]],[[3198,3575],[18,-191]],[[3216,3384],[-54,24],[-65,-27],[-135,-16]],[[2962,3365],[6,101],[46,81],[20,77]],[[3034,3624],[33,-1],[55,-50],[76,2]],[[1748,2589],[1,41],[-23,36]],[[1726,2666],[56,17]],[[1782,2683],[53,-33],[41,-63]],[[1876,2587],[-9,-51],[-79,-87]],[[1788,2449],[-35,60],[-35,7]],[[4547,1776],[-24,-56],[22,-51],[51,-62],[68,8],[8,-27],[69,29],[63,77]],[[4804,1694],[92,-68]],[[4896,1626],[-43,-89],[25,-109]],[[4878,1428],[-110,31],[-45,-10],[6,-32]],[[4729,1417],[-119,3],[-6,-77],[-45,-7]],[[4559,1336],[-14,84]],[[4545,1420],[-11,83],[-41,38],[-20,57],[-30,29],[20,125]],[[4463,1752],[32,27],[52,-3]],[[245,2547],[63,112],[38,30],[4,32],[65,70],[78,1]],[[493,2792],[8,-36],[-33,-42],[-7,-67],[-28,-42]],[[433,2605],[-7,-72]],[[426,2533],[-54,-28]],[[5675,4744],[53,27],[64,-5],[35,53],[7,93],[48,-5],[151,57],[30,28],[85,36]],[[6148,5028],[25,25],[54,16],[22,-33],[64,26],[32,-6]],[[6345,5056],[-14,-62],[-43,-32],[-125,-253]],[[6163,4709],[-87,-175],[-9,-4]],[[2851,4776],[16,-39],[-36,-51],[1,-72],[43,-22],[12,-62],[57,5],[26,-33],[11,-66],[31,-53],[40,-38],[26,-52],[6,-67],[-13,-59]],[[3071,4167],[-90,-55],[-77,-4],[-135,-33],[-29,34],[-102,-25],[-110,-8],[-34,-38]],[[2494,4038],[-2,44],[44,51],[72,0],[53,21],[14,40],[65,53],[-10,38],[-32,27],[13,54],[-35,39],[-80,32],[19,74],[-16,117],[17,93],[-8,68],[-39,98]],[[2569,4887],[134,-43],[110,-71],[38,3]],[[918,1177],[-195,147],[-271,236]],[[452,1560],[95,37],[96,-11],[53,30],[89,4],[109,42],[119,-96],[-39,-46],[62,-166],[-11,-30],[-69,-42],[-13,-60],[-25,-45]],[[1942,3857],[-53,17],[-123,-23],[-95,56],[-61,10]],[[1610,3917],[37,106],[-15,73],[1,58]],[[1633,4154],[0,106],[16,52],[43,38],[-7,84]],[[1685,4434],[51,23],[34,-28],[59,60],[88,-14],[112,38],[59,45],[151,-10],[25,-10]],[[2264,4538],[-5,-23],[-57,-28],[-30,10],[-23,-41],[20,-46],[-103,-72],[0,-43]],[[2074,2136],[-35,-32],[83,-52]],[[2122,2052],[-5,-62],[37,-25],[26,-51],[0,-43]],[[2180,1871],[-53,-37],[-15,-29],[-59,-34]],[[2053,1771],[-46,-118],[-58,-75],[-8,-84],[-24,-53],[-59,-41],[-25,14]],[[1833,1414],[59,138],[-10,34],[17,73],[42,47],[-4,38]],[[1937,1744],[51,30],[34,44],[31,87],[-61,-17],[-48,13]],[[1944,1901],[5,62],[-58,9],[-18,28]],[[1873,2000],[5,46]],[[1878,2046],[16,96]],[[1894,2142],[70,5],[18,17]],[[1982,2164],[24,-32],[55,37],[13,-33]],[[3600,4421],[29,-40],[34,-86],[8,-76],[-72,-49]],[[3599,4170],[-33,-39],[1,-53],[-28,-28],[-88,19],[-35,-56],[9,-73],[41,-55],[73,-15],[22,-18],[120,-28],[161,0],[95,-40],[8,-63],[-20,-39]],[[3925,3682],[-15,-37]],[[3910,3645],[-31,-17],[-36,-53],[-13,-46],[-33,9]],[[3797,3538],[-18,64],[-167,6],[-9,146],[-96,97],[-20,-33]],[[3487,3818],[-15,15],[-268,-32],[-113,39],[14,27],[61,21],[128,3],[11,39],[-25,51],[2,58],[-81,-13],[20,88],[-20,43],[26,72],[-16,41],[47,51],[103,10],[26,28],[40,-2],[60,19],[74,45],[39,0]],[[2843,3141],[10,-43]],[[2853,3098],[2,-100],[-94,-44]],[[2761,2954],[-32,42],[-69,-51],[-87,-5],[-51,-17],[-33,-31]],[[2489,2892],[-5,24],[61,83],[21,95],[41,67],[25,8]],[[2632,3169],[61,-45],[30,-40],[59,16],[61,41]],[[2761,2954],[-30,-73],[18,-35]],[[2749,2846],[-32,-58],[10,-63],[-37,-45],[3,-68],[35,-28],[-57,-28],[-51,-9]],[[2620,2547],[-27,22],[-41,-75],[-18,-1]],[[2534,2493],[-56,54]],[[2478,2547],[69,84],[-67,69],[-50,10],[-11,49],[-32,4]],[[2387,2763],[-80,101]],[[2307,2864],[23,13],[94,2]],[[2424,2879],[65,13]],[[3342,2407],[-27,-37]],[[3315,2370],[-67,-32],[-49,-106],[-1,-114]],[[3198,2118],[-68,58],[-58,22]],[[3072,2198],[16,62],[98,52],[17,38]],[[3203,2350],[96,55],[43,2]],[[4013,2308],[-73,-78],[-47,9],[-54,-28]],[[3839,2211],[24,45],[-15,56]],[[3848,2312],[27,48],[-13,37],[-40,5],[-7,32],[61,5],[5,75]],[[3881,2514],[34,33]],[[3915,2547],[12,-103],[36,-17],[4,-69],[46,-50]],[[2632,3169],[-9,76]],[[2623,3245],[95,17],[69,-6]],[[2787,3256],[19,-2]],[[2806,3254],[19,-32],[18,-81]],[[5708,2664],[71,58]],[[5779,2722],[46,-31],[53,12],[129,-4]],[[6007,2699],[112,-3],[26,-14]],[[6145,2682],[71,-7],[23,-63],[28,-17],[-13,-57],[-47,16],[-14,-28],[53,-40]],[[6246,2486],[5,-53],[-64,-65]],[[6187,2368],[-32,-17],[-6,-45],[-84,10]],[[6065,2316],[-23,71],[-134,68],[-37,-26],[-110,-12]],[[5761,2417],[-47,-9],[-60,8]],[[5654,2416],[38,73],[-21,86],[4,26]],[[4267,1063],[59,-96],[2,-98],[28,-9]],[[4356,860],[25,-52],[-8,-66],[79,-20]],[[4452,722],[-1,-83]],[[4451,639],[-57,-13],[-34,-38],[29,-94],[47,-40],[71,-22],[6,-34],[40,-54],[0,-42],[-28,-55],[-40,-28],[6,-102]],[[4491,117],[-254,119],[-214,91]],[[4023,327],[20,57],[25,22],[12,67],[-12,134],[58,9],[-13,48],[29,117],[-9,80],[-22,77]],[[4111,938],[15,14],[-28,78],[47,35],[97,-10],[11,12]],[[4253,1067],[14,-4]],[[4743,5442],[-19,-47],[9,-41],[-55,-43],[-80,76],[-43,-46],[-50,-5],[18,-52],[-49,-128],[66,-17],[-29,-29],[56,-22],[46,-44],[68,-5],[34,-109],[70,14],[57,-30],[65,-2],[80,-74],[139,22]],[[5126,4860],[22,-34],[-15,-54]],[[5133,4772],[-115,-9],[-150,46],[-39,21],[-204,31],[-118,-167],[-41,22],[-127,19]],[[4339,4735],[-228,164],[-225,459]],[[3886,5358],[21,9],[20,63],[35,-18],[71,34],[38,31],[-42,99]],[[4029,5576],[518,-69],[196,-65]],[[3881,2514],[-16,25],[-62,-5],[10,97],[34,9],[3,53],[-33,41]],[[3817,2734],[92,26]],[[3909,2760],[44,-25],[80,-4],[23,64]],[[4056,2795],[52,3],[33,-87]],[[4141,2711],[-24,-20],[4,-48]],[[4121,2643],[-47,-49]],[[4074,2594],[-117,-6],[-42,-41]],[[3195,1809],[-2,20],[67,30],[1,53]],[[3261,1912],[38,27]],[[234,2121],[46,35],[28,45],[25,2],[24,62],[28,-8],[45,60],[83,22]],[[513,2339],[59,-13],[49,7],[79,34],[18,-10]],[[718,2357],[45,-20],[115,9],[42,-5]],[[920,2341],[57,-59]],[[977,2282],[-47,-36],[-43,9],[-102,-50],[9,-52],[-68,-91],[10,-46],[87,-31]],[[823,1985],[-57,-22],[-91,1],[-59,-68]],[[616,1896],[-58,9],[-131,68]],[[427,1973],[-2,47],[-67,38],[-12,-26],[-115,63]],[[3600,4421],[13,48],[-35,55],[-50,41],[-147,25],[-92,36],[-36,36]],[[3253,4662],[27,27],[-19,45],[7,51],[-71,2],[16,63],[28,8],[62,135],[47,27],[39,47],[-15,47],[-49,23],[13,62],[34,31],[-47,80],[42,10],[31,38],[32,-23],[25,96],[39,21],[30,42],[79,2],[44,-39],[103,-60],[37,13],[51,-10],[48,-42]],[[4339,4735],[-50,-129],[-84,-77],[103,-218],[-1,-96],[-53,-91],[26,-73]],[[4280,4051],[-44,-103],[54,-57],[129,52],[14,-84]],[[4433,3859],[1,-64]],[[4434,3795],[-259,67]],[[4175,3862],[14,55],[-126,53]],[[4063,3970],[-83,37],[25,73],[-406,90]],[[920,2341],[24,29],[70,22],[29,124]],[[1043,2516],[48,86],[62,21]],[[1153,2623],[8,-34],[-15,-88],[35,-50],[-27,-62],[45,-22],[31,39],[51,-25],[-1,-53]],[[1280,2328],[-75,-58],[-21,-73]],[[1184,2197],[-46,36],[-38,-76],[-9,-126],[-53,9],[-19,-43],[9,-44]],[[1028,1953],[-53,25],[8,80],[37,102],[36,32],[7,49],[-80,-45],[-20,22]],[[963,2218],[14,64]],[[1304,4124],[-85,-146],[-5,-20]],[[1214,3958],[-40,28],[-79,22]],[[1095,4008],[3,94],[21,61]],[[1119,4163],[53,17]],[[1172,4180],[25,-38],[72,1],[35,-19]],[[3087,2553],[-19,-109],[60,-65]],[[3128,2379],[-43,-29],[-3,-48],[-79,-20]],[[3003,2282],[-45,37],[-47,17]],[[2911,2336],[0,53],[27,38],[-16,65]],[[2922,2492],[32,24]],[[2954,2516],[133,37]],[[5245,1003],[56,-5]],[[5301,998],[21,-43],[55,-45],[25,-38],[2,-65],[-61,-3],[-21,-31],[18,-32]],[[5340,741],[-16,-24],[-54,5],[-30,-20]],[[5240,702],[-38,56],[-111,46],[-18,49],[73,74],[-24,52],[-71,37]],[[5051,1016],[40,80],[32,-36],[52,55],[55,-60],[15,-52]],[[1211,3240],[-7,-60],[15,-54],[-23,-31]],[[1196,3095],[-49,50],[-85,-9],[-54,-30]],[[1008,3106],[-30,30],[-20,63]],[[958,3199],[45,13],[47,73],[6,88],[-40,28],[-19,65]],[[997,3466],[79,9],[52,19]],[[1128,3494],[-19,-50],[30,-65],[66,5],[52,-37]],[[2534,2493],[-16,-38]],[[2518,2455],[-44,-15]],[[2474,2440],[-43,45],[0,32],[47,30]],[[1426,2684],[23,-33],[-5,-53]],[[1444,2598],[-51,-14],[-54,42],[-21,38]],[[1318,2664],[65,26],[43,-6]],[[1592,4616],[-12,-80]],[[1580,4536],[-35,15],[-171,-11],[-44,-16],[-99,-105]],[[1231,4419],[0,1]],[[1231,4420],[-16,82],[-86,30]],[[1129,4532],[-30,64],[31,21]],[[1130,4617],[43,-23],[43,10],[45,43],[101,21]],[[1362,4668],[173,-58],[57,6]],[[6043,1861],[18,16]],[[6061,1877],[51,24],[5,46],[67,-13],[82,18],[46,41]],[[6312,1993],[67,-55],[15,-105],[1,-88],[82,-22]],[[6477,1723],[11,-47],[-14,-45],[-40,18],[-45,49],[-32,-46],[-61,-47],[-81,40],[-91,-50]],[[1101,3832],[-8,-49],[-65,-49],[8,-45],[-57,-78],[-51,-3],[-16,-31]],[[912,3577],[-65,-45],[-34,20],[-84,-12]],[[729,3540],[-20,69],[-67,17],[-13,60],[-43,33]],[[586,3719],[51,58],[43,3],[126,96]],[[806,3876],[132,-76],[58,1],[77,36],[28,-5]],[[5139,576],[-25,-26],[-87,-34],[-57,-45],[-24,-48]],[[4946,423],[-6,103],[-36,77],[-39,22],[11,125]],[[4876,750],[57,76],[54,-35],[83,-23],[2,-77],[39,-53],[28,-62]],[[3198,3575],[51,10],[21,-36],[62,-5],[50,102],[-45,31],[19,55],[62,-40],[69,126]],[[3797,3538],[-18,-24],[12,-60],[-43,-29],[-35,-63],[6,-63],[68,-102],[-5,-69],[-72,-57],[9,-44]],[[3719,3027],[-91,-58],[-25,-46],[-58,12]],[[3545,2935],[11,69],[-53,54],[-172,132],[-48,79]],[[3283,3269],[-67,115]],[[4324,1407],[24,-40],[64,-28],[31,17],[50,-4],[52,68]],[[4559,1336],[-10,-26],[15,-89]],[[4564,1221],[-49,-36],[62,-26],[-13,-148]],[[4564,1011],[-100,25],[-15,141],[-89,3],[-15,-87],[-78,-30]],[[4253,1067],[-29,22],[-92,24]],[[586,3719],[-39,75],[46,87],[-17,97],[-65,53],[-33,48],[-151,29]],[[327,4108],[32,52],[176,322]],[[535,4482],[53,-30],[136,-115],[76,-98],[20,-45],[18,-129]],[[838,4065],[4,-53],[-36,-91],[0,-45]],[[2426,3885],[183,62],[44,33],[84,10],[28,-20],[49,1],[104,33],[48,-13],[69,22]],[[3035,4013],[1,-68],[-24,-124]],[[3012,3821],[-215,-21],[-33,-11]],[[2764,3789],[-168,-8],[-31,23],[-80,3],[-46,-29],[-61,10]],[[1592,1971],[-8,-58],[-42,-109],[6,-65],[-23,-45],[9,-68],[18,-12]],[[1552,1614],[18,-82]],[[1570,1532],[-92,13],[-23,-21]],[[1455,1524],[18,70],[9,192],[-19,120],[41,111],[43,70]],[[1547,2087],[0,-95],[45,-21]],[[6897,7355],[-57,-916]],[[6840,6439],[-60,-5],[-67,-39],[-42,-44],[-55,-18],[-11,-34],[-52,-21],[-52,1],[-47,42],[-54,4],[-28,39],[-63,3],[-27,-28],[-67,23],[-144,-38],[-20,-37],[-47,-5],[-53,31],[-47,5],[-69,79]],[[5835,6397],[8,93],[56,-5],[30,24],[34,-12],[19,89],[59,-3],[12,34],[-30,37],[20,108],[-48,52],[76,72],[-12,61]],[[6059,6947],[50,-1],[66,26],[59,44],[72,21],[36,-15],[51,27],[39,106],[-23,64],[27,38],[-12,33],[17,60],[34,64],[-16,85],[29,25],[9,48],[31,30]],[[6528,7602],[2,-247],[367,0]],[[5245,1003],[41,61],[89,11],[63,34]],[[5438,1109],[5,-75]],[[5443,1034],[10,-21],[-152,-15]],[[1184,2197],[-22,-45],[-5,-92],[24,-42],[-20,-55],[19,-42]],[[1180,1921],[-26,-62],[-123,-38],[-40,6]],[[991,1827],[7,68],[30,58]],[[5835,6397],[-70,46],[-113,-19],[-32,18],[-90,-25],[-37,-41],[-34,0],[-38,-114],[-41,-46],[-55,-37],[-45,4]],[[5280,6183],[-56,42],[16,27],[6,116],[-40,-38]],[[5206,6330],[6,148],[-11,9],[37,183],[-13,25],[21,65],[155,-2],[16,166],[94,40],[36,-34],[51,17],[27,28],[36,-59],[61,-28],[80,52]],[[5802,6940],[74,140],[45,-32],[109,-33],[73,-30],[-44,-38]],[[3909,2760],[-36,40],[15,63],[-80,49],[2,93],[48,24]],[[3858,3029],[13,30],[57,0],[47,-20],[36,-39]],[[4011,3000],[16,-25],[-23,-111],[52,-69]],[[6163,4709],[82,-123],[172,12],[40,-14],[114,4],[19,10],[321,-11],[136,-193]],[[7047,4394],[-63,1],[-56,-37],[-78,36],[-17,-20],[-67,4],[-49,-34],[2,-34],[-47,-54],[-71,-8],[-30,32],[-138,-54],[-40,-70],[10,-47],[91,1],[53,-82],[-5,-53],[-38,-25],[28,-59],[46,-27],[70,33],[32,66],[105,39]],[[6785,4002],[2,-53],[34,-40],[-27,-100],[11,-43],[-34,-62]],[[6771,3704],[-80,18],[-72,-10],[-42,-50],[-121,11],[-45,-25],[-57,-97],[-29,-26],[-97,-42]],[[6228,3483],[-159,-57],[-63,18],[-112,-50],[-30,3]],[[5864,3397],[30,59],[84,132],[19,59],[-1,63],[23,47],[50,17],[-27,42],[14,30],[52,20],[-15,53],[24,85],[-43,20],[37,68],[-29,31],[-36,-26],[-22,28],[-76,27],[50,50],[-36,55]],[[5336,2704],[-51,4],[-105,-63]],[[5180,2645],[-109,-22],[-44,33],[37,47],[-11,41]],[[5053,2744],[17,65],[136,1]],[[5206,2810],[59,-1],[32,20],[136,22]],[[1557,2394],[31,-105],[-2,-33]],[[1586,2256],[-73,-76],[-50,-9],[-16,-42],[-36,7],[9,47],[-41,0],[-28,-79],[-34,-31]],[[1317,2073],[-32,107],[0,148]],[[1285,2328],[1,63],[88,52],[37,-3],[52,65]],[[1463,2505],[36,-93],[58,-18]],[[5487,1494],[-52,-36],[-2,-65],[-28,-63],[-70,30],[-21,27],[-1,91],[-30,65],[41,28],[-58,85]],[[5266,1656],[8,62],[58,20]],[[5332,1738],[18,-62],[90,-52],[-27,-57],[13,-42],[61,-31]],[[718,2357],[16,42]],[[734,2399],[26,-18],[58,12],[123,94],[40,95],[-3,43],[43,79]],[[1021,2704],[42,-58]],[[1063,2646],[-29,-74],[9,-56]],[[493,2792],[11,15]],[[504,2807],[39,24],[89,16],[32,27]],[[664,2874],[13,-28],[-37,-31]],[[640,2815],[-26,-28],[-87,-146],[-94,-36]],[[3315,2370],[9,-16]],[[3324,2354],[-33,-81],[25,-79],[-40,-44]],[[3276,2150],[-20,-26]],[[3256,2124],[-58,-6]],[[640,2815],[40,-43],[82,-17],[27,25]],[[789,2780],[59,-40],[75,25]],[[923,2765],[-19,-54],[-102,-79],[-90,-28],[-77,-120],[-29,-20]],[[606,2464],[-69,56],[-66,34],[-45,-21]],[[3351,1725],[19,-105],[-53,-132],[-4,-37],[62,-36],[56,53],[27,-11]],[[3458,1457],[-39,-63],[54,-21],[7,-84],[-46,-62],[69,-1],[34,17]],[[3537,1243],[-26,-75],[5,-80],[39,-79],[-61,5],[-8,-42],[-148,25]],[[3338,997],[-46,63],[15,54],[-35,22],[1,53],[-85,17],[-76,-100],[-87,-51]],[[3025,1055],[15,42],[-2,74],[-38,97]],[[3000,1268],[-50,30],[29,31],[-8,42],[80,28],[-41,139],[24,92],[6,114]],[[3040,1744],[10,2]],[[6826,2538],[65,-65],[5,-104],[78,-46],[-35,-83],[-21,-17],[23,-104],[-2,-37],[-30,-92],[-38,-2],[-57,25],[-79,6],[-75,-95],[-35,-67],[-37,-25],[-15,-44],[-97,-45],[1,-20]],[[6312,1993],[39,28],[81,10],[7,103],[12,34]],[[6451,2168],[58,12],[64,-24],[71,59],[-11,54],[57,24],[35,50],[32,75]],[[6757,2418],[32,43],[-36,40]],[[789,2780],[25,38],[3,60]],[[817,2878],[79,46],[86,-59],[-22,-53]],[[960,2812],[-37,-47]],[[6023,3086],[-7,-80],[16,-46],[-53,-39]],[[5979,2921],[-56,10],[-39,-55],[-10,-69],[-65,-8]],[[5809,2799],[-23,49],[7,28],[-35,59]],[[5758,2935],[13,63]],[[5771,2998],[108,28],[18,37],[90,42],[36,-19]],[[6523,7827],[-129,-70],[-46,4],[-102,-68],[-131,-20],[-82,-6],[-171,25],[-64,51],[-85,-29],[-18,-112],[-34,-30],[-86,-6],[-115,-19],[-105,16]],[[5355,7563],[-97,0]],[[5258,7563],[-3,72],[-27,12]],[[5228,7647],[35,66]],[[5263,7713],[65,62],[25,8],[97,-15],[137,14],[55,-31],[53,29],[-1,1002],[2,963]],[[5696,9745],[817,-3]],[[6513,9742],[4,-1041],[6,-874]],[[963,2218],[-47,-63],[-19,-48],[-36,-30],[-38,-92]],[[3996,1493],[-20,81],[-21,29],[10,87],[-25,73],[22,101]],[[3962,1864],[54,7],[9,40],[38,18]],[[4063,1929],[29,-43],[46,-18],[16,-76],[18,-23]],[[4172,1769],[-50,21],[-29,-131]],[[4093,1659],[-36,-56]],[[5174,4728],[-41,44]],[[5126,4860],[37,109],[23,36],[-35,83],[-87,75],[-8,76],[-55,30],[16,46],[-19,34],[54,38]],[[5052,5387],[111,-53],[21,3],[89,-65],[87,-98],[63,14],[64,-5],[50,37],[29,-6],[29,71],[136,71],[18,-22],[61,5],[38,101],[74,-13],[54,11],[25,35],[93,52],[52,-27],[2,-470]],[[991,1827],[-19,-25],[-55,0],[-108,48],[-44,-6],[-50,44],[-99,8]],[[3817,2734],[-69,-26]],[[3748,2708],[-111,9]],[[3637,2717],[-6,20]],[[3631,2737],[17,57],[-43,31],[-21,62],[-39,48]],[[3719,3027],[35,-16],[79,25],[25,-7]],[[6771,3704],[10,-39],[63,22],[32,-38],[2,-141],[-102,-64],[55,-21],[10,-49],[24,-24],[4,-64],[-18,-24],[25,-46],[48,-43]],[[6924,3173],[-17,-57],[-50,-93]],[[6857,3023],[-103,-1],[-44,33],[-97,-30],[-81,10]],[[6532,3035],[15,37],[-58,20],[-60,4],[-9,77],[-52,-29],[-74,3],[-32,52],[-44,-5]],[[6218,3194],[-6,54],[29,61],[34,8],[2,83],[-49,83]],[[3537,1243],[69,-12],[52,30],[19,74]],[[3677,1335],[38,-28],[11,-73],[-21,-33]],[[3705,1201],[-25,-80],[-16,-92]],[[3664,1029],[-84,-84],[15,-59],[-28,-33],[34,-74],[-3,-36],[-61,-1],[10,-52],[-36,-16]],[[3511,674],[-80,-6]],[[3431,668],[19,34],[-43,148],[-78,47],[-9,27],[18,73]],[[5180,2645],[-20,-31],[25,-31]],[[5185,2583],[-51,-24],[-22,-39],[-95,27]],[[5017,2547],[-72,5],[-130,-44],[-35,33]],[[4780,2541],[-112,93],[-41,23],[3,69]],[[4630,2726],[77,14],[66,58],[69,2]],[[4842,2800],[62,-2],[38,14],[25,-66],[37,-21],[49,19]],[[4013,2308],[92,10]],[[4105,2318],[31,8],[37,-35],[-23,-73],[10,-94],[-11,-21]],[[4149,2103],[-36,-13]],[[4113,2090],[-61,-2],[-83,-48],[-25,-36],[-76,-11],[-18,-33]],[[3850,1960],[-30,-55]],[[3820,1905],[-42,17]],[[3778,1922],[-11,86],[-40,-2]],[[3727,2006],[16,42],[-4,67],[17,58],[83,38]],[[4023,327],[-20,7]],[[4003,334],[27,59],[-32,19],[4,61],[29,12],[2,79],[-62,8],[32,41],[6,78],[26,126],[-5,57],[16,46],[39,26]],[[4085,946],[26,-8]],[[2150,3668],[-40,-18],[-59,1],[16,-38]],[[2067,3613],[-18,-33],[-42,-4],[-47,-33]],[[1960,3543],[-27,61],[-20,158],[-44,21],[-75,7],[-59,-15],[-39,11],[-129,10]],[[1567,3796],[18,59]],[[1585,3855],[25,62]],[[1458,3201],[25,-50],[-55,-2],[-4,-47],[-26,-33]],[[1398,3069],[-43,-30],[-66,39]],[[1289,3078],[13,71]],[[5591,2898],[11,11]],[[5602,2909],[35,16],[79,-5],[42,15]],[[5809,2799],[-30,-77]],[[5741,1890],[-28,65]],[[5713,1955],[14,46],[34,43],[-5,41],[22,28],[7,59],[34,72]],[[5819,2244],[62,15],[49,-45],[75,-3]],[[6005,2211],[29,-15],[11,-78]],[[6045,2118],[-43,-59],[28,-104],[31,-78]],[[2541,5577],[1488,-1]],[[3253,4662],[-37,39],[-59,-46],[-52,-2],[-110,56],[-64,74],[-80,-7]],[[2569,4887],[6,37]],[[883,3187],[-53,-14]],[[830,3173],[-10,68],[16,25],[-21,50],[-77,6],[-33,-29],[-61,9],[1,51],[-50,-26],[-78,-13]],[[517,3314],[36,99]],[[553,3413],[110,31]],[[663,3444],[61,6],[27,30]],[[751,3480],[24,5],[62,-65],[15,-120],[58,-36],[-27,-77]],[[1095,4008],[31,-69],[33,-25],[-2,-52],[24,-35]],[[1181,3827],[-62,17],[-18,-12]],[[838,4065],[28,65],[4,67]],[[870,4197],[69,42],[53,15]],[[992,4254],[-5,-35],[118,-60],[14,4]],[[3511,674],[36,-231]],[[3547,443],[-198,-2]],[[3349,441],[-16,70]],[[3333,511],[74,14],[26,55],[-2,88]],[[1130,4617],[31,55],[5,54],[-20,24],[-76,39]],[[1070,4789],[-48,58],[-103,57],[-99,91]],[[820,4995],[3,7]],[[823,5002],[40,5],[45,-26],[69,-1],[44,-23],[35,-45],[47,-9],[45,40]],[[1148,4943],[34,-7],[39,-49],[27,-64],[84,-71],[30,-84]],[[5185,2583],[14,-42],[-9,-68],[9,-49],[-18,-102],[-28,-96],[-8,-118],[35,-42],[18,-79]],[[5198,1987],[-35,-46],[9,-42],[-107,-193]],[[5065,1706],[-19,-31],[-91,-25]],[[4955,1650],[-18,60],[39,55],[-50,86],[-25,12],[-95,4],[-40,21]],[[4766,1888],[-63,99],[-9,81],[-74,36],[-28,115]],[[4592,2219],[54,66]],[[4646,2285],[90,16],[56,27],[36,-25],[59,-2],[6,47],[35,30],[21,94],[68,75]],[[5240,702],[-5,-46],[-47,-21],[-6,-27],[-43,-32]],[[4876,750],[-34,31]],[[4842,781],[42,111],[-60,102],[27,73],[-29,38]],[[4822,1105],[-17,47],[48,10],[20,32]],[[4873,1194],[80,-60]],[[4953,1134],[30,-42],[-9,-57],[77,-19]],[[5655,929],[-59,-161],[-2,-61],[-61,-8],[-72,57]],[[5461,756],[16,37],[33,5],[8,54]],[[5518,852],[19,55],[27,-4]],[[6757,2418],[-86,-19],[-31,-20],[-93,2],[-31,31],[-42,-20],[-31,-43]],[[6443,2349],[-37,0],[-31,79],[-43,31],[18,29],[-54,31],[-50,-33]],[[6145,2682],[29,65],[50,25],[86,14],[44,-8]],[[6354,2778],[67,-20],[64,21]],[[3339,1972],[3,47],[46,52]],[[3388,2071],[41,0]],[[2853,3098],[131,-10],[28,-24],[133,7],[23,60],[115,138]],[[3545,2935],[-20,-25],[-52,-116]],[[3473,2794],[-111,15],[-63,29],[-61,-11],[-114,9],[-57,21],[-63,-14]],[[3004,2843],[-70,-22],[-19,9]],[[2915,2830],[-49,3],[-24,23],[-57,7],[-36,-17]],[[5502,1183],[-49,-32],[-15,-42]],[[4953,1134],[24,32],[50,-3],[17,69],[32,51],[-51,24],[-68,11],[-14,40],[31,83],[-96,-13]],[[4896,1626],[59,24]],[[5065,1706],[105,20],[96,-70]],[[5487,1494],[20,-19]],[[427,1973],[-60,-27],[-10,-27],[-49,-36],[-27,-62],[-44,17],[-22,-38],[-42,-15]],[[173,1785],[-53,36]],[[120,1821],[46,68],[30,19],[18,80],[-14,68],[30,37]],[[3025,1055],[-6,-53],[-26,-69],[-4,-73],[13,-72],[-27,-3],[-7,-58],[-24,-48]],[[2944,679],[-29,-40],[2,-34],[-86,-10],[-13,-57]],[[2818,538],[-65,21]],[[2753,559],[91,231],[-91,19],[-4,80],[12,38],[87,75],[6,26],[-42,28]],[[2812,1056],[13,123],[-26,97]],[[2799,1276],[76,0],[11,-34],[45,27],[41,-31],[28,30]],[[870,4197],[-23,113],[-69,121],[-50,47],[-54,30],[-109,27]],[[565,4535],[132,239]],[[697,4774],[37,-98],[32,-9],[67,24],[44,-20],[61,-82]],[[938,4589],[5,-86],[56,-132]],[[999,4371],[-7,-117]],[[1527,2731],[-1,-34],[-36,-32]],[[1490,2665],[-27,32]],[[1463,2697],[-14,22]],[[1449,2719],[33,47]],[[1482,2766],[45,-35]],[[2753,559],[-37,35],[-74,13],[-53,-7],[-331,42],[-43,-23],[-42,0],[-27,29]],[[2146,648],[35,90],[54,75],[70,119],[28,9],[18,41],[41,43]],[[2392,1025],[50,26],[107,-81],[60,50],[36,-3],[23,71],[144,-32]],[[535,4482],[30,53]],[[4616,8050],[-1,-654],[379,1]],[[4994,7397],[-65,-44],[-80,-12],[-91,-77],[-71,-128],[-19,-96]],[[4668,7040],[-125,0],[-5,64],[-40,0],[22,122],[-121,8],[-58,13],[-37,46],[-38,-13],[-177,26],[-3,-146],[-200,1],[-180,22],[6,97],[-64,-13],[-4,-125],[-52,77],[-88,57],[-114,33],[30,59],[-36,34],[-93,2],[7,104],[-168,30],[-45,60],[-48,42],[-48,4],[-56,-57],[-164,17],[-198,152],[-229,197],[-95,229],[-35,34],[-206,172]],[[2006,8388],[805,0],[0,65]],[[2811,8453],[32,-41],[55,-5],[69,-33],[52,32],[65,16],[10,-36],[44,8],[137,-66],[49,19],[7,48],[96,32],[56,70],[85,26],[94,-8],[70,-43],[59,-6],[56,-25],[38,-47],[53,-30],[55,-63],[24,-91],[26,40],[44,-7],[64,20],[26,28],[106,43],[333,-284]],[[734,2399],[45,41],[34,65],[63,22],[32,91],[-7,54],[18,31],[50,30],[21,48]],[[990,2781],[31,-77]],[[6354,2778],[24,69],[58,28],[96,79],[0,81]],[[6857,3023],[13,-30],[50,-31],[-23,-81],[-29,-56]],[[3657,1794],[75,-7]],[[3732,1787],[19,-10]],[[3751,1777],[7,-71],[63,-13],[-13,-63]],[[2408,2407],[47,-38]],[[2455,2369],[54,-78]],[[2509,2291],[10,-91],[-37,-22],[-5,-39]],[[2477,2139],[-40,55]],[[2437,2194],[-36,40],[-109,-30],[-47,-99],[-38,12]],[[2207,2117],[47,69],[-13,43],[-93,54]],[[2148,2283],[3,42]],[[2151,2325],[25,8]],[[2176,2333],[61,30]],[[2237,2363],[98,29]],[[2335,2392],[73,15]],[[5225,4189],[-110,4]],[[5115,4193],[-58,-13],[-53,42],[-45,1],[-48,-27],[-41,14],[5,236],[264,149]],[[4668,7040],[-13,-60],[-39,-59],[-68,-9],[-60,-27],[-4,-121],[-34,-22]],[[4450,6742],[-82,22],[-44,-43],[-94,77],[13,38],[-66,4],[17,-56],[-85,-4],[-35,-41],[-46,2],[-48,-29],[45,-38],[-13,-65],[-60,46],[-31,-47],[-23,23],[-35,-23],[-6,-64],[-51,2]],[[3806,6546],[-101,-26],[-12,43],[-63,81],[-55,-7],[-7,64],[12,50],[-47,33],[22,38],[-18,78],[10,31],[-42,51],[-13,66],[-58,38],[-5,47],[-103,66],[-7,21],[-93,36],[-3,53],[-82,-7],[-102,70],[-82,-7],[-34,93],[-48,40],[5,36],[-35,22],[-31,-30],[-47,-12],[-117,34],[-11,52],[-79,101],[-43,27],[-7,64],[-69,5],[-57,31],[-37,51],[-46,37],[-10,65],[-33,48],[-78,20],[-11,74],[16,69],[-29,25],[-118,-5],[-106,65],[-63,-1],[-54,34],[-28,77],[219,1]],[[7987,4878],[-32,-35],[-49,-21],[-37,-40],[34,-73],[99,-22],[-16,-65],[-57,-39],[-16,-105],[-27,-62]],[[7886,4416],[-84,-35],[-230,-9],[-86,-47],[-90,26],[-42,-22],[-52,2]],[[7302,4331],[-43,91],[2,42],[51,39],[-28,40],[4,58],[89,18],[36,52],[35,2],[54,-30],[34,58],[39,20],[45,65],[6,38],[43,39],[42,-9],[28,26],[34,-16],[23,64],[29,26],[49,8],[113,-84]],[[6345,5056],[54,30],[24,88],[25,27],[64,8],[102,-14],[97,5],[52,-48]],[[6763,5152],[26,-3],[87,45],[32,-35],[74,1],[59,31],[96,-8],[41,13],[49,-12],[-2,-37],[66,20],[74,-35],[115,13],[55,-76],[101,5],[19,22],[76,-32],[105,-74],[-79,-109],[-38,-1],[-17,-20],[-24,6],[-31,36],[-61,-20],[-32,-86],[-172,-86],[17,-38],[-20,-26],[-82,-20],[-27,-19],[-20,-96],[-42,0],[-84,-65],[-12,-28],[-65,-24]],[[6785,4002],[31,-17],[113,-9],[60,8],[102,47],[18,32],[78,52],[35,56],[86,72]],[[7308,4243],[21,-93],[-9,-34],[-133,-57],[19,-63],[54,18],[12,-25],[104,-13],[45,-76],[41,-23],[-28,-56],[2,-73],[-56,-40],[58,-34],[46,3],[32,-67],[45,-67]],[[7561,3543],[-236,-207],[-362,-144],[-39,-19]],[[3532,1875],[-50,2]],[[3463,1955],[94,-7]],[[3557,1948],[-18,-62]],[[141,2542],[-8,105],[24,32],[48,19],[26,69],[-16,31],[-9,85],[9,69],[-14,23],[57,72],[57,-12],[45,49]],[[360,3084],[20,-38],[-6,-38],[72,-23]],[[446,2985],[16,-11],[5,-93],[-19,-29],[7,-47],[49,2]],[[1960,3543],[-34,-29],[-12,-167]],[[1914,3347],[-182,-4],[-97,17]],[[1635,3360],[-19,147],[-109,44]],[[1507,3551],[-37,26],[-88,0],[-18,28]],[[1364,3605],[47,166],[88,2],[68,23]],[[3333,511],[-50,9],[-46,52],[-68,-8],[-7,63],[-78,1],[8,28],[-28,37],[-51,-18],[-69,4]],[[4463,1752],[-35,19]],[[4428,1771],[-14,50],[-61,6]],[[4353,1827],[35,47],[50,20],[-30,104],[19,34],[44,-2],[24,47]],[[4495,2077],[14,26],[-1,75],[43,45]],[[4551,2223],[41,-4]],[[4766,1888],[-28,-47],[0,-51]],[[4738,1790],[-134,4],[-57,-18]],[[1592,1971],[52,-11],[19,85]],[[1663,2045],[16,-3]],[[1679,2042],[-7,-74],[48,-17],[-5,-40]],[[1715,1911],[5,-47]],[[1720,1864],[-6,-35],[-62,-18]],[[1652,1811],[5,47],[-37,15],[-9,-72]],[[1611,1801],[-27,-129],[-32,-58]],[[6528,7602],[-5,225]],[[6513,9742],[405,-3],[6,-1094],[6,-625],[-5,-203],[-28,-462]],[[3727,2006],[-76,8]],[[3651,2014],[-53,42],[-15,62]],[[3583,2118],[11,64]],[[3594,2182],[19,25],[46,-1],[55,21],[64,44],[44,47]],[[3822,2318],[26,-6]],[[2067,3613],[14,-31]],[[2081,3582],[-16,-88]],[[2065,3494],[-25,-31],[1,-44],[27,-48],[43,-5],[28,-26]],[[2139,3340],[-26,-66],[-31,-12],[-14,-41],[-131,-109],[-20,-56],[-33,-24],[-12,-44],[-46,-47]],[[1826,2941],[-72,6],[-19,76],[-52,15],[-43,-44],[-73,81]],[[1567,3075],[-16,205],[64,60]],[[1615,3340],[31,-39],[4,-35],[69,-13],[-17,-47],[47,-20],[38,17],[27,72],[100,72]],[[5198,1987],[53,19],[67,7],[10,-28],[65,-28]],[[5393,1957],[10,-32],[-10,-82]],[[5393,1843],[-7,-51],[-38,-14],[-16,-40]],[[7886,4416],[100,-11],[98,15],[22,51],[44,23],[33,-5],[47,-47],[39,-13],[-22,-83],[40,-35],[4,-31],[59,-26],[20,-32],[46,-12]],[[8416,4210],[-30,-20],[-151,-155],[-95,-50],[-143,-153],[-384,-243],[-52,-46]],[[7308,4243],[-6,88]],[[4630,2726],[-24,-12],[-193,5],[-68,19]],[[4345,2738],[-35,31],[4,35],[196,149]],[[4510,2953],[73,63],[322,246]],[[4905,3262],[86,-47],[-7,-37],[-124,-65],[-9,-53],[6,-125],[-35,-93],[20,-42]],[[4946,423],[-2,-48],[-68,-24],[-32,-27],[-44,-80],[-27,-22],[12,-54],[-24,-54],[26,-15],[27,-73],[-47,-26],[-30,4],[-202,93]],[[4535,97],[65,173],[-14,75],[16,82],[31,104],[24,24]],[[4657,555],[81,78],[-119,58],[82,86],[5,30],[136,-26]],[[1876,2587],[92,63],[58,64],[67,0],[12,-48],[46,18],[42,-44]],[[2193,2640],[14,-32],[71,-59],[3,-17]],[[2281,2532],[-22,-8]],[[2259,2524],[-8,26],[-57,29],[-94,-33],[16,-65],[-22,-16]],[[2094,2465],[-44,44],[10,66],[-118,7],[-48,-89],[-67,-79],[14,-73],[-22,-72],[30,-80],[-99,-41],[-57,-88]],[[1693,2060],[-14,-18]],[[1663,2045],[-17,11]],[[1646,2056],[56,106],[-9,55]],[[1693,2217],[-10,92]],[[1683,2309],[16,34],[83,58],[6,48]],[[2264,4538],[39,55]],[[2303,4593],[66,74],[40,13],[19,42],[1,83],[40,58],[-44,44]],[[2494,4038],[-37,-46],[-6,-41],[-53,-17]],[[823,5002],[319,573],[556,1]],[[1698,5576],[-48,-65],[-34,-97],[-68,-41],[9,-53],[-10,-192],[32,-40]],[[1579,5088],[-40,-18],[-139,-22],[-112,-3],[-55,-56]],[[1233,4989],[-42,-8],[-43,-38]],[[2146,648],[-40,-47],[-27,-59],[8,-33]],[[2087,509],[-118,48],[-165,78]],[[1804,635],[25,24],[-8,48],[13,98],[74,106],[28,8],[48,53],[41,10],[9,65],[41,47],[-15,34],[91,146],[32,78]],[[2183,1352],[152,-29],[-42,-204],[88,-16]],[[2381,1103],[11,-78]],[[4264,1430],[16,77]],[[4280,1507],[67,1],[21,54],[-6,150],[40,13],[26,46]],[[513,2339],[21,44],[77,56],[-5,25]],[[960,2812],[30,-31]],[[1280,2328],[5,0]],[[1317,2073],[-34,-40]],[[1283,2033],[-30,-50],[-73,-62]],[[120,1821],[-120,99],[51,-6],[5,36],[48,21],[39,102]],[[1482,2766],[1,18]],[[1483,2784],[75,29],[34,-17],[31,27]],[[1623,2823],[45,-88]],[[1668,2735],[-22,-31],[-95,-2],[-24,29]],[[6451,2168],[13,38],[-54,68]],[[6410,2274],[46,46],[-13,29]],[[4452,722],[3,39],[43,6]],[[4498,767],[44,-1],[22,48],[36,-2],[55,42],[-8,31],[-43,4],[-37,31],[10,39],[-13,52]],[[4564,1221],[28,26],[64,-56],[166,-86]],[[4657,555],[-2,44],[-67,3],[-45,43],[-92,-6]],[[1391,2812],[-21,-46],[79,-47]],[[1463,2697],[-37,-13]],[[1318,2664],[-78,-1],[-87,-40]],[[1063,2646],[31,73],[38,37]],[[1132,2756],[51,16]],[[1183,2772],[67,8],[96,65]],[[3631,2737],[-94,10],[-64,47]],[[4105,2318],[-13,41],[12,41]],[[4104,2400],[26,-21],[113,21],[39,-28]],[[4282,2372],[79,-68],[106,-28],[84,-53]],[[4495,2077],[-147,-12],[-60,-19],[-79,39],[-60,18]],[[1183,2772],[-28,57]],[[1155,2829],[47,13],[66,59],[-3,23]],[[1265,2924],[40,19],[43,-39]],[[3583,1645],[-28,-140],[-65,-18],[-32,-30]],[[3351,1725],[41,-17],[47,-48],[52,-14],[36,17],[-15,37],[34,30]],[[2518,2455],[-45,-35],[-1,-31]],[[2472,2389],[-17,-20]],[[2408,2407],[66,33]],[[5864,3397],[-59,13],[-40,-38],[5,-70],[-39,4],[-19,32],[-60,27],[-40,-8]],[[5612,3357],[-74,4],[-35,54]],[[5503,3415],[79,66],[19,83],[-31,-10],[-53,20],[-38,-7],[-4,256]],[[5475,3823],[37,16],[124,14],[6,47],[175,86],[6,137],[87,138]],[[3256,2124],[-15,-76],[-25,-60]],[[3216,1988],[-52,-30]],[[3164,1958],[-53,9]],[[3111,1967],[-3,63],[75,25],[15,63]],[[4535,97],[-44,20]],[[3264,1981],[-31,-6]],[[3233,1975],[-17,13]],[[3276,2150],[46,-26],[21,-34],[45,-19]],[[2183,1352],[3,77]],[[2186,1429],[29,65]],[[2215,1494],[19,17],[3,76]],[[2237,1587],[94,-27],[41,57],[49,40],[-21,51],[-80,29]],[[2320,1737],[4,47],[41,33],[-18,150],[10,23]],[[2357,1990],[39,-30]],[[2396,1960],[86,-31],[20,-61]],[[2502,1868],[14,-63],[-21,-86],[73,-13]],[[2568,1706],[-14,-89]],[[2554,1617],[-31,-24],[-41,-99],[19,-18],[-10,-82],[-27,-16],[-28,-72],[2,-122],[-57,-81]],[[2872,2047],[7,133],[-81,37],[11,53]],[[2809,2270],[67,12]],[[2876,2282],[82,-59]],[[2958,2223],[14,-67],[33,-42]],[[3005,2114],[-15,-26],[4,-62]],[[2307,2864],[-65,19]],[[2242,2883],[-1,93]],[[2241,2976],[13,22],[62,21],[47,-18],[77,1]],[[2440,3002],[-16,-123]],[[2776,2014],[-53,57],[-28,6],[-13,-47],[-36,-14],[-61,5],[-59,28]],[[2526,2049],[8,72]],[[2534,2121],[71,132],[4,26]],[[2609,2279],[5,26]],[[2614,2305],[102,51],[76,7],[17,-93]],[[3820,1905],[-13,-152],[-56,24]],[[3732,1787],[8,71],[38,64]],[[1231,4420],[-45,61],[-106,-9],[-35,16]],[[1045,4488],[32,3],[19,38],[33,3]],[[2711,1817],[-43,-19],[-40,-58],[-33,16],[-27,-50]],[[2502,1868],[14,11],[10,170]],[[6840,6439],[-25,-401]],[[6815,6038],[-1022,0],[-517,-4],[12,-48],[-64,8],[-90,-10]],[[5134,5984],[14,68],[71,25],[73,46],[-12,60]],[[1567,2125],[-33,19]],[[1534,2144],[26,62],[64,54]],[[1624,2260],[59,49]],[[1683,2309],[-23,-53],[-30,-19],[-17,-68],[-46,-44]],[[4085,946],[-33,27],[-45,-4],[-23,37],[-73,32],[-10,47],[-42,11],[-51,-82],[-71,-27],[-41,7],[-32,35]],[[3705,1201],[47,36],[90,28],[3,24],[49,29]],[[7987,4878],[70,-52],[46,-15],[6,-54],[-45,-39],[27,-52],[71,15],[15,32],[-23,53],[56,32],[-6,33],[65,118],[-22,34],[-1,67],[82,-33],[76,-6],[-35,46],[-2,31],[-65,15],[-57,86],[-106,57],[-24,64],[35,8],[54,-15],[65,-34],[114,-114],[174,-125],[135,-72],[122,-76],[92,-96],[41,-27],[23,-55],[-41,-63],[-48,-18],[-96,-7],[2,-48],[-50,-85],[-282,-247],[-39,-26]],[[5359,3396],[-44,-38],[-64,-16]],[[5251,3342],[-89,4],[-55,30],[-74,-31]],[[5033,3345],[-20,13],[-103,-33],[-69,11],[-37,50],[-21,92],[-93,-41],[-24,4],[-32,97],[-77,6],[-28,-27],[-70,4],[-23,39],[-45,5],[-34,-35],[-72,36]],[[4285,3566],[12,41],[47,34],[72,-2]],[[4416,3639],[76,16],[83,-11]],[[4575,3644],[188,1],[123,-9],[93,23],[47,-4],[147,22],[39,55]],[[5212,3732],[44,-4],[4,-55],[79,-11],[-2,-100],[-12,-32],[7,-120],[27,-14]],[[4873,1194],[5,16],[-131,66],[15,123],[-33,18]],[[1660,2535],[-38,-46],[10,-62],[-75,-33]],[[1463,2505],[11,70]],[[1474,2575],[26,25],[-10,65]],[[1668,2735],[19,1]],[[1687,2736],[39,-70]],[[6045,2118],[48,3],[98,79],[33,87]],[[6224,2287],[29,9],[106,-7],[51,-15]],[[3910,3645],[37,-71],[-1,-45],[101,-4],[15,-43],[-55,-18],[-84,-65],[44,-89],[31,-22],[41,-77],[37,-98],[13,-69],[-20,-22]],[[4069,3022],[-58,-22]],[[4743,5442],[178,-63]],[[4921,5379],[21,28],[51,17],[59,-37]],[[452,1560],[-210,173],[-69,52]],[[1283,2033],[11,-94],[20,-72]],[[1314,1867],[-9,-60],[-42,-61],[13,-40],[-34,-165],[-68,-52],[-38,-67],[9,-94]],[[1145,1328],[-48,-90],[-11,-46],[9,-50],[-77,-64]],[[1018,1078],[-100,99]],[[1289,3078],[-16,-70]],[[1273,3008],[-70,21]],[[1203,3029],[-7,66]],[[2053,1771],[46,-30],[32,-51],[-19,-163],[47,10],[56,-43]],[[2186,1429],[-70,-8],[-34,-32],[-30,34],[-64,-39],[-60,-23],[-68,-46]],[[1860,1315],[-27,99]],[[6218,3194],[-91,-55],[-66,-11],[-38,-42]],[[5771,2998],[-59,-7],[-73,119],[-10,94],[-33,21],[-25,58],[8,40],[33,34]],[[2764,3789],[0,-64],[115,-23],[22,-63],[-38,-87]],[[2863,3552],[-39,1],[-59,-31],[-84,-8],[-18,-23],[-80,6],[-120,38]],[[2463,3535],[-22,6],[-278,9],[-60,12],[-22,20]],[[4069,3022],[62,-29],[50,75],[40,17],[3,214],[-14,59],[-37,30],[12,38],[90,91],[3,46]],[[4278,3563],[7,3]],[[5033,3345],[-117,-75]],[[4916,3270],[-119,15],[-107,-3],[-23,22],[-60,11],[-21,-18],[-93,-17],[-44,-39],[-67,-8],[8,-27],[-24,-94],[40,-67],[61,-5],[43,-87]],[[4345,2738],[-26,-24],[-126,-10],[-52,7]],[[1687,2736],[37,24]],[[1724,2760],[73,-10]],[[1797,2750],[-15,-67]],[[1693,2060],[71,-6]],[[1764,2054],[24,-90]],[[1788,1964],[5,-53]],[[1793,1911],[-37,33],[-41,-33]],[[4905,3262],[11,8]],[[5251,3342],[87,-104]],[[5338,3238],[-129,-43],[30,-141],[-20,-61],[-30,-43],[17,-140]],[[5228,7647],[-51,12],[-98,-2],[-183,152],[-280,241]],[[2811,8453],[-1,1286],[2405,6]],[[5215,9745],[0,-895],[-2,-1101],[50,-36]],[[3005,2114],[27,21],[40,63]],[[3111,1967],[-11,-44]],[[2962,3365],[-96,-41],[-60,-70]],[[2787,3256],[17,117]],[[2804,3373],[53,54],[16,74],[-10,51]],[[3012,3821],[-9,-76],[31,-121]],[[2620,2547],[-32,-120],[25,-28],[-21,-44],[22,-50]],[[2609,2279],[-52,-1],[-36,27]],[[2521,2305],[-49,84]],[[1455,1524],[-15,-61],[9,-65],[-55,-93],[-16,-58],[12,-108],[-48,-68],[-32,-91]],[[1310,980],[-21,-62]],[[1289,918],[-156,101],[-115,59]],[[1145,1328],[78,61],[31,47],[12,113],[86,147],[59,146],[41,127],[10,87]],[[1462,2056],[50,70]],[[1512,2126],[22,18]],[[1567,2125],[-20,-38]],[[1623,2823],[-16,43]],[[1607,2866],[93,-65],[24,-41]],[[3261,1912],[-3,7]],[[3258,1919],[19,21],[-44,35]],[[1045,4488],[-21,-61],[12,-23]],[[1036,4404],[-37,-33]],[[938,4589],[78,99],[54,101]],[[2241,2976],[-30,-9],[-27,47],[6,51],[-20,32],[18,33],[9,183]],[[2197,3313],[29,-34],[78,-25]],[[2304,3254],[44,-14],[77,1],[24,-25]],[[2449,3216],[-47,-76],[40,-84],[-2,-54]],[[4282,2372],[-28,147],[38,45]],[[4292,2564],[73,-1],[74,-33],[63,-56],[-11,-37],[90,-105],[-30,-109]],[[2509,2291],[12,14]],[[2534,2121],[-57,18]],[[1155,2829],[-44,29],[-12,60],[20,32],[80,15],[4,64]],[[1273,3008],[-8,-84]],[[1944,1901],[-14,-18],[2,-86],[-16,-54]],[[1916,1743],[-44,-39],[-50,16],[-23,44]],[[1799,1764],[-13,79]],[[1786,1843],[26,44],[-19,24]],[[1788,1964],[85,36]],[[1615,3340],[20,20]],[[2804,3373],[-60,-25],[-61,-3],[-58,30],[17,32],[-17,50],[-55,-25],[-79,32],[-28,71]],[[3436,2088],[66,-1]],[[3502,2087],[16,-69]],[[3518,2018],[-34,-1]],[[5258,7563],[-42,11],[-3,-71],[-17,-50],[16,-55],[-218,-1]],[[1786,1843],[-66,21]],[[4804,1694],[-50,38],[-16,58]],[[1394,3379],[74,43],[39,129]],[[1567,3075],[2,-104],[27,-57]],[[1596,2914],[-57,-47]],[[1539,2867],[-42,-14]],[[1400,2907],[6,65],[-8,97]],[[5338,3238],[56,-62]],[[5394,3176],[62,-60],[34,-73],[-175,10],[55,-83],[-9,-43],[32,-46],[51,-3]],[[990,2781],[16,27],[49,18]],[[1055,2826],[77,-70]],[[1607,2866],[-68,1]],[[1596,2914],[38,7],[79,-37],[9,-26],[118,-27]],[[1840,2831],[19,-28],[-62,-53]],[[4063,3970],[-59,-89],[63,-67],[-71,-116]],[[3996,3698],[-71,-16]],[[5654,2416],[-72,-20]],[[5582,2396],[-36,18],[-16,36],[-82,62],[-32,59],[14,66]],[[1586,2256],[38,4]],[[1512,2126],[-43,-7],[-70,-36],[-24,-34]],[[1375,2049],[-92,-16]],[[5206,6330],[-24,17],[-100,-48],[-94,-99],[-78,127],[23,23],[-4,45],[24,59],[-18,23],[-2,66],[-33,40],[14,46],[37,43],[-116,65],[-56,-59],[-102,-11],[-2,30],[-73,-8],[-35,36],[-42,-25],[-45,44],[-30,-2]],[[5355,7563],[3,-89],[-27,-42],[13,-72],[112,-105],[150,-202],[64,-44],[69,-10],[63,-59]],[[1826,2941],[21,-23]],[[1847,2918],[26,-41],[-33,-46]],[[1483,2784],[9,41]],[[1693,2217],[-45,-66],[-20,-56],[18,-39]],[[1652,1811],[-41,-10]],[[1214,3958],[17,-94]],[[1231,3864],[-23,-67]],[[1208,3797],[-27,30]],[[6187,2368],[36,-9],[-22,-50],[23,-22]],[[6005,2211],[27,82],[33,23]],[[5979,2921],[29,-25],[16,-61],[-11,-48],[-27,-24],[21,-64]],[[3349,441],[-244,-19],[-113,-13],[-178,8]],[[2814,417],[4,121]],[[5215,9745],[481,0]],[[2281,2532],[40,-92]],[[2321,2440],[-33,-23],[-60,-4]],[[2228,2413],[0,4]],[[2228,2417],[31,107]],[[4121,2643],[33,-15],[89,1],[52,-41],[-3,-24]],[[4104,2400],[12,49],[43,21],[-11,72],[-74,52]],[[1860,1315],[-41,-13],[-14,87],[-54,-27],[12,-43],[-15,-48],[27,-33]],[[1775,1238],[-40,1],[-46,65],[6,65],[35,53],[1,35],[29,56],[-17,25],[4,55],[21,44],[-47,63],[18,90],[60,-26]],[[1916,1743],[21,1]],[[5819,2244],[-64,81],[6,92]],[[1570,1532],[4,-97],[16,-62],[-3,-83],[-55,-50],[-13,-44],[-41,-18],[-39,-85],[-83,-105],[-46,-8]],[[729,3540],[22,-60]],[[663,3444],[-61,64],[-80,23],[11,84],[-14,29]],[[519,3644],[67,75]],[[4063,1929],[34,33],[-48,63],[64,65]],[[4353,1827],[-49,-41],[-23,14],[-35,-33],[-74,2]],[[2954,2516],[-27,45],[3,57],[-24,35],[-17,111]],[[2889,2764],[26,66]],[[3004,2843],[5,-86],[24,-16],[20,-67],[57,-24],[4,-57],[-27,-40]],[[1491,4206],[-32,-31],[-19,-134],[-54,-48]],[[1386,3993],[-61,-6]],[[1325,3987],[4,61],[-25,76]],[[1304,4124],[0,114],[21,56]],[[1325,4294],[21,-1],[63,-69],[82,-18]],[[2237,1587],[91,110],[-8,40]],[[4280,4051],[24,50],[164,-51],[308,-134]],[[4776,3916],[0,-56]],[[4776,3860],[-121,-35],[-72,-11]],[[4583,3814],[-63,-8],[-87,53]],[[3071,4167],[-29,-82],[-7,-72]],[[1685,4434],[-12,79],[-93,23]],[[1592,4616],[64,-8],[68,16],[37,-6],[54,-46],[26,50],[125,2],[72,33]],[[2038,4657],[98,-3],[125,-29],[42,-32]],[[1982,2164],[17,61]],[[1999,2225],[37,-16],[20,68]],[[2056,2277],[38,8],[46,47]],[[2140,2332],[11,-7]],[[2148,2283],[-5,-59],[-46,-75],[-23,-13]],[[3342,2407],[70,66],[25,6],[48,65],[-17,19],[5,57],[68,56],[59,15],[37,26]],[[3748,2708],[-17,-101],[0,-102],[-52,-5],[-17,-57],[-27,-39],[41,-62],[74,-13],[63,8]],[[3813,2337],[-43,-55],[-65,-37],[-45,-3],[-36,45],[-57,2],[-50,-44]],[[3517,2245],[-5,49],[-41,10],[-38,-30],[-55,9]],[[3378,2283],[-54,71]],[[4356,860],[60,14],[47,-27],[45,-57],[-10,-23]],[[1652,1811],[7,-41],[-24,-84],[20,-97],[-21,-12],[-20,-115],[26,-40],[-11,-26],[5,-127],[39,-94],[-7,-50],[15,-42],[-2,-55],[-42,-70],[-78,-16],[-36,-84],[-15,-88]],[[1508,770],[-219,148]],[[1203,3029],[-112,-31],[-40,55],[-38,9]],[[1013,3062],[-5,44]],[[3651,2014],[-123,-4]],[[3528,2010],[-10,8]],[[3502,2087],[81,31]],[[2396,1960],[0,50],[-40,51],[38,87],[43,46]],[[4921,5379],[-6,57],[-31,19],[27,55],[-45,45],[47,59],[-62,44],[91,22],[29,41],[-48,30],[42,84],[-20,67],[81,-4],[82,54],[26,32]],[[6815,6038],[-31,-486],[-21,-400]],[[5713,1955],[-118,-17],[-18,84]],[[5577,2022],[-26,99],[-30,64],[4,42],[54,36],[3,133]],[[5741,1879],[-22,-69],[-46,-37],[-80,9],[-93,-11],[-62,58],[-45,14]],[[5393,1957],[51,-14],[104,74],[29,5]],[[1013,3062],[-59,-31],[-5,-31],[57,-71],[49,-103]],[[817,2878],[-33,-7],[-24,76]],[[760,2947],[62,18],[49,39],[-66,98],[-42,2]],[[763,3104],[67,69]],[[883,3187],[75,12]],[[2176,2333],[-12,74]],[[2164,2407],[64,10]],[[2228,2413],[9,-50]],[[3203,2350],[-75,29]],[[1444,2598],[30,-23]],[[1462,2056],[-87,-7]],[[2002,5012],[-166,-110],[-50,1],[-91,75]],[[1695,4978],[-116,110]],[[1698,5576],[346,0]],[[1233,4989],[65,-85],[39,-17],[46,7],[106,-92],[26,-43]],[[1515,4759],[16,-82],[61,-26]],[[1592,4651],[0,-35]],[[3996,3698],[106,-2],[15,-28],[61,-28]],[[4178,3640],[100,-77]],[[3164,1958],[2,-23],[92,-16]],[[997,3466],[-37,22],[0,55],[-48,34]],[[1208,3797],[43,-55],[42,-32],[71,-105]],[[1364,3605],[-25,-38],[-53,-13],[-37,22],[-68,-48],[-37,2],[-16,-36]],[[446,2985],[54,78],[60,1],[8,-31],[-16,-62],[63,-21],[14,53],[29,26],[66,-8],[39,83]],[[760,2947],[-96,-73]],[[1764,2054],[47,67]],[[1811,2121],[67,-75]],[[2140,2332],[-8,68]],[[2132,2400],[32,7]],[[5115,4193],[-10,-57],[41,-132],[-370,-88]],[[2623,3245],[-49,31],[-116,-20],[-9,-40]],[[2304,3254],[12,33],[-45,19],[-46,51],[-106,74],[-7,30],[-47,33]],[[2207,2117],[-37,-11],[-48,-54]],[[1036,4404],[52,-47],[46,-18]],[[1134,4339],[64,-15]],[[1198,4324],[-26,-144]],[[3594,2182],[-78,37]],[[3516,2219],[1,26]],[[3813,2337],[9,-19]],[[1515,4759],[44,38],[15,49]],[[1574,4846],[129,-39],[37,-33]],[[1740,4774],[-120,-75],[-28,-48]],[[1325,3987],[-16,-40],[-78,-83]],[[1375,2049],[-34,-125],[-27,-57]],[[1695,4978],[-95,-75],[-26,-57]],[[1585,3855],[-94,71],[-103,9],[-2,58]],[[1491,4206],[142,-52]],[[3682,1548],[1,-61],[-34,-60],[28,-92]],[[4780,2541],[-73,-30],[-55,-41],[3,-58],[-21,-98],[12,-29]],[[697,4774],[123,221]],[[2922,2492],[-83,-7],[-27,16],[-5,55],[56,92],[3,72],[23,44]],[[2180,1871],[36,53],[64,36],[36,47],[41,-17]],[[5503,3415],[-48,-14],[-36,20],[-60,-25]],[[5212,3732],[-49,6],[-45,36]],[[5118,3774],[94,24],[93,-15],[-20,40],[129,-9],[61,9]],[[1894,2142],[-28,15],[-55,-36]],[[2094,2465],[-30,-58]],[[2064,2407],[-20,-23]],[[2044,2384],[-27,-35],[2,-36],[-25,-48],[5,-40]],[[3962,1864],[-87,61],[-25,35]],[[2056,2277],[42,70],[-54,37]],[[2064,2407],[68,-7]],[[3003,2282],[-45,-59]],[[2876,2282],[-3,57],[38,-3]],[[2321,2440],[14,-48]],[[4093,1659],[106,-40],[81,-112]],[[4175,3862],[-38,-158],[41,-64]],[[2038,4657],[-22,60],[-91,49],[-59,18],[-100,-25],[-26,15]],[[2554,1617],[43,-17],[77,54],[33,-24],[44,12],[53,-15],[18,-29],[0,-85]],[[2822,1513],[-10,-53],[-72,-85],[59,-99]],[[2197,3313],[-58,27]],[[3528,2010],[29,-62]],[[2242,2883],[-33,-19],[-77,-7],[-36,11],[-81,-2],[-52,36],[-116,16]],[[1198,4324],[127,-30]],[[3436,2088],[-46,102]],[[3390,2190],[105,10],[21,19]],[[1775,1238],[3,-140],[-30,-55],[-50,-51],[-7,-51],[-35,-28],[-13,-49],[-56,-43],[-13,-93]],[[1574,728],[-66,42]],[[3390,2190],[-12,93]],[[4029,5576],[-27,46],[2,73],[51,-11],[6,45],[-39,39],[43,43],[-57,33],[-7,53],[34,52],[8,169],[56,15],[2,44],[27,29],[-5,132],[-45,74],[-80,-10],[-65,20],[-9,61],[-33,35],[-53,-25],[-40,23],[8,30]],[[5118,3774],[-96,-4],[-59,44],[-187,46]],[[517,3314],[-19,-71],[-92,-66]],[[406,3177],[-183,247]],[[223,3424],[112,-23],[66,18],[39,30],[79,-8],[34,-28]],[[2814,417],[-183,2],[-182,16],[-185,29],[-177,45]],[[2822,1513],[64,77],[72,103],[82,51]],[[2193,2640],[114,36],[12,56],[68,31]],[[223,3424],[-157,208],[110,197],[99,194]],[[275,4023],[32,-47],[55,-18],[5,-284],[152,-30]],[[4434,3795],[-71,-23],[53,-133]],[[360,3084],[15,73],[31,20]],[[4583,3814],[-8,-170]],[[4003,334],[-152,52],[-210,44],[-94,13]],[[275,4023],[52,85]],[[5602,2909],[-20,93],[-25,36],[4,39],[-38,39],[-7,57],[-122,3]],[[1804,635],[-71,33],[-159,60]],[[1134,4339],[57,29],[40,51]],[[5518,852],[-44,38],[47,65],[-23,70],[-55,9]],[[5461,756],[-27,14],[-94,-29]]],"transform":{"scale":[0.0004456948010033455,0.00041867065305285073],"translate":[-92.24024247099999,13.739507857000035]},"objects":{"GTM":{"type":"GeometryCollection","geometries":[{"arcs":[[0,1,2,3,4,5,6]],"type":"Polygon","properties":{"name":"Acatenango","shapeGroup":"GTM","gid":"GTM-2-0"},"id":"GTM-2-0"},{"arcs":[[7,8,9,10,11,12]],"type":"Polygon","properties":{"name":"Agua Blanca","shapeGroup":"GTM","gid":"GTM-2-1"},"id":"GTM-2-1"},{"arcs":[[13,14,15,16,17,18]],"type":"Polygon","properties":{"name":"Aguacatán","shapeGroup":"GTM","gid":"GTM-2-2"},"id":"GTM-2-2"},{"arcs":[[19,20,21]],"type":"Polygon","properties":{"name":"Almolonga","shapeGroup":"GTM","gid":"GTM-2-3"},"id":"GTM-2-3"},{"arcs":[[-4,22,23,24,25]],"type":"Polygon","properties":{"name":"Alotenango","shapeGroup":"GTM","gid":"GTM-2-4"},"id":"GTM-2-4"},{"arcs":[[26,27,28,29,30,31,32]],"type":"Polygon","properties":{"name":"Amatitlán","shapeGroup":"GTM","gid":"GTM-2-5"},"id":"GTM-2-5"},{"arcs":[[33,34,35,36,37,38,39,40,41]],"type":"Polygon","properties":{"name":"Antigua Guatemala","shapeGroup":"GTM","gid":"GTM-2-6"},"id":"GTM-2-6"},{"arcs":[[-10,42,43,44,45,46]],"type":"Polygon","properties":{"name":"Asunción Mita","shapeGroup":"GTM","gid":"GTM-2-7"},"id":"GTM-2-7"},{"arcs":[[-44,47,48,49]],"type":"Polygon","properties":{"name":"Atescatempa","shapeGroup":"GTM","gid":"GTM-2-8"},"id":"GTM-2-8"},{"arcs":[[50,51,52,53,54,55,56]],"type":"Polygon","properties":{"name":"Ayutla","shapeGroup":"GTM","gid":"GTM-2-9"},"id":"GTM-2-9"},{"arcs":[[57,58,59,60,61,62]],"type":"Polygon","properties":{"name":"Barberena","shapeGroup":"GTM","gid":"GTM-2-10"},"id":"GTM-2-10"},{"arcs":[[63,64,65,66,67]],"type":"Polygon","properties":{"name":"Barillas","shapeGroup":"GTM","gid":"GTM-2-11"},"id":"GTM-2-11"},{"arcs":[[68,69,70,71,72,73,74]],"type":"Polygon","properties":{"name":"Cabañas","shapeGroup":"GTM","gid":"GTM-2-12"},"id":"GTM-2-12"},{"arcs":[[75,76,77,78,79]],"type":"Polygon","properties":{"name":"Cabricán","shapeGroup":"GTM","gid":"GTM-2-13"},"id":"GTM-2-13"},{"arcs":[[80,81,82,83,84,85,86]],"type":"Polygon","properties":{"name":"Cahabón","shapeGroup":"GTM","gid":"GTM-2-14"},"id":"GTM-2-14"},{"arcs":[[87,88,89,90,91,92]],"type":"Polygon","properties":{"name":"Cajolá","shapeGroup":"GTM","gid":"GTM-2-15"},"id":"GTM-2-15"},{"arcs":[[93,94,95,96]],"type":"Polygon","properties":{"name":"Camotán","shapeGroup":"GTM","gid":"GTM-2-16"},"id":"GTM-2-16"},{"arcs":[[97,98,99,100]],"type":"Polygon","properties":{"name":"Canillá","shapeGroup":"GTM","gid":"GTM-2-17"},"id":"GTM-2-17"},{"arcs":[[-20,101,102,103,104,105]],"type":"Polygon","properties":{"name":"Cantel","shapeGroup":"GTM","gid":"GTM-2-18"},"id":"GTM-2-18"},{"arcs":[[106,107,108,109,110,111,112,113]],"type":"Polygon","properties":{"name":"Casillas","shapeGroup":"GTM","gid":"GTM-2-19"},"id":"GTM-2-19"},{"arcs":[[-57,114,115,116,117]],"type":"Polygon","properties":{"name":"Catarina","shapeGroup":"GTM","gid":"GTM-2-20"},"id":"GTM-2-20"},{"arcs":[[-87,118,119,120,121]],"type":"Polygon","properties":{"name":"Chahal","shapeGroup":"GTM","gid":"GTM-2-21"},"id":"GTM-2-21"},{"arcs":[[122,123,124,125]],"type":"Polygon","properties":{"name":"Chajul","shapeGroup":"GTM","gid":"GTM-2-22"},"id":"GTM-2-22"},{"arcs":[[126,127]],"type":"Polygon","properties":{"name":"Champerico","shapeGroup":"GTM","gid":"GTM-2-23"},"id":"GTM-2-23"},{"arcs":[[-18,128,129,130,131,132]],"type":"Polygon","properties":{"name":"Chiantla","shapeGroup":"GTM","gid":"GTM-2-24"},"id":"GTM-2-24"},{"arcs":[[133,134,135,136,137,138,139,140,141,142,143]],"type":"Polygon","properties":{"name":"Chicacao","shapeGroup":"GTM","gid":"GTM-2-25"},"id":"GTM-2-25"},{"arcs":[[144,145,146,147,148,149]],"type":"Polygon","properties":{"name":"Chicamán","shapeGroup":"GTM","gid":"GTM-2-26"},"id":"GTM-2-26"},{"arcs":[[150,151,152,153,154]],"type":"Polygon","properties":{"name":"Chiché","shapeGroup":"GTM","gid":"GTM-2-27"},"id":"GTM-2-27"},{"arcs":[[-153,155,156,157,158,159,160,161,162]],"type":"Polygon","properties":{"name":"Chichicastenango","shapeGroup":"GTM","gid":"GTM-2-28"},"id":"GTM-2-28"},{"arcs":[[163,164,165,166,167]],"type":"Polygon","properties":{"name":"Chimaltenango","shapeGroup":"GTM","gid":"GTM-2-29"},"id":"GTM-2-29"},{"arcs":[[168,169,170,171,172]],"type":"Polygon","properties":{"name":"Chinautla","shapeGroup":"GTM","gid":"GTM-2-30"},"id":"GTM-2-30"},{"arcs":[[-155,173,174,175,176]],"type":"Polygon","properties":{"name":"Chinique","shapeGroup":"GTM","gid":"GTM-2-31"},"id":"GTM-2-31"},{"arcs":[[-69,177,178,179,180,181,182,183,184,185]],"type":"Polygon","properties":{"name":"Chiquimula","shapeGroup":"GTM","gid":"GTM-2-32"},"id":"GTM-2-32"},{"arcs":[[186,187,188,189,190,191,192,193]],"type":"Polygon","properties":{"name":"Chiquimulilla","shapeGroup":"GTM","gid":"GTM-2-33"},"id":"GTM-2-33"},{"arcs":[[194,195,196,197,198,199]],"type":"Polygon","properties":{"name":"Chisec","shapeGroup":"GTM","gid":"GTM-2-34"},"id":"GTM-2-34"},{"arcs":[[-172,200,201,202,203,204,205,206]],"type":"Polygon","properties":{"name":"Chuarrancho","shapeGroup":"GTM","gid":"GTM-2-35"},"id":"GTM-2-35"},{"arcs":[[-24,207,208,-37]],"type":"Polygon","properties":{"name":"Ciudad Vieja","shapeGroup":"GTM","gid":"GTM-2-36"},"id":"GTM-2-36"},{"arcs":[[-52,209,210,211,212,213,214,215,216]],"type":"Polygon","properties":{"name":"Coatepeque","shapeGroup":"GTM","gid":"GTM-2-37"},"id":"GTM-2-37"},{"arcs":[[-145,217,218,-198,219,220,221,222,223,224]],"type":"Polygon","properties":{"name":"Cobán","shapeGroup":"GTM","gid":"GTM-2-38"},"id":"GTM-2-38"},{"arcs":[[-213,225,226,227,228,229,230,231]],"type":"Polygon","properties":{"name":"Colomba","shapeGroup":"GTM","gid":"GTM-2-39"},"id":"GTM-2-39"},{"arcs":[[232,233,234,235,236]],"type":"Polygon","properties":{"name":"Colotenango","shapeGroup":"GTM","gid":"GTM-2-40"},"id":"GTM-2-40"},{"arcs":[[237,238,239,240,241,242]],"type":"Polygon","properties":{"name":"Comalapa","shapeGroup":"GTM","gid":"GTM-2-41"},"id":"GTM-2-41"},{"arcs":[[243,244,245,246,247]],"type":"Polygon","properties":{"name":"Comapa","shapeGroup":"GTM","gid":"GTM-2-42"},"id":"GTM-2-42"},{"arcs":[[-78,248,249,250,251,252,253]],"type":"Polygon","properties":{"name":"Comitancillo","shapeGroup":"GTM","gid":"GTM-2-43"},"id":"GTM-2-43"},{"arcs":[[-159,254,255,256]],"type":"Polygon","properties":{"name":"Concepción","shapeGroup":"GTM","gid":"GTM-2-44"},"id":"GTM-2-44"},{"arcs":[[257,258,259]],"type":"Polygon","properties":{"name":"Concepción Chiquirichapa","shapeGroup":"GTM","gid":"GTM-2-45"},"id":"GTM-2-45"},{"arcs":[[260,261,262,263,264,265,266]],"type":"Polygon","properties":{"name":"Concepción Huista","shapeGroup":"GTM","gid":"GTM-2-46"},"id":"GTM-2-46"},{"arcs":[[-8,267,268,269,270]],"type":"Polygon","properties":{"name":"Concepción Las Minas","shapeGroup":"GTM","gid":"GTM-2-47"},"id":"GTM-2-47"},{"arcs":[[271,272,273,274,275]],"type":"Polygon","properties":{"name":"Concepción Tutuapa","shapeGroup":"GTM","gid":"GTM-2-48"},"id":"GTM-2-48"},{"arcs":[[276,277,278]],"type":"Polygon","properties":{"name":"Conguaco","shapeGroup":"GTM","gid":"GTM-2-49"},"id":"GTM-2-49"},{"arcs":[[-98,279,-149,280,281,282,283]],"type":"Polygon","properties":{"name":"Cubulco","shapeGroup":"GTM","gid":"GTM-2-50"},"id":"GTM-2-50"},{"arcs":[[-59,284,-112,285,286,287,-194,288]],"type":"Polygon","properties":{"name":"Cuilapa","shapeGroup":"GTM","gid":"GTM-2-51"},"id":"GTM-2-51"},{"arcs":[[-275,289,290,291,292]],"type":"Polygon","properties":{"name":"Cuilco","shapeGroup":"GTM","gid":"GTM-2-52"},"id":"GTM-2-52"},{"arcs":[[-15,293,294,295,296]],"type":"Polygon","properties":{"name":"Cunén","shapeGroup":"GTM","gid":"GTM-2-53"},"id":"GTM-2-53"},{"arcs":[[297,298,299,300,301]],"type":"Polygon","properties":{"name":"Cuyotenango","shapeGroup":"GTM","gid":"GTM-2-54"},"id":"GTM-2-54"},{"arcs":[[302,303,304,305,306]],"type":"Polygon","properties":{"name":"Dolores","shapeGroup":"GTM","gid":"GTM-2-55"},"id":"GTM-2-55"},{"arcs":[[-244,307,308,309]],"type":"Polygon","properties":{"name":"El Adelanto","shapeGroup":"GTM","gid":"GTM-2-56"},"id":"GTM-2-56"},{"arcs":[[-230,310,311,312]],"type":"Polygon","properties":{"name":"El Asintal","shapeGroup":"GTM","gid":"GTM-2-57"},"id":"GTM-2-57"},{"arcs":[[-305,313,314,315,316]],"type":"Polygon","properties":{"name":"El Chal","shapeGroup":"GTM","gid":"GTM-2-58"},"id":"GTM-2-58"},{"arcs":[[-203,317,318,319]],"type":"Polygon","properties":{"name":"El Chol","shapeGroup":"GTM","gid":"GTM-2-59"},"id":"GTM-2-59"},{"arcs":[[-81,-122,320,321,322,323,324,325]],"type":"Polygon","properties":{"name":"El Estor","shapeGroup":"GTM","gid":"GTM-2-60"},"id":"GTM-2-60"},{"arcs":[[-72,326,327,328,329]],"type":"Polygon","properties":{"name":"El Jícaro","shapeGroup":"GTM","gid":"GTM-2-61"},"id":"GTM-2-61"},{"arcs":[[330,331,332,333,334]],"type":"Polygon","properties":{"name":"El Palmar","shapeGroup":"GTM","gid":"GTM-2-62"},"id":"GTM-2-62"},{"arcs":[[335,336,337]],"type":"Polygon","properties":{"name":"El Progreso","shapeGroup":"GTM","gid":"GTM-2-63"},"id":"GTM-2-63"},{"arcs":[[-212,338,339,340,341,-226]],"type":"Polygon","properties":{"name":"El Quetzal","shapeGroup":"GTM","gid":"GTM-2-64"},"id":"GTM-2-64"},{"arcs":[[-116,342,343,344,345]],"type":"Polygon","properties":{"name":"El Rodeo","shapeGroup":"GTM","gid":"GTM-2-65"},"id":"GTM-2-65"},{"arcs":[[-165,346,347,348,349]],"type":"Polygon","properties":{"name":"El Tejar","shapeGroup":"GTM","gid":"GTM-2-66"},"id":"GTM-2-66"},{"arcs":[[-117,-346,350,351,352,353]],"type":"Polygon","properties":{"name":"El Tumbador","shapeGroup":"GTM","gid":"GTM-2-67"},"id":"GTM-2-67"},{"arcs":[[-25,354,355,356,357,358,359,360]],"type":"Polygon","properties":{"name":"Escuintla","shapeGroup":"GTM","gid":"GTM-2-68"},"id":"GTM-2-68"},{"arcs":[[-95,361,-270,362,363,364]],"type":"Polygon","properties":{"name":"Esquipulas","shapeGroup":"GTM","gid":"GTM-2-69"},"id":"GTM-2-69"},{"arcs":[[-352,365,366,367]],"type":"Polygon","properties":{"name":"Esquipulas Palo Gordo","shapeGroup":"GTM","gid":"GTM-2-70"},"id":"GTM-2-70"},{"arcs":[[368,369,370,371,372]],"type":"Polygon","properties":{"name":"Estanzuela","shapeGroup":"GTM","gid":"GTM-2-71"},"id":"GTM-2-71"},{"arcs":[[373,374,375,376,377,378,379]],"type":"Polygon","properties":{"name":"Flores","shapeGroup":"GTM","gid":"GTM-2-72"},"id":"GTM-2-72"},{"arcs":[[-214,-232,380]],"type":"Polygon","properties":{"name":"Flores Costa Cuca","shapeGroup":"GTM","gid":"GTM-2-73"},"id":"GTM-2-73"},{"arcs":[[-62,381,382,383,384,385]],"type":"Polygon","properties":{"name":"Fraijanes","shapeGroup":"GTM","gid":"GTM-2-74"},"id":"GTM-2-74"},{"arcs":[[-86,386,-196,387,388,-119]],"type":"Polygon","properties":{"name":"Fray Bartolomé de Las Casas","shapeGroup":"GTM","gid":"GTM-2-75"},"id":"GTM-2-75"},{"arcs":[[-215,-381,-231,-313,389]],"type":"Polygon","properties":{"name":"Génova","shapeGroup":"GTM","gid":"GTM-2-76"},"id":"GTM-2-76"},{"arcs":[[-202,390,391,392,393,-282,394,-318]],"type":"Polygon","properties":{"name":"Granados","shapeGroup":"GTM","gid":"GTM-2-77"},"id":"GTM-2-77"},{"arcs":[[-324,395,396,397,398,399]],"type":"Polygon","properties":{"name":"Gualán","shapeGroup":"GTM","gid":"GTM-2-78"},"id":"GTM-2-78"},{"arcs":[[-357,400,401,402,403,404,405]],"type":"Polygon","properties":{"name":"Guanagazapa","shapeGroup":"GTM","gid":"GTM-2-79"},"id":"GTM-2-79"},{"arcs":[[-328,406,407,408,409,410,411]],"type":"Polygon","properties":{"name":"Guastatoya","shapeGroup":"GTM","gid":"GTM-2-80"},"id":"GTM-2-80"},{"arcs":[[-169,412,413,414,415,416,417,418,419]],"type":"Polygon","properties":{"name":"Guatemala","shapeGroup":"GTM","gid":"GTM-2-81"},"id":"GTM-2-81"},{"arcs":[[-192,420,421,422]],"type":"Polygon","properties":{"name":"Guazacapán","shapeGroup":"GTM","gid":"GTM-2-82"},"id":"GTM-2-82"},{"arcs":[[-17,423,424,425,426,427,-129]],"type":"Polygon","properties":{"name":"Huehuetenango","shapeGroup":"GTM","gid":"GTM-2-83"},"id":"GTM-2-83"},{"arcs":[[-76,428,429,430]],"type":"Polygon","properties":{"name":"Huitán","shapeGroup":"GTM","gid":"GTM-2-84"},"id":"GTM-2-84"},{"arcs":[[-75,431,432,-371,433,-178]],"type":"Polygon","properties":{"name":"Huité","shapeGroup":"GTM","gid":"GTM-2-85"},"id":"GTM-2-85"},{"arcs":[[-13,434,435,436,437,438,-268]],"type":"Polygon","properties":{"name":"Ipala","shapeGroup":"GTM","gid":"GTM-2-86"},"id":"GTM-2-86"},{"arcs":[[-68,439,-199,-219,440,-126,441]],"type":"Polygon","properties":{"name":"Ixcán","shapeGroup":"GTM","gid":"GTM-2-87"},"id":"GTM-2-87"},{"arcs":[[442,443,444,445,446,447]],"type":"Polygon","properties":{"name":"Ixchiguán","shapeGroup":"GTM","gid":"GTM-2-88"},"id":"GTM-2-88"},{"arcs":[[-235,448,449,-276,-293,450,451,452]],"type":"Polygon","properties":{"name":"Ixtahuacán","shapeGroup":"GTM","gid":"GTM-2-89"},"id":"GTM-2-89"},{"arcs":[[-405,453,454,455,456]],"type":"Polygon","properties":{"name":"Iztapa","shapeGroup":"GTM","gid":"GTM-2-90"},"id":"GTM-2-90"},{"arcs":[[-266,457,458,459,460,461]],"type":"Polygon","properties":{"name":"Jacaltenango","shapeGroup":"GTM","gid":"GTM-2-91"},"id":"GTM-2-91"},{"arcs":[[-408,462,463,464,465,466,467,468]],"type":"Polygon","properties":{"name":"Jalapa","shapeGroup":"GTM","gid":"GTM-2-92"},"id":"GTM-2-92"},{"arcs":[[-247,469,-279,470,471,472,473,474]],"type":"Polygon","properties":{"name":"Jalpatagua","shapeGroup":"GTM","gid":"GTM-2-93"},"id":"GTM-2-93"},{"arcs":[[-49,475,476,477]],"type":"Polygon","properties":{"name":"Jerez","shapeGroup":"GTM","gid":"GTM-2-94"},"id":"GTM-2-94"},{"arcs":[[-96,-365,478,479,-181,480,481]],"type":"Polygon","properties":{"name":"Jocotán","shapeGroup":"GTM","gid":"GTM-2-95"},"id":"GTM-2-95"},{"arcs":[[-40,482,483]],"type":"Polygon","properties":{"name":"Jocotenango","shapeGroup":"GTM","gid":"GTM-2-96"},"id":"GTM-2-96"},{"arcs":[[-152,484,-283,485,486,487,488,-156]],"type":"Polygon","properties":{"name":"Joyabaj","shapeGroup":"GTM","gid":"GTM-2-97"},"id":"GTM-2-97"},{"arcs":[[-46,489,-308,-248,-475,490,-109,491,-465,492,-336,493]],"type":"Polygon","properties":{"name":"Jutiapa","shapeGroup":"GTM","gid":"GTM-2-98"},"id":"GTM-2-98"},{"arcs":[[-53,-217,494,495,496]],"type":"Polygon","properties":{"name":"La Blanca","shapeGroup":"GTM","gid":"GTM-2-99"},"id":"GTM-2-99"},{"arcs":[[-359,497,498,499,500,501,502]],"type":"Polygon","properties":{"name":"La Democracia","shapeGroup":"GTM","gid":"GTM-2-100"},"id":"GTM-2-100"},{"arcs":[[-452,503,504,505,506,507]],"type":"Polygon","properties":{"name":"La Democracia","shapeGroup":"GTM","gid":"GTM-2-101"},"id":"GTM-2-101"},{"arcs":[[508,509,510,511,512]],"type":"Polygon","properties":{"name":"La Esperanza","shapeGroup":"GTM","gid":"GTM-2-102"},"id":"GTM-2-102"},{"arcs":[[-501,513,514,515]],"type":"Polygon","properties":{"name":"La Gomera","shapeGroup":"GTM","gid":"GTM-2-103"},"id":"GTM-2-103"},{"arcs":[[-292,516,-504,-451]],"type":"Polygon","properties":{"name":"La Libertad","shapeGroup":"GTM","gid":"GTM-2-104"},"id":"GTM-2-104"},{"arcs":[[517,518,519,520,521]],"type":"Polygon","properties":{"name":"La Libertad","shapeGroup":"GTM","gid":"GTM-2-105"},"id":"GTM-2-105"},{"arcs":[[-340,522,523]],"type":"Polygon","properties":{"name":"La Reforma","shapeGroup":"GTM","gid":"GTM-2-106"},"id":"GTM-2-106"},{"arcs":[[-97,-482,524,-398,525]],"type":"Polygon","properties":{"name":"La Unión","shapeGroup":"GTM","gid":"GTM-2-107"},"id":"GTM-2-107"},{"arcs":[[-27,526,527,528]],"type":"Polygon","properties":{"name":"Lago De Amatitlan","shapeGroup":"GTM","gid":"GTM-2-108"},"id":"GTM-2-108"},{"arcs":[[529,530,531,532,533,534,535,536,537,538,539]],"type":"Polygon","properties":{"name":"Lago De Atitlan","shapeGroup":"GTM","gid":"GTM-2-109"},"id":"GTM-2-109"},{"arcs":[[-84,540,541]],"type":"Polygon","properties":{"name":"Lanquín","shapeGroup":"GTM","gid":"GTM-2-110"},"id":"GTM-2-110"},{"arcs":[[-520,542,543,544]],"type":"Polygon","properties":{"name":"Las Cruces","shapeGroup":"GTM","gid":"GTM-2-111"},"id":"GTM-2-111"},{"arcs":[[[545,546,547]],[[-121,548,549,-321]]],"type":"MultiPolygon","properties":{"name":"Lívingston","shapeGroup":"GTM","gid":"GTM-2-112"},"id":"GTM-2-112"},{"arcs":[[-323,550,551,552,-396]],"type":"Polygon","properties":{"name":"Los Amates","shapeGroup":"GTM","gid":"GTM-2-113"},"id":"GTM-2-113"},{"arcs":[[-32,553,-35,554,555]],"type":"Polygon","properties":{"name":"Magdalena Milpas Altas","shapeGroup":"GTM","gid":"GTM-2-114"},"id":"GTM-2-114"},{"arcs":[[-56,556,557,558,-343,-115]],"type":"Polygon","properties":{"name":"Malacatán","shapeGroup":"GTM","gid":"GTM-2-115"},"id":"GTM-2-115"},{"arcs":[[-426,559,560,561,562,563]],"type":"Polygon","properties":{"name":"Malacatancito","shapeGroup":"GTM","gid":"GTM-2-116"},"id":"GTM-2-116"},{"arcs":[[-358,-406,-457,564,-498]],"type":"Polygon","properties":{"name":"Masagua","shapeGroup":"GTM","gid":"GTM-2-117"},"id":"GTM-2-117"},{"arcs":[[-114,565,566,567,568,569,-467,570,571]],"type":"Polygon","properties":{"name":"Mataquescuintla","shapeGroup":"GTM","gid":"GTM-2-118"},"id":"GTM-2-118"},{"arcs":[[-298,572,573,574,575,576,577,578]],"type":"Polygon","properties":{"name":"Mazatenango","shapeGroup":"GTM","gid":"GTM-2-119"},"id":"GTM-2-119"},{"arcs":[[-307,579,-380,580]],"type":"Polygon","properties":{"name":"Melchor de Mencos","shapeGroup":"GTM","gid":"GTM-2-120"},"id":"GTM-2-120"},{"arcs":[[-170,-420,581,582,583,584,585]],"type":"Polygon","properties":{"name":"Mixco","shapeGroup":"GTM","gid":"GTM-2-121"},"id":"GTM-2-121"},{"arcs":[[-425,586,587,588,589,590,591,592,-560]],"type":"Polygon","properties":{"name":"Momostenango","shapeGroup":"GTM","gid":"GTM-2-122"},"id":"GTM-2-122"},{"arcs":[[-337,-493,-464,593,594,595]],"type":"Polygon","properties":{"name":"Monjas","shapeGroup":"GTM","gid":"GTM-2-123"},"id":"GTM-2-123"},{"arcs":[[-547,596,597,-552,598]],"type":"Polygon","properties":{"name":"Morales","shapeGroup":"GTM","gid":"GTM-2-124"},"id":"GTM-2-124"},{"arcs":[[-411,599,600,601,602]],"type":"Polygon","properties":{"name":"Morazán","shapeGroup":"GTM","gid":"GTM-2-125"},"id":"GTM-2-125"},{"arcs":[[-278,603,604,605,-471]],"type":"Polygon","properties":{"name":"Moyuta","shapeGroup":"GTM","gid":"GTM-2-126"},"id":"GTM-2-126"},{"arcs":[[-105,606,607,608,609,610,611,-574,612,613,614,615]],"type":"Polygon","properties":{"name":"Nahualá","shapeGroup":"GTM","gid":"GTM-2-127"},"id":"GTM-2-127"},{"arcs":[[-19,-133,616,617,-64,-442,-125,618]],"type":"Polygon","properties":{"name":"Nebaj","shapeGroup":"GTM","gid":"GTM-2-128"},"id":"GTM-2-128"},{"arcs":[[-461,619,620,621,622]],"type":"Polygon","properties":{"name":"Nentón","shapeGroup":"GTM","gid":"GTM-2-129"},"id":"GTM-2-129"},{"arcs":[[-515,623,624,625,626,627]],"type":"Polygon","properties":{"name":"Nueva Concepción","shapeGroup":"GTM","gid":"GTM-2-130"},"id":"GTM-2-130"},{"arcs":[[-58,628,629,-566,-113,-285]],"type":"Polygon","properties":{"name":"Nueva Santa Rosa","shapeGroup":"GTM","gid":"GTM-2-131"},"id":"GTM-2-131"},{"arcs":[[-211,630,-353,-368,631,-523,-339]],"type":"Polygon","properties":{"name":"Nuevo Progreso","shapeGroup":"GTM","gid":"GTM-2-132"},"id":"GTM-2-132"},{"arcs":[[-229,632,-333,633,634,-311]],"type":"Polygon","properties":{"name":"Nuevo San Carlos","shapeGroup":"GTM","gid":"GTM-2-133"},"id":"GTM-2-133"},{"arcs":[[-54,-497,635]],"type":"Polygon","properties":{"name":"Ocós","shapeGroup":"GTM","gid":"GTM-2-134"},"id":"GTM-2-134"},{"arcs":[[-513,636,637,638,639]],"type":"Polygon","properties":{"name":"Olintepeque","shapeGroup":"GTM","gid":"GTM-2-135"},"id":"GTM-2-135"},{"arcs":[[-364,640,641,-479]],"type":"Polygon","properties":{"name":"Olopa","shapeGroup":"GTM","gid":"GTM-2-136"},"id":"GTM-2-136"},{"arcs":[[-189,642,643,-287,644,-472,-606,645]],"type":"Polygon","properties":{"name":"Oratorio","shapeGroup":"GTM","gid":"GTM-2-137"},"id":"GTM-2-137"},{"arcs":[[-90,646,-511,647,-260,648,-227,-342,649,650,651]],"type":"Polygon","properties":{"name":"Ostuncalco","shapeGroup":"GTM","gid":"GTM-2-138"},"id":"GTM-2-138"},{"arcs":[[-394,652,-486]],"type":"Polygon","properties":{"name":"Pachalum","shapeGroup":"GTM","gid":"GTM-2-139"},"id":"GTM-2-139"},{"arcs":[[-51,-118,-354,-631,-210]],"type":"Polygon","properties":{"name":"Pajapita","shapeGroup":"GTM","gid":"GTM-2-140"},"id":"GTM-2-140"},{"arcs":[[-414,653,654,655,-569,656]],"type":"Polygon","properties":{"name":"Palencia","shapeGroup":"GTM","gid":"GTM-2-141"},"id":"GTM-2-141"},{"arcs":[[-91,-652,657,658,659]],"type":"Polygon","properties":{"name":"Palestina de Los Altos","shapeGroup":"GTM","gid":"GTM-2-142"},"id":"GTM-2-142"},{"arcs":[[-30,660,-355,661]],"type":"Polygon","properties":{"name":"Palín","shapeGroup":"GTM","gid":"GTM-2-143"},"id":"GTM-2-143"},{"arcs":[[-256,662,663,-530,664]],"type":"Polygon","properties":{"name":"Panajachel","shapeGroup":"GTM","gid":"GTM-2-144"},"id":"GTM-2-144"},{"arcs":[[-82,-326,665,666,667,668]],"type":"Polygon","properties":{"name":"Panzós","shapeGroup":"GTM","gid":"GTM-2-145"},"id":"GTM-2-145"},{"arcs":[[-350,669,670,671,672]],"type":"Polygon","properties":{"name":"Parramos","shapeGroup":"GTM","gid":"GTM-2-146"},"id":"GTM-2-146"},{"arcs":[[-190,-646,-605,673]],"type":"Polygon","properties":{"name":"Pasaco","shapeGroup":"GTM","gid":"GTM-2-147"},"id":"GTM-2-147"},{"arcs":[[-39,674,675,-670,-349,676,-483]],"type":"Polygon","properties":{"name":"Pastores","shapeGroup":"GTM","gid":"GTM-2-148"},"id":"GTM-2-148"},{"arcs":[[-627,677,678,679,680,681,682,683,684,685,686]],"type":"Polygon","properties":{"name":"Patulul","shapeGroup":"GTM","gid":"GTM-2-149"},"id":"GTM-2-149"},{"arcs":[[-1,687,688,689,690,691]],"type":"Polygon","properties":{"name":"Patzicía","shapeGroup":"GTM","gid":"GTM-2-150"},"id":"GTM-2-150"},{"arcs":[[-162,692,693,694,695]],"type":"Polygon","properties":{"name":"Patzité","shapeGroup":"GTM","gid":"GTM-2-151"},"id":"GTM-2-151"},{"arcs":[[-7,696,697,698,699,700,-688]],"type":"Polygon","properties":{"name":"Patzún","shapeGroup":"GTM","gid":"GTM-2-152"},"id":"GTM-2-152"},{"arcs":[[-418,701,-528,702]],"type":"Polygon","properties":{"name":"Petapa","shapeGroup":"GTM","gid":"GTM-2-153"},"id":"GTM-2-153"},{"arcs":[[-264,703,704]],"type":"Polygon","properties":{"name":"Petatán","shapeGroup":"GTM","gid":"GTM-2-154"},"id":"GTM-2-154"},{"arcs":[[-6,705,-685,706,-697]],"type":"Polygon","properties":{"name":"Pochuta","shapeGroup":"GTM","gid":"GTM-2-155"},"id":"GTM-2-155"},{"arcs":[[-304,707,708,709,-314]],"type":"Polygon","properties":{"name":"Poptún","shapeGroup":"GTM","gid":"GTM-2-156"},"id":"GTM-2-156"},{"arcs":[[710,711,712,713]],"type":"Polygon","properties":{"name":"Pueblo Nuevo","shapeGroup":"GTM","gid":"GTM-2-157"},"id":"GTM-2-157"},{"arcs":[[-60,-289,-193,-423,714,-403,715]],"type":"Polygon","properties":{"name":"Pueblo Nuevo Viñas","shapeGroup":"GTM","gid":"GTM-2-158"},"id":"GTM-2-158"},{"arcs":[[-546,716,-597]],"type":"Polygon","properties":{"name":"Puerto Barrios","shapeGroup":"GTM","gid":"GTM-2-159"},"id":"GTM-2-159"},{"arcs":[[717,718,719,720,721,722,723]],"type":"Polygon","properties":{"name":"Purulhá","shapeGroup":"GTM","gid":"GTM-2-160"},"id":"GTM-2-160"},{"arcs":[[-110,-491,-474,724]],"type":"Polygon","properties":{"name":"Quesada","shapeGroup":"GTM","gid":"GTM-2-161"},"id":"GTM-2-161"},{"arcs":[[-22,725,-335,726,727,-509,-640,728,729,-102]],"type":"Polygon","properties":{"name":"Quetzaltenango","shapeGroup":"GTM","gid":"GTM-2-162"},"id":"GTM-2-162"},{"arcs":[[-269,-439,730,731,-641,-363]],"type":"Polygon","properties":{"name":"Quezaltepeque","shapeGroup":"GTM","gid":"GTM-2-163"},"id":"GTM-2-163"},{"arcs":[[-148,732,733,-319,-395,-281]],"type":"Polygon","properties":{"name":"Rabinal","shapeGroup":"GTM","gid":"GTM-2-164"},"id":"GTM-2-164"},{"arcs":[[-195,734,735,-388]],"type":"Polygon","properties":{"name":"Raxruhá","shapeGroup":"GTM","gid":"GTM-2-165"},"id":"GTM-2-165"},{"arcs":[[-128,736,-495,-216,-390,-312,-635,737,738,739,740]],"type":"Polygon","properties":{"name":"Retalhuleu","shapeGroup":"GTM","gid":"GTM-2-166"},"id":"GTM-2-166"},{"arcs":[[-77,-431,741,742,743,-249]],"type":"Polygon","properties":{"name":"Río Blanco","shapeGroup":"GTM","gid":"GTM-2-167"},"id":"GTM-2-167"},{"arcs":[[-137,744,-679,745,746]],"type":"Polygon","properties":{"name":"Río Bravo","shapeGroup":"GTM","gid":"GTM-2-168"},"id":"GTM-2-168"},{"arcs":[[-325,-400,747,-373,748,-666]],"type":"Polygon","properties":{"name":"Río Hondo","shapeGroup":"GTM","gid":"GTM-2-169"},"id":"GTM-2-169"},{"arcs":[[-16,-297,749,750,751,-587,-424]],"type":"Polygon","properties":{"name":"Sacapulas","shapeGroup":"GTM","gid":"GTM-2-170"},"id":"GTM-2-170"},{"arcs":[[-204,-320,-734,752,753,-720,754,755,-601,756]],"type":"Polygon","properties":{"name":"Salamá","shapeGroup":"GTM","gid":"GTM-2-171"},"id":"GTM-2-171"},{"arcs":[[-103,-730,757,758,759]],"type":"Polygon","properties":{"name":"Salcajá","shapeGroup":"GTM","gid":"GTM-2-172"},"id":"GTM-2-172"},{"arcs":[[-575,-612,760,761,762,763]],"type":"Polygon","properties":{"name":"Samayac","shapeGroup":"GTM","gid":"GTM-2-173"},"id":"GTM-2-173"},{"arcs":[[-329,-412,-603,764,-755,-719,765,766]],"type":"Polygon","properties":{"name":"San Agustín Acasaguastlán","shapeGroup":"GTM","gid":"GTM-2-174"},"id":"GTM-2-174"},{"arcs":[[-377,767,-522,768,769]],"type":"Polygon","properties":{"name":"San Andrés","shapeGroup":"GTM","gid":"GTM-2-175"},"id":"GTM-2-175"},{"arcs":[[-2,-692,770,-166,-673,771]],"type":"Polygon","properties":{"name":"San Andrés Itzapa","shapeGroup":"GTM","gid":"GTM-2-176"},"id":"GTM-2-176"},{"arcs":[[-100,772,-176,773,774,-750,-296,775]],"type":"Polygon","properties":{"name":"San Andrés Sajcabajá","shapeGroup":"GTM","gid":"GTM-2-177"},"id":"GTM-2-177"},{"arcs":[[-158,776,-700,777,778,-663,-255]],"type":"Polygon","properties":{"name":"San Andrés Semetabaj","shapeGroup":"GTM","gid":"GTM-2-178"},"id":"GTM-2-178"},{"arcs":[[-301,779,780,781,-740,782,783,784,-711,785]],"type":"Polygon","properties":{"name":"San Andrés Villa Seca","shapeGroup":"GTM","gid":"GTM-2-179"},"id":"GTM-2-179"},{"arcs":[[-639,786,787,-758,-729]],"type":"Polygon","properties":{"name":"San Andrés Xecul","shapeGroup":"GTM","gid":"GTM-2-180"},"id":"GTM-2-180"},{"arcs":[[-38,-209,788,789,-675]],"type":"Polygon","properties":{"name":"San Antonio Aguas Calientes","shapeGroup":"GTM","gid":"GTM-2-181"},"id":"GTM-2-181"},{"arcs":[[-265,-705,790,791,-507,792,-458]],"type":"Polygon","properties":{"name":"San Antonio Huista","shapeGroup":"GTM","gid":"GTM-2-182"},"id":"GTM-2-182"},{"arcs":[[-695,793,794,795,796]],"type":"Polygon","properties":{"name":"San Antonio Ilotenango","shapeGroup":"GTM","gid":"GTM-2-183"},"id":"GTM-2-183"},{"arcs":[[-656,797,798]],"type":"Polygon","properties":{"name":"San Antonio La Paz","shapeGroup":"GTM","gid":"GTM-2-184"},"id":"GTM-2-184"},{"arcs":[[-532,799,-778,-699,800]],"type":"Polygon","properties":{"name":"San Antonio Palopó","shapeGroup":"GTM","gid":"GTM-2-185"},"id":"GTM-2-185"},{"arcs":[[-659,801,-743,802]],"type":"Polygon","properties":{"name":"San Antonio Sacatepéquez","shapeGroup":"GTM","gid":"GTM-2-186"},"id":"GTM-2-186"},{"arcs":[[-140,803,804,805,806,-763,807]],"type":"Polygon","properties":{"name":"San Antonio Suchitepéquez","shapeGroup":"GTM","gid":"GTM-2-187"},"id":"GTM-2-187"},{"arcs":[[-561,-593,808]],"type":"Polygon","properties":{"name":"San Bartolo","shapeGroup":"GTM","gid":"GTM-2-188"},"id":"GTM-2-188"},{"arcs":[[-751,-775,809]],"type":"Polygon","properties":{"name":"San Bartolomé Jocotenango","shapeGroup":"GTM","gid":"GTM-2-189"},"id":"GTM-2-189"},{"arcs":[[-42,810,811,812]],"type":"Polygon","properties":{"name":"San Bartolomé Milpas Altas","shapeGroup":"GTM","gid":"GTM-2-190"},"id":"GTM-2-190"},{"arcs":[[-376,813,-518,-768]],"type":"Polygon","properties":{"name":"San Benito","shapeGroup":"GTM","gid":"GTM-2-191"},"id":"GTM-2-191"},{"arcs":[[-576,-764,-807,814]],"type":"Polygon","properties":{"name":"San Bernardino","shapeGroup":"GTM","gid":"GTM-2-192"},"id":"GTM-2-192"},{"arcs":[[-108,815,-571,-466,-492]],"type":"Polygon","properties":{"name":"San Carlos Alzatate","shapeGroup":"GTM","gid":"GTM-2-193"},"id":"GTM-2-193"},{"arcs":[[-80,816,-562,-809,-592,817,818,819,-93,820,-429]],"type":"Polygon","properties":{"name":"San Carlos Sija","shapeGroup":"GTM","gid":"GTM-2-194"},"id":"GTM-2-194"},{"arcs":[[-73,-330,-767,821,822]],"type":"Polygon","properties":{"name":"San Cristóbal Acasaguastlán","shapeGroup":"GTM","gid":"GTM-2-195"},"id":"GTM-2-195"},{"arcs":[[-341,-524,823,824,-650]],"type":"Polygon","properties":{"name":"San Cristóbal Cucho","shapeGroup":"GTM","gid":"GTM-2-196"},"id":"GTM-2-196"},{"arcs":[[-759,-788,825,-819,826,827]],"type":"Polygon","properties":{"name":"San Cristóbal Totonicapán","shapeGroup":"GTM","gid":"GTM-2-197"},"id":"GTM-2-197"},{"arcs":[[-146,-225,828,829]],"type":"Polygon","properties":{"name":"San Cristóbal Verapaz","shapeGroup":"GTM","gid":"GTM-2-198"},"id":"GTM-2-198"},{"arcs":[[-70,-186,830,831]],"type":"Polygon","properties":{"name":"San Diego","shapeGroup":"GTM","gid":"GTM-2-199"},"id":"GTM-2-199"},{"arcs":[[-332,832,-712,-785,833,834,-634]],"type":"Polygon","properties":{"name":"San Felipe","shapeGroup":"GTM","gid":"GTM-2-200"},"id":"GTM-2-200"},{"arcs":[[-316,835,-543,-519,-814,-375,836]],"type":"Polygon","properties":{"name":"San Francisco","shapeGroup":"GTM","gid":"GTM-2-201"},"id":"GTM-2-201"},{"arcs":[[-591,837,838,-827,-818]],"type":"Polygon","properties":{"name":"San Francisco El Alto","shapeGroup":"GTM","gid":"GTM-2-202"},"id":"GTM-2-202"},{"arcs":[[-88,-820,-826,-787,-638,839]],"type":"Polygon","properties":{"name":"San Francisco La Unión","shapeGroup":"GTM","gid":"GTM-2-203"},"id":"GTM-2-203"},{"arcs":[[-302,-786,-714,-615,840,-613,-573]],"type":"Polygon","properties":{"name":"San Francisco Zapotitlán","shapeGroup":"GTM","gid":"GTM-2-204"},"id":"GTM-2-204"},{"arcs":[[-578,841]],"type":"Polygon","properties":{"name":"San Gabriel","shapeGroup":"GTM","gid":"GTM-2-205"},"id":"GTM-2-205"},{"arcs":[[-234,842,843,844,-449]],"type":"Polygon","properties":{"name":"San Gaspar Ixchil","shapeGroup":"GTM","gid":"GTM-2-206"},"id":"GTM-2-206"},{"arcs":[[-183,845,-731,-438,846]],"type":"Polygon","properties":{"name":"San Jacinto","shapeGroup":"GTM","gid":"GTM-2-207"},"id":"GTM-2-207"},{"arcs":[[-602,-756,-765]],"type":"Polygon","properties":{"name":"San Jerónimo","shapeGroup":"GTM","gid":"GTM-2-208"},"id":"GTM-2-208"},{"arcs":[[-179,-434,-370,847]],"type":"Polygon","properties":{"name":"San Jorge","shapeGroup":"GTM","gid":"GTM-2-209"},"id":"GTM-2-209"},{"arcs":[[-456,848,849,-499,-565]],"type":"Polygon","properties":{"name":"San José","shapeGroup":"GTM","gid":"GTM-2-210"},"id":"GTM-2-210"},{"arcs":[[-378,-770,850]],"type":"Polygon","properties":{"name":"San José","shapeGroup":"GTM","gid":"GTM-2-211"},"id":"GTM-2-211"},{"arcs":[[-111,-725,-473,-645,-286]],"type":"Polygon","properties":{"name":"San José Acatempa","shapeGroup":"GTM","gid":"GTM-2-212"},"id":"GTM-2-212"},{"arcs":[[-609,851,852,853,854]],"type":"Polygon","properties":{"name":"San José Chacayá","shapeGroup":"GTM","gid":"GTM-2-213"},"id":"GTM-2-213"},{"arcs":[[-206,855,-798,-655,856]],"type":"Polygon","properties":{"name":"San José del Golfo","shapeGroup":"GTM","gid":"GTM-2-214"},"id":"GTM-2-214"},{"arcs":[[-138,-747,857,858,-805,859]],"type":"Polygon","properties":{"name":"San José El Ídolo","shapeGroup":"GTM","gid":"GTM-2-215"},"id":"GTM-2-215"},{"arcs":[[-184,-847,-437,860]],"type":"Polygon","properties":{"name":"San José La Arada","shapeGroup":"GTM","gid":"GTM-2-216"},"id":"GTM-2-216"},{"arcs":[[-300,861,-780]],"type":"Polygon","properties":{"name":"San José La Máquina","shapeGroup":"GTM","gid":"GTM-2-217"},"id":"GTM-2-217"},{"arcs":[[-274,862,-447,863,864]],"type":"Polygon","properties":{"name":"San José Ojetenam","shapeGroup":"GTM","gid":"GTM-2-218"},"id":"GTM-2-218"},{"arcs":[[-384,865,-415,-657,-568,866]],"type":"Polygon","properties":{"name":"San José Pinula","shapeGroup":"GTM","gid":"GTM-2-219"},"id":"GTM-2-219"},{"arcs":[[-243,867,868,-488,869]],"type":"Polygon","properties":{"name":"San José Poaquil","shapeGroup":"GTM","gid":"GTM-2-220"},"id":"GTM-2-220"},{"arcs":[[870,871,872,873,874]],"type":"Polygon","properties":{"name":"San Juan Atitán","shapeGroup":"GTM","gid":"GTM-2-221"},"id":"GTM-2-221"},{"arcs":[[-681,875]],"type":"Polygon","properties":{"name":"San Juan Bautista","shapeGroup":"GTM","gid":"GTM-2-222"},"id":"GTM-2-222"},{"arcs":[[-221,876,877,878,879]],"type":"Polygon","properties":{"name":"San Juan Chamelco","shapeGroup":"GTM","gid":"GTM-2-223"},"id":"GTM-2-223"},{"arcs":[[-14,-619,-124,880,-294]],"type":"Polygon","properties":{"name":"San Juan Cotzal","shapeGroup":"GTM","gid":"GTM-2-224"},"id":"GTM-2-224"},{"arcs":[[-182,-480,-642,-732,-846]],"type":"Polygon","properties":{"name":"San Juan Ermita","shapeGroup":"GTM","gid":"GTM-2-225"},"id":"GTM-2-225"},{"arcs":[[-132,881,-261,882,883,-617]],"type":"Polygon","properties":{"name":"San Juan Ixcoy","shapeGroup":"GTM","gid":"GTM-2-226"},"id":"GTM-2-226"},{"arcs":[[-144,884,885,886,887,-536,888]],"type":"Polygon","properties":{"name":"San Juan La Laguna","shapeGroup":"GTM","gid":"GTM-2-227"},"id":"GTM-2-227"},{"arcs":[[-164,889,-392,890,891,892,893,-347]],"type":"Polygon","properties":{"name":"San Juan Sacatepéquez","shapeGroup":"GTM","gid":"GTM-2-228"},"id":"GTM-2-228"},{"arcs":[[-188,894,-643]],"type":"Polygon","properties":{"name":"San Juan Tecuaco","shapeGroup":"GTM","gid":"GTM-2-229"},"id":"GTM-2-229"},{"arcs":[[-299,-579,-842,895,896,-781,-862]],"type":"Polygon","properties":{"name":"San Lorenzo","shapeGroup":"GTM","gid":"GTM-2-230"},"id":"GTM-2-230"},{"arcs":[[-250,-744,897,898]],"type":"Polygon","properties":{"name":"San Lorenzo","shapeGroup":"GTM","gid":"GTM-2-231"},"id":"GTM-2-231"},{"arcs":[[-583,899,900,-812,901]],"type":"Polygon","properties":{"name":"San Lucas Sacatepéquez","shapeGroup":"GTM","gid":"GTM-2-232"},"id":"GTM-2-232"},{"arcs":[[-533,-801,-698,-707,-684,902]],"type":"Polygon","properties":{"name":"San Lucas Tolimán","shapeGroup":"GTM","gid":"GTM-2-233"},"id":"GTM-2-233"},{"arcs":[[-120,-389,-736,903,-709,904,-549]],"type":"Polygon","properties":{"name":"San Luis","shapeGroup":"GTM","gid":"GTM-2-234"},"id":"GTM-2-234"},{"arcs":[[-185,-861,-436,905,906,-831]],"type":"Polygon","properties":{"name":"San Luis Jilotepeque","shapeGroup":"GTM","gid":"GTM-2-235"},"id":"GTM-2-235"},{"arcs":[[-12,907,-595,908,-906,-435]],"type":"Polygon","properties":{"name":"San Manuel Chaparrón","shapeGroup":"GTM","gid":"GTM-2-236"},"id":"GTM-2-236"},{"arcs":[[-251,-899,909,-824,-632,-367,910,911,912,-443,913]],"type":"Polygon","properties":{"name":"San Marcos","shapeGroup":"GTM","gid":"GTM-2-237"},"id":"GTM-2-237"},{"arcs":[[-538,914,915,-854,916]],"type":"Polygon","properties":{"name":"San Marcos La Laguna","shapeGroup":"GTM","gid":"GTM-2-238"},"id":"GTM-2-238"},{"arcs":[[-168,917,-238,-870,-487,-653,-393,-890]],"type":"Polygon","properties":{"name":"San Martín Jilotepeque","shapeGroup":"GTM","gid":"GTM-2-239"},"id":"GTM-2-239"},{"arcs":[[-228,-649,-259,918,-727,-334,-633]],"type":"Polygon","properties":{"name":"San Martín Sacatepéquez","shapeGroup":"GTM","gid":"GTM-2-240"},"id":"GTM-2-240"},{"arcs":[[-784,919,-834]],"type":"Polygon","properties":{"name":"San Martín Zapotitlán","shapeGroup":"GTM","gid":"GTM-2-241"},"id":"GTM-2-241"},{"arcs":[[-258,-648,-510,-728,-919]],"type":"Polygon","properties":{"name":"San Mateo","shapeGroup":"GTM","gid":"GTM-2-242"},"id":"GTM-2-242"},{"arcs":[[-66,920,921,-621,922]],"type":"Polygon","properties":{"name":"San Mateo Ixtatán","shapeGroup":"GTM","gid":"GTM-2-243"},"id":"GTM-2-243"},{"arcs":[[-267,-462,-623,923,924,925]],"type":"Polygon","properties":{"name":"San Miguel Acatán","shapeGroup":"GTM","gid":"GTM-2-244"},"id":"GTM-2-244"},{"arcs":[[-147,-830,926,927,-753,-733]],"type":"Polygon","properties":{"name":"San Miguel Chicaj","shapeGroup":"GTM","gid":"GTM-2-245"},"id":"GTM-2-245"},{"arcs":[[-3,-772,-672,928,-789,-208,-23]],"type":"Polygon","properties":{"name":"San Miguel Dueñas","shapeGroup":"GTM","gid":"GTM-2-246"},"id":"GTM-2-246"},{"arcs":[[-253,929,-272,-450,-845,930,931]],"type":"Polygon","properties":{"name":"San Miguel Ixtahuacán","shapeGroup":"GTM","gid":"GTM-2-247"},"id":"GTM-2-247"},{"arcs":[[-139,-860,-804]],"type":"Polygon","properties":{"name":"San Miguel Panán","shapeGroup":"GTM","gid":"GTM-2-248"},"id":"GTM-2-248"},{"arcs":[[-89,-840,-637,-512,-647]],"type":"Polygon","properties":{"name":"San Miguel Sigüila","shapeGroup":"GTM","gid":"GTM-2-249"},"id":"GTM-2-249"},{"arcs":[[-344,-559,932,-912,933]],"type":"Polygon","properties":{"name":"San Pablo","shapeGroup":"GTM","gid":"GTM-2-250"},"id":"GTM-2-250"},{"arcs":[[-141,-808,-762,934,935]],"type":"Polygon","properties":{"name":"San Pablo Jocopilas","shapeGroup":"GTM","gid":"GTM-2-251"},"id":"GTM-2-251"},{"arcs":[[-537,-888,936,937,-915]],"type":"Polygon","properties":{"name":"San Pablo La Laguna","shapeGroup":"GTM","gid":"GTM-2-252"},"id":"GTM-2-252"},{"arcs":[[-173,-207,-857,-654,-413]],"type":"Polygon","properties":{"name":"San Pedro Ayampuc","shapeGroup":"GTM","gid":"GTM-2-253"},"id":"GTM-2-253"},{"arcs":[[-85,-542,938,-877,-220,-197,-387]],"type":"Polygon","properties":{"name":"San Pedro Carchá","shapeGroup":"GTM","gid":"GTM-2-254"},"id":"GTM-2-254"},{"arcs":[[-175,939,-796,940,-588,-752,-810,-774]],"type":"Polygon","properties":{"name":"San Pedro Jocopilas","shapeGroup":"GTM","gid":"GTM-2-255"},"id":"GTM-2-255"},{"arcs":[[-134,-889,-535,941]],"type":"Polygon","properties":{"name":"San Pedro La Laguna","shapeGroup":"GTM","gid":"GTM-2-256"},"id":"GTM-2-256"},{"arcs":[[-236,-453,-508,-792,942,943,944]],"type":"Polygon","properties":{"name":"San Pedro Necta","shapeGroup":"GTM","gid":"GTM-2-257"},"id":"GTM-2-257"},{"arcs":[[-71,-832,-907,-909,-594,-463,-407,-327]],"type":"Polygon","properties":{"name":"San Pedro Pinula","shapeGroup":"GTM","gid":"GTM-2-258"},"id":"GTM-2-258"},{"arcs":[[-585,945,946,-892,947]],"type":"Polygon","properties":{"name":"San Pedro Sacatepéquez","shapeGroup":"GTM","gid":"GTM-2-259"},"id":"GTM-2-259"},{"arcs":[[-651,-825,-910,-898,-802,-658]],"type":"Polygon","properties":{"name":"San Pedro Sacatepéquez","shapeGroup":"GTM","gid":"GTM-2-260"},"id":"GTM-2-260"},{"arcs":[[-925,948,949,950]],"type":"Polygon","properties":{"name":"San Rafael La Independencia","shapeGroup":"GTM","gid":"GTM-2-261"},"id":"GTM-2-261"},{"arcs":[[-107,-572,-816]],"type":"Polygon","properties":{"name":"San Rafael Las Flores","shapeGroup":"GTM","gid":"GTM-2-262"},"id":"GTM-2-262"},{"arcs":[[-233,-873,951,-843]],"type":"Polygon","properties":{"name":"San Rafael Petzal","shapeGroup":"GTM","gid":"GTM-2-263"},"id":"GTM-2-263"},{"arcs":[[-345,-934,-911,-366,-351]],"type":"Polygon","properties":{"name":"San Rafael Pie de la Cuesta","shapeGroup":"GTM","gid":"GTM-2-264"},"id":"GTM-2-264"},{"arcs":[[-171,-586,-948,-891,-391,-201]],"type":"Polygon","properties":{"name":"San Raimundo","shapeGroup":"GTM","gid":"GTM-2-265"},"id":"GTM-2-265"},{"arcs":[[-738,-835,952]],"type":"Polygon","properties":{"name":"San Sebastián","shapeGroup":"GTM","gid":"GTM-2-266"},"id":"GTM-2-266"},{"arcs":[[-622,-922,953,-949,-924]],"type":"Polygon","properties":{"name":"San Sebastián Coatán","shapeGroup":"GTM","gid":"GTM-2-267"},"id":"GTM-2-267"},{"arcs":[[-130,-428,954,-871,955]],"type":"Polygon","properties":{"name":"San Sebastián Huehuetenango","shapeGroup":"GTM","gid":"GTM-2-268"},"id":"GTM-2-268"},{"arcs":[[-29,956,-401,-356,-661]],"type":"Polygon","properties":{"name":"San Vicente Pacaya","shapeGroup":"GTM","gid":"GTM-2-269"},"id":"GTM-2-269"},{"arcs":[[-205,-757,-600,-410,957,-468,-570,-799,-856]],"type":"Polygon","properties":{"name":"Sanarate","shapeGroup":"GTM","gid":"GTM-2-270"},"id":"GTM-2-270"},{"arcs":[[-409,-469,-958]],"type":"Polygon","properties":{"name":"Sansare","shapeGroup":"GTM","gid":"GTM-2-271"},"id":"GTM-2-271"},{"arcs":[[-306,-317,-837,-374,-580]],"type":"Polygon","properties":{"name":"Santa Ana","shapeGroup":"GTM","gid":"GTM-2-272"},"id":"GTM-2-272"},{"arcs":[[-459,-793,-506,958]],"type":"Polygon","properties":{"name":"Santa Ana Huista","shapeGroup":"GTM","gid":"GTM-2-273"},"id":"GTM-2-273"},{"arcs":[[-242,959,-868]],"type":"Polygon","properties":{"name":"Santa Apolonia","shapeGroup":"GTM","gid":"GTM-2-274"},"id":"GTM-2-274"},{"arcs":[[-136,960,-682,-876,-680,-745]],"type":"Polygon","properties":{"name":"Santa Bárbara","shapeGroup":"GTM","gid":"GTM-2-275"},"id":"GTM-2-275"},{"arcs":[[-427,-564,-931,-844,-952,-872,-955]],"type":"Polygon","properties":{"name":"Santa Bárbara","shapeGroup":"GTM","gid":"GTM-2-276"},"id":"GTM-2-276"},{"arcs":[[-668,961,-724,962,963]],"type":"Polygon","properties":{"name":"Santa Catalina La Tinta","shapeGroup":"GTM","gid":"GTM-2-277"},"id":"GTM-2-277"},{"arcs":[[-671,-676,-790,-929]],"type":"Polygon","properties":{"name":"Santa Catarina Barahona","shapeGroup":"GTM","gid":"GTM-2-278"},"id":"GTM-2-278"},{"arcs":[[-143,964,-935,-761,-611,965,966,967,-885]],"type":"Polygon","properties":{"name":"Santa Catarina Ixtahuacán","shapeGroup":"GTM","gid":"GTM-2-279"},"id":"GTM-2-279"},{"arcs":[[-11,-47,-494,-338,-596,-908]],"type":"Polygon","properties":{"name":"Santa Catarina Mita","shapeGroup":"GTM","gid":"GTM-2-280"},"id":"GTM-2-280"},{"arcs":[[-531,-664,-779,-800]],"type":"Polygon","properties":{"name":"Santa Catarina Palopó","shapeGroup":"GTM","gid":"GTM-2-281"},"id":"GTM-2-281"},{"arcs":[[-383,968,-416,-866]],"type":"Polygon","properties":{"name":"Santa Catarina Pinula","shapeGroup":"GTM","gid":"GTM-2-282"},"id":"GTM-2-282"},{"arcs":[[-887,969,-967,970,-937]],"type":"Polygon","properties":{"name":"Santa Clara La Laguna","shapeGroup":"GTM","gid":"GTM-2-283"},"id":"GTM-2-283"},{"arcs":[[-240,971,-690,972]],"type":"Polygon","properties":{"name":"Santa Cruz Balanyá","shapeGroup":"GTM","gid":"GTM-2-284"},"id":"GTM-2-284"},{"arcs":[[-154,-163,-696,-797,-940,-174]],"type":"Polygon","properties":{"name":"Santa Cruz del Quiché","shapeGroup":"GTM","gid":"GTM-2-285"},"id":"GTM-2-285"},{"arcs":[[-539,-917,-853,973]],"type":"Polygon","properties":{"name":"Santa Cruz La Laguna","shapeGroup":"GTM","gid":"GTM-2-286"},"id":"GTM-2-286"},{"arcs":[[-739,-953,-920,-783]],"type":"Polygon","properties":{"name":"Santa Cruz Muluá","shapeGroup":"GTM","gid":"GTM-2-287"},"id":"GTM-2-287"},{"arcs":[[-63,-386,974,-629]],"type":"Polygon","properties":{"name":"Santa Cruz Naranjo","shapeGroup":"GTM","gid":"GTM-2-288"},"id":"GTM-2-288"},{"arcs":[[-224,975,-927,-829]],"type":"Polygon","properties":{"name":"Santa Cruz Verapaz","shapeGroup":"GTM","gid":"GTM-2-289"},"id":"GTM-2-289"},{"arcs":[[-65,-618,-884,976,-950,-954,-921]],"type":"Polygon","properties":{"name":"Santa Eulalia","shapeGroup":"GTM","gid":"GTM-2-290"},"id":"GTM-2-290"},{"arcs":[[-502,-516,-628,-687,977,978]],"type":"Polygon","properties":{"name":"Santa Lucía Cotzumalguapa","shapeGroup":"GTM","gid":"GTM-2-291"},"id":"GTM-2-291"},{"arcs":[[-589,-941,-795,979]],"type":"Polygon","properties":{"name":"Santa Lucía La Reforma","shapeGroup":"GTM","gid":"GTM-2-292"},"id":"GTM-2-292"},{"arcs":[[-34,-813,-901,980,-555]],"type":"Polygon","properties":{"name":"Santa Lucía Milpas Altas","shapeGroup":"GTM","gid":"GTM-2-293"},"id":"GTM-2-293"},{"arcs":[[-610,-855,-916,-938,-971,-966]],"type":"Polygon","properties":{"name":"Santa Lucía Utatlán","shapeGroup":"GTM","gid":"GTM-2-294"},"id":"GTM-2-294"},{"arcs":[[-590,-980,-794,-694,981,-838]],"type":"Polygon","properties":{"name":"Santa María Chiquimula","shapeGroup":"GTM","gid":"GTM-2-295"},"id":"GTM-2-295"},{"arcs":[[-31,-662,-36,-554]],"type":"Polygon","properties":{"name":"Santa María de Jesús","shapeGroup":"GTM","gid":"GTM-2-296"},"id":"GTM-2-296"},{"arcs":[[-187,-288,-644,-895]],"type":"Polygon","properties":{"name":"Santa María Ixhuatán","shapeGroup":"GTM","gid":"GTM-2-297"},"id":"GTM-2-297"},{"arcs":[[-886,-968,-970]],"type":"Polygon","properties":{"name":"Santa María Visitación","shapeGroup":"GTM","gid":"GTM-2-298"},"id":"GTM-2-298"},{"arcs":[[-385,-867,-567,-630,-975]],"type":"Polygon","properties":{"name":"Santa Rosa de Lima","shapeGroup":"GTM","gid":"GTM-2-299"},"id":"GTM-2-299"},{"arcs":[[-135,-942,-534,-903,-683,-961]],"type":"Polygon","properties":{"name":"Santiago Atitlán","shapeGroup":"GTM","gid":"GTM-2-300"},"id":"GTM-2-300"},{"arcs":[[-237,-945,982,-874]],"type":"Polygon","properties":{"name":"Santiago Chimaltenango","shapeGroup":"GTM","gid":"GTM-2-301"},"id":"GTM-2-301"},{"arcs":[[-584,-902,-811,983,984,-946]],"type":"Polygon","properties":{"name":"Santiago Sacatepéquez","shapeGroup":"GTM","gid":"GTM-2-302"},"id":"GTM-2-302"},{"arcs":[[-577,-815,-806,-859,985,986,-896]],"type":"Polygon","properties":{"name":"Santo Domingo Suchitepéquez","shapeGroup":"GTM","gid":"GTM-2-303"},"id":"GTM-2-303"},{"arcs":[[-893,-947,-985,987]],"type":"Polygon","properties":{"name":"Santo Domingo Xenacoj","shapeGroup":"GTM","gid":"GTM-2-304"},"id":"GTM-2-304"},{"arcs":[[-142,-936,-965]],"type":"Polygon","properties":{"name":"Santo Tomás La Unión","shapeGroup":"GTM","gid":"GTM-2-305"},"id":"GTM-2-305"},{"arcs":[[-200,988,-544,-836,-315,-710,-904,-735]],"type":"Polygon","properties":{"name":"Sayaxché","shapeGroup":"GTM","gid":"GTM-2-306"},"id":"GTM-2-306"},{"arcs":[[-83,-669,-964,989,-878,-939,-541]],"type":"Polygon","properties":{"name":"Senahú","shapeGroup":"GTM","gid":"GTM-2-307"},"id":"GTM-2-307"},{"arcs":[[-92,-660,-803,-742,-430,-821]],"type":"Polygon","properties":{"name":"Sibilia","shapeGroup":"GTM","gid":"GTM-2-308"},"id":"GTM-2-308"},{"arcs":[[-445,990,991,992]],"type":"Polygon","properties":{"name":"Sibinal","shapeGroup":"GTM","gid":"GTM-2-309"},"id":"GTM-2-309"},{"arcs":[[-79,-254,-932,-563,-817]],"type":"Polygon","properties":{"name":"Sipacapa","shapeGroup":"GTM","gid":"GTM-2-310"},"id":"GTM-2-310"},{"arcs":[[-500,-850,993,-624,-514]],"type":"Polygon","properties":{"name":"Sipacate","shapeGroup":"GTM","gid":"GTM-2-311"},"id":"GTM-2-311"},{"arcs":[[-360,-503,-979,994]],"type":"Polygon","properties":{"name":"Siquinalá","shapeGroup":"GTM","gid":"GTM-2-312"},"id":"GTM-2-312"},{"arcs":[[-160,-257,-665,-540,-974,-852,-608,995]],"type":"Polygon","properties":{"name":"Sololá","shapeGroup":"GTM","gid":"GTM-2-313"},"id":"GTM-2-313"},{"arcs":[[-883,-926,-951,-977]],"type":"Polygon","properties":{"name":"Soloma","shapeGroup":"GTM","gid":"GTM-2-314"},"id":"GTM-2-314"},{"arcs":[[-41,-484,-677,-348,-894,-988,-984]],"type":"Polygon","properties":{"name":"Sumpango","shapeGroup":"GTM","gid":"GTM-2-315"},"id":"GTM-2-315"},{"arcs":[[-446,-993,996,997,-864]],"type":"Polygon","properties":{"name":"Tacaná","shapeGroup":"GTM","gid":"GTM-2-316"},"id":"GTM-2-316"},{"arcs":[[-223,998,-721,-754,-928,-976]],"type":"Polygon","properties":{"name":"Tactic","shapeGroup":"GTM","gid":"GTM-2-317"},"id":"GTM-2-317"},{"arcs":[[-444,-913,-933,-558,999,-991]],"type":"Polygon","properties":{"name":"Tajumulco","shapeGroup":"GTM","gid":"GTM-2-318"},"id":"GTM-2-318"},{"arcs":[[-222,-880,1000,-722,-999]],"type":"Polygon","properties":{"name":"Tamahú","shapeGroup":"GTM","gid":"GTM-2-319"},"id":"GTM-2-319"},{"arcs":[[-404,-715,-422,1001,-454]],"type":"Polygon","properties":{"name":"Taxisco","shapeGroup":"GTM","gid":"GTM-2-320"},"id":"GTM-2-320"},{"arcs":[[-157,-489,-869,-960,-241,-973,-689,-701,-777]],"type":"Polygon","properties":{"name":"Tecpán Guatemala","shapeGroup":"GTM","gid":"GTM-2-321"},"id":"GTM-2-321"},{"arcs":[[-290,-865,-998,1002]],"type":"Polygon","properties":{"name":"Tectitán","shapeGroup":"GTM","gid":"GTM-2-322"},"id":"GTM-2-322"},{"arcs":[[-372,-433,1003,-822,-766,-718,-962,-667,-749]],"type":"Polygon","properties":{"name":"Teculután","shapeGroup":"GTM","gid":"GTM-2-323"},"id":"GTM-2-323"},{"arcs":[[-252,-914,-448,-863,-273,-930]],"type":"Polygon","properties":{"name":"Tejutla","shapeGroup":"GTM","gid":"GTM-2-324"},"id":"GTM-2-324"},{"arcs":[[-626,1004,-986,-858,-746,-678]],"type":"Polygon","properties":{"name":"Tiquisate","shapeGroup":"GTM","gid":"GTM-2-325"},"id":"GTM-2-325"},{"arcs":[[-131,-956,-875,-983,-944,1005,-262,-882]],"type":"Polygon","properties":{"name":"Todos Santos Cuchumatán","shapeGroup":"GTM","gid":"GTM-2-326"},"id":"GTM-2-326"},{"arcs":[[-104,-760,-828,-839,-982,-693,-161,-996,-607]],"type":"Polygon","properties":{"name":"Totonicapán","shapeGroup":"GTM","gid":"GTM-2-327"},"id":"GTM-2-327"},{"arcs":[[-723,-1001,-879,-990,-963]],"type":"Polygon","properties":{"name":"Tucurú","shapeGroup":"GTM","gid":"GTM-2-328"},"id":"GTM-2-328"},{"arcs":[[-263,-1006,-943,-791,-704]],"type":"Polygon","properties":{"name":"Unión Cantinil","shapeGroup":"GTM","gid":"GTM-2-329"},"id":"GTM-2-329"},{"arcs":[[-101,-776,-295,-881,-123,-441,-218,-150,-280]],"type":"Polygon","properties":{"name":"Uspantán","shapeGroup":"GTM","gid":"GTM-2-330"},"id":"GTM-2-330"},{"arcs":[[-74,-823,-1004,-432]],"type":"Polygon","properties":{"name":"Usumatlán","shapeGroup":"GTM","gid":"GTM-2-331"},"id":"GTM-2-331"},{"arcs":[[-28,-529,-702,-417,-969,-382,-61,-716,-402,-957]],"type":"Polygon","properties":{"name":"Villa Canales","shapeGroup":"GTM","gid":"GTM-2-332"},"id":"GTM-2-332"},{"arcs":[[-33,-556,-981,-900,-582,-419,-703,-527]],"type":"Polygon","properties":{"name":"Villa Nueva","shapeGroup":"GTM","gid":"GTM-2-333"},"id":"GTM-2-333"},{"arcs":[[-5,-26,-361,-995,-978,-686,-706]],"type":"Polygon","properties":{"name":"Yepocapa","shapeGroup":"GTM","gid":"GTM-2-334"},"id":"GTM-2-334"},{"arcs":[[-45,-50,-478,1006,-309,-490]],"type":"Polygon","properties":{"name":"Yupiltepeque","shapeGroup":"GTM","gid":"GTM-2-335"},"id":"GTM-2-335"},{"arcs":[[-180,-848,-369,-748,-399,-525,-481]],"type":"Polygon","properties":{"name":"Zacapa","shapeGroup":"GTM","gid":"GTM-2-336"},"id":"GTM-2-336"},{"arcs":[[-99,-284,-485,-151,-177,-773]],"type":"Polygon","properties":{"name":"Zacualpa","shapeGroup":"GTM","gid":"GTM-2-337"},"id":"GTM-2-337"},{"arcs":[[-245,-310,-1007,-477,1007]],"type":"Polygon","properties":{"name":"Zapotitlán","shapeGroup":"GTM","gid":"GTM-2-338"},"id":"GTM-2-338"},{"arcs":[[-167,-771,-691,-972,-239,-918]],"type":"Polygon","properties":{"name":"Zaragoza","shapeGroup":"GTM","gid":"GTM-2-339"},"id":"GTM-2-339"},{"arcs":[[-21,-106,-616,-713,-833,-331,-726]],"type":"Polygon","properties":{"name":"Zunil","shapeGroup":"GTM","gid":"GTM-2-340"},"id":"GTM-2-340"},{"arcs":[[-614,-841]],"type":"Polygon","properties":{"name":"Zunilito","shapeGroup":"GTM","gid":"GTM-2-341"},"id":"GTM-2-341"}]}}}