{"type":"Topology","arcs":[[[186,611],[22,-75],[143,-119]],[[351,417],[6,-27],[-138,-63]],[[219,327],[-148,49]],[[71,376],[32,28],[83,207]],[[663,930],[116,56],[50,11]],[[829,997],[59,-3]],[[888,994],[-7,-146],[-14,-16],[-123,1],[-62,18]],[[682,851],[-19,79]],[[613,923],[-25,-53]],[[588,870],[-38,3]],[[550,873],[-28,30],[-54,2]],[[468,905],[-14,14]],[[454,919],[106,-5],[53,9]],[[682,851],[-12,-2]],[[670,849],[-36,-3]],[[634,846],[-46,24]],[[613,923],[9,7]],[[622,930],[41,0]],[[634,846],[-25,-33],[-60,20]],[[549,833],[1,40]],[[351,417],[70,27],[6,37]],[[427,481],[125,1],[72,-10]],[[624,472],[4,-116]],[[628,356],[-70,6],[-85,-61],[-23,-47],[-54,-2],[-31,-32],[-80,-10]],[[285,210],[-66,117]],[[549,833],[-47,-4]],[[502,829],[5,49],[-39,27]],[[186,611],[-32,54],[-65,25],[-5,33],[-59,33],[-25,40],[24,28]],[[24,824],[176,-36],[1,-37],[38,-33],[27,-55],[38,-14],[37,30]],[[341,679],[86,-120],[0,-78]],[[502,829],[31,-47],[-2,-34]],[[531,748],[-94,31],[-56,-26]],[[381,753],[-18,137]],[[363,890],[91,29]],[[829,997],[5,25],[-52,153]],[[782,1175],[114,200],[1,118],[61,95],[33,24]],[[991,1612],[56,-305],[18,-123],[-29,-104],[1,-79]],[[1037,1001],[-149,-7]],[[628,356],[4,-134],[-54,-91],[-88,-45],[-19,-58],[-57,-9]],[[414,19],[-8,27],[-100,83]],[[306,129],[-21,81]],[[414,19],[-53,-19],[-118,33],[-52,52],[-10,63]],[[181,148],[26,11],[99,-30]],[[622,930],[22,36],[-24,35],[50,33],[67,-7],[35,52],[-17,65],[27,31]],[[670,849],[18,-80],[29,-57]],[[717,712],[-37,-19]],[[680,693],[-59,10],[-43,44],[-47,1]],[[1037,1001],[0,-54]],[[1037,947],[-83,-90],[-61,-35],[-40,-46],[-32,-4],[-44,-56],[-60,-4]],[[181,148],[-49,152],[7,25],[-68,51]],[[24,824],[59,39],[211,-4],[69,31]],[[381,753],[-42,-44],[2,-30]],[[991,1612],[78,-34],[85,-94],[35,-66],[83,-20],[117,-8],[-33,-91],[-34,-28],[-1,-61],[-55,-121],[-143,-62],[-21,-55],[-65,-25]],[[680,693],[6,-43],[-62,-178]]],"transform":{"scale":[0.00024380417566595848,0.00025317555831265464],"translate":[144.618068,13.246264]},"objects":{"GUM":{"type":"GeometryCollection","geometries":[{"arcs":[[0,1,2,3]],"type":"Polygon","properties":{"name":"Agat","shapeGroup":"GUM","gid":"GUM-2-0"},"id":"GUM-2-0"},{"arcs":[[4,5,6,7]],"type":"Polygon","properties":{"name":"Barrigada","shapeGroup":"GUM","gid":"GUM-2-1"},"id":"GUM-2-1"},{"arcs":[[8,9,10,11,12]],"type":"Polygon","properties":{"name":"Hagåtña","shapeGroup":"GUM","gid":"GUM-2-2"},"id":"GUM-2-2"},{"arcs":[[-8,13,14,15,-9,16,17]],"type":"Polygon","properties":{"name":"Mongmong-Toto-Maite","shapeGroup":"GUM","gid":"GUM-2-3"},"id":"GUM-2-3"},{"arcs":[[-10,-16,18,19]],"type":"Polygon","properties":{"name":"Sinajana","shapeGroup":"GUM","gid":"GUM-2-4"},"id":"GUM-2-4"},{"arcs":[[-2,20,21,22,23,24]],"type":"Polygon","properties":{"name":"Talofofo","shapeGroup":"GUM","gid":"GUM-2-5"},"id":"GUM-2-5"},{"arcs":[[-11,-20,25,26]],"type":"Polygon","properties":{"name":"Agana Heights","shapeGroup":"GUM","gid":"GUM-2-6"},"id":"GUM-2-6"},{"arcs":[[-1,27,28,29,-21]],"type":"Polygon","properties":{"name":"Santa Rita","shapeGroup":"GUM","gid":"GUM-2-7"},"id":"GUM-2-7"},{"arcs":[[-12,-27,30,31,32,33]],"type":"Polygon","properties":{"name":"Asan","shapeGroup":"GUM","gid":"GUM-2-8"},"id":"GUM-2-8"},{"arcs":[[-6,34,35,36,37]],"type":"Polygon","properties":{"name":"Dededo","shapeGroup":"GUM","gid":"GUM-2-9"},"id":"GUM-2-9"},{"arcs":[[-24,38,39,40]],"type":"Polygon","properties":{"name":"Inarajan","shapeGroup":"GUM","gid":"GUM-2-10"},"id":"GUM-2-10"},{"arcs":[[-40,41,42]],"type":"Polygon","properties":{"name":"Merizo","shapeGroup":"GUM","gid":"GUM-2-11"},"id":"GUM-2-11"},{"arcs":[[-5,-18,43,-35]],"type":"Polygon","properties":{"name":"Tamuning","shapeGroup":"GUM","gid":"GUM-2-12"},"id":"GUM-2-12"},{"arcs":[[-15,44,45,46,-31,-26,-19]],"type":"Polygon","properties":{"name":"Chalan Pago-Ordot","shapeGroup":"GUM","gid":"GUM-2-13"},"id":"GUM-2-13"},{"arcs":[[-7,-38,47,48,-45,-14]],"type":"Polygon","properties":{"name":"Mangilao","shapeGroup":"GUM","gid":"GUM-2-14"},"id":"GUM-2-14"},{"arcs":[[-3,-25,-41,-43,49]],"type":"Polygon","properties":{"name":"Umatac","shapeGroup":"GUM","gid":"GUM-2-15"},"id":"GUM-2-15"},{"arcs":[[-29,50,-33,51]],"type":"Polygon","properties":{"name":"Piti","shapeGroup":"GUM","gid":"GUM-2-16"},"id":"GUM-2-16"},{"arcs":[[-37,52,-48]],"type":"Polygon","properties":{"name":"Yigo","shapeGroup":"GUM","gid":"GUM-2-17"},"id":"GUM-2-17"},{"arcs":[[-22,-30,-52,-32,-47,53]],"type":"Polygon","properties":{"name":"Yona","shapeGroup":"GUM","gid":"GUM-2-18"},"id":"GUM-2-18"}]}}}