{"type":"Topology","arcs":[[[1413,3530],[-43,-88],[22,-36],[77,-50],[200,31],[302,2],[139,23],[262,131],[161,90],[138,3],[24,-9],[-1,-123],[-19,-75],[-39,-70],[-67,-72],[-33,-56],[-13,-52],[14,-33],[98,-103],[21,-57],[-3,-56],[-33,-64],[-39,-47],[-17,-81],[-4,-92],[-49,-41],[-45,-2],[-50,-44],[-43,-66],[-4,-47],[25,-44],[-10,-29],[-45,-16],[-9,-42],[-37,-16],[-2,-42],[-38,-62],[-39,-86],[-87,-69],[-39,-72],[-1,-52],[-20,-36],[-3,-55],[-73,-110],[11,-64],[52,-80],[5,-25],[-78,-69],[-21,-41],[10,-43],[-13,-38],[14,-60],[-15,-70],[38,-80],[-33,-107],[-38,-6],[-62,-77],[26,-21],[-78,-89],[12,-19],[-1,-114],[-37,-41],[-39,-75],[-17,-62],[-31,-32],[-36,-114],[19,-55],[-20,-74],[-32,-32],[-42,-74],[0,-59],[-52,12],[-108,-106],[-57,87],[-32,105],[24,30],[3,55],[-49,82],[-17,131],[-58,108],[-79,160],[-88,202],[-106,208],[-80,179],[-126,246],[-96,43],[-54,41],[-1,54],[34,88],[-90,72],[6,103],[-57,170],[-92,148],[-76,108],[-45,77],[-240,511],[-49,126],[44,36],[60,19],[128,97],[-18,105],[46,60],[194,134]],[[454,3585],[40,-26],[70,1],[60,52],[54,-33],[72,-8],[58,59],[40,-17],[40,30],[36,2],[-3,-72],[125,-7],[-12,32],[75,14],[42,-44],[100,-30],[39,-37],[46,22],[77,7]],[[1551,3829],[-69,23],[-73,50],[-56,21],[-17,75],[16,81],[-7,23],[-66,6],[-8,47],[-26,16]],[[1245,4171],[39,23],[72,10]],[[1356,4204],[88,15],[20,43],[107,27],[59,-7]],[[1630,4282],[-41,-39],[105,-1],[57,41],[55,6],[69,-54],[74,-25],[95,-10],[3,32],[69,-16],[-2,62],[74,-11],[37,-36],[-19,-38],[13,-26],[-24,-48],[25,-31],[-50,-65],[-74,25],[-56,-7],[-68,32],[-59,-19],[-97,-72],[-168,-65],[-97,-88]],[[454,3585],[90,59],[76,21],[46,56],[-164,94],[47,71],[191,196],[78,136],[4,24],[64,55]],[[886,4297],[98,-11],[-36,-44],[-50,-14],[44,-44],[-31,-20],[65,-30],[52,31],[-35,22],[59,24],[41,-9],[45,-37],[13,-42],[36,5],[58,43]],[[1551,3829],[-26,-18],[-25,-108],[15,-44],[-27,-60],[-75,-69]],[[1040,4554],[22,76],[32,30],[27,68],[90,186]],[[1211,4914],[73,-27]],[[1284,4887],[47,-28],[-15,-39],[22,-55],[-41,-23],[-7,-55],[47,-12],[5,-89]],[[1342,4586],[-96,8],[-25,-25]],[[1221,4569],[-40,-38],[-141,23]],[[3035,6264],[-34,-32],[-200,-85],[-86,30],[-20,-34],[17,-36],[-71,0],[-69,26],[31,21],[-27,30],[-88,-15]],[[2488,6169],[-13,21],[67,28],[29,51],[33,0],[-24,68],[-34,47],[42,21],[30,37],[48,17],[44,44],[-91,13]],[[2619,6516],[41,16],[89,-4],[11,43],[36,5],[47,127],[-13,76],[46,54],[26,56],[40,-45],[81,-41]],[[3023,6803],[70,14],[64,-5],[-42,-68],[10,-114],[-31,-40],[-23,-141],[-34,-56],[9,-14],[-11,-115]],[[886,4297],[53,95],[59,76],[42,86]],[[1221,4569],[58,-61],[-43,-107],[66,-19],[-35,-39],[50,-67],[-9,-40],[48,-32]],[[1342,4586],[15,-9],[175,-18],[17,29],[96,1]],[[1645,4589],[-29,-115],[32,-20],[0,-33],[45,-5],[31,-38],[-20,-89],[-74,-7]],[[1284,4887],[14,37],[88,6],[87,33],[117,-11],[2,27],[96,27]],[[1688,5006],[-11,-30],[-98,-62],[-35,-9],[0,-34],[66,-69],[6,-65],[-18,-17],[37,-76],[10,-55]],[[1211,4914],[92,238],[48,144]],[[1351,5296],[72,-8],[76,8],[124,-26],[64,-42],[45,8]],[[1732,5236],[17,-29],[-22,-27],[-55,-19],[-12,-98],[44,-28],[-16,-29]],[[1744,5721],[-27,43],[-50,24],[4,40],[-32,8],[17,53],[-51,1],[-52,26],[-18,40]],[[1535,5956],[-12,82],[26,29],[92,-18],[103,1],[35,41],[31,69]],[[1810,6160],[52,-27],[25,-56],[79,-36],[24,-49]],[[1990,5992],[-12,-72],[-20,-10],[-24,-82],[-44,1],[-28,-84],[-118,-24]],[[1351,5296],[17,82],[46,128],[38,132],[28,144],[-7,32],[41,33],[21,109]],[[1744,5721],[-2,-36],[-36,-43],[33,-61],[48,-38],[73,-10],[91,3],[3,23],[73,14],[68,-39]],[[2095,5534],[-44,-36],[-109,-58],[-68,-28],[-34,2],[-59,-50],[-22,-79],[-27,-49]],[[2488,6169],[27,-59],[-20,-36],[35,-30],[-16,-25]],[[2514,6019],[-81,24],[-15,-45],[-88,-17],[-63,15],[-116,-16],[-5,-23],[-74,-8],[-82,43]],[[1810,6160],[8,45],[-23,31],[12,76],[55,148],[7,70],[172,1],[67,12],[57,-14],[125,28],[64,-13],[3,-32],[65,-44],[176,18],[21,30]],[[2514,6019],[6,-59],[-34,-17],[31,-46],[-39,-62],[78,-36],[2,-32],[59,-30],[66,-8],[-5,-28],[149,-50],[36,33],[10,49],[-36,5],[14,52],[62,-45],[-10,-25]],[[2903,5720],[-9,-15],[28,-78],[0,-75],[-53,-68],[51,-34],[-24,-52],[16,-23],[-43,-62],[2,-58],[-139,25],[-25,16],[-119,-1],[-35,38],[16,56],[-38,70],[-70,26],[-60,8],[-54,-15],[-72,-1],[-73,20],[-62,53],[-45,-16]],[[3023,6803],[-3,49],[48,19],[41,-8],[103,52],[28,43],[44,-8],[71,19],[90,-36],[-75,-69],[85,-54],[1,-75],[42,-20],[19,-47],[-59,-74],[-3,-25],[80,-31],[49,-218],[47,-60],[-94,-85],[-38,-124],[-198,-170],[-69,-34],[-85,-16],[-12,-37],[-60,-14],[-28,13]],[[3047,5793],[33,49],[34,116],[-46,65],[14,50],[-16,52],[-63,56],[28,21],[4,62]],[[3047,5793],[-75,-34],[-24,-44],[-45,5]]],"transform":{"scale":[0.0004482608203735347,0.00055151565627786],"translate":[34.26747022579701,29.490784930750863]},"objects":{"ISR":{"type":"GeometryCollection","geometries":[{"arcs":[[0,1]],"type":"Polygon","properties":{"name":"Be'er Sheva","shapeGroup":"ISR","gid":"ISR-2-0"},"id":"ISR-2-0"},{"arcs":[[2,3,4,5]],"type":"Polygon","properties":{"name":"Jerusalem","shapeGroup":"ISR","gid":"ISR-2-1"},"id":"ISR-2-1"},{"arcs":[[-2,6,7,-3,8]],"type":"Polygon","properties":{"name":"Ashqelon","shapeGroup":"ISR","gid":"ISR-2-2"},"id":"ISR-2-2"},{"arcs":[[9,10,11,12,13]],"type":"Polygon","properties":{"name":"Tel Aviv","shapeGroup":"ISR","gid":"ISR-2-3"},"id":"ISR-2-3"},{"arcs":[[14,15,16,17]],"type":"Polygon","properties":{"name":"Zefat","shapeGroup":"ISR","gid":"ISR-2-4"},"id":"ISR-2-4"},{"arcs":[[-4,-8,18,-14,19]],"type":"Polygon","properties":{"name":"Rehovot","shapeGroup":"ISR","gid":"ISR-2-5"},"id":"ISR-2-5"},{"arcs":[[-5,-20,-13,20,21]],"type":"Polygon","properties":{"name":"Ramla","shapeGroup":"ISR","gid":"ISR-2-6"},"id":"ISR-2-6"},{"arcs":[[-12,22,23,-21]],"type":"Polygon","properties":{"name":"Petah Tiqwa","shapeGroup":"ISR","gid":"ISR-2-7"},"id":"ISR-2-7"},{"arcs":[[-11,24,25,26,-23]],"type":"Polygon","properties":{"name":"HaSharon","shapeGroup":"ISR","gid":"ISR-2-8"},"id":"ISR-2-8"},{"arcs":[[27,28,29,30]],"type":"Polygon","properties":{"name":"Haifa","shapeGroup":"ISR","gid":"ISR-2-9"},"id":"ISR-2-9"},{"arcs":[[-26,31,-28,32,33]],"type":"Polygon","properties":{"name":"Hadera","shapeGroup":"ISR","gid":"ISR-2-10"},"id":"ISR-2-10"},{"arcs":[[-16,34,35,-30,36]],"type":"Polygon","properties":{"name":"Akko","shapeGroup":"ISR","gid":"ISR-2-11"},"id":"ISR-2-11"},{"arcs":[[-31,-36,37,38,-33]],"type":"Polygon","properties":{"name":"Yizre'el","shapeGroup":"ISR","gid":"ISR-2-12"},"id":"ISR-2-12"},{"arcs":[[-18,39,40]],"type":"Polygon","properties":{"name":"Golan","shapeGroup":"ISR","gid":"ISR-2-13"},"id":"ISR-2-13"},{"arcs":[[-15,-41,41,-38,-35]],"type":"Polygon","properties":{"name":"Kinneret","shapeGroup":"ISR","gid":"ISR-2-14"},"id":"ISR-2-14"}]}}}