{"type":"Topology","arcs":[[[5369,37100],[-24,-56],[59,-181],[-23,-67],[-95,-85],[-228,-227],[-59,-76],[-1,-37],[58,-137],[6,-59],[-35,-70],[-60,-35],[-15,-43],[12,-64],[66,-85],[30,-66],[87,-27],[37,4],[30,-54],[-35,-75],[0,-33],[88,2],[-13,-56],[38,-51],[-36,-19],[-20,-68],[49,-6],[54,-71],[4,-41],[-29,-37],[31,-30],[6,-76],[30,-55],[-17,-26],[19,-52],[53,-41],[50,-3],[34,-43],[36,6],[10,-61],[48,-80],[3,-47],[82,-135],[-82,-17],[-25,-35],[-96,15],[-86,-53],[81,-61],[-92,-63],[-26,-105],[-67,-37],[-64,-2],[-24,122],[-61,37],[-27,70],[-70,-27],[-62,-3],[-34,17],[-79,-38],[29,-90],[-79,-34],[-24,-54],[40,-31],[56,-17],[-11,-38],[22,-129],[-41,-30],[63,-61],[77,13],[-44,-60],[-43,-33],[22,-74],[72,-28],[29,-73],[57,-17],[-14,-61],[69,-70],[4,-79],[26,-41],[-27,-51],[79,-40],[86,-8],[34,37],[22,-46],[72,-11],[-7,-40],[71,-4],[6,55],[37,-14],[55,36],[47,55],[127,29],[45,-15],[16,-83],[-9,-64],[60,-90],[95,5],[42,-55],[-22,-85],[57,-45],[21,-75],[52,-32],[28,-41],[63,-9],[31,-90],[-47,-36],[55,-67],[24,-57],[39,16],[69,-32],[85,-1],[46,-53],[-3,-79],[53,-51],[55,-17],[-7,-71],[-21,-35],[15,-67],[-21,-58]],[[6618,32161],[15,-91],[-22,-35],[13,-129]],[[6624,31906],[0,-66],[-50,-10],[-79,-61],[-38,-1],[-70,28],[-21,38],[3,59],[-46,16],[-25,33],[-54,-8],[-43,45],[-64,113],[-56,-15],[-57,9],[-25,39],[-91,-7],[-4,-35],[-36,-59],[-67,-28],[53,-60],[8,-103],[38,-92],[-11,-20],[-84,-29],[-40,49],[-41,-24],[-69,9],[-6,-83],[-40,-10],[-35,-42],[8,-64],[-27,-32],[-35,28],[-15,74],[-45,55],[-4,34],[-71,103],[-102,-18],[-36,27],[-92,-6],[-56,-35],[-31,-50],[39,-33],[-100,-83],[-18,-54],[-45,-14],[-38,33],[-67,-18],[-78,9],[-19,41],[-47,-45],[-65,-25],[-22,38],[-38,-15],[-24,-101],[-94,-53],[-23,72],[-71,8],[-49,54],[-88,37],[-40,52],[-73,-51],[-21,-59],[19,-41],[-69,-25],[-2,-50],[38,-26],[-9,-30],[40,-60],[-37,-49],[0,-41],[-56,-35],[-26,15],[-37,-48],[-35,-5],[-20,-46],[21,-58],[-37,-78],[-72,0],[7,-61],[-19,-49],[-79,37],[-32,-36],[77,-94],[-19,-43],[-46,-32],[43,-38],[-33,-58],[19,-69],[54,-31],[4,-63],[-37,-35],[-40,-85],[-58,-7],[-41,40],[-49,5],[-62,-45],[-17,-32],[70,-26],[6,-42],[-33,-21],[-65,24],[-32,-39],[-51,-14],[-31,37],[-108,-20],[-47,48],[-113,12],[-65,26],[-55,38],[-32,3],[-87,-46],[-35,-78],[58,-102],[-26,-56],[-34,4]],[[2797,29975],[2,78],[-64,87],[-46,39],[-14,48],[32,48],[-23,19],[37,74],[-126,12],[-41,-97],[-113,16],[-156,-55],[-22,22],[-120,-66],[-82,16],[-12,-60],[-79,43],[-92,-32],[-39,104],[-83,6],[-79,-23],[-78,59],[-12,47],[-64,-10],[-39,58],[-26,6],[-79,74],[-52,-27],[-68,56],[-63,15],[-57,45],[-89,-33],[-18,25],[-53,17],[-27,49],[-3,105],[-68,25],[-33,38],[11,46],[-18,27],[-69,50],[-12,65],[-86,32],[21,48],[-11,159],[123,46],[-71,62],[-17,59],[-77,48],[-46,89],[-9,88],[39,20],[23,57],[60,-1],[78,66],[1,73],[39,50],[3,34],[49,30],[-41,40],[-13,52],[61,88],[46,44],[103,5],[47,-30],[61,-11],[11,36],[-25,82],[-60,18],[-48,73],[-5,111],[-56,62],[62,118],[-37,12],[-9,48],[-92,22],[-100,60],[-26,-45],[-90,-13],[-60,13],[-201,133],[-31,49],[-57,12],[6,113],[32,81],[-39,58],[-11,125],[-55,29],[-131,-7],[-21,40],[14,38],[-30,33],[8,68],[-92,116],[21,40],[36,-3],[62,33],[19,56],[82,15],[72,-27],[74,80],[136,-51],[68,-63],[117,35],[-25,66],[24,45],[43,-12],[114,49],[-2,38],[36,18],[-5,42],[69,8],[38,25],[50,-5],[62,35],[41,-54],[99,95],[50,24],[32,42],[-22,57],[19,28],[-37,52],[-32,80],[75,115],[57,43],[7,64],[34,23],[19,67],[-67,31],[-14,22],[-100,40],[-31,71],[7,44]],[[1228,34892],[26,29],[18,110],[59,6],[-19,-58],[17,-49],[43,31],[28,-16],[73,-3],[62,-37],[62,82],[41,18],[15,54],[81,9],[52,-11],[98,41],[46,-31],[101,72],[22,30],[59,33],[44,77],[62,20],[109,-22],[42,41],[48,10],[85,-47],[19,-48],[69,23],[31,-7],[76,-58],[33,18],[79,5],[35,-30],[66,52],[73,35],[70,61],[71,16],[140,12],[1,39],[48,73],[54,11],[-37,107],[-44,68],[82,135],[-14,59],[-79,28],[-40,38],[-7,43],[-50,69],[-1,97],[30,21],[-26,48],[31,77],[-18,21],[-14,107],[2,64]],[[3182,36465],[33,35],[-22,39],[32,91],[-7,34],[40,19],[39,65],[177,8],[28,-12],[72,100],[-10,25],[56,40],[-31,92],[30,107],[124,18],[66,22],[18,65],[73,23],[26,32],[-7,63],[38,60],[-31,37],[-37,120],[-30,8],[-44,73],[-74,30],[14,33],[68,49],[62,71],[96,-15],[95,42],[30,88],[108,65],[-5,38],[55,8],[70,38],[12,71],[-71,38],[56,55],[35,5],[81,78],[132,39],[98,18],[42,-46],[-8,-105],[25,-32],[6,-54],[-25,-30],[23,-88],[-21,-32],[9,-69],[-55,-49],[-10,-54],[-32,-20],[73,-122],[-35,-34],[57,-33],[22,-45],[153,-47],[21,-71],[73,-72],[11,-45],[75,-32],[-25,-44],[45,-37],[4,-37],[92,6],[27,-37],[54,-8],[23,-30],[68,-13]],[[1228,34892],[-74,26],[-71,-6],[14,78],[-84,8],[-54,26],[10,56],[-34,38],[14,47],[-16,65],[14,44],[-44,45],[19,67],[-3,60],[45,40],[-72,36],[-13,27],[-94,-26],[-43,19],[-31,39],[9,40],[-95,19],[-108,81],[-48,73],[21,53],[-30,29],[2,77],[-13,39],[31,92],[-23,31],[38,70],[62,20],[56,-31],[39,58],[85,-31],[70,21],[29,49],[118,41],[23,49],[-6,46],[42,57],[65,21],[48,-44],[2,-34],[77,-84],[9,-51],[50,-6],[43,46],[49,23],[55,-57],[64,1],[-1,42],[74,59],[74,-12],[50,43],[45,72],[91,-39],[36,17],[45,-42],[58,-23],[46,51],[65,15],[44,56],[77,14],[10,60],[103,34],[59,-21],[14,98],[81,6],[27,-54],[131,-2],[74,12],[34,-58],[73,-31],[-6,-47],[33,-39],[39,1],[33,58],[54,-13],[79,-69],[55,34],[110,-36]],[[6035,36700],[4,-77],[-45,11],[41,66]],[[5369,37100],[72,85],[36,-65],[69,-34],[82,12],[44,-49],[50,-28],[7,-48],[-27,-46],[-41,-7],[-2,-48],[-55,-39],[-33,-48],[4,-55],[94,-15],[95,-96],[67,-7],[11,-47],[-14,-48],[81,-89],[-8,-36],[27,-38],[16,-62],[-64,-93],[17,-22],[76,33],[66,-36],[57,5],[1,-41],[49,-17],[37,25],[12,56],[39,48],[15,71],[54,36],[-4,90],[-69,30],[-20,25],[-59,4],[8,33],[-20,79],[-52,22],[4,49],[84,46],[-15,80],[-39,46],[25,70],[84,45],[73,10],[31,81],[-47,108],[126,53],[35,64],[55,32],[10,30],[52,-3],[35,36],[19,99],[36,12],[17,63],[63,9],[8,82],[27,79],[64,65],[-8,44],[48,60],[-20,40],[9,62],[-37,11],[-15,52],[23,43],[-22,30],[12,62],[-82,68],[-5,53],[49,16],[31,35],[-10,72],[22,51],[70,27],[65,7],[96,-10],[-10,-33],[54,-73],[60,-22],[28,33],[26,75],[69,4],[7,-100],[-15,-25],[4,-73],[-15,-76],[20,-29],[20,-83],[-19,-43],[89,-43],[32,-47],[12,-60],[51,-72],[117,-61],[81,-3],[23,-26],[59,0],[87,56],[70,-44],[30,8],[29,94],[-19,24],[12,48],[53,39],[54,-48],[142,45],[34,37],[82,11],[106,58],[49,-52],[21,30],[49,17],[31,-56],[81,-44],[-1,-30],[-38,-66],[35,-33],[15,-43],[-23,-21],[17,-45],[82,-20],[63,-37],[17,-56],[-44,-73],[69,-44],[31,33],[52,7],[52,-17],[57,23],[14,33],[61,52],[-32,97],[-60,78],[-56,32],[-33,69],[24,68],[40,29],[-4,57],[37,30],[56,17],[-8,87],[-34,-5],[-11,48],[-32,13],[-79,-36],[-52,-1],[-53,29],[-7,39],[-43,18],[35,61],[-26,57],[25,182],[50,98],[74,81],[-10,36],[13,62],[72,-18],[155,72],[59,-30],[24,37],[53,-15],[38,-49],[-43,-64],[6,-46],[109,-26],[24,-72],[40,-12],[37,16],[33,-30],[35,44],[48,-6],[69,-35],[56,25],[87,-72]],[[9839,38613],[12,-69],[69,-60],[25,16],[140,-21],[73,-66],[60,-16],[55,-73],[-14,-15],[3,-96],[25,-54],[-73,-82],[-82,2],[-67,-48],[-3,-33],[-52,4],[-10,-35],[128,-68],[-3,-44],[39,-52],[-51,-55],[41,-26],[26,-106],[-45,-41],[5,-43],[-50,-51],[-24,-64],[62,-76],[-21,-25],[-20,-148],[-21,-50],[-87,-103],[-43,-24],[-35,-54],[23,-76],[-72,-67],[-12,-119],[90,-16],[-14,-70],[21,-66],[41,-28],[1,-69],[-45,-64],[35,-40],[-6,-60],[18,-122],[53,10],[37,-28],[-35,-78],[21,-37],[66,-5],[124,74],[83,-8],[34,68],[108,67],[30,-19],[63,23],[41,-21],[60,22],[43,-35],[87,17],[38,-18]],[[10834,36172],[-20,-60],[-45,-40],[-110,-187],[-171,-260],[-200,-243],[44,-612],[17,-14],[120,-18],[45,-22],[5,-70],[-51,-58],[22,-35],[-7,-41],[-47,-15],[4,-41],[72,-29],[-4,-36],[44,-27],[-5,-86],[23,-14],[117,98],[119,-117],[45,-89],[136,-32],[6,-35],[63,-14],[11,-54],[43,-44],[59,-2],[51,-30],[18,-32],[-6,-117],[39,-17],[47,37],[40,-88],[-40,-26],[29,-48],[88,-52],[52,6],[30,27],[56,-15],[26,72],[130,-50],[-27,-43],[25,-38],[-33,-42],[17,-46],[87,-17],[51,-41],[33,-1],[30,38],[29,-38],[-20,-40],[29,-52],[89,-20],[70,-77],[232,-107],[1,-34]],[[12342,33084],[-46,0],[-80,29],[-53,-29],[-75,42],[-56,0],[-56,-19],[-46,-39],[-50,22],[-21,-23],[-66,-6],[-34,-19],[-150,16],[-97,55],[-78,16],[-36,-49],[-161,21],[-76,-70],[-43,-6],[-24,-40],[-63,9],[-68,-42],[-202,89],[-90,15],[-85,24],[12,48],[-31,85],[-62,-6],[-4,-43],[-79,13],[-46,-34],[-30,-66],[-47,-56],[-85,-61],[-75,-22],[-128,15],[-49,39],[-178,81],[-39,107],[-28,24],[-41,-7],[-56,-53],[-49,5],[-47,42],[-56,23],[-11,41],[-77,-4],[-48,70],[-115,57],[-44,-21],[-52,17],[-42,39],[-28,-32],[-104,-45],[-57,38],[-5,51],[-60,-20],[-39,74],[-56,45],[17,71],[-45,47],[-47,71],[-55,9],[-91,-98],[-54,20],[31,55],[-51,33],[-67,-29],[-8,-47],[58,-63],[-10,-53],[-41,-20],[-49,66],[-73,-6],[6,-70],[-22,-64],[-27,3],[-8,83],[-87,39],[-33,63],[-56,13],[23,-83],[-18,-42],[-82,-60],[-143,84],[-41,-6],[-31,35],[15,36],[3,83],[-50,32],[-18,-77],[-26,-26],[-81,3],[-35,79],[-46,5],[-4,-49],[36,-80],[-66,-42],[-68,83],[-71,-29],[-84,-7],[-8,-41],[-118,-59],[-33,-34],[-30,-184],[-57,-39],[-19,-99],[-29,-25],[-26,-67],[-70,-31],[12,-25],[-32,-76],[27,-59],[51,-23],[31,14],[50,-31],[18,-109],[38,-61],[-23,-37],[-62,-41],[-34,-56],[-73,-36],[0,-57],[114,-78],[-17,-42],[-35,-21],[-10,-40],[29,-60],[-42,0],[-52,-31],[-41,22],[-79,96],[-12,-39],[28,-56],[-49,-10],[-60,10]],[[9839,38613],[63,95],[0,49],[25,62],[-8,54],[18,23],[-74,77],[-42,27],[-115,-14],[-26,68],[6,116],[64,102],[-45,47],[87,70],[17,69],[-37,62],[54,41],[25,52],[-1,50],[54,99],[41,-35],[69,-12],[81,15],[46,-25],[66,52],[72,24],[76,9],[24,26],[70,-24],[9,-53],[76,-52],[80,-17],[23,-32],[-45,-67],[-51,-23],[11,-34],[70,-9],[74,38],[71,-73],[69,22],[72,-56],[53,-6],[69,36],[150,-6],[31,-18],[69,16],[22,-24],[34,97],[74,77],[50,26],[-31,107],[44,90],[22,20],[2,104],[28,8],[16,51],[63,-11],[74,59],[20,63],[30,25],[138,0],[55,37],[76,20],[41,-7],[28,29],[56,-24],[44,17],[62,-68],[50,-22],[40,6],[64,36],[28,54],[43,11],[25,55],[53,-3],[103,-91],[105,46],[20,26],[99,28],[22,-35],[74,-37],[62,12],[58,-9],[43,-72],[49,-12],[46,14],[41,56],[142,14],[63,54],[89,43],[95,59],[39,-13],[54,24],[27,32],[109,-10],[56,50],[88,-8],[42,62],[65,-12],[45,26],[38,-5],[91,44],[101,-32],[37,-51],[-60,-33],[-1,-47],[-30,-64],[-64,-5],[-39,-23],[-46,19],[-66,-61],[23,-47],[20,-129],[52,-21],[26,-44],[-38,-72],[14,-28],[80,-11],[49,-95],[59,5],[11,28],[78,-5],[23,-50],[42,-27],[-7,-29],[46,-79],[-63,-67],[26,-44],[-30,-36],[7,-33],[66,7],[123,-35],[53,-185],[95,-76],[72,-42],[82,-6],[7,-23]],[[15044,39136],[-111,-41],[-73,-87],[-67,-1],[14,-71],[-65,-11],[-62,31],[-51,5],[-27,-37],[-56,-5],[-58,39],[-50,-44],[-116,-28],[-65,90],[-67,0],[-101,87],[-62,29],[-39,-51],[6,-44],[-13,-65],[-50,-49],[5,-80],[-32,-28],[-92,-153],[-28,43],[-55,-2],[-83,-59],[-56,18],[-58,-35],[-106,-22],[-84,-57],[-5,-79],[73,-3],[91,-18],[24,-25],[6,-77],[-47,-33],[-53,3],[-17,-85],[-20,-32],[-12,-118],[-100,3],[-46,-33],[16,-30],[56,-24],[1,-34],[75,-28],[25,-66],[-39,-75],[30,-51],[64,4],[57,26],[0,-64],[93,-44],[-30,-83],[38,-25],[38,-64],[60,3],[0,-41],[-87,-43],[-18,-92],[-50,-41],[-23,-58],[-229,-60],[-136,4],[-88,-7],[-35,-44],[-55,-13],[21,-84],[35,-27],[-8,-37],[-56,5],[-33,-34],[37,-37],[-19,-42],[43,-87],[-11,-68],[-32,-17],[-109,17],[-111,-1],[-27,131],[-60,20],[-167,-14],[-16,-35],[-37,-2],[-36,-45],[-82,-16],[-113,14],[-15,-39],[24,-107],[-61,4],[0,-64],[-66,-26],[-147,6],[-32,-7],[-21,-92],[-27,-50],[-13,-74],[-53,-42],[1,-39],[-42,-20],[-35,-47],[3,-112],[-39,-114],[10,-41],[-85,-71],[-19,-70],[-104,-14],[-84,54],[-23,35],[-37,-43],[-116,3],[-17,-56],[-103,-21],[-15,-38],[-62,22],[-21,28],[17,43],[-96,58],[-96,5],[15,59],[33,28],[11,72],[46,49],[-20,36],[16,100],[-111,55]],[[15044,39136],[99,-5],[78,-67],[62,-30],[20,19],[66,-2],[71,17],[28,-30],[57,18],[66,-4],[67,-26],[40,-51]],[[15698,38975],[-70,-54],[10,-57],[-54,-8],[-82,-103],[-48,8],[-43,-101],[22,-85],[3,-66],[62,-57],[21,-58],[-107,26],[-37,-39],[-51,32],[-52,1],[-94,-86],[-61,-28],[-34,-58],[16,-42],[-49,-37],[-50,-75],[7,-39],[-88,-62],[-50,-73],[-78,4],[-67,-45],[7,-88],[-67,-35],[-18,-37],[3,-64],[78,-83],[57,-29],[65,21],[12,-76],[103,2],[-10,-32],[12,-66],[46,-49],[68,-31],[19,-67],[-37,-116],[-31,-30],[-115,-69],[-46,-60],[-12,-57],[26,-56],[9,-66],[24,-43],[-5,-170],[46,2],[53,-23],[38,-52],[68,-12],[31,-80],[-4,-34],[45,-18],[3,-81],[78,-105],[57,-58],[49,71],[61,-36],[62,-57],[-12,-25],[50,-38],[77,62],[79,100],[33,-37],[96,97],[36,-32],[19,-77],[91,85],[63,11],[41,-26],[-19,-33],[54,-36],[76,27],[23,-49],[55,17],[2,73],[25,14],[43,-99],[-10,-42],[26,-76],[66,-85],[-21,-43],[64,-41],[31,-54],[-5,-76],[18,-49],[59,-46],[-3,-59],[40,12],[51,-54]],[[16647,35510],[-8,-26],[-93,-18],[-91,-2],[-185,-33],[-94,-29],[-24,6],[-38,-50],[-74,-45],[-169,-88],[-97,-68],[-107,-61],[-108,-37],[-126,-58],[-114,-65],[-86,-31],[-64,-35],[-149,-54],[-60,-40],[-46,-55],[-70,41],[-49,-45],[-53,-73],[-75,-148],[-5,-56],[-59,-174],[-26,-152],[16,-53],[3,-99],[81,-130],[-21,-112],[4,-48],[37,-106],[135,-153],[39,-25],[87,-83],[106,-71],[78,-13],[84,-53],[15,-30],[-114,-122],[-40,-129],[-42,-106],[-40,-70],[-85,-44],[-37,-40],[7,-49],[-53,-52]],[[14837,32526],[-112,92],[-26,101],[-23,24],[-83,11],[-41,58],[-11,132],[33,61],[-48,55],[-59,-9],[-72,-62],[-96,12],[-44,55],[-32,-40],[-40,-10],[-40,18],[-28,87],[-94,55],[-48,-14],[-35,26],[-82,-1],[-136,36],[-98,-43],[-74,11],[-148,-18],[-52,15],[-48,-7],[-39,-38],[-99,-24],[-14,-30],[12,-48],[-27,-27],[-48,-3],[-114,-41],[-119,-89],[-81,6],[-37,91],[-49,13],[-57,51],[-28,7],[-147,-3],[-104,-26],[-7,74]],[[15698,38975],[63,47],[100,-17],[20,-30],[88,-23],[-9,-58],[47,-20],[34,17],[175,-1],[140,-36],[87,10],[28,-22],[155,15],[135,-45],[60,5],[26,-36],[108,-43],[49,-50],[33,30],[85,-11],[29,11],[60,-26],[62,59],[50,1],[23,32],[95,-25],[-4,-37],[45,-13],[134,9],[68,20],[36,-66],[62,22],[48,-6],[23,-45],[70,24],[77,-15],[117,-64],[87,-8],[27,-48],[-33,-19],[-2,-60],[-25,-59],[13,-40],[-13,-43],[-101,-15],[-51,8],[-95,-10],[-48,-45],[-5,-61],[-59,-55],[-68,-17],[-75,-60],[-73,-35],[-46,6],[-39,-30],[32,-68],[-28,-46],[-58,-18],[4,-40],[-38,-18],[-70,-6],[42,-67],[18,-90],[61,-67],[-29,-78],[90,3],[-5,45],[103,-4],[48,-31],[67,11],[85,-52],[28,-69],[32,21],[75,-21],[46,23],[79,-38],[1,-36],[-51,-114],[-109,-85],[-74,-85],[-73,-19],[-5,-20],[-69,-53],[-49,-13],[35,-43],[-6,-45],[-34,-66],[-47,-29],[66,-90],[34,-4],[33,-43],[104,4],[25,52],[30,23],[76,-22],[36,21],[19,-68],[-19,-69],[11,-52],[-48,-64],[-25,-62],[-48,-38],[6,-48],[-52,-95],[61,-96],[-2,-42],[73,-43],[117,13],[90,-79],[66,-36],[41,-40],[129,-44],[39,-69],[57,-55],[0,-71],[63,-74],[154,-121],[-105,-71],[-66,-91],[-105,-14],[-61,7],[-102,53],[-63,-12],[-8,39],[43,17],[51,-7],[60,-32],[52,36],[-53,23],[-79,99],[54,29],[-41,97],[-51,54],[-56,22],[-2,30],[-88,91],[-88,70],[-24,34],[-77,16],[-43,28],[-63,-3],[-57,13],[-35,-38],[-25,-94],[95,-50],[-59,-24],[-116,-66],[-59,-13],[-14,-32],[-63,-51],[-110,-5],[-59,31],[-59,-14],[-100,53],[-35,30],[-74,12],[-26,23],[-155,-12],[-91,-28],[-22,-47],[-100,-92],[-22,-68]],[[8302,29938],[-28,-48],[-29,34],[57,14]],[[6624,31906],[110,22],[28,-32],[-28,-38],[69,-13],[72,41],[110,-105],[58,25],[41,-28],[20,47],[82,8],[-7,-52],[57,-38],[92,-6],[43,-32],[-13,-36],[42,-55],[-26,-103],[6,-62],[-72,-3],[-31,-121],[-44,-60],[-2,-42],[55,5],[35,-24],[52,39],[147,15],[14,41],[52,-16],[52,3],[124,-86],[25,1],[53,-167],[28,6]],[[7868,31040],[51,1],[28,-38],[27,-90],[65,-24],[32,-64],[103,-76],[24,12],[97,-56],[22,-66],[-11,-60],[47,-36],[-45,-106],[40,6],[61,51],[28,1],[35,-71],[-75,-76],[76,7],[84,-18],[31,16],[32,-30],[-10,-82],[22,-45],[52,-53],[36,34],[76,-14],[56,-60],[-18,-63],[-68,-57],[-44,-67]],[[8722,29916],[-60,23],[-45,-55],[-36,7],[-125,116],[-15,30],[-118,43],[-30,65],[-41,1],[-39,-54],[41,-104],[-50,-15],[-49,13],[-96,66],[-9,26],[-50,9],[-53,86],[-32,4],[-59,60],[-67,32],[-52,-42],[-76,87],[10,29],[-112,62],[-48,80],[-53,3],[-66,51],[-15,42],[-135,13],[-27,53],[-36,21],[-39,-26],[-42,110],[-86,65],[-307,162],[-49,-45],[-3,-113],[-91,20],[-73,34],[12,102],[-40,42],[-135,42],[-73,31],[-28,-5],[-293,54],[-48,24],[-112,13],[-78,34],[-15,31],[-153,-12],[-89,21],[-41,-34],[-83,-29],[-16,-37],[-50,-26],[-74,-18],[-36,-47],[-78,-42],[-56,-8],[-20,-41],[-59,-35],[-100,-34],[-44,-82],[-67,-31],[-50,-75],[42,-49],[-27,-61],[-77,-67],[2,-70],[20,-25],[-45,-48],[-58,-1],[-105,-45],[-20,-20],[-106,-30],[-66,-50],[-12,-40],[-69,-90],[-28,-77],[-1,-126],[-61,-46],[-61,-69],[-40,-65],[-5,-78],[31,-38],[-85,-45],[-31,-71],[-94,-37],[-37,-46],[-10,-40],[-112,-21],[-27,-39],[-126,-47],[-12,-28],[-65,-26],[-59,-5],[-43,-27],[-74,0],[-77,-34],[-29,-36],[-67,25],[-132,-56],[-37,-40],[-67,19],[-33,-8],[-70,-81],[-189,51],[-76,7],[-51,-39],[-52,11],[-30,66],[-26,135],[-34,50],[9,55],[57,52],[77,25],[33,34],[-9,46],[72,136],[56,1],[110,62],[8,40],[39,47],[-20,63],[133,158]],[[14837,32526],[-54,-25],[-7,45],[-86,74],[-58,89],[-83,-8],[-60,-83],[39,-19],[-12,-47],[-61,-123],[-19,-182],[-2,-69],[28,-52],[-3,-53],[67,-153],[17,-76],[-8,-252],[25,-212],[43,-143],[26,-63],[29,-177],[43,-124],[34,-166],[27,-74],[66,-131],[28,-14],[34,-63],[145,-159],[107,-137],[106,-96],[46,4],[113,-149],[67,-72],[111,-101],[78,-50],[83,-15]],[[15746,29650],[-8,-78],[-38,-63],[-14,-59],[20,-54],[-31,-55],[29,-35],[-27,-31],[-107,-31],[-6,-78],[-129,-32],[-47,32],[-26,71],[4,45],[-51,71],[-44,-5],[-8,-43],[-54,-21],[-60,60],[-49,-26],[-32,43],[2,37]],[[15070,29398],[12,76],[60,81],[-23,58],[20,115],[-116,-47],[-83,-73],[-43,4],[-40,-48],[27,-46],[-18,-33],[21,-73],[68,19],[50,-43]],[[15005,29388],[-12,-47],[-39,-27],[-108,1],[-24,-97],[19,-66],[-29,-38],[-54,-7],[-42,-48],[-87,21],[-68,-65],[-15,-77]],[[14546,28938],[-97,-48],[-44,29],[-50,-9],[-37,-88],[-57,54],[-24,53],[-103,-47],[-41,17],[-74,-46],[-45,43],[-49,2],[-92,45],[-51,-16],[-85,50],[-15,51],[-75,11],[-21,69],[-34,-20],[-108,27],[-37,-27],[-59,31],[-83,106],[-138,57],[-61,81],[19,58],[-3,67],[-78,45],[12,84],[-89,56],[-22,51],[47,55],[-19,42],[65,13],[34,50],[5,60],[32,49],[70,73],[32,58],[9,61],[-21,16],[-103,-22],[-65,11],[-78,-83],[-21,42],[-71,29],[-36,-3],[12,70],[34,17],[-4,52],[-108,8],[-53,16],[-21,-44],[-106,34],[-50,77],[-96,61],[13,67],[-80,50],[-66,-54],[-19,-51],[-30,-21],[-84,23],[-48,-39],[-3,-47],[-97,-66],[-131,-14],[-105,-41],[68,-68],[103,-40],[9,-40],[-40,-24],[-51,17],[-47,-12],[-131,47],[-81,-9],[-87,-52],[-114,-16],[-68,25],[-54,47],[33,50],[-53,15],[-65,-53],[-64,-116],[-42,-18],[-24,-46],[-48,9],[9,71],[-69,50],[-71,-7],[-11,40],[-38,26],[-66,6],[-97,77],[-22,42],[-37,13],[-112,-6],[-50,7],[-34,-16],[-66,27],[-20,-47],[-33,-20],[8,-71],[-79,-17],[-33,49],[-89,68],[-53,26],[-21,93],[-69,48],[7,70],[-72,51],[-87,-16],[-42,30],[-19,49],[-59,37],[-23,35],[-84,-1],[-118,57],[-110,-60],[-44,45],[-27,64],[-45,8],[-19,36],[-86,61],[-16,48],[-48,37],[-60,-3],[-55,-24],[-106,88],[-38,9],[-118,80],[-19,26],[45,89],[-15,47],[-52,6],[-48,77],[-97,19],[-62,1],[-186,-16],[-98,-112],[-45,-70],[-40,-35],[-3,-48],[-60,-46],[-39,14],[-78,-61]],[[14263,29091],[-8,-52],[74,-69],[37,33],[74,20],[-23,60],[-42,-13],[-77,4],[-35,17]],[[11527,23685],[-18,-62],[-31,26],[49,36]],[[9482,23989],[35,-30],[9,-60],[-68,-37],[-29,11],[-14,56],[27,59],[40,1]],[[10953,24125],[53,-30],[37,-69],[3,-60],[23,-18],[-27,-61],[-55,29],[-43,80],[-41,10],[44,70],[6,49]],[[8879,24930],[43,-130],[-38,-40],[-76,10],[-16,42],[72,18],[23,44],[-8,56]],[[9740,25812],[28,-50],[48,-35],[-31,-73],[-7,-72],[17,-12],[-2,-84],[-73,-33],[-12,-40],[29,-50],[52,-30],[3,-58],[-129,-14],[-64,112],[-4,43],[-35,19],[-89,-16],[-49,-22],[-2,-49],[-51,-8],[-70,48],[-53,-78],[-47,27],[-173,-14],[-38,35],[-50,86],[1,70],[68,64],[30,9],[136,7],[31,-8],[31,-45],[36,-21],[86,41],[32,80],[44,-14],[53,9],[40,-32],[25,-55],[42,10],[26,63],[61,93],[-2,26],[62,71]],[[8225,26516],[48,-80],[-6,-83],[-66,-58],[-38,-9],[-26,57],[21,24],[2,82],[65,67]],[[14546,28938],[48,-36],[63,-13],[20,-44],[87,-82],[-29,-46],[-31,28],[-38,-7],[2,-120],[-40,15],[15,54],[-40,16],[-16,-35],[-67,-42],[-43,28],[-22,-58],[-73,-58],[-42,4],[-36,-66],[52,-42],[10,-35]],[[14366,28399],[-36,-26],[-14,-52],[-81,-96],[-25,-97],[-28,8],[-86,-11],[-34,-35],[-8,-76],[92,-39],[43,-36],[-4,-32],[-101,-35],[-58,-92],[-63,15],[-64,-51],[-18,-30],[20,-52],[51,-10],[45,26],[7,-121],[53,-14],[23,21],[42,-28],[41,-74],[3,-88],[-26,-39],[17,-48],[83,-38],[32,-2],[15,66],[33,33],[72,-50],[-35,-45],[-91,-34],[-68,-65],[-70,1],[-46,-48],[-47,-16],[-27,27],[-66,31],[-38,-23],[24,-60],[-53,-151],[-42,-20],[-45,4],[-48,-44],[-61,-25],[-56,-44],[-11,-62],[4,-89],[23,-48],[-22,-38],[35,-90],[31,-1],[22,46],[44,-19],[22,-47],[-26,-51],[-1,-47],[-44,-148],[-13,-8],[5,-101],[-31,-41],[-18,-99],[61,-28],[10,-109],[-80,0],[-41,-66],[-55,-26],[8,-29]],[[13546,25683],[-65,-2],[-52,16],[-45,-42],[-48,-18],[-4,-78],[-65,60],[-46,-3],[-40,-49],[-18,-55],[34,-13],[52,-84],[77,-17],[0,-68],[-20,-93],[-45,0],[5,-117],[59,-51],[-11,-53],[-61,-33],[-80,18],[5,-50],[-42,-47],[-62,-4],[-29,-35],[-54,-21],[18,-34],[-128,-71],[-72,5],[-44,22],[-32,-17],[6,-71],[-54,-110],[70,-42],[1,-31],[74,-23],[9,-52],[-17,-36],[11,-96],[-162,10],[-26,12],[-72,-30],[-71,20],[-17,-68],[-83,-91],[6,-41]],[[12408,24100],[-6,-16],[-119,45],[-137,37],[-142,25],[-45,31],[-64,9],[-69,-16],[-53,-48],[20,-47],[-53,-28],[-12,-26],[-78,-38],[-39,55],[-66,45],[-43,12],[-31,42],[0,50],[44,97],[45,-46],[116,15],[36,69],[22,91],[-1,122],[-30,71],[-71,84],[-46,-37],[-42,45],[-47,140],[-34,15],[2,58],[-59,42],[-121,58],[-72,180],[-36,55],[-56,51],[-103,57],[-136,46],[-156,34],[-34,-6],[-110,86],[45,36],[34,75],[8,56],[-18,78],[45,66],[-35,76],[-72,59],[-129,67],[-88,21],[-108,9],[-141,-10],[-36,-18],[-11,-87],[-62,3],[-57,47],[-34,75],[5,68],[-12,41],[57,6],[29,38],[-15,39],[28,25],[31,151],[11,111],[5,180],[-7,120],[-21,181],[-63,191],[-67,80],[-50,44],[-8,70],[-30,44],[-9,59],[-40,100],[-46,25],[-19,64],[-45,72],[-58,55],[-48,13],[-54,114],[-3,48],[-44,65],[-17,93],[25,34],[-37,120],[-10,128],[-14,66],[-34,75],[37,31],[-18,107],[6,72],[-47,273],[-45,118],[-10,82],[-96,171],[-85,117],[-138,148],[-123,104],[-122,61]],[[14910,28392],[24,-33],[-25,-27],[-31,40],[32,20]],[[14366,28399],[30,-62],[36,9],[59,-24],[14,17],[101,-12],[16,41],[149,32],[-26,-52],[32,-42],[-76,-110],[-61,1],[-19,-31],[49,-70],[36,-12],[53,46],[53,-45],[20,-43],[67,96],[42,8],[53,-82],[49,24],[59,-2],[44,-44],[18,-45],[102,-126],[54,-53],[65,-38],[33,-45],[37,36],[67,19],[52,-28],[65,-15],[17,75],[49,64],[85,-16],[-5,-114],[34,-48],[-11,-40],[-58,-22],[-8,-59],[62,-100],[50,-49],[26,-104],[-8,-55],[-27,-27],[57,-52],[50,-29],[-13,-40],[29,-109],[66,-22],[15,-79],[-15,-79],[-28,-43],[-56,-29],[34,-81],[43,13],[55,-17],[10,-75],[32,-22],[-19,-121],[8,-44],[35,-38],[-48,-89],[52,-86],[-32,-73],[80,-36],[54,-44],[3,-41],[71,-13],[-16,-62],[14,-135],[34,-1],[34,91],[62,23],[72,63],[46,-58],[41,-9],[61,-41],[18,-43],[107,-158],[106,35],[25,-1],[50,45],[43,-16],[5,-48],[37,-96],[-33,-50],[-15,-93],[-72,15],[-58,-36],[11,-46],[-26,-53]],[[16874,25329],[4,-83],[-45,-79],[1,-76],[-74,-68],[-38,48],[-80,-81],[-95,-47],[-67,17],[-30,38],[-34,-76],[-32,-7],[-118,13],[-41,-11],[-17,-45],[-85,47],[-43,-24],[-4,-32],[40,-79],[-4,-50],[-54,-8],[-130,-86],[-124,-19],[1,-63],[-118,-14],[-42,-29],[24,-54],[54,-52],[-43,-35],[-37,10],[-53,-49],[-61,-29],[-41,22],[-71,75],[-28,-117],[8,-73],[-44,-48],[-100,-73],[-25,8],[-42,-46],[-35,-5],[-16,41],[-4,85],[-43,-19],[-37,20],[-74,-27],[41,85],[-73,21],[-47,-17],[-3,52],[-21,30],[17,47],[-13,71],[38,28],[-45,40],[-55,-15],[-38,-45],[-59,-26],[-16,39],[-50,35],[-29,-24],[-61,79],[-29,-14],[-32,94],[31,28],[-9,65],[-34,-1],[-51,34],[-16,49],[27,67],[-47,29],[38,64],[-44,22],[3,28],[-58,59],[-38,6],[-63,52],[-43,-33],[-20,-39],[-60,-19],[-27,48],[-32,-32],[-53,4],[-87,-27],[-39,9],[-120,84],[-94,27],[19,45],[-58,27],[18,42],[102,87],[23,45],[-6,39],[-131,54],[-61,167],[-26,24]],[[15746,29650],[130,-15],[235,-144],[38,0],[203,-202],[109,-72],[95,-74],[49,-55],[126,-120],[105,-86],[243,-211],[76,-55],[144,-86],[54,-16],[99,-70],[103,-47],[72,-13],[42,48],[43,14],[42,-17],[88,-106],[26,-72],[90,-35],[46,-48],[-18,-36],[13,-85],[-9,-28],[113,-244],[54,-174],[64,-180],[61,-90],[67,-167],[37,-78],[34,-128],[53,-126],[33,-104],[56,-141],[14,-118],[72,-315],[27,-88],[70,-173]],[[18745,25893],[-94,-14],[-65,-23],[-92,-18],[-39,-36],[-67,-29],[-143,-18],[-59,-114],[-92,-54],[-59,-16],[-42,48],[-59,-35],[-54,-14],[-65,7],[-53,43],[-12,-72],[-31,-19],[-35,-56],[1,-95],[-60,-56],[-75,8],[-37,-59],[-63,-68],[-60,-36],[-43,28],[-39,-4]],[[17308,25191],[-55,38],[-48,67],[-61,24],[-20,33],[-56,-1],[-11,-41],[-57,-9],[-126,27]],[[15005,29388],[65,10]],[[16349,19038],[-45,-49],[0,-36],[-33,-65],[-32,28],[17,66],[93,56]],[[17308,25191],[-20,-71],[51,-87],[98,-21],[-3,-48],[-33,-30],[-13,-116],[-119,-44],[-51,17],[-76,-36],[-25,46],[-71,0],[-26,-35],[-49,36],[-91,16],[2,-33],[-46,-37],[-9,-71],[-27,-88],[45,-33],[-17,-96],[18,-20],[-62,-60],[-41,3],[-57,-67],[29,-13],[72,-91],[78,-36],[22,-52],[-12,-28],[-93,-84],[47,-29],[51,-58],[90,-45],[6,-113],[28,-59],[81,-56],[8,-37],[59,-44],[58,-5],[55,-43],[-24,-32],[52,-59],[53,-11],[-48,-46],[-79,-48],[-48,-86],[-62,-15],[-40,15],[-42,-32],[-29,5],[-36,50],[-45,18],[-27,34],[-71,-14],[-114,80],[-92,4],[16,-63],[-23,-63],[-65,-67],[-51,-23],[-37,-73],[-18,-72],[29,-45],[-8,-42],[51,-52],[21,-66],[119,-29],[11,63],[100,-44],[44,-42],[98,-53],[68,-8],[39,-42],[50,-12],[69,-66],[49,18],[42,-34],[37,-65],[50,-3],[71,-75],[-27,-70],[-41,-52],[18,-53],[7,-80],[31,-49],[30,6],[14,52],[26,12],[122,-54],[25,-44],[51,-22],[55,-5],[40,-101],[70,-41],[73,-21],[26,40],[40,10],[35,34],[41,12],[29,34],[-14,36],[27,29],[37,2],[54,-25],[25,-45],[39,-12],[23,34],[82,-84],[2,-46],[104,-62],[66,33],[20,-40],[61,-8],[24,-26],[62,-10],[38,20],[23,-55],[38,-1],[32,-83],[24,-22]],[[18807,21671],[68,-49],[52,-63],[23,-111],[39,-56],[0,-65],[-36,-36],[16,-45],[51,-19],[-8,-65],[-31,-28],[45,-30],[-34,-37],[-47,-8],[-56,-66],[45,-35],[-32,-76]],[[18902,20882],[-52,-16],[-120,-102],[-64,-5],[-64,-34],[5,-28],[60,-88],[-25,-17],[-20,-59],[21,-64],[-9,-31],[54,-84],[-32,-72],[-71,3],[-49,-40],[-22,-41],[34,-21],[-17,-37],[-43,-29],[-107,0],[-34,-74]],[[18347,20043],[-80,70],[-62,39],[-64,-34],[-43,33],[-70,24],[-43,1],[-112,-60],[-25,-48],[23,-90],[-92,35],[-56,38],[-22,-12],[-67,58],[-60,5],[-38,44],[-161,91],[-134,49],[-109,19],[-59,-9],[-15,-44],[-137,3],[-65,-18],[-101,-52],[-96,-77],[-26,-56],[-70,-12],[-58,18],[-31,49],[5,34],[-29,84],[-78,159],[-80,113],[-67,66],[-137,102],[-91,44],[-103,3],[-70,14],[-50,-20],[-127,103],[-100,50],[-88,-12],[-42,-28],[-42,89],[-44,59],[-36,77],[-57,89],[-176,229],[-125,148],[-120,116],[-96,76],[-174,103],[-79,37],[-46,7],[-40,105],[11,46],[-54,170],[-77,172],[-83,127],[-58,47],[-69,22],[-50,47],[-58,26],[-66,95],[-42,28],[-73,17],[-58,66],[-105,83],[-111,-9],[-97,-27],[-39,69],[-33,111],[-82,74],[-18,65],[-33,21],[-56,110],[15,47],[-49,56],[-64,170],[-38,37],[-43,81],[-81,92],[-78,51],[-100,87],[-130,75],[-160,74],[5,16]],[[18745,25893],[70,-316],[134,-337],[84,-153],[24,-27],[86,-176],[106,-163],[107,-122],[82,-109],[57,-59],[50,-31],[27,-41],[132,-119],[186,-135],[72,-34],[49,-65],[43,-103],[70,-78],[73,-55],[55,-65],[-5,-31],[30,-38],[85,-49],[25,-28],[174,-102],[199,-85],[35,-1],[23,-168],[-13,-70],[68,-75],[90,-51]],[[20963,23007],[-48,-97],[55,-24],[-46,-63],[-86,-43],[-101,-127],[-67,-96],[-6,-90],[-32,-41],[-93,-51],[-40,-92],[-3,-41],[-77,-116],[-44,-5],[-56,-103],[-77,-50],[-35,-46],[-79,13],[32,48],[-28,52],[-21,139],[-46,32],[-12,43],[-72,58],[-48,-14],[-6,50],[-39,-19],[-8,-51],[-79,88],[-9,39],[-51,-10],[-51,61],[-98,-99],[-54,-28],[-22,-74],[-158,-44],[-21,-48],[45,-60],[31,-127],[65,-23],[-20,-66],[-186,-6],[-17,-34],[21,-38],[-44,-36],[-30,77],[-64,-2],[-43,-63],[1,-61],[-68,4],[-21,-72],[-62,40],[-101,6],[-37,-26]],[[20963,23007],[177,-109],[124,-57],[172,-48],[80,-14],[23,-45],[78,-49],[112,-120],[73,-36],[83,-23]],[[21885,22506],[-17,-93],[15,-76],[-30,-55],[-50,-44],[-16,-56],[43,-73],[-4,-83],[-36,-26],[-10,-51],[21,-33],[-9,-53],[49,-79],[104,-38],[-114,-55],[-57,-68],[-67,-56],[-48,-3],[-18,-42],[-89,-81],[-51,55],[-75,28],[-65,-90],[35,-41],[6,-124],[-33,-81],[0,-78],[75,-30],[31,-45],[75,-69]],[[21550,20966],[-63,-25],[-2,-36],[-56,-13],[-35,-32],[-93,-15],[-68,-25],[-43,-59],[-29,-11],[-112,53],[-72,43],[-29,-24],[-21,-95],[-30,-28],[-96,-33],[-46,37],[-90,-15],[-76,-68],[-13,-30],[-67,-53],[-72,92],[-59,-37],[-73,20],[-36,-12],[-54,31],[-27,68],[-58,62],[-88,13],[-203,79],[-39,-3],[-58,46],[-65,69],[-77,-6],[-22,45],[-92,9],[-97,-19],[-6,-55],[-34,14],[-68,86],[-31,-72],[-70,-63],[-20,-75],[71,-87],[-7,-66],[-109,-19],[-47,-19],[-32,67],[-75,67],[16,73],[-75,37]],[[19630,17727],[-20,-57],[-144,-29],[6,87],[35,4],[73,-22],[50,17]],[[18630,18426],[46,-28],[86,-4],[79,-33],[29,-102],[-24,-28],[-58,0],[-29,-26],[-31,14],[-106,-8],[-35,130],[21,17],[22,68]],[[21550,20966],[42,-33],[22,-85],[36,-33],[76,-37],[57,5],[13,-46],[-30,-11],[-13,-48],[30,-47],[-51,-9],[-51,-56],[35,-139],[71,-16],[33,-30],[46,-6],[-10,-51],[25,-56],[44,-12],[76,10],[84,-37],[85,-17],[78,-99],[-86,-27],[-2,-35],[42,-78],[-134,-122],[4,-66],[57,-38],[78,-81],[14,-31],[63,-50],[54,43],[46,-27],[50,-5],[39,-35],[46,30],[30,47],[76,-38],[52,-63],[83,2],[17,-26],[149,-54]],[[22926,19459],[76,-207],[-15,-97],[-62,-78],[4,-20],[-43,-115],[-153,-64],[13,-54],[-31,-25],[-41,34],[-81,16],[-65,-20],[-33,36],[-54,-11],[7,-44],[47,-8],[-3,-116],[-34,15],[-67,-15],[48,-37],[50,-68],[30,-69],[11,-61],[-25,-58],[6,-94],[59,-27],[63,-83],[44,-20],[62,-48],[44,-2],[42,-32],[-24,-50],[-69,-36],[-7,-39],[-39,-66],[63,-57],[93,-24],[25,-54],[35,10],[-4,-86],[34,-59],[-25,-33],[39,-46],[-40,-33],[55,-77],[57,-31],[3,-35],[60,-84],[62,-31],[53,-42],[38,-75],[38,14],[84,-68],[-19,-54],[5,-68],[57,-94],[44,-51],[54,-9],[70,-30],[34,-134],[-46,-52],[25,-41],[-59,-26],[-72,-61],[-42,-1],[0,-47],[-32,-13],[-3,-45],[-37,-29],[19,-75],[-9,-78],[-72,-116],[-41,-18],[36,-53],[1,-32],[-79,-42]],[[23190,15916],[-34,26],[-15,43],[-60,40],[-77,14],[-109,-15],[-71,-34],[-65,-84],[-46,-23],[-73,-96],[-32,-55],[-98,36],[-26,-14],[-76,31],[-68,92],[-52,-10],[-24,21],[-9,69],[-48,97],[-55,27],[-93,116],[-67,11],[-92,126],[-65,51],[-85,-12],[-51,-32],[-67,20],[-60,94],[-65,76],[-57,11],[-44,40],[-68,-4],[-42,39],[4,50],[59,33],[28,39],[5,98],[-13,51],[9,51],[60,17],[82,85],[-2,88],[-47,134],[-115,221],[-56,149],[-51,109],[-58,99],[-132,172],[-82,80],[-81,44],[-25,0],[-74,-39],[-72,-113],[-31,-5],[-105,55],[-29,1],[-116,-103],[-99,-18],[-39,-26],[-25,34],[-58,36],[-197,-58],[-34,-41],[-100,-38],[-97,-59],[2,127],[16,10],[39,85],[34,-23],[94,37],[20,44],[68,75],[29,50],[91,48],[-10,50],[-57,116],[-49,25],[-59,-11],[-47,26],[-26,36],[-86,78],[-48,74],[-69,64],[-83,47],[-40,-12],[-21,-41],[-66,2],[-44,-61],[0,-41],[-57,-32],[-76,92],[-93,7],[-31,40],[-47,-3],[-46,-42],[28,-23],[-12,-87],[-77,8],[-20,31],[16,58],[2,130],[-16,90],[-42,130],[-65,133],[-128,173],[-70,76],[-10,54],[-77,208],[-106,167],[-31,59],[-55,73],[-133,133]],[[21885,22506],[170,-25],[228,3],[123,-9],[59,-51],[121,-9],[101,8],[130,20],[285,58],[82,5],[104,-42],[89,1],[158,13],[372,51],[192,43],[34,17],[35,-17],[75,8],[75,-22],[88,-88],[54,-9],[61,-85],[34,-16],[-2,-89],[24,-70],[19,-7],[15,-87],[-10,-81],[-20,-61],[-49,-20],[-9,-39],[-50,-45],[-59,-12],[-43,-32],[-40,-52],[-40,-14],[-22,-60],[-35,-13],[-43,-45],[-113,-49],[-34,-28],[-86,-43],[-105,-86],[-15,-47],[-7,-121],[18,-107],[60,-158],[52,-81],[109,-104],[81,-48],[73,-31],[203,-111],[23,0],[74,-56],[131,-54],[119,-95],[206,-64],[117,-70],[101,-42],[1,-14],[107,-66],[163,-58],[10,-19],[97,-56],[22,-33],[131,-54],[101,-7],[61,-47],[208,-59],[84,-70],[62,-13],[28,12],[42,-37],[264,-113],[87,-32],[147,-35],[255,-159],[58,-14],[48,-50],[17,-38],[90,-34],[27,-29],[91,-56],[58,-47],[13,-35],[64,-60],[39,-81],[86,-37],[126,-126],[96,-60],[-2,-23],[79,-54],[132,-67],[136,-53],[67,-14],[145,-55],[126,-73],[24,-37],[79,-51],[35,-9],[68,-59],[59,-32],[130,-30],[136,-2],[11,-42],[40,-49],[58,-44],[36,19],[50,-30],[-5,-52],[75,-99],[-25,-78],[18,-57],[85,-83],[14,-33],[90,-66],[28,-47],[110,-44],[42,-40],[38,-2],[56,-56],[71,-53],[25,-47],[49,-59],[71,-55],[24,-65],[90,-69],[90,-135],[113,-98],[0,-46],[29,-15],[22,-83],[38,-82],[-17,-42],[15,-60],[37,-46],[24,-109],[42,-5],[34,-42],[-27,-31],[36,-67],[-68,-65],[-31,-55],[-23,-107],[-99,-67],[-17,-75],[-36,-36],[-45,-233],[-16,-59],[25,-63],[-24,-143],[-16,-27],[17,-83],[-56,-83],[-58,-8],[-100,89],[-116,67],[-61,-6],[-88,15],[-102,66],[-40,15],[-75,78],[-71,53],[-116,103],[-46,71],[-10,48],[-33,23],[-45,87],[58,44],[-5,96],[-66,85],[38,48],[18,86],[-59,142],[-49,39],[-61,71],[-24,8],[-45,74],[8,119],[-35,30],[-20,83],[-26,5],[-80,85],[-52,-13],[-62,32],[-151,28],[-200,25],[-120,-6],[-110,-16],[-42,2],[-112,-15],[-57,0],[-33,53],[-93,22],[-19,34],[-62,23],[-82,-1],[-41,50],[-73,26],[-25,29],[-79,15],[-33,39],[-47,5],[-141,104],[-41,2],[1,43],[60,10],[34,34],[13,76],[-38,53],[-45,26],[-94,10],[-49,86],[-82,37],[-74,13],[-68,-5],[-143,-49],[-84,-48],[-108,-84],[-92,-89],[-111,-153]],[[26329,17158],[-88,61],[-58,62],[-17,85],[-56,6],[-117,31],[-40,50],[40,67],[1,37],[-52,43],[22,38],[-46,49],[4,57],[41,129],[-29,46],[-8,61],[41,156],[-75,88],[73,39],[-133,86],[-131,55],[-71,-5],[-21,36],[-49,-37],[-47,17],[-68,-38],[-55,55],[-53,-86],[-87,-88],[-53,-41],[-70,27],[-47,98],[-82,46],[-83,117],[-98,65],[-57,75],[-37,85],[-26,23],[-20,114],[-25,76],[-32,35],[-100,36],[-64,-36],[-9,-41],[-47,-15],[-60,64],[-87,29],[-37,33],[-158,57],[-22,46],[73,9],[75,98],[-14,64],[36,68],[-86,81],[-26,7],[-47,70],[-7,46],[-42,20],[-16,38],[-84,1],[-52,53],[-20,-11],[-37,57],[-35,-30],[-44,6],[-46,-19],[-2,-32],[-77,-23],[7,-53],[-29,-30],[-57,-16],[-41,50],[-57,6],[-13,-29],[-143,-17],[-86,21],[-45,25],[-104,-8],[-48,-30],[-50,-56],[7,-58]],[[26329,17158],[-48,-96],[-81,-128],[-81,-117],[-24,-62],[-66,-130],[-32,-123],[-83,-134],[-54,-98],[-103,-88]],[[25757,16182],[-59,46],[-28,-12],[-58,14],[-38,-22],[-28,12],[-82,-41],[-31,37],[-60,-17],[-61,36],[-48,2],[-109,-42],[16,-55],[-5,-93],[-50,-107],[-3,-63],[13,-52],[-23,-54],[-45,-55],[-29,-60],[-7,-51],[-52,-63],[57,-59],[-12,-64],[-36,13],[-87,105],[-64,-13],[-35,17],[-93,-41],[-32,14],[-15,-112],[-74,49],[-66,28],[-73,-38],[-73,-1],[-54,-38],[-97,13],[-5,41],[-67,50],[14,29],[-39,81],[34,62],[35,26],[-8,38],[-56,11],[-49,-41],[-134,54],[-39,-2],[-63,-63],[-20,45],[-64,-4],[-43,47],[-73,-17],[-65,-107],[-61,-51],[-14,-91],[-25,-25]],[[23474,15498],[-34,38],[-34,113],[-47,75],[-71,49],[-49,131],[-49,12]],[[25757,16182],[-97,-135],[-5,-88],[-14,-44],[28,-93],[2,-59],[22,-82],[27,-35],[-65,-126],[-97,-106],[-73,-101],[-38,-76],[-52,-75],[-32,-83],[-11,-75],[15,-108],[36,-54],[61,-43],[-13,-127],[7,-66],[23,-34],[71,-58],[91,-53],[57,-20],[67,-6],[105,6],[114,-18],[57,29],[40,-12],[120,-113],[41,-96],[86,-80],[90,-48],[32,-28],[72,-35],[4,-17],[93,-38],[89,-15],[37,-33],[46,-117],[87,-77],[91,-54],[105,-19],[-53,-91],[-10,-58],[-49,-130],[-10,-48],[5,-65],[-17,-80],[4,-45],[52,-97],[56,-68],[-45,-117],[-52,-166],[-6,-63],[17,-59],[54,-24],[-14,-29],[12,-58],[30,-43],[68,-46],[64,-23],[-43,-43],[-45,-69],[-9,-89],[20,-34],[-142,-172],[-31,-20],[-101,46],[-79,-6],[-52,-16],[-33,65],[-44,28],[-58,2],[-187,-39],[-193,-69],[-104,-52],[-107,-66],[-141,-106],[-98,-65],[-26,2],[-50,-48],[-30,-57],[-69,-101],[13,-25],[-34,-64],[-42,-50],[-17,-85],[58,-78],[-7,-76],[12,-136],[19,-68],[13,-127],[-3,-101],[19,-114],[7,-178],[-29,-87],[-46,-65],[-127,-151],[-98,-90],[-88,-47],[-24,-1],[-145,-65],[-92,-35],[-53,-76],[-53,-55],[-37,-67],[-119,-157],[-91,-132],[-55,-55],[-25,-49],[-8,-103],[-39,-194],[3,-42],[-77,-187],[-41,-72],[-91,-115],[-47,-13],[-59,7],[-61,-25],[-109,14],[-88,35],[-108,-9],[-102,-28],[-72,4],[-56,-13],[-74,1],[-38,30],[-35,0],[-64,44],[-30,40],[-46,16],[-84,132],[-31,94],[49,36],[12,38],[-24,52],[10,41],[-43,32],[-11,94],[44,42],[23,78],[-5,56],[-37,57],[-17,59],[4,160],[87,29],[25,26],[89,26],[60,-4],[32,13],[115,81],[59,71],[32,85],[-2,45],[20,92],[31,22],[37,65],[-4,22],[71,167],[24,30],[30,87],[22,106],[27,90],[-1,61],[-71,51],[-20,46],[-69,52],[-54,71],[-49,22],[25,95],[31,46],[61,49],[59,28],[39,-1],[70,36],[29,0],[59,83],[38,28],[49,-3],[41,18],[136,-26],[78,-28],[69,17],[131,108],[57,142],[23,80],[19,127],[-1,206],[-10,63],[-49,26],[-64,54],[-42,15],[-64,166],[-43,41],[-41,72],[-32,153],[-8,66],[-42,139],[-10,91],[-19,382],[-12,105],[-18,43],[-7,71],[-67,236],[-47,142],[-41,76],[-57,59],[-34,87],[-52,83],[-51,39],[-50,12],[-26,36],[-31,98],[-17,90],[-26,57],[-39,164],[-38,32],[-18,79],[-4,107],[-36,154],[-23,146],[-18,13],[-20,69],[47,34],[7,48],[-33,106],[-59,105]],[[15188,121],[154,-27],[29,18],[75,-84],[-28,-28],[-56,26],[-39,-3],[-44,39],[-130,28],[39,31]],[[16067,1335],[21,-55],[-64,-15],[-15,25],[20,46],[38,-1]],[[13700,4708],[58,-22],[5,-23],[63,-21],[19,18],[38,-49],[69,-66],[9,-106],[-17,-42],[-53,-53],[-94,6],[-56,99],[-36,9],[-12,54],[-65,65],[-3,50],[24,54],[51,27]],[[14987,8436],[-21,-34],[15,-80],[-24,-72],[-18,109],[-20,33],[68,44]],[[14609,8613],[19,-60],[28,-19],[48,14],[65,-65],[-12,-43],[-33,-9],[-19,34],[-68,26],[-83,-20],[-31,86],[42,17],[44,39]],[[13979,8744],[4,-55],[41,-68],[-22,-31],[-58,22],[-41,117],[76,15]],[[14675,8840],[22,-63],[27,-33],[-36,-30],[-31,17],[-18,41],[36,68]],[[22166,6137],[-43,-17],[-65,5],[-60,-128],[13,-60],[36,-43],[-2,-59],[51,-64],[3,-52],[41,-47],[56,-19],[95,-10],[13,-50],[-29,-103],[-47,-18],[11,-65],[34,-23],[25,33],[44,-32],[54,-88],[-60,-14],[-35,40],[-40,-33],[-42,-12],[-27,-103],[-56,-2],[-58,-27],[-67,-64],[-49,-88],[-35,-19],[-32,-83],[-13,-88],[-26,-4],[-41,-61],[-12,-147],[-30,-30],[0,-69],[19,-59],[53,-98],[-4,-78],[16,-48],[35,-41],[-22,-64],[-48,23],[-21,-42],[-66,-47],[-23,36],[-43,20],[-18,71],[-53,50],[-55,16],[-86,-41],[-38,8],[-98,90],[-61,34],[-84,3],[-69,-27],[-8,-21],[-54,-4],[-74,-42],[-13,26],[-52,-1],[-29,33],[-103,-11],[-51,21],[-40,69],[-53,27],[-52,52],[-64,12],[-42,29],[-83,19],[-68,-6],[-34,24],[-59,-2],[-87,132],[-37,149],[-60,128],[-36,52],[-37,82],[-89,140],[-159,189],[-139,103],[-40,1],[-69,50],[-113,52],[-61,10],[-81,28],[-83,16],[-85,-15],[-100,13],[-57,-4],[-112,-49],[-30,14],[-41,-12],[-117,59],[-35,73],[-53,40],[-146,5],[-46,12],[-60,73],[-41,6],[-65,56],[-45,20],[-63,114],[-56,25],[-65,83],[-47,18],[-30,57],[-38,30],[-71,-7],[-30,22],[-79,-19],[-42,32],[-42,3],[-59,34],[-8,30],[-53,66],[-100,56],[-30,34],[-76,17],[-33,54],[-39,34],[-56,1],[-47,124],[-43,32],[-51,89],[-54,21],[-22,49],[-48,45],[-59,19],[-39,-17],[-136,46],[-68,-8],[-33,-27],[-47,-2],[-50,114],[-98,122],[-51,34],[-218,36],[-102,0],[-138,-13],[-103,-37],[-134,-29],[-122,165],[-30,100],[-58,49],[-63,38],[-80,-10],[-94,63],[-13,40],[-58,62],[-3,147],[-39,93],[-69,91],[28,42],[48,7],[28,50],[-10,69],[33,32],[13,87],[-41,37],[-21,55],[76,124],[27,80],[-11,65],[33,36],[5,77],[29,19],[89,102],[13,45],[45,21],[76,-19],[100,46],[44,57],[-6,61],[51,4],[21,-27],[56,13],[67,98],[-1,23],[-53,104],[7,29],[52,-20],[71,15],[13,-105],[22,2],[29,-55],[-3,-89],[101,-157],[76,-59],[88,-83],[114,17],[93,33],[144,86],[21,29],[39,4],[65,53],[-20,52],[-5,63],[-30,39],[17,42],[56,61],[-6,42],[59,62],[48,3],[36,-29],[56,8],[8,-51],[73,-6],[59,19],[57,37],[56,55],[40,-10],[70,77],[39,15],[29,-45],[3,-42],[95,-60],[28,-106],[-19,-30],[-11,-63],[50,-60],[62,-33],[88,-15],[78,11],[82,35],[6,40],[72,-44],[23,-110],[-7,-63],[64,-65],[90,-49],[46,-45],[46,-14],[39,-36],[132,-27],[8,-35],[77,-15],[18,-19],[129,17],[105,27],[157,75],[118,75],[76,28],[20,-16],[88,20],[22,24],[111,-81],[58,7],[50,-21],[49,8],[49,29],[63,-24],[27,8],[123,-36],[110,9],[38,-19],[60,2],[76,39],[62,-16],[91,34],[67,55],[54,-18],[77,-6],[140,36],[70,59],[83,-2],[78,46],[28,-9],[117,94],[186,239],[35,-32],[67,-17],[132,39],[47,24],[82,8],[67,72],[77,-50],[63,-89],[102,-12],[91,10],[28,-68],[68,-43],[36,2],[94,60],[54,19],[75,57],[76,93],[34,65],[40,135],[21,-47],[-21,-43],[69,-39],[64,-1],[89,30],[56,6],[131,52],[127,70],[180,160],[56,15],[40,-14],[67,-52],[76,-31],[86,-7],[-16,-32],[-74,-21],[-62,-30],[-37,-48],[-27,-81],[-11,-73],[13,-25],[-78,-134],[-48,-109],[-51,-137],[-42,-70],[-52,-52],[-41,-72],[-92,-121],[-145,-214],[-33,-61],[-78,-98],[-51,-106],[-44,-70],[19,-18],[-78,-88],[-83,-143],[-20,-89],[34,-79],[-52,-111],[2,-68],[-17,-37],[-41,-34],[-12,-100],[12,-112],[-28,-15],[-15,-45],[-27,-11],[-18,-45],[-70,-45],[5,-24],[-53,-68],[-30,-91],[18,-253],[-5,-159],[11,-97],[17,-64],[86,-16],[70,-72],[24,15],[59,-39],[25,42],[51,-83],[37,-28],[23,-51]],[[21427,10281],[24,-25],[-23,-39],[92,-57],[28,-77],[-42,-33],[-37,10],[-69,54],[-27,79],[54,88]],[[21429,10599],[10,-62],[-19,-100],[-2,-59],[16,-27],[-21,-46],[-29,15],[-25,60],[-41,7],[-46,55],[13,114],[55,42],[51,-12],[38,13]],[[19888,10708],[6,-58],[-20,-25],[-42,29],[16,49],[40,5]],[[20381,10818],[61,-19],[15,-86],[-69,7],[-39,49],[32,49]],[[21188,10808],[21,-70],[-17,-38],[7,-54],[-38,-9],[-68,48],[-60,19],[-27,28],[9,44],[46,35],[72,-16],[55,13]],[[16851,11289],[52,-33],[-37,-52],[-71,-16],[2,71],[54,30]],[[21711,11033],[7,-64],[-48,0],[17,54],[24,10]],[[22099,11609],[57,-34],[-43,-88],[-32,-20],[-67,58],[64,79],[21,5]],[[4326,12924],[-8,-96],[19,-86],[-15,-20],[2,-88],[-79,-38],[-77,59],[7,79],[-37,32],[-30,-6],[-2,67],[85,31],[26,45],[77,-10],[32,31]],[[7979,18834],[34,-22],[-28,-41],[-57,36],[51,27]],[[7994,18999],[16,-46],[-58,-22],[-68,-59],[-2,45],[112,82]],[[4351,19686],[72,-111],[-31,-53],[11,-47],[-38,-15],[-112,17],[-32,-44],[-71,-63],[21,-58],[39,-48],[-39,-56],[-95,26],[5,53],[39,57],[-30,9],[22,66],[64,20],[19,55],[39,37],[22,91],[75,22],[20,42]],[[7176,19992],[14,-51],[-34,-25],[-30,40],[50,36]],[[7314,20123],[26,-22],[-6,-139],[-37,-37],[-54,6],[6,87],[36,26],[-1,58],[30,21]],[[6978,20150],[34,-6],[11,-53],[-26,-26],[-39,26],[20,59]],[[4468,12382],[-8,67],[-29,84],[22,34],[5,84],[34,11],[34,-51],[102,35],[13,-44],[64,-42],[25,-93],[57,96],[-26,31],[-25,84],[-68,-3],[-23,48],[15,27],[-2,61],[-51,55],[-35,-6],[-22,104],[-54,15],[-22,86],[46,43],[68,84],[32,12],[35,84],[-12,68],[-37,40],[-5,47],[-50,5],[-23,86],[-29,23],[24,91],[43,35],[21,46],[1,81],[-73,55],[12,66],[43,39],[80,126],[41,80],[10,63],[25,48],[11,61],[-5,64],[-36,28],[-12,50],[28,114],[-38,36],[29,107],[-23,17],[9,53],[-13,99],[32,44],[38,-74],[77,-125],[19,68],[29,48],[-20,26],[44,54],[39,92],[24,152],[-7,87],[-34,91],[-38,46],[-40,18],[-73,-11],[-62,-42],[-36,-44],[-119,101],[18,123],[-26,125],[47,68],[4,75],[-27,41],[-61,-12],[2,36],[45,16],[70,-2],[27,31],[50,-5],[51,51],[50,75],[-18,45],[-3,64],[-34,44],[-31,74],[-4,110],[25,57],[-15,33],[14,84],[42,143],[-2,41],[-48,52],[6,33],[-29,40],[-47,2],[-11,41],[-129,19],[13,33],[-19,49],[51,134],[-4,102],[-36,90],[-27,124],[-89,64],[-72,166],[15,55],[-59,73],[-69,-14],[-53,-25],[-37,-45],[-89,7],[7,31],[49,73],[-25,48],[-53,4],[-20,-63],[-29,-11],[-28,-75],[-27,37],[-13,66],[3,74],[102,45],[24,111],[24,70],[-73,22],[-15,50],[-88,93],[53,53],[29,55],[2,48],[-19,38],[40,35],[51,96],[60,141],[9,83],[-26,42],[-53,31],[2,34],[-40,33],[18,54],[46,79],[85,-77],[-20,-62],[19,-78],[37,-59],[78,-90],[92,-75],[84,-16],[115,-7],[62,12],[85,-70],[95,-6],[98,15],[105,31],[85,47],[69,65],[20,61],[43,34],[86,39],[30,35],[83,-1],[43,22],[63,-11],[58,24],[117,120],[94,134],[9,51],[67,89],[30,4],[99,98],[114,141],[42,72],[39,6],[47,39],[29,-36],[60,-2],[74,26],[33,42],[76,31],[47,74],[-33,23],[-12,51],[24,43],[6,90],[50,44],[27,-26],[51,48],[106,-41],[63,-54],[52,-90],[3,-40],[44,11],[35,-29],[14,67],[65,10],[18,-85],[28,16],[52,-40],[56,4],[6,-79],[33,-73],[5,-107],[24,-3],[34,77],[2,43],[59,27],[69,-15],[15,58],[68,-81],[-21,-40],[75,-23],[-10,-106],[-55,-9],[-32,-49],[-15,-55],[8,-37],[-28,-74],[75,36],[50,-16],[-34,-71],[65,29],[83,11],[38,-48],[50,-13],[34,13],[22,-35],[-33,-36],[-46,15],[-58,52],[-76,-82],[16,-36],[-51,-117],[-74,-36],[-12,28],[-66,-21],[-13,-53],[147,28],[42,-62],[74,26],[36,34],[65,-9],[-59,-80],[34,-36],[43,-83],[39,-27],[34,29],[32,-52],[52,-4],[-12,-49],[-50,20],[-22,-49],[29,-41],[-47,-24],[-6,-69],[75,-105],[37,-6],[-9,-45],[10,-110],[59,-43],[38,-79],[-23,-81],[-3,-87],[26,-37],[-3,-50],[30,-49],[68,-53],[16,-96],[83,-56],[-20,-119],[-51,-135],[-72,-104],[1,-64],[-17,-55],[-31,-38],[-33,1],[-48,-38],[-104,-116],[-44,-61],[-29,-67],[-58,-85],[-21,-90],[12,-127],[-7,-23],[23,-101],[23,-19],[28,-69],[0,-38],[39,-39],[52,-84],[101,-60],[17,-46],[-21,-25],[-16,-74],[-40,-55],[-10,-75],[-39,-98],[1,-126],[33,-43],[41,-10],[-4,-33],[-54,-15],[-28,-59],[6,-127],[22,-18],[-54,-201],[-10,-127],[16,-55],[-2,-108],[8,-34],[-46,-59],[13,-40],[-43,-108],[6,-80],[21,-106],[-12,-163],[-35,-37],[-18,-93],[0,-63],[22,-50],[14,-70],[-11,-58],[-29,-44],[-59,-158],[-27,-134],[4,-67],[35,-67],[50,-26],[-72,-42],[-38,-57],[-47,-117],[-16,-126],[-1,-61],[34,-16],[-21,-47],[-6,-83],[-14,-31],[-59,-19],[-47,-56],[-45,50],[-48,15],[-97,-35],[-111,67],[-83,102],[-54,16],[-29,53],[-45,38],[-49,6],[-13,25],[-61,-2],[-67,13],[-46,41],[-57,-7],[-66,-33],[-44,-43],[-13,-83],[-33,8],[-59,78],[-36,31],[-34,-1],[-51,-51],[-40,-21],[-73,-96],[-38,-64],[-24,-85],[18,-51],[2,-77],[72,-97],[-9,-60],[-43,-76],[-3,-47],[-29,-68],[-45,-18],[-62,-88],[-126,-110],[-38,-61],[-120,-92],[-43,-20],[-95,83],[-31,-18],[-43,32],[2,31],[-140,67],[-59,-47],[-119,-71],[-14,-44],[24,-18],[-19,-46],[-35,6],[28,82],[-42,11],[-57,-15],[-7,49],[37,44],[5,75],[-43,80],[-45,7],[-42,51],[-20,80],[24,51],[2,56],[-26,47],[-42,-4],[-32,48],[-96,19],[-70,-19],[-49,-117],[-9,-53],[6,-69],[-28,-40],[11,-32],[-37,-33],[-70,9],[-22,94],[-78,153]],[[7180,20203],[27,-29],[23,-86],[2,-63],[-134,-28],[-27,27],[2,40],[32,15],[27,56],[29,4],[19,64]]],"transform":{"scale":[0.0003889137476476764,0.00028582591658374144],"translate":[6.626621368537681,35.49382552924369]},"objects":{"ITA":{"type":"GeometryCollection","geometries":[{"arcs":[[0,1,2,3,4,5]],"type":"Polygon","properties":{"name":"Piemonte","shapeGroup":"ITA","gid":"ITA-2-0"},"id":"ITA-2-0"},{"arcs":[[-5,6]],"type":"Polygon","properties":{"name":"Valle d'Aosta","shapeGroup":"ITA","gid":"ITA-2-1"},"id":"ITA-2-1"},{"arcs":[[[7]],[[-1,8,9,10,11]]],"type":"MultiPolygon","properties":{"name":"Lombardia","shapeGroup":"ITA","gid":"ITA-2-2"},"id":"ITA-2-2"},{"arcs":[[-10,12,13]],"type":"Polygon","properties":{"name":"Trentino-Alto Adige","shapeGroup":"ITA","gid":"ITA-2-3"},"id":"ITA-2-3"},{"arcs":[[-11,-14,14,15,16,17]],"type":"Polygon","properties":{"name":"Veneto","shapeGroup":"ITA","gid":"ITA-2-4"},"id":"ITA-2-4"},{"arcs":[[-16,18]],"type":"Polygon","properties":{"name":"Friuli Venezia Giulia","shapeGroup":"ITA","gid":"ITA-2-5"},"id":"ITA-2-5"},{"arcs":[[[19]],[[-3,20,21,22]]],"type":"MultiPolygon","properties":{"name":"Liguria","shapeGroup":"ITA","gid":"ITA-2-6"},"id":"ITA-2-6"},{"arcs":[[-2,-12,-18,23,24,25,26,27,-21],[28]],"type":"Polygon","properties":{"name":"Emilia-Romagna","shapeGroup":"ITA","gid":"ITA-2-7"},"id":"ITA-2-7"},{"arcs":[[[29]],[[30]],[[31]],[[32]],[[33]],[[34]],[[-29]],[[-22,-28,35,36,37,38]]],"type":"MultiPolygon","properties":{"name":"Toscana","shapeGroup":"ITA","gid":"ITA-2-8"},"id":"ITA-2-8"},{"arcs":[[[39]],[[-37,40,41]]],"type":"MultiPolygon","properties":{"name":"Umbria","shapeGroup":"ITA","gid":"ITA-2-9"},"id":"ITA-2-9"},{"arcs":[[-25,42,43,44,-41,-36,-27,45],[-40]],"type":"Polygon","properties":{"name":"Marche","shapeGroup":"ITA","gid":"ITA-2-10"},"id":"ITA-2-10"},{"arcs":[[[46]],[[-38,-42,-45,47,48,49,50]]],"type":"MultiPolygon","properties":{"name":"Lazio","shapeGroup":"ITA","gid":"ITA-2-11"},"id":"ITA-2-11"},{"arcs":[[-44,51,52,-48]],"type":"Polygon","properties":{"name":"Abruzzo","shapeGroup":"ITA","gid":"ITA-2-12"},"id":"ITA-2-12"},{"arcs":[[-49,-53,53,54,55]],"type":"Polygon","properties":{"name":"Molise","shapeGroup":"ITA","gid":"ITA-2-13"},"id":"ITA-2-13"},{"arcs":[[[56]],[[57]],[[-50,-56,58,59,60]]],"type":"MultiPolygon","properties":{"name":"Campania","shapeGroup":"ITA","gid":"ITA-2-14"},"id":"ITA-2-14"},{"arcs":[[-55,61,62,-59]],"type":"Polygon","properties":{"name":"Puglia","shapeGroup":"ITA","gid":"ITA-2-15"},"id":"ITA-2-15"},{"arcs":[[-60,-63,63,64,65]],"type":"Polygon","properties":{"name":"Basilicata","shapeGroup":"ITA","gid":"ITA-2-16"},"id":"ITA-2-16"},{"arcs":[[-65,66]],"type":"Polygon","properties":{"name":"Calabria","shapeGroup":"ITA","gid":"ITA-2-17"},"id":"ITA-2-17"},{"arcs":[[[67]],[[68]],[[69]],[[70]],[[71]],[[72]],[[73]],[[74]],[[75]],[[76]],[[77]],[[78]],[[79]],[[80]],[[81]],[[82]]],"type":"MultiPolygon","properties":{"name":"Sicilia","shapeGroup":"ITA","gid":"ITA-2-18"},"id":"ITA-2-18"},{"arcs":[[[83]],[[84]],[[85]],[[86]],[[87]],[[88]],[[89]],[[90]],[[91]]],"type":"MultiPolygon","properties":{"name":"Sardegna","shapeGroup":"ITA","gid":"ITA-2-19"},"id":"ITA-2-19"}]}}}