{"type":"Topology","arcs":[[[3264,8492],[16,-7],[2009,-786],[907,-375]],[[6196,7324],[-304,-109],[-1211,-412],[-211,-71]],[[4470,6732],[-2,-1],[-518,610],[-41,-7],[-237,-79],[-37,-2],[-42,24],[-38,49],[-36,25],[-39,44]],[[3480,7395],[-54,72],[-60,86],[-48,81],[-35,33],[-82,110],[-38,59]],[[3163,7836],[9,25],[139,108],[77,42],[-33,43],[-125,145],[-75,52],[-34,20]],[[3121,8271],[86,126],[0,22],[57,73]],[[4470,6732],[25,-43],[497,-645],[-2430,-23]],[[2562,6021],[-77,95],[-13,0],[-23,28],[-4,29],[-12,14],[0,28],[-54,59],[-42,15],[-20,16],[-43,70],[-43,46],[-36,24],[-74,28],[-117,23],[-30,18],[-24,4],[-38,20]],[[1912,6538],[-51,61]],[[1861,6599],[13,32],[13,58],[1,21],[17,31],[3,30],[34,48],[28,61],[-3,18],[-53,25],[-12,24],[0,34],[21,27],[38,15],[-18,47],[-14,56],[-64,41],[-12,17]],[[1853,7184],[-10,46],[13,48],[37,3],[26,15],[42,69],[-16,18],[-10,31],[-15,18],[0,9],[49,58],[2,69]],[[1971,7568],[82,58],[10,2],[44,37]],[[2107,7665],[76,5]],[[2183,7670],[65,-25],[29,-64],[-1,-8],[-11,-17],[-31,-21],[-21,-24],[28,-26],[26,-6],[61,5],[15,3],[45,14],[29,0],[38,17],[45,-4],[21,-9],[41,-28],[37,-12],[77,-36],[107,2],[32,4],[91,0],[51,18],[177,-2],[49,-31],[42,-20],[32,-28],[102,2],[47,18],[74,3]],[[1861,6599],[-68,16],[-29,-11],[-15,-23],[-29,-18],[-17,-29]],[[1703,6534],[-24,-28],[-47,-37]],[[1632,6469],[-57,30],[-17,14]],[[1558,6513],[46,68],[23,44],[11,32],[22,29],[15,36],[37,51],[-3,62],[3,24],[-19,58],[7,102],[22,30],[5,26],[25,35],[56,34],[45,40]],[[1558,6513],[-61,42],[-26,22],[-63,25],[-18,21],[-190,87],[-66,2]],[[1134,6712],[-6,7],[2,76],[-2,59],[3,32],[-3,60],[10,21],[-1,28],[11,72],[20,49],[3,45],[61,182],[20,45],[44,70],[15,39]],[[1311,7497],[26,-8],[26,-42],[15,-3],[40,-31],[47,1],[13,8],[55,-3],[60,90],[3,55],[-5,31],[10,38],[18,27],[15,4]],[[1634,7664],[87,-34],[55,-33],[32,4],[39,14],[26,-8],[15,-9],[83,-30]],[[2183,7670],[3,24],[15,26],[44,26],[41,66],[28,14]],[[2314,7826],[55,-60],[53,-27],[165,-6],[23,19],[35,1],[84,24],[41,1],[18,16],[72,3],[14,10],[41,1],[47,-24],[36,-11],[110,7],[55,56]],[[1634,7664],[1,19],[45,38],[10,29],[-3,73]],[[1687,7823],[53,0],[19,-17],[32,17],[36,11],[102,-3],[36,-16]],[[1965,7815],[28,-14],[31,-3],[24,-13],[-10,-28],[15,-31],[54,-61]],[[1965,7815],[0,28],[22,32],[47,2],[12,11],[85,-1],[28,-13],[28,59],[-17,32],[11,23]],[[2181,7988],[37,12],[36,1],[39,26],[66,3],[27,-29],[-11,-33],[2,-26],[-27,-30],[4,-11],[-28,-35],[-12,-40]],[[1687,7823],[4,34],[16,27],[4,26]],[[1711,7910],[2,24],[27,104],[26,37],[13,9],[25,39],[37,18]],[[1841,8141],[14,-14],[57,-20],[23,-2],[43,-28],[36,35],[60,34],[35,2]],[[2109,8148],[25,-7],[59,-38],[8,-27],[-5,-36],[-15,-23],[0,-29]],[[1841,8141],[9,20],[29,20],[-7,40],[3,43]],[[1875,8264],[67,59],[10,53],[44,51]],[[1996,8427],[37,21],[24,1],[66,-59],[-6,-7],[5,-10],[32,-21],[29,-16]],[[2183,8336],[9,-48],[36,-53],[-1,-17]],[[2227,8218],[-53,9],[-50,-27],[-15,-52]],[[2227,8218],[45,-34],[33,-4],[53,2],[53,42],[26,14],[33,-31],[21,-41],[74,-6],[38,12],[74,2],[35,6],[40,22],[59,14],[51,7],[48,29],[35,44],[45,28],[35,4],[54,-27],[42,-30]],[[2183,8336],[80,50],[19,54],[-21,54],[-1,43],[-16,40],[2,55],[15,38]],[[2261,8670],[24,-5],[45,-30],[51,6],[26,35],[25,23],[23,-2],[32,-26],[24,-3],[22,-14],[17,1],[67,44],[48,24],[25,0]],[[2690,8723],[12,0],[50,-32],[21,-30],[52,-40],[55,-17],[66,2],[29,19],[49,5]],[[3024,8630],[27,-3],[23,11],[37,0],[56,-16],[9,-6],[24,-19],[20,-41],[7,-16],[24,-44],[13,-4]],[[1996,8427],[-24,104],[-21,29]],[[1951,8560],[6,32],[19,30],[-2,17],[46,66],[70,40],[53,9],[18,16],[29,2]],[[2190,8772],[33,-29],[2,-13],[36,-60]],[[2215,9525],[-55,30],[19,50],[-5,66],[-16,68]],[[2158,9739],[-2,60],[11,68],[-16,86],[1,28],[53,126]],[[2205,10107],[84,-6],[43,-14],[3,-51],[-10,-72],[6,-24],[15,-3],[15,-37],[46,-39],[23,-61],[15,-57],[-1,-71],[18,5]],[[2462,9677],[-23,-38],[-3,-24],[-15,-21],[-21,-80],[-16,-40],[-23,6],[-63,47],[-83,-2]],[[1711,7910],[-20,16],[-28,5],[-39,18],[-21,17],[-28,44],[-43,22],[-14,19],[-13,43],[-11,75],[6,17],[-2,47],[12,56],[1,112],[7,49]],[[1518,8450],[77,32]],[[1595,8482],[21,-32],[39,-18],[16,-38],[33,4],[27,13],[24,40],[39,-35],[40,-19],[22,-21],[3,-64],[16,-48]],[[1595,8482],[48,36],[16,0],[32,36],[8,25],[-5,37],[-20,83]],[[1674,8699],[28,2],[11,12],[50,6],[25,-12],[54,-10],[32,-27],[-9,-13],[1,-33],[16,-52],[42,-12],[27,0]],[[1518,8450],[0,53],[-7,31],[6,17],[-2,56],[5,14],[-2,66],[10,12]],[[1528,8699],[146,0]],[[1311,7497],[-23,51],[6,51],[-20,20],[11,54],[2,55],[-24,35],[14,27],[-16,58],[-15,15],[-9,68],[5,26],[38,36],[-7,25],[7,22],[0,53],[-19,39],[4,40],[-26,24],[5,45],[-21,41],[11,26],[22,94],[22,19],[-5,27],[47,-2],[24,-2]],[[1344,8444],[26,38],[-1,18],[42,72],[-2,20],[29,64],[17,18],[18,54],[13,13]],[[1486,8741],[26,-32]],[[1512,8709],[16,-10]],[[1344,8444],[-71,4],[-5,4],[-15,43],[35,43],[-11,55],[29,8],[6,20],[-7,50],[10,49],[20,22],[-16,33],[13,28],[-14,51],[19,49]],[[1337,8903],[71,1]],[[1408,8904],[21,-51],[8,-12],[2,-14],[47,-86]],[[1408,8904],[3,10]],[[1411,8914],[3,8],[45,40],[45,59],[20,-35],[25,-21],[-8,-90],[5,-55],[11,-43]],[[1557,8777],[-20,-39],[-10,-38],[-15,9]],[[1411,8914],[-13,34],[1,28],[-15,23],[-2,79],[11,45],[16,36],[-7,8],[33,91],[-13,39],[1,26],[13,2],[2,0]],[[1438,9325],[31,2],[45,20],[27,-3],[24,-26],[24,-6],[45,-1],[24,36],[2,21],[24,0],[11,14],[-8,10],[11,31],[46,-10]],[[1744,9413],[15,9],[16,-21],[25,10],[54,-38],[32,35],[1,19],[38,29],[23,-3]],[[1948,9453],[-8,-39],[-28,-10],[1,-28],[62,-3],[4,-48]],[[1979,9325],[-31,-24],[-29,-13],[-65,-47],[-27,-28],[-41,-26],[-72,-36],[-37,-25],[-16,-38],[-3,-44],[-10,-28],[-5,-55],[6,-62],[-16,-50],[-55,-53],[-21,-19]],[[2158,9739],[-44,-6],[-20,-29],[-45,-5],[-31,31],[-80,-25],[-25,-28],[-2,-24]],[[1911,9653],[-27,2],[-47,-38],[-22,13],[-41,-7],[-2,47],[-18,0]],[[1754,9670],[-15,21]],[[1739,9691],[15,43],[-5,26]],[[1749,9760],[10,12],[-8,31],[-50,43],[-22,37],[-29,71],[-10,36]],[[1640,9990],[15,35],[44,-9],[63,-5],[60,-23],[92,7],[40,-33],[28,-16],[30,21],[32,38],[32,69],[29,23]],[[2105,10097],[100,10]],[[1337,8903],[-16,5],[3,35],[-14,7],[20,61],[-9,24],[-17,17],[11,35],[-16,40],[8,69],[-10,49],[16,0],[7,22],[-7,33],[-27,25],[1,30],[26,-8],[-8,50],[-12,9],[15,38],[14,-2],[12,23],[-4,30],[10,16],[-24,24],[17,28],[-5,19],[25,25],[-14,24],[-29,7],[10,26],[-20,8],[3,27],[14,19],[0,38],[31,32],[-10,44],[12,18],[-2,68],[-18,6],[7,36],[-20,36],[10,26],[-12,15],[24,23],[31,-10],[13,31],[18,-2],[15,22],[-16,15],[35,41],[28,13],[30,-12],[27,11],[28,-11],[15,12],[-6,22],[11,36],[23,16],[21,4],[45,36],[36,5],[21,20],[24,37],[61,8],[18,-5],[17,-20],[62,-17],[58,-8],[33,7],[14,-5],[16,-40],[33,4],[0,21],[81,-18],[11,-62],[58,-22],[9,-39],[-18,-18],[11,-25],[-97,-10]],[[1640,9990],[-25,19],[-38,16],[-29,4],[-46,-36],[-25,-56]],[[1477,9937],[3,-56],[-34,-69],[0,-72]],[[1446,9740],[-6,-23],[18,-24],[-9,-54],[9,-26],[-1,-42],[-21,-74],[1,-63],[-5,-27],[6,-82]],[[1446,9740],[75,-5],[34,10],[69,-18]],[[1624,9727],[48,-12],[39,-26],[28,2]],[[1754,9670],[-3,-17],[-23,-23],[-7,-25],[-32,11],[-8,-8],[11,-40],[15,-22],[14,-41],[-7,-48],[30,-44]],[[1911,9653],[24,-57],[17,-80],[22,-25],[1,-15],[-27,-23]],[[2215,9525],[9,-18],[35,-38],[-1,-38],[33,-50],[-2,-50]],[[2289,9331],[-13,-6]],[[2276,9325],[-37,24],[-36,-1],[-47,23],[-32,35],[-41,0],[-66,-47],[-38,-34]],[[2276,9325],[-26,-55],[-32,-16],[-149,-136],[-8,-33],[-6,-23],[-1,-21],[37,-14],[24,-18],[45,-8],[13,-10],[4,-31],[12,-25],[1,-33],[-19,-32],[1,-43],[14,-22],[4,-33]],[[3024,8630],[-5,36],[23,87],[9,17],[0,10],[16,26],[38,30],[49,21],[32,40],[15,65],[67,2],[31,-6]],[[3299,8958],[42,-23],[119,-29],[16,-6],[64,-37],[76,-17],[60,-17],[35,-19],[44,-30],[45,1],[19,11],[53,-1],[64,-12],[36,-22],[64,-22],[52,4],[60,17],[34,5],[53,19],[73,13],[57,34],[47,16],[26,14],[39,11],[63,37],[56,24],[51,34],[40,35],[7,7],[38,53],[30,28],[39,54],[13,44],[0,51],[-5,53],[-8,25],[-16,29],[-5,18],[-38,35],[-31,52],[-41,93]],[[4670,9540],[0,1],[3702,2638],[641,-2535],[-222,-73],[124,-504],[474,148],[88,-363],[-643,-665],[-2634,-864],[-4,1]],[[3299,8958],[11,79],[-6,48],[-14,42],[7,80],[0,53]],[[3297,9260],[32,-2],[34,-29],[439,-78],[14,-33],[38,21],[248,-58],[66,91],[502,368]],[[2462,9677],[81,33],[44,-8],[27,4],[19,-35],[67,52],[21,-11],[66,-75],[169,-129],[104,-132]],[[3060,9376],[-35,-24],[-2,-3],[-5,-26],[4,-32],[-36,-44],[-67,34],[-9,27],[-35,50],[-8,22],[-37,32],[-46,16],[-151,3],[-46,-10],[-83,-37],[-36,-29],[-18,-1],[-60,-29]],[[2390,9325],[-32,1],[-23,-12],[-25,15],[-21,2]],[[2390,9325],[23,-24],[6,-5],[29,-21],[22,-5],[88,-39],[54,-9],[32,-28],[20,-47],[-1,-32],[13,-37],[-9,-43],[-17,-31],[-6,-58],[12,-15],[66,-39],[15,-36],[0,-18],[-49,-85],[2,-30]],[[3060,9376],[79,-90],[158,-26]],[[1190,4193],[-11,-38],[-10,-71],[3,-55],[-3,-34],[-25,-43],[-7,-28],[-4,-209],[-40,-32],[-23,-29]],[[1070,3654],[-25,-6],[-23,-15],[-9,-211],[-28,-33],[1,-12],[-24,-32],[38,-98],[-1,-27],[13,-35],[14,-20],[-1,-33],[-11,-16],[1,-47],[-12,-17],[0,-47],[-14,-36],[-25,-43],[-21,-64],[-27,-67],[2,-21]],[[918,2774],[-60,-62],[-32,-18],[0,-44],[14,-33],[0,-111],[3,-39],[-48,-115],[-16,-55]],[[779,2297],[-74,-74],[-68,-110],[-22,-59],[-60,-118],[-44,-75],[-87,-178]],[[424,1683],[-27,37],[-15,8],[-132,151],[-28,24]],[[222,1903],[9,37],[33,65],[11,48],[-8,92],[-7,26],[14,29],[-12,47],[22,20],[0,24],[24,55],[34,11],[-12,43],[-19,7],[25,78],[21,33],[31,25],[22,4],[5,37],[-2,61],[22,70],[-2,67],[-8,34],[-21,37],[3,73],[11,37],[0,67],[-13,36],[8,58],[0,72],[9,47],[35,67],[22,20],[26,37],[3,23],[-35,121],[-15,24],[-4,36],[-12,34],[2,36],[23,47],[44,119],[-2,96],[22,54],[-1,59],[5,48],[31,64],[5,37],[72,105],[24,27],[-8,32],[30,57],[13,42],[22,13],[-6,40],[17,47],[2,62],[31,-8]],[[768,4582],[9,-30],[29,-45],[53,-120],[13,-5],[170,-193],[113,8],[35,-4]],[[779,2297],[37,-11],[247,0],[98,-8],[53,-7],[48,0],[38,-24],[15,-44],[30,-55],[38,-100],[26,-35],[36,-63],[30,-42],[58,-66]],[[1533,1842],[69,-125],[38,-121],[31,-163],[24,-78],[0,-195],[8,-258],[-11,-103],[9,-169],[31,-368],[3,-114]],[[1735,148],[-556,113],[7,68]],[[1186,329],[-5,86],[12,23],[4,270],[-11,25],[-3,85],[-34,86],[-37,50],[-19,53],[-153,167],[-21,54],[-3,24],[4,56],[21,63],[-3,27],[-51,83],[-89,7],[-49,-4],[-98,-3],[-19,-6],[-64,5],[-17,34],[-35,52],[-3,15],[-38,49],[-51,53]],[[2562,6021],[-10,-42],[7,-35],[-6,-78],[25,-58],[6,-25],[163,-200],[-94,-244],[-153,-393]],[[2500,4946],[-195,21],[-53,10],[-28,-29],[-49,-2],[-16,-11],[-1,0]],[[2158,4935],[-1,21],[29,244],[0,26],[-37,29],[-83,19],[-49,-16],[-35,-2],[-59,27],[9,29],[30,68],[-35,83],[-22,35],[-51,54],[-16,31],[-24,11],[-13,-20],[-29,-16],[1,-29],[-6,-49],[-9,-22],[-51,12],[-59,38],[4,43],[-18,21],[-74,14]],[[1560,5586],[5,42],[-12,19],[1,66],[-11,51],[-16,29]],[[1527,5793],[0,60],[-7,26],[52,71],[19,121]],[[1591,6071],[131,9],[24,33],[15,0],[9,25],[0,37],[-11,13],[0,44],[11,55],[20,67],[-2,13],[-30,45],[-1,13]],[[1757,6425],[20,7],[40,-17],[73,-54],[10,-2],[54,-46],[-6,56],[-22,16],[-17,115],[3,38]],[[1757,6425],[-30,15],[-18,27],[1,51],[-7,16]],[[1591,6071],[-8,40],[2,53],[-8,43],[60,45],[13,43],[14,19],[-10,54],[-16,38],[-6,63]],[[1527,5793],[-17,1],[-44,-24],[-11,-12]],[[1455,5758],[-45,35],[-63,8],[-14,-8],[-67,5],[-12,13],[-32,5],[-12,12],[-63,4],[-14,9],[-77,5],[-17,13],[-30,0]],[[1009,5859],[-44,104],[0,57],[13,72],[36,89],[63,112],[27,75],[24,116],[-1,122],[7,106]],[[1455,5758],[-26,-43],[-9,-83],[18,-59]],[[1438,5573],[-10,-22],[-46,17],[-12,-10],[-14,-13],[-20,-16],[-29,-57],[-11,-39],[-17,-27],[-24,-67],[-9,-11],[-5,-43]],[[1241,5285],[-83,60],[-44,-36],[-1,-72],[13,-56],[5,-68],[-16,-63],[-28,-56],[-5,-56],[8,-43],[-14,-82],[-5,-9],[-2,-13],[-13,-38],[-40,-46],[-27,-9],[-25,-13],[-46,-2],[-28,15],[-9,12],[-18,22],[-21,13]],[[842,4745],[-9,-1],[-24,78],[2,58],[14,45],[43,89],[21,29],[24,17],[40,2],[37,79],[2,98],[14,35],[14,58],[-3,80],[41,68],[13,34],[20,87],[0,64],[-10,33],[-6,62],[-66,99]],[[1560,5586],[0,-14],[-26,-13],[-24,1],[-21,-12],[-51,25]],[[2158,4935],[-23,4],[-40,23],[-19,-1],[-24,-20],[-17,-1],[-9,30],[-19,10],[-17,-27],[-47,31],[-10,22],[-7,44],[-20,36],[-105,6],[-82,24]],[[1719,5116],[-84,33],[-88,43],[-61,24],[-19,-3],[-35,9],[-60,-9],[-36,24],[-27,0],[-68,48]],[[1533,1842],[9,188],[-35,141],[-3,242],[-13,59],[-49,267]],[[1442,2739],[-86,443],[-21,88],[-17,43],[-21,18],[-15,15],[-50,18],[-2,57],[4,47],[10,24]],[[1244,3492],[35,51],[51,33],[29,55],[44,-4],[22,-8],[123,26]],[[1548,3645],[8,0],[12,-4],[23,-15],[7,-7],[31,-20],[91,-40],[97,-25],[25,0],[66,34],[50,71],[82,257],[62,151],[95,207],[4,0]],[[2201,4254],[52,-5],[62,183],[131,342],[54,172]],[[2562,6021],[2430,23],[1655,-2219],[-722,-482],[-369,-969],[-1639,-392],[-537,-1060],[-957,-922],[-688,148]],[[918,2774],[46,-23],[29,-6],[57,11],[20,10],[31,0],[50,-16],[122,-33],[63,7],[10,9],[96,6]],[[1070,3654],[23,-30],[14,-1],[51,-59],[11,-1],[45,-47],[30,-24]],[[1548,3645],[23,68],[-83,157],[-30,68],[-3,52],[42,123]],[[1497,4113],[18,15],[34,0],[26,26],[-6,29]],[[1569,4183],[39,8],[249,7],[55,68],[120,2],[169,-14]],[[1190,4193],[14,18],[56,-7]],[[1260,4204],[45,-13],[73,-10],[51,-19],[68,-49]],[[1186,329],[-7,-67],[-1179,240],[0,29],[14,55],[-4,40],[24,19],[-11,44],[3,39],[-6,40],[11,15],[-3,34],[15,22],[12,57],[35,73],[-5,31],[-43,40],[0,97],[49,126],[19,35],[18,60],[5,73],[-20,55],[45,227],[27,37],[4,34],[11,35],[0,29],[22,55]],[[768,4582],[6,69],[17,40],[23,12],[8,36],[20,6]],[[1719,5116],[-18,-39],[-18,-65],[-14,-33],[-14,-91],[-15,-43],[-16,-66],[15,-172],[14,-30],[-49,-175]],[[1604,4402],[-18,4],[-70,55],[-17,24],[-34,-16],[-57,-10],[-21,-16],[-51,-6],[-17,8],[-44,-8],[-28,-15],[2,-57],[11,-20],[3,-31],[11,-16],[4,-29],[-18,-65]],[[1604,4402],[-12,-59],[0,-27],[-22,-75],[-1,-58]],[[1624,9727],[16,11]],[[1640,9738],[8,4],[101,18]],[[1477,9937],[26,-21],[34,-84],[75,-64],[28,-30]]],"transform":{"scale":[0.0004581736015591714,0.00034409277358924686],"translate":[34.9586828422768,29.18443994838043]},"objects":{"JOR":{"type":"GeometryCollection","geometries":[{"arcs":[[0,1,2,3,4,5]],"type":"Polygon","properties":{"name":"Al-Azraq","shapeGroup":"JOR","gid":"JOR-2-0"},"id":"JOR-2-0"},{"arcs":[[-3,6,7,8,9,10,11,12,13]],"type":"Polygon","properties":{"name":"Al-Jizah","shapeGroup":"JOR","gid":"JOR-2-1"},"id":"JOR-2-1"},{"arcs":[[-10,14,15,16,17]],"type":"Polygon","properties":{"name":"Dhiban","shapeGroup":"JOR","gid":"JOR-2-2"},"id":"JOR-2-2"},{"arcs":[[-11,-18,18,19,20,21]],"type":"Polygon","properties":{"name":"Madaba","shapeGroup":"JOR","gid":"JOR-2-3"},"id":"JOR-2-3"},{"arcs":[[-4,-14,22,23]],"type":"Polygon","properties":{"name":"Al-Muwaqqar","shapeGroup":"JOR","gid":"JOR-2-4"},"id":"JOR-2-4"},{"arcs":[[-12,-22,24,25,26]],"type":"Polygon","properties":{"name":"Um al-Basatin","shapeGroup":"JOR","gid":"JOR-2-5"},"id":"JOR-2-5"},{"arcs":[[-13,-27,27,28,-23]],"type":"Polygon","properties":{"name":"Na'ur","shapeGroup":"JOR","gid":"JOR-2-6"},"id":"JOR-2-6"},{"arcs":[[-26,29,30,31,32,-28]],"type":"Polygon","properties":{"name":"Amman","shapeGroup":"JOR","gid":"JOR-2-7"},"id":"JOR-2-7"},{"arcs":[[-32,33,34,35,36,37]],"type":"Polygon","properties":{"name":"Wadi al-Sayr","shapeGroup":"JOR","gid":"JOR-2-8"},"id":"JOR-2-8"},{"arcs":[[-5,-24,-29,-33,-38,38]],"type":"Polygon","properties":{"name":"Sahab","shapeGroup":"JOR","gid":"JOR-2-9"},"id":"JOR-2-9"},{"arcs":[[-6,-39,-37,39,40,41,42]],"type":"Polygon","properties":{"name":"Az-Zarqa","shapeGroup":"JOR","gid":"JOR-2-10"},"id":"JOR-2-10"},{"arcs":[[-36,43,44,45,-40]],"type":"Polygon","properties":{"name":"Birin","shapeGroup":"JOR","gid":"JOR-2-11"},"id":"JOR-2-11"},{"arcs":[[46,47,48,49]],"type":"Polygon","properties":{"name":"Ar Ramtha","shapeGroup":"JOR","gid":"JOR-2-12"},"id":"JOR-2-12"},{"arcs":[[-31,50,51,52,-34]],"type":"Polygon","properties":{"name":"As-Salt","shapeGroup":"JOR","gid":"JOR-2-13"},"id":"JOR-2-13"},{"arcs":[[-35,-53,53,54,-44]],"type":"Polygon","properties":{"name":"Ardhah","shapeGroup":"JOR","gid":"JOR-2-14"},"id":"JOR-2-14"},{"arcs":[[-52,55,56,-54]],"type":"Polygon","properties":{"name":"Al-Balqa","shapeGroup":"JOR","gid":"JOR-2-15"},"id":"JOR-2-15"},{"arcs":[[-21,57,58,59,60,-56,-51,-30,-25]],"type":"Polygon","properties":{"name":"Shuna al-Jabiniyya","shapeGroup":"JOR","gid":"JOR-2-16"},"id":"JOR-2-16"},{"arcs":[[-59,61,62,63]],"type":"Polygon","properties":{"name":"Dair Alla","shapeGroup":"JOR","gid":"JOR-2-17"},"id":"JOR-2-17"},{"arcs":[[-60,-64,64,65,66]],"type":"Polygon","properties":{"name":"Kofranjah","shapeGroup":"JOR","gid":"JOR-2-18"},"id":"JOR-2-18"},{"arcs":[[-66,67,68,69,70,71]],"type":"Polygon","properties":{"name":"Aljun","shapeGroup":"JOR","gid":"JOR-2-19"},"id":"JOR-2-19"},{"arcs":[[-48,72,73,74,75,76,77,78]],"type":"Polygon","properties":{"name":"Wastiyyeh","shapeGroup":"JOR","gid":"JOR-2-20"},"id":"JOR-2-20"},{"arcs":[[-63,79,-78,80,81,82,-68,-65]],"type":"Polygon","properties":{"name":"Tayybeh","shapeGroup":"JOR","gid":"JOR-2-21"},"id":"JOR-2-21"},{"arcs":[[-69,-83,83,84,-75,85]],"type":"Polygon","properties":{"name":"Mazar Shamaliyyeh","shapeGroup":"JOR","gid":"JOR-2-22"},"id":"JOR-2-22"},{"arcs":[[-70,-86,-74,86]],"type":"Polygon","properties":{"name":"Bani Knana","shapeGroup":"JOR","gid":"JOR-2-23"},"id":"JOR-2-23"},{"arcs":[[-47,87,88,89,-71,-87,-73]],"type":"Polygon","properties":{"name":"Al-Aghwar Shamaliyyeh","shapeGroup":"JOR","gid":"JOR-2-24"},"id":"JOR-2-24"},{"arcs":[[-45,-55,-57,-61,-67,-72,-90,90]],"type":"Polygon","properties":{"name":"Jerash","shapeGroup":"JOR","gid":"JOR-2-25"},"id":"JOR-2-25"},{"arcs":[[-1,-43,91,92,93]],"type":"Polygon","properties":{"name":"Ar-Ruwayshid","shapeGroup":"JOR","gid":"JOR-2-26"},"id":"JOR-2-26"},{"arcs":[[-93,94,95]],"type":"Polygon","properties":{"name":"Sabha","shapeGroup":"JOR","gid":"JOR-2-27"},"id":"JOR-2-27"},{"arcs":[[-50,96,97,98,-88]],"type":"Polygon","properties":{"name":"Sama as-Sarhan","shapeGroup":"JOR","gid":"JOR-2-28"},"id":"JOR-2-28"},{"arcs":[[-41,-46,-91,-89,-99,99]],"type":"Polygon","properties":{"name":"Bal'ama","shapeGroup":"JOR","gid":"JOR-2-29"},"id":"JOR-2-29"},{"arcs":[[-42,-100,-98,100,-95,-92]],"type":"Polygon","properties":{"name":"Al-Mafraq","shapeGroup":"JOR","gid":"JOR-2-30"},"id":"JOR-2-30"},{"arcs":[[101,102,103,104,105,106,107]],"type":"Polygon","properties":{"name":"Wadi Araba","shapeGroup":"JOR","gid":"JOR-2-31"},"id":"JOR-2-31"},{"arcs":[[-105,108,109,110,111]],"type":"Polygon","properties":{"name":"Al-Quwayra","shapeGroup":"JOR","gid":"JOR-2-32"},"id":"JOR-2-32"},{"arcs":[[-8,112,113,114,115,116,117,118]],"type":"Polygon","properties":{"name":"Al-Qasr","shapeGroup":"JOR","gid":"JOR-2-33"},"id":"JOR-2-33"},{"arcs":[[-9,-119,119,-15]],"type":"Polygon","properties":{"name":"Al-Safi","shapeGroup":"JOR","gid":"JOR-2-34"},"id":"JOR-2-34"},{"arcs":[[-16,-120,-118,120]],"type":"Polygon","properties":{"name":"Faqqu","shapeGroup":"JOR","gid":"JOR-2-35"},"id":"JOR-2-35"},{"arcs":[[-17,-121,-117,121,122,123,-19]],"type":"Polygon","properties":{"name":"Al-Mazra'a","shapeGroup":"JOR","gid":"JOR-2-36"},"id":"JOR-2-36"},{"arcs":[[-123,124,125,126,127]],"type":"Polygon","properties":{"name":"Ayy","shapeGroup":"JOR","gid":"JOR-2-37"},"id":"JOR-2-37"},{"arcs":[[-116,128,-125,-122]],"type":"Polygon","properties":{"name":"Al-Karak","shapeGroup":"JOR","gid":"JOR-2-38"},"id":"JOR-2-38"},{"arcs":[[-115,129,130,-126,-129]],"type":"Polygon","properties":{"name":"Al-Mazar al-Janubiyya","shapeGroup":"JOR","gid":"JOR-2-39"},"id":"JOR-2-39"},{"arcs":[[-110,131,132,133,134,135,-113,136]],"type":"Polygon","properties":{"name":"Ma'an","shapeGroup":"JOR","gid":"JOR-2-40"},"id":"JOR-2-40"},{"arcs":[[-104,137,-132,-109]],"type":"Polygon","properties":{"name":"Ayi","shapeGroup":"JOR","gid":"JOR-2-41"},"id":"JOR-2-41"},{"arcs":[[-103,138,-133,-138]],"type":"Polygon","properties":{"name":"Wadi Musa","shapeGroup":"JOR","gid":"JOR-2-42"},"id":"JOR-2-42"},{"arcs":[[-135,139,140,141]],"type":"Polygon","properties":{"name":"Al-Husanyniyya","shapeGroup":"JOR","gid":"JOR-2-43"},"id":"JOR-2-43"},{"arcs":[[-102,142,143,-140,-134,-139]],"type":"Polygon","properties":{"name":"Ash-Shibek","shapeGroup":"JOR","gid":"JOR-2-44"},"id":"JOR-2-44"},{"arcs":[[-106,-112,144]],"type":"Polygon","properties":{"name":"Al-Aqaba","shapeGroup":"JOR","gid":"JOR-2-45"},"id":"JOR-2-45"},{"arcs":[[-108,145,-127,-131,146,147,-143]],"type":"Polygon","properties":{"name":"Al-Tafila","shapeGroup":"JOR","gid":"JOR-2-46"},"id":"JOR-2-46"},{"arcs":[[-141,-144,-148,148]],"type":"Polygon","properties":{"name":"Birsayra","shapeGroup":"JOR","gid":"JOR-2-47"},"id":"JOR-2-47"},{"arcs":[[-114,-136,-142,-149,-147,-130]],"type":"Polygon","properties":{"name":"Al-Hasa","shapeGroup":"JOR","gid":"JOR-2-48"},"id":"JOR-2-48"},{"arcs":[[-76,-85,149,150]],"type":"Polygon","properties":{"name":"Hariema","shapeGroup":"JOR","gid":"JOR-2-49"},"id":"JOR-2-49"},{"arcs":[[-82,151,-150,-84]],"type":"Polygon","properties":{"name":"Kora","shapeGroup":"JOR","gid":"JOR-2-50"},"id":"JOR-2-50"},{"arcs":[[-77,-151,-152,-81]],"type":"Polygon","properties":{"name":"Irbid","shapeGroup":"JOR","gid":"JOR-2-51"},"id":"JOR-2-51"}]}}}