{"type":"Topology","arcs":[[[11268,2272],[-59,20],[-95,-29],[-61,40],[-108,2],[-68,26],[-8,100],[-26,33],[10,33],[-50,22],[-44,-43]],[[10759,2476],[-43,19],[-25,111],[13,28],[-6,79],[-55,106],[-69,15],[7,207]],[[10581,3041],[27,-5],[71,-61],[50,-3],[29,36],[71,21]],[[10829,3029],[1,-74],[-100,-46],[-16,-64],[46,-13],[67,-55],[30,-3],[35,36],[34,-91],[52,5],[17,27],[84,-36],[22,54],[29,-21],[49,16],[36,-33],[29,-102],[29,-43],[-33,-19],[5,-100],[-24,-17],[11,-52],[123,5],[21,-77]],[[11376,2326],[-62,0],[-46,-54]],[[10581,3041],[-17,-14],[-77,130]],[[10487,3157],[-15,268]],[[10472,3425],[9,18],[87,-21],[50,58],[43,-47],[54,72],[114,-98],[43,-4],[16,-44],[151,17],[105,-156],[161,59]],[[11305,3279],[72,-31],[-1,-37],[115,-53],[98,-58],[105,-3],[54,-17],[21,-40],[35,-1],[15,-39],[112,-139],[26,-107],[55,-64],[-10,-79],[16,-41],[35,14]],[[12053,2584],[52,-42],[54,-12],[14,-44],[-13,-66],[-36,-58],[-82,60],[-79,-40],[-60,21],[-14,56],[-33,31],[-80,-51],[-114,-25],[-13,-24],[-74,-24],[-35,16],[-34,-19]],[[11506,2363],[28,143],[-10,39],[-35,35],[-22,51],[3,54],[-37,4],[-36,-28],[-25,86],[-83,-17],[-19,97],[-24,-14],[-88,40],[12,82],[-38,45],[-5,49],[-51,23],[-72,51],[-22,-65],[-44,-37],[-109,28]],[[10251,1356],[-35,50],[23,43]],[[10239,1449],[48,28]],[[10287,1477],[-6,-83],[-30,-38]],[[10274,2137],[12,-60],[71,-109]],[[10357,1968],[-157,-32]],[[10200,1936],[14,58],[-61,121],[-57,14],[-36,60],[-43,-17],[-73,-55]],[[9944,2117],[-90,31],[-65,-13],[-14,54],[-53,4],[-56,-54],[-235,13]],[[9431,2152],[-108,83],[-20,40],[-3,63],[-94,3],[-6,96],[102,-8],[-19,53],[-14,191],[59,121]],[[9328,2794],[29,53],[111,124],[92,89],[193,117],[80,-17],[103,20],[115,-21],[0,-15]],[[10051,3144],[4,-88],[-21,-131],[-3,-249],[-13,-70],[35,-94],[82,-36],[22,-53],[9,-97],[63,-8]],[[10229,2318],[35,-74],[10,-107]],[[11005,1466],[-21,-28],[-68,-3],[-34,-26],[-74,1],[-48,-21],[-45,-52],[-42,34],[-45,-17]],[[10628,1354],[-110,-36],[-39,8],[1,56],[-55,36],[-48,11],[-18,86],[61,84],[16,90],[22,35],[93,-33]],[[10551,1691],[40,14],[59,-5],[39,14],[89,-2],[42,-14],[153,-1]],[[10973,1697],[-8,-25],[17,-122],[23,-84]],[[10239,1449],[-29,16],[-79,7],[-23,64],[-29,27]],[[10079,1563],[38,37],[-53,113],[-41,-30],[-41,23],[46,77],[7,66],[-59,76],[-33,149],[1,43]],[[10200,1936],[18,-37],[71,-59],[-5,-40],[65,-112],[-37,-158],[-25,-53]],[[10251,1356],[45,-41],[17,-53]],[[10313,1262],[-5,-14]],[[10308,1248],[-79,10],[-46,-41],[-76,-4]],[[10107,1213],[-25,53],[14,135],[25,19],[-57,122],[15,21]],[[10759,2476],[2,-64],[-60,-75],[-39,-16],[-31,-38]],[[10631,2283],[-30,32],[-176,39],[-94,-2],[-37,-37],[-65,3]],[[10051,3144],[42,23],[115,-15],[38,19],[102,-33],[139,19]],[[10274,2137],[53,-3],[70,-117],[31,-14],[109,16],[26,-22],[29,31],[62,23],[44,-4],[47,28],[60,-12],[10,26]],[[10815,2089],[31,27],[1,37],[89,-5],[50,32],[43,2],[71,40],[79,-18],[54,39]],[[11233,2243],[40,-6],[30,-40]],[[11303,2197],[-156,-47],[-43,-26],[-10,-33],[-79,-60],[-4,-43],[-42,13],[-58,-15],[15,-83],[20,-54],[1,-52],[20,-39],[6,-61]],[[10551,1691],[24,103],[-32,22],[-53,3],[-81,48],[10,94],[-62,7]],[[10631,2283],[49,12],[65,-95],[35,-8],[35,-103]],[[11303,2197],[67,20],[32,-10],[50,-56],[-50,-119],[20,-99],[5,-83],[35,-151]],[[11462,1699],[-15,-29],[-94,-6],[-70,13],[-127,95],[-113,-56],[-70,-19]],[[11005,1466],[33,-107],[37,-29],[74,36],[34,-7],[46,50],[69,-5],[79,16],[54,-20],[42,44],[39,-11]],[[11512,1433],[26,-13],[18,-63],[-69,-23],[-62,-38],[-5,-32],[58,-37],[-57,-50],[-47,0],[-31,-99],[18,-52],[-4,-56],[21,-50],[3,-50],[-57,-6],[-9,55],[-44,52],[-97,24],[-52,-10],[-47,64],[-40,27],[-29,60],[-160,37],[-64,41],[-62,-22],[-80,-1],[-212,42],[-73,-11],[-47,26]],[[10313,1262],[37,6],[44,-35],[23,31],[70,26],[84,1],[50,-36],[50,34],[-43,65]],[[11506,2363],[-69,-10],[-15,-26],[-46,-1]],[[11268,2272],[-35,-29]],[[11462,1699],[24,-50],[52,-151],[-26,-65]],[[10107,1213],[-53,-17],[-24,28],[-79,-5],[-34,22],[-45,-19]],[[9872,1222],[-55,42],[9,21],[-96,42],[-25,118],[45,61],[-13,23],[-50,-7],[-82,34],[-1,33],[95,110],[-8,37],[23,41],[-2,64],[-113,92]],[[9599,1933],[-75,9],[-65,68]],[[9459,2010],[5,81],[-33,61]],[[8832,6133],[25,-92],[-56,-73],[16,-40],[-70,-56],[-87,-36],[-35,-34]],[[8625,5802],[-33,26],[-86,9],[-68,-31],[-109,4],[-32,-32],[-156,50],[-96,-5]],[[8045,5823],[-18,94]],[[8027,5917],[-11,23],[61,76],[29,-25],[62,19],[42,38],[27,-68],[55,94]],[[8292,6074],[37,16],[34,105],[27,44],[59,27],[97,-68],[76,-6],[61,-20],[87,13],[62,-52]],[[8531,5095],[31,43],[-9,56],[23,30],[-38,33]],[[8538,5257],[8,90],[-37,8],[-15,61],[79,60],[-41,24],[15,39],[109,40],[5,44]],[[8661,5623],[26,-3],[100,-94],[7,-31],[43,-17],[43,-60],[58,4],[3,-52],[60,10]],[[9001,5380],[-49,-62],[-55,22],[-49,-82],[-49,-3],[-46,-60],[-69,-43],[8,-49],[-60,9],[-101,-17]],[[8045,5823],[-52,-72],[26,-33],[9,-53],[65,-35]],[[8093,5630],[12,-62],[30,-32],[-39,-101]],[[8096,5435],[-62,-28]],[[8034,5407],[-37,45],[-59,-38],[6,67],[-68,6],[-18,-53],[-152,8],[-6,62],[-43,106]],[[7657,5610],[-30,44],[26,97],[51,-7],[27,86],[-1,68]],[[7730,5898],[35,12],[73,-14],[1,-40],[46,-72],[73,89],[69,44]],[[7657,5610],[-33,-50],[-26,11],[-112,-79],[18,-97],[76,11],[1,-129]],[[7581,5277],[-104,-3],[-125,-87],[-32,25],[-68,-7]],[[7252,5205],[-36,70],[2,66]],[[7218,5341],[110,12],[-8,51],[-49,82],[22,59],[-16,95],[-26,28],[10,52],[41,67],[43,-12],[-38,127],[5,44]],[[7312,5946],[61,24],[-2,41],[73,-15],[40,-36],[97,-11],[49,-48],[44,67],[22,-8]],[[7696,5960],[34,-62]],[[7696,5960],[82,22],[14,143]],[[7792,6125],[31,-9],[82,59],[82,-2],[39,45],[87,54]],[[8113,6272],[12,-111],[28,13],[47,-70],[36,21],[56,-51]],[[8034,5407],[4,-57],[-26,-61],[-63,3],[-86,21],[-28,-70],[-104,-2],[-41,-71],[-113,-8]],[[7577,5162],[4,115]],[[8113,6272],[-14,52],[17,38],[72,35],[9,39],[-24,46],[49,25],[-1,68],[23,75]],[[8244,6650],[42,1]],[[8286,6651],[-2,-46],[88,-19],[62,48],[103,-91]],[[8537,6543],[-35,-109],[21,-38],[98,-11],[80,6],[16,38],[65,13],[112,1],[23,-146]],[[8917,6297],[-39,-44],[-46,-120]],[[8917,6297],[44,18],[64,-31],[46,1],[53,-63],[131,-9]],[[9255,6213],[19,-12],[4,-121]],[[9278,6080],[4,-205],[-72,-66],[-2,-97],[62,29],[17,-38],[73,-22],[-40,-30],[-34,10],[-75,-47],[-5,-37],[-37,-42]],[[9169,5535],[-57,17],[-63,-25],[-17,-25],[109,-47],[-50,-47],[-90,-28]],[[8661,5623],[-29,-1],[0,82],[-21,33]],[[8611,5737],[14,65]],[[6431,5596],[28,79],[-31,61],[-42,2],[-17,56],[59,-5],[88,43],[29,141],[41,32],[3,122]],[[6589,6127],[54,-3],[29,-56],[114,30],[3,-50],[108,0],[72,-22],[21,12]],[[6990,6038],[-19,-110],[22,-24],[-103,-144],[34,-13],[-7,-133]],[[6917,5614],[-76,42],[-25,69],[2,39],[-71,-20],[21,-55],[-19,-58],[-76,-20],[-58,47],[-56,-69],[-36,-18],[-56,3],[-36,22]],[[8096,5435],[40,-22],[18,-69],[38,-30],[47,-108],[-33,-21],[47,-75]],[[8253,5110],[-27,-13],[-29,-67],[-73,-32],[21,-53],[-123,-69],[-20,48],[30,43],[-33,40],[-105,-30],[-61,-5],[-34,86],[-72,-14],[12,-38],[-117,-67],[-69,43],[-14,38],[38,142]],[[7312,5946],[-108,24],[32,83]],[[7236,6053],[86,75],[-32,59]],[[7290,6187],[49,-1],[28,35],[37,-4],[24,57],[109,58]],[[7537,6332],[88,-120],[74,36],[48,-52]],[[7747,6196],[-15,-38],[22,-43],[38,10]],[[8611,5737],[-65,-28],[-71,-15],[-11,-144],[-38,-27],[-55,94],[-79,8],[3,30],[-57,6],[-71,-46],[-74,15]],[[7747,6196],[12,78],[41,-12],[48,60],[38,95],[-37,32],[-8,59],[63,28],[85,20],[-35,66]],[[7954,6622],[85,0],[34,-40],[62,22],[8,43],[101,3]],[[8538,5257],[-29,17],[-93,-30],[-10,-49],[-65,-17],[-19,-38],[-69,-30]],[[7537,6332],[-26,78],[52,44],[-32,108],[-38,2],[-55,76],[52,45],[2,34]],[[7492,6719],[40,41],[111,-3],[32,24],[63,-64],[15,52],[56,24],[73,-1],[26,-83],[80,-41],[-34,-46]],[[7218,5341],[-115,42],[-27,56],[-162,99],[3,76]],[[6990,6038],[71,-24],[-3,109],[75,2],[103,-72]],[[7252,5205],[25,-58]],[[7277,5147],[-40,-30],[-147,-19],[-79,-49],[-48,72],[37,22],[-22,54],[-29,10],[-83,-24],[-90,31]],[[6776,5214],[-69,8],[-17,69],[-65,-1],[-3,42],[-63,36],[-21,-67],[-67,-7],[-13,27],[22,101],[-72,68]],[[6408,5490],[-10,53]],[[6398,5543],[33,53]],[[3279,4788],[18,63],[-46,31],[23,69],[-7,78]],[[3267,5029],[61,54],[58,-28],[106,40]],[[3492,5095],[40,-130],[50,-16],[45,15],[51,-11],[50,21]],[[3728,4974],[35,-43],[1,-40],[49,-13],[46,14],[56,-16],[70,-56]],[[3985,4820],[-64,-70],[-107,-47],[8,44],[-40,41],[-51,-35],[-100,-5],[-54,-16],[-47,12],[-59,-16],[-73,-45],[-24,-30]],[[3374,4653],[-40,48],[-2,46],[-48,2],[-5,39]],[[3492,5095],[73,84],[50,-29],[20,47]],[[3635,5197],[11,-30],[50,9],[96,-59]],[[3792,5117],[8,-56],[-38,-78],[-34,-9]],[[4415,4365],[-22,42],[-45,2],[2,97],[-22,3],[-20,75],[48,75],[-5,22]],[[4351,4681],[60,-7],[14,64],[-3,70],[-64,30],[26,150],[65,-1],[69,-32],[42,38],[-5,71],[-37,-1],[-107,98]],[[4411,5161],[83,27],[57,126],[22,19],[97,-96],[159,-10],[61,13],[149,63],[43,219],[31,17]],[[5113,5539],[86,-10],[19,-87],[55,20],[50,-29],[-23,-60],[61,-57]],[[5361,5316],[-38,-26],[6,-60],[48,14],[31,-154],[51,-96],[73,-109],[-9,-83],[-54,43],[-54,-47],[-5,-55],[-53,-32],[-29,-119]],[[5328,4592],[-15,-20],[-188,-11],[-40,48],[-39,10],[-48,39],[13,37],[-154,-8],[-88,-148],[-45,43],[-19,-26],[-2,-62],[-51,-28],[-1,-26],[-56,-41],[-25,8],[-8,-84],[35,-41],[-28,-38]],[[4569,4244],[-24,1],[-71,112],[-59,8]],[[3926,3742],[-24,-84],[-54,-56],[-10,-74],[-26,-22],[6,-64],[-30,-30],[37,-106],[-33,-72],[-3,-87],[15,-29],[-7,-61],[113,-169],[-9,-213],[-173,15],[37,-106],[6,-85]],[[3771,2499],[-330,-114]],[[3441,2385],[-48,386],[-31,90]],[[3362,2861],[-21,80],[-40,54],[-4,68],[-198,63],[-69,30],[-101,108],[-21,85],[-51,67],[40,294],[-23,40]],[[2874,3750],[-8,97],[-52,61],[12,47],[-32,105],[21,90],[-1,83]],[[2814,4233],[89,55]],[[2903,4288],[57,-35],[107,23],[3,18],[80,8],[36,76],[91,-45],[84,-62],[32,-106]],[[3393,4165],[0,-19],[116,-121],[32,-54],[84,-46],[-5,-15],[44,-82],[34,-21],[136,-30],[92,-35]],[[5328,4592],[62,-105],[-33,-31],[24,-84],[94,-94],[73,40],[35,-31],[-20,-50],[12,-45],[110,-37],[130,-83],[72,-143]],[[5887,3929],[62,-111],[31,-14],[-75,-85],[-398,-290]],[[5507,3429],[-137,30],[15,35],[-93,123],[-42,-6],[-86,145]],[[5164,3756],[50,83],[-129,37],[-19,-7],[-42,121],[-249,31],[-76,26],[-51,87],[-15,0],[-64,110]],[[3635,5197],[46,72],[82,17],[11,71]],[[3774,5357],[15,24],[5,89],[140,-33],[27,43],[36,-31],[63,-8],[18,-128],[57,6],[43,-70]],[[4178,5249],[-19,-39],[-43,-18],[-22,29],[-53,-32],[-96,-28],[-52,20],[-18,-36],[-82,-6],[-1,-22]],[[3279,4788],[-31,-55],[-41,5],[-36,-34],[8,-92],[-84,-23],[-45,4],[6,53],[34,20],[-20,62],[-49,-1]],[[3021,4727],[-83,-5],[-2,44],[-70,-17],[-48,49],[-53,-37],[-75,5]],[[2690,4766],[-20,24],[46,102],[-27,37]],[[2689,4929],[-17,18],[5,80],[-25,34],[67,109]],[[2719,5170],[55,44],[-24,90],[17,44],[119,-32],[99,-89],[49,-7],[55,-39],[98,55]],[[3187,5236],[-20,-45],[30,-65],[68,-3],[24,-68],[-22,-26]],[[4178,5249],[46,-1],[121,-27],[31,4],[35,-64]],[[4351,4681],[-38,23],[-111,-3],[-42,47],[-108,39],[-67,33]],[[3187,5236],[62,48],[12,76],[71,4],[32,28],[-5,44],[90,-48],[-3,54],[111,-10],[44,20],[46,-73],[36,-30],[60,24],[31,-16]],[[4415,4365],[-110,-40],[-9,-96],[30,4],[27,-84],[24,-28],[-18,-64],[-77,13],[43,49],[-19,27],[-47,-36],[-50,116],[4,50],[-109,-105],[-19,84],[-42,-68],[16,-54],[-55,-125],[11,-111],[-47,-70],[-42,-85]],[[3393,4165],[77,6],[42,-20],[64,-80],[17,64],[40,5],[2,66],[34,59],[13,59],[-57,53],[53,65],[-14,55],[-50,27],[-31,-26],[-60,-9],[-27,17],[-113,6],[-7,41],[18,69],[-20,31]],[[5164,3756],[-205,-49],[-116,-324],[-141,12],[-10,-112],[-103,-9],[-136,-133],[-68,-92],[-74,-119],[-92,-121],[13,-345]],[[4232,2464],[-164,131],[-297,-96]],[[2903,4288],[19,221],[66,60],[37,91],[-4,67]],[[2814,4233],[-61,6],[-25,40],[-33,-13],[-8,-76],[-137,23],[13,35],[-28,183],[-48,-11],[-68,44]],[[2419,4464],[-3,48],[45,128],[65,48],[71,-4],[55,82],[38,0]],[[1707,3305],[82,75],[48,16],[3,84],[93,56],[53,-21]],[[1986,3515],[-12,-47]],[[1974,3468],[13,-103],[49,-85],[73,22]],[[2109,3302],[9,-120]],[[2118,3182],[-33,18],[-9,64],[-61,-7],[-45,-45],[-53,5],[-148,41],[-62,47]],[[1392,3814],[-52,22],[-17,31],[-61,-38],[-89,43]],[[1173,3872],[68,72],[186,128],[97,43],[19,60]],[[1543,4175],[70,5],[40,19],[143,-25],[-5,-70],[108,-25],[27,24],[74,-43],[60,15]],[[2060,4075],[22,-3],[40,-147],[-29,-62]],[[2093,3863],[-43,6],[-79,38],[-107,-62],[-129,-43],[-55,-12],[-6,-64],[-141,71],[-63,-15],[-78,32]],[[1392,3814],[44,-55],[100,-37],[51,-152],[68,-77],[-1,-22],[-66,-38],[21,-93]],[[1609,3340],[-56,-38],[-64,11],[-41,-19],[-19,-35],[-44,-4],[-35,-31],[-95,-19],[-61,-87],[-36,-1]],[[1158,3117],[2,160],[-72,9],[36,36],[-29,42],[35,68],[-28,46],[-33,104],[-1,71],[59,20],[-57,45],[-75,92]],[[995,3810],[-2,54],[105,-6],[75,14]],[[1158,3117],[-16,-46],[-83,-75],[-61,-1],[-31,-24],[-17,62],[-54,-25],[-113,57],[-14,29],[-99,63],[10,39],[49,20],[32,-43],[55,3],[31,38],[-12,35],[-64,91],[-40,102],[-18,107],[-77,9],[-67,127],[-46,45],[-120,-11],[-95,35],[-12,-70],[-66,44],[-4,39],[-49,84],[41,21],[-14,88],[-27,22]],[[177,3982],[262,-43],[298,-34],[93,-27]],[[830,3878],[165,-68]],[[2874,3750],[-103,2],[-14,-48],[-42,14],[-58,-28],[-109,23],[-87,-36]],[[2461,3677],[-130,-41],[-41,42],[-57,-45],[-77,-31],[22,-40],[-56,-58],[-58,-21],[-90,-15]],[[1986,3515],[33,72],[24,106],[34,83],[16,87]],[[2060,4075],[-8,26],[24,101],[40,2],[-5,126],[30,-14],[41,38],[117,-1],[44,38]],[[2343,4391],[76,73]],[[2461,3677],[-36,-161],[36,-71],[-100,16],[-107,-89],[-74,7],[-71,-48],[0,-29]],[[1707,3305],[-16,20],[-82,15]],[[3362,2861],[-72,33],[-24,-13],[-119,54],[-11,82],[-42,-16],[-62,76],[-80,-84],[-37,6],[-134,-15],[-64,-27],[-51,-1],[-152,-52],[-18,-37],[-77,-61],[13,-45],[-121,-61],[-52,8],[-11,-29],[-123,23]],[[2125,2702],[35,69],[-27,79],[51,147],[32,36],[-27,32],[-2,103],[-69,14]],[[11398,4059],[-71,-23],[-94,29],[-11,-23],[-61,-22],[-1,33],[-87,7],[-39,-65],[-48,16],[-47,42],[-63,0],[7,38],[-43,21],[4,39],[-53,47]],[[10791,4198],[-22,62],[63,100],[9,81],[-91,51],[-23,51],[129,100],[-15,54],[63,28],[32,35],[83,28],[44,45],[65,-48],[91,-10],[108,-61],[19,2]],[[11346,4716],[20,-26],[5,-64],[58,-103],[-30,-132],[-3,-51],[17,-100],[-15,-35],[0,-146]],[[10472,3425],[-34,-16],[-39,20],[-38,-61],[-83,46],[-21,58],[13,76],[63,-9],[-22,106],[-14,25],[37,120],[16,-1],[11,114],[-43,40],[30,52],[-53,-2],[-34,37],[10,61]],[[10271,4091],[61,9],[62,65]],[[10394,4165],[32,36],[94,41],[51,65],[48,-25],[88,12],[3,-84],[35,-20],[46,8]],[[11398,4059],[78,-3],[35,-69],[33,-6],[50,41],[23,-18],[71,31],[107,1]],[[11795,4036],[16,-41],[-43,-68],[70,-27],[-14,-62],[26,-21],[-49,-69],[22,-57],[30,-14],[3,-94]],[[11856,3583],[-20,-52],[-79,64],[-70,-25],[-83,30],[-43,-24],[-42,40],[-64,13],[-41,27],[-123,-122],[-28,-61],[39,-37],[-6,-40],[18,-43],[-9,-74]],[[10883,5112],[-32,9],[12,115],[-161,108],[-38,120]],[[10664,5464],[137,52],[83,61],[-13,49],[67,10],[96,71],[34,53]],[[11068,5760],[202,-409]],[[11270,5351],[-33,-105],[-37,-33],[-41,25],[-44,-23],[-1,-50],[-41,-7],[-125,-51],[-65,5]],[[11736,5049],[-106,48],[-123,123],[-11,42],[-82,22],[1,53],[-34,29]],[[11381,5366],[64,23],[-10,120],[61,0],[21,53],[74,-27],[50,-34],[31,6],[-28,-126],[111,20],[30,-91],[44,-35]],[[11829,5275],[28,-103],[-4,-62],[17,-57],[-5,-48]],[[11865,5005],[-82,48],[-47,-4]],[[12387,4957],[-14,-29],[15,-85],[-130,0],[-22,-21]],[[12236,4822],[-105,58],[-68,47],[-41,77],[-60,2]],[[11962,5006],[28,77],[37,13],[58,-38],[56,57],[2,40],[125,88],[11,95],[70,73]],[[12349,5411],[77,-8],[145,-60],[44,-49],[36,-72]],[[12651,5222],[-45,20],[-103,-60],[-104,13],[7,-58],[-22,-58],[-38,-34],[-4,-42],[45,-46]],[[12701,4410],[18,48],[-53,63]],[[12666,4521],[45,26],[33,-17],[54,45],[46,-9],[29,77],[-25,63],[39,18],[11,-71],[59,6],[18,-24],[81,-7],[6,49]],[[13062,4677],[51,-17],[35,21],[42,-22],[95,-5],[16,-34],[151,79],[66,69],[60,16],[-6,-48],[-56,-41],[5,-26],[55,-18],[9,-53],[27,-48],[49,-50],[74,-20],[15,-52],[-60,18],[-50,-24],[-44,2],[-45,-60],[2,-27]],[[13553,4337],[-70,12],[-92,3],[-48,-27],[-55,56],[-14,-26],[-100,-57],[-13,57],[-79,-4],[-75,17],[-40,-39],[-179,40],[-40,-32],[-58,12],[11,61]],[[12701,4410],[-177,-61],[-39,-28],[-31,-58],[5,-126],[-38,-6],[58,-85],[-3,-52],[-36,-17],[-38,-49]],[[12402,3928],[-34,17],[-68,0],[-78,-16],[-115,10],[-6,78],[-18,54],[-88,30],[-99,0],[-68,14]],[[11828,4115],[-10,39],[35,50],[41,12],[55,63],[35,70],[105,157],[44,17]],[[12133,4523],[26,-46],[55,17],[8,-29],[79,-19],[-3,36],[64,44],[98,-24],[8,59],[41,27],[6,36]],[[12515,4624],[75,-35],[76,-68]],[[13553,4337],[28,-46],[-16,-70],[-44,-47],[-16,-43],[-46,-22],[-44,1],[-35,-34],[-55,7],[-71,-12],[-35,-28],[-42,-111],[-21,-125]],[[13156,3807],[-71,-15],[-91,-3],[-32,-24],[-53,-5],[-75,-39],[-60,-2],[-72,26]],[[12702,3745],[-1,10],[-151,95],[-148,78]],[[12651,5222],[57,-61],[5,-116]],[[12713,5045],[-22,3],[-97,-68],[-28,15],[-93,-10],[-10,-25],[-76,-3]],[[10394,4165],[14,79],[-14,42],[-138,-23],[-24,48],[5,53],[67,19],[-60,50],[0,33],[-106,100],[5,30],[168,71],[30,47],[-5,97],[41,41],[62,32],[76,77],[8,29]],[[10523,4990],[187,-81],[55,-13],[47,21],[58,104],[23,23],[-10,68]],[[11270,5351],[48,-36],[63,51]],[[11736,5049],[11,-48]],[[11747,5001],[-44,14],[-54,-37],[-62,-14],[-19,18],[-47,-56],[-9,-96],[-67,31],[-104,-13],[5,-132]],[[11829,5275],[55,31],[72,-2],[45,-30],[48,18],[96,-9],[52,43],[19,51],[68,-17],[65,51]],[[11962,5006],[-59,-19],[-38,18]],[[11795,4036],[33,79]],[[12702,3745],[37,-92],[-17,-41],[2,-133],[-19,-38],[70,-94],[-18,-14]],[[12757,3333],[-110,-17],[-163,54],[-71,55],[-57,25],[-44,-3]],[[12312,3447],[-42,8],[-27,-44],[-38,-2],[-40,29],[-88,18],[-38,-24],[-65,63],[-70,23],[-2,48],[-46,17]],[[12236,4822],[33,-81],[45,-31],[70,-9],[89,-36],[42,-41]],[[12133,4523],[-113,39],[-52,43],[-15,54],[-29,5],[-47,63],[-15,91],[-115,48],[13,71],[-13,64]],[[12312,3447],[-21,-97],[-59,-145],[-23,-120],[-70,-173],[-9,-103],[-72,-182],[-5,-43]],[[13156,3807],[24,-159],[-6,-45],[32,-63],[-2,-93],[-39,-14],[-16,-68],[-104,-4],[-10,-23],[-77,-70],[-45,-20],[-41,84],[-67,-9],[-48,10]],[[12713,5045],[30,-44],[52,14],[120,-80],[55,-21],[-5,-70],[41,-23],[56,-144]],[[1548,1639],[16,48],[51,-1],[28,-51],[52,-14],[-29,-50]],[[1666,1571],[-13,-32],[38,-53],[25,-104],[-107,-36]],[[1609,1346],[14,93],[-1,70],[-14,47],[-37,33],[-23,50]],[[3441,2385],[-239,-85],[0,-281]],[[3202,2019],[-65,13],[-61,33],[-37,-10],[-260,104],[-62,-5],[-111,64],[42,49],[-124,85],[-140,110],[-226,72]],[[2158,2534],[-52,33],[-7,53],[29,33],[-3,49]],[[1666,1571],[48,-5],[7,35],[58,43]],[[1779,1644],[31,0],[15,40],[46,-84],[21,-8],[24,-116],[41,77],[57,-40],[57,47],[36,12],[83,-61],[5,56],[31,59],[32,7],[62,-29],[22,33],[87,50],[101,-30],[55,25],[11,63],[22,41],[-47,34],[28,39],[55,6],[-25,90],[228,5],[-24,-196],[20,-33],[182,-84],[69,-50],[98,-2]],[[3202,1595],[0,-292],[1,-445],[0,-462],[-180,-22],[-67,80],[-41,76],[-25,68],[-35,48],[-3,56],[-41,58],[-185,147],[-41,19],[-82,-5],[-169,-38],[-155,-81],[-171,-172],[12,88],[-24,74],[6,40],[45,78],[54,147],[3,68],[-43,40],[-61,18],[-50,-25],[-51,43],[-79,-17],[-41,89],[-36,41],[-19,48],[-115,-16]],[[3202,2019],[0,-424]],[[1779,1644],[-109,86],[1,59],[-37,8],[-42,61],[-6,60],[-69,36],[25,26],[62,3],[31,-53],[50,53],[5,34],[39,49],[64,15],[-45,79],[-34,-14],[-55,6],[-30,43],[-1,131],[57,-6],[20,-32],[102,-29],[62,21],[8,57],[-28,73],[2,94]],[[1851,2504],[197,14],[110,16]],[[1548,1639],[-24,43],[-10,71],[-41,44],[2,34],[-33,74],[-61,24],[-63,6],[-47,30],[-11,97],[26,54],[142,-19],[57,2],[63,-70],[36,-1],[37,59],[-46,80],[-56,45],[-43,-9],[-2,43],[31,45],[29,3],[42,40],[38,94],[42,57],[45,-7],[81,43],[69,-17]],[[1286,2336],[19,-40],[-32,-48],[-18,71],[31,17]],[[8286,6651],[-7,108],[40,38],[-6,141],[-38,1]],[[8275,6939],[-24,55],[31,62]],[[8282,7056],[44,-45],[49,38],[57,-39],[75,15],[7,57],[106,-6],[32,63],[29,-20],[12,-64],[40,-24],[-14,-101],[33,-22]],[[8752,6908],[-66,-78],[-12,-68],[4,-100],[-42,-27],[47,-30],[-58,-41],[-88,-21]],[[7290,6187],[-105,99],[-33,0],[-25,-47],[-49,3],[-20,34],[42,85],[72,-13],[10,21],[-49,49],[10,74],[-56,6],[-22,84],[-21,12]],[[7044,6594],[40,53],[13,45],[98,8],[70,88],[-19,73]],[[7246,6861],[55,3],[78,-25],[78,-8],[59,-21]],[[7516,6810],[-24,-91]],[[8275,6939],[-94,3],[-10,147],[-158,3],[2,46],[-37,20]],[[7978,7158],[-42,148],[-59,24],[-18,107]],[[7859,7437],[68,34],[50,43],[-125,45],[11,67]],[[7863,7626],[28,-44],[101,-42],[120,65],[83,20],[65,-117],[-5,-100],[46,-88],[54,-22],[-33,-42],[11,-98],[-47,-34],[-4,-68]],[[7246,6861],[-30,70],[-54,23],[25,42],[-29,35],[-15,67]],[[7143,7098],[31,55]],[[7174,7153],[100,2],[31,20],[82,14]],[[7387,7189],[55,12],[101,-78],[32,25]],[[7575,7148],[33,-9],[-19,-65]],[[7589,7074],[-49,-21],[-8,-91],[-40,-28],[75,-34],[-1,-37],[-64,7],[-18,-34],[32,-26]],[[7859,7437],[-68,1],[-29,-142],[-46,-13],[-28,29],[-109,-114],[-4,-50]],[[7387,7189],[-1,38],[66,59],[1,60],[44,62],[48,37],[-6,103],[-83,-5],[-7,26]],[[7449,7569],[40,78],[76,47],[128,-36],[114,-10],[56,-22]],[[7174,7153],[-8,77],[-74,1],[-2,49],[60,-7],[88,25],[-48,109],[-22,6]],[[7168,7413],[38,47],[42,-18],[65,7],[28,55],[-37,61],[145,4]],[[7044,6594],[-59,22],[-52,-21],[-35,13]],[[6898,6608],[7,172],[49,6],[22,147],[-2,58]],[[6974,6991],[-11,27],[23,60],[111,-10],[46,30]],[[7978,7158],[-46,-3],[-6,-81],[32,-42],[-136,-40],[-29,-57],[-31,0],[-2,59],[-65,95],[-43,-39],[-45,-10],[-18,34]],[[6898,6608],[-149,7],[-10,-61],[-59,14]],[[6680,6568],[-2,117],[-56,5],[-15,40],[42,44],[0,83],[-44,-9],[-18,54]],[[6587,6902],[-17,49],[119,45]],[[6689,6996],[22,-53],[38,31],[71,5],[27,-35],[66,-6],[61,53]],[[6589,6127],[4,167],[36,8],[2,107],[-23,26]],[[6608,6435],[9,43],[58,14],[49,-9],[9,34],[-53,51]],[[8752,6908],[27,40],[-12,32],[28,43],[128,-19],[34,-55],[69,-19],[116,46],[40,6],[-20,-100],[-73,11],[-43,-46],[-6,-55],[-28,-58],[52,-23],[17,-44]],[[9081,6667],[45,-76],[-41,1],[0,-96],[69,57],[-14,-98],[24,-50],[-16,-68],[46,1],[20,51],[49,6],[19,-47]],[[9282,6348],[-14,-36],[-78,-74],[65,-25]],[[6689,6996],[-9,52],[-87,38],[64,21],[-38,94],[-15,81]],[[6604,7282],[230,65],[168,31],[8,20],[84,-11],[74,26]],[[10074,5729],[-30,45],[11,40],[72,15],[3,79],[-79,-5],[-13,18],[-79,-47],[-104,18],[-55,96],[-14,51],[9,68]],[[9795,6107],[9,80],[68,-10],[12,20],[262,57]],[[10146,6254],[-9,-14],[78,-101],[-31,-29],[66,-104],[3,-42],[50,-32],[6,-27],[62,-59]],[[10371,5846],[10,-18]],[[10381,5828],[-28,-1],[-52,-66],[-63,-8],[8,-67],[-151,-30]],[[10095,5656],[-21,73]],[[9282,6348],[60,-14],[60,46],[64,7],[42,41],[49,-10],[46,50],[101,-13],[150,52]],[[9854,6507],[51,-18],[65,-52],[26,0],[100,-57],[0,-22]],[[10096,6358],[31,-36],[19,-68]],[[9795,6107],[-35,24],[-56,-17],[-67,0],[-35,55],[-122,38],[-136,-7],[7,-117],[-73,-3]],[[10095,5656],[-28,-17],[30,-82],[30,-21],[7,-101],[-98,-79],[-19,-43],[25,-75],[110,-57],[54,-8]],[[10206,5173],[-22,-82],[3,-51],[-116,-18],[-39,-40],[-44,26],[-166,-46],[-99,3],[-86,-72]],[[9637,4893],[-62,3],[9,65],[68,20],[1,35],[-36,48],[-138,130],[-55,10],[-131,-25]],[[9293,5179],[-49,54],[37,67],[6,90]],[[9287,5390],[208,27],[-11,61],[39,38],[33,-29],[85,-19],[24,81],[63,33],[65,-7],[46,85],[84,-3],[38,-34],[31,28],[51,81],[31,-3]],[[9287,5390],[15,45],[-16,60],[-117,40]],[[9081,6667],[67,59],[62,14],[23,32],[58,-12],[26,-38],[85,-47],[27,62],[-4,53],[57,-9],[15,47],[39,30],[73,-15]],[[9609,6843],[51,-80],[-2,-42],[47,-5],[68,-53],[26,-51]],[[9799,6612],[27,-71],[28,-34]],[[9799,6612],[2,50],[140,55],[22,68],[130,-66],[51,24],[38,63],[42,-17],[71,25]],[[10295,6814],[97,-72]],[[10392,6742],[10,-123],[-46,11],[-87,-39],[15,-50],[-5,-56],[-62,0],[4,-60]],[[10221,6425],[-125,-67]],[[10664,5464],[-53,74],[-29,13],[-75,72],[-32,55],[-37,-2],[-23,91],[-34,61]],[[10371,5846],[60,45],[131,-7],[30,51],[-5,50]],[[10587,5985],[88,-5],[8,-28],[-35,-74],[9,-62],[58,-18],[16,27],[57,-5],[112,39],[34,-3],[64,42]],[[10998,5898],[70,-138]],[[10523,4990],[-39,27],[27,37],[-20,70],[-55,35],[-71,2],[-60,62],[-65,-16],[-34,-34]],[[10221,6425],[84,-76],[13,-63],[101,2],[81,-14]],[[10500,6274],[-3,-79],[28,-114],[62,-96]],[[10500,6274],[104,45],[1,51],[121,-5]],[[10726,6365],[72,-127],[200,-340]],[[10392,6742],[76,-57],[115,-104],[143,-216]],[[9609,6843],[123,83],[33,33],[-29,37],[69,12],[211,88],[2,42],[91,-15],[50,10],[31,38],[57,19],[-24,-115],[-31,-38],[-109,4],[53,-104],[159,-123]],[[9233,4553],[-52,-23],[-9,-34],[-84,-13],[2,39],[-390,-24],[-3,-63],[-79,0]],[[8618,4435],[-83,-3],[-11,43]],[[8524,4475],[10,130],[-31,6],[-10,133],[44,-16],[37,-38],[63,6],[10,34]],[[8647,4730],[60,52],[52,-39],[144,-5],[47,-72],[-2,-33],[100,44],[42,-78],[18,42],[74,25],[1,-73],[50,-40]],[[9328,2794],[-162,2]],[[9166,2796],[5,69],[-15,221],[-20,92],[-22,145],[-16,63],[-67,70],[91,-10],[83,32],[35,-44],[53,-17],[53,73],[85,-12],[60,8],[2,96],[-27,87],[-39,63],[-7,160],[26,82],[-39,107],[-43,6],[-34,79],[73,38],[21,80]],[[9424,4284],[26,-41],[52,-8],[25,71],[99,-25],[42,11],[31,-31],[3,-51],[63,29],[57,-18],[25,-28],[88,-15],[19,-38],[76,35],[46,-10],[23,-41],[92,-7],[39,-34],[41,8]],[[9637,4893],[-2,-30],[-162,-63],[26,-61],[-63,-19],[-60,66],[-59,-9],[0,-139],[-53,-47],[-1,-22]],[[9263,4569],[-30,-16]],[[8647,4730],[-22,16],[12,86]],[[8637,4832],[78,22],[34,27],[-21,44],[63,38],[19,29],[65,20],[72,0],[22,17],[71,-36],[67,9],[-28,-65],[32,-33],[20,121],[32,25],[14,88],[119,14],[-3,27]],[[9424,4284],[29,40],[-89,153],[-27,-13],[-26,63],[-48,42]],[[8531,5095],[-16,-73],[45,-3],[10,-89],[27,-31],[-2,-59],[42,-8]],[[8524,4475],[-218,-39],[-4,22],[-60,20],[-13,60],[-64,11],[6,-165],[-52,-117],[-203,-28],[-12,-47],[-119,-48],[-102,92]],[[7683,4236],[-85,-2],[-53,37],[-142,140],[-117,-17],[-30,28],[15,34],[-8,103],[-61,76],[-11,62],[-48,44],[-44,75]],[[7099,4816],[75,96],[-6,79],[57,7],[62,26],[53,66],[-63,57]],[[9166,2796],[-396,5],[-323,-13]],[[8447,2788],[-60,5]],[[8387,2793],[-13,49],[-11,245],[0,319],[41,235],[112,-48],[31,3],[18,70],[60,56],[-6,92],[8,91],[-38,55],[0,41],[69,68],[-6,117],[22,133],[-43,16],[-13,100]],[[5887,3929],[96,89],[-19,62],[126,28],[-26,34],[-1,51]],[[6063,4193],[72,-3],[17,133],[260,-44],[88,24],[22,56],[105,4],[102,113],[51,6],[22,77],[44,-4],[18,44],[52,47]],[[6916,4646],[71,42],[112,128]],[[7683,4236],[6,-60],[80,-94],[130,-184],[27,-22],[-29,-54],[-167,-50],[-48,0],[-35,-42],[-44,-95],[21,-36],[38,-132],[-50,-45],[-78,-95],[-75,-131],[164,-412]],[[7623,2784],[-622,11]],[[7001,2795],[-22,56],[-134,-8],[-440,127],[-63,37],[-61,74],[-70,6]],[[6211,3087],[-170,97],[-34,1],[-170,70]],[[5837,3255],[-47,-6],[-100,59],[-45,-3],[-51,35]],[[5594,3340],[-40,40],[-140,-27]],[[5414,3353],[93,76]],[[8387,2793],[-270,-7],[-478,-1]],[[7639,2785],[-16,-1]],[[6284,6514],[-64,-153],[36,-59],[-13,-30],[-70,-53]],[[6173,6219],[-103,57],[-9,34],[-64,1],[-35,44]],[[5962,6355],[-12,50],[-59,25],[5,63],[61,83],[-12,36],[77,-1],[-5,80]],[[6017,6691],[24,19],[79,-32],[51,46]],[[6171,6724],[34,-54],[56,-11],[23,-145]],[[6776,5214],[-19,-7],[33,-120],[-85,-13],[-43,-48],[-126,-13],[-32,-53],[22,-19],[-23,-71],[31,-115],[116,54],[77,2],[2,-91],[14,-49],[106,10],[15,27],[46,-2],[6,-60]],[[6063,4193],[-75,132],[299,206],[-61,79],[-44,195],[-64,99],[-30,-1],[-62,75],[35,58],[26,9],[-42,73],[3,41]],[[6048,5159],[67,71],[41,-4],[49,97],[15,97],[106,54],[58,-5],[24,21]],[[6173,6219],[79,-50],[-105,-34],[-4,-131],[32,-28],[10,-71]],[[6185,5905],[-37,-46],[-68,-1],[-10,64],[-53,-34],[-70,2],[2,-113],[-64,-7],[-34,17],[-127,7],[4,-24],[-149,10]],[[5579,5780],[-84,6],[28,50],[4,95]],[[5527,5931],[142,-12],[-4,129],[12,45],[-20,49],[22,42],[52,9],[27,76]],[[5758,6269],[52,17],[15,48],[88,-18],[49,39]],[[5216,6413],[-2,-95],[61,-36],[65,-79],[-2,-57],[73,-20],[-4,-66],[-36,-2]],[[5371,6058],[-128,-8],[-74,-39],[-50,19]],[[5119,6030],[-61,-14],[27,63],[-96,99],[-109,-5]],[[4880,6173],[-46,19],[-1,48],[-42,18],[1,45],[36,11],[84,77],[-17,35],[72,27],[45,-23],[30,25],[61,-38],[85,25],[28,-29]],[[5361,5316],[223,9]],[[5584,5325],[32,-19],[108,-11],[160,58],[100,18],[58,-73],[-61,-48],[-12,-35],[79,-56]],[[5271,6467],[78,82],[36,95],[-24,46],[-4,76],[-32,29],[-60,0],[77,76],[55,35]],[[5397,6906],[27,40],[86,66],[71,-6],[36,47],[82,1],[58,14]],[[5757,7068],[38,-53],[-29,-18],[2,-59],[-30,-29],[8,-50]],[[5746,6859],[-25,-75],[-60,0],[6,-71],[-50,-29],[-31,28],[-58,-48],[-62,-29],[19,-36],[77,16],[-19,-50],[-51,-49],[-73,-8],[2,-45]],[[5421,6463],[-39,-11],[-40,-48],[-61,15],[-11,26]],[[5270,6445],[1,22]],[[5113,5539],[-53,74]],[[5060,5613],[-10,94],[47,36],[-18,124],[14,50],[40,26],[-14,87]],[[5371,6058],[8,-74],[36,-1],[-5,-55],[117,3]],[[5579,5780],[-3,-100],[23,-3],[-15,-352]],[[5271,6467],[-10,30],[-105,23],[-44,47],[-69,-15],[-23,23],[-72,15],[-7,49],[47,60],[61,-24],[35,23],[-10,36],[-129,-4],[-86,25],[65,52],[36,51],[-64,71],[84,17],[18,49],[44,2],[41,-46],[52,18],[72,-43],[18,42],[135,11],[4,-27],[33,-46]],[[6398,5543],[-63,-17],[-92,60],[23,47],[3,105],[-25,37],[7,69],[-45,1],[-21,60]],[[6284,6514],[46,-1],[3,-42],[86,4],[42,-23],[147,-17]],[[6017,6691],[-70,4],[-32,47],[-48,-2],[-36,116],[-85,3]],[[5757,7068],[100,33],[51,-2],[129,24],[73,35]],[[6110,7158],[-4,-41],[100,-8],[14,-100],[-15,-50],[-62,1],[78,-186],[27,-29]],[[6248,6745],[-77,-21]],[[5758,6269],[-19,35],[-80,-2],[-46,60],[-7,54],[-43,43],[-66,-9],[-76,13]],[[6248,6745],[55,34],[54,-27],[37,8],[19,77],[44,-11],[22,67],[108,9]],[[5216,6413],[54,32]],[[6110,7158],[60,-15],[57,28],[48,-43],[40,16],[-13,81],[101,65],[81,-25],[31,45],[46,2],[43,-30]],[[5060,5613],[-76,2],[-36,24],[-60,4],[-33,77],[-103,1],[-70,44],[44,42],[-115,63],[-41,41],[89,29],[61,60],[73,7],[25,32],[57,22],[36,33],[-31,79]],[[5414,3353],[-56,-70],[-20,-59],[-41,-60],[-46,-163],[9,-46],[-35,-66],[-31,-86],[-45,-68],[-49,-27],[-27,17],[-68,8],[4,-59],[-28,-38],[-5,-110],[33,-58],[37,-26],[-1,-86],[-277,-375]],[[4768,1981],[-181,172],[-107,107],[-113,99],[-135,105]],[[5837,3255],[-8,-77],[59,-169],[59,-58],[78,-151],[-10,-126],[38,-209],[-16,-52],[-48,-75],[8,-18],[-79,-90],[-90,-14],[-60,33],[-20,-19],[-15,-116],[-3,-117],[-25,-111],[-15,-145],[-2,-127]],[[5688,1614],[-455,-96],[-35,37]],[[5198,1555],[75,43],[46,80],[42,50],[23,133],[54,177],[21,37],[50,136],[-5,55],[9,191],[14,7],[64,100],[-52,75],[6,114],[26,31],[19,79],[48,117],[-27,97],[-3,127],[-14,136]],[[5198,1555],[-218,299],[-81,0],[-131,127]],[[6489,2113],[-67,23],[-5,-35],[-59,19],[-29,110],[19,34],[-48,49],[8,50],[-34,51],[33,58],[104,-16],[-55,-74],[13,-46],[50,-8],[13,-24],[63,-26],[-29,-67],[68,14]],[[6534,2225],[-9,-113],[-36,1]],[[6534,2225],[48,72],[-12,14],[85,86],[51,-53],[57,2],[103,266],[122,-4],[31,-28]],[[7019,2580],[-25,-139],[65,-58],[53,-25],[2,-362],[-7,-11]],[[7107,1985],[-64,-5],[-19,-42],[-47,-4],[-55,-54],[-62,-114],[-17,-62],[-11,-224],[-129,-54],[11,-22],[30,-205],[-138,-127]],[[6606,1072],[-1,174],[-92,-48],[-59,225],[-121,125],[-41,102],[-31,18]],[[6261,1668],[90,114],[42,78],[73,73],[34,-3],[30,32],[13,71],[-7,37],[-47,43]],[[7001,2795],[-5,-43],[53,-44],[11,-35],[-41,-93]],[[6261,1668],[-121,-56]],[[6140,1612],[-17,310],[23,96],[-3,118],[-20,59],[32,78],[28,28],[-5,59],[-24,27],[2,78],[24,244],[7,19],[9,168],[-11,122],[26,69]],[[6140,1612],[-70,-36],[-202,15],[-180,23]],[[7107,1985],[-3,-32],[56,-31],[78,-94],[93,-73]],[[7331,1755],[-75,-44],[17,-40],[-4,-56],[-47,25],[0,-82],[-32,-36],[-5,-91],[27,-61],[-11,-34]],[[7201,1336],[-111,-63],[-90,-37],[-85,-72],[-95,-109],[-47,34],[-137,-161],[-29,8]],[[6607,936],[-1,136]],[[6854,750],[-3,53],[299,96],[189,7],[7,79],[121,15],[70,20],[50,86]],[[7587,1106],[38,-6],[27,28]],[[7652,1128],[2,-20]],[[7654,1108],[-79,-85],[15,-52],[-6,-77],[17,-44],[39,7]],[[7640,857],[-22,-11],[-24,-106],[-48,-27]],[[7546,713],[-3,81],[-141,-39],[-85,-1]],[[7317,754],[-48,29],[-61,-26],[-354,-7]],[[7652,1128],[-47,53],[11,54],[-53,50]],[[7563,1285],[-33,49],[65,117],[-7,46],[38,54]],[[7626,1551],[102,-91],[31,19]],[[7759,1479],[41,-81],[45,-6],[68,-33]],[[7913,1359],[52,-22],[44,-107],[-2,-19]],[[8007,1211],[-3,-83]],[[8004,1128],[-46,32],[-66,-78],[-49,-23]],[[7843,1059],[-27,17],[-44,-21]],[[7772,1055],[-2,38],[-50,22],[-66,-7]],[[7317,754],[-34,-96]],[[7283,658],[-17,-64],[0,-58],[17,-59],[2,-92],[80,-85],[64,-10],[18,-50]],[[7447,240],[-19,-7]],[[7428,233],[-109,12],[-54,41]],[[7265,286],[-53,-9],[-56,60],[-143,4],[-238,21],[-25,333]],[[6750,695],[50,-2],[13,-21],[50,-6],[-9,84]],[[7640,857],[24,-6]],[[7664,851],[34,-29],[46,30],[8,-85],[34,36]],[[7786,803],[25,-33],[57,15],[44,-79],[84,109],[47,-31]],[[8043,784],[-13,-48],[-31,-18],[-27,-50],[-59,-32],[-11,-33],[-36,1],[-75,-32],[-34,-49],[-31,-18]],[[7726,505],[-29,45],[-9,99],[21,25],[-36,41],[-121,-20],[-6,18]],[[7428,233],[-8,-115],[55,-95],[-54,-23],[-36,12],[-107,94],[-71,52],[35,21],[1,86],[22,21]],[[7587,1106],[-54,40],[2,88]],[[7535,1234],[28,51]],[[7772,1055],[-32,-53],[19,-33]],[[7759,969],[-33,-66]],[[7726,903],[-62,-52]],[[7201,1336],[-1,-41],[66,-29],[36,17],[4,42],[48,-5],[13,-50],[55,0],[48,-23],[33,17],[32,-30]],[[6750,695],[-176,25],[2,156],[7,64],[24,-4]],[[7546,713],[-88,-82],[-64,-4],[-35,37],[-76,-6]],[[7726,505],[-2,-38],[-64,4],[-67,-62],[-15,-46],[-43,-54],[-39,-84],[-34,-26],[-15,41]],[[7843,1059],[31,-5],[31,-52],[41,-32]],[[7946,970],[-8,-81],[-113,-3]],[[7825,886],[-2,49],[-24,45],[-40,-11]],[[7726,903],[99,-17]],[[7825,886],[-15,-65],[-24,-18]],[[7639,2785],[61,-108],[30,-106],[47,-128],[41,-196],[19,-30],[26,-156],[31,-227],[-42,-94],[-6,-60],[-42,-118],[-45,-83]],[[7626,1551],[-67,42],[-10,48],[-47,26],[-53,0],[-6,24],[-54,21],[-42,-5],[-16,48]],[[7946,970],[74,-55],[86,33],[77,9]],[[8183,957],[34,-33]],[[8217,924],[7,-58],[-36,-9],[-36,-43],[-22,-65],[-66,67],[-21,-32]],[[8004,1128],[60,-23],[51,-75],[68,-73]],[[1543,4175],[-41,34],[72,19],[10,74],[-29,-2],[17,102],[40,32],[-11,45],[22,57],[-56,12],[-24,47],[-37,15],[6,116],[-101,71]],[[1411,4797],[-26,38],[-122,28],[-93,30],[15,102],[-14,28]],[[1171,5023],[-12,67],[47,40],[68,-9],[64,123],[-9,50],[71,4]],[[1400,5298],[17,-59],[76,-24],[75,-8]],[[1568,5207],[6,-75],[-23,-112],[85,-77],[11,-67],[65,19],[34,54],[8,48],[95,36]],[[1849,5033],[29,-45],[42,-16],[22,-124],[-28,-55],[37,-62],[56,-52],[47,-24],[40,10]],[[2094,4665],[11,-27],[-40,-50],[4,-35],[48,-96],[-1,-49],[77,-22],[150,5]],[[2027,5368],[21,142],[-10,44],[-49,15],[17,47]],[[2006,5616],[34,43]],[[2040,5659],[86,5],[52,-18],[64,28],[78,-6],[44,-40]],[[2364,5628],[-34,-161],[71,-79],[-28,-51],[-62,-37],[-11,-44]],[[2300,5256],[-70,36],[-74,-55],[-10,71],[-119,60]],[[2689,4929],[-41,-32],[-74,-2],[-50,32],[13,74],[-82,36],[-65,-8]],[[2390,5029],[-19,45],[56,29],[-24,99],[-52,-22],[-62,6],[11,70]],[[2364,5628],[38,-36],[-3,-38],[46,-46],[52,-4],[76,-40],[12,-51],[50,-73],[43,-4],[10,-43],[-16,-85],[47,-38]],[[830,3878],[51,277],[29,217],[-18,73]],[[892,4445],[59,58],[8,-36],[45,-30],[44,7],[28,-53],[37,10],[8,129],[77,48],[-7,28],[-61,87],[72,40],[47,-21],[55,12],[101,41],[6,32]],[[493,4987],[-35,-45],[-70,-42],[-61,-59],[16,-34],[79,-30],[36,-49],[12,-89],[-8,-60],[64,-92]],[[526,4487],[-33,-30],[-5,-44],[-103,37],[-24,20],[-53,-6],[-46,-56],[-79,18]],[[183,4426],[-5,50],[-80,64],[12,116],[14,27],[11,119],[73,33],[39,33],[38,72],[-26,48],[20,69],[78,68],[89,-68],[47,-70]],[[2094,4665],[60,13],[18,86],[107,48],[45,53],[32,71],[-34,27],[68,66]],[[892,4445],[-60,33],[0,24],[-141,4],[-64,-78],[-49,15],[-52,44]],[[493,4987],[47,-54],[41,-94],[73,-37],[102,46],[48,49],[-39,41],[6,41],[-22,39],[-27,148],[22,42],[42,-12],[48,44]],[[834,5240],[70,-74],[128,-23],[-29,-63],[-2,-47],[87,-21],[83,11]],[[1849,5033],[-50,35],[58,76],[-54,61],[48,35],[-31,40],[-16,58],[10,47],[101,-11],[26,-48],[58,-5],[28,47]],[[834,5240],[42,51],[107,38],[-29,68],[32,72],[107,-7],[73,65],[94,29]],[[1260,5556],[65,-26],[12,-40],[48,-5],[-2,-38],[86,-6],[-9,-73],[-53,-6],[-7,-64]],[[1568,5207],[25,66],[-27,52],[59,96],[24,20],[50,105],[122,30],[9,36],[70,2],[61,24],[45,-22]],[[177,3982],[-37,45],[-46,8],[-94,45],[97,257],[53,33],[33,56]],[[1260,5556],[46,22],[31,52],[18,83],[68,14],[9,71],[49,-44],[58,-6],[69,11],[31,-19],[24,-88],[53,27],[21,-34],[49,32],[-11,37],[32,42],[96,-8],[72,47],[9,-53],[56,-83]],[[8432,1505],[80,-45],[59,106],[-2,80]],[[8569,1646],[10,18],[-1,111]],[[8578,1775],[55,4],[63,-34]],[[8696,1745],[-27,-67],[12,-62],[-29,-33],[5,-116],[-91,-101],[21,-31],[-42,-91]],[[8545,1244],[-47,-4],[-5,-42],[-53,16],[-53,-46],[-24,27],[33,34],[-27,72],[6,38],[-45,33],[0,62],[-22,33]],[[8308,1467],[22,34],[102,4]],[[9872,1222],[-28,-61],[-101,14],[-32,17],[-55,-4],[-106,80],[-35,-5],[-58,71],[-51,19],[-41,36],[-32,-2]],[[9333,1387],[-30,40],[84,75],[78,34],[37,35],[-21,29],[18,36],[35,-23],[26,24],[-38,80],[3,57],[27,110],[47,49]],[[8696,1745],[24,23]],[[8720,1768],[23,-130],[6,-77],[83,28],[4,-49],[40,-80],[35,-16],[84,-108],[6,-71],[-51,-61],[-20,-99],[3,-79]],[[8933,1026],[-65,12],[-25,41],[-83,24],[-73,38],[-65,-7],[-92,44]],[[8530,1178],[15,66]],[[8720,1768],[36,0],[21,-49],[63,-30],[41,6]],[[8881,1695],[20,-86],[71,22],[25,-10],[17,-66],[37,-36],[22,-59],[51,-34],[-2,-33],[32,-59],[80,-1]],[[9234,1333],[-113,-49],[-24,-66],[2,-64],[-26,-74],[4,-67],[24,-49],[-55,6],[-17,41],[-96,15]],[[9459,2010],[-55,-14],[-12,24],[-79,9],[-2,44],[-74,19],[-10,-55],[57,-67],[38,-1],[26,-109],[-21,-36],[-61,-33],[-16,-54],[-92,-32],[-55,33],[-30,63],[-49,-46],[-27,-75],[-78,-14],[-38,29]],[[8578,1775],[-45,-27],[-66,-2]],[[8467,1746],[14,128],[-32,4],[-103,66],[-87,10],[-44,29],[-26,-6]],[[8189,1977],[73,219],[38,45],[115,-11],[21,119],[-9,84],[27,140],[-4,91],[-12,23],[9,101]],[[8189,1977],[-38,30],[-67,-23],[30,-115],[-40,-90],[40,-62],[-39,-43],[40,-63],[-9,-82],[-43,-6],[1,-43],[-74,25],[-53,-59],[-24,-87]],[[9333,1387],[-50,-39],[-49,-15]],[[8467,1746],[-11,-150]],[[8456,1596],[-24,-91]],[[8308,1467],[-19,-34],[-53,19],[-42,-19],[-22,-55],[25,-48]],[[8197,1330],[-25,-7],[-25,-68],[-49,8],[-64,-51],[-27,-1]],[[8456,1596],[39,23],[13,33],[41,18],[20,-24]],[[8530,1178],[-60,-32],[-35,17],[-89,-14],[-13,-40]],[[8333,1109],[-68,16],[-68,35],[31,41],[62,42],[-31,31],[-70,30],[8,26]],[[8333,1109],[-18,-49],[-49,-3],[22,-49],[-46,-18],[-25,-66]]],"transform":{"scale":[0.0029687857887961693,0.0019339925132852685],"translate":[46.49185562133789,40.551673889160156]},"objects":{"KAZ":{"type":"GeometryCollection","geometries":[{"arcs":[[0,1,2,3,4]],"type":"Polygon","properties":{"name":"Aksuskiy","shapeGroup":"KAZ","gid":"KAZ-2-0"},"id":"KAZ-2-0"},{"arcs":[[-3,5,6,7,8,9,10]],"type":"Polygon","properties":{"name":"Alakolskiy","shapeGroup":"KAZ","gid":"KAZ-2-1"},"id":"KAZ-2-1"},{"arcs":[[11,12,13]],"type":"Polygon","properties":{"name":"Almaty (Alma-Ata)","shapeGroup":"KAZ","gid":"KAZ-2-2"},"id":"KAZ-2-2"},{"arcs":[[14,15,16,17,18,19,20,21]],"type":"Polygon","properties":{"name":"Balkhashskiy","shapeGroup":"KAZ","gid":"KAZ-2-3"},"id":"KAZ-2-3"},{"arcs":[[22,23,24,25]],"type":"Polygon","properties":{"name":"Enbekshikazakhskiy","shapeGroup":"KAZ","gid":"KAZ-2-4"},"id":"KAZ-2-4"},{"arcs":[[-13,26,27,-17,28]],"type":"Polygon","properties":{"name":"Iliyskiy","shapeGroup":"KAZ","gid":"KAZ-2-5"},"id":"KAZ-2-5"},{"arcs":[[-12,29,30,31,32,-27]],"type":"Polygon","properties":{"name":"Karasayskiy","shapeGroup":"KAZ","gid":"KAZ-2-6"},"id":"KAZ-2-6"},{"arcs":[[-2,33,34,-21,35,-6]],"type":"Polygon","properties":{"name":"Karatal`skiy","shapeGroup":"KAZ","gid":"KAZ-2-7"},"id":"KAZ-2-7"},{"arcs":[[-15,36,37,38,39,-25,40]],"type":"Polygon","properties":{"name":"Kerbulakskiy","shapeGroup":"KAZ","gid":"KAZ-2-8"},"id":"KAZ-2-8"},{"arcs":[[-22,-35,41,-37]],"type":"Polygon","properties":{"name":"Koksuskiy","shapeGroup":"KAZ","gid":"KAZ-2-9"},"id":"KAZ-2-9"},{"arcs":[[-40,42,43]],"type":"Polygon","properties":{"name":"Panfilovskiy","shapeGroup":"KAZ","gid":"KAZ-2-10"},"id":"KAZ-2-10"},{"arcs":[[-23,44,45,-31,46]],"type":"Polygon","properties":{"name":"Raiymbekskiy","shapeGroup":"KAZ","gid":"KAZ-2-11"},"id":"KAZ-2-11"},{"arcs":[[-4,-11,47]],"type":"Polygon","properties":{"name":"Sarkandskiy","shapeGroup":"KAZ","gid":"KAZ-2-12"},"id":"KAZ-2-12"},{"arcs":[[-1,48,-38,-42,-34]],"type":"Polygon","properties":{"name":"Taldyqorghan","shapeGroup":"KAZ","gid":"KAZ-2-13"},"id":"KAZ-2-13"},{"arcs":[[-14,-29,-16,-41,-24,-47,-30]],"type":"Polygon","properties":{"name":"Talgarskiy","shapeGroup":"KAZ","gid":"KAZ-2-14"},"id":"KAZ-2-14"},{"arcs":[[-26,-44,49,-45]],"type":"Polygon","properties":{"name":"Uygurskiy","shapeGroup":"KAZ","gid":"KAZ-2-15"},"id":"KAZ-2-15"},{"arcs":[[-18,-28,-33,50,51,52,53]],"type":"Polygon","properties":{"name":"Zhambylskiy","shapeGroup":"KAZ","gid":"KAZ-2-16"},"id":"KAZ-2-16"},{"arcs":[[54,55,56,57,58]],"type":"Polygon","properties":{"name":"Akkol`skiy","shapeGroup":"KAZ","gid":"KAZ-2-17"},"id":"KAZ-2-17"},{"arcs":[[59,60,61,62]],"type":"Polygon","properties":{"name":"Arshalynskiy","shapeGroup":"KAZ","gid":"KAZ-2-18"},"id":"KAZ-2-18"},{"arcs":[[-57,63,64,65,66,67,68]],"type":"Polygon","properties":{"name":"Astrakhansiy","shapeGroup":"KAZ","gid":"KAZ-2-19"},"id":"KAZ-2-19"},{"arcs":[[-68,69,70,71,72,73,74]],"type":"Polygon","properties":{"name":"Atbasarskiy","shapeGroup":"KAZ","gid":"KAZ-2-20"},"id":"KAZ-2-20"},{"arcs":[[-58,-69,-75,75,76,77]],"type":"Polygon","properties":{"name":"Bulandynskiy","shapeGroup":"KAZ","gid":"KAZ-2-21"},"id":"KAZ-2-21"},{"arcs":[[-67,78,79,-70]],"type":"Polygon","properties":{"name":"Egindykol`skiy","shapeGroup":"KAZ","gid":"KAZ-2-22"},"id":"KAZ-2-22"},{"arcs":[[-59,-78,80,81,82,83,84]],"type":"Polygon","properties":{"name":"Enbekshil`derskiy","shapeGroup":"KAZ","gid":"KAZ-2-23"},"id":"KAZ-2-23"},{"arcs":[[-55,-85,85,86,87,88,-62,89,90]],"type":"Polygon","properties":{"name":"Ereymengauskiy","shapeGroup":"KAZ","gid":"KAZ-2-24"},"id":"KAZ-2-24"},{"arcs":[[91,92,93,94]],"type":"Polygon","properties":{"name":"Esil`skiy","shapeGroup":"KAZ","gid":"KAZ-2-25"},"id":"KAZ-2-25"},{"arcs":[[-66,95,96,-79]],"type":"Polygon","properties":{"name":"Korgalzhynskiy","shapeGroup":"KAZ","gid":"KAZ-2-26"},"id":"KAZ-2-26"},{"arcs":[[-74,97,98,99,100,101,-76]],"type":"Polygon","properties":{"name":"Sandyktauskiy","shapeGroup":"KAZ","gid":"KAZ-2-27"},"id":"KAZ-2-27"},{"arcs":[[-56,-91,102,-64]],"type":"Polygon","properties":{"name":"Shortandinskiy","shapeGroup":"KAZ","gid":"KAZ-2-28"},"id":"KAZ-2-28"},{"arcs":[[-77,-102,103,104,-81]],"type":"Polygon","properties":{"name":"Shuchinskiy","shapeGroup":"KAZ","gid":"KAZ-2-29"},"id":"KAZ-2-29"},{"arcs":[[-61,105,-96,-65,-103,-90]],"type":"Polygon","properties":{"name":"Tselinogradskiy","shapeGroup":"KAZ","gid":"KAZ-2-30"},"id":"KAZ-2-30"},{"arcs":[[-101,106,107,-104]],"type":"Polygon","properties":{"name":"Zerendinskiy","shapeGroup":"KAZ","gid":"KAZ-2-31"},"id":"KAZ-2-31"},{"arcs":[[-73,108,-94,109,-98]],"type":"Polygon","properties":{"name":"Zhaksynskiy","shapeGroup":"KAZ","gid":"KAZ-2-32"},"id":"KAZ-2-32"},{"arcs":[[-72,110,111,112,113,114,-95,-109]],"type":"Polygon","properties":{"name":"Zharkainskiy","shapeGroup":"KAZ","gid":"KAZ-2-33"},"id":"KAZ-2-33"},{"arcs":[[115,116,117,118,119,120]],"type":"Polygon","properties":{"name":"Alginskiy","shapeGroup":"KAZ","gid":"KAZ-2-34"},"id":"KAZ-2-34"},{"arcs":[[-118,121,122,123]],"type":"Polygon","properties":{"name":"Aqtobe","shapeGroup":"KAZ","gid":"KAZ-2-35"},"id":"KAZ-2-35"},{"arcs":[[124,125,126,127,128,129,130]],"type":"Polygon","properties":{"name":"Aytekebiyskiy","shapeGroup":"KAZ","gid":"KAZ-2-36"},"id":"KAZ-2-36"},{"arcs":[[131,132,133,134,135,136,137,138]],"type":"Polygon","properties":{"name":"Bayganinskiy","shapeGroup":"KAZ","gid":"KAZ-2-37"},"id":"KAZ-2-37"},{"arcs":[[-130,139,140,141,142]],"type":"Polygon","properties":{"name":"Irgizskiy","shapeGroup":"KAZ","gid":"KAZ-2-38"},"id":"KAZ-2-38"},{"arcs":[[-123,143,144,145]],"type":"Polygon","properties":{"name":"Kargalinskiy","shapeGroup":"KAZ","gid":"KAZ-2-39"},"id":"KAZ-2-39"},{"arcs":[[-116,146,147,148,149,150,151]],"type":"Polygon","properties":{"name":"Khobdinskiy","shapeGroup":"KAZ","gid":"KAZ-2-40"},"id":"KAZ-2-40"},{"arcs":[[-119,-124,-146,152,-126,153]],"type":"Polygon","properties":{"name":"Khromtauskiy","shapeGroup":"KAZ","gid":"KAZ-2-41"},"id":"KAZ-2-41"},{"arcs":[[-117,-152,154,-144,-122]],"type":"Polygon","properties":{"name":"Martukskiy","shapeGroup":"KAZ","gid":"KAZ-2-42"},"id":"KAZ-2-42"},{"arcs":[[-120,-154,-125,155,-139,156]],"type":"Polygon","properties":{"name":"Mugalzharskiy","shapeGroup":"KAZ","gid":"KAZ-2-43"},"id":"KAZ-2-43"},{"arcs":[[-131,-143,157,158,-132,-156]],"type":"Polygon","properties":{"name":"Shalkarskiy","shapeGroup":"KAZ","gid":"KAZ-2-44"},"id":"KAZ-2-44"},{"arcs":[[-121,-157,-138,159,-147]],"type":"Polygon","properties":{"name":"Temirskiy","shapeGroup":"KAZ","gid":"KAZ-2-45"},"id":"KAZ-2-45"},{"arcs":[[-137,160,161,-148,-160]],"type":"Polygon","properties":{"name":"Uilskiy","shapeGroup":"KAZ","gid":"KAZ-2-46"},"id":"KAZ-2-46"},{"arcs":[[162,163,164,165,166]],"type":"Polygon","properties":{"name":"Atyrau","shapeGroup":"KAZ","gid":"KAZ-2-47"},"id":"KAZ-2-47"},{"arcs":[[167,168,169,170,171]],"type":"Polygon","properties":{"name":"Inderskiy","shapeGroup":"KAZ","gid":"KAZ-2-48"},"id":"KAZ-2-48"},{"arcs":[[-168,172,173,174,175]],"type":"Polygon","properties":{"name":"Isatayskiy","shapeGroup":"KAZ","gid":"KAZ-2-49"},"id":"KAZ-2-49"},{"arcs":[[-175,176,177,178]],"type":"Polygon","properties":{"name":"Kurmangazinskiy","shapeGroup":"KAZ","gid":"KAZ-2-50"},"id":"KAZ-2-50"},{"arcs":[[-136,179,180,-164,181,-171,182,183,-161]],"type":"Polygon","properties":{"name":"Kzylkoginskiy","shapeGroup":"KAZ","gid":"KAZ-2-51"},"id":"KAZ-2-51"},{"arcs":[[-165,-181,184]],"type":"Polygon","properties":{"name":"Makatskiy","shapeGroup":"KAZ","gid":"KAZ-2-52"},"id":"KAZ-2-52"},{"arcs":[[-163,185,-173,-172,-182]],"type":"Polygon","properties":{"name":"Makhambetskiy","shapeGroup":"KAZ","gid":"KAZ-2-53"},"id":"KAZ-2-53"},{"arcs":[[-135,186,187,-166,-185,-180]],"type":"Polygon","properties":{"name":"Zhylyoyskiy","shapeGroup":"KAZ","gid":"KAZ-2-54"},"id":"KAZ-2-54"},{"arcs":[[188,189,190]],"type":"Polygon","properties":{"name":"Abayskiy","shapeGroup":"KAZ","gid":"KAZ-2-55"},"id":"KAZ-2-55"},{"arcs":[[-8,191,192,193,-189,194,195,196]],"type":"Polygon","properties":{"name":"Ayagozskiy","shapeGroup":"KAZ","gid":"KAZ-2-56"},"id":"KAZ-2-56"},{"arcs":[[197,198,199,200]],"type":"Polygon","properties":{"name":"Beskaragayskiy","shapeGroup":"KAZ","gid":"KAZ-2-57"},"id":"KAZ-2-57"},{"arcs":[[201,202,203,204]],"type":"Polygon","properties":{"name":"Borodulikhinskiy","shapeGroup":"KAZ","gid":"KAZ-2-58"},"id":"KAZ-2-58"},{"arcs":[[205,206,207,208,209]],"type":"Polygon","properties":{"name":"Glubokovskiy","shapeGroup":"KAZ","gid":"KAZ-2-59"},"id":"KAZ-2-59"},{"arcs":[[210,211,212,213]],"type":"Polygon","properties":{"name":"Katon-Karagayskiy","shapeGroup":"KAZ","gid":"KAZ-2-60"},"id":"KAZ-2-60"},{"arcs":[[-211,214,215,216,217,218]],"type":"Polygon","properties":{"name":"Kokpektinskiy","shapeGroup":"KAZ","gid":"KAZ-2-61"},"id":"KAZ-2-61"},{"arcs":[[-214,219,220,221,-215]],"type":"Polygon","properties":{"name":"Kurchumskiy","shapeGroup":"KAZ","gid":"KAZ-2-62"},"id":"KAZ-2-62"},{"arcs":[[-210,222,223]],"type":"Polygon","properties":{"name":"Leninogorsk","shapeGroup":"KAZ","gid":"KAZ-2-63"},"id":"KAZ-2-63"},{"arcs":[[-190,-194,224,225,-201,226,-202,227,228]],"type":"Polygon","properties":{"name":"Semipalatinskiy","shapeGroup":"KAZ","gid":"KAZ-2-64"},"id":"KAZ-2-64"},{"arcs":[[-204,229,-208,230]],"type":"Polygon","properties":{"name":"Shemonaikhinskiy","shapeGroup":"KAZ","gid":"KAZ-2-65"},"id":"KAZ-2-65"},{"arcs":[[-196,231,-216,-222,232,233,234]],"type":"Polygon","properties":{"name":"Tarbagatayskiy","shapeGroup":"KAZ","gid":"KAZ-2-66"},"id":"KAZ-2-66"},{"arcs":[[-205,-231,-207,235,-218,236,-228]],"type":"Polygon","properties":{"name":"Ulanskiy","shapeGroup":"KAZ","gid":"KAZ-2-67"},"id":"KAZ-2-67"},{"arcs":[[-9,-197,-235,237]],"type":"Polygon","properties":{"name":"Urdzharskiy","shapeGroup":"KAZ","gid":"KAZ-2-68"},"id":"KAZ-2-68"},{"arcs":[[-221,238,-233]],"type":"Polygon","properties":{"name":"Zaysanskiy","shapeGroup":"KAZ","gid":"KAZ-2-69"},"id":"KAZ-2-69"},{"arcs":[[-191,-229,-237,-217,-232,-195]],"type":"Polygon","properties":{"name":"Zharminskiy","shapeGroup":"KAZ","gid":"KAZ-2-70"},"id":"KAZ-2-70"},{"arcs":[[-206,-224,239,-212,-219,-236]],"type":"Polygon","properties":{"name":"Zyryanovsk","shapeGroup":"KAZ","gid":"KAZ-2-71"},"id":"KAZ-2-71"},{"arcs":[[240,241,242]],"type":"Polygon","properties":{"name":"Aqtau","shapeGroup":"KAZ","gid":"KAZ-2-72"},"id":"KAZ-2-72"},{"arcs":[[-134,243,244,245,-187]],"type":"Polygon","properties":{"name":"Beyneuskiy","shapeGroup":"KAZ","gid":"KAZ-2-73"},"id":"KAZ-2-73"},{"arcs":[[-242,246,247,248]],"type":"Polygon","properties":{"name":"Karakiyanskiy","shapeGroup":"KAZ","gid":"KAZ-2-74"},"id":"KAZ-2-74"},{"arcs":[[-245,249,-248,250,251]],"type":"Polygon","properties":{"name":"Manghystauskiy","shapeGroup":"KAZ","gid":"KAZ-2-75"},"id":"KAZ-2-75"},{"arcs":[[[-241,252,-251,-247]],[[253]]],"type":"MultiPolygon","properties":{"name":"Tupkaraganskiy","shapeGroup":"KAZ","gid":"KAZ-2-76"},"id":"KAZ-2-76"},{"arcs":[[-83,254,255,256,257]],"type":"Polygon","properties":{"name":"Akzharskiy","shapeGroup":"KAZ","gid":"KAZ-2-77"},"id":"KAZ-2-77"},{"arcs":[[-100,258,259,260,261,-107]],"type":"Polygon","properties":{"name":"Ayyrtauskiy","shapeGroup":"KAZ","gid":"KAZ-2-78"},"id":"KAZ-2-78"},{"arcs":[[-256,262,263,264,265]],"type":"Polygon","properties":{"name":"Bulaevskiy","shapeGroup":"KAZ","gid":"KAZ-2-79"},"id":"KAZ-2-79"},{"arcs":[[-261,266,267,268,269,270,271]],"type":"Polygon","properties":{"name":"Esil`skiy","shapeGroup":"KAZ","gid":"KAZ-2-80"},"id":"KAZ-2-80"},{"arcs":[[-265,272,-270,273,274]],"type":"Polygon","properties":{"name":"Kyzylzharskiy","shapeGroup":"KAZ","gid":"KAZ-2-81"},"id":"KAZ-2-81"},{"arcs":[[-269,275,276,-274]],"type":"Polygon","properties":{"name":"Mamlyutskiy","shapeGroup":"KAZ","gid":"KAZ-2-82"},"id":"KAZ-2-82"},{"arcs":[[-260,277,278,279,-267]],"type":"Polygon","properties":{"name":"Shal Akyna","shapeGroup":"KAZ","gid":"KAZ-2-83"},"id":"KAZ-2-83"},{"arcs":[[-264,280,-271,-273]],"type":"Polygon","properties":{"name":"Sovetskiy","shapeGroup":"KAZ","gid":"KAZ-2-84"},"id":"KAZ-2-84"},{"arcs":[[-82,-105,-108,-262,-272,-281,-263,-255]],"type":"Polygon","properties":{"name":"Taiynshinskiy","shapeGroup":"KAZ","gid":"KAZ-2-85"},"id":"KAZ-2-85"},{"arcs":[[-279,281,282,283,284]],"type":"Polygon","properties":{"name":"Timiryazevskiy","shapeGroup":"KAZ","gid":"KAZ-2-86"},"id":"KAZ-2-86"},{"arcs":[[-93,285,286,-282,-278,-259,-99,-110]],"type":"Polygon","properties":{"name":"Tselinniy","shapeGroup":"KAZ","gid":"KAZ-2-87"},"id":"KAZ-2-87"},{"arcs":[[-84,-258,287,288,289,-86]],"type":"Polygon","properties":{"name":"Ualikhanovskiy","shapeGroup":"KAZ","gid":"KAZ-2-88"},"id":"KAZ-2-88"},{"arcs":[[-268,-280,-285,290,291,-276]],"type":"Polygon","properties":{"name":"Zhambylskiy","shapeGroup":"KAZ","gid":"KAZ-2-89"},"id":"KAZ-2-89"},{"arcs":[[292,293,294,295,296,297]],"type":"Polygon","properties":{"name":"Aksuskiy","shapeGroup":"KAZ","gid":"KAZ-2-90"},"id":"KAZ-2-90"},{"arcs":[[-87,-290,298,299,300,-294,301]],"type":"Polygon","properties":{"name":"Aktogayskiy","shapeGroup":"KAZ","gid":"KAZ-2-91"},"id":"KAZ-2-91"},{"arcs":[[-298,302,303,304,305,306]],"type":"Polygon","properties":{"name":"Bayanaul`skiy","shapeGroup":"KAZ","gid":"KAZ-2-92"},"id":"KAZ-2-92"},{"arcs":[[-88,-302,-293,-307,307]],"type":"Polygon","properties":{"name":"Ekibastuz","shapeGroup":"KAZ","gid":"KAZ-2-93"},"id":"KAZ-2-93"},{"arcs":[[-289,308,309,310,-299]],"type":"Polygon","properties":{"name":"Irtyshskiy","shapeGroup":"KAZ","gid":"KAZ-2-94"},"id":"KAZ-2-94"},{"arcs":[[-300,-311,311,312,313,314]],"type":"Polygon","properties":{"name":"Kachirskiy","shapeGroup":"KAZ","gid":"KAZ-2-95"},"id":"KAZ-2-95"},{"arcs":[[-199,315,-296,316,317,318]],"type":"Polygon","properties":{"name":"Lebyazhinskiy","shapeGroup":"KAZ","gid":"KAZ-2-96"},"id":"KAZ-2-96"},{"arcs":[[-198,-226,319,-303,-297,-316]],"type":"Polygon","properties":{"name":"Mayskiy","shapeGroup":"KAZ","gid":"KAZ-2-97"},"id":"KAZ-2-97"},{"arcs":[[-295,-301,-315,320,321,-317]],"type":"Polygon","properties":{"name":"Pavlodarskiy","shapeGroup":"KAZ","gid":"KAZ-2-98"},"id":"KAZ-2-98"},{"arcs":[[-318,-322,322,323]],"type":"Polygon","properties":{"name":"Sherbaktinskiy","shapeGroup":"KAZ","gid":"KAZ-2-99"},"id":"KAZ-2-99"},{"arcs":[[-314,324,-323,-321]],"type":"Polygon","properties":{"name":"Uspenskiy","shapeGroup":"KAZ","gid":"KAZ-2-100"},"id":"KAZ-2-100"},{"arcs":[[-310,325,-312]],"type":"Polygon","properties":{"name":"Zhelezinskiy","shapeGroup":"KAZ","gid":"KAZ-2-101"},"id":"KAZ-2-101"},{"arcs":[[326,327,328,329]],"type":"Polygon","properties":{"name":"Abayskiy","shapeGroup":"KAZ","gid":"KAZ-2-102"},"id":"KAZ-2-102"},{"arcs":[[-7,-36,-20,330,331,332,-192]],"type":"Polygon","properties":{"name":"Aktogayskiy","shapeGroup":"KAZ","gid":"KAZ-2-103"},"id":"KAZ-2-103"},{"arcs":[[-305,333,334,-330,335,336]],"type":"Polygon","properties":{"name":"Bukhar-Zhyrauskiy","shapeGroup":"KAZ","gid":"KAZ-2-104"},"id":"KAZ-2-104"},{"arcs":[[-193,-333,337,-334,-304,-320,-225]],"type":"Polygon","properties":{"name":"Karkaralinskiy","shapeGroup":"KAZ","gid":"KAZ-2-105"},"id":"KAZ-2-105"},{"arcs":[[-60,338,-336,-329,339,340,341,-111,-71,-80,-97,-106]],"type":"Polygon","properties":{"name":"Nurinskiy","shapeGroup":"KAZ","gid":"KAZ-2-106"},"id":"KAZ-2-106"},{"arcs":[[-63,-89,-308,-306,-337,-339]],"type":"Polygon","properties":{"name":"Osakarovskiy","shapeGroup":"KAZ","gid":"KAZ-2-107"},"id":"KAZ-2-107"},{"arcs":[[-327,-335,-338,-332,342,343,344]],"type":"Polygon","properties":{"name":"Shetskiy","shapeGroup":"KAZ","gid":"KAZ-2-108"},"id":"KAZ-2-108"},{"arcs":[[-141,345,346,347,-341,348,349,350,351,352,353,354]],"type":"Polygon","properties":{"name":"Ulytauskiy","shapeGroup":"KAZ","gid":"KAZ-2-109"},"id":"KAZ-2-109"},{"arcs":[[-328,-345,355,356,-349,-340]],"type":"Polygon","properties":{"name":"Zhanaarkinskiy","shapeGroup":"KAZ","gid":"KAZ-2-110"},"id":"KAZ-2-110"},{"arcs":[[357,358,359,360,361]],"type":"Polygon","properties":{"name":"Altynsarinskiy","shapeGroup":"KAZ","gid":"KAZ-2-111"},"id":"KAZ-2-111"},{"arcs":[[-113,362,-347,363,364]],"type":"Polygon","properties":{"name":"Amangel`dinskiy","shapeGroup":"KAZ","gid":"KAZ-2-112"},"id":"KAZ-2-112"},{"arcs":[[-112,-342,-348,-363]],"type":"Polygon","properties":{"name":"Arkalyk","shapeGroup":"KAZ","gid":"KAZ-2-113"},"id":"KAZ-2-113"},{"arcs":[[-359,365,366,367,368,369]],"type":"Polygon","properties":{"name":"Auliekol`skiy","shapeGroup":"KAZ","gid":"KAZ-2-114"},"id":"KAZ-2-114"},{"arcs":[[370,371,372,373]],"type":"Polygon","properties":{"name":"Denisovskiy","shapeGroup":"KAZ","gid":"KAZ-2-115"},"id":"KAZ-2-115"},{"arcs":[[-129,374,375,-364,-346,-140]],"type":"Polygon","properties":{"name":"Dzhangil`dinskiy","shapeGroup":"KAZ","gid":"KAZ-2-116"},"id":"KAZ-2-116"},{"arcs":[[376,377,378,379,380,381]],"type":"Polygon","properties":{"name":"Fyodorovskiy","shapeGroup":"KAZ","gid":"KAZ-2-117"},"id":"KAZ-2-117"},{"arcs":[[-128,382,383,-372,384,-368,385,-375]],"type":"Polygon","properties":{"name":"Kamystinskiy","shapeGroup":"KAZ","gid":"KAZ-2-118"},"id":"KAZ-2-118"},{"arcs":[[-377,386]],"type":"Polygon","properties":{"name":"Karabalykskiy","shapeGroup":"KAZ","gid":"KAZ-2-119"},"id":"KAZ-2-119"},{"arcs":[[-92,-115,387,-366,-358,388,-286]],"type":"Polygon","properties":{"name":"Karasuskiy","shapeGroup":"KAZ","gid":"KAZ-2-120"},"id":"KAZ-2-120"},{"arcs":[[-361,389,-379,390,391,392]],"type":"Polygon","properties":{"name":"Mendykarinskiy","shapeGroup":"KAZ","gid":"KAZ-2-121"},"id":"KAZ-2-121"},{"arcs":[[-114,-365,-376,-386,-367,-388]],"type":"Polygon","properties":{"name":"Naurzumskiy","shapeGroup":"KAZ","gid":"KAZ-2-122"},"id":"KAZ-2-122"},{"arcs":[[-360,-370,393,-380,-390]],"type":"Polygon","properties":{"name":"Qostanay","shapeGroup":"KAZ","gid":"KAZ-2-123"},"id":"KAZ-2-123"},{"arcs":[[-283,-287,-389,-362,-393,394]],"type":"Polygon","properties":{"name":"Sarykol`skiy","shapeGroup":"KAZ","gid":"KAZ-2-124"},"id":"KAZ-2-124"},{"arcs":[[-369,-385,-371,395,-381,-394]],"type":"Polygon","properties":{"name":"Taranovskiy","shapeGroup":"KAZ","gid":"KAZ-2-125"},"id":"KAZ-2-125"},{"arcs":[[-284,-395,-392,396,-291]],"type":"Polygon","properties":{"name":"Uzunkol`skiy","shapeGroup":"KAZ","gid":"KAZ-2-126"},"id":"KAZ-2-126"},{"arcs":[[-373,-384,397]],"type":"Polygon","properties":{"name":"Zhitikarinskiy","shapeGroup":"KAZ","gid":"KAZ-2-127"},"id":"KAZ-2-127"},{"arcs":[[-142,-355,398,399,-158]],"type":"Polygon","properties":{"name":"Aral`skiy","shapeGroup":"KAZ","gid":"KAZ-2-128"},"id":"KAZ-2-128"},{"arcs":[[-353,400,401,402]],"type":"Polygon","properties":{"name":"Karmakchinskiy","shapeGroup":"KAZ","gid":"KAZ-2-129"},"id":"KAZ-2-129"},{"arcs":[[-354,-403,403,-399]],"type":"Polygon","properties":{"name":"Kazalinskiy","shapeGroup":"KAZ","gid":"KAZ-2-130"},"id":"KAZ-2-130"},{"arcs":[[404,405]],"type":"Polygon","properties":{"name":"Qyzylorda","shapeGroup":"KAZ","gid":"KAZ-2-131"},"id":"KAZ-2-131"},{"arcs":[[-406,406,407,408,409,410]],"type":"Polygon","properties":{"name":"Shieliyskiy","shapeGroup":"KAZ","gid":"KAZ-2-132"},"id":"KAZ-2-132"},{"arcs":[[-351,411,-407,-405,-411,412,413]],"type":"Polygon","properties":{"name":"Terenozekskiy","shapeGroup":"KAZ","gid":"KAZ-2-133"},"id":"KAZ-2-133"},{"arcs":[[-352,-414,414,-401]],"type":"Polygon","properties":{"name":"Zhalagashskiy","shapeGroup":"KAZ","gid":"KAZ-2-134"},"id":"KAZ-2-134"},{"arcs":[[-409,415,416,417,418]],"type":"Polygon","properties":{"name":"Zhanakorganskiy","shapeGroup":"KAZ","gid":"KAZ-2-135"},"id":"KAZ-2-135"},{"arcs":[[419,420,421,422,423,424,425]],"type":"Polygon","properties":{"name":"Arysskiy","shapeGroup":"KAZ","gid":"KAZ-2-136"},"id":"KAZ-2-136"},{"arcs":[[-422,426,427,428,429,430,431,432,433,434]],"type":"Polygon","properties":{"name":"Baydibekskiy","shapeGroup":"KAZ","gid":"KAZ-2-137"},"id":"KAZ-2-137"},{"arcs":[[-426,435,436,437,438,439,440]],"type":"Polygon","properties":{"name":"Chardarinskiy","shapeGroup":"KAZ","gid":"KAZ-2-138"},"id":"KAZ-2-138"},{"arcs":[[-424,441,442,443,444,445]],"type":"Polygon","properties":{"name":"Kazygurtskiy","shapeGroup":"KAZ","gid":"KAZ-2-139"},"id":"KAZ-2-139"},{"arcs":[[-439,446]],"type":"Polygon","properties":{"name":"Maktaaral`skiy","shapeGroup":"KAZ","gid":"KAZ-2-140"},"id":"KAZ-2-140"},{"arcs":[[[-421,447,448,-427]],[[-423,-435,449,450,451,-442]]],"type":"MultiPolygon","properties":{"name":"Ordabasynskiy","shapeGroup":"KAZ","gid":"KAZ-2-141"},"id":"KAZ-2-141"},{"arcs":[[[-418,452,-448,-420,-441,453]],[[-425,454,-436]]],"type":"MultiPolygon","properties":{"name":"Otrarskiy","shapeGroup":"KAZ","gid":"KAZ-2-142"},"id":"KAZ-2-142"},{"arcs":[[-437,-455,-446,455]],"type":"Polygon","properties":{"name":"Saryagashskiy","shapeGroup":"KAZ","gid":"KAZ-2-143"},"id":"KAZ-2-143"},{"arcs":[[[-434,456,457,458,-450]],[[-443,-452,459,460]]],"type":"MultiPolygon","properties":{"name":"Sayramskiy","shapeGroup":"KAZ","gid":"KAZ-2-144"},"id":"KAZ-2-144"},{"arcs":[[-451,-459,-460]],"type":"Polygon","properties":{"name":"Shymkent","shapeGroup":"KAZ","gid":"KAZ-2-145"},"id":"KAZ-2-145"},{"arcs":[[-350,-357,461,-429,462,-416,-408,-412]],"type":"Polygon","properties":{"name":"Suzakskiy","shapeGroup":"KAZ","gid":"KAZ-2-146"},"id":"KAZ-2-146"},{"arcs":[[-444,-461,-458,463,464,465]],"type":"Polygon","properties":{"name":"Tolebiyskiy","shapeGroup":"KAZ","gid":"KAZ-2-147"},"id":"KAZ-2-147"},{"arcs":[[-417,-463,-428,-449,-453]],"type":"Polygon","properties":{"name":"Turkestan","shapeGroup":"KAZ","gid":"KAZ-2-148"},"id":"KAZ-2-148"},{"arcs":[[-433,466,-464,-457]],"type":"Polygon","properties":{"name":"Tyul`kubaskiy","shapeGroup":"KAZ","gid":"KAZ-2-149"},"id":"KAZ-2-149"},{"arcs":[[-170,467,468,469,470,471,472,473,-183]],"type":"Polygon","properties":{"name":"Akzhaikskiy","shapeGroup":"KAZ","gid":"KAZ-2-150"},"id":"KAZ-2-150"},{"arcs":[[474,475,476,477,478]],"type":"Polygon","properties":{"name":"Burlinskiy","shapeGroup":"KAZ","gid":"KAZ-2-151"},"id":"KAZ-2-151"},{"arcs":[[-150,479,480,-478,481]],"type":"Polygon","properties":{"name":"Chingirlauskiy","shapeGroup":"KAZ","gid":"KAZ-2-152"},"id":"KAZ-2-152"},{"arcs":[[-169,-176,-179,482,483,-468]],"type":"Polygon","properties":{"name":"Dzhangalinskiy","shapeGroup":"KAZ","gid":"KAZ-2-153"},"id":"KAZ-2-153"},{"arcs":[[484,485,486]],"type":"Polygon","properties":{"name":"Dzhanybekskiy","shapeGroup":"KAZ","gid":"KAZ-2-154"},"id":"KAZ-2-154"},{"arcs":[[-149,-162,-184,-474,487,-480]],"type":"Polygon","properties":{"name":"Karatobinskiy","shapeGroup":"KAZ","gid":"KAZ-2-155"},"id":"KAZ-2-155"},{"arcs":[[-469,-484,488,-485,489,490]],"type":"Polygon","properties":{"name":"Kaztalovskiy","shapeGroup":"KAZ","gid":"KAZ-2-156"},"id":"KAZ-2-156"},{"arcs":[[-473,491,-479,-481,-488]],"type":"Polygon","properties":{"name":"Syrymskiy","shapeGroup":"KAZ","gid":"KAZ-2-157"},"id":"KAZ-2-157"},{"arcs":[[-470,-491,492,493]],"type":"Polygon","properties":{"name":"Taskalinskiy","shapeGroup":"KAZ","gid":"KAZ-2-158"},"id":"KAZ-2-158"},{"arcs":[[-472,494,-475,-492]],"type":"Polygon","properties":{"name":"Terektinskiy","shapeGroup":"KAZ","gid":"KAZ-2-159"},"id":"KAZ-2-159"},{"arcs":[[-178,495,-486,-489,-483]],"type":"Polygon","properties":{"name":"Urdinskiy","shapeGroup":"KAZ","gid":"KAZ-2-160"},"id":"KAZ-2-160"},{"arcs":[[-471,-494,496,-476,-495]],"type":"Polygon","properties":{"name":"Zelenovskiy","shapeGroup":"KAZ","gid":"KAZ-2-161"},"id":"KAZ-2-161"},{"arcs":[[497,498,499,500,501,502]],"type":"Polygon","properties":{"name":"Bayzakskiy","shapeGroup":"KAZ","gid":"KAZ-2-162"},"id":"KAZ-2-162"},{"arcs":[[-52,503,504]],"type":"Polygon","properties":{"name":"Kordayskiy","shapeGroup":"KAZ","gid":"KAZ-2-163"},"id":"KAZ-2-163"},{"arcs":[[-501,505,506,507,508]],"type":"Polygon","properties":{"name":"Lugovskoy","shapeGroup":"KAZ","gid":"KAZ-2-164"},"id":"KAZ-2-164"},{"arcs":[[-507,509,510,511]],"type":"Polygon","properties":{"name":"Merkenskiy","shapeGroup":"KAZ","gid":"KAZ-2-165"},"id":"KAZ-2-165"},{"arcs":[[-19,-54,512,-510,-506,-500,513,514,515,-343,-331]],"type":"Polygon","properties":{"name":"Moyynkumskiy","shapeGroup":"KAZ","gid":"KAZ-2-166"},"id":"KAZ-2-166"},{"arcs":[[-344,-516,516,-430,-462,-356]],"type":"Polygon","properties":{"name":"Sarysuskiy","shapeGroup":"KAZ","gid":"KAZ-2-167"},"id":"KAZ-2-167"},{"arcs":[[-53,-505,517,-511,-513]],"type":"Polygon","properties":{"name":"Shuskiy","shapeGroup":"KAZ","gid":"KAZ-2-168"},"id":"KAZ-2-168"},{"arcs":[[-431,-517,-515,518,519,-503,520,521]],"type":"Polygon","properties":{"name":"Talasskiy","shapeGroup":"KAZ","gid":"KAZ-2-169"},"id":"KAZ-2-169"},{"arcs":[[-498,-520,522]],"type":"Polygon","properties":{"name":"Zhamb.","shapeGroup":"KAZ","gid":"KAZ-2-170"},"id":"KAZ-2-170"},{"arcs":[[-502,-509,523,524,-521]],"type":"Polygon","properties":{"name":"Zhambylskiy","shapeGroup":"KAZ","gid":"KAZ-2-171"},"id":"KAZ-2-171"},{"arcs":[[-499,-523,-519,-514]],"type":"Polygon","properties":{"name":"Zhualy","shapeGroup":"KAZ","gid":"KAZ-2-172"},"id":"KAZ-2-172"},{"arcs":[[-432,-522,-525,525,-465,-467]],"type":"Polygon","properties":{"name":"Zhualynskiy","shapeGroup":"KAZ","gid":"KAZ-2-173"},"id":"KAZ-2-173"}]}}}