{"type":"Topology","arcs":[[[5951,6088],[45,17],[62,-13],[7,-37],[-28,-41],[-23,47],[-63,27]],[[2268,845],[48,74],[69,11],[23,42],[39,6],[49,-22],[47,9],[8,-53],[60,-51],[65,26],[20,-35],[80,-49],[37,16],[101,15],[69,-32],[92,41],[43,48],[58,8],[39,34],[55,84]],[[3270,1017],[2,-4],[43,-15],[34,43],[60,-39],[38,26],[48,56],[15,2],[36,9],[4,11],[66,20],[-34,-80]],[[3582,1046],[-27,-73],[52,-60],[8,-38],[-21,-44],[-51,-29],[50,-94],[19,-69],[34,-42],[4,-128],[-33,-134],[3,-25]],[[3620,310],[-13,-21],[-55,28],[-41,-3],[-52,24],[-36,32],[-81,-2],[-12,-41],[-35,-31],[-17,44],[-56,3],[-31,-49],[-119,-30],[-43,-66],[-23,-109],[-6,-61],[-26,-28],[-27,21],[-16,93],[-28,46],[-68,-5],[-17,19],[-30,123],[-23,24],[-77,-58],[-39,-85],[-73,5],[-44,-16],[-49,83],[4,45],[39,41],[8,45],[-17,67],[-26,22],[-54,0],[-73,-18],[-68,19],[-22,80],[19,126],[-19,31],[-40,18]],[[2234,726],[34,119]],[[2234,726],[-47,-17],[-43,-49],[-77,-4],[-28,-75],[-21,-9],[-28,51],[-65,-62],[-66,-1],[-38,-19],[-4,-74],[-32,-74],[-45,-16],[-67,55],[-29,-83],[-52,17],[-71,-7],[-21,16],[-6,105],[-18,57],[-51,38],[-20,68],[-23,35],[-84,21],[-40,46],[-61,-65],[-40,-15],[-49,39],[-66,-112],[-35,-3],[-30,53],[-37,30],[-39,-40],[-42,58],[-101,-16]],[[758,674],[-7,53],[1,186],[46,45],[69,1],[9,41],[36,42],[-9,84],[-106,58],[-26,172],[173,80],[-5,97],[56,3],[30,49]],[[1025,1585],[111,-78],[32,-41],[62,-6],[70,-39],[42,21],[48,112],[111,10],[31,51],[86,68],[11,99],[0,106],[84,15],[56,-26]],[[1769,1877],[5,-58],[-17,-45],[23,-99],[27,-55],[15,-76],[-3,-57],[25,-47],[7,-42],[49,-50],[-11,-51],[34,-2],[24,-29],[0,-41],[28,-68],[-18,-24],[6,-65],[25,-23],[27,-110],[46,-57],[54,29],[103,-5],[50,-57]],[[1258,1166],[12,-44],[58,-25],[28,43],[-23,24],[-75,2]],[[758,674],[7,-46],[-35,-25],[-18,52],[-84,3],[-27,-67],[-40,53],[-89,56],[-39,9],[-21,-34],[-48,21],[-44,-26],[-12,-40],[-59,-27],[-42,5],[-25,-19],[-51,48],[-19,-56],[-40,32],[23,88],[-20,9],[-20,138],[8,54],[-39,63],[-24,84],[5,39],[34,29],[21,53],[-28,69],[20,49],[77,87],[38,-23],[3,-60],[53,-41],[38,27],[4,84],[-23,65],[30,138],[45,-21],[68,30],[37,-8],[17,31],[79,71],[99,36],[112,56],[26,-7],[154,-145],[65,-32],[51,9]],[[1769,1877],[87,50],[93,8],[35,-15],[21,20],[50,-42],[67,-15],[37,-41],[83,-26],[7,-69],[50,-19],[57,10],[-5,76],[60,-5],[18,-33],[1,-61],[-16,-22],[36,-40],[28,-3],[39,59],[45,3],[-3,59],[56,35],[82,-30],[49,-1],[43,25]],[[2789,1800],[30,-35],[82,-40],[15,-66],[103,-49],[12,-95],[-34,-31],[25,-56],[-4,-6],[-11,-93],[85,-21],[14,-81],[29,-37],[5,-43],[52,46],[34,-83],[31,-44],[10,-17],[4,-27],[-1,-5]],[[5471,6330],[86,20],[40,-18],[164,-120],[45,-11],[55,-48],[35,-14]],[[5896,6139],[-16,-58],[27,-26],[-27,-48],[7,-56],[-37,-25],[44,-118],[-49,-53],[21,-44],[-45,-50],[-11,-38],[2,-144],[-28,-80],[-27,-5]],[[5757,5394],[-8,24],[-69,-29],[-33,16],[-32,-16],[-90,-9]],[[5525,5380],[-35,2]],[[5490,5382],[-44,103],[9,94],[-9,205],[45,87],[-18,60],[5,51],[-36,138]],[[5442,6120],[-19,26]],[[5423,6146],[4,55],[-13,40],[20,64],[37,25]],[[5896,6139],[59,-39],[30,12],[75,-8],[88,-23],[119,8],[51,-38],[60,-17]],[[6378,6034],[15,-59],[57,-76],[60,-51],[9,-37],[66,-43],[10,-126]],[[6595,5642],[-69,14],[4,-67],[-26,-22],[-62,-15],[-23,-54],[-61,-69],[-27,-26]],[[6331,5403],[-56,-20],[-61,25],[-90,-15],[-25,39],[-27,-32],[-92,-24],[-66,31],[-39,-14],[-28,29],[-44,-40],[-46,12]],[[5525,5380],[72,-182],[-13,-18],[-101,-15],[-57,-82],[-25,-14],[15,-98]],[[5416,4971],[-384,-5],[-104,-147],[-59,113],[88,56],[-25,81],[-41,8],[-294,-11],[-74,-73],[-53,4],[-34,-45],[119,-115],[30,-62],[1,-84],[55,-14],[22,44],[68,-129],[-46,-62],[-25,-9],[-121,0]],[[4539,4521],[-58,170],[-72,7],[-80,-30],[-58,4],[-37,25],[-89,21],[-76,29],[-22,82],[-25,28],[-98,32],[-67,8]],[[3857,4897],[-9,83],[-61,44],[6,108],[68,-19],[58,63],[56,-8],[38,22],[59,-22],[29,35],[61,6],[53,-25],[115,41],[7,13]],[[4337,5238],[127,-8],[143,52],[40,1]],[[4647,5283],[212,19],[50,21],[2,118]],[[4911,5441],[73,-29],[58,-9],[30,-4],[63,17],[26,-14]],[[5161,5402],[33,-20],[70,43],[25,-29],[84,-35],[66,-15],[51,36]],[[4486,6515],[22,-31],[-5,-141],[-112,-93],[43,-69],[17,-78],[48,3],[31,-42],[-2,-66],[22,-56],[21,-100],[-7,-120],[-47,-111],[-59,-18],[-22,-40],[-7,-97],[-36,-36]],[[4393,5420],[-29,36],[-26,-14],[-40,53],[-21,-78],[-35,-11]],[[4242,5406],[-66,123],[-16,66],[11,156],[19,47],[2,100],[36,57],[9,127],[13,71],[-7,83],[41,78],[-11,43],[13,34],[53,20],[147,104]],[[4647,5283],[-10,49],[19,24],[0,53],[24,29],[-3,95],[39,13],[15,71],[15,148],[-29,29],[-2,38],[-32,92],[29,28],[-11,88],[10,99],[15,18],[2,78],[-24,15],[17,57],[-52,20],[-16,32],[20,99],[25,55],[35,8],[26,118]],[[4759,6639],[99,25]],[[4858,6664],[13,-97],[-14,-54],[33,-108],[48,-45],[4,-26],[-21,-17],[16,-21],[37,-138],[2,-52],[-26,-105],[-40,-4],[2,-11],[-36,-7],[-25,-30],[28,-71],[26,-32],[-11,-132],[-29,-75],[44,-46],[11,49],[24,1],[-1,-80],[-51,-96],[19,-26]],[[6378,6034],[61,-27],[45,60],[25,109],[37,68],[71,7],[42,19],[28,-43],[63,-31],[44,18],[115,16],[114,-34],[2,-61],[40,-23],[95,43],[39,-4],[45,63],[52,-26],[28,16],[105,-20],[41,29],[6,47],[67,9],[13,46],[81,-28],[27,27],[60,1],[37,-58],[22,48],[90,-7],[69,-92]],[[7942,6206],[1,-77],[-87,-97],[-58,-24],[-141,2],[-119,-25],[-14,-36],[-209,21],[-22,-11],[-101,25],[-19,-46],[-75,-12],[-89,-76],[-50,-64],[-43,-30],[-8,-46],[-30,-16],[-50,16],[-59,-27]],[[6769,5683],[-36,-3],[-42,-29],[-96,-9]],[[4337,5238],[8,56],[38,70],[10,56]],[[4486,6515],[78,40],[74,-7],[45,94],[12,70],[64,-73]],[[5161,5402],[32,67],[13,92],[-19,87],[-47,23],[-22,63],[19,44],[64,21],[-21,110],[15,42],[62,17],[27,52]],[[5284,6020],[18,-29],[31,28],[37,-6],[5,89],[55,-16],[12,34]],[[5423,6146],[-42,0],[-31,58],[15,44],[-57,12],[-6,-65],[-49,-26]],[[5253,6169],[-30,59],[9,119],[-45,43],[19,65],[-39,46],[-22,75]],[[5145,6576],[17,39],[140,-52],[38,-79],[56,-72],[25,-8],[50,-74]],[[3582,1046],[38,3],[21,-75],[49,-5]],[[3690,969],[102,19],[126,94],[89,131],[2,132],[9,76],[46,125],[-1,134],[-9,52],[-52,80],[-42,46],[-16,100],[56,12],[22,-60],[46,4],[-28,84],[64,64],[-2,66]],[[4102,2128],[44,-2]],[[4146,2126],[34,-11],[7,-64],[38,-40],[53,16],[51,-103],[45,-23],[83,-8],[64,-16],[36,-50],[18,-115],[66,-69],[7,-34],[57,-108],[39,-13]],[[4744,1488],[-84,-78],[36,-14],[-11,-65],[-27,-30],[-25,-62],[14,-25],[-18,-72],[-55,-46],[-16,-87],[8,-40],[64,-22],[16,-30],[19,-106],[6,-105],[-34,-13],[3,-46],[-36,-34],[-4,-99],[-117,-34],[-77,0],[-37,20],[-42,-25],[-43,-4],[-52,28],[-56,-17],[-17,-25],[-39,7],[-22,-33],[-18,-66],[-32,-18],[-68,-2],[-9,-33],[-83,-14],[-54,39],[-71,-35],[-29,13],[-47,-27],[-24,42],[-43,-20]],[[3398,2248],[17,-69],[10,-163],[50,-52]],[[3475,1964],[-27,-110],[-87,123],[-78,-27],[-55,32],[-53,-25],[-62,9],[-54,-25],[-59,-32],[-125,58],[-45,133]],[[2830,2100],[44,45],[68,14],[99,-84],[61,-41],[47,-2],[16,77],[-9,68],[-59,70],[-6,130],[28,36],[202,-166],[77,1]],[[2789,1800],[-29,20],[-22,117],[27,60],[65,103]],[[3475,1964],[30,40],[18,-56],[76,-80],[24,-63],[89,-17],[-8,-98],[20,-100],[103,-43],[68,-9],[33,-61],[-37,-106],[-70,8],[-10,-91],[-63,-17],[-18,-114],[4,-102],[-25,-18],[-19,-68]],[[3398,2248],[91,74],[-12,37],[11,49],[42,85],[45,-7],[13,58],[86,40],[45,54],[61,0],[37,16]],[[3817,2654],[52,-66],[10,-114],[-13,-201],[21,-87],[51,-57],[48,-34],[74,36],[42,-3]],[[1434,3800],[14,38],[87,26],[46,156],[72,6],[32,48],[134,-35],[35,-84],[-2,-146],[14,-60],[35,-27],[74,-149],[19,-52],[-21,-40],[42,-42],[7,-41],[54,1],[-7,79],[-34,34],[3,71],[36,62],[7,56],[-37,5],[-74,68],[-59,81],[-19,106],[51,129],[1,74],[169,11],[59,38]],[[2172,4213],[43,-44],[54,-93],[10,-83],[70,-157]],[[2349,3836],[44,-59],[18,-49],[-44,-132],[-26,-12],[-41,-70],[-53,24],[-51,-19],[-23,-79],[16,-68],[-27,-30],[20,-53],[-55,-83],[-15,31],[-106,-21],[-2,100],[-41,32],[-70,-43],[-34,-39],[-51,56],[-37,22],[-77,-41],[-121,141],[-65,-57],[-7,81],[15,91],[-4,110],[-78,131]],[[3817,2654],[50,18],[-2,71],[-48,36]],[[3817,2779],[35,18],[53,-42],[91,22],[21,151],[32,40],[81,-14],[58,129],[56,0],[54,38],[36,5],[-5,-51],[-50,-95],[36,-55],[111,-94],[63,-8],[3,56],[-22,58],[6,71],[22,56],[74,52],[71,15]],[[4643,3131],[-3,-148],[38,-8],[58,-56],[59,-16]],[[4795,2903],[68,-118],[57,-32]],[[4920,2753],[7,-113],[47,-68]],[[4974,2572],[-57,-37],[-61,1],[-99,-52],[-83,-3],[-19,36],[-71,48],[-93,-80],[-58,-5],[-65,-41],[-54,-58],[-34,17],[-20,38],[-70,-2],[-60,30],[-28,-40],[8,-67],[-13,-41],[61,-91],[-12,-99]],[[4974,2572],[63,-88],[54,-58],[103,-71],[115,-15],[73,-155],[35,6],[71,-83],[43,-31]],[[5531,2077],[35,-35],[48,-108],[-48,-31],[-37,49],[-69,-10],[-35,-32],[-40,-87],[-70,16],[-65,-122],[-27,-7],[-44,-79],[-49,-36],[-60,-69],[-41,35],[-25,-17],[-21,48],[-41,-11],[-150,-80],[-25,35],[-23,-48]],[[4920,2753],[49,24],[44,1],[42,-34],[77,7],[44,47],[108,-5],[250,-34],[72,62],[75,20],[57,-25],[118,37],[51,66],[25,72],[138,15],[29,47],[7,119]],[[6106,3172],[54,39],[30,68],[40,40],[40,92],[77,13],[22,30],[107,33],[76,-17],[98,9],[105,10],[83,51],[225,11],[99,-8],[92,-36],[33,61],[142,37],[42,27],[6,5],[187,10],[51,-17],[81,-91],[73,-38],[55,12],[85,79],[83,5],[48,25]],[[8140,3622],[87,-8],[-40,-99],[-60,-75],[2,-67],[143,48],[74,51],[33,36],[56,-31],[-24,-116],[260,-18]],[[8671,3343],[-41,-7],[-71,-51],[-36,-53],[2,-78],[-41,-101],[-36,11],[-42,-30],[-76,10],[-28,-27],[-32,19],[-73,-15],[-31,45],[-38,26],[-80,-19],[-52,-43],[-48,49],[-86,-17],[-42,29],[-12,30],[-87,25],[-37,-21],[-18,-40],[-43,-28],[-24,17],[-31,-52],[-94,-71],[-23,-87],[9,-42],[-21,-55],[-16,-91],[-62,-42],[12,-78],[2,-154],[-43,-19],[-15,-53],[-39,-44],[-25,-72],[3,-76],[-81,-86],[-14,-36],[-56,-22],[-18,18],[-31,-79],[-22,111],[-62,19],[-66,-63],[-53,29],[-62,-3],[-32,-24],[-16,-46],[-46,47],[-51,-83],[6,-48],[-97,21],[-55,-24],[-43,9],[-16,-32],[-55,113],[17,110],[30,37],[13,49],[-77,54],[-23,68],[6,127],[-44,65],[-123,-99],[-14,-38],[-40,-45],[-43,-12],[-62,-67],[0,-22],[-64,-51],[-53,-22],[-44,23],[-51,-44],[-38,15],[-34,37],[-31,-24],[-59,44],[-7,23],[-83,49],[-21,-28],[-10,-131]],[[8140,3622],[-38,28],[-21,103],[-42,70],[63,36],[14,104]],[[8116,3963],[91,54],[29,66],[-41,85],[-45,48],[-21,70],[99,9],[-17,82],[-132,34],[-15,201],[-19,66],[45,127],[4,141]],[[8094,4946],[114,3],[204,102],[174,251],[-52,22],[-27,50],[144,86],[59,-30],[119,134],[132,3]],[[8961,5567],[28,-99],[11,-136],[79,-46],[35,-68],[2,-143],[31,-59],[-2,-56],[73,-30],[81,-97],[10,-75],[103,-29],[26,-93],[36,-24],[87,20],[66,-14],[117,16],[-21,-110],[12,-16],[70,1],[75,-70],[73,14],[71,109],[41,24],[78,-61],[20,-94]],[[10163,4431],[-40,-11],[-61,-76],[-24,28],[-48,-74],[-58,-66],[-91,-6],[-42,-56],[-54,-16],[-109,-78],[-35,-60],[-69,-62],[-102,-9],[-50,-89],[-18,-51],[-65,20],[-24,-8],[-27,-59],[-79,-45],[-60,-8],[-8,-28],[-103,-5],[-40,20],[-52,-12],[-40,-44],[11,-44],[-20,-46],[-4,-110],[-10,-29],[-68,-24],[-33,-34],[-49,-20],[-20,14]],[[8961,5567],[68,3],[-2,98],[-17,101]],[[9010,5769],[89,15],[98,1],[60,44],[165,-1],[67,18],[57,61],[85,-4],[84,-69],[57,-230],[72,-56],[304,0]],[[10148,5548],[58,-56],[12,-42],[128,-11],[42,42],[75,-26],[40,-30],[67,-1],[112,-22],[14,-90],[46,-57],[98,-66],[-8,-45],[56,-109],[-10,-91],[-26,-13],[31,-83],[56,-63],[-26,-38],[-69,-4],[-105,23],[-8,-11],[-105,1],[-57,-34],[-2,-60],[-36,-34],[-14,-74],[-37,-45],[-45,14],[-82,-14],[-19,-42],[-89,-47],[-82,11]],[[9010,5769],[17,-117],[-241,1],[0,80],[74,61],[78,-11],[37,123],[-262,-71],[-110,24]],[[8603,5859],[-18,157],[23,128]],[[8608,6144],[78,-48],[67,24],[19,-29],[54,26],[63,-5],[27,36],[150,-45],[22,53],[60,-14],[34,29],[72,-25],[6,-20],[99,-44],[22,-46],[45,19],[156,-42],[65,-44],[36,13],[90,-11],[50,9],[92,39],[-29,-82],[18,-111],[28,-53],[55,-57],[71,-29],[90,-139]],[[7942,6206],[76,-1],[51,-27],[73,47],[58,-5],[69,23],[31,-40],[42,7],[74,-26],[65,3],[18,15],[60,-55],[49,-3]],[[8603,5859],[-167,22],[-166,-143],[-93,-2],[-91,68],[-84,-49],[-166,-33],[-395,-68],[-113,-101],[-123,-47],[-142,-10],[-139,-19],[-3,-88]],[[6921,5389],[-76,62],[-5,156],[-68,43],[-3,33]],[[6106,3172],[-59,23],[-70,76],[-10,87],[-44,71],[1,66],[37,7],[40,119],[11,87],[45,142],[-8,107],[-53,55],[-15,111],[21,163]],[[6002,4286],[54,-18],[117,-96],[51,47],[63,143],[154,-77],[64,59],[95,32],[112,-78],[50,11],[118,7],[42,37],[67,0],[50,-31],[38,-48],[127,0]],[[7204,4274],[37,-42],[136,-2],[73,46],[37,-38],[4,-69],[-29,-62],[-6,-106],[6,-72],[382,3],[105,-28],[126,56],[41,3]],[[4795,2903],[75,179],[-12,55],[-49,48],[38,90],[263,22],[-54,88],[-15,74],[58,50],[94,-4],[95,36],[87,23],[29,50],[10,64],[54,77],[23,261]],[[5491,4016],[55,7],[34,48],[144,45],[95,152],[64,81]],[[5883,4349],[119,-63]],[[6921,5389],[6,-86],[53,-75],[60,-10],[68,70],[166,-170],[171,-7],[291,-128],[184,-3],[174,-34]],[[7204,4274],[9,119],[166,0],[4,91],[-11,65],[-53,35],[-161,8],[-172,108],[-112,-7],[-75,-46],[-28,14],[4,82],[67,1],[-105,163],[-58,244],[-3,109],[-66,57],[-61,5],[-5,-106],[-51,-6],[-91,112],[-47,3],[-24,78]],[[5416,4971],[173,-64],[47,30],[121,26],[58,-40],[2,-64],[-38,-20],[39,-79],[56,-22],[-27,-73],[-2,-42],[50,-29],[5,-50],[-74,-20],[0,-55],[57,-120]],[[5491,4016],[-72,2],[-138,-130],[-86,-9],[-17,-27],[-60,10],[-37,56],[-294,-21],[-69,75],[-42,0]],[[4676,3972],[-49,103],[0,44],[44,11],[97,-60],[-17,-72],[38,-36],[29,20],[0,172],[-101,68],[-23,95],[-52,35],[-67,0],[-24,-35],[-35,6],[-36,60],[3,52],[56,86]],[[3817,2779],[-68,-5],[-82,-76],[-47,48],[-60,44]],[[3560,2790],[58,227],[18,109],[97,98],[42,66],[5,72],[103,22],[-1,61],[70,14],[12,54],[100,23],[20,72],[19,19]],[[4103,3627],[38,-79],[89,-22],[12,-57],[55,-29],[53,17],[165,-158],[16,-29],[72,-25],[45,-45],[-5,-69]],[[3857,4897],[72,-83],[-109,-16],[-79,87],[-155,-166],[-74,21],[-94,113],[-32,-6],[-100,62],[-114,13],[-75,76]],[[3097,4998],[8,50],[-88,92],[-61,27],[-27,71],[-10,308],[-22,46],[-34,3]],[[2863,5595],[11,129],[59,85],[22,133]],[[2955,5942],[56,2],[217,-123],[60,-13],[29,11],[79,-44],[77,-30],[53,-97],[41,-39],[41,-8],[254,30],[175,-94],[27,-134],[178,3]],[[3560,2790],[-119,-12],[-121,31],[-7,83]],[[3313,2892],[14,32],[46,8],[63,82],[16,220],[21,124],[29,73],[30,36],[-28,55],[3,60],[30,24],[90,26],[45,48],[-12,122]],[[3660,3802],[26,16],[31,76],[74,24],[24,-37],[54,-36],[87,-28],[97,-64],[22,-53],[34,-32]],[[4109,3668],[-6,-41]],[[3313,2892],[-39,80],[-46,2],[-19,69],[-36,38],[-62,0],[-34,47],[-18,-38],[-35,-12],[-48,-43],[-75,-15],[36,111],[-29,91],[-29,14],[20,63]],[[2899,3299],[-1,66],[62,79],[19,106],[25,68],[3,80],[52,58],[58,18],[74,-15]],[[3191,3759],[126,-3],[98,-31],[56,-32],[54,1],[63,68],[72,40]],[[2172,4213],[-2,71],[41,63],[57,35],[74,5],[30,72],[151,4],[71,117],[77,83]],[[2671,4663],[41,15],[47,-16],[48,-41],[6,-102],[80,4],[139,-90],[56,-72],[97,8],[5,-98],[-44,-16],[-37,-53],[31,-32],[-5,-62],[-29,-25],[-15,-55],[32,-33],[79,1],[14,-60],[-25,-177]],[[2899,3299],[-62,-17],[-33,-52],[-61,34],[-7,24],[-55,-18],[-65,36],[-24,55],[25,92],[38,63],[-58,91],[-33,21],[-3,43],[-95,107],[-25,59],[23,47],[-13,52],[-44,-54],[-6,-29],[-52,-17]],[[2383,5754],[15,-73],[4,-76],[-67,-74],[22,-72],[-47,-13],[-9,-63],[39,-68],[61,-31],[27,-82],[-40,-74],[17,-70],[0,-76]],[[2405,4982],[-73,-27],[-163,50],[-93,75],[-80,-8],[-20,-18]],[[1976,5054],[-54,32],[-57,67],[-27,-13],[-48,35],[-32,-4],[-38,-66],[-96,47],[-26,64],[32,77],[57,59],[-2,51],[27,107],[95,-41],[13,20],[-44,82],[-44,40],[2,49],[50,19],[49,1],[78,17],[-1,106],[41,23],[54,91],[-6,58],[69,19],[32,-5]],[[2100,5989],[85,-110],[121,-85],[77,-40]],[[1434,3800],[-34,8],[-98,-46],[-28,-54],[-53,-20],[-24,48],[-83,66],[-18,43],[-38,13],[-22,33],[-62,-48],[-67,42],[35,94],[-1,51],[56,5],[38,40],[65,26],[29,61],[100,59],[12,87],[19,44],[67,32],[9,54],[25,5],[36,89],[43,21],[31,-10],[34,24],[62,-9],[19,31],[-16,96],[41,77],[63,-25],[50,-1],[37,62],[100,81],[46,45],[42,-11],[41,59],[-14,82]],[[2405,4982],[293,-92],[60,-76]],[[2758,4814],[-67,-67],[-20,-84]],[[3097,4998],[-108,4],[-21,-79],[-6,-105],[-21,-48],[-40,-5],[-67,13],[-76,36]],[[2383,5754],[135,-9],[145,-34],[118,-86],[82,-30]],[[4676,3972],[-15,-119],[-89,-3],[-102,21],[-64,59],[-46,-33],[-26,-64],[-105,7],[-43,-25],[-22,-61],[-55,-86]],[[2100,5989],[26,30],[109,-21],[30,16],[36,-44],[67,-13],[38,38],[115,45],[27,23],[46,3],[75,-31],[15,-25],[67,-42],[36,-8],[63,-54],[45,30],[60,6]],[[4858,6664],[42,-3],[-10,46],[33,35],[98,-1],[13,-43],[100,-32],[11,-90]],[[5253,6169],[-33,-28],[-68,5],[2,-26],[68,-23],[-3,-51],[43,22],[22,-48]]],"transform":{"scale":[0.0010019457811500116,0.0006033537577870118],"translate":[69.26495230000006,39.172843700000044]},"objects":{"KGZ":{"type":"GeometryCollection","geometries":[{"arcs":[[0]],"type":"Polygon","properties":{"name":"City of Tomok","shapeGroup":"KGZ","gid":"KGZ-2-0"},"id":"KGZ-2-0"},{"arcs":[[1,2,3,4,5]],"type":"Polygon","properties":{"name":"Chong-Alay","shapeGroup":"KGZ","gid":"KGZ-2-1"},"id":"KGZ-2-1"},{"arcs":[[-6,6,7,8,9],[10]],"type":"Polygon","properties":{"name":"Batken","shapeGroup":"KGZ","gid":"KGZ-2-2"},"id":"KGZ-2-2"},{"arcs":[[-8,11]],"type":"Polygon","properties":{"name":"Leilek","shapeGroup":"KGZ","gid":"KGZ-2-3"},"id":"KGZ-2-3"},{"arcs":[[-2,-10,12,13]],"type":"Polygon","properties":{"name":"Kadamjay","shapeGroup":"KGZ","gid":"KGZ-2-4"},"id":"KGZ-2-4"},{"arcs":[[14,15,16,17,18,19,20]],"type":"Polygon","properties":{"name":"Ysyk-Ata","shapeGroup":"KGZ","gid":"KGZ-2-5"},"id":"KGZ-2-5"},{"arcs":[[-16,21,22,23,24],[-1]],"type":"Polygon","properties":{"name":"Chuy","shapeGroup":"KGZ","gid":"KGZ-2-6"},"id":"KGZ-2-6"},{"arcs":[[[-18,25,26,27,28,29,30,31,32]],[[33,34,35]]],"type":"MultiPolygon","properties":{"name":"Panfilov","shapeGroup":"KGZ","gid":"KGZ-2-7"},"id":"KGZ-2-7"},{"arcs":[[-31,36,37,38]],"type":"Polygon","properties":{"name":"Moskva","shapeGroup":"KGZ","gid":"KGZ-2-8"},"id":"KGZ-2-8"},{"arcs":[[-23,39,40,41]],"type":"Polygon","properties":{"name":"Kemin","shapeGroup":"KGZ","gid":"KGZ-2-9"},"id":"KGZ-2-9"},{"arcs":[[-30,42,-34,43,-37]],"type":"Polygon","properties":{"name":"Jayyl","shapeGroup":"KGZ","gid":"KGZ-2-10"},"id":"KGZ-2-10"},{"arcs":[[[-19,-33,44,45]],[[-21,46,47,48]]],"type":"MultiPolygon","properties":{"name":"Alamudun","shapeGroup":"KGZ","gid":"KGZ-2-11"},"id":"KGZ-2-11"},{"arcs":[[-4,49,50,51,52,53]],"type":"Polygon","properties":{"name":"Alay","shapeGroup":"KGZ","gid":"KGZ-2-12"},"id":"KGZ-2-12"},{"arcs":[[54,55,56]],"type":"Polygon","properties":{"name":"Aravan","shapeGroup":"KGZ","gid":"KGZ-2-13"},"id":"KGZ-2-13"},{"arcs":[[-3,-14,57,-56,58,-50]],"type":"Polygon","properties":{"name":"Nookat","shapeGroup":"KGZ","gid":"KGZ-2-14"},"id":"KGZ-2-14"},{"arcs":[[-51,-59,-55,59,60]],"type":"Polygon","properties":{"name":"Kara-Suu","shapeGroup":"KGZ","gid":"KGZ-2-15"},"id":"KGZ-2-15"},{"arcs":[[61,62,63]],"type":"Polygon","properties":{"name":"Ala-Buka","shapeGroup":"KGZ","gid":"KGZ-2-16"},"id":"KGZ-2-16"},{"arcs":[[-52,-61,64,65,66,67,68,69]],"type":"Polygon","properties":{"name":"Uzgen","shapeGroup":"KGZ","gid":"KGZ-2-17"},"id":"KGZ-2-17"},{"arcs":[[-53,-70,70,71]],"type":"Polygon","properties":{"name":"Kara-Kulja","shapeGroup":"KGZ","gid":"KGZ-2-18"},"id":"KGZ-2-18"},{"arcs":[[-69,72,73,74,75,-71]],"type":"Polygon","properties":{"name":"At-Bashy","shapeGroup":"KGZ","gid":"KGZ-2-19"},"id":"KGZ-2-19"},{"arcs":[[-75,76,77,78,79,80]],"type":"Polygon","properties":{"name":"Jeti-Oguz","shapeGroup":"KGZ","gid":"KGZ-2-20"},"id":"KGZ-2-20"},{"arcs":[[-80,81,82,83]],"type":"Polygon","properties":{"name":"Ak-Suu","shapeGroup":"KGZ","gid":"KGZ-2-21"},"id":"KGZ-2-21"},{"arcs":[[-83,84,85,86]],"type":"Polygon","properties":{"name":"Tup","shapeGroup":"KGZ","gid":"KGZ-2-22"},"id":"KGZ-2-22"},{"arcs":[[-41,87,-86,88,89]],"type":"Polygon","properties":{"name":"Issyk Kul","shapeGroup":"KGZ","gid":"KGZ-2-23"},"id":"KGZ-2-23"},{"arcs":[[-74,90,91,92,-77]],"type":"Polygon","properties":{"name":"Naryn","shapeGroup":"KGZ","gid":"KGZ-2-24"},"id":"KGZ-2-24"},{"arcs":[[-68,93,94,95,-91,-73]],"type":"Polygon","properties":{"name":"Ak-Talaa","shapeGroup":"KGZ","gid":"KGZ-2-25"},"id":"KGZ-2-25"},{"arcs":[[-24,-42,-90,96,-78,-93,97]],"type":"Polygon","properties":{"name":"Tong","shapeGroup":"KGZ","gid":"KGZ-2-26"},"id":"KGZ-2-26"},{"arcs":[[-27,98,-95,99,100]],"type":"Polygon","properties":{"name":"Jumgal","shapeGroup":"KGZ","gid":"KGZ-2-27"},"id":"KGZ-2-27"},{"arcs":[[-17,-25,-98,-92,-96,-99,-26]],"type":"Polygon","properties":{"name":"Kochkor","shapeGroup":"KGZ","gid":"KGZ-2-28"},"id":"KGZ-2-28"},{"arcs":[[-66,101,102,103]],"type":"Polygon","properties":{"name":"Suzak","shapeGroup":"KGZ","gid":"KGZ-2-29"},"id":"KGZ-2-29"},{"arcs":[[-29,104,105,106,107,-35,-43]],"type":"Polygon","properties":{"name":"Talas","shapeGroup":"KGZ","gid":"KGZ-2-30"},"id":"KGZ-2-30"},{"arcs":[[-103,108,109,110,111]],"type":"Polygon","properties":{"name":"Bazar-Korgon","shapeGroup":"KGZ","gid":"KGZ-2-31"},"id":"KGZ-2-31"},{"arcs":[[-110,112,113,114]],"type":"Polygon","properties":{"name":"Nooken","shapeGroup":"KGZ","gid":"KGZ-2-32"},"id":"KGZ-2-32"},{"arcs":[[-63,115,116,-114,117]],"type":"Polygon","properties":{"name":"Aksy","shapeGroup":"KGZ","gid":"KGZ-2-33"},"id":"KGZ-2-33"},{"arcs":[[118,119,120,121]],"type":"Polygon","properties":{"name":"Kara-Buura","shapeGroup":"KGZ","gid":"KGZ-2-34"},"id":"KGZ-2-34"},{"arcs":[[-62,122,-120,123,124,-116]],"type":"Polygon","properties":{"name":"Chatkal","shapeGroup":"KGZ","gid":"KGZ-2-35"},"id":"KGZ-2-35"},{"arcs":[[-106,125,-124,-119,126]],"type":"Polygon","properties":{"name":"Bakay-Ata","shapeGroup":"KGZ","gid":"KGZ-2-36"},"id":"KGZ-2-36"},{"arcs":[[-28,-101,127,-111,-115,-117,-125,-126,-105]],"type":"Polygon","properties":{"name":"Toktogul","shapeGroup":"KGZ","gid":"KGZ-2-37"},"id":"KGZ-2-37"},{"arcs":[[-107,-127,-122,128]],"type":"Polygon","properties":{"name":"Manas","shapeGroup":"KGZ","gid":"KGZ-2-38"},"id":"KGZ-2-38"},{"arcs":[[-67,-104,-112,-128,-100,-94]],"type":"Polygon","properties":{"name":"Toguz-Toro","shapeGroup":"KGZ","gid":"KGZ-2-39"},"id":"KGZ-2-39"},{"arcs":[[-32,-39,129,-48,130,-45]],"type":"Polygon","properties":{"name":"Sokuluk","shapeGroup":"KGZ","gid":"KGZ-2-40"},"id":"KGZ-2-40"}]}}}