{"type":"Topology","arcs":[[[2332,7679],[-90,8],[-85,31],[-16,26],[-144,7],[-55,-24],[-108,-27],[-59,15],[-62,-39],[-49,-5],[-21,-51]],[[1643,7620],[-156,10],[-3,11],[-154,47],[-28,-13],[-260,73],[-72,-26],[-76,-53]],[[894,7669],[-2,256]],[[892,7925],[23,-1],[101,-93],[93,29],[143,77]],[[1252,7937],[117,22],[18,43]],[[1387,8002],[54,61],[94,42],[113,8],[-4,30],[226,12],[23,15]],[[1893,8170],[49,-3],[108,-87],[12,-106],[53,-48],[135,-63],[50,4],[41,-22],[-3,-36],[-44,-43],[38,-87]],[[2794,9049],[8,-41],[-18,-52]],[[2784,8956],[-35,-56],[22,-104],[-19,-112],[8,-59],[-13,-107],[44,-44]],[[2791,8474],[-81,-85]],[[2710,8389],[-248,48],[-21,-45],[-92,51],[40,83],[-307,93]],[[2082,8619],[55,71],[5,120],[60,40],[69,27],[-28,37]],[[2243,8914],[-20,58],[-25,136]],[[2198,9108],[39,30],[115,12],[91,95],[70,91],[83,-149],[64,-87],[134,-51]],[[1893,8170],[-44,134],[3,23],[-140,-4],[-11,88],[53,84]],[[1754,8495],[43,2],[0,54],[37,33],[62,14],[136,-17],[50,38]],[[2710,8389],[-25,-38],[1,-53],[46,-73],[-29,-19],[25,-45],[-19,-20],[31,-54],[0,-32],[-31,-46],[-17,-93],[38,-35],[-28,-25],[-23,-101],[47,-72],[8,-48]],[[2734,7635],[-53,-23],[-49,37],[-59,23],[-125,1],[-58,13],[-58,-7]],[[1252,7937],[-32,39],[-30,-21],[-61,12],[-48,52],[-55,32],[-27,76],[-27,28]],[[972,8155],[28,75],[63,4],[8,50],[-29,27],[-3,69],[-47,46],[-9,58],[-26,0],[-1,69],[-141,-1],[1,39]],[[816,8591],[80,36],[69,56],[65,128]],[[1030,8811],[17,0],[1,-141],[174,-39],[67,-4],[63,-29],[113,0],[2,-58]],[[1467,8540],[1,-175],[31,-36],[2,-50],[-50,-24],[-47,12],[-48,-37],[-3,-139],[22,-23],[12,-66]],[[1467,8540],[207,-49],[80,4]],[[2243,8914],[-90,-6],[-122,-44],[-28,20],[-31,-25],[-31,17],[-34,-19],[-9,-48],[-84,4],[-9,90],[-38,11],[-73,56],[-57,-11],[-63,124],[-78,10],[-361,0]],[[1135,9093],[51,27],[32,57],[84,53],[44,47],[69,8],[35,26],[-25,89],[8,81],[56,59],[5,67],[40,52],[-28,64],[22,46],[61,44],[93,5],[35,43],[50,22],[-3,28]],[[1764,9911],[120,-241],[7,-41],[108,-81],[100,8],[53,-18],[64,11],[-27,-67],[-1,-43],[-35,-36],[25,-36],[-23,-74],[-39,-43],[82,-142]],[[1030,8811],[63,85],[42,197]],[[892,7925],[-831,-9]],[[61,7916],[11,58],[-13,41],[-59,68],[16,48],[39,10],[23,36],[82,-28],[60,12],[45,-29],[52,5],[45,25],[119,-17],[116,54],[25,52],[112,7]],[[734,8258],[15,-14],[2,-109],[78,21],[65,-20],[62,35],[16,-16]],[[734,8258],[-95,54],[-98,75],[53,83],[222,121]],[[1447,7036],[343,-1],[0,-78],[99,-44]],[[1889,6913],[8,-93],[145,5],[13,-61],[31,15],[79,-2]],[[2165,6777],[-9,-22],[-62,-18],[21,-50],[70,-4],[27,-128],[30,8],[-1,-151]],[[2241,6412],[-135,-156],[-320,-161]],[[1786,6095],[-27,178],[36,59],[-105,161],[-115,47],[5,19],[-246,41],[-82,187]],[[1252,6787],[247,98],[-52,99],[0,52]],[[2332,7679],[18,-46],[51,-203],[-180,-29],[-102,-103],[-34,-12],[-2,-80],[44,-72],[0,-36]],[[2127,7098],[-43,-48],[-31,-125],[-164,-12]],[[1447,7036],[149,257],[-23,23],[31,65],[61,205],[-22,34]],[[2127,7098],[74,-16],[23,-81]],[[2224,7001],[40,-37],[-10,-64],[-39,-10],[-37,-42],[-13,-71]],[[1252,6787],[-99,3],[-212,145]],[[941,6935],[144,67],[-138,201],[-48,0]],[[899,7203],[-4,419]],[[895,7622],[-1,47]],[[2734,7635],[131,-53],[24,19],[55,-12]],[[2944,7589],[68,0],[6,-22],[65,-25],[7,-41],[59,-6],[37,-51],[77,14],[56,-12],[54,-50],[35,32],[60,-48]],[[3468,7380],[-29,-47],[-25,-86],[18,-12],[29,-98],[7,-152]],[[3468,6985],[-163,1],[-47,-22],[-349,209],[-281,143],[-65,-146],[-43,-18],[-73,-72],[-55,-26],[-5,-72],[-125,8],[-38,11]],[[3570,6717],[-72,-97],[30,-116],[-46,-5],[-28,-30],[-12,-116],[-133,-36],[-27,-28],[-3,-55],[37,-22],[-49,-79],[-18,-93],[43,-119],[-45,-63],[48,-36],[20,-45],[-25,-44],[4,-68]],[[3294,5665],[-396,119],[-48,-49],[-44,-13],[-44,-59],[-3,88],[29,91],[-48,37],[-153,-4],[-133,-205]],[[2454,5670],[7,77],[-11,30],[25,111],[17,11],[8,106],[29,62],[34,26],[20,98],[-100,83],[29,98],[-56,82]],[[2456,6454],[139,35],[127,43],[243,139],[104,12],[62,-5],[39,17],[65,-9],[52,21],[29,54],[84,17],[12,103],[54,70]],[[3466,6951],[27,-73],[61,-57],[7,-27],[47,-11],[18,-54],[-56,-12]],[[1786,6095],[-13,-22],[7,-72]],[[1780,6001],[-129,47],[-56,-4],[-251,24],[-272,-71],[-67,5]],[[1005,6002],[55,41],[-3,368]],[[1057,6411],[-2,347],[-140,193]],[[915,6951],[26,-16]],[[3468,6985],[-2,-34]],[[2456,6454],[-150,-37],[-65,-5]],[[1780,6001],[54,-131],[41,18],[37,-51],[-19,-22],[21,-66],[-31,-83],[-43,-33],[-17,-42],[-41,-37],[-17,-81],[-76,-63],[-14,-47]],[[1675,5363],[-37,-33],[-23,-57],[-55,-25],[-24,-28],[-92,10],[-57,-56],[-23,-38],[-93,38],[-67,-106],[-64,76]],[[1140,5144],[5,40],[-56,105],[-71,24],[8,42],[-42,50],[-115,106],[-39,101],[-45,7],[-3,69],[-67,10],[-126,109],[-89,-11],[-35,27]],[[465,5823],[376,66],[164,113]],[[895,7622],[-747,-8],[0,70],[-95,0]],[[53,7684],[19,99],[-17,69],[6,64]],[[899,7203],[-749,-8]],[[150,7195],[-16,54],[-41,50],[-21,82],[-27,11],[-4,48],[24,58],[-37,85],[25,101]],[[915,6951],[-39,24],[-76,15],[-38,-27],[-70,-24],[-76,-92],[23,-83],[-25,-69],[-36,-56],[-192,0]],[[386,6639],[38,30],[53,12],[-71,43],[-88,177],[-51,9],[-58,96],[3,37],[-47,50],[-15,102]],[[2454,5670],[-169,-2],[2,-208]],[[2287,5460],[-34,7],[-48,-38],[-60,-16],[-56,-61],[-44,20],[-94,-50],[-90,-32],[-8,-53],[-116,27],[-32,75],[-30,24]],[[3294,5665],[15,-64],[-53,-44],[-6,-44],[-43,-54],[-101,-4],[-101,-46],[-93,29],[-69,54],[-38,12]],[[2805,5504],[-126,49],[-52,-22],[-32,24],[-90,20],[-101,-47],[-41,-39],[-76,-29]],[[6798,4674],[8,-34],[-20,-40],[1,-86],[-18,-66],[-4,-111],[-25,-36],[-55,-26],[-10,-166],[31,-70],[92,-36]],[[6798,4003],[-33,-46],[-61,-152]],[[6704,3805],[-60,-61],[-34,10],[-24,-71],[-53,-62],[-38,-4],[-49,44],[-18,-15]],[[6428,3646],[-117,18],[14,110],[-39,44]],[[6286,3818],[28,153],[34,15],[37,82],[70,25],[17,64],[-5,62],[-29,78],[-31,3]],[[6407,4300],[42,125],[1,34],[40,64],[-8,122],[-67,84]],[[6415,4729],[73,15],[44,44],[71,-9],[38,16],[53,-23],[6,-35],[98,-63]],[[7649,5050],[33,-47],[51,-7],[13,-52],[-11,-51],[-41,-31],[-43,-66],[93,-71],[17,-80],[45,-49]],[[7806,4596],[-34,-39],[-63,-101],[-19,-57],[-82,-26]],[[7608,4373],[-75,102],[-56,38],[-86,33],[-83,54],[-69,57]],[[7239,4657],[-21,77],[13,60],[-57,50],[-21,82],[7,27],[-43,25],[-50,77],[34,29],[45,12],[33,36],[90,-4],[25,19],[43,-20],[68,14],[30,-39],[103,-4],[35,-34],[3,-32],[73,18]],[[6798,4674],[80,20],[117,-14],[4,-42],[56,10],[21,30],[40,-3]],[[7116,4675],[-23,-38],[-3,-62],[38,-47],[-7,-44],[-50,-20],[16,-71],[-18,-54],[-70,-110],[13,-115]],[[7012,4114],[2,-30],[-63,-16],[4,-27],[-77,9],[-80,-47]],[[7927,4060],[-100,-51],[-1,26],[-77,0],[2,42],[119,19],[38,54],[26,8]],[[7934,4158],[-7,-98]],[[7806,4596],[179,-31],[44,-23],[69,-3]],[[8098,4539],[-20,-166]],[[8078,4373],[45,-110],[-29,-64],[-83,-5],[-77,-36]],[[7927,4060],[-3,-86]],[[7924,3974],[-129,-51],[-55,6],[-51,-19],[-83,22]],[[7606,3932],[-42,176]],[[7564,4108],[53,52],[17,46],[-19,46],[12,78],[-19,43]],[[7012,4114],[62,1],[52,40],[36,-21],[60,-11],[10,-30],[98,13],[-2,68],[90,-13],[123,-58],[23,5]],[[7606,3932],[-140,10]],[[7466,3942],[-69,-1],[-34,-22],[-55,-6],[-30,16],[-3,49],[-43,7],[-48,-25],[-85,-86],[-25,-96],[-32,-46],[-43,-19],[-95,0],[-68,12]],[[6836,3725],[-42,6]],[[6794,3731],[-46,7],[-15,47],[-29,20]],[[7924,3974],[-37,-84],[28,-32]],[[7915,3858],[-29,-32],[-20,-139],[-71,-22]],[[7795,3665],[-24,36],[-86,12],[-30,29],[-49,-8],[-33,29],[-90,-14],[-20,-36],[-46,-11]],[[7417,3702],[-17,51],[3,79],[29,65],[34,45]],[[7116,4675],[38,-21],[21,-41],[50,-15],[14,59]],[[7417,3702],[-39,-74],[-52,-32]],[[7326,3596],[-94,-45],[-36,-39],[-61,-25],[8,-57]],[[7143,3430],[-88,15],[-47,-17],[-48,40],[-97,5],[-7,59],[17,69],[25,43],[-62,81]],[[7649,5050],[32,74],[3,51],[37,54],[3,51],[31,39],[-14,35]],[[7741,5354],[96,18],[44,-34],[44,-7],[45,-54],[92,9],[2,21],[57,74],[223,6],[94,-12],[156,25]],[[8594,5400],[9,-54],[29,-50],[47,-150],[19,-170],[-13,-51],[-74,-44],[9,-31],[-60,-24]],[[8560,4826],[-101,24],[-85,-2],[-93,38],[-59,-4],[-77,-56],[-34,-61],[-21,-112],[8,-114]],[[5661,5247],[82,-53],[22,-33],[-11,-82],[63,-65]],[[5817,5014],[-66,24],[-38,-3],[-38,31],[-21,-88],[-35,-21],[-128,87],[-43,-44],[-52,-11],[-40,17],[-38,-53],[-31,-11],[-32,-61],[-56,-23]],[[5199,4858],[-52,4],[-26,100],[11,22],[-66,41]],[[5066,5025],[30,103],[65,57],[42,10],[-32,92],[22,106],[-6,31]],[[5187,5424],[123,13],[68,-3],[84,-29],[48,-111],[38,-35],[51,-14],[40,-36],[22,38]],[[6407,4300],[-39,-14],[-42,-79],[-48,-19],[-69,-58],[-40,34],[-11,37],[17,97],[-29,60],[12,33],[-25,34]],[[6133,4425],[96,84],[-7,57],[-50,-1],[-114,76],[-51,9],[-11,43]],[[5996,4693],[20,73]],[[6016,4766],[78,-53],[112,-61],[35,25],[-59,82],[44,31],[20,50],[120,52]],[[6366,4892],[22,-105],[27,-58]],[[5996,4693],[-75,-14],[-41,20],[-6,62],[-31,50],[31,116],[19,21]],[[5893,4948],[41,-118],[82,-64]],[[5661,5247],[-95,76],[46,13],[71,-61],[26,16],[6,70],[-41,33],[-66,20],[-27,24],[-81,30],[24,50],[-8,41]],[[5516,5559],[67,54],[129,51],[83,13],[171,-71],[124,-75],[50,-14]],[[6140,5517],[142,-36]],[[6282,5481],[22,-25],[-26,-103],[37,-66],[26,-17],[-4,-42],[52,-9],[13,-48],[-19,-57],[14,-48],[49,32],[18,43]],[[6464,5141],[22,-77],[-17,-68],[-58,-35],[-45,-69]],[[5893,4948],[-26,50],[-50,16]],[[6286,3818],[-28,21],[-96,-18],[-21,-16],[47,-108],[-64,-30],[-52,-3]],[[6072,3664],[-46,71],[-32,124],[-77,15],[-32,59],[2,43],[-21,32],[-65,41],[17,35],[11,100],[-38,57]],[[5791,4241],[-1,3]],[[5790,4244],[53,18],[37,-14],[64,30],[50,1],[48,19],[56,46],[4,59],[31,22]],[[5790,4244],[-14,22],[-15,121],[6,36],[-46,38],[-98,47],[-20,-43],[-106,8],[-5,78],[25,74],[-17,65],[-31,34],[-4,40],[-48,18],[-31,-26],[-62,27],[-106,-19],[-23,29],[4,65]],[[6072,3664],[-66,-42],[-137,-3],[-85,-18]],[[5784,3601],[-64,-31],[-135,-128],[-71,-15],[-70,2],[-52,50],[-72,16]],[[5320,3495],[-68,104],[15,23],[-8,92],[46,53],[-24,25],[8,83],[-18,57],[4,40],[31,22],[71,-5],[87,50],[65,-13],[100,27],[98,-15],[0,78],[34,107],[30,18]],[[5320,3495],[-54,0],[-102,18],[-99,100],[-45,86],[13,36],[-48,69],[-70,48],[-57,146]],[[4858,3998],[18,56],[-30,73],[-80,23],[-25,58],[-26,102]],[[4715,4310],[-7,47],[-24,24],[-12,167],[-23,10],[1,62]],[[4650,4620],[16,114],[22,45],[84,84],[104,19],[51,61],[34,-1],[65,31],[40,52]],[[5560,2318],[171,-179],[-47,-63],[132,-31],[51,1],[88,-26]],[[5955,2020],[-15,-84],[7,-73],[-5,-97]],[[5942,1766],[-96,-18],[-129,13],[-98,31],[-71,32],[-53,49],[-51,-20],[-71,-1],[-126,37]],[[5247,1889],[-34,25]],[[5213,1914],[-37,54],[11,86],[50,63],[69,55],[46,119],[30,31],[1,36]],[[5383,2358],[32,-9],[35,-51],[50,-8],[60,28]],[[5425,2862],[42,-2],[40,-40],[53,-21],[60,10],[-6,-50],[34,-8],[-58,-84],[-81,-14],[-79,-3],[-49,54],[-21,70],[4,71],[61,17]],[[5560,2318],[63,92],[41,46],[46,1],[38,60],[36,18],[68,-72],[3,117],[13,77]],[[5868,2657],[65,-34],[21,37],[33,-20],[67,19],[17,-22],[63,-1],[61,-30],[-7,-31],[-126,-137]],[[6062,2438],[-55,-76],[-9,-97],[-37,-194]],[[5961,2071],[-6,-51]],[[4858,3998],[-32,-35],[0,-496],[-35,-20],[-7,-46],[19,-33],[67,-49],[8,-50],[57,-52],[-6,-98],[49,-17]],[[4978,3102],[-52,-44],[-23,-51],[68,-55],[2,-63],[-20,-67]],[[4953,2822],[-32,42],[-49,-13],[-36,48],[-86,-63],[-42,-62],[-99,40],[-51,5],[-54,31],[-40,-18],[-42,16],[-79,-36]],[[4343,2812],[-69,14],[-58,74],[-162,-35],[-28,50],[-55,52],[-43,6],[-64,41],[-61,55],[-48,58],[-2,1]],[[3753,3128],[-8,2],[-53,10],[14,158],[-46,46],[-21,46],[23,79],[-25,51],[48,43],[-29,117],[16,47],[101,-38],[78,19]],[[3851,3708],[44,14],[-6,33],[47,57],[58,18],[9,103],[55,31],[99,-31],[28,-70],[73,-7],[60,54],[53,11],[-33,79],[53,29],[52,72],[14,67],[-11,43],[83,23],[90,6],[33,-28],[40,81],[23,17]],[[6072,3664],[35,-13],[1,-54],[-59,-174],[-82,-163]],[[5967,3260],[-43,-176],[2,-106]],[[5926,2978],[-126,-16],[-88,3],[-49,36],[-37,2],[-41,-39],[-50,9],[-66,58],[-34,10],[-44,-52],[-54,-26],[-48,23]],[[5289,2986],[4,60],[63,33],[37,-3],[35,62],[48,18],[11,198],[97,3],[54,11],[31,30],[51,-15],[40,21],[26,56],[-14,84],[12,57]],[[5213,1914],[-22,-27],[-82,0]],[[5109,1887],[-29,9],[-80,-92],[-48,0],[-119,-30],[-83,3],[-46,18],[-60,63],[-34,59],[-188,58],[-77,-1]],[[4345,1974],[-25,41],[-8,56],[-43,-9],[13,74],[59,95],[-29,138],[17,70],[33,5],[5,42],[-30,42],[8,41],[-24,37],[-5,52]],[[4316,2658],[58,58],[-31,96]],[[4953,2822],[31,-43],[81,-39],[52,-13],[25,-33],[43,-16],[45,23],[59,-16],[34,-29],[-6,-73],[8,-72],[-8,-99],[66,-54]],[[4978,3102],[77,-33],[52,-33],[42,-9],[19,-33],[54,-12],[67,4]],[[5926,2978],[-25,-97],[-29,-192]],[[5872,2689],[-4,-32]],[[6464,5141],[-37,53],[21,63],[47,-8],[2,37],[105,-4],[42,64],[-17,32],[3,85],[112,34],[47,-46],[56,4],[36,27],[91,-57],[12,-28],[74,13],[27,-20],[64,25],[27,50],[112,32],[81,-32],[54,27],[38,-18],[84,-10],[81,15],[69,-96],[46,-29]],[[5516,5559],[-4,-44],[-97,-17],[-58,-33],[-58,36],[-52,0],[-22,45],[26,20],[57,-37],[105,-12],[29,40],[-10,30],[-42,23],[-52,53],[48,33],[22,91],[3,58],[-12,83],[-28,62]],[[5371,5990],[33,39],[67,5],[38,-62],[6,-63],[54,-32],[113,-11],[99,105],[-5,29],[54,116],[-21,61],[41,84],[53,63],[49,126],[32,40],[-2,62],[82,76],[13,26]],[[6077,6654],[60,-86],[253,-6],[47,-69],[16,-44],[-48,-83],[165,-72],[35,-22],[24,65],[99,-2],[45,18]],[[6773,6353],[-37,-58],[35,-45],[13,-66],[27,-27],[-29,-59],[30,-51],[4,-62]],[[6816,5985],[-92,-24],[-45,12],[-32,-41],[-65,-111]],[[6582,5821],[-24,40],[-32,3],[-5,117],[14,36],[-51,7],[-72,-9],[-13,-70],[-95,-41],[-51,-44],[-77,0],[-24,-38],[-6,-103],[-46,-51],[1,-79],[39,-72]],[[6582,5821],[17,-45],[0,-80],[28,-81],[-42,-16],[-16,-31],[20,-57],[-79,0],[-24,-46],[-56,-9],[-72,32],[-76,-7]],[[6077,6654],[-62,-3],[-15,-33],[-116,-43],[-26,60],[-43,49],[-7,50],[64,44],[-1,69],[-83,-5],[-14,14],[29,67],[3,41],[175,158],[5,61],[-64,15],[-26,57],[16,83],[1,81]],[[5913,7419],[104,61],[119,19],[36,-32],[44,7]],[[6216,7474],[105,12],[43,-8],[89,10],[39,-70],[-27,-87],[-43,-76],[-5,-66],[12,-67],[26,-26],[-2,-41],[42,-49],[12,-38],[63,-82],[48,-46],[62,-6],[70,44],[165,123]],[[6915,7001],[12,-122],[-2,-116],[12,-29]],[[6937,6734],[-45,15],[-30,-17],[-35,-79],[-11,-60],[6,-130],[-48,-54],[-1,-56]],[[6937,6734],[115,4],[59,-63],[27,-7],[24,-56],[72,-63],[66,48],[101,3],[21,-38],[5,-77],[18,-9],[6,-69],[-33,-144],[55,-59],[17,-61],[-13,-30]],[[7477,6113],[-40,-11],[-42,-38],[-385,0],[-92,-81],[-98,-60],[-4,62]],[[6915,7001],[127,69],[87,67],[94,144],[114,71],[105,44],[167,180],[36,51],[102,53],[123,44],[81,51],[112,31],[33,42]],[[8096,7848],[8,-15]],[[8104,7833],[27,-90],[-14,-104],[11,-53],[3,-133],[-6,-48],[50,-20],[46,-50],[5,-52]],[[8226,7283],[-2,-54],[29,-73],[13,-74],[77,-58],[32,-68],[-43,-115],[47,-135],[-17,-51],[16,-35],[70,-42],[-16,-59],[-39,-32],[16,-47],[43,-19],[30,-79],[-15,-49],[-33,-41],[34,-51],[-13,-52]],[[8455,6149],[-48,10],[-21,35],[-83,6],[-70,-36],[-49,9],[-69,-22],[-116,18],[-107,-3],[-28,15],[-84,7],[-55,-40],[-76,-30],[-121,8],[-51,-13]],[[8455,6149],[27,-90],[17,-19],[-13,-55]],[[8486,5985],[14,-42],[38,-46],[26,-153],[-14,-96],[31,-122],[13,-126]],[[5371,5990],[-22,30],[-115,47],[-63,-9],[-177,-58],[-136,0],[-86,30],[-30,100]],[[4742,6130],[92,135],[76,75],[12,29],[56,5],[80,46],[69,22],[27,82],[46,49],[26,7],[54,73],[34,-5],[61,79],[-21,15],[4,59],[30,12],[12,102],[2,173],[19,55],[79,47],[98,33],[40,114]],[[5638,7337],[128,24],[147,58]],[[5911,1275],[64,-103],[20,-65],[-1,-71],[54,-67]],[[6048,969],[-62,-46],[-13,-78],[-62,-83],[-1,-22]],[[5910,740],[-27,-19],[-66,-13],[9,121],[-31,23],[-10,53],[-159,-25],[-30,50],[-35,-8],[-12,44]],[[5549,966],[13,85],[-8,41],[74,-9],[14,36],[-22,36],[11,91]],[[5631,1246],[60,-5],[82,42],[99,10],[39,-18]],[[5910,740],[11,-144],[-8,-38],[86,-5],[10,-36],[4,-191]],[[6013,326],[-49,15],[-116,7],[-4,-27],[-74,-5],[-46,14]],[[5724,330],[-55,57],[-80,21],[-18,20],[-6,66],[-39,26]],[[5526,520],[-24,49],[1,128],[9,49],[42,31],[-51,33],[-3,132]],[[5500,942],[49,24]],[[5109,1887],[-2,-346],[6,-308],[-10,-34],[77,-49],[39,-2],[63,91],[30,12],[60,-28],[48,22],[43,-3],[67,20]],[[5530,1262],[35,-19],[66,3]],[[5500,942],[-95,-17],[-114,29],[-95,41],[-46,-60],[-113,47],[-64,-62]],[[4973,920],[-47,73],[-93,12],[-34,46],[-272,0],[-30,98],[-38,71],[2,56],[-31,113],[7,127],[-27,13],[-23,76]],[[4387,1605],[13,38],[-40,47],[45,33],[-19,89],[4,98],[-45,64]],[[5247,1889],[0,-155],[52,11],[61,-31],[34,-33],[79,4],[55,-82],[42,-102],[8,-146],[-48,-93]],[[5526,520],[-32,37],[-90,32],[-6,-25],[-131,20],[-104,-8]],[[5163,576],[-38,113],[4,66],[-43,-13],[-61,34],[-26,33],[2,62],[-28,49]],[[5724,330],[-29,-12],[-12,-62],[-59,-30],[-4,-50],[-39,-64],[-60,-19],[-50,-93],[-50,67],[-101,-20],[-59,58]],[[5261,105],[19,19],[-30,89],[25,8],[-21,76],[-38,17],[-33,41],[-1,72],[-57,19]],[[5125,446],[42,57],[-4,73]],[[5125,446],[-106,-12],[-68,8],[-43,38],[-25,-106]],[[4883,374],[-56,56],[-77,-4]],[[4750,426],[-64,60],[22,45],[-13,45],[-62,-11],[4,40],[-76,1],[-50,-22],[17,-38],[57,-69],[60,-28],[-47,-51]],[[4598,398],[-48,11],[-87,-43],[-127,6],[-101,53],[-42,5],[-41,30],[-94,11],[-46,54]],[[4012,525],[79,39],[37,121],[-26,96],[-29,12],[-54,95],[-6,50],[31,28],[-2,59],[31,49],[-48,61],[7,58],[-29,23],[36,59],[4,109],[-44,30]],[[3999,1414],[142,104],[59,68],[54,0],[12,-28],[61,11],[60,36]],[[4750,426],[-89,-69],[-63,41]],[[5872,2689],[26,26],[108,-35],[10,25],[75,1]],[[6091,2706],[77,19],[16,-16]],[[6184,2709],[52,-56],[128,-10],[54,-20],[81,34],[43,-18]],[[6542,2639],[47,0],[21,-24]],[[6610,2615],[25,-63],[-20,-43],[-49,-42],[7,-85]],[[6573,2382],[-40,0],[-15,30],[-49,23],[-67,5],[-36,-25],[-45,1],[-87,28],[-74,-18],[-38,-24],[-60,36]],[[7434,2324],[-47,34],[-155,23],[-68,-17]],[[7164,2364],[-4,92],[-27,21],[-115,4],[-67,67],[-112,52],[32,33],[1,48],[-21,33],[-41,20]],[[6810,2734],[-6,129],[39,61]],[[6843,2924],[78,-32],[96,-67],[105,-58],[54,-51],[186,-133],[21,-42]],[[7383,2541],[12,-85],[29,-69],[10,-63]],[[7143,3430],[-10,-71],[-57,-22],[-32,-76],[28,-48],[-54,-25],[-17,-55],[20,-18],[15,-132]],[[7036,2983],[-46,35],[-12,71],[-30,39],[-6,43],[-49,21],[-7,-39],[-72,41],[-42,-45],[30,-69],[-19,-33],[-67,-30],[-44,20],[-73,-19]],[[6599,3018],[-33,120],[14,52],[53,93],[25,84]],[[6658,3367],[19,31],[93,105],[10,49],[-44,43],[-38,8],[-12,33],[30,45],[78,50]],[[7145,2160],[3,-57],[-27,-44],[0,-98],[23,-24],[1,-85],[-59,-94],[11,-30],[-3,-115],[-33,-29],[58,-107],[-1,-67],[-53,-78]],[[7065,1332],[-58,-6],[-7,22],[35,51],[-21,36],[-74,-18],[-2,-47],[-64,-15],[-2,-36],[-41,-50]],[[6831,1269],[-12,27],[26,50],[-29,89],[-3,78],[-62,9],[-37,26],[18,60],[-13,20],[36,107]],[[6755,1735],[28,59],[-4,91],[12,33],[-7,61]],[[6784,1979],[74,84],[-27,32],[-3,61],[44,7],[127,-6],[146,3]],[[7434,2324],[14,-141],[-24,-66]],[[7424,2117],[-24,-60],[-40,-36],[-2,-70],[-29,-81],[-100,-110],[6,-155],[-33,-184],[15,-114]],[[7217,1307],[-88,30],[-64,-5]],[[7145,2160],[0,145],[19,59]],[[6843,2924],[-56,11],[-110,7],[-59,30]],[[6618,2972],[-15,11]],[[6603,2983],[-4,35]],[[7036,2983],[5,-10]],[[7041,2973],[20,-55],[46,-26],[32,13],[43,-32],[57,3],[31,-59],[42,-30],[-1,-33],[72,-56],[69,-24],[24,-59]],[[7476,2615],[-93,-74]],[[6658,3367],[-58,60],[-71,5],[-2,-48],[-41,-68],[-2,-49],[-99,-8]],[[6385,3259],[-13,19]],[[6372,3278],[20,12],[-8,82],[17,67],[38,26],[-16,50],[32,77],[-27,54]],[[5967,3260],[39,32],[50,1],[43,-58]],[[6099,3235],[-40,-175],[8,-27]],[[6067,3033],[-39,-49],[22,-48],[30,5],[72,-70],[0,-43],[-59,-62],[-2,-60]],[[6372,3278],[-39,101],[-43,-1],[-15,-70],[-50,-43],[-111,-14],[-15,-16]],[[6610,2615],[25,34],[2,59],[34,19]],[[6671,2727],[139,7]],[[6784,1979],[-80,3],[-18,24],[14,54],[-12,44],[-90,49]],[[6598,2153],[-45,74],[32,76],[-12,79]],[[6542,2639],[-11,98],[8,46]],[[6539,2783],[64,24]],[[6603,2807],[39,-69],[29,-11]],[[3126,2261],[82,-74],[-30,-155],[21,-44],[-35,-43],[-83,16]],[[3081,1961],[-99,8],[-100,-64],[-21,-51],[0,-96],[-40,-34],[-9,-78],[-52,-97],[-8,-53],[-33,-71],[28,-76],[11,-84],[-44,-8],[-52,-43],[-50,12],[-32,-29],[-49,79],[-86,41],[-109,20],[-36,-12],[-39,-55],[-58,-47],[-55,-19]],[[2148,1204],[-39,32],[-31,57],[22,47],[45,25],[-19,70],[97,31],[65,50],[-36,40],[-18,63],[1,64],[71,-6],[36,28],[8,47],[33,34],[2,37],[76,133],[-28,99],[27,41]],[[2460,2096],[71,30],[33,27],[26,-27],[19,82],[18,31],[38,6],[46,51],[27,54]],[[2738,2350],[50,-25],[71,13],[34,-23],[-18,-51],[-38,-44],[289,41]],[[2148,1204],[-52,-5],[-80,24],[-4,41],[-80,56],[-7,79],[32,40],[-4,149],[-26,86],[0,55],[54,61],[-9,78],[-52,169],[-50,76],[-52,-23],[-18,20],[63,40],[-15,41],[29,29],[-16,45],[56,16],[37,36],[95,41]],[[2049,2358],[2,-52],[41,-7],[14,-63],[52,-44],[0,-34],[59,-47],[34,10],[209,-25]],[[1639,2612],[7,-27],[73,29],[52,-110],[-17,-75],[34,-33],[-9,-35],[12,-70],[-43,-115],[-22,-17],[-61,46],[-30,116],[24,33],[-26,83],[-1,57],[-22,76],[29,42]],[[2049,2358],[-27,78],[-57,-17],[-53,44],[-32,160],[-78,42],[-74,-41],[-18,31],[9,59],[-56,91]],[[1663,2805],[49,16],[100,3],[101,-37],[38,33],[-2,155],[-17,50]],[[1932,3025],[71,-24],[8,46],[42,42],[26,-23],[54,-7],[31,18],[52,110],[61,-26],[40,23],[170,-23],[136,-137],[197,-172],[15,-54],[-10,-145],[67,-117],[-15,-44],[-53,-59],[-58,-35],[-28,-48]],[[1904,3191],[12,-130],[-90,-3],[-40,-13],[-14,-114],[-97,0],[-18,44],[-55,30],[13,140],[20,37],[60,-2],[6,-34],[63,-1],[29,26],[111,20]],[[1663,2805],[-15,56],[-43,23],[-45,63],[13,27],[-39,73],[-6,44],[-59,126],[-10,71],[0,168],[-17,60],[-47,79],[-49,17],[-75,116],[-43,106],[7,41],[-16,65],[-40,41],[-40,72],[-20,76],[7,39]],[[1126,4168],[46,-21],[442,-30],[60,-13],[284,-124],[130,-14],[63,23],[35,28]],[[2186,4017],[-29,-307],[-77,-397],[-46,-51],[-48,-118],[-1,-75],[-59,-10],[6,-34]],[[4316,2658],[-166,-121],[-68,-90],[-117,-135],[-5,-48],[-42,-25],[-27,-70],[-34,-54],[44,-131],[24,-45],[-40,-21],[4,-32],[-35,-60],[-46,-39],[13,-68],[-30,1],[-29,-39],[-65,-24],[-28,-59],[20,-115],[-7,-67],[13,-31]],[[3695,1385],[-70,-28],[-57,-64],[-70,-28],[-31,26]],[[3467,1291],[-37,98],[-47,89],[-37,50],[17,65],[-43,75],[32,19],[-18,49],[-68,28],[-32,-10],[-55,22],[-98,185]],[[3126,2261],[-64,55],[-24,86],[5,102],[73,53],[49,63],[38,-7],[84,45],[21,37],[-32,35],[11,45],[-12,85],[61,93],[89,8],[38,-7],[72,58],[41,4],[55,-27],[72,36],[21,37],[14,51],[6,9],[9,6]],[[2186,4017],[77,-1],[13,35],[48,-8],[46,41],[47,-25],[54,16],[20,60],[63,40],[48,17],[2,78],[52,51],[-7,40],[25,29],[54,-16],[51,-39],[63,36],[29,40],[48,-40],[47,13]],[[2966,4384],[192,-135],[53,-75],[74,-27],[8,-72],[95,-52],[57,-6],[8,-43],[55,-49],[49,32],[40,-36],[34,21],[46,-7],[106,-132],[29,-66],[39,-29]],[[9818,4023],[-29,4],[-68,-35],[-24,70],[0,41],[25,24],[-20,74],[-41,14],[-25,37],[-63,18],[-29,38],[-71,-19],[-15,33],[-82,1],[-8,37],[46,37],[2,52],[-51,50],[-59,-9]],[[9306,4490],[7,38],[-63,75],[-2,29],[-117,-13],[-41,55],[-94,-20],[-58,12],[-44,-32],[-26,7]],[[8868,4641],[-32,93],[0,41]],[[8836,4775],[123,13],[221,8],[56,-4],[51,21],[40,42],[40,77],[9,44]],[[9376,4976],[39,16],[59,60],[57,5],[81,-10],[53,11]],[[9665,5058],[-17,-68],[12,-50],[-21,-37],[-19,-78],[79,-18],[46,-62],[-1,-28],[39,-50],[9,-53],[89,-12],[96,15],[-2,-31],[45,-42],[0,-45],[-62,-26],[6,-26],[-62,-69],[1,-97],[-19,-26],[63,-35],[-78,-102],[-7,-38],[-44,-57]],[[9323,5250],[-21,57],[-53,53],[-30,76],[18,45]],[[9237,5481],[41,-42],[27,61],[75,-1],[46,-67],[70,43],[-1,-105],[-50,-64],[1,-91],[-107,53],[-16,-18]],[[8486,5985],[175,-82],[78,-45],[103,-16],[84,5],[66,59],[51,1],[71,-39],[60,-13],[47,-77],[45,-41]],[[9266,5737],[32,-61],[6,-65],[-12,-46],[-55,-84]],[[9323,5250],[3,-121],[12,-53],[30,-52],[8,-48]],[[8836,4775],[-39,7],[-130,-7],[-57,6],[-50,45]],[[8226,7283],[46,-2],[32,-25],[117,-38],[73,3],[143,-76],[7,-21],[143,-107],[63,-10],[44,-23],[51,2],[59,42],[123,49],[-4,23],[54,93],[-1,76],[46,5],[55,-32],[53,49],[-6,40],[22,57],[67,67],[3,31],[69,85],[-13,24],[69,37],[35,2]],[[9576,7634],[63,-6],[96,9],[42,-20],[90,22],[3,39],[66,57],[78,-18],[135,4]],[[10149,7721],[1,-100],[17,-52],[-28,-118],[16,-56],[47,-103],[76,-37],[59,-66],[17,-55],[-39,-10],[-156,12],[-25,-36],[-14,-63],[15,-93],[90,-112],[62,-29],[31,-60],[116,-20],[84,-54],[79,-38],[164,-110],[49,-63]],[[10810,6458],[-2,-126],[-32,-63],[-141,-129],[-74,-12],[-65,-39],[-15,-25]],[[10481,6064],[-96,-64],[-44,-46],[-44,-79]],[[10297,5875],[-86,64],[-38,1],[-52,52],[-44,100],[-54,14],[-99,42],[-72,0],[-94,-43],[-50,-12],[-56,-37],[-62,-118],[-88,-6],[-39,-31],[-40,3],[-49,-29],[-100,-78],[-8,-60]],[[9665,5058],[22,83],[42,21],[86,-13],[46,-28],[135,9],[45,18],[53,57],[18,41],[33,2],[49,59],[3,51],[-21,50],[33,25]],[[10209,5433],[56,-26],[257,-166],[44,0],[28,-34],[106,-51],[62,-172],[38,-61],[49,-23],[135,-40],[59,-7],[107,-59],[46,-45],[10,-36],[85,-110],[-23,-102],[15,-43],[-20,-50],[21,-80]],[[11284,4328],[-103,-128],[-33,-86],[-59,-70],[-97,-23],[-44,49],[-42,-6],[-4,-45],[-53,27],[-242,-16],[-53,30],[-36,-28],[-67,11],[-38,40],[-33,-7],[-23,-36],[-51,3]],[[10306,4043],[-31,11],[-36,-47],[-46,-21],[-148,35],[-73,-26],[-145,5],[-9,23]],[[10297,5875],[-15,-28],[-13,-94],[-82,-199],[-14,-83],[36,-38]],[[10481,6064],[189,-84],[25,-18],[45,-72],[48,-41],[69,-24],[60,-57],[99,-28],[31,12],[48,50],[41,12],[53,-67],[127,31],[47,-41],[60,-13],[65,35],[61,-71],[125,-42],[85,-64],[59,-33],[86,-31]],[[11904,5518],[-30,-193],[15,-39]],[[11889,5286],[-34,-38],[-141,-12],[-115,-34],[-60,0],[-22,21],[-108,38],[-47,50],[-30,-10],[-2,-279],[41,10],[55,-29],[76,21],[76,9],[81,32],[13,-126],[25,-39],[91,-45],[29,-59],[-24,-63],[36,-91],[8,-58],[44,-2],[13,-70],[-8,-63]],[[11886,4449],[-21,-43],[-65,-64],[-131,-38],[-62,-29],[-75,7],[-70,19],[-37,-18],[-67,38],[-74,7]],[[10149,7721],[69,11],[103,33],[200,-112],[41,-51],[49,-17],[62,9],[42,-45],[68,-38],[18,10]],[[10801,7521],[349,-246],[77,-73],[138,-34],[81,-28],[98,3]],[[11544,7143],[82,-6],[73,26],[42,-16],[64,26],[65,-6],[43,-33],[41,48],[50,35],[-2,65],[18,111],[-43,54],[-6,45],[90,-8],[42,18],[25,36],[60,-13],[5,-32],[80,-10],[106,69],[7,62],[26,22],[62,-24],[56,-126],[116,15]],[[12646,7501],[79,-99],[54,9],[69,67],[58,16],[42,45],[33,5],[77,-90],[80,8],[81,-42],[51,56],[46,-7]],[[13316,7469],[-139,-341],[-136,-371],[-8,-63],[33,-67],[-43,-18],[22,-161]],[[13045,6448],[-68,-2],[-29,-53],[-61,-33],[-83,-24],[-31,34],[-38,-15],[-63,1],[-30,20],[-98,11],[-43,-24],[-123,3],[-45,42],[-42,12],[-11,32],[-58,-20],[-188,-89],[-125,-74],[-42,8],[-26,45],[-71,66],[-5,45],[-77,31],[-72,-24],[-84,0],[-44,-24],[-67,-1],[-108,-24],[-77,9],[-127,3],[-99,-18],[-110,26],[-90,47]],[[11889,5286],[46,3],[50,-62],[71,-38],[64,-6],[55,-68],[68,-40],[142,44],[6,33],[91,143],[22,12],[-11,88],[13,61]],[[12506,5456],[110,11],[136,-2],[27,-37],[-21,-26],[27,-36],[-10,-85],[24,-3],[-2,-61],[18,-32],[133,-107],[224,-3]],[[13172,5075],[3,-33],[-91,-83],[-105,-44],[-8,-26],[-52,-28],[-30,-115],[-47,1],[-72,63],[5,36],[-27,42],[-58,52],[-45,13],[-63,-11],[-25,16],[-54,-16],[-30,8],[-100,-76],[-53,10],[-46,-12],[-20,-30],[-69,-14],[-39,-71],[-4,-52],[-66,-32],[-50,-94],[-94,-76],[-46,-54]],[[13045,6448],[7,-73],[32,-22],[38,-75],[36,-15],[34,-44],[22,-75],[-8,-106],[20,-51],[-21,-30],[58,-94],[-29,-31],[-4,-64],[43,-115],[-17,-44],[26,-57],[-69,-109],[44,-55],[-37,-64],[6,-42],[-60,-100],[-1,-40],[28,-53],[-21,-14]],[[12506,5456],[-3,80],[15,71],[-82,-9],[-5,23],[-54,33],[-47,95],[-7,33],[-58,-46],[-31,13],[-88,-43],[-38,-81],[-61,-36],[-90,-19],[-41,7],[-12,-59]],[[6537,2967],[81,5]],[[6618,2972],[-50,-68]],[[6568,2904],[-39,-11],[-48,55]],[[6481,2948],[24,24]],[[6505,2972],[32,-5]],[[6537,2967],[-36,38]],[[6501,3005],[4,33]],[[6505,3038],[33,14]],[[6538,3052],[36,-58],[29,-11]],[[6505,2972],[-4,33]],[[6481,2948],[-20,3]],[[6461,2951],[-8,88],[22,17]],[[6475,3056],[30,-18]],[[6184,2709],[14,53],[73,13],[8,50],[50,-3],[87,30],[7,27]],[[6423,2879],[93,-7],[3,-95],[20,6]],[[6423,2879],[-32,0],[-3,60]],[[6388,2939],[73,12]],[[6568,2904],[35,-97]],[[6475,3056],[-28,57],[-33,31],[-1,42],[-39,23]],[[6374,3209],[31,23]],[[6405,3232],[27,-36],[66,-30],[29,-30],[11,-84]],[[6388,2939],[7,58],[-75,-3],[-29,34]],[[6291,3028],[22,29],[11,113],[50,39]],[[6067,3033],[19,21],[75,11],[33,43],[31,-17],[10,-45],[56,-18]],[[6405,3232],[-20,27]],[[7094,8630],[70,-57],[167,-36],[28,13],[90,-53],[128,-39],[171,-14],[235,-106],[80,27],[64,-12],[54,-37]],[[8181,8316],[2,-92],[-24,-135],[10,-137],[-57,-70],[-7,-25]],[[8105,7857],[-82,22],[-233,2],[-123,9],[-101,-9],[-125,-40],[-42,-1],[-95,50],[-10,40],[19,30],[-57,25],[14,50],[-62,10],[-20,32],[33,35],[-44,17],[-31,72],[-66,17],[-18,75],[-24,31]],[[7038,8324],[24,36],[-23,93],[44,9],[-17,40],[-37,9],[-35,37],[49,60],[51,22]],[[7094,8630],[33,63],[3,49],[-31,57],[-60,38],[10,41],[103,107],[48,114]],[[7200,9099],[39,145],[32,82],[18,93],[91,-2],[73,-57],[73,22],[70,69],[4,19],[123,27],[11,28]],[[7734,9525],[43,28],[45,-15],[69,8],[128,61],[125,73],[75,-59],[35,28],[90,-77],[-9,-26],[88,14],[39,-13],[54,-57],[37,53],[60,-30],[113,-34],[-8,-98],[23,-54],[79,-57],[24,-35],[153,-103],[13,-28]],[[9010,9104],[-75,-39],[-282,3],[-117,-16],[-25,-19],[4,-52],[29,-18],[-6,-38],[-83,-11],[-35,31],[-80,-18],[-37,-29],[-49,59],[-48,21],[-133,-91],[-23,-68],[24,-53],[-17,-69],[29,-79],[39,-24],[40,-79],[31,-142],[-15,-57]],[[7200,9099],[-657,5]],[[6543,9104],[-48,2],[-90,32],[-55,1],[-98,-20],[-57,3],[-83,22],[-101,-2],[-66,18],[-99,52],[-94,33],[-192,25],[-45,51],[-53,92],[-65,57],[-37,18]],[[5360,9488],[63,80],[66,54],[0,28],[-46,21],[-65,54],[-50,70],[55,79],[-22,92],[8,80],[17,46],[5,64]],[[5391,10156],[22,38],[59,42],[91,-53],[77,-3],[37,12],[-5,37],[61,59],[29,5],[68,64],[30,-5],[17,-53],[52,-8],[61,90],[128,-71],[30,48],[102,35],[31,-49],[37,-6],[-1,-37],[71,19],[25,24],[86,-48],[42,5],[61,-49],[66,26],[73,-68],[-43,-123],[47,-40],[44,-100],[6,-59],[59,-36],[10,-32],[149,-2],[95,73],[19,32],[-7,78],[64,77],[-23,31],[23,49],[77,-8],[-2,-78],[45,-72],[42,-29],[15,-35],[6,-74],[45,-75],[23,-68],[56,-28],[67,-15],[8,-40],[86,-100],[82,-11]],[[6543,9104],[-78,-133],[-28,-107],[-41,-103],[-52,-70],[-4,-41],[60,-92]],[[6400,8558],[-78,-32],[-151,-42],[-96,-80],[-62,-108],[-15,-59],[-75,-131],[-5,-39]],[[5918,8067],[-64,-47],[-86,-29],[-48,48],[-69,-5],[-45,10],[-49,50],[-190,20]],[[5367,8114],[-120,7],[3,34],[-23,59],[19,41],[37,16],[11,53],[29,51],[1,38],[-32,49],[1,85],[-51,79],[15,41],[-50,34],[-27,74],[-65,13],[52,61],[10,36],[67,152],[34,26],[-1,46]],[[5277,9109],[14,86],[-25,59],[29,79],[1,53],[25,68],[39,34]],[[6216,7474],[94,82],[49,54],[70,154],[103,100],[101,111],[48,133],[23,196]],[[6704,8304],[24,-18],[112,-43],[66,21],[61,59],[71,1]],[[8105,7857],[-9,-9]],[[5638,7337],[17,60],[-17,58],[19,56],[-14,104],[16,61],[64,90],[89,64],[39,64],[-1,59],[87,97],[-19,17]],[[6400,8558],[100,-94],[192,-151]],[[6692,8313],[12,-9]],[[6692,8313],[78,120],[149,66],[23,41],[-1,55],[-32,23],[-15,42],[-39,17],[32,45],[-122,34],[-36,93],[-108,8],[-38,-31],[-16,-101],[-49,-98],[-59,-52],[-59,-17]],[[7892,2461],[48,-44],[18,-80],[37,7],[52,-95],[58,-49]],[[8105,2200],[-37,-43],[-68,-13],[-3,-71],[-95,-92]],[[7902,1981],[-68,42],[-92,40],[-47,39],[-73,10],[-16,55],[-43,26]],[[7563,2193],[-26,60],[51,45],[-26,121],[76,-2],[0,51],[64,35],[1,59]],[[7703,2562],[45,8],[74,-61],[0,-53],[70,5]],[[8784,3080],[1,-3]],[[8785,3077],[-68,-28],[-95,1],[-40,-30],[-93,-31],[-8,-47],[-33,-32],[20,-64],[-52,-75],[12,-65],[-33,-76]],[[8395,2630],[-88,69],[-79,85]],[[8228,2784],[-7,28],[-84,10],[-17,45],[39,72],[8,75],[-93,-15],[-14,39],[-64,58],[-35,53],[-74,63]],[[7887,3212],[104,24],[113,15],[68,-35],[55,-100],[42,-37],[128,8],[-8,90],[-2,158],[49,31],[86,6],[37,29]],[[8559,3401],[29,-76],[60,-41],[21,-30],[8,-62],[80,-97],[27,-15]],[[8105,2200],[115,8],[19,-85],[37,-65]],[[8276,2058],[11,-126],[16,-48],[41,-37],[-56,-55],[-27,-50],[2,-73],[-61,-113],[73,-33],[12,-56]],[[8287,1467],[-194,-57],[-102,-10],[-57,43],[-55,-25],[-62,46]],[[7817,1464],[15,38],[39,29],[19,151],[28,120],[-25,111],[9,68]],[[7887,3212],[-82,-16],[-67,-31],[-35,2]],[[7703,3167],[-8,43],[34,59],[34,18]],[[7763,3287],[72,60],[18,27],[101,-7],[33,68],[42,51]],[[8029,3486],[62,-14],[97,-6],[110,-18],[78,2],[44,-11]],[[8420,3439],[88,10],[51,-48]],[[7892,2461],[-1,34],[43,5],[3,47],[22,42],[47,16],[23,85],[95,13],[46,45],[58,36]],[[8395,2630],[-10,-65],[6,-146],[-6,-48],[43,-155]],[[8428,2216],[-65,22],[-48,-60],[1,-31],[-40,-89]],[[7424,2117],[79,-26]],[[7503,2091],[-16,-75],[37,-32],[7,-46],[-28,-23],[16,-83],[-68,-5],[-55,-27],[4,-68],[70,4],[7,-42],[55,-66],[37,-83],[2,-50],[23,-23],[14,-70],[32,-22],[45,-94]],[[7685,1286],[-94,-112],[-184,94],[-66,-10],[-124,49]],[[7476,2615],[30,-2],[11,60]],[[7517,2673],[23,27],[138,-34],[48,-31]],[[7726,2635],[-23,-73]],[[7563,2193],[-60,-102]],[[7326,3596],[6,-23],[63,-40],[25,-49],[76,-33],[69,-42],[10,-46],[90,-43],[51,-7],[47,-26]],[[7703,3167],[-15,-65],[-92,-50]],[[7596,3052],[-64,24],[-23,-77],[-43,-6],[-2,58],[-87,2],[-17,67],[-89,-44],[-53,27],[-21,-61],[-39,-1],[-117,-68]],[[7817,1464],[-51,-96],[-81,-82]],[[7517,2673],[-6,48],[-48,73],[1,89],[133,-12],[47,-104],[47,1]],[[7691,2768],[38,-35],[-3,-98]],[[7596,3052],[12,-109],[48,0],[45,-28],[38,-81],[-15,-56],[-33,-10]],[[7795,3665],[-13,-88],[15,-47],[65,-50],[46,27],[87,-5],[34,-16]],[[3570,6717],[101,-73],[17,-44],[-21,-26],[19,-35],[-2,-62],[26,-40],[73,15],[75,-26],[54,-86],[46,3],[19,-50]],[[3977,6293],[-27,-62],[98,-70],[-2,-56],[-29,-33],[-12,-61],[-30,-34],[5,-54],[-23,-99],[-34,6],[-14,-60],[14,-60],[-16,-96]],[[3907,5614],[-30,-140],[-56,-6],[-36,14],[-93,-9],[-19,-24],[7,-68]],[[3680,5381],[-135,65],[-9,-75],[-71,-24],[-38,-38],[-2,-51],[-86,-60],[-221,-106],[-105,117],[-98,160],[-34,32]],[[2881,5401],[-32,59],[-44,44]],[[3977,6293],[49,-3],[8,-52],[49,13],[19,-46],[42,-25],[58,-5],[50,-49],[123,4],[31,39],[63,-42],[48,-11],[-34,-76],[51,-33],[25,10],[-41,-105],[19,-43]],[[4537,5869],[-1,-35],[-35,-38],[-37,-66],[-23,-75],[-110,-4],[-76,-27],[-54,-48],[-9,-40]],[[4192,5536],[-102,-3],[-48,17],[-45,-19],[5,56],[-66,-25],[-29,52]],[[4650,4620],[-37,7],[-39,46],[-174,123],[-45,95],[-82,24],[12,77],[-44,32],[-14,62],[-24,29]],[[4203,5115],[25,61],[-29,85],[51,57],[-19,80],[-36,69],[-3,69]],[[4537,5869],[15,40],[38,-13],[-2,-42],[32,-99],[27,2],[21,-72],[30,-56],[39,-39],[96,-8],[29,-29],[117,-32],[46,-34],[24,6],[44,-38],[94,-31]],[[2966,4384],[-18,66],[40,75],[-17,36],[52,188],[0,88],[-17,46],[-29,8],[-2,68],[-47,75],[-16,121],[18,32],[-64,82],[29,48],[-31,61],[17,23]],[[3680,5381],[1,-24],[44,-56],[56,-41],[54,-13],[41,-67],[9,-43],[86,-42],[73,62],[43,-18],[25,-72],[36,-37],[55,85]],[[1126,4168],[-14,34],[-9,101],[-87,88],[-10,44],[-36,33],[-35,88],[21,58],[-9,21],[25,58],[-12,91],[31,109],[-7,80],[7,78],[39,55],[110,38]],[[12653,9607],[9,-65],[58,-60],[-4,-126],[-21,-18],[73,-98],[53,1],[53,21],[41,-7],[28,-41],[-6,-128],[41,-22],[2,-79],[-41,-52],[45,-34],[-41,-75],[16,-32],[-27,-55]],[[12932,8737],[-86,-23],[-72,56],[-64,11],[-1,71],[-94,-53]],[[12615,8799],[-52,-35],[-131,10],[-32,38],[-56,3],[-61,38],[-58,-27]],[[12225,8826],[-28,-7],[6,90],[-29,81],[33,30],[-9,53]],[[12198,9073],[0,102],[13,10],[-6,77],[53,7],[123,112],[157,205],[57,28],[58,-7]],[[12011,8590],[-16,-80],[27,-27],[-4,-60],[-27,-45],[26,-75]],[[12017,8303],[-4,-64],[-45,-53],[-77,24],[8,36],[-69,44],[-7,28],[-56,33],[-36,66],[-12,51],[-25,16]],[[11694,8484],[-26,41]],[[11668,8525],[-12,61],[94,50],[98,21],[45,-1],[16,-39],[66,-7],[36,-20]],[[12615,8799],[-3,-105],[-54,-18],[-35,-47],[-18,-76],[-36,-15],[-13,-50],[14,-71],[-5,-174],[11,-16]],[[12476,8227],[-96,-12],[-81,22],[-155,7],[-100,33],[-27,26]],[[12011,8590],[62,21],[17,28],[53,13],[4,62],[44,40],[34,72]],[[10801,7521],[6,42],[44,46],[-18,75],[-35,32],[15,75],[-97,172],[-9,61],[-46,69],[-56,22],[1,301],[57,7],[84,26],[78,52],[36,45],[13,56],[52,58],[15,38],[-25,69],[11,43]],[[10927,8810],[42,-17],[153,-33],[27,-29],[78,-5],[87,-49],[64,20],[40,34],[71,5]],[[11489,8736],[-9,-36],[92,-32],[-42,-64],[44,-44],[45,-2],[49,-33]],[[11694,8484],[-62,-101],[-15,-84],[-32,-48],[0,-38],[-49,-75],[-12,-54],[24,-20],[-27,-89],[-43,-26],[-10,-57],[17,-30],[-21,-43],[-46,1],[7,-54],[74,-63],[8,-96],[42,-28],[3,-42],[-61,-130],[46,-25],[-3,-71],[28,-35],[-25,-92],[7,-41]],[[12476,8227],[59,-80],[-24,-41],[36,-51],[38,-206],[43,-23],[80,-92],[-5,-37],[38,-87],[-80,-74],[-15,-35]],[[11489,8736],[103,38],[-1,35],[-40,100],[74,78],[41,-14],[103,134],[15,59],[73,23],[102,11]],[[11959,9200],[17,-62],[32,-30],[73,-2],[117,-33]],[[12932,8737],[46,-39],[61,-17],[107,-81],[42,-122],[46,-81],[5,-99],[112,-252],[7,-63],[20,-349],[-62,-165]],[[11959,9200],[-97,177],[4,43],[50,84],[47,26],[-37,128],[-50,25],[-20,63],[15,26],[-53,64],[-7,118],[-42,36],[-6,96],[3,106]],[[11766,10192],[15,-11],[50,108],[77,50],[-23,71],[66,-11],[37,-34],[15,-80],[70,-5],[86,52],[50,6],[27,45],[55,45],[7,67],[46,29],[48,-24],[53,35],[-13,77],[19,52],[38,-3],[23,46],[-7,29],[42,46],[74,9],[90,-65],[-3,-29],[34,-38],[51,6],[104,-48],[49,100],[-8,63],[40,88],[51,0],[29,43],[44,27],[13,70],[32,37],[47,-58],[-9,-69],[21,-47],[-39,-41],[-48,-22],[-6,-83],[24,-50],[-46,-125],[-20,-33],[-1,-70],[-41,-75],[-2,-56],[-54,-6],[-45,35],[-24,-94],[-29,-14],[-92,-125],[-3,-32],[40,-44],[7,-87],[-24,-40],[20,-36],[-27,-27],[-51,-117],[-92,-122]],[[10927,8810],[-19,75],[-41,27],[5,76]],[[10872,8988],[-24,23],[1,86],[-21,21],[-14,82],[4,48],[40,2],[63,-19],[32,28],[72,-6],[26,28],[123,51],[83,121],[2,27],[-77,204],[-19,27],[4,97],[18,63],[-13,21],[-19,204],[0,101],[22,66]],[[11175,10263],[35,-16],[42,-101],[73,-76],[88,-28],[33,39],[77,-8],[3,53],[62,-10],[67,-40],[54,0],[30,53],[-7,61],[34,2]],[[3833,8498],[-34,-48],[-131,-74],[-82,-118]],[[3586,8258],[-35,-36],[-90,0],[-41,15],[-55,79],[-214,-1]],[[3151,8315],[31,133],[51,28],[0,115]],[[3233,8591],[-2,115],[46,109],[66,36],[131,2],[50,14]],[[3524,8867],[35,-44],[-21,-85],[-36,-2],[-97,-64],[60,-30],[271,1],[123,-35],[61,-45],[-68,-39],[-19,-26]],[[3833,8498],[86,-38],[51,21],[58,-36]],[[4028,8445],[-18,-51],[9,-71],[-11,-93],[32,-80],[-50,-47],[16,-37],[-13,-65],[22,-41],[7,-56],[-33,-38]],[[3989,7866],[-4,32],[-248,0]],[[3737,7898],[15,21],[-51,72],[-46,3],[-8,65],[28,47],[0,48],[-89,104]],[[4028,8445],[171,56],[44,24],[33,-11],[31,67],[101,93]],[[4408,8674],[18,-46],[37,-3],[34,-65],[-11,-58],[-48,-71],[2,-68],[31,-44],[-5,-55],[-53,-26],[-12,-83],[62,-76],[49,-99]],[[4512,7980],[-36,-60],[-1,-62],[-38,-23],[-35,23],[-56,-17]],[[4346,7841],[-45,4],[-16,-41],[-33,-22],[-66,1]],[[4186,7783],[-171,8],[-4,51],[-22,24]],[[4742,6130],[-87,163]],[[4655,6293],[-3,974],[53,71],[74,54],[-56,79],[22,84],[0,197]],[[4745,7752],[33,-31],[35,13],[44,47],[232,6],[51,-22],[56,24],[42,97],[-14,37],[9,45],[55,49],[8,35],[47,19],[24,43]],[[2791,8474],[73,37],[44,79],[48,35],[207,-69],[70,35]],[[3151,8315],[-59,-97],[-3,-65],[-73,-99],[-20,-57],[-51,-22],[-35,-97],[-30,-22],[14,-34],[9,-123],[41,-110]],[[3737,7898],[-57,-63],[-69,-2],[3,-47],[47,-3],[-9,-104],[-52,-32],[-22,-65],[15,-104],[-29,-45],[-25,-75]],[[3539,7358],[-71,22]],[[4346,7841],[0,-179],[19,-20],[3,-122],[35,-10],[-1,-52],[-32,-30],[-52,-21],[-40,-64],[1,-228]],[[4279,7115],[-110,75],[-32,0],[-74,39],[-87,5]],[[3976,7234],[-1,398],[133,-1],[70,45],[8,107]],[[3976,7234],[-120,51],[-47,-10],[-32,21],[-50,1],[-188,61]],[[4512,7980],[7,-33],[60,-23],[65,7],[47,-41],[-43,-49],[5,-80],[92,-9]],[[4655,6293],[-44,67],[-18,67],[18,48],[-29,79],[-54,36],[-36,136],[-41,121],[-40,82],[-61,99],[-71,87]],[[2784,8956],[109,59],[146,-13],[86,30],[30,50],[81,48],[53,64],[115,-28]],[[3404,9166],[24,-18],[55,-89],[41,-46],[0,-146]],[[4408,8674],[95,46],[-32,125],[11,55],[-26,82],[35,59],[0,104]],[[4491,9145],[93,17],[38,-8]],[[4622,9154],[62,-50],[76,-23],[112,78],[28,-15],[47,20],[50,-14],[57,8],[35,-12],[30,30],[79,-6],[79,-61]],[[3404,9166],[23,12],[353,1]],[[3780,9179],[715,4],[-4,-38]],[[2482,562],[7,-41],[-41,-7],[8,-57],[48,-26],[-1,-76],[-103,113],[-12,56],[94,38]],[[3141,649],[23,-49],[2,-77],[-56,-40],[11,-45],[-20,-48]],[[3101,390],[-49,78],[-41,46],[-59,14],[-31,34],[25,61],[49,21],[64,105]],[[3059,749],[58,-6],[-1,-55],[25,-39]],[[2272,966],[60,-65],[-9,-47],[19,-39],[57,12],[33,-37],[32,3],[16,-37],[-51,-49],[-38,1],[-28,-67],[-24,7],[-22,105],[-45,35],[-58,-12],[-22,27],[2,49],[-51,5],[31,86],[56,-16],[42,39]],[[3172,259],[25,3],[23,-60],[-52,-11],[4,68]],[[3587,296],[46,-5],[62,-40],[3,-115],[-69,-42],[-80,80],[23,28],[-5,62],[20,32]],[[4012,525],[-48,75],[0,37],[-55,22],[-71,-22],[39,-77],[-104,-142],[-60,-114],[-55,25],[-115,-7],[-2,-57],[-24,-25],[-58,27],[-60,3],[-18,-24],[-116,-10],[-46,19],[17,72],[-29,54],[-35,23],[-43,-49],[-28,35]],[[3141,649],[83,47],[85,-60],[90,32],[137,69],[-35,37],[-100,53],[-12,46],[37,3],[84,88],[86,103],[23,40],[19,109],[36,103],[68,-35]],[[3742,1284],[6,-3],[251,133]],[[3695,1385],[37,-51],[10,-50]],[[3059,749],[-4,66],[66,20],[27,35],[33,-18],[99,10],[80,38],[-13,41],[34,26],[-5,49],[39,55],[37,10],[34,72],[-2,58],[-17,80]],[[9576,7634],[-1,71],[-26,14]],[[9549,7719],[-37,108],[-122,120],[-32,113],[-32,74],[70,32],[38,30],[73,107],[24,52],[58,72],[75,175],[83,110],[40,70],[-78,72]],[[9709,8854],[809,-5],[42,25],[312,114]],[[8104,7833],[148,34],[67,51],[81,-54],[33,-71],[91,-21],[74,-70],[105,-37],[20,-29],[71,-51],[27,-45],[38,-14],[52,18],[48,53],[-43,86],[15,65],[46,50],[28,121],[84,101]],[[9089,8020],[-9,-100],[29,-81],[158,24],[161,-172],[62,24],[59,4]],[[9709,8854],[-61,119],[-4,39],[-63,48],[-48,-4]],[[9533,9056],[1,69],[-18,93],[43,30],[53,61],[22,-6],[73,31],[7,50],[25,45],[-111,67],[-56,53],[-26,94],[-3,103],[-60,9],[-88,34],[-40,64],[-23,88],[21,21],[-41,116],[-38,-8],[-17,32],[-6,64],[37,44],[47,-54],[39,-4],[64,19],[68,57],[66,-37],[59,34],[39,-47],[66,-7],[44,54],[22,-17],[63,86],[0,75],[37,41],[-25,56],[21,48],[40,-29],[68,-11],[13,-44],[83,-31],[100,39],[101,-8],[29,57],[44,52],[-24,56],[31,24],[74,-33],[11,29],[-42,46],[5,33],[40,20],[62,56],[52,24],[52,2],[38,-74],[6,-69],[26,-34],[-16,-62],[60,21],[69,-58],[13,-63],[47,-34],[48,2],[18,-27],[96,-23],[32,-20],[24,34],[47,-24],[32,-67],[-2,-35]],[[9089,8020],[61,67],[59,83],[53,54],[67,134],[29,1],[-14,153],[38,55],[-59,86],[-21,105],[14,95],[45,63],[10,68],[-64,94]],[[9307,9078],[224,-44],[2,22]],[[9010,9104],[36,-18],[84,11],[110,-27],[67,8]],[[9654,1490],[-27,-15],[19,-93],[-33,-66],[64,-74],[62,-120],[4,-128],[-60,55],[-162,-9],[-73,7],[-91,60]],[[9357,1107],[69,113],[2,57],[-71,64],[20,135],[-28,65]],[[9349,1541],[66,75],[49,30],[62,-113],[55,-34],[38,11],[35,-20]],[[9357,1107],[-65,52],[-86,91],[-82,52],[30,-68],[-66,-53],[15,-61],[-95,13],[-126,50],[40,92],[-62,91],[-83,100],[-26,50]],[[8751,1516],[70,-25],[68,42],[-19,22],[24,52]],[[8894,1607],[48,19],[46,40]],[[8988,1666],[9,-71],[43,-104],[62,-40],[37,20],[-1,54],[-28,48],[0,56],[67,16]],[[9177,1645],[49,-35],[86,-22],[37,-47]],[[8923,2281],[85,-1],[27,-15],[4,-111],[61,-71]],[[9100,2083],[-52,-50],[-45,-66],[-52,-24],[-118,-7]],[[8833,1936],[-33,-1],[-59,-41]],[[8741,1894],[-69,80],[-88,118],[12,67],[-44,80]],[[8552,2239],[163,24],[62,18],[17,22],[129,-22]],[[8785,3077],[12,-60],[30,-27],[81,-1],[55,-48],[12,-67],[-15,-26],[14,-66],[-26,-57],[74,-56],[-46,-73],[-30,-17],[12,-39],[-20,-41],[32,-17],[-15,-94],[-20,-24],[5,-53],[-17,-30]],[[8552,2239],[-124,-23]],[[8741,1894],[-58,-11],[-35,12],[-38,-15],[-10,-38],[23,-34],[39,-15],[23,-59],[32,-11],[31,-49],[127,-4],[19,-63]],[[8751,1516],[-45,100],[-134,-20],[-77,-56],[-71,-38],[-137,-35]],[[8833,1936],[32,-115],[14,-87],[109,-68]],[[9100,2083],[72,-43],[30,6],[98,-36],[10,-87],[13,-27],[100,-63],[28,-43],[31,7]],[[9482,1797],[-71,-51],[-77,0],[-199,-51],[42,-50]],[[9482,1797],[57,-79],[32,45],[84,32],[82,-124],[24,-152],[25,-42],[-40,-16],[-92,29]],[[6831,1269],[-19,-12],[16,-64],[35,-75]],[[6863,1118],[-34,14],[-167,153],[-14,23]],[[6648,1308],[-65,79],[-5,68],[-97,-13],[-57,15],[5,38],[-27,24]],[[6402,1519],[-14,50],[-43,29],[-18,37]],[[6327,1635],[-2,61],[33,32]],[[6358,1728],[57,0],[36,18],[21,52],[32,-4],[1,-63],[250,4]],[[6598,2153],[-38,-23],[4,-52],[-164,-1],[-82,-8]],[[6318,2069],[-58,6],[-76,34],[-53,-57],[-50,6],[-18,-23],[-47,32],[-55,4]],[[6863,1118],[23,-50],[-5,-45],[19,-53],[33,-16],[37,-49],[16,-90],[-265,-155]],[[6721,660],[5,73],[48,6],[0,290],[-69,70],[-47,0],[-45,23],[-103,18],[-36,-18],[-93,1]],[[6381,1123],[-15,-1],[1,117],[69,0],[23,70],[189,-1]],[[6048,969],[45,-5],[23,-41],[37,38],[123,14]],[[6276,975],[-25,-65],[45,1],[29,-120],[51,-88],[102,-1],[42,21],[42,-10],[-2,-56],[64,-62]],[[6624,595],[-53,-64],[-94,-164],[-70,-64],[-291,-12],[-103,35]],[[6721,660],[-97,-65]],[[6276,975],[82,7],[32,37],[5,49],[-14,55]],[[6358,1728],[-28,25],[25,86],[3,126],[-37,65],[-3,39]],[[6327,1635],[-87,11],[-39,-12],[-85,2]],[[6116,1636],[-57,22],[14,84],[-80,-4],[-51,28]],[[6402,1519],[-144,0],[9,-89],[-31,-79],[-55,0],[-8,67],[-86,15]],[[6087,1433],[17,47],[12,156]],[[6087,1433],[-41,2],[-34,-46],[-29,-86],[-72,-28]],[[3780,9179],[-2,420]],[[3778,9599],[-1,316],[3,262]],[[3780,10177],[32,47],[47,-13],[53,-73],[103,-4],[49,-16],[20,52],[83,9],[33,-22],[81,-13],[102,4],[60,23],[41,71],[75,-15],[-3,-35],[62,-6]],[[4618,10186],[4,-1032]],[[1764,9911],[63,62],[1,28],[55,23],[92,15],[38,18],[-5,34],[104,39],[52,-5],[73,-25],[108,69],[50,-5],[86,22],[44,-14],[118,3],[56,14],[45,64]],[[2744,10253],[20,-122],[65,-95],[-26,-78],[-34,-17],[-6,-66],[-29,-83],[-33,-39],[-6,-62],[-32,-45],[-10,-53],[16,-72]],[[2669,9521],[-12,-56],[31,-57],[70,-40],[21,-88],[-2,-123],[27,-38],[9,-52],[-19,-18]],[[2669,9521],[27,-5],[86,20],[98,11],[188,-6],[98,26],[82,-4],[73,-33],[41,-3],[87,32],[155,4],[83,-32],[41,44],[50,24]],[[2744,10253],[41,21],[39,-58],[41,-10],[39,59],[35,6],[3,58],[65,14],[85,37],[53,4],[71,-30],[38,-46],[89,43],[7,49],[74,1],[49,-23],[-20,-102],[26,-31],[53,16],[50,-36],[45,-12],[84,6],[1,-33],[68,-9]],[[4618,10186],[35,10],[-4,46],[34,16],[81,-44],[67,22],[17,39],[58,44],[41,-22],[76,-67],[85,-12],[58,22],[19,-15],[74,0],[45,-31],[79,-10],[8,-28]],[[5261,105],[-82,32],[-59,82],[-46,15]],[[5074,234],[22,64],[-17,29],[-1,82],[47,37]],[[5074,234],[-102,-51],[-33,17],[-3,79],[-53,95]],[[465,5823],[-52,104],[16,25],[-10,66],[83,72],[-8,130],[-37,14],[0,45],[-34,23],[16,41],[-2,63]],[[437,6406],[620,5]],[[437,6406],[-13,64],[-41,85],[39,34],[-36,50]],[[9306,4490],[-41,-13],[-52,-64],[-35,-26],[-18,-62],[8,-83],[25,-55],[5,-52],[56,-90],[3,-229],[36,-43],[28,-110]],[[9321,3663],[-67,83],[-91,0],[-53,52],[-57,-21],[-33,17],[-82,-38],[-35,24],[-42,-4],[-27,77],[-67,-6]],[[8767,3847],[-31,126],[143,128],[-34,61],[-52,23],[-63,157]],[[8730,4342],[18,42],[-2,74],[20,42],[23,90],[79,51]],[[8730,4342],[-64,39],[-26,-38],[-47,7],[-72,65],[1,45],[-53,0],[-15,-28],[-55,-45],[-46,0],[-76,83],[-42,-11],[-56,-62],[-101,-24]],[[10306,4043],[138,-273],[-50,-3],[-23,-67],[25,-34],[-71,-122],[-9,-52],[29,-84],[66,-94],[-7,-51],[-89,18],[-40,35],[-83,13],[-70,-39],[-55,-14],[-47,14],[-73,63],[-9,38],[-42,20],[-94,2],[-81,48],[-71,-28],[-56,23],[-69,8],[-31,42],[-55,29],[-68,5],[-47,-11]],[[9324,3529],[10,106],[-13,28]],[[7915,3858],[110,32],[26,-31],[68,-24],[79,-59],[8,-106],[53,17],[66,-16],[56,5],[43,-21],[29,-64]],[[8453,3591],[8,-28],[-43,-26],[2,-98]],[[8453,3591],[60,17],[74,-7],[73,48],[10,54],[67,68],[7,56],[23,20]],[[9324,3529],[-33,-59],[13,-38],[-32,-83],[-64,-51],[10,-43],[-75,-71],[-66,23],[-88,70],[-89,-30],[-34,-41],[-40,-75],[-36,1],[-6,-52]],[[8516,4077],[-1,-92],[38,-30],[8,-34],[-52,-56],[26,-41],[-11,-47],[-31,-20],[-75,7],[-25,83],[-83,58],[-2,131],[14,68],[57,-23],[137,-4]]],"transform":{"scale":[0.00039571168847538107,0.00038798900332094187],"translate":[102.33384779734463,10.404743572087645]},"objects":{"KHM":{"type":"GeometryCollection","geometries":[{"arcs":[[0,1,2,3,4,5,6]],"type":"Polygon","properties":{"name":"Mongkol Borei","shapeGroup":"KHM","gid":"KHM-2-0"},"id":"KHM-2-0"},{"arcs":[[7,8,9,10,11,12,13]],"type":"Polygon","properties":{"name":"Phnum Srok","shapeGroup":"KHM","gid":"KHM-2-1"},"id":"KHM-2-1"},{"arcs":[[-7,14,15,-11,16,17]],"type":"Polygon","properties":{"name":"Preah Netr Preah","shapeGroup":"KHM","gid":"KHM-2-2"},"id":"KHM-2-2"},{"arcs":[[-5,18,19,20,21,22]],"type":"Polygon","properties":{"name":"Ou Chrov","shapeGroup":"KHM","gid":"KHM-2-3"},"id":"KHM-2-3"},{"arcs":[[-6,-23,23,-15]],"type":"Polygon","properties":{"name":"Serei Saophoan","shapeGroup":"KHM","gid":"KHM-2-4"},"id":"KHM-2-4"},{"arcs":[[-13,24,25,26]],"type":"Polygon","properties":{"name":"Thma Puok","shapeGroup":"KHM","gid":"KHM-2-5"},"id":"KHM-2-5"},{"arcs":[[-12,-16,-24,-22,27,-25]],"type":"Polygon","properties":{"name":"Svay Chek","shapeGroup":"KHM","gid":"KHM-2-6"},"id":"KHM-2-6"},{"arcs":[[-4,28,29,30,-19]],"type":"Polygon","properties":{"name":"Malai","shapeGroup":"KHM","gid":"KHM-2-7"},"id":"KHM-2-7"},{"arcs":[[-20,-31,31]],"type":"Polygon","properties":{"name":"Paoy Paet","shapeGroup":"KHM","gid":"KHM-2-8"},"id":"KHM-2-8"},{"arcs":[[32,33,34,35,36,37]],"type":"Polygon","properties":{"name":"Banan","shapeGroup":"KHM","gid":"KHM-2-9"},"id":"KHM-2-9"},{"arcs":[[-1,38,39,-33,40]],"type":"Polygon","properties":{"name":"Thma Koul","shapeGroup":"KHM","gid":"KHM-2-10"},"id":"KHM-2-10"},{"arcs":[[-34,-40,41,42]],"type":"Polygon","properties":{"name":"Battambang","shapeGroup":"KHM","gid":"KHM-2-11"},"id":"KHM-2-11"},{"arcs":[[-2,-41,-38,43,44,45,46]],"type":"Polygon","properties":{"name":"Bavel","shapeGroup":"KHM","gid":"KHM-2-12"},"id":"KHM-2-12"},{"arcs":[[-18,47,48,49,50,-42,-39]],"type":"Polygon","properties":{"name":"Aek Phnum","shapeGroup":"KHM","gid":"KHM-2-13"},"id":"KHM-2-13"},{"arcs":[[51,52,53,54,55]],"type":"Polygon","properties":{"name":"Moung Ruessei","shapeGroup":"KHM","gid":"KHM-2-14"},"id":"KHM-2-14"},{"arcs":[[-37,56,57,58,59,60,-44]],"type":"Polygon","properties":{"name":"Rotonak Mondol","shapeGroup":"KHM","gid":"KHM-2-15"},"id":"KHM-2-15"},{"arcs":[[-35,-43,-51,61,-55,62]],"type":"Polygon","properties":{"name":"Sangkae","shapeGroup":"KHM","gid":"KHM-2-16"},"id":"KHM-2-16"},{"arcs":[[-58,63,64,65,66]],"type":"Polygon","properties":{"name":"Samlout","shapeGroup":"KHM","gid":"KHM-2-17"},"id":"KHM-2-17"},{"arcs":[[-3,-47,67,68,-29]],"type":"Polygon","properties":{"name":"Sampov Lun","shapeGroup":"KHM","gid":"KHM-2-18"},"id":"KHM-2-18"},{"arcs":[[-46,69,70,-68]],"type":"Polygon","properties":{"name":"Phnum Proek","shapeGroup":"KHM","gid":"KHM-2-19"},"id":"KHM-2-19"},{"arcs":[[-45,-61,71,72,-70]],"type":"Polygon","properties":{"name":"Kamrieng","shapeGroup":"KHM","gid":"KHM-2-20"},"id":"KHM-2-20"},{"arcs":[[-36,-63,-54,73,74,-64,-57]],"type":"Polygon","properties":{"name":"Koas Krala","shapeGroup":"KHM","gid":"KHM-2-21"},"id":"KHM-2-21"},{"arcs":[[-53,75,76,-74]],"type":"Polygon","properties":{"name":"Rukh Kiri","shapeGroup":"KHM","gid":"KHM-2-22"},"id":"KHM-2-22"},{"arcs":[[77,78,79,80,81,82,83]],"type":"Polygon","properties":{"name":"Batheay","shapeGroup":"KHM","gid":"KHM-2-23"},"id":"KHM-2-23"},{"arcs":[[84,85,86,87]],"type":"Polygon","properties":{"name":"Chamkar Leu","shapeGroup":"KHM","gid":"KHM-2-24"},"id":"KHM-2-24"},{"arcs":[[-78,88,89,90]],"type":"Polygon","properties":{"name":"Cheung Prey","shapeGroup":"KHM","gid":"KHM-2-25"},"id":"KHM-2-25"},{"arcs":[[91,92]],"type":"Polygon","properties":{"name":"Kampong Cham","shapeGroup":"KHM","gid":"KHM-2-26"},"id":"KHM-2-26"},{"arcs":[[-86,93,94,95,-92,96,97,98,99]],"type":"Polygon","properties":{"name":"Kampong Siem","shapeGroup":"KHM","gid":"KHM-2-27"},"id":"KHM-2-27"},{"arcs":[[-79,-91,100,-99,101,102,103,104]],"type":"Polygon","properties":{"name":"Kang Meas","shapeGroup":"KHM","gid":"KHM-2-28"},"id":"KHM-2-28"},{"arcs":[[-98,105,106,107,108,-102]],"type":"Polygon","properties":{"name":"Kaoh Soutin","shapeGroup":"KHM","gid":"KHM-2-29"},"id":"KHM-2-29"},{"arcs":[[-87,-100,-101,-90,109]],"type":"Polygon","properties":{"name":"Prey Chhor","shapeGroup":"KHM","gid":"KHM-2-30"},"id":"KHM-2-30"},{"arcs":[[-103,-109,110,111,112]],"type":"Polygon","properties":{"name":"Srei Santhor","shapeGroup":"KHM","gid":"KHM-2-31"},"id":"KHM-2-31"},{"arcs":[[-85,113,114,115,116,-94]],"type":"Polygon","properties":{"name":"Stueng Trang","shapeGroup":"KHM","gid":"KHM-2-32"},"id":"KHM-2-32"},{"arcs":[[117,118,119,120,121]],"type":"Polygon","properties":{"name":"Baribour","shapeGroup":"KHM","gid":"KHM-2-33"},"id":"KHM-2-33"},{"arcs":[[-83,122,123,124,125,126]],"type":"Polygon","properties":{"name":"Chol Kiri","shapeGroup":"KHM","gid":"KHM-2-34"},"id":"KHM-2-34"},{"arcs":[[-125,127,128]],"type":"Polygon","properties":{"name":"Kampong Chhnang","shapeGroup":"KHM","gid":"KHM-2-35"},"id":"KHM-2-35"},{"arcs":[[-118,129,130,131,132,133,-126,-129,134]],"type":"Polygon","properties":{"name":"Kampong Leaeng","shapeGroup":"KHM","gid":"KHM-2-36"},"id":"KHM-2-36"},{"arcs":[[-82,135,136,137,138,-123]],"type":"Polygon","properties":{"name":"Kampong Tralach","shapeGroup":"KHM","gid":"KHM-2-37"},"id":"KHM-2-37"},{"arcs":[[-119,-135,-128,-124,-139,139]],"type":"Polygon","properties":{"name":"Rolea B'ier","shapeGroup":"KHM","gid":"KHM-2-38"},"id":"KHM-2-38"},{"arcs":[[-137,140,141,142]],"type":"Polygon","properties":{"name":"Sameakki Mean Chey","shapeGroup":"KHM","gid":"KHM-2-39"},"id":"KHM-2-39"},{"arcs":[[-120,-140,-138,-143,143,144,145,146]],"type":"Polygon","properties":{"name":"Tuek Phos","shapeGroup":"KHM","gid":"KHM-2-40"},"id":"KHM-2-40"},{"arcs":[[147,148,149,150,151,152]],"type":"Polygon","properties":{"name":"Basedth","shapeGroup":"KHM","gid":"KHM-2-41"},"id":"KHM-2-41"},{"arcs":[[153]],"type":"Polygon","properties":{"name":"Chbar Mon","shapeGroup":"KHM","gid":"KHM-2-42"},"id":"KHM-2-42"},{"arcs":[[-148,154,155,156,157]],"type":"Polygon","properties":{"name":"Kong Pisei","shapeGroup":"KHM","gid":"KHM-2-43"},"id":"KHM-2-43"},{"arcs":[[-145,158,159,160,161,162,163]],"type":"Polygon","properties":{"name":"Aoral","shapeGroup":"KHM","gid":"KHM-2-44"},"id":"KHM-2-44"},{"arcs":[[-141,164,165,166,167]],"type":"Polygon","properties":{"name":"Odongk","shapeGroup":"KHM","gid":"KHM-2-45"},"id":"KHM-2-45"},{"arcs":[[-152,168,169,170,171,-161,172]],"type":"Polygon","properties":{"name":"Phnum Sruoch","shapeGroup":"KHM","gid":"KHM-2-46"},"id":"KHM-2-46"},{"arcs":[[-153,-173,-160,173,-167,174,175,-155],[-154]],"type":"Polygon","properties":{"name":"Samraong Tong","shapeGroup":"KHM","gid":"KHM-2-47"},"id":"KHM-2-47"},{"arcs":[[-142,-168,-174,-159,-144]],"type":"Polygon","properties":{"name":"Thpong","shapeGroup":"KHM","gid":"KHM-2-48"},"id":"KHM-2-48"},{"arcs":[[-84,-127,-134,176,-114,-88,-110,-89]],"type":"Polygon","properties":{"name":"Baray","shapeGroup":"KHM","gid":"KHM-2-49"},"id":"KHM-2-49"},{"arcs":[[-131,177,178,179,180,181,182]],"type":"Polygon","properties":{"name":"Kampong Svay","shapeGroup":"KHM","gid":"KHM-2-50"},"id":"KHM-2-50"},{"arcs":[[-132,-183,183]],"type":"Polygon","properties":{"name":"Stueng Saen","shapeGroup":"KHM","gid":"KHM-2-51"},"id":"KHM-2-51"},{"arcs":[[-180,184,185,186,187,188]],"type":"Polygon","properties":{"name":"Prasat Ballangk","shapeGroup":"KHM","gid":"KHM-2-52"},"id":"KHM-2-52"},{"arcs":[[-181,-189,189,190]],"type":"Polygon","properties":{"name":"Prasat Sambour","shapeGroup":"KHM","gid":"KHM-2-53"},"id":"KHM-2-53"},{"arcs":[[-188,191,192,193,194,195,-190]],"type":"Polygon","properties":{"name":"Sandan","shapeGroup":"KHM","gid":"KHM-2-54"},"id":"KHM-2-54"},{"arcs":[[-115,-177,-133,-184,-182,-191,-196,196,197]],"type":"Polygon","properties":{"name":"Santuk","shapeGroup":"KHM","gid":"KHM-2-55"},"id":"KHM-2-55"},{"arcs":[[-179,198,199,200,-185]],"type":"Polygon","properties":{"name":"Stoung","shapeGroup":"KHM","gid":"KHM-2-56"},"id":"KHM-2-56"},{"arcs":[[201,202,203,204,205]],"type":"Polygon","properties":{"name":"Angkor Chey","shapeGroup":"KHM","gid":"KHM-2-57"},"id":"KHM-2-57"},{"arcs":[[-204,206,207,208,209,210]],"type":"Polygon","properties":{"name":"Banteay Meas","shapeGroup":"KHM","gid":"KHM-2-58"},"id":"KHM-2-58"},{"arcs":[[-170,211,212,-205,-211,213,214,215]],"type":"Polygon","properties":{"name":"Chhuk","shapeGroup":"KHM","gid":"KHM-2-59"},"id":"KHM-2-59"},{"arcs":[[-151,216,-212,-169]],"type":"Polygon","properties":{"name":"Chum Kiri","shapeGroup":"KHM","gid":"KHM-2-60"},"id":"KHM-2-60"},{"arcs":[[-210,217,218,-214]],"type":"Polygon","properties":{"name":"Dang Tong","shapeGroup":"KHM","gid":"KHM-2-61"},"id":"KHM-2-61"},{"arcs":[[-209,219,220,221,-218]],"type":"Polygon","properties":{"name":"Kampong Trach","shapeGroup":"KHM","gid":"KHM-2-62"},"id":"KHM-2-62"},{"arcs":[[-215,-219,-222,222,223,224,225,226,227]],"type":"Polygon","properties":{"name":"Tuek Chhou","shapeGroup":"KHM","gid":"KHM-2-63"},"id":"KHM-2-63"},{"arcs":[[-225,228]],"type":"Polygon","properties":{"name":"Kampot","shapeGroup":"KHM","gid":"KHM-2-64"},"id":"KHM-2-64"},{"arcs":[[-156,-176,229,230,231,232,233,234]],"type":"Polygon","properties":{"name":"Kandal Stueng","shapeGroup":"KHM","gid":"KHM-2-65"},"id":"KHM-2-65"},{"arcs":[[235,236,237,238,239]],"type":"Polygon","properties":{"name":"Kien Svay","shapeGroup":"KHM","gid":"KHM-2-66"},"id":"KHM-2-66"},{"arcs":[[-104,-113,240,241,242,243]],"type":"Polygon","properties":{"name":"Khsach Kandal","shapeGroup":"KHM","gid":"KHM-2-67"},"id":"KHM-2-67"},{"arcs":[[244,245,246,247,248]],"type":"Polygon","properties":{"name":"Kaoh Thum","shapeGroup":"KHM","gid":"KHM-2-68"},"id":"KHM-2-68"},{"arcs":[[-236,249,250,251,-245,252]],"type":"Polygon","properties":{"name":"Leuk Daek","shapeGroup":"KHM","gid":"KHM-2-69"},"id":"KHM-2-69"},{"arcs":[[-239,253,254,255,-242,256,257,258]],"type":"Polygon","properties":{"name":"Lvea Aem","shapeGroup":"KHM","gid":"KHM-2-70"},"id":"KHM-2-70"},{"arcs":[[-80,-105,-244,259,260,261]],"type":"Polygon","properties":{"name":"Mukh Kampul","shapeGroup":"KHM","gid":"KHM-2-71"},"id":"KHM-2-71"},{"arcs":[[-166,262,263,264,-230,-175]],"type":"Polygon","properties":{"name":"Angk Snuol","shapeGroup":"KHM","gid":"KHM-2-72"},"id":"KHM-2-72"},{"arcs":[[-81,-262,265,-263,-165,-136]],"type":"Polygon","properties":{"name":"Ponhea Lueu","shapeGroup":"KHM","gid":"KHM-2-73"},"id":"KHM-2-73"},{"arcs":[[-234,266,267,-237,-253,-249,268,269]],"type":"Polygon","properties":{"name":"S'ang","shapeGroup":"KHM","gid":"KHM-2-74"},"id":"KHM-2-74"},{"arcs":[[-233,270,271,272,-267]],"type":"Polygon","properties":{"name":"Ta Khmau","shapeGroup":"KHM","gid":"KHM-2-75"},"id":"KHM-2-75"},{"arcs":[[273,274,275,276,277]],"type":"Polygon","properties":{"name":"Botum Sakor","shapeGroup":"KHM","gid":"KHM-2-76"},"id":"KHM-2-76"},{"arcs":[[-276,278,279]],"type":"Polygon","properties":{"name":"Kiri Sakor","shapeGroup":"KHM","gid":"KHM-2-77"},"id":"KHM-2-77"},{"arcs":[[[280]],[[-277,-280,281,282,283]]],"type":"MultiPolygon","properties":{"name":"Kaoh Kong","shapeGroup":"KHM","gid":"KHM-2-78"},"id":"KHM-2-78"},{"arcs":[[284]],"type":"Polygon","properties":{"name":"Khemara Phoumin","shapeGroup":"KHM","gid":"KHM-2-79"},"id":"KHM-2-79"},{"arcs":[[-283,285,286,287],[-285]],"type":"Polygon","properties":{"name":"Mondol Seima","shapeGroup":"KHM","gid":"KHM-2-80"},"id":"KHM-2-80"},{"arcs":[[-162,-172,288,289,290,-274,291]],"type":"Polygon","properties":{"name":"Srae Ambel","shapeGroup":"KHM","gid":"KHM-2-81"},"id":"KHM-2-81"},{"arcs":[[-163,-292,-278,-284,-288,292,293]],"type":"Polygon","properties":{"name":"Thma Bang","shapeGroup":"KHM","gid":"KHM-2-82"},"id":"KHM-2-82"},{"arcs":[[294,295,296,297,298,299]],"type":"Polygon","properties":{"name":"Chhloung","shapeGroup":"KHM","gid":"KHM-2-83"},"id":"KHM-2-83"},{"arcs":[[300,301]],"type":"Polygon","properties":{"name":"Kracheh","shapeGroup":"KHM","gid":"KHM-2-84"},"id":"KHM-2-84"},{"arcs":[[-116,-198,302,303,-301,304,-298,305]],"type":"Polygon","properties":{"name":"Prek Prasab","shapeGroup":"KHM","gid":"KHM-2-85"},"id":"KHM-2-85"},{"arcs":[[-195,306,307,308,309,310,311,-303,-197]],"type":"Polygon","properties":{"name":"Sambour","shapeGroup":"KHM","gid":"KHM-2-86"},"id":"KHM-2-86"},{"arcs":[[-300,312,313,314,315]],"type":"Polygon","properties":{"name":"Snuol","shapeGroup":"KHM","gid":"KHM-2-87"},"id":"KHM-2-87"},{"arcs":[[-299,-305,-302,-304,-312,316,-313]],"type":"Polygon","properties":{"name":"Chetr Borei","shapeGroup":"KHM","gid":"KHM-2-88"},"id":"KHM-2-88"},{"arcs":[[-311,317,318,319,320,-314,-317]],"type":"Polygon","properties":{"name":"Kaev Seima","shapeGroup":"KHM","gid":"KHM-2-89"},"id":"KHM-2-89"},{"arcs":[[-309,321,322,323,324,325,326]],"type":"Polygon","properties":{"name":"Kaoh Nheaek","shapeGroup":"KHM","gid":"KHM-2-90"},"id":"KHM-2-90"},{"arcs":[[-320,327,328,329]],"type":"Polygon","properties":{"name":"Ou Reang","shapeGroup":"KHM","gid":"KHM-2-91"},"id":"KHM-2-91"},{"arcs":[[-310,-327,330,-329,331,-318]],"type":"Polygon","properties":{"name":"Pech Chreada","shapeGroup":"KHM","gid":"KHM-2-92"},"id":"KHM-2-92"},{"arcs":[[-319,-332,-328]],"type":"Polygon","properties":{"name":"Saen Monourom","shapeGroup":"KHM","gid":"KHM-2-93"},"id":"KHM-2-93"},{"arcs":[[332,333,334,335,336]],"type":"Polygon","properties":{"name":"Chamkar Mon","shapeGroup":"KHM","gid":"KHM-2-94"},"id":"KHM-2-94"},{"arcs":[[-255,-333,337,338,339,340]],"type":"Polygon","properties":{"name":"Doun Penh","shapeGroup":"KHM","gid":"KHM-2-95"},"id":"KHM-2-95"},{"arcs":[[-337,341,-338]],"type":"Polygon","properties":{"name":"Prampir Meakkakra","shapeGroup":"KHM","gid":"KHM-2-96"},"id":"KHM-2-96"},{"arcs":[[-336,342,343,344,-339,-342]],"type":"Polygon","properties":{"name":"Tuol Kouk","shapeGroup":"KHM","gid":"KHM-2-97"},"id":"KHM-2-97"},{"arcs":[[-232,345,346,-271]],"type":"Polygon","properties":{"name":"Dangkao","shapeGroup":"KHM","gid":"KHM-2-98"},"id":"KHM-2-98"},{"arcs":[[-272,-347,347,348,-343,-335,349]],"type":"Polygon","properties":{"name":"Mean Chey","shapeGroup":"KHM","gid":"KHM-2-99"},"id":"KHM-2-99"},{"arcs":[[-340,-345,350,351,352]],"type":"Polygon","properties":{"name":"Russey Keo","shapeGroup":"KHM","gid":"KHM-2-100"},"id":"KHM-2-100"},{"arcs":[[-344,-349,353,354,-351]],"type":"Polygon","properties":{"name":"Saensokh","shapeGroup":"KHM","gid":"KHM-2-101"},"id":"KHM-2-101"},{"arcs":[[-231,-265,355,-354,-348,-346]],"type":"Polygon","properties":{"name":"Pur SenChey","shapeGroup":"KHM","gid":"KHM-2-102"},"id":"KHM-2-102"},{"arcs":[[-243,-256,-341,-353,356,-260]],"type":"Polygon","properties":{"name":"Chraoy Chongvar","shapeGroup":"KHM","gid":"KHM-2-103"},"id":"KHM-2-103"},{"arcs":[[-261,-357,-352,-355,-356,-264,-266]],"type":"Polygon","properties":{"name":"Praek Pnov","shapeGroup":"KHM","gid":"KHM-2-104"},"id":"KHM-2-104"},{"arcs":[[-238,-268,-273,-350,-334,-254]],"type":"Polygon","properties":{"name":"Chbar Ampov","shapeGroup":"KHM","gid":"KHM-2-105"},"id":"KHM-2-105"},{"arcs":[[357,358,359,360]],"type":"Polygon","properties":{"name":"Chey Saen","shapeGroup":"KHM","gid":"KHM-2-106"},"id":"KHM-2-106"},{"arcs":[[-358,361,362,363,364]],"type":"Polygon","properties":{"name":"Chhaeb","shapeGroup":"KHM","gid":"KHM-2-107"},"id":"KHM-2-107"},{"arcs":[[-363,365,366,367,368]],"type":"Polygon","properties":{"name":"Choam Ksant","shapeGroup":"KHM","gid":"KHM-2-108"},"id":"KHM-2-108"},{"arcs":[[-367,369,370,371,372,373]],"type":"Polygon","properties":{"name":"Kuleaen","shapeGroup":"KHM","gid":"KHM-2-109"},"id":"KHM-2-109"},{"arcs":[[-187,374,375,-360,376,-192]],"type":"Polygon","properties":{"name":"Rovieng","shapeGroup":"KHM","gid":"KHM-2-110"},"id":"KHM-2-110"},{"arcs":[[-186,-201,377,-371,378,379,-375]],"type":"Polygon","properties":{"name":"Sangkum Thmei","shapeGroup":"KHM","gid":"KHM-2-111"},"id":"KHM-2-111"},{"arcs":[[-361,-376,-380,380,-370,-366,-362]],"type":"Polygon","properties":{"name":"Tbaeng Mean Chey","shapeGroup":"KHM","gid":"KHM-2-112"},"id":"KHM-2-112"},{"arcs":[[-379,-381]],"type":"Polygon","properties":{"name":"Preah Vihear","shapeGroup":"KHM","gid":"KHM-2-113"},"id":"KHM-2-113"},{"arcs":[[381,382,383,384,385]],"type":"Polygon","properties":{"name":"Ba Phnum","shapeGroup":"KHM","gid":"KHM-2-114"},"id":"KHM-2-114"},{"arcs":[[386,387,388,389,390,391]],"type":"Polygon","properties":{"name":"Kamchay Mear","shapeGroup":"KHM","gid":"KHM-2-115"},"id":"KHM-2-115"},{"arcs":[[-383,392,393,394,395]],"type":"Polygon","properties":{"name":"Kampong Trabaek","shapeGroup":"KHM","gid":"KHM-2-116"},"id":"KHM-2-116"},{"arcs":[[-391,396,397,398,399,400]],"type":"Polygon","properties":{"name":"Kanhchriech","shapeGroup":"KHM","gid":"KHM-2-117"},"id":"KHM-2-117"},{"arcs":[[-382,401,-389,402,403,-393]],"type":"Polygon","properties":{"name":"Me Sang","shapeGroup":"KHM","gid":"KHM-2-118"},"id":"KHM-2-118"},{"arcs":[[-251,404,405,406]],"type":"Polygon","properties":{"name":"Peam Chor","shapeGroup":"KHM","gid":"KHM-2-119"},"id":"KHM-2-119"},{"arcs":[[-240,-259,407,408,409,-385,410,-405,-250]],"type":"Polygon","properties":{"name":"Peam Ro","shapeGroup":"KHM","gid":"KHM-2-120"},"id":"KHM-2-120"},{"arcs":[[-112,411,-398,412,413,-257,-241]],"type":"Polygon","properties":{"name":"Pea Reang","shapeGroup":"KHM","gid":"KHM-2-121"},"id":"KHM-2-121"},{"arcs":[[-384,-396,414,-406,-411]],"type":"Polygon","properties":{"name":"Preah Sdach","shapeGroup":"KHM","gid":"KHM-2-122"},"id":"KHM-2-122"},{"arcs":[[-409,415,416]],"type":"Polygon","properties":{"name":"Prey Veng","shapeGroup":"KHM","gid":"KHM-2-123"},"id":"KHM-2-123"},{"arcs":[[-258,-414,417,-416,-408]],"type":"Polygon","properties":{"name":"Pur Rieng","shapeGroup":"KHM","gid":"KHM-2-124"},"id":"KHM-2-124"},{"arcs":[[-108,418,-399,-412,-111]],"type":"Polygon","properties":{"name":"Sithor Kandal","shapeGroup":"KHM","gid":"KHM-2-125"},"id":"KHM-2-125"},{"arcs":[[-386,-410,-417,-418,-413,-397,-390,-402]],"type":"Polygon","properties":{"name":"Svay Antor","shapeGroup":"KHM","gid":"KHM-2-126"},"id":"KHM-2-126"},{"arcs":[[-52,419,420,421,422,423,-76]],"type":"Polygon","properties":{"name":"Bakan","shapeGroup":"KHM","gid":"KHM-2-127"},"id":"KHM-2-127"},{"arcs":[[-421,424,425,426]],"type":"Polygon","properties":{"name":"Kandieng","shapeGroup":"KHM","gid":"KHM-2-128"},"id":"KHM-2-128"},{"arcs":[[-121,-147,427,428,-426,429]],"type":"Polygon","properties":{"name":"Krakor","shapeGroup":"KHM","gid":"KHM-2-129"},"id":"KHM-2-129"},{"arcs":[[-146,-164,-294,430,-423,431,-428]],"type":"Polygon","properties":{"name":"Phnum Kravanh","shapeGroup":"KHM","gid":"KHM-2-130"},"id":"KHM-2-130"},{"arcs":[[-422,-427,-429,-432]],"type":"Polygon","properties":{"name":"Pursat","shapeGroup":"KHM","gid":"KHM-2-131"},"id":"KHM-2-131"},{"arcs":[[-65,-75,-77,-424,-431,-293,-287,432]],"type":"Polygon","properties":{"name":"Veal Veaeng","shapeGroup":"KHM","gid":"KHM-2-132"},"id":"KHM-2-132"},{"arcs":[[433,434,435,436,437]],"type":"Polygon","properties":{"name":"Andoung Meas","shapeGroup":"KHM","gid":"KHM-2-133"},"id":"KHM-2-133"},{"arcs":[[438,439,440,441]],"type":"Polygon","properties":{"name":"Ban Lung","shapeGroup":"KHM","gid":"KHM-2-134"},"id":"KHM-2-134"},{"arcs":[[-436,442,443,-439,444]],"type":"Polygon","properties":{"name":"Bar Kaev","shapeGroup":"KHM","gid":"KHM-2-135"},"id":"KHM-2-135"},{"arcs":[[-323,445,446,447,-441,448]],"type":"Polygon","properties":{"name":"Koun Mom","shapeGroup":"KHM","gid":"KHM-2-136"},"id":"KHM-2-136"},{"arcs":[[-324,-449,-440,-444,449]],"type":"Polygon","properties":{"name":"Lumphat","shapeGroup":"KHM","gid":"KHM-2-137"},"id":"KHM-2-137"},{"arcs":[[-437,-445,-442,-448,450,451]],"type":"Polygon","properties":{"name":"Ou Chum","shapeGroup":"KHM","gid":"KHM-2-138"},"id":"KHM-2-138"},{"arcs":[[-325,-450,-443,-435,452]],"type":"Polygon","properties":{"name":"Ou Ya Dav","shapeGroup":"KHM","gid":"KHM-2-139"},"id":"KHM-2-139"},{"arcs":[[-438,-452,453,454]],"type":"Polygon","properties":{"name":"Ta Veaeng","shapeGroup":"KHM","gid":"KHM-2-140"},"id":"KHM-2-140"},{"arcs":[[-447,455,456,457,-454,-451]],"type":"Polygon","properties":{"name":"Veun Sai","shapeGroup":"KHM","gid":"KHM-2-141"},"id":"KHM-2-141"},{"arcs":[[458,459,460,461,462]],"type":"Polygon","properties":{"name":"Angkor Chum","shapeGroup":"KHM","gid":"KHM-2-142"},"id":"KHM-2-142"},{"arcs":[[-459,463,464,465,466]],"type":"Polygon","properties":{"name":"Angkor Thum","shapeGroup":"KHM","gid":"KHM-2-143"},"id":"KHM-2-143"},{"arcs":[[-465,467,468,469,470,471]],"type":"Polygon","properties":{"name":"Banteay Srei","shapeGroup":"KHM","gid":"KHM-2-144"},"id":"KHM-2-144"},{"arcs":[[-200,472,473,474,-372,-378]],"type":"Polygon","properties":{"name":"Chi Kraeng","shapeGroup":"KHM","gid":"KHM-2-145"},"id":"KHM-2-145"},{"arcs":[[-10,475,-461,476,-48,-17]],"type":"Polygon","properties":{"name":"Kralanh","shapeGroup":"KHM","gid":"KHM-2-146"},"id":"KHM-2-146"},{"arcs":[[-49,-477,-460,-467,477,478]],"type":"Polygon","properties":{"name":"Puok","shapeGroup":"KHM","gid":"KHM-2-147"},"id":"KHM-2-147"},{"arcs":[[-471,479,480,481]],"type":"Polygon","properties":{"name":"Prasat Bakong","shapeGroup":"KHM","gid":"KHM-2-148"},"id":"KHM-2-148"},{"arcs":[[-466,-472,-482,482,-478]],"type":"Polygon","properties":{"name":"Siem Reap","shapeGroup":"KHM","gid":"KHM-2-149"},"id":"KHM-2-149"},{"arcs":[[-470,483,-474,484,-480]],"type":"Polygon","properties":{"name":"Soutr Nikom","shapeGroup":"KHM","gid":"KHM-2-150"},"id":"KHM-2-150"},{"arcs":[[-9,485,486,-462,-476]],"type":"Polygon","properties":{"name":"Srei Snam","shapeGroup":"KHM","gid":"KHM-2-151"},"id":"KHM-2-151"},{"arcs":[[-373,-475,-484,-469,487,488,489]],"type":"Polygon","properties":{"name":"Svay Leu","shapeGroup":"KHM","gid":"KHM-2-152"},"id":"KHM-2-152"},{"arcs":[[-463,-487,490,491,-488,-468,-464]],"type":"Polygon","properties":{"name":"Varin","shapeGroup":"KHM","gid":"KHM-2-153"},"id":"KHM-2-153"},{"arcs":[[[492]],[[493,494,495]],[[496]]],"type":"MultiPolygon","properties":{"name":"Preah Sihanouk","shapeGroup":"KHM","gid":"KHM-2-154"},"id":"KHM-2-154"},{"arcs":[[[497]],[[498]],[[-227,499,-494,500,501]]],"type":"MultiPolygon","properties":{"name":"Prey Nob","shapeGroup":"KHM","gid":"KHM-2-155"},"id":"KHM-2-155"},{"arcs":[[-290,502,-501,-496,503]],"type":"Polygon","properties":{"name":"Stueng Hav","shapeGroup":"KHM","gid":"KHM-2-156"},"id":"KHM-2-156"},{"arcs":[[-171,-216,-228,-502,-503,-289]],"type":"Polygon","properties":{"name":"Kampong Seila","shapeGroup":"KHM","gid":"KHM-2-157"},"id":"KHM-2-157"},{"arcs":[[-308,504,505,506,-456,-446,-322]],"type":"Polygon","properties":{"name":"Sesan","shapeGroup":"KHM","gid":"KHM-2-158"},"id":"KHM-2-158"},{"arcs":[[-194,507,508,-505,-307]],"type":"Polygon","properties":{"name":"Siem Bouk","shapeGroup":"KHM","gid":"KHM-2-159"},"id":"KHM-2-159"},{"arcs":[[-457,-507,509,510]],"type":"Polygon","properties":{"name":"Siem Pang","shapeGroup":"KHM","gid":"KHM-2-160"},"id":"KHM-2-160"},{"arcs":[[-506,-509,511,512,-510]],"type":"Polygon","properties":{"name":"Stueng Traeng","shapeGroup":"KHM","gid":"KHM-2-161"},"id":"KHM-2-161"},{"arcs":[[-193,-377,-359,-365,513,-512,-508]],"type":"Polygon","properties":{"name":"Thala Barivat","shapeGroup":"KHM","gid":"KHM-2-162"},"id":"KHM-2-162"},{"arcs":[[514,515,516]],"type":"Polygon","properties":{"name":"Chantrea","shapeGroup":"KHM","gid":"KHM-2-163"},"id":"KHM-2-163"},{"arcs":[[-516,517,518,519,520,521]],"type":"Polygon","properties":{"name":"Kampong Rou","shapeGroup":"KHM","gid":"KHM-2-164"},"id":"KHM-2-164"},{"arcs":[[522,523,524,525,526]],"type":"Polygon","properties":{"name":"Rumduol","shapeGroup":"KHM","gid":"KHM-2-165"},"id":"KHM-2-165"},{"arcs":[[-388,527,-527,528,-403]],"type":"Polygon","properties":{"name":"Romeas Haek","shapeGroup":"KHM","gid":"KHM-2-166"},"id":"KHM-2-166"},{"arcs":[[-394,-404,-529,-526,529,-519,530]],"type":"Polygon","properties":{"name":"Svay Chrum","shapeGroup":"KHM","gid":"KHM-2-167"},"id":"KHM-2-167"},{"arcs":[[-520,-530,-525,531]],"type":"Polygon","properties":{"name":"Svay Rieng","shapeGroup":"KHM","gid":"KHM-2-168"},"id":"KHM-2-168"},{"arcs":[[-521,-532,-524,532,533]],"type":"Polygon","properties":{"name":"Svay Teab","shapeGroup":"KHM","gid":"KHM-2-169"},"id":"KHM-2-169"},{"arcs":[[-517,-522,-534,534]],"type":"Polygon","properties":{"name":"Bavet","shapeGroup":"KHM","gid":"KHM-2-170"},"id":"KHM-2-170"},{"arcs":[[-247,535,536,537,538,539,540]],"type":"Polygon","properties":{"name":"Angkor Borei","shapeGroup":"KHM","gid":"KHM-2-171"},"id":"KHM-2-171"},{"arcs":[[-157,-235,-270,541,542]],"type":"Polygon","properties":{"name":"Bati","shapeGroup":"KHM","gid":"KHM-2-172"},"id":"KHM-2-172"},{"arcs":[[-537,543,544,545]],"type":"Polygon","properties":{"name":"Borei Cholsar","shapeGroup":"KHM","gid":"KHM-2-173"},"id":"KHM-2-173"},{"arcs":[[-203,546,547,548,-207]],"type":"Polygon","properties":{"name":"Kiri Vong","shapeGroup":"KHM","gid":"KHM-2-174"},"id":"KHM-2-174"},{"arcs":[[-545,549,-548,550]],"type":"Polygon","properties":{"name":"Kaoh Andaet","shapeGroup":"KHM","gid":"KHM-2-175"},"id":"KHM-2-175"},{"arcs":[[-248,-541,551,-542,-269]],"type":"Polygon","properties":{"name":"Prey Kabbas","shapeGroup":"KHM","gid":"KHM-2-176"},"id":"KHM-2-176"},{"arcs":[[-149,-158,-543,-552,-540,552,553]],"type":"Polygon","properties":{"name":"Samraong","shapeGroup":"KHM","gid":"KHM-2-177"},"id":"KHM-2-177"},{"arcs":[[-539,554,555,-553]],"type":"Polygon","properties":{"name":"Doun Kaev","shapeGroup":"KHM","gid":"KHM-2-178"},"id":"KHM-2-178"},{"arcs":[[-150,-554,-556,556,-206,-213,-217]],"type":"Polygon","properties":{"name":"Tram Kak","shapeGroup":"KHM","gid":"KHM-2-179"},"id":"KHM-2-179"},{"arcs":[[-202,-557,-555,-538,-546,-551,-547]],"type":"Polygon","properties":{"name":"Treang","shapeGroup":"KHM","gid":"KHM-2-180"},"id":"KHM-2-180"},{"arcs":[[-489,-492,557,558,559,560]],"type":"Polygon","properties":{"name":"Anlong Veaeng","shapeGroup":"KHM","gid":"KHM-2-181"},"id":"KHM-2-181"},{"arcs":[[-14,-27,561,562,563]],"type":"Polygon","properties":{"name":"Banteay Ampil","shapeGroup":"KHM","gid":"KHM-2-182"},"id":"KHM-2-182"},{"arcs":[[-8,-564,564,-558,-491,-486]],"type":"Polygon","properties":{"name":"Chong Kal","shapeGroup":"KHM","gid":"KHM-2-183"},"id":"KHM-2-183"},{"arcs":[[-559,-565,-563,565]],"type":"Polygon","properties":{"name":"Samraong","shapeGroup":"KHM","gid":"KHM-2-184"},"id":"KHM-2-184"},{"arcs":[[-368,-374,-490,-561,566]],"type":"Polygon","properties":{"name":"Trapeang Prasat","shapeGroup":"KHM","gid":"KHM-2-185"},"id":"KHM-2-185"},{"arcs":[[-221,567,568]],"type":"Polygon","properties":{"name":"Damnak Chang'aeur","shapeGroup":"KHM","gid":"KHM-2-186"},"id":"KHM-2-186"},{"arcs":[[-223,-569,569]],"type":"Polygon","properties":{"name":"Kaeb","shapeGroup":"KHM","gid":"KHM-2-187"},"id":"KHM-2-187"},{"arcs":[[-59,-67,570,571]],"type":"Polygon","properties":{"name":"Pailin","shapeGroup":"KHM","gid":"KHM-2-188"},"id":"KHM-2-188"},{"arcs":[[-60,-572,572,-72]],"type":"Polygon","properties":{"name":"Sala Krau","shapeGroup":"KHM","gid":"KHM-2-189"},"id":"KHM-2-189"},{"arcs":[[-296,573,574,575,576]],"type":"Polygon","properties":{"name":"Dambae","shapeGroup":"KHM","gid":"KHM-2-190"},"id":"KHM-2-190"},{"arcs":[[-95,-117,-306,-297,-577,577]],"type":"Polygon","properties":{"name":"Krouch Chhmar","shapeGroup":"KHM","gid":"KHM-2-191"},"id":"KHM-2-191"},{"arcs":[[-295,-316,578,579,-574]],"type":"Polygon","properties":{"name":"Memot","shapeGroup":"KHM","gid":"KHM-2-192"},"id":"KHM-2-192"},{"arcs":[[-107,580,581,-400,-419]],"type":"Polygon","properties":{"name":"Ou Reang Ov","shapeGroup":"KHM","gid":"KHM-2-193"},"id":"KHM-2-193"},{"arcs":[[-392,-401,-582,582,-575,-580,583]],"type":"Polygon","properties":{"name":"Ponhea Kraek","shapeGroup":"KHM","gid":"KHM-2-194"},"id":"KHM-2-194"},{"arcs":[[584]],"type":"Polygon","properties":{"name":"Suong","shapeGroup":"KHM","gid":"KHM-2-195"},"id":"KHM-2-195"},{"arcs":[[-93,-96,-578,-576,-583,-581,-106,-97],[-585]],"type":"Polygon","properties":{"name":"Tboung Khmum","shapeGroup":"KHM","gid":"KHM-2-196"},"id":"KHM-2-196"}]}}}