{"type":"Topology","arcs":[[[429,140],[2,97],[19,44],[61,47],[74,93],[33,88],[86,84],[-32,34],[37,65]],[[709,692],[14,-3]],[[723,689],[23,-62],[-4,-50],[-42,-37],[3,-57],[52,-77],[76,-13],[3,-69],[-12,-141],[62,-19]],[[884,164],[-13,-71],[-125,-1],[-38,-77],[-175,-15],[-64,71],[-3,53],[-37,16]],[[429,140],[-137,-44],[-71,12],[-67,-9],[-154,-1],[9,45],[86,59],[43,88],[27,9],[49,97],[16,68],[-1,85],[-18,28],[43,110],[59,103]],[[313,790],[30,-55],[61,-10],[108,14]],[[512,739],[39,-45],[77,3],[25,-24],[56,19]],[[723,689],[86,11],[112,-40],[39,147]],[[960,807],[18,66],[80,21],[37,57]],[[1095,951],[24,-25],[32,-134],[16,-109],[-45,-82],[12,-88]],[[1134,513],[-59,31],[-27,70],[-81,-81],[-14,-55],[7,-90],[-38,-160],[9,-31],[-47,-33]],[[1095,951],[56,66]],[[1151,1017],[80,33],[68,62],[99,53]],[[1398,1165],[27,-29],[-5,-72],[29,-43],[29,-91],[-33,-89],[57,-41]],[[1502,800],[-61,-47],[-15,-34],[-50,-19],[-83,-124],[-40,-36],[-119,-27]],[[512,739],[49,41],[-59,59],[-42,18],[12,44],[49,44],[46,-64],[19,54],[56,14],[-24,101],[16,51],[82,86],[45,-32],[33,27],[76,25]],[[870,1207],[77,34],[7,-66],[-41,-62],[32,-40],[-32,-41],[42,-35],[-40,-88],[0,-56],[45,-46]],[[870,1207],[-13,88],[-49,-30],[-74,-21],[-46,31],[8,79],[28,59]],[[724,1413],[63,-10],[166,47],[48,36],[79,-25],[-5,-102],[30,-23],[26,-140]],[[1131,1196],[-17,-91],[44,-39],[-7,-49]],[[313,790],[1,99],[31,78],[6,55],[50,94],[55,27],[21,43],[71,85],[16,94],[53,99]],[[617,1464],[107,-51]],[[1398,1165],[-77,56],[-1,66],[26,53],[69,43],[66,63],[19,68],[56,-17],[62,55],[27,59],[53,-7],[89,59],[4,44],[39,26]],[[1830,1733],[54,-8]],[[1884,1725],[-38,-28],[-27,-85],[86,-13],[30,-28],[62,-18],[105,-107],[-83,-108],[-131,-25],[-49,-22],[21,-58],[-4,-79],[-130,-125],[-61,-31],[-95,-73],[-9,-83],[-59,-42]],[[1131,1196],[24,100],[41,100],[5,57],[36,117],[33,49],[34,91],[77,42],[69,117]],[[1450,1869],[49,41]],[[1499,1910],[45,-2],[19,-83],[71,74],[16,39],[55,43],[35,-44],[11,-51],[-64,-54],[28,-66],[52,20],[63,-53]],[[1499,1910],[38,111],[-62,3],[-25,50]],[[1450,2074],[44,-2],[24,94],[85,98]],[[1603,2264],[59,105],[67,6],[21,38]],[[1750,2413],[25,-34],[120,-47],[48,-81],[8,-41],[83,64],[24,-38],[112,-24],[-26,-30],[-32,-81]],[[2112,2101],[-83,-150],[-29,15],[-64,-120],[-38,-26],[-14,-95]],[[617,1464],[23,61],[-2,106],[39,14],[3,99],[55,52],[8,95],[30,52]],[[773,1943],[33,-29],[-24,-54],[53,-54],[73,-16],[100,52],[75,2],[85,62],[27,-32],[51,-6],[45,55],[62,-30],[97,-24]],[[773,1943],[36,67],[20,107]],[[829,2117],[54,11],[62,-82],[21,40],[60,37],[139,-52],[44,12],[33,-27],[84,11],[63,-30],[61,37]],[[829,2117],[-11,118]],[[818,2235],[61,-16],[41,42]],[[920,2261],[72,-89],[95,-14],[34,66],[131,49],[105,0],[51,-14],[107,25],[88,-20]],[[818,2235],[-21,88],[75,12],[70,-24]],[[942,2311],[-22,-50]],[[942,2311],[75,19],[27,46],[22,99]],[[1066,2475],[37,-27],[152,-9],[130,47],[75,-9],[58,33],[11,33],[159,-86]],[[1688,2457],[62,-44]],[[1066,2475],[41,72],[44,5],[19,66],[-45,17],[2,56],[42,61],[0,35]],[[1169,2787],[32,0],[81,41],[82,-27],[101,17],[34,-22],[-24,-44],[34,-26],[120,13],[119,25],[25,-12],[68,40],[31,-84]],[[1872,2708],[-46,-77],[-42,-14],[-40,-64],[-6,-50],[-50,-46]],[[1169,2787],[20,94],[-22,76],[-32,28],[13,141],[37,40]],[[1185,3166],[67,6],[23,-38],[61,-10],[29,-26],[56,3],[33,25],[45,-26],[38,21],[110,-36],[23,-51],[54,-23],[74,11],[38,29],[141,-51],[11,-39]],[[1988,2961],[-26,-111],[-40,-26],[-27,-97],[-23,-19]],[[1185,3166],[19,94],[-12,102],[65,87],[59,-17],[45,87]],[[1361,3519],[15,-57],[-65,-50],[41,-40],[16,-48],[81,-18],[35,-32],[53,-2],[28,40]],[[1565,3312],[4,-3],[64,-30],[105,-31],[23,-67],[84,13],[81,-20],[22,-49],[52,-29],[4,-8]],[[2004,3088],[22,-50],[-38,-77]],[[1361,3519],[10,104],[83,12]],[[1454,3635],[54,14],[22,43]],[[1530,3692],[42,48]],[[1572,3740],[48,-74],[53,28]],[[1673,3694],[-42,-140],[12,-99],[23,-53]],[[1666,3402],[19,-26],[-42,-52],[-35,20],[-43,-32]],[[1454,3635],[76,57]],[[1572,3740],[-30,33],[28,60],[76,10]],[[1646,3843],[8,-56]],[[1654,3787],[-24,-27],[43,-66]],[[1666,3402],[114,-30],[28,-21],[69,-4],[39,-20],[111,32]],[[2027,3359],[75,-7],[156,68]],[[2258,3420],[-4,-40]],[[2254,3380],[-59,-49],[-110,-158],[-71,-75],[-10,-10]],[[1654,3787],[56,46],[60,-14],[37,14],[94,-2],[-3,-64],[-54,-36],[5,-42],[-65,-64],[6,-51],[62,-63],[82,-49],[93,-103]],[[1646,3843],[100,36],[109,117]],[[1855,3996],[18,-37],[55,-30],[5,-121],[54,-9],[81,18],[150,-1],[48,-69],[1,-7]],[[2267,3740],[29,-51],[57,-32],[-2,-115],[-39,-18],[-54,-104]],[[1855,3996],[67,49],[12,75],[-13,140],[-25,73],[39,31],[94,-48],[62,24],[25,-21],[138,21],[131,2],[87,-26],[121,15],[35,60],[9,79],[60,25],[36,-26],[-10,-63],[67,-72],[43,11],[42,-30],[70,30],[20,-81],[-21,-44],[-42,1],[-57,47],[-18,-105],[22,-57],[-42,-12],[-81,-76],[-11,-28]],[[2715,3990],[-43,26],[-37,-17],[-69,-109],[-86,-54],[17,-60],[-25,-38],[-54,8],[-71,-21],[-62,19],[-18,-4]],[[2715,3990],[89,-33],[124,0],[43,-95],[71,-39]],[[3042,3823],[-92,-110],[-44,-30],[-40,-89],[-92,-33],[-16,-135],[-42,-99],[-73,53],[-39,-73],[-73,28],[-66,-16],[-149,13],[-20,42],[-42,6]],[[3042,3823],[117,-68],[24,-74],[-68,-76],[41,-89],[29,-21],[-11,-52],[88,-68],[-49,-31],[35,-147],[34,-12],[2,-65],[-84,-114],[-4,-48],[-54,-19],[-69,-76],[5,-74],[-25,-62],[-43,-30],[-55,7],[-64,33],[-50,-32],[-78,-143],[-115,-88],[-87,-151],[100,-58],[141,-68],[16,-71],[-102,-6],[-44,15],[-59,-8],[-47,56],[-61,16],[-30,-65],[-101,-16],[-100,42],[-20,-32],[-52,3],[-8,-39],[-59,-11],[-23,20]]],"transform":{"scale":[0.0004552414741169188,0.0003635183290322611],"translate":[35.11185062800007,33.05879896600004]},"objects":{"LBN":{"type":"GeometryCollection","geometries":[{"arcs":[[0,1,2,3]],"type":"Polygon","properties":{"name":"Bent Jbail","shapeGroup":"LBN","gid":"LBN-2-0"},"id":"LBN-2-0"},{"arcs":[[-1,4,5,6]],"type":"Polygon","properties":{"name":"Sour","shapeGroup":"LBN","gid":"LBN-2-1"},"id":"LBN-2-1"},{"arcs":[[-3,7,8,9,10]],"type":"Polygon","properties":{"name":"Marjaayoun","shapeGroup":"LBN","gid":"LBN-2-2"},"id":"LBN-2-2"},{"arcs":[[-10,11,12,13,14]],"type":"Polygon","properties":{"name":"Hasbaya","shapeGroup":"LBN","gid":"LBN-2-3"},"id":"LBN-2-3"},{"arcs":[[-2,-7,15,16,-8]],"type":"Polygon","properties":{"name":"Nabatiye","shapeGroup":"LBN","gid":"LBN-2-4"},"id":"LBN-2-4"},{"arcs":[[-9,-17,17,18,19,-12]],"type":"Polygon","properties":{"name":"Jezzine","shapeGroup":"LBN","gid":"LBN-2-5"},"id":"LBN-2-5"},{"arcs":[[-6,20,21,-18,-16]],"type":"Polygon","properties":{"name":"Saida","shapeGroup":"LBN","gid":"LBN-2-6"},"id":"LBN-2-6"},{"arcs":[[-14,22,23,24]],"type":"Polygon","properties":{"name":"Rachaya","shapeGroup":"LBN","gid":"LBN-2-7"},"id":"LBN-2-7"},{"arcs":[[-13,-20,25,26,27,-23]],"type":"Polygon","properties":{"name":"West Bekaa","shapeGroup":"LBN","gid":"LBN-2-8"},"id":"LBN-2-8"},{"arcs":[[-24,-28,28,29,30,31,32]],"type":"Polygon","properties":{"name":"Zahle","shapeGroup":"LBN","gid":"LBN-2-9"},"id":"LBN-2-9"},{"arcs":[[-19,-22,33,34,-26]],"type":"Polygon","properties":{"name":"Chouf","shapeGroup":"LBN","gid":"LBN-2-10"},"id":"LBN-2-10"},{"arcs":[[-27,-35,35,36,-29]],"type":"Polygon","properties":{"name":"Aley","shapeGroup":"LBN","gid":"LBN-2-11"},"id":"LBN-2-11"},{"arcs":[[-30,-37,37,38,39]],"type":"Polygon","properties":{"name":"Baabda","shapeGroup":"LBN","gid":"LBN-2-12"},"id":"LBN-2-12"},{"arcs":[[-39,40,41]],"type":"Polygon","properties":{"name":"Beirut","shapeGroup":"LBN","gid":"LBN-2-13"},"id":"LBN-2-13"},{"arcs":[[-31,-40,-42,42,43,44]],"type":"Polygon","properties":{"name":"El Metn","shapeGroup":"LBN","gid":"LBN-2-14"},"id":"LBN-2-14"},{"arcs":[[-44,45,46,47]],"type":"Polygon","properties":{"name":"Kesrouan","shapeGroup":"LBN","gid":"LBN-2-15"},"id":"LBN-2-15"},{"arcs":[[-47,48,49,50]],"type":"Polygon","properties":{"name":"Jbail","shapeGroup":"LBN","gid":"LBN-2-16"},"id":"LBN-2-16"},{"arcs":[[-50,51,52,53,54]],"type":"Polygon","properties":{"name":"Batroun","shapeGroup":"LBN","gid":"LBN-2-17"},"id":"LBN-2-17"},{"arcs":[[-53,55,56,57,58,59,60]],"type":"Polygon","properties":{"name":"Koura","shapeGroup":"LBN","gid":"LBN-2-18"},"id":"LBN-2-18"},{"arcs":[[[-57,61]],[[-59,62,63,64]]],"type":"MultiPolygon","properties":{"name":"Tripoli","shapeGroup":"LBN","gid":"LBN-2-19"},"id":"LBN-2-19"},{"arcs":[[-54,-61,65,66,67,68]],"type":"Polygon","properties":{"name":"Bcharre","shapeGroup":"LBN","gid":"LBN-2-20"},"id":"LBN-2-20"},{"arcs":[[-60,-65,69,-66]],"type":"Polygon","properties":{"name":"Zgharta","shapeGroup":"LBN","gid":"LBN-2-21"},"id":"LBN-2-21"},{"arcs":[[-64,70,71,72,-67,-70]],"type":"Polygon","properties":{"name":"Minieh-Dinnieh","shapeGroup":"LBN","gid":"LBN-2-22"},"id":"LBN-2-22"},{"arcs":[[-72,73,74]],"type":"Polygon","properties":{"name":"Akkar","shapeGroup":"LBN","gid":"LBN-2-23"},"id":"LBN-2-23"},{"arcs":[[-68,-73,-75,75,76]],"type":"Polygon","properties":{"name":"Hermel","shapeGroup":"LBN","gid":"LBN-2-24"},"id":"LBN-2-24"},{"arcs":[[-32,-45,-48,-51,-55,-69,-77,77]],"type":"Polygon","properties":{"name":"Baalbek","shapeGroup":"LBN","gid":"LBN-2-25"},"id":"LBN-2-25"}]}}}