{"type":"Topology","arcs":[[[168,8320],[26,-13],[17,-73],[-31,-41],[-87,25],[-83,46],[-10,97],[51,16],[57,-53],[60,-4]],[[344,8684],[11,-50],[-59,-12],[48,62]],[[534,8818],[26,40],[83,-13],[-23,-68],[9,-37],[-46,-18],[-62,21],[29,31],[-16,44]],[[2537,8159],[-21,-7]],[[2516,8152],[-157,56],[-212,93],[-46,43],[2,36],[-23,45],[-121,83],[-179,89],[-96,96],[-105,-177]],[[1579,8516],[-74,39],[-149,58],[-1,-42],[39,-99],[-43,10],[-50,44],[-189,88],[4,-29],[52,-22],[-5,-37],[-65,45],[-64,26],[-71,1],[-57,50],[1,38],[-47,-4],[-42,34],[-29,-24],[-35,12],[-36,98],[-54,52],[25,35],[55,10],[49,41],[98,31],[117,14],[90,-15],[106,-2],[73,34],[77,-1],[112,25],[109,-28],[35,-70],[173,-225],[74,-72],[157,-113],[168,-114],[167,-124],[188,-121]],[[492,8509],[60,-11],[-14,-89],[-123,16],[27,61],[38,-23],[12,46]],[[866,8534],[17,40],[51,-25],[-20,-58],[-101,24],[-70,38],[-45,5],[-46,-38],[-83,53],[-1,45],[-56,40],[-16,50],[57,13],[55,-9],[59,-64],[199,-114]],[[870,7807],[32,-48],[-48,-14],[-18,24],[34,38]],[[2516,8152],[-11,-71],[-60,-40],[-3,-105],[-70,32],[-70,66],[-7,-60],[-27,-79],[-204,-6],[-86,-7],[-3,-72],[-50,-18],[-173,19],[-110,-25],[-39,12],[-80,-18],[-53,-42],[12,-99],[-69,8]],[[1413,7647],[-111,-61],[-88,-4]],[[1214,7582],[14,103],[-28,50],[33,50],[-88,65],[-67,12],[-3,59],[-20,21],[-3,56],[50,30],[100,32],[89,46],[107,113],[-60,78],[-124,96],[-67,41],[95,-2],[44,-43],[96,-43],[46,-6],[113,-41],[95,-53],[-77,1],[46,-48],[-30,-22],[85,-31],[67,18],[54,-15],[149,66],[26,66],[-39,2],[-33,42],[-78,68],[-90,54],[-137,69]],[[1413,7647],[10,-141],[56,-76],[23,-69],[-25,-37],[10,-98],[-66,-20],[-48,-114],[33,-27],[-31,-31],[-5,-49],[194,3],[237,18]],[[1801,7006],[72,-26],[33,-27],[15,-67],[38,-72],[5,-44],[-81,-39],[-141,-21],[-53,-24],[-177,17],[-58,-89],[-24,-56],[-51,17],[-23,-46],[64,-43],[23,-38],[84,-85]],[[1527,6363],[-317,-71],[-89,10],[-93,45],[29,-84],[-10,-99],[-3,-166],[-47,12]],[[997,6010],[-110,36],[-138,31],[-46,26]],[[703,6103],[1,61],[54,51],[17,37],[-13,34],[26,76],[-6,74],[25,28],[-66,130],[-45,53],[-5,53],[37,108],[-3,103],[-36,47],[86,20],[54,51],[49,16],[13,44],[62,40],[60,15],[87,136],[9,107],[64,81],[12,78],[29,36]],[[626,6998],[-38,50],[-89,80],[-79,53],[-99,50],[-71,26],[-127,34],[2,39],[85,18],[125,-14],[188,-53],[29,-14],[105,-84],[29,-44],[-112,47],[31,-56],[50,-39],[65,-31],[-79,-34],[-15,-28]],[[2537,8159],[126,-90],[-13,-37],[117,-81],[93,-51],[122,-80],[49,-45],[22,-47],[67,-96],[39,-124],[50,-100],[86,-118],[64,-110],[70,-101],[-25,-9],[-70,80],[-66,62],[-65,-54],[111,-76],[21,0]],[[3335,7082],[-98,-25],[-52,-50],[-95,2],[-15,-12],[-136,-20],[-25,-22]],[[2914,6955],[55,168],[-181,96],[-85,-48],[17,101],[-104,8],[-14,90],[-63,15],[-106,5],[8,-35],[-66,-8],[-78,-72],[-44,1],[-8,40],[-49,55],[-228,-6],[1,-56],[57,0],[20,-140],[-112,-89],[-133,-74]],[[2914,6955],[-34,-74]],[[2880,6881],[-97,-13],[-62,-23],[-64,-41],[-56,-8],[-133,4],[-8,-51],[82,-20],[35,-54],[37,-28],[-9,-38],[-36,-16],[-40,-63],[-46,-19],[-31,-51],[-41,-13],[-9,-37],[-104,-64],[-28,-32],[-33,-1],[-99,61],[-46,17],[-107,-76],[-29,-58],[-48,-29],[-3,-87],[-73,-26],[-51,-61],[-115,33],[-43,122],[-65,11],[-36,78],[5,65]],[[880,1201],[24,-26],[37,20],[137,-70],[63,-13],[68,-36],[22,-34],[85,-9],[39,-17],[99,-1],[27,47],[61,-8],[138,-116],[19,22],[-28,80],[0,49],[60,12],[56,33],[89,36],[33,-3]],[[1909,1167],[98,-76],[56,5],[144,-62]],[[2207,1034],[-45,-6],[-46,-38],[65,-63],[27,-50],[-54,-44],[-56,19],[-20,29],[-108,75],[-71,-20],[42,-50],[51,-24],[23,-47],[45,-42],[2,-66],[-35,-27],[-88,17],[27,-72],[-54,-85],[18,-48],[43,-43],[86,-47],[-73,-56],[-16,-37],[-40,3],[18,-54],[41,3],[-2,-48],[-53,-6],[-24,-58],[0,-42]],[[1910,107],[-175,60],[-131,16],[-74,33],[6,45],[-56,-2],[-68,26],[-45,46],[-126,86],[-7,26],[-61,46],[-3,40],[-26,40],[-67,57],[1,28],[-31,77],[-49,76],[13,54],[-25,49],[0,39],[-47,85],[-16,73],[-43,94]],[[2663,892],[66,5],[97,-27],[72,-36],[100,-32],[69,-4],[87,15],[30,-12],[33,-47],[74,-19],[93,-4],[-12,79],[-52,60]],[[3320,870],[253,111],[12,33],[-40,23],[15,62],[62,-11],[33,36],[56,32],[79,-5],[93,6],[21,-54],[56,-11],[40,31],[77,-90],[64,-60],[47,-1],[53,33],[5,26],[96,31],[74,5],[70,20],[157,63],[117,-23],[20,26],[-10,68],[16,108],[109,55],[23,37],[37,2],[48,41],[41,-8],[49,24],[23,43]],[[5116,1523],[77,-87],[64,-4],[22,-34],[46,-28],[51,-6]],[[5376,1364],[-39,-56],[-83,-51],[-31,-43],[-87,-41],[8,-26],[-51,-40],[-84,-40],[-28,-34],[-71,-11],[-68,-29],[-58,-90],[-72,-20],[-69,-42],[-29,-44],[-56,-42],[-40,-6],[-35,-29],[-65,-18],[-45,-57],[-77,-7],[-63,-26],[-73,-7],[-43,-38],[-125,-22],[-26,-23],[-100,-31],[2,-25],[-113,-19],[-227,-27],[-62,-33],[-88,-7],[-103,-46],[-86,-13],[-21,-34],[-115,-5],[-53,-25],[-57,-59],[-58,-8],[-50,-58],[-30,6]],[[2805,138],[-91,37],[11,70],[-71,0],[-13,62],[56,25],[28,29],[-35,61],[18,50],[-61,-11],[-45,50],[41,59],[-70,11],[-63,40],[-1,43],[37,40],[9,36],[43,39],[49,70],[16,43]],[[2207,1034],[100,15],[0,32],[83,14],[35,-8],[47,16],[58,-3],[-4,-58],[-29,-27],[12,-31],[132,18],[22,-110]],[[2805,138],[-29,-42],[-105,-3],[-132,-32],[-6,-30],[-75,-31],[-48,43],[-77,13],[-63,-18],[-67,11],[-51,-7],[-59,25],[6,35],[-73,16],[-20,-36],[-96,25]],[[5116,1523],[24,269],[4,137],[23,264],[2,98],[22,108],[-52,52],[-26,100],[31,53],[-13,45],[-47,3],[-60,26],[-105,21],[-46,29],[-5,77],[-35,43],[58,98],[80,46],[-66,83],[-18,72],[-109,92],[30,31],[-28,94],[-20,33],[13,66],[-40,20],[39,45],[-54,20],[-90,-53],[-126,-88],[34,-61],[-61,-43],[-23,-34],[-92,-11],[-3,-46],[18,-32],[-16,-48],[11,-35],[-75,-39],[-44,22],[-18,49]],[[4233,3129],[-17,71],[-70,79],[-45,-21],[-43,81],[-39,162],[-16,14],[43,63],[0,67],[20,36],[1,46],[-22,65],[-28,22],[-147,-41],[-48,-26],[-97,-76],[-90,-15],[-32,75],[-37,34],[-6,99],[-72,36],[-20,31]],[[3468,3931],[10,42],[34,42],[-19,63],[4,76]],[[3497,4154],[92,3],[66,-9],[50,27],[67,-13],[61,-81],[72,-32],[18,8],[120,-42],[42,-33],[23,58],[41,13],[7,141]],[[4156,4194],[58,-7],[164,-6],[7,-32],[44,-39],[58,-81],[41,-25],[162,-33],[5,-52],[-36,-114],[48,-63],[123,-49],[50,-30],[264,-1],[70,19],[38,-101],[1,-159],[77,40],[91,79],[93,11],[41,51],[45,-27],[54,23]],[[5654,3598],[24,-100],[40,-51],[71,-208],[10,-114],[-19,-112],[-12,-290],[29,-119],[26,-62],[-34,-85],[5,-29],[-59,-143],[3,-89],[-30,-30],[-41,-163],[18,-55],[-61,-71],[-7,-58],[-71,-85],[12,-57],[-44,-88],[6,-28],[-60,-51],[-39,-86],[-45,-60]],[[2880,6881],[79,35],[76,-11],[108,-65],[88,-41],[57,-76],[-68,-110],[-11,-83],[31,-21],[2,-48],[53,-77],[5,-37],[-31,-20],[-26,-64],[6,-34],[57,-39],[3,-47],[70,-76],[9,-102],[42,-20],[0,-30],[60,-3],[7,-31],[-47,-12],[-45,-61],[-32,-96],[-37,-56],[-8,-84]],[[3328,5572],[-34,-24],[-32,-105],[-226,-1],[-21,-5],[-44,-109],[-6,-62],[-68,-124],[-2,-188],[32,-27],[-55,-81],[16,-22]],[[2888,4824],[-131,-47],[-62,-81],[-36,15],[-40,-38],[3,-73],[-57,-35],[-43,-72],[-42,-30],[-63,29],[-28,-45],[-106,-49],[-64,-3],[-1,-23]],[[2218,4372],[-41,16],[-23,77],[12,48],[-36,63],[-13,93],[-35,23],[-37,-17],[-19,35],[-21,114],[3,72],[-38,26],[-32,-16],[-59,23],[-55,53],[-65,37],[-18,35],[-60,15],[-73,-7],[-39,40],[-95,24],[-21,23],[-108,25],[-145,57],[-22,19]],[[1178,5250],[-58,61],[-33,-10],[-76,43],[-27,-25],[-72,3],[-11,59],[-36,54],[-1,69],[-18,68],[-57,75],[9,57],[54,7],[31,55],[69,45],[43,57],[29,65],[-27,77]],[[4233,3129],[-102,-21],[11,-65],[-75,-87],[-48,-25],[-9,-42],[-55,2],[-26,46],[-36,-12],[-44,-55],[17,-55],[75,-61],[26,-69],[52,21],[68,4],[38,-24],[32,-72],[9,-102],[-34,-47],[6,-53],[-37,-13],[-43,-89],[-62,9],[-8,-48],[-46,-32],[-78,-25],[-30,-41],[51,-54],[-49,-21],[-58,-4],[-4,-24],[-76,-8],[-13,-71],[10,-49],[-27,-30],[80,-48],[-18,-47],[-35,-18],[-10,-111],[10,-42],[51,-38],[-58,-40],[-56,-20],[-41,-40],[-19,-53],[-58,57],[10,92],[-53,5],[2,42],[-28,44],[-41,1],[-4,39],[-62,36]],[[3338,1771],[-98,-27],[-10,-23],[-77,-19],[-72,28],[-11,46],[-34,36],[110,32],[-1,63],[-51,-2],[-21,37],[-36,1],[-12,69]],[[3025,2012],[44,2],[31,44],[-51,17],[52,59],[-44,39],[9,33],[-37,59],[-84,20],[11,25],[79,-9],[51,38],[10,50],[70,52],[94,-2],[55,31],[25,67],[1,42],[69,58],[23,39],[-30,23],[22,154],[-50,84],[9,16]],[[3384,2953],[71,-10],[27,38],[65,9],[22,39],[-43,139],[-29,56],[-33,103],[17,71],[-31,36],[11,41],[-3,141]],[[3458,3616],[-6,181],[15,47],[1,87]],[[4156,4194],[-37,97],[8,32],[-13,66],[20,46],[-10,75],[21,29],[0,72],[42,38],[57,1],[38,22],[49,-21],[83,0],[1,46],[-89,166],[4,152],[16,309],[-6,52]],[[4340,5376],[49,32],[61,8],[45,-35],[97,-13]],[[4592,5368],[101,-290],[29,-54],[40,-130],[48,-70],[104,-67],[46,-98],[34,-5],[20,-47],[-15,-44],[13,-66],[33,-58],[63,-49],[38,11],[61,-95],[68,-48],[78,-31],[149,-211],[75,-132],[31,-82],[46,-204]],[[3320,870],[-38,59],[7,24],[-32,38],[-83,18],[-8,30],[-62,73],[-2,59],[14,67],[-40,78],[30,61],[63,76],[32,141],[39,48],[34,17],[24,76],[40,36]],[[3497,4154],[-175,-31],[-41,18],[-60,-2],[-4,-40],[-30,-19],[-74,6],[-14,-25],[-72,-22],[-11,18],[-68,-4],[-24,29],[10,42],[-26,59],[-6,134],[19,23],[71,6],[40,108],[22,167],[54,110],[-38,-2],[-28,29],[-41,-16],[-2,-37],[-52,17],[2,62],[-61,40]],[[3328,5572],[43,13],[29,-45],[78,-31],[19,-84],[123,13],[109,-17],[73,-36],[88,12],[51,-50],[73,-28],[46,-1],[-8,-68],[32,-41],[-15,-71],[69,29],[1,30],[60,119],[80,81],[61,-21]],[[572,2443],[35,-57],[52,-17],[82,7],[26,-27],[66,-2],[62,15],[53,-11],[17,-33],[140,-38],[51,9],[14,90],[60,32],[8,22],[110,-9],[33,16]],[[1381,2440],[73,2],[29,-14],[5,-83],[-23,-43]],[[1465,2302],[-59,-42],[-31,-97],[38,-8],[27,-52],[-13,-39],[-50,3]],[[1377,2067],[-75,19],[-86,-44],[22,-71],[-49,-2],[-20,69],[-60,27],[-25,-49],[-62,25],[-74,-37],[-60,-60],[-76,-10],[-46,-21],[-69,1],[-4,28],[-48,33],[-13,-50],[22,-49],[-4,-38]],[[650,1838],[-52,124],[-44,125],[-13,108],[-46,154],[77,94]],[[572,2443],[-4,50],[-58,206],[36,73],[29,-2],[-14,112],[-34,59],[-42,0],[14,180]],[[499,3121],[64,-6],[176,17],[20,-4]],[[759,3128],[41,41],[30,-11],[93,59],[42,6],[102,-78],[170,108],[64,-42],[-3,-30],[55,-32],[70,-63]],[[1423,3086],[12,-31],[-27,-42],[-21,-76],[-29,6],[-45,-30],[3,-72],[28,-59],[47,28],[68,-8],[-121,-176],[21,-84],[26,-60],[-4,-42]],[[880,1201],[-34,45],[21,41],[-18,65],[15,14],[-59,134],[-62,165],[-93,173]],[[1377,2067],[8,-44],[29,-35],[1,-48],[31,-51],[-14,-26],[44,-82],[68,-50],[26,-38],[-6,-38],[30,-34],[56,-10],[55,-51],[29,-57],[-49,-23],[111,-157],[110,-136],[3,-20]],[[1423,3086],[155,107],[64,32],[24,-8],[130,14],[31,42],[-20,27],[35,23],[3,59],[92,23],[51,-31],[27,-64]],[[2015,3310],[12,-53],[74,-45],[69,-65],[-5,-49],[64,-12],[49,-54],[-26,-50],[89,-107],[-95,-41],[-26,-48],[-117,-14],[-4,-48],[28,-82],[-4,-85]],[[2123,2557],[11,-26],[-92,-73],[31,-25],[-17,-44],[-12,-97],[152,-47],[24,-83],[29,-22],[-41,-37]],[[2208,2103],[-188,19],[-62,46],[-45,-23],[-42,4],[-100,-35],[-47,60],[-67,-16],[-89,106],[-46,4],[-7,48],[-50,-14]],[[2218,4372],[-1,-77],[46,-18],[33,-70],[20,-13],[-1,-69],[33,-9],[11,-73],[-12,-72],[44,-26],[32,-60],[-24,-25],[-42,-99],[55,-98],[-24,-90],[4,-28]],[[2392,3545],[-50,-53],[5,-45],[-77,-6],[-4,-47],[-31,-12],[-94,60],[5,-44],[-20,-39],[-71,-54],[-40,5]],[[759,3128],[-10,168],[-84,361],[-13,124],[22,88],[-8,43],[41,39],[6,51],[45,48],[45,-8],[13,32],[-24,35],[20,36],[97,58],[-14,36],[23,46],[-21,33],[29,78],[84,41],[2,37],[39,29],[34,0],[21,45],[3,53],[87,32],[6,47],[57,-35],[41,16],[-40,54],[43,75],[-7,116],[17,42],[-65,29],[-35,40],[-14,105],[-25,59],[4,69]],[[499,3121],[-59,290],[-45,155],[-34,167],[-8,156],[29,14],[9,63],[-3,96],[-39,215],[-47,157],[-56,210],[-102,283],[4,86],[-16,47],[12,74],[-35,147],[60,19],[50,38],[30,108],[36,60],[34,97],[-1,41],[34,5],[-35,-95],[-47,-90],[42,-142],[-55,-23],[-25,-55],[9,-42],[-10,-74],[-32,-49],[25,-35],[-12,-53],[46,-54],[-34,-109],[26,-46],[98,-34],[81,-7],[11,48],[45,18],[-29,67],[-84,74],[57,78],[15,53],[38,32],[-3,34],[-44,52],[7,66],[-61,72],[36,11],[17,66],[54,101],[-13,32],[36,59],[-11,154],[14,44],[41,34],[9,151],[11,45],[36,0],[81,28],[11,43]],[[2208,2103],[5,-58],[-24,-23],[32,-41],[70,-24],[44,17],[74,-27],[111,-10],[101,-19],[29,20],[108,-12],[66,20],[35,-12],[77,46],[39,-10],[50,42]],[[3384,2953],[-124,-3],[-28,-40],[-33,30],[-64,-10],[-71,9],[-55,25],[-2,49],[-108,98],[-26,2],[54,-165],[-107,-91],[-23,-45],[-62,-61],[-26,-48],[-62,23],[-68,-6],[-28,-46],[-108,-5],[-37,11],[-74,-14],[48,-82],[62,-48],[46,-58],[-65,-115],[-65,-9],[-34,49],[-64,47],[-32,74],[-79,53],[-26,-20]],[[2392,3545],[56,-67],[70,-32],[27,-29],[76,-40],[116,6],[20,19],[14,84],[-26,59],[69,40],[67,-60],[97,-48],[78,74],[51,7],[60,27],[44,-17],[51,17],[50,-31],[12,31],[60,28],[74,3]],[[3335,7082],[-55,-55],[21,-72],[71,-21],[71,127],[74,-95],[28,-10],[59,-105],[71,-67],[55,-2],[38,-65],[73,-100],[105,-104],[40,-27],[76,-134],[46,-41],[11,-67],[-19,-19],[12,-102],[-73,-23],[-6,-39],[44,-74],[-32,-26],[-34,41],[-80,50],[-76,-113],[34,-18],[37,41],[46,17],[53,-18],[33,-84],[50,-20],[146,11],[25,49],[-20,47],[57,5],[38,36],[75,-49],[43,-105],[51,-187],[31,-41],[-11,-72],[49,-183]]],"transform":{"scale":[0.0003826110939378325,0.0004339434300908487],"translate":[79.6510158,5.9190173]},"objects":{"LKA":{"type":"GeometryCollection","geometries":[{"arcs":[[[0]],[[1]],[[2]],[[3,4,5]],[[6]],[[7]]],"type":"MultiPolygon","properties":{"name":"Jaffna District","shapeGroup":"LKA","gid":"LKA-2-0"},"id":"LKA-2-0"},{"arcs":[[[8]],[[-5,9,10,11]]],"type":"MultiPolygon","properties":{"name":"Kilinochchi District","shapeGroup":"LKA","gid":"LKA-2-1"},"id":"LKA-2-1"},{"arcs":[[[-11,12,13,14,15,16]],[[17]]],"type":"MultiPolygon","properties":{"name":"Mannar District","shapeGroup":"LKA","gid":"LKA-2-2"},"id":"LKA-2-2"},{"arcs":[[-4,18,19,20,-13,-10]],"type":"Polygon","properties":{"name":"Mullaitivu District","shapeGroup":"LKA","gid":"LKA-2-3"},"id":"LKA-2-3"},{"arcs":[[-14,-21,21,22]],"type":"Polygon","properties":{"name":"Vavuniya District","shapeGroup":"LKA","gid":"LKA-2-4"},"id":"LKA-2-4"},{"arcs":[[23,24,25,26]],"type":"Polygon","properties":{"name":"Galle District","shapeGroup":"LKA","gid":"LKA-2-5"},"id":"LKA-2-5"},{"arcs":[[27,28,29,30,31]],"type":"Polygon","properties":{"name":"Hambantota District","shapeGroup":"LKA","gid":"LKA-2-6"},"id":"LKA-2-6"},{"arcs":[[-26,32,-32,33]],"type":"Polygon","properties":{"name":"Matara District","shapeGroup":"LKA","gid":"LKA-2-7"},"id":"LKA-2-7"},{"arcs":[[-30,34,35,36,37,38,39]],"type":"Polygon","properties":{"name":"Ampara District","shapeGroup":"LKA","gid":"LKA-2-8"},"id":"LKA-2-8"},{"arcs":[[-15,-23,40,41,42,43,44]],"type":"Polygon","properties":{"name":"Anuradhapura District","shapeGroup":"LKA","gid":"LKA-2-9"},"id":"LKA-2-9"},{"arcs":[[-36,45,46,47,48,49]],"type":"Polygon","properties":{"name":"Badulla District","shapeGroup":"LKA","gid":"LKA-2-10"},"id":"LKA-2-10"},{"arcs":[[-39,50,51,52]],"type":"Polygon","properties":{"name":"Batticaloa District","shapeGroup":"LKA","gid":"LKA-2-11"},"id":"LKA-2-11"},{"arcs":[[-29,53,-46,-35]],"type":"Polygon","properties":{"name":"Monaragala District","shapeGroup":"LKA","gid":"LKA-2-12"},"id":"LKA-2-12"},{"arcs":[[-38,54,-42,55,-51]],"type":"Polygon","properties":{"name":"Polonnaruwa District","shapeGroup":"LKA","gid":"LKA-2-13"},"id":"LKA-2-13"},{"arcs":[[56,57,58,59,60]],"type":"Polygon","properties":{"name":"Colombo District","shapeGroup":"LKA","gid":"LKA-2-14"},"id":"LKA-2-14"},{"arcs":[[-57,61,62,63,64]],"type":"Polygon","properties":{"name":"Gampaha District","shapeGroup":"LKA","gid":"LKA-2-15"},"id":"LKA-2-15"},{"arcs":[[-24,65,-60,66]],"type":"Polygon","properties":{"name":"Kalutara District","shapeGroup":"LKA","gid":"LKA-2-16"},"id":"LKA-2-16"},{"arcs":[[-58,-65,67,68,69,70]],"type":"Polygon","properties":{"name":"Kegalle District","shapeGroup":"LKA","gid":"LKA-2-17"},"id":"LKA-2-17"},{"arcs":[[-44,71,72,-68,-64,73]],"type":"Polygon","properties":{"name":"Kurunegala District","shapeGroup":"LKA","gid":"LKA-2-18"},"id":"LKA-2-18"},{"arcs":[[-16,-45,-74,-63,74]],"type":"Polygon","properties":{"name":"Puttalam District","shapeGroup":"LKA","gid":"LKA-2-19"},"id":"LKA-2-19"},{"arcs":[[-25,-67,-59,-71,75,-47,-54,-28,-33]],"type":"Polygon","properties":{"name":"Ratnapura District","shapeGroup":"LKA","gid":"LKA-2-20"},"id":"LKA-2-20"},{"arcs":[[-49,76,-69,-73,77]],"type":"Polygon","properties":{"name":"Kandy District","shapeGroup":"LKA","gid":"LKA-2-21"},"id":"LKA-2-21"},{"arcs":[[-37,-50,-78,-72,-43,-55]],"type":"Polygon","properties":{"name":"Matale District","shapeGroup":"LKA","gid":"LKA-2-22"},"id":"LKA-2-22"},{"arcs":[[-48,-76,-70,-77]],"type":"Polygon","properties":{"name":"Nuwara Eliya District","shapeGroup":"LKA","gid":"LKA-2-23"},"id":"LKA-2-23"},{"arcs":[[-20,78,-52,-56,-41,-22]],"type":"Polygon","properties":{"name":"Trincomalee District","shapeGroup":"LKA","gid":"LKA-2-24"},"id":"LKA-2-24"}]}}}