{"type":"Topology","arcs":[[[1973,1062],[47,-35],[45,4],[138,-19],[92,-63],[142,-47],[12,-54],[98,-13]],[[2547,835],[38,-23],[-2,-83],[76,-28],[97,-67],[17,-43],[52,-32],[140,6],[20,23],[73,-8]],[[3058,580],[85,-68],[26,-76],[-20,-107],[26,-128],[29,-69]],[[3204,132],[-59,56],[-40,2],[-111,66],[-91,-10],[-82,9],[-147,-21],[-135,50],[-98,112],[-9,37],[-78,37],[-4,59],[-75,39],[-66,72],[-50,7],[-50,36],[-29,73],[-47,166],[-31,-15],[-69,9],[-28,55],[23,28],[-42,63]],[[1886,1062],[87,0]],[[2547,835],[-11,95],[-26,86],[25,11],[15,65],[-59,94]],[[2491,1186],[76,-27],[153,1],[57,-26],[24,-50],[41,-29],[24,-54],[-10,-32],[43,-43],[45,-6],[63,-93],[-6,-30],[61,-86],[53,-45],[-57,-86]],[[2491,1186],[-40,65]],[[2451,1251],[5,45],[-35,52],[86,20],[9,36],[-28,54],[13,86],[-56,12],[30,72],[48,44],[38,-13],[-2,-83],[74,-13],[46,30],[48,-22],[30,35]],[[2757,1606],[26,-100],[40,-16],[47,-98],[73,-14],[47,-41],[25,66],[-2,74],[64,9],[79,-59],[73,-1],[17,110],[-43,45],[65,57],[62,4],[-42,120],[39,43],[108,-53],[43,5],[136,-134],[2,-57],[32,-20],[28,-81],[91,-65],[68,-7],[77,-61],[101,-38],[15,-32],[50,-9],[23,-34],[84,-18],[15,-41],[-27,-46],[26,-47],[-70,-66],[-13,-38]],[[4116,963],[-29,17],[-68,-31],[-80,-121],[78,-67],[11,-56],[-26,-31],[18,-53],[-68,-80],[20,-57],[-40,-105],[-43,-34],[-90,-31],[-8,-42],[26,-50],[-8,-59],[22,-40],[-5,-86],[-46,-37],[-29,51],[-51,41],[-25,-18],[-97,-2],[-44,14],[-119,-13],[-36,35],[-39,-17],[-136,41]],[[1886,1062],[-10,29],[-60,44],[-18,36],[-90,-14],[-61,92],[-53,41],[5,127],[-68,38],[-66,-40],[-59,-5],[-92,-62],[-54,60],[28,55],[-19,44],[33,58],[-77,46],[12,102],[-18,121],[34,79],[39,32]],[[1292,1945],[63,-32],[99,-27],[30,34],[50,8],[131,-2]],[[1665,1926],[-5,-47],[-65,-8],[-21,-46],[17,-56],[93,-15],[31,-41],[189,-46],[47,12],[120,-46],[37,-2],[27,-65],[-55,-59],[-33,2],[-53,-71],[8,-63],[58,-98]],[[2060,1277],[-32,-29],[-83,3],[-31,-71],[59,-118]],[[2451,1251],[-78,2],[-50,19],[-47,50],[-54,22],[-88,-33],[-45,-52],[-29,18]],[[1665,1926],[-40,46],[54,54]],[[1679,2026],[33,-9],[38,-90],[110,-117],[44,-11],[127,62],[43,48],[59,115],[76,50],[28,92],[86,96]],[[2323,2262],[54,-14],[13,-55],[56,-41],[-9,-90],[25,-45],[55,-28],[90,-20],[18,-48],[-18,-73],[20,-28],[91,-35],[24,51],[67,33],[67,-29],[60,73],[75,3],[53,-14],[76,29]],[[3140,1931],[-89,-105],[-36,44],[-35,-9],[-13,-135],[-31,-26],[-68,3],[3,-67],[-40,-24],[-29,47],[-45,-53]],[[3140,1931],[-91,8],[-24,34],[50,71],[-56,80],[6,48],[49,38],[85,33],[-51,54],[-2,68],[34,38],[76,3],[19,-48],[-18,-58],[73,-30],[51,94],[-30,49],[45,34]],[[3356,2447],[89,-84],[45,43],[60,-39],[73,-21]],[[3623,2346],[46,-32],[12,-87],[-49,-35],[-27,-57],[-38,-32],[-10,-76],[117,3],[43,-81],[150,-44],[30,-112],[2,-71],[32,-18],[21,-89],[44,-13],[70,-69],[74,-26]],[[4140,1507],[116,-90],[22,-77],[58,-43],[4,-64],[-41,-130],[-5,-66],[-63,21],[-37,-68],[-78,-27]],[[3623,2346],[51,64],[117,27],[45,24],[17,40],[74,52],[78,20],[57,-50],[51,22],[22,45],[147,24],[80,-18]],[[4362,2596],[93,-24],[32,-40],[11,-71],[35,-49],[-76,-11],[-65,47],[-78,-54],[-81,16],[-35,-29],[4,-67],[-24,-36],[2,-78],[68,-69],[109,6],[71,-44],[83,-14],[63,8],[42,-26],[48,17],[14,-46]],[[4678,2032],[-14,0],[-67,-174],[6,-79],[-115,-38],[-35,-56],[-55,-6],[-81,23],[-15,-19],[-80,-15],[-79,-109],[-3,-52]],[[1296,2647],[73,-81],[39,-89],[78,14]],[[1486,2491],[10,-42],[-26,-35],[35,-33]],[[1505,2381],[-50,-31],[3,-49],[-60,-58],[-18,-80],[-38,-9]],[[1342,2154],[-18,0],[-106,129],[-26,81],[35,103],[-4,42],[-55,82],[128,56]],[[4362,2596],[37,16],[-38,54],[50,36],[57,5],[125,-26],[25,-33],[-9,-60],[87,3],[49,-77],[4,-59],[70,-10]],[[4819,2445],[94,-5],[43,-31],[21,35],[52,-13],[12,50],[53,60],[53,-8],[8,-74],[145,-5],[27,36],[87,-4],[65,-20]],[[5479,2466],[10,-23],[-39,-69],[-83,-78],[-13,-82]],[[5354,2214],[-96,-6],[-16,-31],[-96,-51],[-75,-13],[-38,-28],[-104,-2],[-145,48],[-32,-78],[-74,-21]],[[1679,2026],[67,83],[60,115],[46,36],[-55,49],[-63,9],[-100,41],[-81,-4],[-48,26]],[[1486,2491],[-2,30],[87,14],[12,78],[45,18],[4,48],[63,19],[-38,55],[64,26],[28,69],[29,9],[13,86]],[[1791,2943],[81,56],[65,-20],[91,-119],[45,-7],[29,45],[94,-2],[90,-70],[40,-56]],[[2326,2770],[-50,-49],[-8,-46],[23,-44],[-2,-67],[-44,-46],[57,-31],[12,-91],[-22,-79],[31,-55]],[[1342,2154],[4,-5]],[[1346,2149],[-46,-16],[-213,-16],[-13,33],[-90,333],[-98,54],[-10,37],[-146,145],[-162,397]],[[568,3116],[48,-18],[88,16],[22,-20],[104,-12]],[[830,3082],[52,-11],[127,20],[45,43],[53,15],[23,39],[-9,57],[32,53],[77,11],[32,-54]],[[1262,3255],[1,-135],[-42,-26],[4,-64],[-39,-112],[27,-39],[-13,-62],[96,-170]],[[2326,2770],[90,40],[0,25],[75,25],[12,45],[51,37],[23,48],[-34,99],[79,130],[72,22],[48,47],[-3,35],[59,13],[10,31]],[[2808,3367],[-24,46],[56,44],[33,-2]],[[2873,3455],[49,-50],[77,9],[53,34],[20,-23],[188,-13],[15,-47],[70,5]],[[3345,3370],[76,-28],[10,-75],[-24,-39]],[[3407,3228],[-41,7],[-57,-40],[2,-108],[79,-87],[49,-13],[78,18],[42,-23],[79,9]],[[3638,2991],[-4,-122],[-26,-93],[-51,-21],[-4,-37],[-50,-25],[-46,-89],[26,-21],[-127,-136]],[[1262,3255],[-5,109],[-46,92],[17,21]],[[1228,3477],[60,-40],[21,49],[68,35],[95,-27],[23,-53],[48,-2],[20,-76],[94,-156],[23,-98],[30,-79],[81,-87]],[[3638,2991],[59,-2],[23,24],[99,28],[41,42],[108,18],[88,-18],[43,66],[62,-16],[90,120]],[[4251,3253],[97,-28],[-9,-38],[53,-38],[246,67],[69,34],[29,56],[50,-14],[75,111],[65,8],[21,24],[101,51],[88,-14],[78,76],[57,-2],[52,25]],[[5323,3571],[14,-2]],[[5337,3569],[18,-31],[109,-65],[-45,-33],[14,-46],[-46,-58],[9,-79],[-36,-24],[-3,-60],[61,-47],[20,-39],[-62,-132],[-84,8],[-14,-26],[-90,-28],[-22,-35],[-56,-21],[-37,-102],[-94,-25],[-13,-43],[-44,-3],[-14,-51],[-54,-14],[-46,-111],[11,-59]],[[5337,3569],[70,27],[56,45],[105,-61],[56,-13],[41,-36],[40,-4],[85,-47],[73,-87],[2,-88],[-31,-63],[67,-38],[72,53],[51,3],[26,54],[68,-1],[13,36],[-39,85],[60,66]],[[6152,3500],[93,-31],[91,14],[31,-8],[74,-84],[102,-75],[33,3],[79,-67],[98,-57]],[[6753,3195],[-37,-29],[-79,-24],[12,-61],[-61,-10],[-21,-27],[-78,-26],[-73,-9],[45,-60],[34,-89],[-14,-76],[9,-43],[89,-68],[12,-43],[-60,-1],[-33,-29],[-121,-1],[-52,-11],[15,-51],[-122,-10],[-41,30],[-32,65],[-46,-28],[-108,15],[-50,27],[-63,-11],[-45,127],[-87,-12],[-27,-77],[-36,36],[-37,-18],[-29,-64],[12,-47],[-119,-75]],[[5510,2495],[-31,-29]],[[6753,3195],[-30,108],[27,28],[-48,50],[-11,82],[49,74],[63,41],[-5,86],[57,47],[9,43],[44,33],[5,44],[46,35],[149,-29],[66,5],[43,-57],[47,-34],[58,-4]],[[7322,3747],[13,-81],[-30,-50],[-25,-133],[27,-79],[-9,-26],[-95,-67],[123,-46],[29,-31],[8,-62],[53,-3],[7,-97],[16,-30],[-51,-39],[-95,-15],[-73,-68],[-7,-84],[-52,28],[-133,-88],[-61,-19],[-119,-94],[-28,-70],[-107,-42],[-62,10],[-20,-55],[-114,-64],[-83,-15],[-71,-32],[-7,-48],[-87,-29],[-81,-2],[-39,-29]],[[6149,2287],[-45,34],[-110,36],[-113,15],[-72,40],[-37,-24],[-129,-12],[-74,21],[-59,98]],[[1228,3477],[25,58],[35,23]],[[1288,3558],[25,60],[68,13],[9,77],[57,63],[12,70],[34,95]],[[1493,3936],[46,-19]],[[1539,3917],[66,20],[33,-9],[41,-89],[26,-29],[12,-112],[30,-59],[-8,-81],[89,-50],[49,20],[33,-42],[25,-129],[53,-15],[81,-69],[-1,-82],[19,-49],[44,12],[16,-37],[50,-26],[85,-91],[50,-150],[-6,-80]],[[830,3082],[3,62],[-47,30],[-7,65]],[[779,3239],[45,14],[43,40],[61,3],[7,66],[81,17],[7,30],[-15,129],[-61,10],[-74,63],[-73,23]],[[800,3634],[-27,94],[4,106],[-55,56]],[[722,3890],[61,12]],[[783,3902],[43,-35],[106,2],[58,-39],[11,40],[71,96],[77,38],[-4,-50],[62,-49],[14,-53],[-31,-159],[13,-93],[85,-42]],[[1539,3917],[41,58],[46,36],[58,84],[54,24],[74,4],[21,-27]],[[1833,4096],[-8,-57],[-57,3],[31,-110],[36,-63],[87,-39],[60,18],[8,34],[66,38],[68,15],[51,-26],[66,25],[-5,-78],[62,-69],[63,-48],[20,-55],[-38,-68],[-46,30],[-30,-78],[159,-96],[12,-35],[-37,-46],[-64,18],[-100,50],[-7,-60],[-37,-9],[-10,-63],[-59,15],[-22,-48],[34,-35],[57,22],[91,10],[61,-6],[58,45],[163,51],[84,8],[18,-15],[140,-7]],[[568,3116],[-274,669],[-36,45],[-78,54],[-81,104],[-53,53],[-40,18],[-6,49],[57,40]],[[57,4148],[75,-80],[59,19],[42,-39],[69,26],[3,-77],[40,-18],[71,87],[69,1],[27,-83],[37,28],[55,-21],[-13,-96],[115,-16],[16,11]],[[800,3634],[-9,-52],[-55,-21],[-36,22],[-68,-66],[35,-77],[11,-84],[72,-43],[29,-74]],[[2873,3455],[35,20],[-9,58],[29,112],[-92,26],[-162,99],[-85,141],[111,66],[46,102]],[[2746,4079],[52,77],[89,28],[60,120],[60,41],[72,-20],[112,-93],[60,-65],[45,5],[104,-76],[101,-27],[258,-27],[68,-26],[100,-11],[39,11]],[[3966,4016],[43,-44],[34,-152],[33,-64],[46,-12],[-17,-71],[37,-38],[18,-107],[52,-144],[11,-68],[28,-63]],[[3407,3228],[19,-29],[86,-22],[71,36],[100,-30],[75,111],[48,36],[-44,39],[-35,58],[-60,42],[-84,-1],[-151,19],[-5,-54],[-82,-63]],[[5323,3571],[83,90],[33,54],[60,33],[48,89],[-51,130],[39,92],[-32,87],[-46,82],[-86,42],[-58,65],[-62,8],[-17,26],[-91,45],[29,55],[3,65],[52,24]],[[5227,4558],[38,-10],[-9,-50],[52,-89],[17,-55],[85,109],[106,23],[9,41],[152,36],[40,21]],[[5717,4584],[4,-41],[121,-54]],[[5842,4489],[26,-38],[-40,-36],[62,-49],[-32,-62],[17,-34],[55,1],[12,89],[59,-34],[-22,-106],[25,-31],[115,-31],[-52,-30],[-30,20],[-45,-28],[27,-79],[83,-27],[23,-46],[-94,1],[-20,42],[-37,-5],[-22,-71],[13,-70],[-35,-40],[93,-119],[53,8],[4,-80],[-50,-56],[3,-27],[119,-51]],[[783,3902],[53,95],[-11,74],[25,54],[42,44],[26,57],[76,20],[-11,131],[69,30],[-11,86]],[[1041,4493],[84,57],[73,-1],[50,-130],[-12,-45],[78,-40],[-8,-22],[46,-118],[54,22],[20,-39],[45,-7]],[[1471,4170],[17,-58],[-47,-89],[3,-47],[49,-40]],[[57,4148],[-31,89],[51,11],[51,-83],[29,-11],[30,70],[11,88],[55,-70],[34,42],[39,6],[-8,51],[54,50],[74,10],[45,57],[167,-31],[15,43],[51,34],[77,-20],[41,27],[-4,43],[76,42],[42,-28],[55,-3]],[[1011,4565],[30,-72]],[[5842,4489],[67,44],[10,-36],[53,6],[-37,105],[28,31],[-10,59],[50,19],[37,51]],[[6040,4768],[51,-3],[37,-41],[6,-47],[112,20],[45,44],[58,20],[74,-29],[6,-39],[96,-46],[286,39],[42,-27],[21,38],[46,25],[75,-15],[50,-40],[63,-9],[33,-45],[43,8],[67,-30],[50,-70],[6,-98],[100,-35],[35,29],[42,70],[48,-46],[105,46],[78,5],[84,-60],[69,-1],[38,56]],[[7906,4487],[67,-61],[-23,-52],[-113,-11],[26,-65],[1,-57],[-40,-110],[-60,16],[-103,-3],[-71,-64],[-46,-14],[-35,-45],[-96,-25],[-12,-99],[-47,-56],[21,-69],[-53,-25]],[[1833,4096],[77,17],[53,-4],[214,134],[-39,64],[-5,45],[-40,31],[-18,95]],[[2075,4478],[80,-48],[1,57],[-35,35],[31,91],[12,76],[133,32],[36,43]],[[2333,4764],[31,-26],[0,-75],[87,-72],[21,-49]],[[2472,4542],[-14,-33],[5,-166],[20,-39],[82,-52],[73,-95],[108,-78]],[[1471,4170],[146,55],[65,14],[-14,233],[-48,143],[23,35]],[[1643,4650],[50,-6],[4,100],[56,-2],[29,-56],[-23,-78],[50,-15],[68,74],[49,33]],[[1926,4700],[76,-27],[-46,-57],[66,-36],[43,7],[10,-109]],[[3966,4016],[48,40],[-31,86]],[[3983,4142],[36,26],[97,-28],[52,-76],[98,14],[-36,114],[29,21],[72,163],[-10,47],[68,25],[107,1],[75,29],[162,113],[23,156],[147,62],[20,26]],[[4923,4835],[88,8],[48,-32],[9,-38],[61,-16]],[[5129,4757],[40,-37],[96,-2],[38,19],[-12,-94],[-31,-13],[-33,-72]],[[2333,4764],[-45,-3],[-46,132],[-45,73],[-5,55]],[[2192,5021],[113,13],[68,-8]],[[2373,5026],[26,-46],[63,26],[118,-28],[20,-58],[72,-69],[48,-17]],[[2720,4834],[18,-53],[-7,-59],[27,-22],[-37,-44],[-27,-66],[-50,13],[-33,-45],[-33,56],[-30,-50],[-76,-22]],[[1926,4700],[-44,1],[-104,48],[42,106],[42,45],[29,77],[-36,11],[4,81]],[[1859,5069],[53,52],[40,-16],[30,30]],[[1982,5135],[36,-30],[89,-16],[-12,-31],[97,-37]],[[1643,4650],[-27,-2],[-3,94],[-58,79],[-18,57],[-41,31],[-22,66],[15,79],[34,8],[3,53]],[[1526,5115],[65,-20],[28,84],[62,-1],[-4,-43],[63,-60],[80,39],[39,-45]],[[1011,4565],[-16,87],[20,60],[80,66],[62,-29],[47,9],[-15,132],[48,16],[41,65],[70,74],[56,13],[20,29],[-11,61],[-56,69],[19,27],[69,-40]],[[1445,5204],[12,-44],[69,-45]],[[6040,4768],[51,36],[22,43],[-10,108],[51,-4],[22,49],[-23,73],[87,60],[30,56],[-94,95]],[[6176,5284],[72,35],[-6,40],[38,44],[-12,46],[66,8],[23,57],[41,40],[36,-12]],[[6434,5542],[36,3],[40,-48],[28,47],[68,-63],[-38,-47],[82,-24],[49,9],[8,41],[83,36],[58,-1]],[[6848,5495],[71,-32],[-7,-76],[49,-67],[73,-42],[94,14],[30,-25]],[[7158,5267],[51,-32],[52,-7],[98,-57],[-11,-83],[50,-23],[34,-57],[106,-82],[157,-66],[48,-49],[132,-56]],[[7875,4755],[30,-121],[-33,-13],[60,-65],[-26,-69]],[[1982,5135],[15,32],[50,4],[30,59],[-17,84],[-50,24]],[[2010,5338],[67,122],[-2,36],[43,21]],[[2118,5517],[46,-65],[0,-88],[89,20],[49,-20],[90,22],[-13,-105]],[[2379,5281],[-10,-82],[22,-90],[-18,-83]],[[2379,5281],[40,42],[72,2],[19,58],[-19,33],[153,74]],[[2644,5490],[48,34],[238,-159],[26,-63],[50,-39],[40,20]],[[3046,5283],[20,-84],[-53,-67],[-44,9],[-38,-22],[-55,-98],[16,-27],[-63,-92],[-84,6],[-25,-74]],[[3046,5283],[39,27],[81,-21],[62,65],[60,3],[27,65],[87,108]],[[3402,5530],[9,21]],[[3411,5551],[39,14],[36,-34],[-14,-87],[57,-121],[-28,-12],[0,-57],[41,-20],[-11,-45],[37,-32],[98,83],[32,62],[98,28],[-14,43],[41,35],[57,-6],[59,30],[0,94],[51,9],[15,-68],[99,-94],[9,-23]],[[4113,5350],[4,-47],[-43,-25],[-8,-56],[-65,-7],[-48,-101],[-53,-39],[-72,2],[-47,-85],[-37,-25],[-13,-93],[50,-5],[26,-56],[-6,-112],[72,-14],[-29,-44],[59,-25],[2,-42],[40,-60],[-29,-45],[68,-56],[-35,-37],[7,-77],[-15,-50],[42,-109]],[[5717,4584],[-62,9],[-57,40],[49,24],[0,55],[-34,91],[-56,14],[-74,44],[-83,17],[-105,-5],[-21,-33],[-55,-3],[-29,-44],[-61,-36]],[[4923,4835],[-15,41],[32,38],[9,141],[-24,39],[31,93],[52,46],[36,144]],[[5044,5377],[95,16],[17,-52],[61,-56],[48,2],[37,-43],[50,2],[33,-25],[54,1],[56,27],[31,38],[-41,36],[-48,106],[-98,146],[9,28]],[[5348,5603],[35,22],[126,24],[20,36],[178,104],[32,58],[70,55],[27,-60],[64,-21],[-8,-46],[-66,-134],[-24,-160],[-74,-90],[88,-22],[59,-73],[74,-52],[49,50],[178,-10]],[[2010,5338],[-57,-30],[-73,9],[-42,50],[28,106]],[[1866,5473],[79,-26],[25,47],[-13,70],[45,18],[26,-25],[59,64],[-56,42],[-48,-21],[-61,63],[-74,7]],[[1848,5712],[-78,24],[-36,64],[70,29],[55,86],[47,13],[42,42],[13,63],[53,-19]],[[2014,6014],[43,-64],[8,-83],[20,-42],[-31,-74],[16,-62],[60,-8],[-9,-39],[103,-83],[-106,-42]],[[3402,5530],[-60,1],[-103,103],[-61,18],[-24,39],[-43,-107],[-78,-45],[-95,97],[-114,46],[-15,57],[-68,2],[-18,81],[10,76]],[[2733,5898],[43,42],[31,156]],[[2807,6096],[5,-18],[97,-37],[81,25],[38,-50],[59,6],[106,-52],[46,8],[71,-40],[84,-65],[76,-2]],[[3470,5871],[26,-4]],[[3496,5867],[-13,-52],[21,-47],[-11,-63],[42,-43],[-42,-54],[-53,12],[-32,-18],[3,-51]],[[2644,5490],[-94,0],[6,72],[-46,94],[-47,70],[-41,11],[-58,53],[-5,122],[19,92],[24,41],[12,73]],[[2414,6118],[25,-50],[55,-32],[58,9],[97,-47],[18,-51],[52,-15],[14,-34]],[[4113,5350],[8,41],[93,67],[88,98],[38,14],[68,118],[-56,78],[-64,134],[-45,32],[-39,105],[39,46]],[[4243,6083],[8,16]],[[4251,6099],[77,37],[1,59]],[[4329,6195],[38,27],[81,-12],[73,-46],[53,-11],[-35,-97],[57,-129],[46,-40],[12,-61],[-13,-40],[17,-89],[45,-18],[21,-79],[-15,-50],[63,-40],[77,-100],[73,10],[24,-22],[98,-21]],[[7158,5267],[38,51],[12,80],[50,144],[-42,-10],[-4,55],[-93,49]],[[7119,5636],[14,37],[76,63],[98,120],[107,24],[4,83],[84,3],[35,80],[-10,53],[7,87],[57,-17],[35,36],[148,13],[81,139],[53,-13],[68,-41]],[[7976,6303],[82,-78],[16,-49],[-36,-92],[18,-39],[-15,-97],[75,-68],[54,16],[97,-51],[-12,-61],[32,-9],[73,-132],[-4,-79],[32,-74],[-22,-28],[46,-45],[17,-84],[-54,-14],[26,-117],[-46,-44],[5,-38],[-59,-1],[2,-83],[-37,-3],[-31,-75],[13,-32],[-94,-43],[-49,-62],[-55,17],[-65,-21],[-42,-70],[-68,8]],[[2014,6014],[60,26],[11,51],[-47,44],[27,29],[73,7],[20,67],[44,28]],[[2202,6266],[39,45],[94,-6],[76,-72]],[[2411,6233],[3,-115]],[[3496,5867],[32,36],[33,149],[58,55],[7,111],[-82,-17],[-14,20],[-75,-22],[-19,16],[11,74],[35,6],[100,75],[-36,48]],[[3546,6418],[47,2],[34,35],[125,-3]],[[3752,6452],[-23,-59],[43,-28],[70,46],[56,-9],[33,-48],[125,-70],[25,-39],[89,-14],[21,-110],[52,-38]],[[2807,6096],[13,46],[-77,49],[-62,-12],[-14,66],[-38,54],[-89,43]],[[2540,6342],[70,64],[104,29],[97,86],[29,-13],[14,-65],[38,-2],[30,-40],[56,6],[54,-19],[44,24]],[[3076,6412],[17,-36],[82,14],[47,-13]],[[3222,6377],[-10,-38],[63,-190],[35,-69],[-10,-40],[28,-54],[142,-115]],[[3222,6377],[44,104],[49,41],[56,-1],[47,-29],[93,-21],[35,-53]],[[2202,6266],[-3,119],[40,-31],[53,50],[-12,38],[-46,33],[-52,-2],[-12,42],[110,7],[6,72],[26,77],[80,-20],[37,32],[-31,85],[32,0],[27,64]],[[2457,6832],[51,8],[16,-43],[81,-27],[104,-88],[80,-41],[-13,-58],[111,-32],[66,4],[102,-58],[71,15]],[[3126,6512],[-50,-100]],[[2540,6342],[-36,-1],[-37,-43],[-15,-59],[-41,-6]],[[3126,6512],[79,47],[8,89],[-15,56]],[[3198,6704],[25,19],[76,151]],[[3299,6874],[59,29],[25,-37],[63,8],[57,-29],[37,-101],[80,-28]],[[3620,6716],[56,-114],[83,-129],[-7,-21]],[[4251,6099],[-18,85],[5,103],[-84,86],[-39,84],[-12,117],[-15,37]],[[4088,6611],[80,0],[46,151],[-20,137],[112,-12],[42,-45],[102,11],[94,93]],[[4544,6946],[39,-21],[83,-79],[180,-117]],[[4846,6729],[-23,-105],[12,-83],[-42,-55],[14,-43],[-71,-77],[-82,42],[-53,-4],[-21,-29],[-97,9],[-37,-18],[16,-77],[-122,-50],[-11,-44]],[[4846,6729],[47,-3],[56,68],[0,44],[81,47],[44,9],[24,37]],[[5098,6931],[67,-58],[-71,-144],[-26,-172],[7,-47],[38,-47],[13,-81],[67,-1],[51,78],[-14,36],[51,41],[114,2],[163,-121],[96,76],[61,5],[55,92],[60,36],[-4,68],[30,118],[77,104],[59,146],[30,23],[155,-10]],[[6177,7075],[-68,-36],[-26,-46],[-57,-12],[-17,-59],[-5,-109],[21,-23],[19,-207],[-25,-45],[32,-46],[-30,-60],[-51,-11],[-24,-73],[-72,-101],[-72,-49],[-36,-86],[-106,-28],[-36,-35],[-24,-73],[-105,7],[-54,-34],[-20,-90],[-37,1],[-55,-87],[19,-170]],[[3198,6704],[-134,14],[-44,94],[-69,29],[-36,61],[-11,156]],[[2904,7058],[51,-40],[72,18]],[[3027,7036],[49,4],[10,-38],[44,-20],[31,-65],[79,71],[51,13]],[[3291,7001],[8,-127]],[[2457,6832],[-12,35],[29,44],[105,20],[-10,29],[33,69],[-33,18],[20,60],[122,-84],[62,-11],[36,35],[42,-10],[53,21]],[[4088,6611],[-29,56],[-79,98],[13,54],[-64,39],[-43,51],[-60,12],[-51,127]],[[3775,7048],[76,16],[101,45],[62,3]],[[4014,7112],[34,29]],[[4048,7141],[147,-53],[26,-45],[50,-3],[62,41],[57,1],[51,-38],[65,-24],[38,-74]],[[3620,6716],[30,102],[7,85],[-16,48]],[[3641,6951],[32,47],[0,154],[63,-82],[39,-22]],[[3291,7001],[8,51],[-17,44],[22,103]],[[3304,7199],[69,-33],[34,22]],[[3407,7188],[23,-101],[40,-38],[74,0],[68,-94],[29,-4]],[[4048,7141],[45,187],[40,13]],[[4133,7341],[46,-19],[29,-56],[44,32],[-42,60],[29,48],[3,49]],[[4242,7455],[60,18]],[[4302,7473],[84,-55],[69,1],[30,20]],[[4485,7439],[199,-136],[120,-17],[31,-68],[53,-53],[69,11]],[[4957,7176],[4,5]],[[4961,7181],[55,8],[60,-26],[45,-106],[-40,-82],[17,-44]],[[6434,5542],[-7,37],[43,31],[-41,124],[31,37],[-33,38],[49,73],[91,4],[6,36],[87,34],[15,75],[29,19],[-7,75],[25,30],[-2,86],[64,120],[11,70],[-29,104],[-78,71],[-31,87],[-49,20],[-24,55],[4,65],[-42,52],[-4,50],[-31,74],[43,78],[-9,48],[-104,65],[-20,150],[49,35],[29,131],[8,109],[34,29]],[[6541,7654],[22,-36],[98,-55],[-25,-37],[40,-25],[-90,-53],[83,-50],[-2,-78],[-21,-68],[122,-122],[-3,-59],[48,-33],[21,38],[62,31],[-2,53],[58,-14],[0,-40],[44,-68],[106,-16],[16,-39],[79,-56],[95,-89],[-11,-60],[93,-31],[32,-64],[64,4],[35,-52],[37,7],[58,-51],[-18,-44],[64,-75],[-9,-25],[115,-104],[66,56],[98,-4],[60,-92]],[[7119,5636],[-122,-33],[-79,33],[18,-122],[-55,28],[-33,-47]],[[6177,7075],[42,44],[-21,121],[-40,98],[14,68],[-16,51],[55,146]],[[6211,7603],[97,60],[88,-5],[25,-46],[47,-15],[73,57]],[[4014,7112],[-41,30],[-85,-14],[-112,80],[-5,37],[-97,109],[-19,80]],[[3655,7434],[51,63],[37,70],[8,55],[69,44],[17,49],[88,90],[26,-31]],[[3951,7774],[48,-32],[43,-99],[-20,-51],[9,-106],[39,-5],[63,-140]],[[3951,7774],[-9,45],[40,54],[100,-23],[94,29]],[[4176,7879],[6,-47]],[[4182,7832],[-37,-208],[-58,-38],[8,-54],[58,-43],[47,-3],[42,-31]],[[4485,7439],[-76,44],[-3,89],[32,72],[24,179],[-16,47]],[[4446,7870],[118,32],[53,-14]],[[4617,7888],[26,-178],[50,-35],[9,-80],[69,-47],[62,-79],[63,-165],[5,-97],[56,-31]],[[4961,7181],[30,31],[-3,91],[17,85],[-47,119],[-88,141],[-21,103],[39,27],[103,-11],[56,-35],[53,-1],[19,-33],[119,-24],[48,20],[42,78]],[[5328,7772],[89,-56],[26,6],[41,85],[5,66],[28,16],[21,59],[229,124],[38,45]],[[5805,8117],[37,-35],[-7,-71],[100,-61],[67,13],[91,-71],[51,10],[60,-85],[-38,-87],[11,-66],[34,-61]],[[4617,7888],[19,38],[53,33],[-12,68],[58,43],[18,49],[38,-3]],[[4791,8116],[23,-97],[-32,-81],[98,38],[68,-18],[40,-135],[64,-4],[128,-51],[72,15],[76,-11]],[[4791,8116],[-2,79],[63,-11],[37,30],[91,33],[136,24],[30,-45],[68,65],[17,-38],[77,19],[56,-11],[124,31],[62,80],[36,-8],[54,46],[117,-75],[14,-38],[56,-67],[-22,-113]],[[1292,1945],[20,93],[62,56],[-28,55]],[[6149,2287],[-17,-20],[-142,12],[-98,-36],[-76,-51],[-27,13],[-85,-63],[-109,39],[-57,-18],[-93,36],[-91,15]],[[1445,5204],[23,40],[-13,47],[9,72],[124,57],[-53,58],[30,45],[84,0],[17,41],[60,4]],[[1726,5568],[-3,-73],[67,-26],[29,47],[47,-43]],[[1726,5568],[41,66],[57,27],[24,51]],[[3027,7036],[63,135],[40,17],[-15,44],[50,55],[62,0],[77,-88]],[[3407,7188],[45,-10],[67,50],[-31,32],[62,53],[45,17],[-15,95],[75,9]],[[4182,7832],[76,-69],[3,-57],[-27,-87],[8,-72],[60,-74]],[[4176,7879],[36,37],[32,-31],[50,9],[81,-58],[71,34]]],"transform":{"scale":[0.00029016207592834885,0.00025047732437574743],"translate":[27.01159,-30.677565197999968]},"objects":{"LSO":{"type":"GeometryCollection","geometries":[{"arcs":[[0,1,2,3,4]],"type":"Polygon","properties":{"name":"Mjanyane","shapeGroup":"LSO","gid":"LSO-2-0"},"id":"LSO-2-0"},{"arcs":[[-2,5,6]],"type":"Polygon","properties":{"name":"Qomoqomong","shapeGroup":"LSO","gid":"LSO-2-1"},"id":"LSO-2-1"},{"arcs":[[-3,-7,7,8,9,10]],"type":"Polygon","properties":{"name":"Tosing","shapeGroup":"LSO","gid":"LSO-2-2"},"id":"LSO-2-2"},{"arcs":[[-5,11,12,13,14]],"type":"Polygon","properties":{"name":"Khoelenya","shapeGroup":"LSO","gid":"LSO-2-3"},"id":"LSO-2-3"},{"arcs":[[-9,15,-14,16,17,18,19]],"type":"Polygon","properties":{"name":"Lithipeng","shapeGroup":"LSO","gid":"LSO-2-4"},"id":"LSO-2-4"},{"arcs":[[-10,-20,20,21,22,23]],"type":"Polygon","properties":{"name":"Telle","shapeGroup":"LSO","gid":"LSO-2-5"},"id":"LSO-2-5"},{"arcs":[[-23,24,25,26]],"type":"Polygon","properties":{"name":"Mphaki","shapeGroup":"LSO","gid":"LSO-2-6"},"id":"LSO-2-6"},{"arcs":[[27,28,29,30]],"type":"Polygon","properties":{"name":"Mashaleng","shapeGroup":"LSO","gid":"LSO-2-7"},"id":"LSO-2-7"},{"arcs":[[-26,31,32,33,34]],"type":"Polygon","properties":{"name":"Qanya","shapeGroup":"LSO","gid":"LSO-2-8"},"id":"LSO-2-8"},{"arcs":[[-18,35,-29,36,37,38]],"type":"Polygon","properties":{"name":"Thaba-Mokhele","shapeGroup":"LSO","gid":"LSO-2-9"},"id":"LSO-2-9"},{"arcs":[[-31,39,40,41,42,43]],"type":"Polygon","properties":{"name":"Siloe","shapeGroup":"LSO","gid":"LSO-2-10"},"id":"LSO-2-10"},{"arcs":[[-19,-39,44,45,46,47,48,49,-21]],"type":"Polygon","properties":{"name":"Qhoasing","shapeGroup":"LSO","gid":"LSO-2-11"},"id":"LSO-2-11"},{"arcs":[[-28,-44,50,51,-37]],"type":"Polygon","properties":{"name":"Makoabating","shapeGroup":"LSO","gid":"LSO-2-12"},"id":"LSO-2-12"},{"arcs":[[-22,-50,52,53,54,55,-32,-25]],"type":"Polygon","properties":{"name":"Senqunyane","shapeGroup":"LSO","gid":"LSO-2-13"},"id":"LSO-2-13"},{"arcs":[[-33,-56,56,57,58,59]],"type":"Polygon","properties":{"name":"Ntsupe","shapeGroup":"LSO","gid":"LSO-2-14"},"id":"LSO-2-14"},{"arcs":[[-59,60,61,62]],"type":"Polygon","properties":{"name":"Tsoelikana","shapeGroup":"LSO","gid":"LSO-2-15"},"id":"LSO-2-15"},{"arcs":[[-38,-52,63,64,65,66]],"type":"Polygon","properties":{"name":"Ramoetsana","shapeGroup":"LSO","gid":"LSO-2-16"},"id":"LSO-2-16"},{"arcs":[[-43,67,68,69,70,71,-64,-51]],"type":"Polygon","properties":{"name":"Tsana-Talana","shapeGroup":"LSO","gid":"LSO-2-17"},"id":"LSO-2-17"},{"arcs":[[-45,-67,72,73]],"type":"Polygon","properties":{"name":"Lehlakaneng","shapeGroup":"LSO","gid":"LSO-2-18"},"id":"LSO-2-18"},{"arcs":[[-42,74,75,-70,76,-68]],"type":"Polygon","properties":{"name":"Qibing","shapeGroup":"LSO","gid":"LSO-2-19"},"id":"LSO-2-19"},{"arcs":[[-47,77,78,79,-53,-49,80]],"type":"Polygon","properties":{"name":"Makhoalipana","shapeGroup":"LSO","gid":"LSO-2-20"},"id":"LSO-2-20"},{"arcs":[[-55,81,82,83,84,-57]],"type":"Polygon","properties":{"name":"Litsoetse","shapeGroup":"LSO","gid":"LSO-2-21"},"id":"LSO-2-21"},{"arcs":[[-65,-72,85,86,87]],"type":"Polygon","properties":{"name":"Mamants'o","shapeGroup":"LSO","gid":"LSO-2-22"},"id":"LSO-2-22"},{"arcs":[[-71,-76,88,89,-86]],"type":"Polygon","properties":{"name":"Metsi-Maholo","shapeGroup":"LSO","gid":"LSO-2-23"},"id":"LSO-2-23"},{"arcs":[[-58,-85,90,91,92,-61]],"type":"Polygon","properties":{"name":"Linakeng","shapeGroup":"LSO","gid":"LSO-2-24"},"id":"LSO-2-24"},{"arcs":[[-46,-74,93,94,95,96,-78]],"type":"Polygon","properties":{"name":"Kubake","shapeGroup":"LSO","gid":"LSO-2-25"},"id":"LSO-2-25"},{"arcs":[[-66,-88,97,98,99,-94,-73]],"type":"Polygon","properties":{"name":"Makhoarane","shapeGroup":"LSO","gid":"LSO-2-26"},"id":"LSO-2-26"},{"arcs":[[-54,-80,100,101,102,103,-82]],"type":"Polygon","properties":{"name":"Khutlo-se-Metsi","shapeGroup":"LSO","gid":"LSO-2-27"},"id":"LSO-2-27"},{"arcs":[[-96,104,105,106,107]],"type":"Polygon","properties":{"name":"Manonyane","shapeGroup":"LSO","gid":"LSO-2-28"},"id":"LSO-2-28"},{"arcs":[[-95,-100,108,109,110,-105]],"type":"Polygon","properties":{"name":"Mohlakeng","shapeGroup":"LSO","gid":"LSO-2-29"},"id":"LSO-2-29"},{"arcs":[[-99,111,112,-109]],"type":"Polygon","properties":{"name":"Thota-ea-Moli","shapeGroup":"LSO","gid":"LSO-2-30"},"id":"LSO-2-30"},{"arcs":[[-87,-90,113,114,-112,-98]],"type":"Polygon","properties":{"name":"Lilala","shapeGroup":"LSO","gid":"LSO-2-31"},"id":"LSO-2-31"},{"arcs":[[-92,115,116,117,118,119,120]],"type":"Polygon","properties":{"name":"Menoaneng","shapeGroup":"LSO","gid":"LSO-2-32"},"id":"LSO-2-32"},{"arcs":[[-106,-111,121,122,123,124]],"type":"Polygon","properties":{"name":"Qiloane","shapeGroup":"LSO","gid":"LSO-2-33"},"id":"LSO-2-33"},{"arcs":[[-107,-125,125,126,127]],"type":"Polygon","properties":{"name":"Ratau","shapeGroup":"LSO","gid":"LSO-2-34"},"id":"LSO-2-34"},{"arcs":[[-79,-97,-108,-128,128,129,130,131,-101]],"type":"Polygon","properties":{"name":"Likolobeng","shapeGroup":"LSO","gid":"LSO-2-35"},"id":"LSO-2-35"},{"arcs":[[-84,132,-103,133,134,135,-116,-91]],"type":"Polygon","properties":{"name":"Bokong","shapeGroup":"LSO","gid":"LSO-2-36"},"id":"LSO-2-36"},{"arcs":[[-123,136,137,138,139]],"type":"Polygon","properties":{"name":"Kanana","shapeGroup":"LSO","gid":"LSO-2-37"},"id":"LSO-2-37"},{"arcs":[[-130,140,141,142,143,144]],"type":"Polygon","properties":{"name":"Tebe-Tebe","shapeGroup":"LSO","gid":"LSO-2-38"},"id":"LSO-2-38"},{"arcs":[[-127,145,146,-141,-129]],"type":"Polygon","properties":{"name":"Motanasela","shapeGroup":"LSO","gid":"LSO-2-39"},"id":"LSO-2-39"},{"arcs":[[-102,-132,147,148,149,150,-134]],"type":"Polygon","properties":{"name":"Tenesolo","shapeGroup":"LSO","gid":"LSO-2-40"},"id":"LSO-2-40"},{"arcs":[[-120,151,152,153]],"type":"Polygon","properties":{"name":"Sanqebethu","shapeGroup":"LSO","gid":"LSO-2-41"},"id":"LSO-2-41"},{"arcs":[[-124,-140,154,155,156,-146,-126]],"type":"Polygon","properties":{"name":"Senekane","shapeGroup":"LSO","gid":"LSO-2-42"},"id":"LSO-2-42"},{"arcs":[[-131,-145,157,158,159,-148]],"type":"Polygon","properties":{"name":"Makeoana","shapeGroup":"LSO","gid":"LSO-2-43"},"id":"LSO-2-43"},{"arcs":[[-143,160,161,162,163]],"type":"Polygon","properties":{"name":"Phuthiatsana","shapeGroup":"LSO","gid":"LSO-2-44"},"id":"LSO-2-44"},{"arcs":[[-144,-164,164,-158]],"type":"Polygon","properties":{"name":"Mapoteng","shapeGroup":"LSO","gid":"LSO-2-45"},"id":"LSO-2-45"},{"arcs":[[-156,165,166,167,-162,168]],"type":"Polygon","properties":{"name":"Tsuili-Tsuili","shapeGroup":"LSO","gid":"LSO-2-46"},"id":"LSO-2-46"},{"arcs":[[-159,-165,-163,-168,169,170,171,172]],"type":"Polygon","properties":{"name":"Kueneng","shapeGroup":"LSO","gid":"LSO-2-47"},"id":"LSO-2-47"},{"arcs":[[-150,173,174,175,176]],"type":"Polygon","properties":{"name":"Bolahla","shapeGroup":"LSO","gid":"LSO-2-48"},"id":"LSO-2-48"},{"arcs":[[-135,-151,-177,177,178,179]],"type":"Polygon","properties":{"name":"Matsoku","shapeGroup":"LSO","gid":"LSO-2-49"},"id":"LSO-2-49"},{"arcs":[[-171,180,181,182,183]],"type":"Polygon","properties":{"name":"Hleoheng","shapeGroup":"LSO","gid":"LSO-2-50"},"id":"LSO-2-50"},{"arcs":[[-167,184,-181,-170]],"type":"Polygon","properties":{"name":"Manka","shapeGroup":"LSO","gid":"LSO-2-51"},"id":"LSO-2-51"},{"arcs":[[-175,185,186,187,188]],"type":"Polygon","properties":{"name":"'Maoa-Mafubelu","shapeGroup":"LSO","gid":"LSO-2-52"},"id":"LSO-2-52"},{"arcs":[[-149,-160,-173,189,190,-186,-174]],"type":"Polygon","properties":{"name":"Ramapepe","shapeGroup":"LSO","gid":"LSO-2-53"},"id":"LSO-2-53"},{"arcs":[[-172,-184,191,192,193,-190]],"type":"Polygon","properties":{"name":"Litjotjela","shapeGroup":"LSO","gid":"LSO-2-54"},"id":"LSO-2-54"},{"arcs":[[-176,-189,194,195,196,197,198,199,200,-178]],"type":"Polygon","properties":{"name":"Menkhoaneng","shapeGroup":"LSO","gid":"LSO-2-55"},"id":"LSO-2-55"},{"arcs":[[-118,201,202,-153,203]],"type":"Polygon","properties":{"name":"Mphokojoana","shapeGroup":"LSO","gid":"LSO-2-56"},"id":"LSO-2-56"},{"arcs":[[-117,-136,-180,204,205,-202]],"type":"Polygon","properties":{"name":"Seate","shapeGroup":"LSO","gid":"LSO-2-57"},"id":"LSO-2-57"},{"arcs":[[-188,206,207,208,-195]],"type":"Polygon","properties":{"name":"Sephokong","shapeGroup":"LSO","gid":"LSO-2-58"},"id":"LSO-2-58"},{"arcs":[[-196,-209,209,210,211]],"type":"Polygon","properties":{"name":"Maisa-Phoka","shapeGroup":"LSO","gid":"LSO-2-59"},"id":"LSO-2-59"},{"arcs":[[-199,212,213,214]],"type":"Polygon","properties":{"name":"Tsa-le-Moleka","shapeGroup":"LSO","gid":"LSO-2-60"},"id":"LSO-2-60"},{"arcs":[[-179,-201,215,216,217,-205]],"type":"Polygon","properties":{"name":"Nqoe","shapeGroup":"LSO","gid":"LSO-2-61"},"id":"LSO-2-61"},{"arcs":[[-200,-215,218,219,-216]],"type":"Polygon","properties":{"name":"Likila","shapeGroup":"LSO","gid":"LSO-2-62"},"id":"LSO-2-62"},{"arcs":[[-217,-220,220]],"type":"Polygon","properties":{"name":"Ngoajane","shapeGroup":"LSO","gid":"LSO-2-63"},"id":"LSO-2-63"},{"arcs":[[-1,-15,-16,-8,-6]],"type":"Polygon","properties":{"name":"Quthing","shapeGroup":"LSO","gid":"LSO-2-64"},"id":"LSO-2-64"},{"arcs":[[-13,221,-40,-30,-36,-17]],"type":"Polygon","properties":{"name":"Mohale's Hoek","shapeGroup":"LSO","gid":"LSO-2-65"},"id":"LSO-2-65"},{"arcs":[[-34,-60,-63,222]],"type":"Polygon","properties":{"name":"Qacha's Nek","shapeGroup":"LSO","gid":"LSO-2-66"},"id":"LSO-2-66"},{"arcs":[[-48,-81]],"type":"Polygon","properties":{"name":"Semonkong","shapeGroup":"LSO","gid":"LSO-2-67"},"id":"LSO-2-67"},{"arcs":[[-69,-77]],"type":"Polygon","properties":{"name":"Mafeteng","shapeGroup":"LSO","gid":"LSO-2-68"},"id":"LSO-2-68"},{"arcs":[[-83,-104,-133]],"type":"Polygon","properties":{"name":"Thaba-Tseka","shapeGroup":"LSO","gid":"LSO-2-69"},"id":"LSO-2-69"},{"arcs":[[-110,-113,-115,223,224,-137,-122]],"type":"Polygon","properties":{"name":"Maseru (Maseru District)","shapeGroup":"LSO","gid":"LSO-2-70"},"id":"LSO-2-70"},{"arcs":[[-119,-204,-152]],"type":"Polygon","properties":{"name":"Mokhotlong","shapeGroup":"LSO","gid":"LSO-2-71"},"id":"LSO-2-71"},{"arcs":[[-138,-225,225]],"type":"Polygon","properties":{"name":"Maseru (Berea Distict)","shapeGroup":"LSO","gid":"LSO-2-72"},"id":"LSO-2-72"},{"arcs":[[-142,-147,-157,-169,-161]],"type":"Polygon","properties":{"name":"Tayateyaneng","shapeGroup":"LSO","gid":"LSO-2-73"},"id":"LSO-2-73"},{"arcs":[[-183,226,-192]],"type":"Polygon","properties":{"name":"Maputsoe","shapeGroup":"LSO","gid":"LSO-2-74"},"id":"LSO-2-74"},{"arcs":[[-187,-191,-194,227,-207]],"type":"Polygon","properties":{"name":"Leribe","shapeGroup":"LSO","gid":"LSO-2-75"},"id":"LSO-2-75"},{"arcs":[[-197,-212,228]],"type":"Polygon","properties":{"name":"Butha-Buthe (Leribe District)","shapeGroup":"LSO","gid":"LSO-2-76"},"id":"LSO-2-76"},{"arcs":[[-198,-229,-211,229,-213]],"type":"Polygon","properties":{"name":"Butha-Buthe (Butha-Buthe District)","shapeGroup":"LSO","gid":"LSO-2-77"},"id":"LSO-2-77"}]}}}