{"type":"Topology","arcs":[[[1013,128],[-23,-38]],[[990,90],[-52,18],[4,98],[-12,60],[-66,10],[-36,28],[-12,16],[-6,2]],[[810,322],[54,60],[46,24]],[[910,406],[59,-17],[70,43]],[[1039,432],[-5,-111],[21,-87]],[[1055,234],[-10,-58],[-32,-48]],[[910,406],[37,17],[-3,63],[-84,16],[13,59],[47,47]],[[920,608],[38,28],[33,-37],[139,-59],[96,99]],[[1226,639],[55,-30]],[[1281,609],[3,-114],[-33,-74],[-49,-29]],[[1202,392],[-107,44],[-56,-4]],[[1202,392],[-7,-45]],[[1195,347],[-86,-52],[-54,-61]],[[1013,128],[40,19],[133,-34],[6,-83],[-24,-20]],[[1168,10],[-42,33],[-55,-20],[-81,67]],[[1195,347],[68,7],[19,-34]],[[1282,320],[-46,-248]],[[1236,72],[-32,-72],[-36,10]],[[1282,320],[45,33],[55,-13],[79,21],[83,-80]],[[1544,281],[-18,-125],[-77,-14],[-23,-47],[11,-64],[-79,34],[-6,33],[-83,15],[-33,-41]],[[1598,267],[-41,61],[-5,46],[100,73]],[[1652,447],[65,-25],[9,44],[107,15],[22,35],[85,37]],[[1940,553],[43,-49],[-20,-79],[24,-15]],[[1987,410],[0,-1]],[[1987,409],[-106,-52],[-73,0],[-80,24],[-82,-53],[31,-54],[-79,-7]],[[1226,639],[-39,102],[49,11],[-13,84]],[[1223,836],[90,30]],[[1313,866],[39,-76],[56,8],[32,-85]],[[1440,713],[-31,-10],[-36,-67]],[[1373,636],[-92,-27]],[[920,608],[-33,40],[0,86]],[[887,734],[38,14],[40,-48],[53,26],[79,91]],[[1097,817],[98,30],[28,-11]],[[810,322],[-55,-14],[-80,11]],[[675,319],[36,101],[-33,38],[26,89],[-63,59]],[[641,606],[20,28],[180,49],[33,55]],[[874,738],[13,-4]],[[675,319],[-46,-22],[-123,27],[-111,116],[38,61]],[[433,501],[71,35],[45,54],[40,15]],[[589,605],[52,1]],[[433,501],[-35,78],[-77,-35],[11,74],[86,24],[2,49],[73,36],[17,29]],[[510,756],[35,-50],[45,-9],[-1,-92]],[[1313,866],[51,97]],[[1364,963],[84,117],[-121,16],[-15,29],[36,89]],[[1348,1214],[90,-3]],[[1438,1211],[152,28],[78,24]],[[1668,1263],[22,-62]],[[1690,1201],[0,-36],[69,-14],[25,-66]],[[1784,1085],[8,-46],[49,-31],[-45,-50]],[[1796,958],[-30,21],[-83,-31],[-67,-88],[-30,-6],[-92,-120],[-7,-44]],[[1487,690],[-47,23]],[[1940,553],[-37,101],[46,19],[1,73]],[[1950,746],[89,-9]],[[2039,737],[59,-25],[17,-129],[74,30]],[[2189,613],[24,-55],[74,1],[32,-52]],[[2319,507],[-32,-19]],[[2287,488],[-85,36],[-41,-59],[-64,59],[-50,-73],[-36,13],[-24,-54]],[[2039,737],[17,56],[46,40],[87,13],[34,-23]],[[2223,823],[46,-7]],[[2269,816],[-19,-50],[11,-80],[-72,-73]],[[2269,816],[13,8]],[[2282,824],[22,-29],[88,26],[2,-64],[44,-99]],[[2438,658],[-52,-51],[-11,-55]],[[2375,552],[-56,-45]],[[2282,824],[-16,25],[61,45],[131,7],[45,-30]],[[2503,871],[10,-5]],[[2513,866],[33,-56],[-56,-11],[-44,-40],[71,-64]],[[2517,695],[-79,-37]],[[2517,695],[22,-58],[-79,-96]],[[2460,541],[-59,-14],[-26,25]],[[2287,488],[29,-26],[-104,-99],[12,-70],[-57,-14]],[[2167,279],[-26,59],[-65,4],[-25,36],[-64,31]],[[2460,541],[-17,-41],[45,-162],[3,-265],[-63,46],[-74,-3],[-52,64],[-60,-1],[-71,55],[-4,45]],[[2223,823],[-22,95],[-75,37]],[[2126,955],[133,147]],[[2259,1102],[79,-10],[41,-68],[99,-1]],[[2478,1023],[58,-37],[7,-47],[-40,-68]],[[820,1408],[-66,16],[-38,-53]],[[716,1371],[-78,21],[-30,-34]],[[608,1358],[-98,35],[-14,30],[19,81],[80,91]],[[595,1595],[84,16],[22,-52],[55,2]],[[756,1561],[6,-11]],[[762,1550],[58,-142]],[[762,1550],[81,42],[80,75],[75,17],[40,-18]],[[1038,1666],[-9,-54],[54,-108],[46,10]],[[1129,1514],[-15,-38],[-149,-7]],[[965,1469],[-77,23],[-80,-49],[12,-35]],[[618,1103],[-24,-8]],[[594,1095],[1,47],[64,7]],[[659,1149],[-41,-46]],[[716,1371],[41,-81],[31,-12],[90,-88]],[[878,1190],[4,-7]],[[882,1183],[-58,-41],[-53,22],[-39,-20],[-59,20]],[[673,1164],[-20,78],[1,79],[-46,37]],[[965,1469],[43,-75],[11,-58],[-67,-111]],[[952,1225],[-74,-35]],[[659,1149],[14,15]],[[882,1183],[42,-116],[7,-77],[-14,-68]],[[917,922],[-26,-36],[-114,-11]],[[777,875],[-97,97],[-30,110],[-32,21]],[[510,756],[31,72],[-91,21],[-4,66],[108,65],[-2,70],[42,45]],[[777,875],[40,-162],[57,25]],[[917,922],[80,12],[51,57],[23,-36]],[[1071,955],[-37,-60],[47,-11],[16,-67]],[[1373,636],[57,-63],[26,-94],[79,-75],[9,-123]],[[1598,267],[-54,14]],[[1487,690],[54,-24],[180,-44]],[[1721,622],[13,-84],[-61,-44],[-21,-47]],[[1129,1514],[105,-12],[37,55],[52,-25]],[[1323,1532],[74,-36]],[[1397,1496],[-2,-47]],[[1395,1449],[-30,-58]],[[1365,1391],[-69,33],[-5,-47],[-46,-50],[62,-47]],[[1307,1280],[-28,-27]],[[1279,1253],[-144,15],[-146,-43],[-37,0]],[[1348,1214],[-41,66]],[[1365,1391],[85,-117]],[[1450,1274],[-12,-63]],[[1279,1253],[-56,-75],[-2,-75]],[[1221,1103],[-39,-36],[-19,-75],[-54,-4],[-38,-33]],[[1364,963],[-17,34],[-64,13],[-62,93]],[[1796,958],[51,9],[19,-41]],[[1866,926],[-57,-106],[29,-41]],[[1838,779],[-1,-42],[-87,-59],[-29,-56]],[[1838,779],[84,-5],[28,-28]],[[1784,1085],[40,17],[94,-33],[33,8]],[[1951,1077],[35,-35],[-6,-55]],[[1980,987],[-13,-38],[-101,-23]],[[1980,987],[61,-30],[85,-2]],[[1951,1077],[43,21],[38,63],[78,40],[69,16]],[[2179,1217],[3,-41],[51,-24]],[[2233,1152],[26,-50]],[[1690,1201],[2,33],[63,85],[61,36],[69,92]],[[1885,1447],[89,-10],[79,18],[59,-68],[22,17]],[[2134,1404],[-3,-54],[36,-26],[-18,-71],[30,-36]],[[1668,1263],[-4,89],[-57,-14],[-54,14],[-18,-36],[-85,-42]],[[1395,1449],[93,37],[53,-3],[27,-49],[103,-4],[34,23]],[[1705,1453],[97,-20],[10,32],[73,-18]],[[2478,1023],[38,53],[-80,52],[-9,91],[53,14],[81,-51],[34,-86],[78,38],[34,54],[-7,72]],[[2700,1260],[13,58]],[[2713,1318],[60,-48],[-77,-221],[-84,-105],[-65,-25],[-34,-53]],[[2233,1152],[83,73],[-1,63],[-41,36],[103,64],[74,19],[24,-71]],[[2475,1336],[37,1],[44,-64],[59,-13],[29,20],[56,-20]],[[2475,1336],[51,62]],[[2526,1398],[75,30],[36,55]],[[2637,1483],[26,-18],[80,73],[84,-38]],[[2827,1500],[27,-8]],[[2854,1492],[-59,-87],[-82,-87]],[[2134,1404],[69,28],[47,126]],[[2250,1558],[18,-54],[78,54],[80,-14],[13,-77],[72,12],[15,-81]],[[1705,1453],[72,124],[-9,51]],[[1768,1628],[71,39],[67,78],[29,97]],[[1935,1842],[13,-13],[134,-20]],[[2082,1809],[40,0],[136,-62],[91,-10]],[[2349,1737],[-47,-9],[-8,-64],[22,-74],[-66,-32]],[[2349,1737],[73,35],[67,-24]],[[2489,1748],[-20,-40],[25,-75],[67,-2],[6,-34],[83,-71],[-13,-43]],[[2489,1748],[49,9],[-13,90],[55,25]],[[2580,1872],[72,-62],[-4,-36],[76,-44],[30,7],[45,61],[56,-18]],[[2855,1780],[-29,-65],[-4,-70],[-32,-33],[37,-112]],[[2855,1780],[57,18],[26,-39],[76,-18]],[[3014,1741],[-24,-60],[41,-43],[-104,-116],[-73,-30]],[[2318,2284],[-148,15],[-66,-20]],[[2104,2279],[-58,13],[-4,41],[66,67],[-11,45]],[[2097,2445],[164,-4],[15,74]],[[2276,2515],[33,-52],[-10,-71],[39,-23]],[[2338,2369],[-20,-85]],[[2529,1958],[-121,-52],[-69,30],[-115,-48],[-63,-48],[-76,-16]],[[2085,1824],[53,96]],[[2138,1920],[22,67],[48,39],[15,44],[50,27]],[[2273,2097],[61,39],[92,20],[56,-34]],[[2482,2122],[78,3],[-9,-111],[-22,-56]],[[2082,1809],[3,15]],[[2529,1958],[74,31]],[[2603,1989],[14,-44]],[[2617,1945],[-37,-73]],[[2338,2369],[44,76],[89,14],[82,-111]],[[2553,2348],[19,-120],[-52,-30],[-38,-76]],[[2273,2097],[-7,30],[47,90],[5,67]],[[2097,2445],[-53,55],[-46,-18]],[[1998,2482],[30,113],[-5,63],[-83,57]],[[1940,2715],[26,39]],[[1966,2754],[44,-24],[61,-88],[115,-38],[22,-51],[54,22],[14,-60]],[[2603,1989],[60,76],[27,-5],[60,64],[93,-26],[49,62],[-67,29],[-7,29]],[[2818,2218],[75,67],[53,-54],[83,-26],[57,22],[43,-41],[-41,-57],[-52,-29],[38,-57],[-13,-67]],[[3061,1976],[-122,7],[-57,-9],[-66,-50],[-62,60],[-47,-10],[-58,-44],[-32,15]],[[3061,1976],[18,-58],[-70,-60],[5,-117]],[[2553,2348],[68,-78],[197,-52]],[[2138,1920],[-15,47],[-107,65],[2,28]],[[2018,2060],[-14,67],[53,39],[47,113]],[[2018,2060],[-51,39]],[[1967,2099],[-69,-15],[-84,76]],[[1814,2160],[-44,130],[-90,-2],[-43,-27],[-24,51]],[[1613,2312],[-11,51]],[[1602,2363],[2,7]],[[1604,2370],[79,38]],[[1683,2408],[94,22],[55,52],[68,-32],[73,1],[25,31]],[[1602,2363],[-51,48],[-53,3]],[[1498,2414],[-23,62],[-89,133],[-48,6]],[[1338,2615],[-4,134],[36,28],[67,-93],[28,58],[69,-12]],[[1534,2730],[8,-11]],[[1542,2719],[-40,-99],[56,-9],[-5,-73],[35,-2],[55,-98],[-39,-68]],[[1542,2719],[31,32],[90,-99],[72,-34],[13,-28]],[[1748,2590],[-14,-47],[-74,-53],[-7,-77],[30,-5]],[[1203,2311],[-4,-3]],[[1199,2308],[-86,6],[-70,-50],[-58,-12]],[[985,2252],[-37,130],[-25,30],[49,60]],[[972,2472],[16,27]],[[988,2499],[202,-151]],[[1190,2348],[13,-37]],[[988,2499],[43,47],[-17,74],[74,18]],[[1088,2638],[48,53],[125,-64],[26,-80]],[[1287,2547],[24,-82],[-79,-104],[-42,-13]],[[1338,2615],[13,-52],[-64,-16]],[[1088,2638],[1,69],[32,142],[66,33]],[[1187,2882],[40,52],[-39,70]],[[1188,3004],[11,43]],[[1199,3047],[81,50],[17,-124],[88,-5]],[[1385,2968],[33,-60],[83,-32]],[[1501,2876],[-19,-68],[52,-78]],[[1498,2414],[-6,-34],[-85,-2],[0,-50],[-82,4]],[[1325,2332],[-122,-21]],[[1748,2590],[51,90],[61,5],[80,30]],[[1613,2312],[-143,-100]],[[1470,2212],[-54,32],[-11,41],[-79,19],[-1,28]],[[1323,1532],[47,99],[-65,58],[-96,52]],[[1209,1741],[-22,62],[28,54],[-1,72]],[[1214,1929],[76,46],[129,43],[21,64]],[[1440,2082],[23,14]],[[1463,2096],[102,-4],[74,-119]],[[1639,1973],[-41,-106],[60,-56]],[[1658,1811],[-152,-113],[-22,73],[-42,-13],[-10,-88],[23,-24],[-2,-73]],[[1453,1573],[-56,-77]],[[1814,2160],[-32,-13],[-21,-59],[-87,-54],[-8,-47]],[[1666,1987],[-27,-14]],[[1463,2096],[41,65],[-34,51]],[[1214,1929],[-37,114],[-38,-11],[-45,38]],[[1094,2070],[23,70],[75,32],[-42,40],[17,58],[33,18]],[[1200,2288],[30,-41],[70,-44],[-15,-47],[88,-22],[67,-52]],[[1967,2099],[-45,-33],[-14,-61],[35,-57],[-30,-45]],[[1913,1903],[-166,14],[-50,77],[-31,-7]],[[1200,2288],[-1,20]],[[1209,1741],[-149,-37]],[[1060,1704],[-29,95],[-37,58]],[[994,1857],[45,59],[13,71],[-21,51],[30,32]],[[1061,2070],[33,0]],[[1453,1573],[63,-6],[50,40],[101,19],[66,50]],[[1733,1676],[35,-48]],[[1935,1842],[-22,61]],[[1658,1811],[59,-5],[47,-75],[-31,-55]],[[1038,1666],[22,38]],[[1501,2876],[-2,72],[109,90],[68,-24]],[[1676,3014],[56,-32],[61,-71],[105,-11]],[[1898,2900],[43,-12],[25,-134]],[[1676,3014],[36,40],[106,-1]],[[1818,3053],[42,40],[74,-110],[-36,-83]],[[1385,2968],[27,98],[-5,40],[39,134],[54,17],[23,-61],[72,15],[56,32],[44,-15]],[[1695,3228],[-6,-42],[68,-25],[41,9],[20,-117]],[[1199,3047],[-15,67],[21,32],[-73,28],[48,100],[69,21],[-51,108]],[[1198,3403],[-16,69],[47,31],[21,75],[61,53],[128,50],[60,34]],[[1499,3715],[69,-99],[-16,-68],[62,-41],[-34,-41],[49,-42],[-18,-65],[47,-68],[47,-20],[-10,-43]],[[1079,4020],[-95,50],[-88,-43],[-34,72],[-3,65]],[[859,4164],[28,120],[10,139],[29,15],[121,6],[90,41],[19,-102],[64,-51]],[[1220,4332],[26,-76],[-142,-144],[-25,-92]],[[1220,4332],[70,-27],[60,20],[2,87],[91,-2],[68,-44],[-9,-99],[-20,-67]],[[1482,4200],[-66,-53],[-78,-105],[-79,-69],[-113,-28]],[[1146,3945],[-79,23],[12,52]],[[1146,3945],[-21,-159],[-56,27],[-58,-31],[-61,-71],[-43,-146]],[[907,3565],[-154,-65],[-28,-106],[-46,-51]],[[679,3343],[-69,-25],[-199,-13]],[[411,3305],[-30,7],[-47,63],[-6,73],[97,40],[64,58],[-15,45],[54,59],[-62,79],[26,63],[102,58],[-1,72],[32,65],[3,67],[74,60],[157,50]],[[1198,3403],[-71,-40],[-62,77],[-117,39]],[[948,3479],[-41,86]],[[1482,4200],[33,1],[60,-76],[-4,-63],[-59,-131],[8,-65],[-21,-151]],[[985,2252],[-66,-31]],[[919,2221],[-66,-2],[-23,25]],[[830,2244],[-42,137],[-53,26],[-30,46],[40,57]],[[745,2510],[45,68],[39,2],[143,-108]],[[830,2244],[-85,51],[-61,9],[-8,-36]],[[676,2268],[-95,68],[-6,48],[-43,15],[15,52],[-7,100],[20,24]],[[560,2575],[61,32],[34,74],[90,-171]],[[919,2221],[-12,-15]],[[907,2206],[-14,-131],[-118,-56]],[[775,2019],[-73,60],[-38,55],[-14,61]],[[650,2195],[26,73]],[[1061,2070],[-154,136]],[[994,1857],[-83,-4],[-100,-122]],[[811,1731],[16,43],[-18,61],[-37,45]],[[772,1880],[-22,56],[25,83]],[[756,1561],[-26,45],[79,47],[2,78]],[[595,1595],[-48,40],[-38,68],[-83,-34],[-69,13],[-4,52],[24,81]],[[377,1815],[73,6],[74,29]],[[524,1850],[77,-45],[53,-6],[77,29],[41,52]],[[377,1815],[-54,53],[-7,50],[-95,153],[6,21]],[[227,2092],[43,12],[4,70],[56,93],[58,-34]],[[388,2233],[2,-57],[-30,-32],[36,-89],[75,-50],[57,-87],[-4,-68]],[[650,2195],[-54,-61],[-101,5],[-107,94]],[[227,2092],[-20,37],[-130,-32],[-28,201],[-35,56],[75,78],[-21,133],[97,24],[19,22]],[[184,2611],[165,-57],[48,25],[9,78],[49,-5],[21,38]],[[476,2690],[92,-91],[-8,-24]],[[476,2690],[-45,68],[33,48]],[[464,2806],[100,-32],[76,71],[25,-40],[76,39],[102,-19]],[[843,2825],[21,-36],[188,53],[-5,44],[47,30],[57,-45],[36,11]],[[184,2611],[-18,50],[-166,79],[17,45],[94,71]],[[111,2856],[192,21],[14,-30],[147,-41]],[[843,2825],[-37,110],[-95,35]],[[711,2970],[32,42],[115,-6],[-1,104],[63,35]],[[920,3145],[67,-35],[105,-103],[96,-3]],[[111,2856],[0,95],[44,38],[-19,73],[19,68],[81,30],[57,-11]],[[293,3149],[27,-81],[54,19],[6,-66],[50,-43],[91,23],[-7,54],[47,8]],[[561,3063],[112,-42],[38,-51]],[[948,3479],[14,-52],[-55,-63],[15,-96],[-2,-123]],[[561,3063],[88,111],[58,25],[14,80],[-42,64]],[[293,3149],[1,41],[100,51],[17,64]]],"transform":{"scale":[0.00025413521891978264,0.0001638611594202897],"translate":[5.735708,49.44785389999999]},"objects":{"LUX":{"type":"GeometryCollection","geometries":[{"arcs":[[0,1,2,3,4,5]],"type":"Polygon","properties":{"name":"Esch-sur-Alzette","shapeGroup":"LUX","gid":"LUX-2-0"},"id":"LUX-2-0"},{"arcs":[[-4,6,7,8,9,10]],"type":"Polygon","properties":{"name":"Mondercange","shapeGroup":"LUX","gid":"LUX-2-1"},"id":"LUX-2-1"},{"arcs":[[-5,-11,11,12]],"type":"Polygon","properties":{"name":"Schifflange","shapeGroup":"LUX","gid":"LUX-2-2"},"id":"LUX-2-2"},{"arcs":[[-1,13,14]],"type":"Polygon","properties":{"name":"Rumelange","shapeGroup":"LUX","gid":"LUX-2-3"},"id":"LUX-2-3"},{"arcs":[[-6,-13,15,16,17,-14]],"type":"Polygon","properties":{"name":"Kayl","shapeGroup":"LUX","gid":"LUX-2-4"},"id":"LUX-2-4"},{"arcs":[[-17,18,19]],"type":"Polygon","properties":{"name":"Dudelange","shapeGroup":"LUX","gid":"LUX-2-5"},"id":"LUX-2-5"},{"arcs":[[20,21,22,23,24]],"type":"Polygon","properties":{"name":"Frisange","shapeGroup":"LUX","gid":"LUX-2-6"},"id":"LUX-2-6"},{"arcs":[[-9,25,26,27,28,29]],"type":"Polygon","properties":{"name":"Leudelange","shapeGroup":"LUX","gid":"LUX-2-7"},"id":"LUX-2-7"},{"arcs":[[-8,30,31,32,-26]],"type":"Polygon","properties":{"name":"Reckange-sur-Mess","shapeGroup":"LUX","gid":"LUX-2-8"},"id":"LUX-2-8"},{"arcs":[[-3,33,34,35,36,-31,-7]],"type":"Polygon","properties":{"name":"Sanem","shapeGroup":"LUX","gid":"LUX-2-9"},"id":"LUX-2-9"},{"arcs":[[-35,37,38,39]],"type":"Polygon","properties":{"name":"Differdange","shapeGroup":"LUX","gid":"LUX-2-10"},"id":"LUX-2-10"},{"arcs":[[-39,40,41]],"type":"Polygon","properties":{"name":"Pétange","shapeGroup":"LUX","gid":"LUX-2-11"},"id":"LUX-2-11"},{"arcs":[[-28,42,43,44,45,46,47,48,49,50]],"type":"Polygon","properties":{"name":"Luxembourg","shapeGroup":"LUX","gid":"LUX-2-12"},"id":"LUX-2-12"},{"arcs":[[-23,51,52,53,54,55,56]],"type":"Polygon","properties":{"name":"Dalheim","shapeGroup":"LUX","gid":"LUX-2-13"},"id":"LUX-2-13"},{"arcs":[[-54,57,58,59]],"type":"Polygon","properties":{"name":"Waldbredimus","shapeGroup":"LUX","gid":"LUX-2-14"},"id":"LUX-2-14"},{"arcs":[[-55,-60,60,61,62,63]],"type":"Polygon","properties":{"name":"Bous","shapeGroup":"LUX","gid":"LUX-2-15"},"id":"LUX-2-15"},{"arcs":[[-62,64,65,66,67]],"type":"Polygon","properties":{"name":"Stadtbredimus","shapeGroup":"LUX","gid":"LUX-2-16"},"id":"LUX-2-16"},{"arcs":[[-63,-68,68,69]],"type":"Polygon","properties":{"name":"Remich","shapeGroup":"LUX","gid":"LUX-2-17"},"id":"LUX-2-17"},{"arcs":[[-24,-57,70,71]],"type":"Polygon","properties":{"name":"Mondorf-les-Bains","shapeGroup":"LUX","gid":"LUX-2-18"},"id":"LUX-2-18"},{"arcs":[[-56,-64,-70,72,-71]],"type":"Polygon","properties":{"name":"Schengen","shapeGroup":"LUX","gid":"LUX-2-19"},"id":"LUX-2-19"},{"arcs":[[-59,73,74,75,76,-65,-61]],"type":"Polygon","properties":{"name":"Lenningen","shapeGroup":"LUX","gid":"LUX-2-20"},"id":"LUX-2-20"},{"arcs":[[77,78,79,80,81,82]],"type":"Polygon","properties":{"name":"Hobscheid","shapeGroup":"LUX","gid":"LUX-2-21"},"id":"LUX-2-21"},{"arcs":[[-83,83,84,85,86]],"type":"Polygon","properties":{"name":"Septfontaines","shapeGroup":"LUX","gid":"LUX-2-22"},"id":"LUX-2-22"},{"arcs":[[[87,88,89]],[[-79,90,91,92,93]]],"type":"MultiPolygon","properties":{"name":"Steinfort","shapeGroup":"LUX","gid":"LUX-2-23"},"id":"LUX-2-23"},{"arcs":[[-78,-87,94,95,-91]],"type":"Polygon","properties":{"name":"Koerich","shapeGroup":"LUX","gid":"LUX-2-24"},"id":"LUX-2-24"},{"arcs":[[-90,96,-93,97,98,99]],"type":"Polygon","properties":{"name":"Garnich","shapeGroup":"LUX","gid":"LUX-2-25"},"id":"LUX-2-25"},{"arcs":[[-36,-40,-42,100,-88,-100,101]],"type":"Polygon","properties":{"name":"Käerjeng","shapeGroup":"LUX","gid":"LUX-2-26"},"id":"LUX-2-26"},{"arcs":[[-32,-37,-102,-99,102,103]],"type":"Polygon","properties":{"name":"Dippach","shapeGroup":"LUX","gid":"LUX-2-27"},"id":"LUX-2-27"},{"arcs":[[-10,-30,104,-19,-16,-12]],"type":"Polygon","properties":{"name":"Bettembourg","shapeGroup":"LUX","gid":"LUX-2-28"},"id":"LUX-2-28"},{"arcs":[[-21,105,-105,-29,-51,106,107]],"type":"Polygon","properties":{"name":"Roeser","shapeGroup":"LUX","gid":"LUX-2-29"},"id":"LUX-2-29"},{"arcs":[[-86,108,109,110,111,112,113,114,-95]],"type":"Polygon","properties":{"name":"Kehlen","shapeGroup":"LUX","gid":"LUX-2-30"},"id":"LUX-2-30"},{"arcs":[[-45,115,-113,116,117]],"type":"Polygon","properties":{"name":"Kopstal","shapeGroup":"LUX","gid":"LUX-2-31"},"id":"LUX-2-31"},{"arcs":[[-92,-96,-115,118,119,-103,-98]],"type":"Polygon","properties":{"name":"Mamer","shapeGroup":"LUX","gid":"LUX-2-32"},"id":"LUX-2-32"},{"arcs":[[-44,120,-119,-114,-116]],"type":"Polygon","properties":{"name":"Strassen","shapeGroup":"LUX","gid":"LUX-2-33"},"id":"LUX-2-33"},{"arcs":[[-27,-33,-104,-120,-121,-43]],"type":"Polygon","properties":{"name":"Bertrange","shapeGroup":"LUX","gid":"LUX-2-34"},"id":"LUX-2-34"},{"arcs":[[-50,121,122,123,-107]],"type":"Polygon","properties":{"name":"Hesperange","shapeGroup":"LUX","gid":"LUX-2-35"},"id":"LUX-2-35"},{"arcs":[[-22,-108,-124,124,-52]],"type":"Polygon","properties":{"name":"Weiler-la-Tour","shapeGroup":"LUX","gid":"LUX-2-36"},"id":"LUX-2-36"},{"arcs":[[-49,125,126,127,-122]],"type":"Polygon","properties":{"name":"Sandweiler","shapeGroup":"LUX","gid":"LUX-2-37"},"id":"LUX-2-37"},{"arcs":[[-53,-125,-123,-128,128,-74,-58]],"type":"Polygon","properties":{"name":"Contern","shapeGroup":"LUX","gid":"LUX-2-38"},"id":"LUX-2-38"},{"arcs":[[-75,-129,-127,129,130,131]],"type":"Polygon","properties":{"name":"Schuttrange","shapeGroup":"LUX","gid":"LUX-2-39"},"id":"LUX-2-39"},{"arcs":[[-48,132,133,134,-130,-126]],"type":"Polygon","properties":{"name":"Niederanven","shapeGroup":"LUX","gid":"LUX-2-40"},"id":"LUX-2-40"},{"arcs":[[-47,135,-117,-112,136,137,-133]],"type":"Polygon","properties":{"name":"Steinsel","shapeGroup":"LUX","gid":"LUX-2-41"},"id":"LUX-2-41"},{"arcs":[[-46,-118,-136]],"type":"Polygon","properties":{"name":"Walferdange","shapeGroup":"LUX","gid":"LUX-2-42"},"id":"LUX-2-42"},{"arcs":[[-66,-77,138,139,140]],"type":"Polygon","properties":{"name":"Wormeldange","shapeGroup":"LUX","gid":"LUX-2-43"},"id":"LUX-2-43"},{"arcs":[[-76,-132,141,142,-139]],"type":"Polygon","properties":{"name":"Flaxweiler","shapeGroup":"LUX","gid":"LUX-2-44"},"id":"LUX-2-44"},{"arcs":[[-140,-143,143,144,145,146,147]],"type":"Polygon","properties":{"name":"Grevenmacher","shapeGroup":"LUX","gid":"LUX-2-45"},"id":"LUX-2-45"},{"arcs":[[-131,-135,148,149,-144,-142]],"type":"Polygon","properties":{"name":"Betzdorf","shapeGroup":"LUX","gid":"LUX-2-46"},"id":"LUX-2-46"},{"arcs":[[-134,-138,150,151,152,153,154,-149]],"type":"Polygon","properties":{"name":"Junglinster","shapeGroup":"LUX","gid":"LUX-2-47"},"id":"LUX-2-47"},{"arcs":[[-145,-150,-155,155,156]],"type":"Polygon","properties":{"name":"Biwer","shapeGroup":"LUX","gid":"LUX-2-48"},"id":"LUX-2-48"},{"arcs":[[-146,-157,157,158,159]],"type":"Polygon","properties":{"name":"Manternach","shapeGroup":"LUX","gid":"LUX-2-49"},"id":"LUX-2-49"},{"arcs":[[-147,-160,160,161]],"type":"Polygon","properties":{"name":"Mertert","shapeGroup":"LUX","gid":"LUX-2-50"},"id":"LUX-2-50"},{"arcs":[[162,163,164,165,166]],"type":"Polygon","properties":{"name":"Beaufort","shapeGroup":"LUX","gid":"LUX-2-51"},"id":"LUX-2-51"},{"arcs":[[167,168,169,170,171]],"type":"Polygon","properties":{"name":"Consdorf","shapeGroup":"LUX","gid":"LUX-2-52"},"id":"LUX-2-52"},{"arcs":[[-154,172,-168,173,174,175,-158,-156]],"type":"Polygon","properties":{"name":"Bech","shapeGroup":"LUX","gid":"LUX-2-53"},"id":"LUX-2-53"},{"arcs":[[-167,176,177,-171,178]],"type":"Polygon","properties":{"name":"Berdorf","shapeGroup":"LUX","gid":"LUX-2-54"},"id":"LUX-2-54"},{"arcs":[[-165,179,180,181,182]],"type":"Polygon","properties":{"name":"Reisdorf","shapeGroup":"LUX","gid":"LUX-2-55"},"id":"LUX-2-55"},{"arcs":[[-175,183,184,185]],"type":"Polygon","properties":{"name":"Rosport","shapeGroup":"LUX","gid":"LUX-2-56"},"id":"LUX-2-56"},{"arcs":[[-159,-176,-186,186,-161]],"type":"Polygon","properties":{"name":"Mompach","shapeGroup":"LUX","gid":"LUX-2-57"},"id":"LUX-2-57"},{"arcs":[[-172,-178,187,-184,-174]],"type":"Polygon","properties":{"name":"Echternach","shapeGroup":"LUX","gid":"LUX-2-58"},"id":"LUX-2-58"},{"arcs":[[-163,-179,-170,188,189]],"type":"Polygon","properties":{"name":"Waldbillig","shapeGroup":"LUX","gid":"LUX-2-59"},"id":"LUX-2-59"},{"arcs":[[-164,-190,190,191,192,193,194,195,196,-180]],"type":"Polygon","properties":{"name":"Vallbe de l'Ernz","shapeGroup":"LUX","gid":"LUX-2-60"},"id":"LUX-2-60"},{"arcs":[[-195,197,198,199,200,201]],"type":"Polygon","properties":{"name":"Erpeldange-sur-Sûre","shapeGroup":"LUX","gid":"LUX-2-61"},"id":"LUX-2-61"},{"arcs":[[-196,-202,202,203]],"type":"Polygon","properties":{"name":"Diekirch","shapeGroup":"LUX","gid":"LUX-2-62"},"id":"LUX-2-62"},{"arcs":[[204,205,206,207,208,209]],"type":"Polygon","properties":{"name":"Mertzig","shapeGroup":"LUX","gid":"LUX-2-63"},"id":"LUX-2-63"},{"arcs":[[-209,210,211,212]],"type":"Polygon","properties":{"name":"Feulen","shapeGroup":"LUX","gid":"LUX-2-64"},"id":"LUX-2-64"},{"arcs":[[-200,213,-212,214,215,216,217,218,219]],"type":"Polygon","properties":{"name":"Bourscheid","shapeGroup":"LUX","gid":"LUX-2-65"},"id":"LUX-2-65"},{"arcs":[[-199,220,221,-210,-213,-214]],"type":"Polygon","properties":{"name":"Ettelbruck","shapeGroup":"LUX","gid":"LUX-2-66"},"id":"LUX-2-66"},{"arcs":[[-181,-197,-204,222]],"type":"Polygon","properties":{"name":"Bettendorf","shapeGroup":"LUX","gid":"LUX-2-67"},"id":"LUX-2-67"},{"arcs":[[-194,223,224,-221,-198]],"type":"Polygon","properties":{"name":"Schieren","shapeGroup":"LUX","gid":"LUX-2-68"},"id":"LUX-2-68"},{"arcs":[[-110,225,226,227,228,229,230,231,232]],"type":"Polygon","properties":{"name":"Mersch","shapeGroup":"LUX","gid":"LUX-2-69"},"id":"LUX-2-69"},{"arcs":[[-193,233,234,-230,235,-224]],"type":"Polygon","properties":{"name":"Nommern","shapeGroup":"LUX","gid":"LUX-2-70"},"id":"LUX-2-70"},{"arcs":[[-228,236,237,238]],"type":"Polygon","properties":{"name":"Bissen","shapeGroup":"LUX","gid":"LUX-2-71"},"id":"LUX-2-71"},{"arcs":[[-192,239,240,-234]],"type":"Polygon","properties":{"name":"Larochette","shapeGroup":"LUX","gid":"LUX-2-72"},"id":"LUX-2-72"},{"arcs":[[-205,-222,-225,-236,-229,-239,241]],"type":"Polygon","properties":{"name":"Colmar-Berg","shapeGroup":"LUX","gid":"LUX-2-73"},"id":"LUX-2-73"},{"arcs":[[-227,242,243,244,245,-237]],"type":"Polygon","properties":{"name":"Boevange-sur-Attert","shapeGroup":"LUX","gid":"LUX-2-74"},"id":"LUX-2-74"},{"arcs":[[-111,-233,246,247,-151,-137]],"type":"Polygon","properties":{"name":"Lorentzweiler","shapeGroup":"LUX","gid":"LUX-2-75"},"id":"LUX-2-75"},{"arcs":[[-153,248,-240,-191,-189,-169,-173]],"type":"Polygon","properties":{"name":"Heffingen","shapeGroup":"LUX","gid":"LUX-2-76"},"id":"LUX-2-76"},{"arcs":[[-232,249,-247]],"type":"Polygon","properties":{"name":"Lintgen","shapeGroup":"LUX","gid":"LUX-2-77"},"id":"LUX-2-77"},{"arcs":[[-152,-248,-250,-231,-235,-241,-249]],"type":"Polygon","properties":{"name":"Fischbach","shapeGroup":"LUX","gid":"LUX-2-78"},"id":"LUX-2-78"},{"arcs":[[-85,250,-243,-226,-109]],"type":"Polygon","properties":{"name":"Tuntange","shapeGroup":"LUX","gid":"LUX-2-79"},"id":"LUX-2-79"},{"arcs":[[-182,-223,-203,-201,-220,251,252,253]],"type":"Polygon","properties":{"name":"Tandel","shapeGroup":"LUX","gid":"LUX-2-80"},"id":"LUX-2-80"},{"arcs":[[-253,254,255]],"type":"Polygon","properties":{"name":"Vianden","shapeGroup":"LUX","gid":"LUX-2-81"},"id":"LUX-2-81"},{"arcs":[[-219,256,257,-255,-252]],"type":"Polygon","properties":{"name":"Putscheid","shapeGroup":"LUX","gid":"LUX-2-82"},"id":"LUX-2-82"},{"arcs":[[-218,258,259,260,-257]],"type":"Polygon","properties":{"name":"Parc Hosingen","shapeGroup":"LUX","gid":"LUX-2-83"},"id":"LUX-2-83"},{"arcs":[[261,262,263]],"type":"Polygon","properties":{"name":"Troisvierges","shapeGroup":"LUX","gid":"LUX-2-84"},"id":"LUX-2-84"},{"arcs":[[-264,264,265,266]],"type":"Polygon","properties":{"name":"Weiswampach","shapeGroup":"LUX","gid":"LUX-2-85"},"id":"LUX-2-85"},{"arcs":[[-262,-267,267,268,269,270]],"type":"Polygon","properties":{"name":"Wincrange","shapeGroup":"LUX","gid":"LUX-2-86"},"id":"LUX-2-86"},{"arcs":[[-260,271,272,-268,-266,273]],"type":"Polygon","properties":{"name":"Clervaux","shapeGroup":"LUX","gid":"LUX-2-87"},"id":"LUX-2-87"},{"arcs":[[-207,274,275,276,277]],"type":"Polygon","properties":{"name":"Grosbous","shapeGroup":"LUX","gid":"LUX-2-88"},"id":"LUX-2-88"},{"arcs":[[-277,278,279,280]],"type":"Polygon","properties":{"name":"Wahl","shapeGroup":"LUX","gid":"LUX-2-89"},"id":"LUX-2-89"},{"arcs":[[-276,281,282,283,284,-279]],"type":"Polygon","properties":{"name":"Préizerdaul","shapeGroup":"LUX","gid":"LUX-2-90"},"id":"LUX-2-90"},{"arcs":[[-206,-242,-238,-246,285,-282,-275]],"type":"Polygon","properties":{"name":"Vichten","shapeGroup":"LUX","gid":"LUX-2-91"},"id":"LUX-2-91"},{"arcs":[[-245,286,287,288,-283,-286]],"type":"Polygon","properties":{"name":"Useldange","shapeGroup":"LUX","gid":"LUX-2-92"},"id":"LUX-2-92"},{"arcs":[[-82,289,-287,-244,-251,-84]],"type":"Polygon","properties":{"name":"Saeul","shapeGroup":"LUX","gid":"LUX-2-93"},"id":"LUX-2-93"},{"arcs":[[-81,290,291,292,-288,-290]],"type":"Polygon","properties":{"name":"Beckerich","shapeGroup":"LUX","gid":"LUX-2-94"},"id":"LUX-2-94"},{"arcs":[[-292,293,294,295]],"type":"Polygon","properties":{"name":"Ell","shapeGroup":"LUX","gid":"LUX-2-95"},"id":"LUX-2-95"},{"arcs":[[-280,-285,296,-295,297,298,299]],"type":"Polygon","properties":{"name":"Rambrouch","shapeGroup":"LUX","gid":"LUX-2-96"},"id":"LUX-2-96"},{"arcs":[[-284,-289,-293,-296,-297]],"type":"Polygon","properties":{"name":"Redange/Attert","shapeGroup":"LUX","gid":"LUX-2-97"},"id":"LUX-2-97"},{"arcs":[[-208,-278,-281,-300,300,301,302,-215,-211]],"type":"Polygon","properties":{"name":"Esch-sur-Sûre","shapeGroup":"LUX","gid":"LUX-2-98"},"id":"LUX-2-98"},{"arcs":[[-299,303,304,-301]],"type":"Polygon","properties":{"name":"Boulaide","shapeGroup":"LUX","gid":"LUX-2-99"},"id":"LUX-2-99"},{"arcs":[[-216,-303,305,306,307]],"type":"Polygon","properties":{"name":"Goesdorf","shapeGroup":"LUX","gid":"LUX-2-100"},"id":"LUX-2-100"},{"arcs":[[-302,-305,308,309,310,-306]],"type":"Polygon","properties":{"name":"Lac de la Haute-Sûre","shapeGroup":"LUX","gid":"LUX-2-101"},"id":"LUX-2-101"},{"arcs":[[-269,-273,311,-307,-311,312]],"type":"Polygon","properties":{"name":"Wiltz","shapeGroup":"LUX","gid":"LUX-2-102"},"id":"LUX-2-102"},{"arcs":[[-270,-313,-310,313]],"type":"Polygon","properties":{"name":"Winseler","shapeGroup":"LUX","gid":"LUX-2-103"},"id":"LUX-2-103"},{"arcs":[[-217,-308,-312,-272,-259]],"type":"Polygon","properties":{"name":"Kiischpelt","shapeGroup":"LUX","gid":"LUX-2-104"},"id":"LUX-2-104"}]}}}