{"type":"Topology","arcs":[[[12641,19129],[-2,47],[11,97],[45,164],[-11,122],[-24,28],[-3,41]],[[12657,19628],[66,-6],[54,-50],[63,-22],[29,-60],[44,-4],[33,43],[43,26],[1,45],[-54,19],[-25,46],[9,77],[-48,61],[5,32],[-40,6],[60,63],[-7,49]],[[12890,19953],[26,38],[80,-1],[60,57],[136,-12],[39,16]],[[13231,20051],[93,-2],[80,-30],[90,-59],[68,-27],[72,22],[51,-11],[30,18]],[[13715,19962],[35,-59],[51,-28],[-1,-48],[45,-49],[29,-52],[-67,-107],[49,-36]],[[13856,19583],[5,-54],[59,-44],[-21,-49],[-12,-70],[-53,-59],[9,-23],[-17,-62],[-15,-6],[29,-79],[1,-59],[-43,-24],[34,-43]],[[13832,19011],[-36,-76],[13,-31],[-14,-57],[36,-50],[-30,-28],[-120,8],[-31,27],[-34,0],[-38,-38],[-92,-2],[-40,47],[-74,2],[-62,18],[10,120],[-9,26],[-81,6],[-63,40],[-36,3],[0,-93],[-21,-43],[-31,-30],[14,-33],[-25,-37],[37,-72],[-3,-28],[-41,-50]],[[13061,18640],[-53,-7],[-14,-32],[-45,-15],[-18,-45],[-44,27],[-128,56],[-141,4],[-30,31]],[[12588,18659],[9,60],[-14,182],[15,46],[-39,53],[5,34],[63,42],[14,53]],[[10539,17297],[55,44],[71,13],[77,78],[147,72],[94,54],[76,106],[-23,156],[18,45],[21,108]],[[11075,17973],[57,53]],[[11132,18026],[42,-49],[5,-39],[46,-44],[13,-52],[78,-46],[39,-48],[45,-35],[43,-11],[29,-25],[-4,-35],[27,-15],[70,-106],[57,-32],[32,-2]],[[11654,17487],[-14,-59],[-20,-14],[-148,-187],[-31,-51],[-24,-81],[8,-34],[30,-27],[16,-36],[63,-93],[62,-117],[29,-38],[53,-115],[-14,-45],[25,-34],[-29,-25],[34,-51],[-68,-82],[-23,-41],[31,-47],[7,-67]],[[11641,16243],[-33,-11],[-40,64],[-50,-3],[-68,16]],[[11450,16309],[-29,24],[-55,-13],[-15,21],[-95,0],[-21,64],[-26,-10],[-21,59],[-41,-9],[-31,19],[0,82],[-29,74],[-25,1],[19,64],[-16,64],[9,86],[-10,34],[-52,17],[-139,-1],[-33,39]],[[10840,16924],[5,50],[-29,52],[-134,29],[-32,12],[-26,93],[-69,72],[-16,65]],[[13231,20051],[-9,14],[30,117],[20,50],[-79,4],[28,27],[-32,28],[3,42],[66,146]],[[13258,20479],[62,28],[41,-13],[8,-31],[44,-1],[103,-85],[10,-29],[71,9],[47,-49],[80,31],[22,41],[-54,62],[-7,71],[48,5],[36,23],[12,-40],[43,-5],[-5,-61],[56,-5],[0,-37],[58,-20],[18,-32],[-21,-38],[-84,16],[-31,-127],[9,-69]],[[13824,20123],[-2,-30],[-42,-3],[19,-47],[-51,-22],[-33,-59]],[[12890,19953],[-34,24],[-57,17],[-63,55],[-22,-26],[-36,22]],[[12678,20045],[23,41],[41,112],[43,76],[130,211],[102,205],[78,165],[106,255],[10,-49],[42,-17],[6,54],[-56,16],[71,196]],[[13274,21310],[70,-19],[58,13],[47,27],[31,-11],[26,-47],[57,23],[107,-77],[50,-10],[55,14],[64,-23]],[[13839,21200],[-12,-61],[20,-20],[-20,-58]],[[13827,21061],[-84,11],[-17,-25],[-20,-88],[22,-64],[1,-55],[-16,-56],[44,-28],[-51,-19],[-30,5],[-23,30],[-47,13],[-43,-15],[-17,-32],[-81,-41],[-59,36],[-36,-28],[-33,-47],[-25,8],[-27,-44],[-50,-17],[-39,-42],[65,-48],[-3,-36]],[[9500,14272],[66,21],[-32,47],[-12,42],[13,37],[-6,41]],[[9529,14460],[-7,51],[33,22],[-3,81],[-46,42],[-1,80],[26,91],[70,48],[2,131]],[[9603,15006],[96,38]],[[9699,15044],[110,-2],[70,-11],[29,9],[14,97],[85,38],[91,80],[51,-15],[15,-48],[33,-57],[1,-76],[39,-36],[1,63],[80,68]],[[10318,15154],[19,-19],[95,-10],[73,-18],[75,-8],[41,11],[33,-13],[46,2],[33,18],[88,19],[35,37],[104,37],[35,-16],[59,-4],[55,-24],[44,20],[39,56],[53,181],[20,40],[127,83],[16,-29],[47,-13]],[[11455,15504],[-25,-44],[46,-101],[-19,-147],[-5,-118],[31,-15],[51,13],[-15,-64],[14,-39],[-23,-56],[-28,-20],[170,-17],[17,-118],[-16,-11],[18,-69],[40,-77],[-27,-28],[-32,-3],[-50,-67],[-92,-47],[-7,-38],[16,-69],[62,41],[25,-134],[35,-52],[-3,-52],[-54,-53]],[[11584,14119],[-53,-27],[-67,-72],[-36,-90],[-39,28],[-87,0],[-131,37],[-36,-48],[-21,-128],[6,-29],[-30,-30],[-21,-48],[-48,-21],[-25,30],[-43,98],[-57,-21],[-83,1],[-17,10],[-59,-10],[-44,-119],[-58,-9],[-22,15],[-70,-11],[-59,0],[-55,67],[-128,25],[-10,-44],[18,-71],[-41,-36],[6,-59],[46,-24],[-47,-41]],[[10273,13492],[-33,-53],[-53,-62],[-81,15],[-32,45],[-105,70],[-58,9]],[[9911,13516],[-1,45],[74,10],[35,19],[21,48],[-64,83],[-22,64],[1,73],[94,85],[-69,42],[-55,7],[-37,72],[-93,68],[-30,41],[-60,27],[-34,-13],[-36,14],[-34,-8],[-101,79]],[[8169,12497],[47,73],[65,83],[40,41],[54,32],[42,42],[30,77],[26,42],[69,85],[18,49],[27,30],[23,97],[60,98]],[[8670,13246],[21,-44],[1,-73],[-13,-23],[12,-46],[76,45],[57,-6],[-11,-41],[-26,-36],[83,-91],[77,12],[56,55],[32,2],[15,-25],[51,-27],[22,51],[30,-44],[22,0],[13,62],[29,13],[42,-78],[34,-18],[26,28],[42,7],[74,28],[21,55],[47,11],[61,-16],[84,-78],[5,-21],[54,-61],[-10,-48]],[[9697,12839],[-54,-51],[-106,18],[-53,-79],[-37,-24],[-33,-4],[-58,50],[-17,28],[-71,-1],[6,-38],[-13,-60],[-46,-23],[-60,-14],[-48,9],[-23,22],[-29,68],[-26,32],[-50,-42],[-23,-48],[-34,-31],[17,-84],[-50,-18],[-1,-80],[-88,58],[-64,28],[-11,-31],[-71,-19],[-92,-96],[13,-40],[-82,-27],[-14,30],[-47,10],[16,37],[-33,52],[-38,-10],[-49,21],[-59,-48],[-22,32],[-64,37],[-14,-6]],[[11584,14119],[43,-7],[65,28],[58,-42],[25,23],[58,-39],[65,3],[60,-112],[39,11],[-13,64],[4,73],[78,123],[88,122],[48,-22],[120,-41],[120,31],[51,-35],[32,44],[-6,145]],[[12519,14488],[35,4],[26,-56],[149,37],[39,21],[22,-34],[1,-35],[30,-3],[80,-108],[45,-39],[1,-38],[-56,-47],[-40,-45],[106,-121],[18,-30],[-24,-80],[35,-74],[99,31],[54,-24],[-4,-28],[-53,-19],[-38,-40],[11,-42],[2,-64],[18,-81],[3,-87],[17,-68],[-43,-69],[23,-54],[-52,-146]],[[13023,13149],[-121,-61],[-162,-11],[-50,-18],[-31,-46],[-37,-20],[-69,9],[-28,22],[-42,4],[-30,18],[-131,-6],[-104,44],[-52,0],[-110,-56],[-33,-30],[-90,-104],[-189,-47],[-52,1],[-67,18],[-32,-15],[-25,-106],[-30,9],[-104,-44],[-46,-26],[-63,-66],[-48,-19],[-64,-44],[-52,-71],[-129,-83],[-91,-76],[-24,-3],[-26,-34],[-52,-27],[-105,-85],[-114,-124],[-10,-22],[-99,-67],[-40,-12],[-65,-38],[-97,-43],[0,-605]],[[10309,11265],[-126,165],[-136,186],[-43,80],[-63,70]],[[9941,11766],[-4,61],[-34,43],[-79,5],[-84,14],[-55,80],[-32,23],[5,71],[-17,26],[-27,121],[16,56],[-30,12],[19,62],[-15,66],[86,29],[-41,-57],[17,-22],[69,67],[-26,44],[91,76],[-12,84],[-42,60]],[[9746,12687],[-9,89],[27,156],[194,4],[82,24],[59,38],[31,-1],[52,-106],[32,-24],[82,68],[29,5],[41,-43],[29,25],[-17,40],[-105,144],[8,64],[-20,70],[23,23],[5,104],[13,67],[-26,17],[-3,41]],[[14884,17054],[65,50],[56,-46],[29,-85],[80,-80],[80,-11],[76,24],[117,13],[120,70],[45,52],[176,58],[55,31],[17,-41],[61,-104],[85,-18],[30,44],[120,59],[121,-12],[49,29],[9,109]],[[16275,17196],[42,0],[9,-27],[-9,-62],[98,-8],[89,13],[-19,-50],[-37,-53],[38,-41],[90,50],[71,2],[131,-52],[53,-5],[80,62],[92,44],[-85,-127],[-12,-122],[3,-59],[31,-99],[62,-140],[14,28],[85,14],[-54,-65],[-121,-103],[5,-22]],[[16931,16374],[-82,-21],[-423,-100],[0,-348],[5,-35],[-91,-52],[-17,26],[-32,-83],[20,-63],[-39,-41],[39,-84],[-23,-55],[21,-27],[43,3],[1,27],[30,36],[35,-28],[-3,-81],[84,-2],[-1,-29],[35,-43],[25,24],[25,-75],[-25,-123],[-72,-99],[-43,-40],[8,-108],[18,-34],[-18,-82],[-24,-30],[-9,-9],[-118,-57],[-12,-24],[-48,-30],[-85,31],[-134,-27],[-184,-11],[-183,-74],[-41,-22],[-339,-359],[-403,-213],[-217,-197],[-20,-11]],[[14634,13804],[-9,207],[5,104],[43,105],[76,126],[-99,96],[-60,-3],[-60,58]],[[14530,14497],[42,27],[130,133],[106,127],[85,74],[107,78],[48,71],[111,98],[1,60],[-11,229],[84,116],[56,52],[47,59],[1,71],[30,94],[-87,2],[-21,-23],[-50,13],[-19,-10],[-112,31],[-48,1],[-130,-21],[-68,-19],[-112,-60],[-82,-27],[-133,25],[11,63],[54,117],[10,91],[-45,44],[-78,0],[-42,13],[-25,43],[-106,65],[-42,15],[-12,77],[-74,20],[51,79],[139,99],[14,19],[82,42],[97,90],[28,35],[48,-29],[52,14],[1,56],[61,84],[-26,47],[10,39],[51,21],[-7,50],[51,29],[44,61],[32,72]],[[2708,5838],[1,1],[5,11],[1,9],[-2,18],[-1,4],[0,6],[-4,20],[1,1],[19,99],[11,22],[1,0],[39,124],[-4,57],[9,44],[7,122],[-12,31],[-6,5],[-2,2],[-3,2],[-1,40],[0,2],[3,80],[-10,53],[0,1],[22,70],[-1,73],[30,86],[3,6],[9,64],[22,60],[3,4],[8,12],[2,3],[30,41],[7,9],[46,92],[14,55],[-1,52],[0,2],[6,9],[7,35],[8,14],[1,3],[4,18],[1,1],[38,155],[20,14],[59,94],[30,71],[1,2],[54,138],[14,74],[3,86],[-13,31],[1,4],[-5,23],[30,72],[38,61],[58,67],[96,26],[80,73],[51,69],[37,74],[42,-1],[131,30],[82,44],[68,64],[89,60],[145,90],[119,97]],[[4249,8819],[107,-124],[96,-68],[139,-54],[221,-124],[122,-56],[99,-120],[128,-122],[77,-56],[121,-75],[40,-18],[58,-99],[81,-30]],[[5538,7873],[30,-6],[38,21],[43,-33],[45,-69],[543,4]],[[6237,7790],[1,-496],[-1,-700],[1,-601],[0,-622]],[[6238,5371],[-139,46],[-108,24],[-76,10],[-68,-9],[-49,-20],[-220,-54],[-88,0],[-90,36],[-55,30],[-191,81],[-202,51],[-84,18],[-213,-22],[-174,-69],[-93,-50],[-215,-65],[-56,15],[-94,42],[-221,63],[-102,21],[-199,-10],[-99,-11],[-228,-81],[-69,25],[-57,63],[-15,36],[-51,41],[-149,43],[-100,101],[-24,31],[-22,61]],[[2687,5818],[21,20]],[[9341,16687],[142,167],[19,50],[9,69],[75,94],[12,65],[-18,50],[27,73],[-12,29],[-34,15],[-6,70],[45,60],[20,95],[-47,55],[-17,39],[130,113],[102,100],[44,55]],[[9832,17886],[13,2],[84,-72],[-29,-28],[-17,-59],[28,-54],[28,-18],[48,-69],[98,-42],[60,26],[86,-6],[54,26],[31,-18],[41,-51],[38,-133],[27,-59],[35,-29],[-9,-52]],[[10448,17250],[-47,7],[-13,-30],[-90,-35],[-48,1],[-16,-34],[-38,-25],[-66,22],[-9,-95],[-34,-30],[-23,-47],[37,-45],[-16,-36],[28,-78],[-82,-129],[-40,-7],[-16,-27],[27,-36],[-39,-65],[-37,-86]],[[9926,16475],[-35,17],[-38,42],[31,61],[-16,71],[-90,-11],[-22,-15],[-84,74],[-44,-59],[-44,-18],[-58,0],[-33,-41],[-56,36],[-31,0],[-65,55]],[[10840,16924],[-9,-57],[-85,-30],[-64,-120],[-18,-71],[-39,-61],[-19,-70],[24,-46],[-3,-71]],[[10627,16398],[-31,-13],[-64,21],[-55,-26],[-103,10],[-8,32],[-118,15],[-68,-24],[-22,26],[-66,-49],[-26,22],[-61,-6],[-79,69]],[[10448,17250],[60,51],[31,-4]],[[14266,20216],[85,-22],[99,13],[114,78],[67,-18],[43,-32],[56,26],[52,-27],[45,9],[77,-46],[6,-45],[32,-29],[67,27],[27,-70],[47,-25],[9,-124]],[[15092,19931],[-56,-44],[-18,-44]],[[15018,19843],[-116,37],[-25,-2],[-32,38],[-70,2],[-52,-26],[-24,-54],[15,-52],[53,-8],[20,-20],[29,-99]],[[14816,19659],[-62,27],[-63,-10],[-57,15]],[[14634,19691],[-70,86],[-9,22]],[[14555,19799],[-46,52],[-12,73],[15,27],[-30,22],[-30,-8],[4,-38],[-66,-20],[-30,50],[24,52],[-18,55],[17,14],[-22,47],[-20,2],[-64,65]],[[14277,20192],[-11,24]],[[16999,21649],[38,28],[38,52],[29,-12],[52,33],[44,75],[35,80],[10,52],[47,6],[1,-48],[-19,-55],[23,-71],[-20,-58],[64,-97],[-10,-48],[35,-65],[104,-59],[68,-6],[12,22],[147,-40],[74,-8],[102,35],[70,66],[22,-17],[76,-20]],[[18041,21494],[-56,-40],[-19,-62],[-30,-8],[2,-39],[-36,-31],[14,-25],[-49,-55],[-140,-48],[-23,3],[-65,-57],[0,-26],[-48,-20],[-60,-63],[-20,-58],[-32,-49]],[[17479,20916],[-45,-47],[-119,-66]],[[17315,20803],[-22,26],[-70,39],[-207,93],[-96,-17]],[[16920,20944],[-8,71],[47,20],[-46,80],[12,120],[68,15],[-6,44],[-46,25],[-12,37],[55,40],[-24,59],[33,55],[9,58],[29,11],[1,41],[-33,29]],[[14194,21684],[26,13],[33,-32],[5,-47],[73,13],[39,29],[56,-15],[59,1],[59,56],[-12,54],[26,37],[24,76],[45,35],[14,32],[55,26]],[[14696,21962],[27,-46],[51,-2],[93,-102],[16,-26],[72,-25],[62,-66],[84,-50],[87,-30],[34,11],[20,-22],[51,-8],[152,-40]],[[15445,21556],[0,-43],[-33,-80],[29,-6],[-24,-74],[-30,-42],[-81,-73],[-69,-10],[-22,20],[-32,-36],[-8,-37],[-75,-17],[-16,-55],[-34,-31]],[[15050,21072],[-89,-26],[-26,12],[-111,-59],[-55,10],[-152,-53]],[[14617,20956],[-31,31],[-28,78],[-4,52],[-40,55],[-54,40],[-126,132],[-56,-2],[-49,29],[-38,-26]],[[14191,21345],[3,21],[-49,63],[-10,156],[-9,36],[61,30],[7,33]],[[12641,19129],[-15,20],[-52,15],[-70,-5],[-78,17],[-26,-54],[-27,37],[-29,70],[8,23],[-21,62],[-35,147],[-68,38],[-33,55]],[[12195,19554],[55,43],[92,50],[108,103]],[[12450,19750],[114,-100],[37,61]],[[12601,19711],[60,-21],[-26,-31],[22,-31]],[[11132,18026],[1,63],[-24,19],[-28,-19],[-21,31],[17,66],[-15,39],[-15,89],[5,26]],[[11052,18340],[63,3],[94,-15],[51,4],[31,21],[21,38],[86,-56],[39,19],[5,38],[46,26],[-31,78],[2,49],[37,-9],[26,15],[41,-20],[57,1],[67,-28],[36,-36],[42,-61],[52,46],[22,43],[92,6],[26,42],[15,82],[29,18],[75,-8]],[[12076,18636],[24,-37],[85,1],[54,27],[61,1],[50,20],[103,4],[90,-10]],[[12543,18642],[-34,-34],[-28,-90],[-13,-98],[-51,-101],[2,-26],[-32,-59],[-41,5],[-4,-50],[7,-112],[-35,-89],[8,-28],[-29,-55],[-12,-52],[85,-95]],[[12366,17758],[-12,-113],[-23,-6],[28,-85],[-16,-64],[-43,-125],[-80,-31],[-33,-51]],[[12187,17283],[-17,20],[-42,5],[-49,47],[-44,10],[-31,43],[-28,-8],[-39,31],[-43,66],[-51,-23],[-82,17],[-79,-18],[-28,14]],[[9911,13516],[-54,-19],[-67,-71],[-4,-61],[-15,-29],[-31,16],[-39,-4],[-31,40],[-19,52],[-39,-2],[-29,71],[-109,6],[2,34],[-51,11],[-25,-13],[-23,48],[-33,-8],[-26,37],[-79,19],[0,52],[-70,-2],[-7,-48],[-165,20],[-30,-3]],[[8967,13662],[89,215],[33,57],[30,121],[28,189]],[[9147,14244],[109,-24],[32,4],[45,-31],[36,40],[-23,45],[154,-6]],[[14278,22674],[55,-7],[7,-35],[34,-16],[-12,-47],[7,-93],[15,-90],[20,-52],[32,6],[32,-120]],[[14468,22220],[-83,-3],[16,101],[-54,9],[-44,-20],[-50,6],[-16,41]],[[14237,22354],[6,66],[-11,51],[12,27],[55,2],[34,75],[-27,24],[-5,47],[-23,28]],[[15841,20924],[54,30],[79,93],[26,-4],[104,27],[121,40],[11,29]],[[16236,21139],[74,-9],[9,-58],[153,8],[42,-27],[0,-62],[-33,-72],[35,-59],[-53,-42],[-8,-61]],[[16455,20757],[-75,-11],[-31,20],[-30,-32],[-21,-64],[29,-43],[-61,-107],[-58,-29],[-6,-64],[17,-113],[-35,-46],[-66,-9],[10,-62],[24,-1],[13,-54],[77,-20],[-28,-124],[-9,-158],[25,-22],[-82,-52],[-18,-77],[1,-71],[-26,-64],[-59,-75],[20,-71],[-61,-22],[-115,-56]],[[15890,19330],[-21,8],[-39,59],[-3,54],[-47,109],[-31,30],[1,25],[55,46],[-24,25],[-73,-21],[-79,-62],[-53,31],[-63,1],[-40,34],[-42,-22],[-61,47],[-66,32],[32,66],[-9,78]],[[15327,19870],[-35,92],[184,87],[35,-13],[17,45],[106,90],[-49,48],[-96,41],[-42,-15],[7,57],[30,20],[-26,124],[16,63],[21,7],[48,56],[-2,25],[57,12],[20,49],[-19,63],[114,-7],[75,34],[62,-27],[66,12],[-33,51],[-2,59],[-42,57],[2,24]],[[13839,21200],[60,0],[34,21],[31,65],[53,12],[-7,28],[47,20],[30,-7],[55,-47],[42,27],[7,26]],[[14617,20956],[-44,-40],[-6,-49],[5,-174],[-20,-48],[-74,-4],[3,-35],[-30,-26],[-42,1]],[[14409,20581],[-91,32],[-47,-1],[-9,33],[27,42],[-39,56],[-102,22],[-29,83],[-29,0],[-17,42],[-94,19],[-19,-32],[-45,21],[-70,12],[-23,24],[17,41],[-12,86]],[[14237,22354],[-48,-30],[-18,-74],[-50,27],[-21,-27],[-112,-57],[-68,37]],[[13920,22230],[-1,53],[-16,77],[-31,-1],[-17,28],[23,69],[16,84]],[[13894,22540],[57,27],[42,-16],[81,8],[56,39],[95,83],[53,-7]],[[15445,21556],[137,-27],[130,62],[37,-7],[35,22],[90,9],[25,19],[76,25],[64,3],[64,39],[27,-72],[63,-24],[39,2]],[[16232,21607],[25,-37],[-15,-114],[7,-60],[-8,-70],[12,-41],[-28,-98],[11,-48]],[[15841,20924],[-84,35],[-44,59],[-69,-68],[9,-33],[-55,-43],[-47,-8],[-43,8],[-26,-59],[-84,44],[-43,1],[-39,-28],[-19,48],[-48,13],[-118,-7],[-66,47],[-11,34],[-4,105]],[[12588,18659],[-45,-17]],[[12076,18636],[11,92],[-44,10],[-42,81],[-14,53],[-70,44],[20,60],[-20,32]],[[11917,19008],[-24,7],[-8,56]],[[11885,19071],[30,-18],[30,44],[-12,63],[63,61],[16,70],[-66,62],[-16,35]],[[11930,19388],[87,84],[40,29],[60,12],[78,41]],[[4715,10006],[17,43]],[[4732,10049],[7,31],[9,39],[18,58],[1,13],[3,17],[4,24],[43,109],[2,3],[10,4],[24,10],[3,2],[19,18],[32,16],[45,30],[56,108],[6,14],[1,18],[15,34]],[[5030,10597],[6,31],[5,11],[10,5],[19,39]],[[5070,10683],[4,2],[2,1],[17,11],[0,3],[7,13],[52,17],[49,6],[46,13],[34,4],[16,1],[3,0],[12,2],[28,4],[8,1],[15,4],[3,1],[13,0],[175,27],[105,25],[411,93],[106,33],[25,23],[113,65],[190,81]],[[6504,11113],[12,-43],[74,-87],[15,-97],[41,-100],[36,-60],[63,-129],[41,-45],[81,-44]],[[6867,10508],[-129,-14],[-211,-142],[-53,-61],[-78,-116],[-29,-24],[-170,-175],[-44,-82],[-56,-157],[-15,-93],[6,-41],[-18,-80],[-23,-58],[-42,-73],[-41,-108],[-42,-127],[-51,-68]],[[5871,9089],[-193,210],[-53,61],[-108,80],[-104,65],[-40,47],[-14,68],[5,128],[80,162],[-44,-33],[-209,-91],[-165,-39],[-27,-2],[-39,25],[-92,76],[-24,33],[-63,66],[-37,32],[-29,29]],[[16275,17196],[-31,-7],[4,89],[-13,44],[-41,86],[-75,72],[-29,86],[23,40],[-100,68],[-19,43]],[[15994,17717],[3,49],[84,117],[96,158],[85,108],[60,44],[27,34],[55,119],[97,101],[34,21],[171,-78],[116,5],[382,81],[61,28],[87,67],[10,34],[-44,84],[-78,93],[-58,46]],[[17182,18828],[50,42],[80,128],[62,53],[42,64],[18,89],[51,95],[29,29],[143,22]],[[17657,19350],[37,-2],[73,-25],[142,-23],[159,-34],[32,49],[100,31],[109,-7],[88,-45],[250,-30],[79,1],[57,11],[110,35]],[[18893,19311],[19,-58],[38,-24],[14,-129],[-36,-84],[-12,-63],[-22,-13],[-22,-67],[6,-115],[-14,-26],[51,-91],[27,-16],[37,-96],[75,-83],[48,-26],[17,-51],[-30,-101],[-70,-26],[177,-293],[52,-47],[104,-53],[276,-223],[55,-42],[-83,-104],[-66,-54],[-40,5],[-62,-34],[-19,-76],[-30,-24],[13,-59],[-16,-58],[9,-67],[-72,-56],[15,-15],[86,26],[31,-11],[47,-61],[1,-26],[-84,-46],[-143,5],[-23,12],[-65,-6],[-90,12],[-26,13],[-92,-18],[-142,40],[-64,4],[-43,22],[-88,20],[-58,22],[-80,-10],[-56,37],[-144,-53],[-71,-5],[-106,38],[-45,-16],[-128,-7],[-16,-1],[-135,-11],[-70,-49],[-60,6],[-98,-9],[-111,7],[-66,-6],[-51,-55],[-16,-77],[53,-86],[2,-47],[50,-77],[-2,-77],[27,-27],[2,-31],[-220,-53],[-307,-67]],[[14409,20581],[-36,-49],[1,-41],[-44,-24],[-17,-39],[-76,-29],[-49,-36],[-11,-70],[75,-35],[14,-42]],[[14277,20192],[-62,-67],[37,-41],[-31,-56],[-77,19],[-13,-46],[-48,-32],[-28,18],[-122,1],[4,80],[-36,-17],[-46,0],[-31,72]],[[11917,19008],[-127,-25],[-37,-38],[-55,-20]],[[11698,18925],[-54,50],[-27,41],[69,43],[-19,28]],[[11667,19087],[14,40],[84,50]],[[11765,19177],[31,-36],[44,8],[46,-57],[-1,-21]],[[18060,20694],[82,13],[37,20],[-32,44],[-30,93],[7,82],[26,43],[-23,58],[46,87],[105,-71],[35,25],[12,63],[67,18],[0,43]],[[18392,21212],[13,-14],[89,14],[-2,-70],[41,-42],[58,-30],[6,-53],[36,-6],[147,-88],[-39,-28],[-5,-39],[-49,-58],[-26,-47],[48,-77]],[[18709,20674],[-61,-10],[-47,-38],[-86,32],[-85,-35],[17,-49],[-52,10],[6,-40],[-48,-45],[-56,-18],[-83,-14],[1,-27],[-70,12],[-32,-30],[-38,-8]],[[18075,20414],[-23,-6],[-21,57],[20,31],[-1,71],[36,53],[-26,74]],[[13061,18640],[-7,-40],[52,-56],[54,-7],[24,-30],[61,-38],[99,-89],[20,-36],[86,-55],[-24,-61],[-37,21],[-36,-76],[27,-61],[86,62],[28,-32],[-5,-110],[20,-4],[5,-55]],[[13514,17973],[-23,-64],[-120,-51],[-48,-13],[-101,-6],[-42,-37],[-22,18],[-119,22],[-55,-2],[-88,28],[-93,5],[18,-38],[-51,-6],[9,-34]],[[12779,17795],[-148,24],[-35,-17],[-57,-4],[-40,-42],[-72,-23],[-61,25]],[[6504,11113],[47,27],[153,56],[137,67],[66,59],[7,32],[34,35],[39,63],[41,47],[1,24],[40,53],[60,52],[71,93],[53,40],[55,61]],[[7308,11822],[51,-106],[9,-61],[86,-58],[46,18],[16,-24],[48,-22],[92,-97],[43,-5],[78,-34]],[[7777,11433],[136,-24],[48,-25],[61,-11],[28,-40],[81,-88],[34,-45],[25,-59],[62,-194],[35,-171],[31,-72],[69,-79],[36,-129]],[[8423,10496],[-78,23],[-172,-14],[-75,-16],[-190,-20],[-104,-20],[-43,23],[-40,5],[-103,-18],[-38,-25],[-31,5],[-185,-15],[-136,-19],[-47,30],[-162,57],[-54,12],[-98,4]],[[9746,12687],[-12,14],[-37,138]],[[8670,13246],[34,68],[66,76],[41,36],[78,88],[44,71],[34,77]],[[9699,15044],[4,153],[74,-20],[-48,70],[-87,108],[-48,-5],[-54,26],[-28,56],[0,64],[56,69],[-10,43],[24,15],[-2,56],[-15,59],[-24,49],[16,35],[40,14],[121,15],[8,90],[-46,91],[7,36],[56,136],[77,86],[113,28],[5,62],[-12,95]],[[10627,16398],[34,-77],[-28,-38],[2,-62],[25,-13],[-5,-47],[-34,-14],[2,-46],[59,-5],[87,-71],[12,-69],[22,-38],[4,-70]],[[10807,15848],[-35,-11],[-54,-61],[-39,-6],[-25,20],[-36,-14],[12,-102],[-21,-67],[-31,-36],[36,-19],[-11,-55],[21,-59],[-14,-67],[-29,-60],[-8,-59],[-19,-18],[-66,6],[-101,-26],[2,-29],[-60,-15],[-11,-16]],[[9832,17886],[25,34],[108,94]],[[9965,18014],[34,-44],[10,-54],[35,-72],[19,4],[85,64],[79,-57],[46,83],[46,-42],[16,23],[63,6],[49,51],[46,17],[61,3],[46,40],[70,90],[33,8],[56,-19],[17,-36],[35,25],[30,-26],[9,-51],[107,-7],[32,-51],[33,18],[53,-14]],[[9941,11766],[-30,-1],[-59,25],[-157,49],[-119,128],[-70,53],[-57,-86],[-67,-36],[-121,-31],[-96,-33],[-124,-68],[-75,-58],[-131,-73],[-99,-48],[-50,-6],[-144,-38],[-116,-51],[-197,-9],[-68,3],[-28,61],[-26,114],[-19,44],[-22,14],[-69,-45],[-181,-88],[-13,-83],[-26,-70]],[[7308,11822],[36,33],[32,60],[35,28],[239,129],[172,103],[102,66],[139,106],[74,93],[32,57]],[[9529,14460],[-36,-78],[-33,2],[-46,-22],[-25,17],[-100,-52],[-50,42],[-31,-25],[-42,4]],[[9166,14348],[5,49],[-25,42],[-24,-5],[-26,36],[-21,81],[-27,55],[-2,6],[-46,17],[-9,32],[-49,58],[-39,21],[-86,6],[21,106],[52,93],[30,85],[-26,44],[23,66],[-12,69]],[[8905,15209],[57,-15],[5,-65],[40,-17],[-5,-45],[28,-78],[34,-8],[41,32],[19,-11],[42,85],[42,-23],[38,39],[33,3],[84,-46],[70,41],[49,-16],[13,49],[47,-66],[30,-18],[31,-44]],[[11641,16243],[12,-12],[88,27],[37,-3],[10,37],[57,28],[46,-7],[70,12]],[[11961,16325],[59,-12],[7,-78],[51,-19],[35,-74],[72,-2],[-17,-113],[-27,-24],[-17,-57]],[[12124,15946],[-41,-22],[-26,-32],[6,-27],[-23,-39],[-121,-80],[-42,-13],[-60,7],[-52,-32],[-25,-29],[-105,-9],[-18,-54],[-62,-26],[-58,-44],[-18,-47],[-24,5]],[[10807,15848],[42,15],[28,55],[35,11],[25,33],[26,-6],[-20,81],[-39,23],[46,45],[61,26],[40,-41],[32,11],[63,-16],[7,-28],[80,-19],[-13,71],[48,25],[-17,41],[97,-18],[37,13],[54,-14],[11,153]],[[9147,14244],[19,104]],[[13274,21310],[36,130],[55,158],[20,11],[56,174]],[[13441,21783],[66,4],[70,23],[43,-53],[33,10],[20,41],[-10,72],[-40,19],[11,45],[52,2],[78,44]],[[13764,21990],[27,19],[17,-60],[41,-39],[88,-41],[62,16],[35,-35],[25,37],[56,23],[90,-22],[1,-69],[27,-63],[-39,-72]],[[11698,18925],[-16,-76],[-31,-44],[-5,-53],[-30,-8],[-31,-36],[-122,84],[-38,62],[2,146],[-53,-1],[-63,30],[-39,37]],[[11272,19066],[60,35],[40,1],[65,38]],[[11437,19140],[55,-38],[5,-23],[46,-32],[97,39],[27,1]],[[12124,15946],[35,-1],[35,-92],[81,5],[32,26],[31,-73],[45,19],[60,-10],[140,-2],[93,8],[17,13],[19,91],[3,77],[83,-12],[85,70],[142,65]],[[13025,16130],[36,-54],[-10,-49],[28,-51],[41,-40],[70,-108],[52,-64],[-27,-45],[9,-91],[16,-31],[4,-170],[15,-94],[4,-95]],[[13263,15238],[-79,-20],[-112,-47],[-113,-38],[-106,-50],[-48,-57],[-8,53],[-60,54],[-73,0],[-52,-53],[-40,-57],[-82,-66],[-44,-57],[-57,-47],[-11,-47],[52,-73],[-56,-79],[90,-53],[18,-79],[37,-34]],[[15018,19843],[31,-38],[-38,-71],[-72,-11],[-55,-52],[-4,-55],[-41,-4],[9,48],[-32,-1]],[[11765,19177],[15,42],[-44,48]],[[11736,19267],[121,107],[37,-4],[36,18]],[[8905,15209],[-6,63],[18,43],[-21,75],[9,40],[-29,29],[4,63],[27,66],[-5,66],[25,66],[6,76],[-10,58],[-48,35],[12,36],[42,48],[41,83],[3,26],[49,59],[54,102],[2,108],[34,32],[76,104],[3,13],[70,78],[80,109]],[[12450,19750],[90,105],[25,-7]],[[12565,19848],[41,-56],[35,-16],[-40,-65]],[[11961,16325],[-1,48],[41,31],[24,42],[82,1],[36,-28],[80,24],[67,1],[18,91],[26,39],[-68,91],[-1,87],[14,26],[-64,56],[-10,98],[-16,66],[25,93]],[[12214,17091],[45,-8],[68,-29],[83,29],[35,-7],[115,18],[26,-10],[56,10],[-11,51],[138,35],[107,-46],[20,19]],[[12896,17153],[48,-21],[31,53],[17,2],[66,-102],[5,56],[69,61],[57,10],[69,37],[60,-23],[103,5],[19,80],[81,37],[81,61],[51,-52],[23,-92],[55,-112],[-14,-34],[-37,-25],[-68,3],[-6,-56],[75,-5],[23,-30],[61,27],[-2,-31]],[[13763,17002],[-30,-51],[-25,-172],[76,-30],[34,-53],[-31,-52],[-2,-38]],[[13785,16606],[-37,-44],[-79,-27],[-56,-105],[-63,-46],[-128,-44],[-170,-82],[-64,-25],[-134,-62],[-29,-41]],[[13514,17973],[60,-28],[38,3],[71,-14],[11,-31],[120,-113],[13,-52],[68,6],[68,-35],[90,-12],[37,-52],[7,-91],[42,-69]],[[14139,17485],[-1,-50],[15,-44],[-12,-44],[74,-23],[-43,-66],[11,-43],[54,-46],[-3,-44],[-128,39],[-30,-28],[-111,-11],[-84,-104],[-68,-26],[-50,7]],[[12896,17153],[28,29],[-45,74],[-5,70],[33,-5],[9,54],[29,31],[26,-27],[66,31],[17,122],[-29,53],[-41,18],[-60,63],[-67,50],[7,24],[-45,20],[-40,35]],[[10309,11265],[2,-719],[-1,-562],[1,-483]],[[10311,9501],[-106,16],[-67,20],[-80,35],[-119,142],[-109,54],[-136,143],[-142,94],[-145,-72],[-168,-33],[-77,66],[-137,92],[-53,44],[-63,82],[-2,33],[-56,73],[-46,18],[-20,-38],[-61,-21],[-63,30],[-50,83],[-65,-14],[-31,21],[-92,127]],[[15994,17717],[-48,-12],[-56,34],[-86,-33],[-53,19],[-31,65],[-52,87],[-48,53],[-99,91],[-72,47],[-28,38],[12,23],[-57,19],[-42,1],[-79,-24],[-111,19],[-69,29],[18,72],[-24,87],[-41,45],[-23,75]],[[15005,18452],[-25,60],[-65,203],[-74,126],[-52,54],[-24,52],[26,36],[50,32],[124,60]],[[14965,19075],[53,5],[47,19],[31,38],[62,-11],[31,118],[47,-42],[33,4],[58,66],[59,-2],[-12,-58],[11,-36],[36,-33],[83,-43],[23,20],[40,0],[81,-32],[21,15],[8,107],[-12,43],[67,-34],[134,83]],[[15866,19302],[46,-60],[-30,-94],[63,-53],[59,-3],[32,-16],[45,2],[21,47],[38,6],[30,31],[33,-43],[12,-46],[53,69],[-77,54],[66,95],[81,32],[53,75],[52,19],[133,191],[31,63],[29,-6],[32,-42],[57,-45],[50,-23],[59,-68],[118,-35],[171,-3]],[[17123,19449],[61,5],[15,-51],[-32,-37],[-40,-25],[-39,-45],[3,-40],[-85,-94],[-45,-26],[-1,-28],[-36,-27],[167,-167],[91,-86]],[[12214,17091],[-7,61],[19,110],[-39,21]],[[17315,20803],[-61,-20],[64,-66],[-35,-24],[-60,36],[-56,9],[13,-91],[-27,-55],[10,-33],[-48,-9],[-23,-53],[-116,-85],[-9,-48],[33,-64],[98,-81],[7,-93],[15,-47],[50,-88],[-33,-79],[-86,-45],[-79,-66],[-19,-41],[2,-41],[85,-89],[64,-127],[19,-54]],[[15866,19302],[24,28]],[[16455,20757],[18,-25],[64,-33],[52,-75],[52,-2],[14,72],[17,30],[125,79],[56,61],[47,73],[20,7]],[[17657,19350],[-11,112],[1,90],[27,40],[7,162],[167,52],[58,42],[11,71],[-51,77],[-18,72],[-36,89],[19,47],[47,16],[11,21],[155,0],[14,48],[35,13],[29,34],[-47,78]],[[18709,20674],[68,-105],[67,-26],[-117,-145],[17,-33],[42,-40],[35,-58],[-8,-68],[25,-101],[51,-123],[-18,-142],[-42,-222],[34,-145],[-7,-21],[-65,-37],[-3,-50],[52,-40],[53,-7]],[[13832,19011],[16,-44],[32,-36],[99,-34]],[[13979,18897],[61,-18],[44,8],[91,-94],[8,-32],[-15,-71],[28,-32],[4,-61],[47,-45],[98,-17],[86,34],[21,-21],[-23,-96],[-38,-22],[13,-72],[35,-8],[3,-39],[-22,-28],[40,-28],[39,-64],[-16,-82]],[[14483,18109],[-41,-44],[-29,-49],[-12,-143],[10,-68],[-11,-74],[-29,-23],[8,-43],[-19,-87],[-42,8],[-8,-58],[-18,-25],[-65,-17],[-88,-1]],[[13856,19583],[63,-26],[31,-45],[46,66],[37,-31],[34,3],[26,-22],[14,-87],[77,21],[27,-27],[39,43],[24,63],[34,47],[-27,67],[28,31],[43,1],[55,35],[23,50],[23,-24],[102,51]],[[14634,19691],[-5,-57],[52,-11],[3,-66],[33,-8],[-115,-101]],[[14602,19448],[-51,61],[10,50],[-28,11],[-13,-63],[-27,-68],[-26,-20],[15,-47],[41,-38],[1,-72],[58,-67],[32,-74],[-14,-34],[-63,41],[-182,52],[-56,23],[-41,31],[-33,-33],[7,-57],[-36,-56],[-59,-21],[-42,6],[-20,-68],[-96,-108]],[[14884,17054],[-36,-9],[-80,-39],[-10,54],[-49,-15],[-68,-40],[-21,-30],[-64,-37],[-49,-6],[-72,-48],[-11,-19],[-25,-110],[-36,-1],[-35,-82],[-40,-57],[-27,34],[-88,-9],[-30,41],[-81,67],[-32,73],[-27,10],[-48,-60],[-170,-165]],[[14483,18109],[78,69],[27,-16],[44,19],[6,42],[86,53],[-18,65],[67,75],[25,14],[185,-11],[22,33]],[[15092,19931],[71,-45],[42,-15],[122,-1]],[[14965,19075],[-38,113],[-23,33],[-73,68],[-95,5],[-16,26],[-61,50],[-46,14],[-11,64]],[[5538,7873],[68,126],[-13,152],[-52,285],[27,109],[0,58],[17,55],[44,58],[96,205],[77,76],[69,92]],[[10311,9501],[1,-806],[0,-900],[-367,0],[-529,-1],[-653,0],[-489,0],[-488,0],[-529,0],[-529,-1],[-491,2],[0,-5]],[[17479,20916],[48,-17],[101,-10],[100,0],[37,25],[50,13],[43,-22],[26,12],[36,-76],[-44,-121],[23,-19],[54,20],[49,0],[27,-31],[31,4]],[[14530,14497],[-26,25],[-7,97],[62,102],[4,57],[-129,57],[-46,35],[2,38],[67,33],[-67,64],[-30,-27],[-20,45],[27,111],[-24,28],[59,11],[0,50],[18,66],[-53,50],[-198,-12],[-56,13],[-79,-18],[-99,27],[-72,42],[-35,30],[-62,75],[-13,29],[-59,-11],[-66,-50],[-19,-36],[-42,20],[-94,-80],[-185,-123],[-25,-7]],[[13764,21990],[3,22],[100,83],[52,0],[15,17],[-14,118]],[[14468,22220],[27,-79],[87,-35],[25,-40],[57,-41],[32,-63]],[[14634,13804],[-123,-94],[-70,-88],[-11,-45],[-31,-54],[7,-39],[-70,-115],[-86,-118],[-119,-183],[-28,-53],[-119,52],[-19,29],[-13,13],[-31,-29],[-45,16],[34,84],[-28,21],[-66,21],[-76,-15],[-37,-18],[-79,-4],[-88,-39],[-50,-3],[-116,31],[-101,-26],[-51,8],[-103,-4],[-32,-11],[-11,4],[-49,4]],[[4249,8819],[59,69],[23,36],[0,1],[14,28],[1,3],[1,0],[1,6],[4,6],[1,2],[0,1],[4,11],[1,0],[2,4],[41,111],[7,23],[6,19],[18,81],[5,18],[4,11],[17,46],[26,90]],[[4484,9385],[12,16],[5,9],[2,9]],[[4503,9419],[2,7],[-5,10],[-13,-4],[-1,-1],[0,-1],[0,11],[17,16],[14,85],[10,18],[13,29],[3,4],[12,20],[10,25],[6,16],[27,44],[17,26],[8,14],[1,4],[12,26],[4,7],[4,11],[2,10],[7,27],[11,20],[2,6],[1,2],[1,2],[8,20],[2,11],[18,64],[4,14],[4,10]],[[4704,9972],[11,34]],[[13441,21783],[31,120],[77,152],[61,261],[48,176],[27,19],[76,-5],[93,-23],[40,57]],[[18041,21494],[161,-58],[-1,-57],[57,-63],[47,-14],[53,-68],[34,-22]],[[16232,21607],[41,15],[31,35],[8,49],[34,26],[55,2],[121,-87],[59,-11],[77,-30],[32,10],[28,-19],[111,-10],[45,31],[73,24],[52,7]],[[12565,19848],[-12,22],[81,103],[44,72]],[[93,818],[1,4],[2,16],[2,5],[2,8],[2,4],[5,18],[2,9],[1,8],[0,2],[0,7],[-1,21],[0,0],[7,42],[4,12],[3,16],[0,1],[1,2],[1,7],[10,38],[0,7],[7,54],[-1,1],[10,69],[-4,46],[11,60],[-9,91],[38,66],[-11,16],[-10,35],[23,70],[37,41],[2,3],[20,43],[7,27],[-4,29],[1,8],[9,16],[12,37],[4,7],[0,2],[1,1],[5,14],[1,13],[7,18],[5,21],[1,2],[7,12],[60,188],[24,10],[19,17],[2,53],[63,56],[44,62],[35,-4],[30,-37],[32,6],[31,12],[46,22],[4,3],[18,14],[13,10],[21,47],[0,1],[12,17],[6,8],[7,13],[0,1],[7,18]],[[778,2364],[101,-40],[102,-75],[102,-62],[265,-273],[110,-204],[79,179],[52,76],[40,76],[61,22],[76,-23],[94,-18],[100,-34],[122,-28],[80,1],[76,22],[63,53],[-1,58],[-68,131],[-50,123],[27,134],[30,85],[96,221],[21,76],[16,102],[21,85],[20,129],[-4,284],[20,159],[107,223],[188,-2],[126,10],[63,-11],[78,-72],[17,-72],[27,-55],[89,-43],[71,-6],[60,5],[97,46],[54,-6],[137,-35],[150,-61],[369,-189],[517,-292],[253,-136]],[[4832,2927],[81,-332],[10,-119],[39,-709],[27,-511],[27,-463],[-685,7],[-573,2],[-514,-2],[-291,-4],[-432,-2],[-540,1],[-336,0],[-341,2],[-583,1],[-532,-8],[-15,-51],[-43,-259],[-52,-127],[-3,-75],[-34,-117],[1,-98],[10,-63],[-44,27],[-9,35],[31,55],[-22,54],[39,119],[-1,116],[25,126],[-8,33],[9,74],[19,86],[1,93]],[[11437,19140],[104,71],[44,12],[46,-11],[63,25],[42,30]],[[11052,18340],[-4,97],[-24,-5],[-37,123],[26,28],[6,46],[75,-6],[30,46],[55,56],[-1,58],[-22,29],[17,50],[-46,79],[-18,48]],[[11109,18989],[68,41],[21,-2],[74,38]],[[9965,18014],[80,76],[19,27],[103,111],[45,39],[21,45],[95,124],[49,85],[-19,26],[66,85],[80,71],[24,-28],[63,13],[55,38],[68,62],[30,54],[138,50],[132,60],[95,37]],[[6238,5371],[-1,-829],[0,-569],[-190,-57],[-257,-147],[-251,-41],[-522,-400],[-130,-198],[-55,-203]],[[778,2364],[17,72],[1,44],[30,94],[70,60],[33,137],[-1,100],[17,77],[42,71],[7,44],[-13,32],[24,40],[60,20],[48,36],[54,92],[8,48],[-25,80],[-44,39],[43,54],[60,101],[-5,24],[70,122],[-6,34],[73,76],[33,60],[33,85],[-29,49],[39,25],[82,138],[23,24],[68,114],[28,65],[47,52],[24,71],[-21,102],[-37,27],[-40,-61],[-22,2],[-33,-31],[-59,-97],[-14,-67],[-40,-103],[-35,-30],[-18,-34],[-28,12],[58,88],[2,29],[39,47],[26,93],[120,154],[70,56],[103,58],[82,65],[16,56],[74,83],[88,115],[67,70],[30,18],[54,56],[127,198],[96,94],[115,50],[51,35],[27,110],[57,35],[43,44]],[[4484,9385],[19,34]],[[4704,9972],[13,41],[15,36]],[[5030,10597],[5,30],[4,12],[31,44]]],"transform":{"scale":[0.0008181048214194991,0.0006660229443146245],"translate":[-17.1030142,20.808333]},"objects":{"MAR":{"type":"GeometryCollection","geometries":[{"arcs":[[0,1,2,3,4,5,6,7,8]],"type":"Polygon","properties":{"name":"Province de Khémisset إقليم الخميسات","shapeGroup":"MAR","gid":"MAR-2-0"},"id":"MAR-2-0"},{"arcs":[[9,10,11,12,13,14,15]],"type":"Polygon","properties":{"name":"Rhamna Province","shapeGroup":"MAR","gid":"MAR-2-1"},"id":"MAR-2-1"},{"arcs":[[-4,16,17,18]],"type":"Polygon","properties":{"name":"Province de Sidi Slimane إقليم سيدي سليمان","shapeGroup":"MAR","gid":"MAR-2-2"},"id":"MAR-2-2"},{"arcs":[[-3,19,20,21,22,23,-17]],"type":"Polygon","properties":{"name":"Province de Kenitra إقليم القنيطرة","shapeGroup":"MAR","gid":"MAR-2-3"},"id":"MAR-2-3"},{"arcs":[[24,25,26,27,28,29,30,31,32]],"type":"Polygon","properties":{"name":"Taroudant Province","shapeGroup":"MAR","gid":"MAR-2-4"},"id":"MAR-2-4"},{"arcs":[[33,34,35]],"type":"Polygon","properties":{"name":"Sidi Ifni Province","shapeGroup":"MAR","gid":"MAR-2-5"},"id":"MAR-2-5"},{"arcs":[[-31,36,37,38,39,40,41]],"type":"Polygon","properties":{"name":"Tata Province","shapeGroup":"MAR","gid":"MAR-2-6"},"id":"MAR-2-6"},{"arcs":[[42,43,44,45,46]],"type":"Polygon","properties":{"name":"Province d'Errachidia إقليم الرشيدية","shapeGroup":"MAR","gid":"MAR-2-7"},"id":"MAR-2-7"},{"arcs":[[47,48,49,50,51,52]],"type":"Polygon","properties":{"name":"Boujdour Province","shapeGroup":"MAR","gid":"MAR-2-8"},"id":"MAR-2-8"},{"arcs":[[53,54,55,56]],"type":"Polygon","properties":{"name":"Province de Safi إقليم أسفي","shapeGroup":"MAR","gid":"MAR-2-9"},"id":"MAR-2-9"},{"arcs":[[-16,57,58,-56,59]],"type":"Polygon","properties":{"name":"Province de Youssoufia إقليم اليوسفية","shapeGroup":"MAR","gid":"MAR-2-10"},"id":"MAR-2-10"},{"arcs":[[60,61,62,63,64,65,66]],"type":"Polygon","properties":{"name":"Province de Moulay Yacoub إقليم مولاي يعقوب","shapeGroup":"MAR","gid":"MAR-2-11"},"id":"MAR-2-11"},{"arcs":[[67,68,69,70,71]],"type":"Polygon","properties":{"name":"Province de Nador إقليم الناظور","shapeGroup":"MAR","gid":"MAR-2-12"},"id":"MAR-2-12"},{"arcs":[[72,73,74,75,76,77]],"type":"Polygon","properties":{"name":"Chefchaouen Province","shapeGroup":"MAR","gid":"MAR-2-13"},"id":"MAR-2-13"},{"arcs":[[-1,78,79,80,81]],"type":"Polygon","properties":{"name":"Préfecture de Skhirate-Témara عمالة الصخيرات-تمارة","shapeGroup":"MAR","gid":"MAR-2-14"},"id":"MAR-2-14"},{"arcs":[[-12,82,83,84,85,86,87]],"type":"Polygon","properties":{"name":"Settat Province","shapeGroup":"MAR","gid":"MAR-2-15"},"id":"MAR-2-15"},{"arcs":[[-33,88,89,90]],"type":"Polygon","properties":{"name":"Chtouka-Ait Baha Province","shapeGroup":"MAR","gid":"MAR-2-16"},"id":"MAR-2-16"},{"arcs":[[91,92,93]],"type":"Polygon","properties":{"name":"Préfecture de M'diq-Fnideq عمالة المضيق الفنيدق","shapeGroup":"MAR","gid":"MAR-2-17"},"id":"MAR-2-17"},{"arcs":[[94,95,96,97,98]],"type":"Polygon","properties":{"name":"Province de Taza اقليم تازة","shapeGroup":"MAR","gid":"MAR-2-18"},"id":"MAR-2-18"},{"arcs":[[-23,99,-77,100,101]],"type":"Polygon","properties":{"name":"Province d'Ouezzane إقليم وزان","shapeGroup":"MAR","gid":"MAR-2-19"},"id":"MAR-2-19"},{"arcs":[[-94,102,103,104]],"type":"Polygon","properties":{"name":"Fahs-Anjra Province","shapeGroup":"MAR","gid":"MAR-2-20"},"id":"MAR-2-20"},{"arcs":[[-75,105,106,-95,107]],"type":"Polygon","properties":{"name":"Al Hoceima Province","shapeGroup":"MAR","gid":"MAR-2-21"},"id":"MAR-2-21"},{"arcs":[[-9,108,-85,109,110,111,112,-79]],"type":"Polygon","properties":{"name":"Province de Benslimane إقليم بن سليمان","shapeGroup":"MAR","gid":"MAR-2-22"},"id":"MAR-2-22"},{"arcs":[[113,114,115,116,117,118,119]],"type":"Polygon","properties":{"name":"Tarfaya Province","shapeGroup":"MAR","gid":"MAR-2-23"},"id":"MAR-2-23"},{"arcs":[[-44,120,121,122,123,124]],"type":"Polygon","properties":{"name":"Province de Figuig إقليم الناظور","shapeGroup":"MAR","gid":"MAR-2-24"},"id":"MAR-2-24"},{"arcs":[[-18,-24,-102,125,-67,126]],"type":"Polygon","properties":{"name":"Province de Sidi Kacem إقليم سيدي قاسم","shapeGroup":"MAR","gid":"MAR-2-25"},"id":"MAR-2-25"},{"arcs":[[-111,127,128,129,130]],"type":"Polygon","properties":{"name":"Médiouna Province","shapeGroup":"MAR","gid":"MAR-2-26"},"id":"MAR-2-26"},{"arcs":[[131,132,133,134]],"type":"Polygon","properties":{"name":"Préfecture d'Oujda-Angad عمالة وجدة - أنجاد","shapeGroup":"MAR","gid":"MAR-2-27"},"id":"MAR-2-27"},{"arcs":[[-8,135,136,137,-86,-109]],"type":"Polygon","properties":{"name":"Province de Khouribga إقليم خريبكة","shapeGroup":"MAR","gid":"MAR-2-28"},"id":"MAR-2-28"},{"arcs":[[-118,138,139,140,141]],"type":"Polygon","properties":{"name":"Province de Tan-Tan إقليم طانطان","shapeGroup":"MAR","gid":"MAR-2-29"},"id":"MAR-2-29"},{"arcs":[[-32,-42,142,-35,143,-89]],"type":"Polygon","properties":{"name":"Tiznit Province","shapeGroup":"MAR","gid":"MAR-2-30"},"id":"MAR-2-30"},{"arcs":[[-28,144,-59,145,146]],"type":"Polygon","properties":{"name":"Chichaoua Province","shapeGroup":"MAR","gid":"MAR-2-31"},"id":"MAR-2-31"},{"arcs":[[-10,-60,-55,147,148]],"type":"Polygon","properties":{"name":"Province de Sidi Bennour إقليم سيدي بنور","shapeGroup":"MAR","gid":"MAR-2-32"},"id":"MAR-2-32"},{"arcs":[[-36,-143,-41,149,-140,150]],"type":"Polygon","properties":{"name":"Guelmim Province","shapeGroup":"MAR","gid":"MAR-2-33"},"id":"MAR-2-33"},{"arcs":[[-26,151,152,153]],"type":"Polygon","properties":{"name":"Agadir Ida-Outanane Prefecture","shapeGroup":"MAR","gid":"MAR-2-34"},"id":"MAR-2-34"},{"arcs":[[-14,154,155,156,-29,-147,157]],"type":"Polygon","properties":{"name":"Al Haouz Province","shapeGroup":"MAR","gid":"MAR-2-35"},"id":"MAR-2-35"},{"arcs":[[-25,-91,158,-152]],"type":"Polygon","properties":{"name":"Inezgane-Ait Melloul Prefecture","shapeGroup":"MAR","gid":"MAR-2-36"},"id":"MAR-2-36"},{"arcs":[[-22,159,160,161,-78,-100]],"type":"Polygon","properties":{"name":"Larache Province","shapeGroup":"MAR","gid":"MAR-2-37"},"id":"MAR-2-37"},{"arcs":[[-129,162,163,164]],"type":"Polygon","properties":{"name":"Nouaceur Province","shapeGroup":"MAR","gid":"MAR-2-38"},"id":"MAR-2-38"},{"arcs":[[-30,-157,165,166,167,-37]],"type":"Polygon","properties":{"name":"Ouarzazate Province","shapeGroup":"MAR","gid":"MAR-2-39"},"id":"MAR-2-39"},{"arcs":[[-63,168]],"type":"Polygon","properties":{"name":"Préfecture de Fès عمالة فاس","shapeGroup":"MAR","gid":"MAR-2-40"},"id":"MAR-2-40"},{"arcs":[[-15,-158,-146,-58]],"type":"Polygon","properties":{"name":"Préfecture de Marrakech عمالة مراكش","shapeGroup":"MAR","gid":"MAR-2-41"},"id":"MAR-2-41"},{"arcs":[[-112,-131,169,170]],"type":"Polygon","properties":{"name":"Prefecture of Mohammédia","shapeGroup":"MAR","gid":"MAR-2-42"},"id":"MAR-2-42"},{"arcs":[[-27,-154,171,-57,-145]],"type":"Polygon","properties":{"name":"Essaouira Province","shapeGroup":"MAR","gid":"MAR-2-43"},"id":"MAR-2-43"},{"arcs":[[-81,172,173]],"type":"Polygon","properties":{"name":"Prefecture of Rabat","shapeGroup":"MAR","gid":"MAR-2-44"},"id":"MAR-2-44"},{"arcs":[[-156,174,175,176,177,178,-166]],"type":"Polygon","properties":{"name":"Province d'Azilal إقليم أزيلال","shapeGroup":"MAR","gid":"MAR-2-45"},"id":"MAR-2-45"},{"arcs":[[-137,179,180,-177,181]],"type":"Polygon","properties":{"name":"Province de Beni Mellal إقليم بني ملال","shapeGroup":"MAR","gid":"MAR-2-46"},"id":"MAR-2-46"},{"arcs":[[-40,182,183,-141,-150]],"type":"Polygon","properties":{"name":"Assa-Zag Province","shapeGroup":"MAR","gid":"MAR-2-47"},"id":"MAR-2-47"},{"arcs":[[-122,184,185,186,187,188]],"type":"Polygon","properties":{"name":"Province de Boulemane إقليم بولمان","shapeGroup":"MAR","gid":"MAR-2-48"},"id":"MAR-2-48"},{"arcs":[[-87,-138,-182,-176,189]],"type":"Polygon","properties":{"name":"Province de Fquih Ben Saleh إقليم الفقيه بن صالح","shapeGroup":"MAR","gid":"MAR-2-49"},"id":"MAR-2-49"},{"arcs":[[-71,190,-188,191,-97,192]],"type":"Polygon","properties":{"name":"Province de Guercif إقليم جرسيف","shapeGroup":"MAR","gid":"MAR-2-50"},"id":"MAR-2-50"},{"arcs":[[-124,193,-134,194]],"type":"Polygon","properties":{"name":"Province de Jerada إقليم جرادة","shapeGroup":"MAR","gid":"MAR-2-51"},"id":"MAR-2-51"},{"arcs":[[-7,195,196,197,-180,-136]],"type":"Polygon","properties":{"name":"Province de Khénifra إقليم خنيفرة","shapeGroup":"MAR","gid":"MAR-2-52"},"id":"MAR-2-52"},{"arcs":[[-6,198,-65,199,200,-196]],"type":"Polygon","properties":{"name":"Province d'El Hajeb إقليم الحاجب","shapeGroup":"MAR","gid":"MAR-2-53"},"id":"MAR-2-53"},{"arcs":[[-13,-88,-190,-175,-155]],"type":"Polygon","properties":{"name":"Province d'El Kelâat Es-Sraghna إقليم قلعة السراغنة","shapeGroup":"MAR","gid":"MAR-2-54"},"id":"MAR-2-54"},{"arcs":[[-43,201,-178,-181,-198,202,-185,-121]],"type":"Polygon","properties":{"name":"Province de Midelt إقليم ميدلت","shapeGroup":"MAR","gid":"MAR-2-55"},"id":"MAR-2-55"},{"arcs":[[-62,203,-98,-192,-187,204,-200,-64,-169]],"type":"Polygon","properties":{"name":"Province de Sefrou إقليم صفرو","shapeGroup":"MAR","gid":"MAR-2-56"},"id":"MAR-2-56"},{"arcs":[[-50,205,-119,-142,-184,206]],"type":"Polygon","properties":{"name":"Province d'Es-Semara إقليم السمارة","shapeGroup":"MAR","gid":"MAR-2-57"},"id":"MAR-2-57"},{"arcs":[[-70,207,-135,-194,-123,-189,-191]],"type":"Polygon","properties":{"name":"Province de Taourirt إقليم تاوريرت","shapeGroup":"MAR","gid":"MAR-2-58"},"id":"MAR-2-58"},{"arcs":[[-47,208,-167,-179,-202]],"type":"Polygon","properties":{"name":"Province de Tinghir إقليم تنغير","shapeGroup":"MAR","gid":"MAR-2-59"},"id":"MAR-2-59"},{"arcs":[[-186,-203,-197,-201,-205]],"type":"Polygon","properties":{"name":"Province d'Ifrane ⵜⴰⵙⴳⴰ ⵏ ⵉⴼⵔⴰⵏ إقليم إفران","shapeGroup":"MAR","gid":"MAR-2-60"},"id":"MAR-2-60"},{"arcs":[[-73,-162,209,-103,-93,210]],"type":"Polygon","properties":{"name":"Tetouan Province","shapeGroup":"MAR","gid":"MAR-2-61"},"id":"MAR-2-61"},{"arcs":[[-38,-168,-209,-46,211]],"type":"Polygon","properties":{"name":"Zagora Province","shapeGroup":"MAR","gid":"MAR-2-62"},"id":"MAR-2-62"},{"arcs":[[-49,212,213,214,215,-120,-206]],"type":"Polygon","properties":{"name":"Laayoune Province","shapeGroup":"MAR","gid":"MAR-2-63"},"id":"MAR-2-63"},{"arcs":[[-5,-19,-127,-66,-199]],"type":"Polygon","properties":{"name":"Prefecture de Meknès عمالة مكناس","shapeGroup":"MAR","gid":"MAR-2-64"},"id":"MAR-2-64"},{"arcs":[[-104,-210,-161,216]],"type":"Polygon","properties":{"name":"Prefecture of Tangier - Assilah","shapeGroup":"MAR","gid":"MAR-2-65"},"id":"MAR-2-65"},{"arcs":[[-69,217,-132,-208]],"type":"Polygon","properties":{"name":"Province de Berkane إقليم بركان","shapeGroup":"MAR","gid":"MAR-2-66"},"id":"MAR-2-66"},{"arcs":[[-72,-193,-96,-107,218]],"type":"Polygon","properties":{"name":"Province de Driouch إقليم الدريوش","shapeGroup":"MAR","gid":"MAR-2-67"},"id":"MAR-2-67"},{"arcs":[[-61,-126,-101,-76,-108,-99,-204]],"type":"Polygon","properties":{"name":"Province de Taounate إقليم تاونات","shapeGroup":"MAR","gid":"MAR-2-68"},"id":"MAR-2-68"},{"arcs":[[-2,-82,-174,219,-20]],"type":"Polygon","properties":{"name":"Prefecture of Salé","shapeGroup":"MAR","gid":"MAR-2-69"},"id":"MAR-2-69"},{"arcs":[[220,221,222]],"type":"Polygon","properties":{"name":"Province d'Aousserd إقليم أوسرد","shapeGroup":"MAR","gid":"MAR-2-70"},"id":"MAR-2-70"},{"arcs":[[-130,-165,223,-170]],"type":"Polygon","properties":{"name":"Prefecture of Casablanca","shapeGroup":"MAR","gid":"MAR-2-71"},"id":"MAR-2-71"},{"arcs":[[-84,224,225,-163,-128,-110]],"type":"Polygon","properties":{"name":"Berrechid Province","shapeGroup":"MAR","gid":"MAR-2-72"},"id":"MAR-2-72"},{"arcs":[[-11,-149,226,-225,-83]],"type":"Polygon","properties":{"name":"El Jadida Province","shapeGroup":"MAR","gid":"MAR-2-73"},"id":"MAR-2-73"},{"arcs":[[[-52,227,-222,228]],[[-214,229]],[[-114,-216,230]],[[-116,231]]],"type":"MultiPolygon","properties":{"name":"Oued Ed-Dahab Province","shapeGroup":"MAR","gid":"MAR-2-74"},"id":"MAR-2-74"}]}}}