{"type":"Topology","arcs":[[[568,1318],[591,-245]],[[1159,1073],[-75,-41],[-66,-50],[-49,-4],[-93,-30],[-102,-45],[-107,44],[-30,31],[-83,49],[-4,73],[-25,29],[-18,91],[8,54],[53,44]],[[389,3442],[-35,15],[-26,50],[-13,67],[11,53],[-5,58],[15,34],[55,62],[131,23],[42,-44],[0,-176],[-27,-78],[-94,-58],[-54,-6]],[[413,3838],[-32,1],[-48,36],[17,72],[-38,47],[-15,75],[29,35],[49,18],[73,5],[52,-20],[80,-89],[-7,-86],[-27,-43],[-82,-42],[-51,-9]],[[582,2929],[-58,8],[-44,22],[-31,36],[-47,115],[-16,83],[4,42],[39,50],[81,38],[110,24],[81,-6],[119,-46],[62,3],[67,-77],[17,-50],[-9,-38],[-104,-73],[-151,-89],[-61,-30],[-59,-12]],[[594,7368],[-115,0],[-88,-86]],[[391,7282],[-24,63],[25,52],[-27,37],[8,77],[35,92],[47,41],[-7,35]],[[448,7679],[310,1]],[[758,7680],[-38,-67],[-57,-58],[-33,-13],[-39,-119],[3,-55]],[[212,7281],[-95,-144],[-13,-49],[-35,-35],[-40,-3],[-29,39],[16,72],[38,66],[49,57],[81,30],[28,-33]],[[591,6431],[-12,-158],[-40,-35],[-141,-65],[-33,-3],[3,64],[-43,111],[-47,33],[58,118],[2,92],[14,38],[57,74],[36,64],[48,15],[33,-44],[5,-51],[24,-49],[8,-80],[28,-124]],[[755,6064],[-40,-49],[-171,-144],[-104,-39],[-79,-1],[-38,51],[-15,79],[39,40],[2,86],[19,45],[80,-10],[156,3],[77,9],[60,-27],[14,-43]],[[641,6160],[-35,-26],[-201,1],[0,22],[111,51],[55,17],[33,-10],[37,-55]],[[544,5702],[-19,-26],[-110,-37],[-53,17],[2,53],[56,15],[70,-2],[54,-20]],[[448,7679],[37,67],[41,-17],[57,4],[33,17],[63,66],[86,35],[32,-50],[16,-82],[-55,-39]],[[534,7880],[-36,-83],[-67,5],[-42,58],[-75,38],[-19,56],[110,43],[107,-67],[22,-50]],[[594,7368],[19,-77],[28,-27],[138,-45],[27,-26],[17,-56],[61,-105],[-17,-107],[22,-59]],[[889,6866],[-118,-50],[-115,1]],[[656,6817],[-21,42],[-52,34],[-30,48],[-7,50],[-38,48],[10,50],[-21,84],[-31,36],[-71,40],[-4,33]],[[933,2540],[-62,18],[-61,57],[-13,42],[18,68],[205,120],[180,64],[-51,-102],[23,-106],[-28,-78],[-52,-47],[-53,2],[-68,-36],[-38,-2]],[[711,0],[-58,46],[-46,78],[50,-18],[49,0],[68,33],[15,-78],[-53,-55],[-25,-6]],[[568,1318],[84,78],[76,26],[73,47],[6,27],[-30,42],[-50,43],[11,40],[42,14],[73,45],[86,-8],[42,-26],[53,-74],[13,-51],[12,-134],[82,-65],[59,-101],[10,-67],[-13,-46],[-38,-35]],[[1032,319],[-36,32],[15,11],[30,-28],[-9,-15]],[[1418,4250],[-27,-77],[-240,-29],[-60,-44],[-65,29],[-68,89],[-38,24],[-63,19],[-9,49],[52,93],[64,76],[42,14],[92,-14],[23,-38],[-9,-37],[27,-84],[41,-59],[43,-8],[157,57],[38,-60]],[[1082,4053],[-68,-36],[-32,20],[30,48],[70,-32]],[[889,6866],[28,-29],[84,-12],[28,-43],[49,-46],[11,-63],[-53,-38],[-42,-115],[-83,-36],[-46,5],[-56,40],[-56,77],[-37,31],[-34,59],[3,24],[-29,97]],[[989,3526],[-36,14],[-15,49],[9,62],[4,296],[40,26],[94,0],[86,-53],[111,-21],[-22,-118],[-47,-81],[-18,-54],[-76,-13],[-70,-38],[-38,-63],[-22,-6]],[[1132,6081],[-87,106],[-79,26],[-62,-4],[52,111],[41,23],[65,61],[34,0],[33,-52],[70,-46],[72,-34],[22,-73],[-21,-71],[-140,-47]],[[1365,5269],[-57,-67],[-40,-20],[-99,-90],[-7,-81],[-40,-28],[-125,16],[-31,25],[-48,69],[-1,100],[16,61],[8,89],[18,73],[25,51],[56,57],[81,8],[44,-36],[38,-58],[162,-169]],[[1157,4860],[-13,-41],[-72,-120],[-5,-42],[-26,-31],[-44,-12],[-41,10],[-27,77],[-2,47],[26,130],[32,53],[55,19],[92,-8],[25,-82]],[[1114,5571],[-27,-16],[-92,-13],[-38,30],[38,47],[83,-12],[36,-36]],[[1113,4987],[10,2],[-8,11],[-8,-4],[6,-9]],[[488,4712],[-301,6]],[[187,4718],[-4,123],[4,63],[30,66],[-3,58],[13,40],[38,39],[64,-7],[77,-82],[58,-51],[-1,-25],[35,-106],[-10,-124]],[[553,5117],[-34,-41],[-50,15],[-3,51],[71,14],[16,-39]],[[488,4712],[25,-204],[-48,-166],[-56,-54],[-40,-20],[-57,1],[-82,24],[-28,30],[-3,78],[-35,76],[17,23],[-4,98],[13,54],[-3,66]]],"transform":{"scale":[0.0008660705218617769,0.0009784427910466424],"translate":[72.543579,-0.709681]},"objects":{"MDV":{"type":"GeometryCollection","geometries":[{"arcs":[[0,1]],"type":"Polygon","properties":{"name":"South Huvadhoo","shapeGroup":"MDV","gid":"MDV-2-0"},"id":"MDV-2-0"},{"arcs":[[2]],"type":"Polygon","properties":{"name":"South Nilandhoo","shapeGroup":"MDV","gid":"MDV-2-1"},"id":"MDV-2-1"},{"arcs":[[3]],"type":"Polygon","properties":{"name":"North Nilandhoo","shapeGroup":"MDV","gid":"MDV-2-2"},"id":"MDV-2-2"},{"arcs":[[4]],"type":"Polygon","properties":{"name":"Kolhumadulu","shapeGroup":"MDV","gid":"MDV-2-3"},"id":"MDV-2-3"},{"arcs":[[[5,6,7,8]],[[9]]],"type":"MultiPolygon","properties":{"name":"South Thiladhunmathe","shapeGroup":"MDV","gid":"MDV-2-4"},"id":"MDV-2-4"},{"arcs":[[10]],"type":"Polygon","properties":{"name":"North Maalhosmadulu","shapeGroup":"MDV","gid":"MDV-2-5"},"id":"MDV-2-5"},{"arcs":[[[11]],[[12]],[[13]]],"type":"MultiPolygon","properties":{"name":"South Maalhosmadulu","shapeGroup":"MDV","gid":"MDV-2-6"},"id":"MDV-2-6"},{"arcs":[[[-8,14]],[[15]]],"type":"MultiPolygon","properties":{"name":"North Thiladhunmathe","shapeGroup":"MDV","gid":"MDV-2-7"},"id":"MDV-2-7"},{"arcs":[[-6,16,17,18]],"type":"Polygon","properties":{"name":"North Miladhunmadulu","shapeGroup":"MDV","gid":"MDV-2-8"},"id":"MDV-2-8"},{"arcs":[[19]],"type":"Polygon","properties":{"name":"Hadhdhunmathee","shapeGroup":"MDV","gid":"MDV-2-9"},"id":"MDV-2-9"},{"arcs":[[20]],"type":"Polygon","properties":{"name":"Addoo","shapeGroup":"MDV","gid":"MDV-2-10"},"id":"MDV-2-10"},{"arcs":[[-1,21]],"type":"Polygon","properties":{"name":"North Huvadhoo","shapeGroup":"MDV","gid":"MDV-2-11"},"id":"MDV-2-11"},{"arcs":[[22]],"type":"Polygon","properties":{"name":"Foammulah","shapeGroup":"MDV","gid":"MDV-2-12"},"id":"MDV-2-12"},{"arcs":[[[23]],[[24]]],"type":"MultiPolygon","properties":{"name":"Felidhoo","shapeGroup":"MDV","gid":"MDV-2-13"},"id":"MDV-2-13"},{"arcs":[[-18,25]],"type":"Polygon","properties":{"name":"South Miladhunmadulu","shapeGroup":"MDV","gid":"MDV-2-14"},"id":"MDV-2-14"},{"arcs":[[26]],"type":"Polygon","properties":{"name":"Mulaku","shapeGroup":"MDV","gid":"MDV-2-15"},"id":"MDV-2-15"},{"arcs":[[27]],"type":"Polygon","properties":{"name":"Faadhippolhu","shapeGroup":"MDV","gid":"MDV-2-16"},"id":"MDV-2-16"},{"arcs":[[[28],[31]],[[29]],[[30]]],"type":"MultiPolygon","properties":{"name":"Male'","shapeGroup":"MDV","gid":"MDV-2-17"},"id":"MDV-2-17"},{"arcs":[[-32]],"type":"Polygon","properties":{"name":"Male'","shapeGroup":"MDV","gid":"MDV-2-18"},"id":"MDV-2-18"},{"arcs":[[[32,33]],[[34]]],"type":"MultiPolygon","properties":{"name":"North Ari","shapeGroup":"MDV","gid":"MDV-2-19"},"id":"MDV-2-19"},{"arcs":[[-33,35]],"type":"Polygon","properties":{"name":"South Ari","shapeGroup":"MDV","gid":"MDV-2-20"},"id":"MDV-2-20"}]}}}