{"type":"Topology","arcs":[[[2831,2863],[29,-86],[88,-92]],[[2948,2685],[-69,-112],[45,-59],[1,-34],[-44,-46],[86,-77]],[[2967,2357],[20,-39],[-35,-62],[-71,-62],[22,-23],[-69,-74],[-54,-13],[-3,-46]],[[2777,2038],[-90,44],[-9,55],[-46,1],[-42,74],[-10,78],[-135,49],[-45,-7],[-45,76]],[[2355,2408],[91,60],[39,71],[-20,56],[9,44]],[[2474,2639],[23,-24],[115,26],[28,-42],[45,16],[-6,68],[42,58],[-6,88],[35,-6],[47,43],[34,-3]],[[2967,2357],[48,-25],[32,-157],[74,-14],[20,29]],[[3141,2190],[48,-30],[1,-99],[-32,-103],[7,-53],[31,-20]],[[3196,1885],[-97,-14],[-46,-42],[-131,6],[27,-61],[-80,-17],[-21,-41]],[[2848,1716],[-45,60],[-11,59],[56,79],[-70,83],[-1,41]],[[3959,1548],[-21,-36],[6,-62],[65,-22],[3,0]],[[4012,1428],[-27,-41],[7,-36],[-28,-29],[-107,-65],[-6,-32]],[[3851,1225],[-23,15],[-68,-52],[-142,-2],[-62,70],[-31,3],[-73,87]],[[3452,1346],[95,13],[25,68],[-28,91],[49,111],[72,57],[47,0],[79,-50],[26,48],[79,44]],[[3896,1728],[68,-33],[-28,-105],[23,-42]],[[3851,1225],[0,-158],[-98,-20],[46,-38],[3,-32],[-54,-46],[-40,4],[-18,-90]],[[3690,845],[-92,-32],[-53,-80],[-42,-6],[-83,39],[-42,49],[-92,-66],[-101,-14],[-95,-74]],[[3090,661],[5,98],[-59,16],[-43,48],[23,53],[-59,133],[33,108],[-84,29],[-53,71],[21,108],[35,26],[-42,73],[-31,120],[-41,-4],[-27,80]],[[2768,1620],[73,38]],[[2841,1658],[54,-55],[60,-26],[79,6],[40,53],[63,-27],[64,70],[-14,23],[38,56]],[[3225,1758],[58,23],[63,-16],[-11,-87],[8,-79],[31,-59],[-2,-57],[31,-91],[49,-46]],[[2948,2685],[61,-30],[28,-49],[55,-19],[187,-186]],[[3279,2401],[-44,-68],[-42,33],[-66,-57],[42,-99]],[[3169,2210],[-28,-20]],[[3169,2210],[136,-25],[44,-27],[43,-72],[54,82],[46,-76],[14,-91],[60,21],[44,-15],[16,-48],[130,-90],[40,19]],[[3796,1888],[94,-121],[6,-39]],[[3225,1758],[-7,45],[20,103],[-42,-21]],[[2841,1658],[7,58]],[[2831,2863],[32,113]],[[2863,2976],[55,43],[3,47],[52,45],[62,21],[49,-8],[22,-58],[101,32],[47,36]],[[3254,3134],[55,-9]],[[3309,3125],[3,-111],[86,-60],[40,-85],[40,-51],[-7,-44]],[[3471,2774],[-31,-73],[26,-68],[-65,-68],[-27,-55],[-41,-1],[26,-67],[-50,-59],[-30,18]],[[2768,1620],[-54,72],[-75,3],[-90,-70],[-38,-51],[-49,50],[-46,-14]],[[2416,1610],[-50,49],[-94,37],[-1,29],[-126,24],[-40,72],[9,66],[-42,31],[-40,78],[-106,25]],[[1926,2021],[13,51],[-23,67],[59,45],[-29,120],[21,19]],[[1967,2323],[22,-38],[79,65],[23,77],[84,10]],[[2175,2437],[71,-17],[88,14],[21,-26]],[[4888,2552],[-1,-60],[51,-54],[179,-64],[149,-87],[96,-35]],[[5362,2252],[-41,-52],[-23,-68],[-43,2],[-29,-37],[3,-114],[46,-75],[-8,-118]],[[5267,1790],[-48,20],[-86,-18],[-61,7]],[[5072,1799],[-42,54],[-89,-41],[-63,65],[-32,53]],[[4846,1930],[-129,43],[-18,49],[20,49],[-70,55],[-67,-10]],[[4582,2116],[-4,66],[17,46],[-22,122]],[[4573,2350],[23,38],[69,15],[32,52],[14,74],[-14,62]],[[4697,2591],[36,10],[155,-49]],[[4573,2350],[-23,59],[-130,57],[-77,-20],[-59,8],[-71,56]],[[4213,2510],[9,17]],[[4222,2527],[15,124],[-51,110]],[[4186,2761],[31,63],[14,141],[52,27],[47,-74],[59,53]],[[4389,2971],[49,15],[95,66]],[[4533,3052],[53,-62],[-27,-26],[28,-50],[117,-37],[65,-39],[-13,-81],[-59,-166]],[[4533,3052],[36,82],[38,10],[-2,110],[18,25]],[[4623,3279],[40,-26],[67,10],[43,-50],[102,-32],[39,21],[68,-64],[73,4],[17,-75],[3,-163],[44,-78],[8,-73]],[[5127,2753],[-105,-55],[7,-42],[-26,-51],[-112,-21],[-3,-32]],[[4222,2527],[-13,16],[-117,19]],[[4092,2562],[-67,93],[3,54]],[[4028,2709],[158,52]],[[4213,2510],[-60,-54],[-4,-62],[-40,-41]],[[4109,2353],[-111,1],[-85,-22],[-92,88],[-75,24],[-34,51],[-82,43],[-41,-7],[-14,71],[-45,75],[36,63]],[[3566,2740],[49,7],[30,-50],[48,7]],[[3693,2704],[61,15],[90,-91],[85,-37],[48,20],[90,-58],[25,9]],[[4028,2709],[-55,30],[-14,119],[11,52],[-95,-6],[-31,34],[-72,-19]],[[3772,2919],[-3,34],[83,57],[63,90],[64,47],[15,48]],[[3994,3195],[17,87],[39,35],[-51,74]],[[3999,3391],[42,15],[48,-18],[95,33]],[[4184,3421],[74,-58],[-21,-54],[12,-52],[64,-45],[-3,-57],[38,-50],[26,-122],[15,-12]],[[4184,3421],[85,66],[38,13]],[[4307,3500],[39,-43],[155,-111],[50,-10],[72,-57]],[[5127,2753],[43,-23],[45,-111],[-6,-29],[50,-118],[93,-19],[49,-111],[-3,-48],[-36,-42]],[[3309,3125],[34,9],[61,-29],[30,56],[110,50],[25,-15],[86,21],[60,-9],[43,-55],[45,16],[4,98],[104,4],[42,-20],[41,-56]],[[3772,2919],[-103,-58],[19,-87],[24,-20],[-19,-50]],[[3566,2740],[-95,34]],[[4109,2353],[-6,-51],[-35,-22],[-19,-51],[-69,7],[-45,25],[-49,-52],[1,-57],[37,-52],[-23,-29],[52,-36]],[[3953,2035],[-27,-46],[-97,-64],[-33,-37]],[[131,1031],[6,24]],[[137,1055],[50,22],[88,2],[24,-53],[-51,-31],[-117,36]],[[1308,1667],[-62,5],[-29,-28],[41,-65],[33,-10]],[[1291,1569],[-104,-44],[-30,1],[-30,68],[-56,24],[-9,43],[37,20]],[[1099,1681],[46,100]],[[1145,1781],[63,14],[44,55],[7,52],[99,62]],[[1358,1964],[4,-60],[51,-32],[14,-37],[-83,-86],[-46,-26],[10,-56]],[[575,1719],[-53,-21],[-20,-35],[-11,-95]],[[491,1568],[-14,-17]],[[477,1551],[-58,63],[-9,101],[-60,-1],[-18,69],[-89,25],[-21,-26]],[[222,1782],[-81,-18],[-38,-33],[26,-78],[37,-56],[33,-3],[51,-94]],[[250,1500],[-29,-10]],[[221,1490],[-45,75],[-51,5],[-40,140],[-54,18],[-31,45],[39,52],[-36,56],[138,30],[72,46]],[[213,1957],[31,-40],[85,-44],[52,-3],[50,-58],[75,-33],[69,-60]],[[491,1568],[97,-14],[130,30],[129,-39],[43,4],[60,-89],[13,-94],[48,-29],[37,-74]],[[1048,1263],[21,-75],[59,-25],[43,-66],[9,-54]],[[1180,1043],[-54,-19],[-145,35],[-34,36],[-56,6],[-30,-29],[-87,-8],[-12,-35],[-56,-44],[6,-81],[-51,-81],[-73,24]],[[588,847],[11,68],[-47,52],[54,46],[48,137],[-22,3],[-71,102],[19,42],[-52,167],[-53,85]],[[475,1549],[2,2]],[[1291,1569],[118,-53]],[[1409,1516],[15,-65]],[[1424,1451],[-48,-32],[-37,-58],[-154,4],[-137,-102]],[[575,1719],[92,0],[58,69],[22,120],[-2,54],[62,9]],[[807,1971],[102,-154]],[[909,1817],[42,-58],[148,-78]],[[807,1971],[-33,21],[-27,86],[-62,21],[40,47],[29,-14],[34,56],[65,0],[84,20]],[[937,2208],[107,-47],[49,-43]],[[1093,2118],[22,-123],[-12,-57],[-31,-35]],[[1072,1903],[-95,-37],[-68,-49]],[[1072,1903],[62,-63],[11,-59]],[[1926,2021],[-16,-80],[-50,-62],[-21,-98],[-91,-21],[-55,-39],[4,-60]],[[1697,1661],[-77,-80],[-85,-11]],[[1535,1570],[-54,48],[-64,81],[-109,-32]],[[1358,1964],[-3,124],[-55,28],[-48,53]],[[1252,2169],[3,94],[-30,17],[-6,69],[-54,134],[162,40]],[[1327,2523],[114,135],[101,14]],[[1542,2672],[99,-47]],[[1641,2625],[110,-154],[110,-112]],[[1861,2359],[51,25],[55,-61]],[[1093,2118],[159,51]],[[1180,1043],[44,-73]],[[1224,970],[-72,-67],[-147,-98],[-13,-37],[-53,-41],[-22,-112],[6,-66],[-47,-51],[18,-31],[-38,-103],[-64,-78],[10,-89]],[[802,197],[-49,-79],[-113,10],[-58,25],[93,42],[-5,67],[52,95],[22,78],[-18,84],[-9,111],[22,47],[-76,42],[-46,99],[-34,20]],[[583,838],[5,9]],[[1535,1570],[-106,-31],[-20,-23]],[[137,1055],[-13,108],[-40,113],[45,22],[74,107],[18,85]],[[250,1500],[5,0]],[[255,1500],[125,-6],[95,55]],[[583,838],[-119,21],[-48,-18],[-25,-92],[-18,-125],[-78,16],[-28,57],[32,36],[-81,177],[-53,17],[-34,104]],[[255,1500],[-43,105],[-26,10],[-49,79],[85,88]],[[4441,1063],[52,-67],[79,19],[71,-56],[-13,-72]],[[4630,887],[-34,-12],[-13,-52],[-76,-91]],[[4507,732],[-132,89],[-28,35],[-7,82],[-27,37]],[[4313,975],[58,105],[70,-17]],[[5072,1799],[-1,-62],[-71,-109],[-58,-33],[-12,-70],[-36,-46]],[[4894,1479],[-26,-32],[-73,22],[-11,63],[-56,-1],[-35,27],[29,38],[-36,94]],[[4686,1690],[113,103],[-11,65],[58,72]],[[3959,1548],[12,48],[181,29],[43,-2]],[[4195,1623],[107,-101],[54,-36],[-24,-79],[53,-58],[125,-80],[105,-28],[40,6],[54,96],[78,-17],[85,-56]],[[4872,1270],[-37,-17],[-11,-47]],[[4824,1206],[-33,-22],[-85,22],[-96,-5],[8,-55],[-112,-22],[-31,-52],[-34,-9]],[[4313,975],[-48,91],[-33,125],[0,64],[-34,17],[-23,-8],[-12,36],[-33,30],[-29,50],[-38,21],[-28,3],[-23,24]],[[4686,1690],[-40,-49],[-50,9],[-74,-15],[-20,60],[-42,-3],[-37,44],[-41,0],[-50,-75]],[[4332,1661],[-30,69],[18,46]],[[4320,1776],[6,61],[75,76],[109,-93],[38,71],[-17,78],[-56,82],[50,63],[57,2]],[[4507,732],[-38,-25],[-54,37],[-167,-30],[-128,-3],[-99,51],[-74,-21],[-37,37],[-132,58],[-88,9]],[[4824,1206],[3,-153],[-79,-2],[-31,-46],[10,-72],[77,-103],[-33,-45],[-43,-18],[-98,120]],[[3953,2035],[86,-67],[34,33],[91,-21],[30,-59],[48,-50],[-7,-38],[85,-57]],[[4332,1661],[-73,12],[-64,-50]],[[5267,1790],[-22,-67],[13,-81],[32,-48],[-58,-79],[30,-57],[-1,-106],[-60,-44],[-139,0],[-90,-17],[-54,10]],[[4918,1301],[14,99],[-38,79]],[[4918,1301],[-46,-31]],[[2041,655],[22,-49],[-13,-37],[14,-66],[33,-51],[45,-116],[49,-43],[24,-54],[-19,-89]],[[2196,150],[-80,-10],[-50,27],[-52,1],[-105,-94],[-132,-44],[-104,-11],[-22,33]],[[1651,52],[27,102],[-32,88],[-79,14],[-51,97],[-108,-3],[-58,116],[19,44],[-71,23],[-12,34],[69,59],[6,80],[-19,20]],[[1342,726],[65,63],[54,-5],[131,62],[38,62],[78,41],[40,52]],[[1748,1001],[3,4]],[[1751,1005],[78,-81],[-24,-60],[34,-75],[67,-31],[-5,-79],[16,-49],[62,-10],[62,35]],[[1424,1451],[60,-7],[31,-71],[77,-6],[-1,-120],[87,-34],[88,-143],[-18,-69]],[[1342,726],[-45,121],[8,23],[-36,74],[-45,26]],[[2416,1610],[-39,-6],[-58,-98],[-53,-39],[-64,14],[-48,-36],[-72,1],[-24,-61],[-86,-23],[-64,-3]],[[1908,1359],[-32,19],[-8,76],[-87,-17]],[[1781,1437],[-91,86],[91,38],[-84,100]],[[1908,1359],[97,-51],[13,-86],[-1,-91],[-108,-65]],[[1909,1066],[-60,59]],[[1849,1125],[-18,28],[24,63],[-11,44],[-63,73],[0,104]],[[1849,1125],[-27,-12],[-36,-80],[-35,-28]],[[1909,1066],[88,-40],[52,-63],[3,-48],[71,8],[7,-31],[154,-9],[52,-38],[58,-18]],[[2394,827],[1,-58],[-30,-12],[-83,-95],[-178,28],[-63,-35]],[[2394,827],[32,25],[88,-96],[88,5],[57,-16],[51,-36],[143,-68],[41,17],[64,-51],[91,5]],[[3049,612],[4,-88],[-127,-103],[-10,-37],[-94,-57],[5,-85],[-42,-43],[-58,-5],[-106,45],[-40,-11],[-44,-60],[11,-50],[-74,-4],[-89,-84],[-56,2],[-72,107],[-61,11]],[[3090,661],[-41,-49]],[[1651,52],[-76,27],[-61,-24],[-52,-49],[-69,-6],[-43,112],[7,38],[-41,38],[-31,113],[-62,83],[-156,35],[-34,-7],[-102,-124],[5,-39],[75,-62],[-80,-15],[-107,52],[-22,-27]],[[1066,2982],[45,-67],[-25,-63],[-57,-81]],[[1029,2771],[-171,97],[-49,-6],[-89,44],[-59,-23]],[[661,2883],[-32,56],[24,42]],[[653,2981],[24,48],[76,19],[16,37],[49,23],[54,-14],[74,-44],[46,9],[74,-77]],[[1327,2523],[-75,70],[-59,36],[1,51],[-65,-9],[-98,52]],[[1031,2723],[-2,48]],[[1066,2982],[35,47],[64,-31]],[[1165,2998],[2,-21],[90,-54],[-4,-50],[54,-10],[26,-54],[-49,-13],[-10,-48],[94,-22],[56,-40],[112,45],[6,-59]],[[1031,2723],[-26,-28],[-5,-88],[-253,1],[-87,77],[-51,1],[-36,31]],[[573,2717],[21,67],[63,66],[4,33]],[[937,2208],[-70,67],[-27,45],[9,59],[-98,-14],[-14,62],[-93,87],[-87,5],[-38,-50],[-72,-36],[-74,23],[-83,79],[-46,3]],[[244,2538],[-22,80],[-4,97],[74,37],[59,-66],[86,60],[39,-24],[97,-5]],[[1165,2998],[88,40],[-34,47],[-14,59]],[[1205,3144],[98,-21],[16,-47],[52,5],[85,36]],[[1456,3117],[14,-36],[66,-61],[-10,-77],[18,-119],[53,-27]],[[1597,2797],[53,-35],[-9,-137]],[[1205,3144],[-4,12]],[[1201,3156],[6,30],[89,-7],[33,24],[49,93],[47,36],[4,13],[-64,60],[-78,112],[-45,16]],[[1242,3533],[31,38],[92,65],[114,-22],[43,-84],[70,-93],[-2,-56]],[[1590,3381],[-57,-54],[23,-63],[-65,-51],[24,-38],[-59,-58]],[[213,1957],[-2,50],[-62,105],[-19,61],[23,59],[-3,60],[-25,41],[37,149],[68,24],[14,32]],[[1201,3156],[-49,50],[13,38],[-25,51],[-53,10],[-41,92],[-55,30]],[[991,3427],[37,26],[50,-4],[121,43],[43,41]],[[653,2981],[-38,65],[0,105],[89,155],[91,7],[37,35],[78,-5],[81,84]],[[3254,3134],[-50,17],[-40,94],[-53,9],[35,166]],[[3146,3420],[64,-3],[36,119],[-2,51],[73,-18]],[[3317,3569],[78,-88],[87,-17],[83,-84],[104,21],[39,49]],[[3708,3450],[82,-14],[74,15],[61,-10],[74,-50]],[[3708,3450],[26,42],[-21,98],[-35,58],[22,29],[5,77],[-99,45],[-30,0],[-60,110]],[[3516,3909],[24,34],[47,-18],[64,74],[70,-12],[46,45],[87,56],[-7,-57],[49,-54],[94,-57],[41,-6],[51,-78],[67,-66],[73,-143],[65,-17],[20,-110]],[[2863,2976],[-53,68],[-115,-33],[-63,69],[-35,5]],[[2597,3085],[14,81],[-54,3],[-77,70]],[[2480,3239],[10,40],[-67,22]],[[2423,3301],[35,33],[39,112],[-3,50],[57,3],[0,59],[47,66],[-4,46],[-35,60]],[[2559,3730],[54,-16],[53,76],[63,-16],[39,25]],[[2768,3799],[21,-61],[-37,-26],[20,-95],[-21,-28],[11,-110],[32,-58],[69,-6],[20,36],[66,21],[53,-52],[88,43],[56,-43]],[[2423,3301],[-13,-81],[-96,43]],[[2314,3263],[-27,78],[-71,81]],[[2216,3422],[-49,82]],[[2167,3504],[52,43],[14,84],[-37,50],[-90,45],[-35,-10]],[[2071,3716],[-22,62],[26,52],[49,6],[95,-38],[14,-50],[99,9],[40,32],[38,-19],[113,-20],[36,-20]],[[3317,3569],[45,20],[-25,104],[9,34],[-25,83],[47,14],[7,65]],[[3375,3889],[104,34],[37,-14]],[[2768,3799],[40,87],[43,-13],[77,84],[88,-66],[65,18],[19,90],[29,7],[103,-64],[61,-54],[48,22],[34,-21]],[[2320,2939],[-20,-15]],[[2300,2924],[-96,35],[-136,89]],[[2068,3048],[17,20]],[[2085,3068],[73,-14],[36,-36],[77,-19],[49,-60]],[[2480,3239],[-60,-56],[-19,-49],[-105,-31]],[[2296,3103],[19,58],[-1,102]],[[2216,3422],[-66,-91],[-3,-50],[-61,-153]],[[2086,3128],[-42,15]],[[2044,3143],[-59,11],[-28,48]],[[1957,3202],[11,12]],[[1968,3214],[71,-6]],[[2039,3208],[37,20],[-19,111],[17,93],[69,75],[24,-3]],[[2296,3103],[-44,-46],[93,-41],[25,-35],[8,-69]],[[2378,2912],[-40,-10]],[[2338,2902],[-18,37]],[[2085,3068],[3,12]],[[2088,3080],[-2,48]],[[1916,3204],[-12,-54],[10,-73]],[[1914,3077],[-68,22],[-119,145],[-57,39],[-6,43]],[[1664,3326],[93,46],[52,3]],[[1809,3375],[50,-81],[47,-26],[10,-64]],[[2175,2437],[-42,75],[16,32],[-25,66],[48,32],[62,12],[8,39],[57,101],[89,45]],[[2388,2839],[101,-20],[23,-73],[-5,-48],[-33,-59]],[[2597,3085],[-38,-75],[32,-47],[-71,-14],[-50,41],[-92,-78]],[[2044,3143],[-7,-29]],[[2037,3114],[-32,-80],[31,-11]],[[2036,3023],[18,-33]],[[2054,2990],[-149,-6]],[[1905,2984],[-13,52],[22,41]],[[1916,3204],[41,-2]],[[2300,2924],[-72,-70],[-85,58],[-31,-2]],[[2112,2910],[-58,80]],[[2036,3023],[32,25]],[[2388,2839],[-52,33],[2,30]],[[1590,3381],[17,-38],[57,-17]],[[1905,2984],[-86,-10],[-38,-62],[-48,-45],[-80,-21],[-56,-49]],[[2112,2910],[-29,-74],[-103,-5],[-89,8],[-29,-43],[43,-82],[-35,-132],[13,-49],[-30,-71],[8,-103]],[[2037,3114],[51,-34]],[[2039,3208],[-54,54],[-17,-48]],[[1809,3375],[-33,87],[35,84],[56,89],[79,101],[33,17],[92,-37]]],"transform":{"scale":[0.0004772767080498623,0.00037160127194744156],"translate":[20.454726500013905,40.8546830002101]},"objects":{"MKD":{"type":"GeometryCollection","geometries":[{"arcs":[[0,1,2,3,4,5]],"type":"Polygon","properties":{"name":"Veles","shapeGroup":"MKD","gid":"MKD-2-0"},"id":"MKD-2-0"},{"arcs":[[-3,6,7,8,9]],"type":"Polygon","properties":{"name":"Gradsko","shapeGroup":"MKD","gid":"MKD-2-1"},"id":"MKD-2-1"},{"arcs":[[10,11,12,13,14]],"type":"Polygon","properties":{"name":"Demir Kapija","shapeGroup":"MKD","gid":"MKD-2-2"},"id":"MKD-2-2"},{"arcs":[[-13,15,16,17,18,19,20]],"type":"Polygon","properties":{"name":"Kavadartsi","shapeGroup":"MKD","gid":"MKD-2-3"},"id":"MKD-2-3"},{"arcs":[[-2,21,22,23,-7]],"type":"Polygon","properties":{"name":"Lozovo","shapeGroup":"MKD","gid":"MKD-2-4"},"id":"MKD-2-4"},{"arcs":[[-8,-24,24,25,-14,-21,26]],"type":"Polygon","properties":{"name":"Negotino","shapeGroup":"MKD","gid":"MKD-2-5"},"id":"MKD-2-5"},{"arcs":[[-9,-27,-20,27]],"type":"Polygon","properties":{"name":"Rosoman","shapeGroup":"MKD","gid":"MKD-2-6"},"id":"MKD-2-6"},{"arcs":[[-1,28,29,30,31,32,-22]],"type":"Polygon","properties":{"name":"Sveti Nikole","shapeGroup":"MKD","gid":"MKD-2-7"},"id":"MKD-2-7"},{"arcs":[[-4,-10,-28,-19,33,34,35,36,37]],"type":"Polygon","properties":{"name":"Chashka","shapeGroup":"MKD","gid":"MKD-2-8"},"id":"MKD-2-8"},{"arcs":[[38,39,40,41,42,43,44,45]],"type":"Polygon","properties":{"name":"Berovo","shapeGroup":"MKD","gid":"MKD-2-9"},"id":"MKD-2-9"},{"arcs":[[-45,46,47,48,49,50,51]],"type":"Polygon","properties":{"name":"Vinitsa","shapeGroup":"MKD","gid":"MKD-2-10"},"id":"MKD-2-10"},{"arcs":[[-46,-52,52,53,54]],"type":"Polygon","properties":{"name":"Delchevo","shapeGroup":"MKD","gid":"MKD-2-11"},"id":"MKD-2-11"},{"arcs":[[-49,55,56,57]],"type":"Polygon","properties":{"name":"Zrnovtsi","shapeGroup":"MKD","gid":"MKD-2-12"},"id":"MKD-2-12"},{"arcs":[[-48,58,59,60,61,-56]],"type":"Polygon","properties":{"name":"Karbintsi","shapeGroup":"MKD","gid":"MKD-2-13"},"id":"MKD-2-13"},{"arcs":[[-50,-58,62,63,64,65,66]],"type":"Polygon","properties":{"name":"Kochani","shapeGroup":"MKD","gid":"MKD-2-14"},"id":"MKD-2-14"},{"arcs":[[-51,-67,67,68,-53]],"type":"Polygon","properties":{"name":"Makedonska Kamenitsa","shapeGroup":"MKD","gid":"MKD-2-15"},"id":"MKD-2-15"},{"arcs":[[-39,-55,69]],"type":"Polygon","properties":{"name":"Pehchevo","shapeGroup":"MKD","gid":"MKD-2-16"},"id":"MKD-2-16"},{"arcs":[[-32,70,-64,71,-61,72]],"type":"Polygon","properties":{"name":"Probishtip","shapeGroup":"MKD","gid":"MKD-2-17"},"id":"MKD-2-17"},{"arcs":[[-57,-62,-72,-63]],"type":"Polygon","properties":{"name":"Cheshinovo - Obleshevo","shapeGroup":"MKD","gid":"MKD-2-18"},"id":"MKD-2-18"},{"arcs":[[-23,-33,-73,-60,73,74,-25]],"type":"Polygon","properties":{"name":"Shtip","shapeGroup":"MKD","gid":"MKD-2-19"},"id":"MKD-2-19"},{"arcs":[[75,76]],"type":"Polygon","properties":{"name":"Vevchani","shapeGroup":"MKD","gid":"MKD-2-20"},"id":"MKD-2-20"},{"arcs":[[77,78,79,80,81]],"type":"Polygon","properties":{"name":"Vraneshtitsa","shapeGroup":"MKD","gid":"MKD-2-21"},"id":"MKD-2-21"},{"arcs":[[82,83,84,85,86,87,88]],"type":"Polygon","properties":{"name":"Debar","shapeGroup":"MKD","gid":"MKD-2-22"},"id":"MKD-2-22"},{"arcs":[[-84,89,90,91,92,93]],"type":"Polygon","properties":{"name":"Debartsa","shapeGroup":"MKD","gid":"MKD-2-23"},"id":"MKD-2-23"},{"arcs":[[-79,94,95,96,-90,-83,97,98,99]],"type":"Polygon","properties":{"name":"Drugovo","shapeGroup":"MKD","gid":"MKD-2-24"},"id":"MKD-2-24"},{"arcs":[[-99,100,101,102,103]],"type":"Polygon","properties":{"name":"Zajas","shapeGroup":"MKD","gid":"MKD-2-25"},"id":"MKD-2-25"},{"arcs":[[-80,-100,-104,104]],"type":"Polygon","properties":{"name":"Kichevo","shapeGroup":"MKD","gid":"MKD-2-26"},"id":"MKD-2-26"},{"arcs":[[-36,105,106,107,-82,108,109,110,111,112,113]],"type":"Polygon","properties":{"name":"Makedonski Brod","shapeGroup":"MKD","gid":"MKD-2-27"},"id":"MKD-2-27"},{"arcs":[[-81,-105,-103,114,-109]],"type":"Polygon","properties":{"name":"Oslomej","shapeGroup":"MKD","gid":"MKD-2-28"},"id":"MKD-2-28"},{"arcs":[[-92,115,116,117,118]],"type":"Polygon","properties":{"name":"Ohrid","shapeGroup":"MKD","gid":"MKD-2-29"},"id":"MKD-2-29"},{"arcs":[[-78,-108,119,-95]],"type":"Polygon","properties":{"name":"Plasnitsa","shapeGroup":"MKD","gid":"MKD-2-30"},"id":"MKD-2-30"},{"arcs":[[-77,120,-87,121,122,-93,-119,123]],"type":"Polygon","properties":{"name":"Struga","shapeGroup":"MKD","gid":"MKD-2-31"},"id":"MKD-2-31"},{"arcs":[[-85,-94,-123,124]],"type":"Polygon","properties":{"name":"Centar Zhupa","shapeGroup":"MKD","gid":"MKD-2-32"},"id":"MKD-2-32"},{"arcs":[[125,126,127,128]],"type":"Polygon","properties":{"name":"Bogdantsi","shapeGroup":"MKD","gid":"MKD-2-33"},"id":"MKD-2-33"},{"arcs":[[-42,129,130,131]],"type":"Polygon","properties":{"name":"Bosilovo","shapeGroup":"MKD","gid":"MKD-2-34"},"id":"MKD-2-34"},{"arcs":[[-11,132,133,134,135,-129,136]],"type":"Polygon","properties":{"name":"Valandovo","shapeGroup":"MKD","gid":"MKD-2-35"},"id":"MKD-2-35"},{"arcs":[[-43,-132,137,138,139]],"type":"Polygon","properties":{"name":"Vasilevo","shapeGroup":"MKD","gid":"MKD-2-36"},"id":"MKD-2-36"},{"arcs":[[-12,-137,-128,140,-16]],"type":"Polygon","properties":{"name":"Gevgelija","shapeGroup":"MKD","gid":"MKD-2-37"},"id":"MKD-2-37"},{"arcs":[[-126,-136,141]],"type":"Polygon","properties":{"name":"Dojran","shapeGroup":"MKD","gid":"MKD-2-38"},"id":"MKD-2-38"},{"arcs":[[-15,-26,-75,142,-139,143,-133]],"type":"Polygon","properties":{"name":"Konche","shapeGroup":"MKD","gid":"MKD-2-39"},"id":"MKD-2-39"},{"arcs":[[-41,144,145,-130]],"type":"Polygon","properties":{"name":"Novo Selo","shapeGroup":"MKD","gid":"MKD-2-40"},"id":"MKD-2-40"},{"arcs":[[-44,-140,-143,-74,-59,-47]],"type":"Polygon","properties":{"name":"Radovish","shapeGroup":"MKD","gid":"MKD-2-41"},"id":"MKD-2-41"},{"arcs":[[-131,-146,146,-134,-144,-138]],"type":"Polygon","properties":{"name":"Strumitsa","shapeGroup":"MKD","gid":"MKD-2-42"},"id":"MKD-2-42"},{"arcs":[[147,148,149,150,151,152]],"type":"Polygon","properties":{"name":"Bitola","shapeGroup":"MKD","gid":"MKD-2-43"},"id":"MKD-2-43"},{"arcs":[[-91,-97,153,-151,154,-116]],"type":"Polygon","properties":{"name":"Demir Hisar","shapeGroup":"MKD","gid":"MKD-2-44"},"id":"MKD-2-44"},{"arcs":[[-35,155,156,157,-106]],"type":"Polygon","properties":{"name":"Dolneni","shapeGroup":"MKD","gid":"MKD-2-45"},"id":"MKD-2-45"},{"arcs":[[-157,158,159,160]],"type":"Polygon","properties":{"name":"Krivogashtani","shapeGroup":"MKD","gid":"MKD-2-46"},"id":"MKD-2-46"},{"arcs":[[-96,-120,-107,-158,-161,161,-152,-154]],"type":"Polygon","properties":{"name":"Krushevo","shapeGroup":"MKD","gid":"MKD-2-47"},"id":"MKD-2-47"},{"arcs":[[-153,-162,-160,162,163]],"type":"Polygon","properties":{"name":"Mogila","shapeGroup":"MKD","gid":"MKD-2-48"},"id":"MKD-2-48"},{"arcs":[[-148,-164,164,165]],"type":"Polygon","properties":{"name":"Novatsi","shapeGroup":"MKD","gid":"MKD-2-49"},"id":"MKD-2-49"},{"arcs":[[-18,166,-165,-163,-159,-156,-34]],"type":"Polygon","properties":{"name":"Prilep","shapeGroup":"MKD","gid":"MKD-2-50"},"id":"MKD-2-50"},{"arcs":[[-117,-155,-150,167]],"type":"Polygon","properties":{"name":"Resen","shapeGroup":"MKD","gid":"MKD-2-51"},"id":"MKD-2-51"},{"arcs":[[168,169,170,171]],"type":"Polygon","properties":{"name":"Bogovinje","shapeGroup":"MKD","gid":"MKD-2-52"},"id":"MKD-2-52"},{"arcs":[[-111,172,173,-169,174,175]],"type":"Polygon","properties":{"name":"Brvenitsa","shapeGroup":"MKD","gid":"MKD-2-53"},"id":"MKD-2-53"},{"arcs":[[-170,-174,176,177]],"type":"Polygon","properties":{"name":"Vrapchishte","shapeGroup":"MKD","gid":"MKD-2-54"},"id":"MKD-2-54"},{"arcs":[[-102,178,179,-177,-173,-110,-115]],"type":"Polygon","properties":{"name":"Gostivar","shapeGroup":"MKD","gid":"MKD-2-55"},"id":"MKD-2-55"},{"arcs":[[-112,-176,180,181,182,183]],"type":"Polygon","properties":{"name":"Zhelino","shapeGroup":"MKD","gid":"MKD-2-56"},"id":"MKD-2-56"},{"arcs":[[-182,184,185,186,187]],"type":"Polygon","properties":{"name":"Jegunovtse","shapeGroup":"MKD","gid":"MKD-2-57"},"id":"MKD-2-57"},{"arcs":[[-89,188,-179,-101,-98]],"type":"Polygon","properties":{"name":"Mavrovo and Rostusha","shapeGroup":"MKD","gid":"MKD-2-58"},"id":"MKD-2-58"},{"arcs":[[-186,189,190]],"type":"Polygon","properties":{"name":"Teartse","shapeGroup":"MKD","gid":"MKD-2-59"},"id":"MKD-2-59"},{"arcs":[[-172,191,-190,-185,-181,-175]],"type":"Polygon","properties":{"name":"Tetovo","shapeGroup":"MKD","gid":"MKD-2-60"},"id":"MKD-2-60"},{"arcs":[[-31,192,193,194,195,-65,-71]],"type":"Polygon","properties":{"name":"Kratovo","shapeGroup":"MKD","gid":"MKD-2-61"},"id":"MKD-2-61"},{"arcs":[[-66,-196,196,197,-68]],"type":"Polygon","properties":{"name":"Kriva Palanka","shapeGroup":"MKD","gid":"MKD-2-62"},"id":"MKD-2-62"},{"arcs":[[-30,198,199,200,201,202,203,-193]],"type":"Polygon","properties":{"name":"Kumanovo","shapeGroup":"MKD","gid":"MKD-2-63"},"id":"MKD-2-63"},{"arcs":[[-202,204,205,206,207,208]],"type":"Polygon","properties":{"name":"Lipkovo","shapeGroup":"MKD","gid":"MKD-2-64"},"id":"MKD-2-64"},{"arcs":[[-195,209,210,-197]],"type":"Polygon","properties":{"name":"Rankovtse","shapeGroup":"MKD","gid":"MKD-2-65"},"id":"MKD-2-65"},{"arcs":[[-194,-204,211,-210]],"type":"Polygon","properties":{"name":"Staro Nagorichane","shapeGroup":"MKD","gid":"MKD-2-66"},"id":"MKD-2-66"},{"arcs":[[212,213,214,215]],"type":"Polygon","properties":{"name":"Aerodrom","shapeGroup":"MKD","gid":"MKD-2-67"},"id":"MKD-2-67"},{"arcs":[[-201,216,217,-205]],"type":"Polygon","properties":{"name":"Arachinovo","shapeGroup":"MKD","gid":"MKD-2-68"},"id":"MKD-2-68"},{"arcs":[[-207,218,219,220,221,222,223]],"type":"Polygon","properties":{"name":"Butel","shapeGroup":"MKD","gid":"MKD-2-69"},"id":"MKD-2-69"},{"arcs":[[-206,-218,224,225,226,-216,227,228,-219]],"type":"Polygon","properties":{"name":"Gazi Baba","shapeGroup":"MKD","gid":"MKD-2-70"},"id":"MKD-2-70"},{"arcs":[[229,230,231,232]],"type":"Polygon","properties":{"name":"Gjorche Petrov","shapeGroup":"MKD","gid":"MKD-2-71"},"id":"MKD-2-71"},{"arcs":[[-5,-38,233,234]],"type":"Polygon","properties":{"name":"Zelenikovo","shapeGroup":"MKD","gid":"MKD-2-72"},"id":"MKD-2-72"},{"arcs":[[-200,235,-225,-217]],"type":"Polygon","properties":{"name":"Ilinden","shapeGroup":"MKD","gid":"MKD-2-73"},"id":"MKD-2-73"},{"arcs":[[-221,236,237,238,239,240,-230,241]],"type":"Polygon","properties":{"name":"Karposh","shapeGroup":"MKD","gid":"MKD-2-74"},"id":"MKD-2-74"},{"arcs":[[-214,242,243,-239,244]],"type":"Polygon","properties":{"name":"Kisela Voda","shapeGroup":"MKD","gid":"MKD-2-75"},"id":"MKD-2-75"},{"arcs":[[-6,-235,245,-226,-236,-199,-29]],"type":"Polygon","properties":{"name":"Petrovets","shapeGroup":"MKD","gid":"MKD-2-76"},"id":"MKD-2-76"},{"arcs":[[-183,-188,246,-231,-241,247]],"type":"Polygon","properties":{"name":"Saraj","shapeGroup":"MKD","gid":"MKD-2-77"},"id":"MKD-2-77"},{"arcs":[[-113,-184,-248,-240,-244,248]],"type":"Polygon","properties":{"name":"Sopishte","shapeGroup":"MKD","gid":"MKD-2-78"},"id":"MKD-2-78"},{"arcs":[[-37,-114,-249,-243,-213,-227,-246,-234]],"type":"Polygon","properties":{"name":"Studenichani","shapeGroup":"MKD","gid":"MKD-2-79"},"id":"MKD-2-79"},{"arcs":[[-215,-245,-238,249,-228]],"type":"Polygon","properties":{"name":"Centar","shapeGroup":"MKD","gid":"MKD-2-80"},"id":"MKD-2-80"},{"arcs":[[-220,-229,-250,-237]],"type":"Polygon","properties":{"name":"Chair","shapeGroup":"MKD","gid":"MKD-2-81"},"id":"MKD-2-81"},{"arcs":[[-208,-224,250,-222,-242,-233,251]],"type":"Polygon","properties":{"name":"Chucher - Sandevo","shapeGroup":"MKD","gid":"MKD-2-82"},"id":"MKD-2-82"},{"arcs":[[-223,-251]],"type":"Polygon","properties":{"name":"Shuto Orizari","shapeGroup":"MKD","gid":"MKD-2-83"},"id":"MKD-2-83"}]}}}