{"type":"Topology","arcs":[[[8451,20662],[-15,-42],[37,-47],[52,-12],[120,-73],[34,-74],[94,-58],[83,-21],[14,-51],[-56,-95],[47,-114],[105,-200],[26,-27],[12,-76],[-16,-58],[11,-85],[-18,-44],[65,-49],[16,-48],[-34,-99],[43,-78],[-12,-41],[-80,-43],[-69,-57],[1,-46],[88,-87],[108,-85],[123,-20],[92,-74],[94,39],[104,-36],[64,-59],[-2,-88],[67,-63],[41,-10],[7,-43],[46,-59]],[[9743,18539],[-35,-38],[-92,-48],[1,-81],[-43,-33],[-132,-18],[-17,-16],[-5,-78]],[[9420,18227],[-97,-30],[-5,36],[-43,39],[-45,-21],[-55,59],[-64,13],[-28,-32],[-57,35],[-137,12],[-92,42],[-66,1]],[[8731,18381],[-95,75],[-16,40],[-94,35],[-62,11],[-101,40],[-71,13],[-23,-39],[-53,-30],[-97,1],[-24,17],[-92,15],[-51,-27],[10,-47],[-58,5],[4,55],[-32,59],[-57,30],[5,54],[-28,45],[-85,0],[-35,-65],[-49,63],[-41,6],[-59,-45],[7,-67],[37,6],[-1,-133],[-33,-55],[-101,153],[-86,70],[-17,27],[-64,15],[-37,-11],[-106,72]],[[7126,18769],[30,29],[-15,45],[28,69],[-20,53],[40,56],[84,12],[30,64],[75,27],[4,141],[-6,81],[36,26],[10,62],[-40,49],[24,70],[-94,60],[-82,171],[54,53],[8,32],[84,57],[29,66],[-34,32],[-2,56],[-43,61],[112,75],[24,55],[-85,76],[42,63],[-35,38],[30,60],[-38,47],[-49,0],[-30,65],[-50,45]],[[7247,20665],[40,22],[19,49],[56,48],[167,41],[6,52],[30,12],[80,-90],[57,-6],[47,-74],[88,-30],[105,22],[35,44],[18,76],[42,17],[-34,118],[46,63],[107,-50],[51,1],[46,-41],[-8,-102],[15,-35],[65,-45],[122,-58],[4,-37]],[[7851,14293],[-61,26],[66,46],[49,-23],[-54,-49]],[[7735,14601],[16,-1],[45,12],[50,-36],[-22,-68],[-40,-39],[-65,-34],[-36,14],[9,50],[-10,75],[5,41],[48,-14]],[[7235,14591],[-23,-62],[-5,-62],[-132,9],[-53,18],[-26,86],[42,3],[69,68],[6,57],[70,104],[37,20],[39,-114],[40,-49],[-64,-78]],[[6895,14991],[-8,43],[56,55],[6,-64],[-54,-34]],[[7226,14942],[-19,40],[73,122],[57,-14],[-18,-88],[-93,-60]],[[8070,15326],[-34,-74],[-107,-78],[-53,-83],[-5,-59],[46,-112],[-45,-299],[-77,-4],[-47,-15],[-51,20],[-17,-6],[-9,-22],[11,-74],[-9,-63],[19,-44],[-27,-29],[-73,-28],[-121,22],[-124,12],[-44,26],[-24,54],[33,49],[80,15],[-8,25],[-75,12],[-25,38],[38,55],[-7,54],[-77,116],[46,70],[95,78],[58,-1],[65,57],[-2,52],[-49,69],[92,29],[59,124],[162,-7],[24,16],[-16,57],[88,52],[15,70],[28,19],[18,44],[26,17],[11,24],[31,10],[35,65],[94,14],[-28,-90],[42,-50],[-59,-30],[-26,-37],[9,-50],[41,-54],[-27,-56]],[[8032,15747],[12,-55],[-26,-10],[-44,-66],[-26,-8],[-3,-18],[-34,-29],[-12,-32],[-30,-14],[-31,-91],[-87,-45],[10,-61],[-108,14],[-59,-5],[-68,-130],[-65,-9],[-22,-40],[53,-92],[-66,-62],[-29,13],[-9,111],[-27,95],[-27,39],[68,145],[5,28],[197,32],[49,32],[144,135],[32,100],[21,17]],[[7850,15741],[36,-33],[-15,-50],[48,-3],[47,26],[66,66]],[[7857,15779],[-40,-38],[-69,-126],[-61,-40],[-111,-91],[-89,-3],[-114,-48],[-30,-39],[-12,-51],[-48,-100],[25,-61],[-131,-235],[25,-36],[-107,-90],[-132,-196],[-108,-28],[-98,50],[-105,122],[17,51],[163,61],[87,90],[28,9],[43,70],[9,90],[52,35],[35,59],[-19,49],[69,36],[51,147],[94,30],[24,63],[61,4],[35,90],[37,6],[73,36],[35,54],[54,22],[50,-3]],[[7650,15768],[26,59],[-19,42],[30,18],[79,-17],[30,-57],[61,-34]],[[7580,15778],[-59,-34],[-11,-39],[-73,-39],[-35,-1],[-36,-83],[-87,-23],[-9,-52],[-88,-24],[-67,-148],[-66,-36],[1,-99],[-74,-33],[-39,-73],[-38,-31],[-32,-61],[8,-32],[-140,-83],[-126,-42],[-34,-27],[-68,31],[-3,42],[94,54],[61,86],[51,42],[68,90],[62,122],[-2,65],[23,87],[-48,109],[-14,64],[65,98],[16,106],[32,33],[70,-12]],[[6982,15835],[-17,-26],[40,-39],[54,-14],[56,26],[15,41],[80,25],[48,38],[96,32],[61,-7],[29,-32],[59,14],[41,28],[85,-22],[-7,-60],[-42,-61]],[[8489,15420],[-51,-68],[-186,-97],[-74,21],[-91,-5],[2,41],[28,75],[-47,99],[5,21],[66,40],[-1,32],[-37,47],[26,63],[-85,70]],[[8044,15759],[13,57],[48,29],[13,57],[74,6],[44,26],[-46,51],[66,7],[69,48],[-62,6],[14,105],[17,31],[217,90],[66,-42],[74,19],[15,26],[58,3],[28,36],[-9,42],[38,26],[74,15]],[[8855,16397],[-31,-72],[-43,-43],[38,-41],[23,46],[74,62],[30,-72],[60,-24],[-16,-31],[43,-70],[19,-65],[57,-11],[46,49],[32,-55],[-8,-33],[-73,-50],[-31,-45],[-51,-9],[-68,21],[-18,-41],[-47,-10],[-16,-46],[-37,-20],[-47,19],[-57,-111],[-73,-1],[-51,-59],[33,-55],[-36,-18],[-19,-44],[18,-60],[-68,35],[-32,0],[11,-68],[-28,-55]],[[9420,18227],[69,-10],[50,44],[68,-38],[30,-36],[30,-80],[-18,-66],[10,-33],[-42,-63],[54,-70],[102,-4],[36,-47],[64,-26],[0,-47],[71,-97],[-31,-16],[13,-47],[66,-21],[23,-32],[-41,-54],[0,-39],[47,-9],[33,-35],[43,-7],[4,-55],[-40,-67],[1,-35],[-39,-23],[27,-94]],[[10050,17120],[-31,-46],[78,-111],[28,-165],[-9,-74],[-34,-27],[-48,-1],[-48,-94],[-4,-41],[35,-33],[-34,-69],[44,-109],[97,-4],[14,-70],[-128,-92]],[[10010,16184],[5,36],[-72,14],[-10,45],[13,66],[-32,17],[-122,-40],[-37,-28],[-91,6],[24,98],[-54,38],[-147,-3],[-65,13],[-7,25],[-72,35],[-154,-60],[-32,-46],[-94,79],[-65,-7],[-20,37],[-69,34],[-8,-51],[-47,0]],[[8854,16492],[-22,106],[28,20],[60,-6],[-25,90],[52,46],[102,4],[-31,69],[-19,85],[-123,6],[-25,-13],[-3,-54],[-173,-24],[-70,-32],[-36,4],[-44,87],[-3,47],[-88,55],[-62,-31],[-60,44],[14,61],[39,22],[-53,45],[49,64],[-80,93]],[[8281,17280],[28,61],[30,19],[17,110],[94,24],[71,-18],[141,44],[-11,41],[-63,38],[-11,62],[5,76],[137,17],[43,95],[69,63],[22,64],[-24,61],[67,47],[-63,84],[18,28],[-74,120],[-63,8],[17,57]],[[7850,15741],[7,38]],[[7650,15768],[-70,10]],[[6982,15835],[-49,43],[-9,62],[6,86],[-10,58],[-33,67],[88,35],[20,26],[29,97],[1,54],[115,24]],[[7140,16387],[23,23],[84,38],[-20,67],[32,22],[67,-28],[104,72],[31,43],[-44,41],[42,39],[125,78],[80,97],[26,98],[70,33],[3,29],[70,100],[104,-13],[27,46],[185,57],[50,38],[20,46],[62,-33]],[[8854,16492],[1,-95]],[[8044,15759],[-12,-12]],[[5901,15018],[46,-9],[-68,-88],[-92,19],[-28,0],[-9,18],[60,22],[11,9],[37,5],[43,24]],[[6753,15239],[-39,-67],[-72,-61],[-72,-131],[-70,-26],[-101,-6],[-56,-43],[-62,-95],[-68,-28],[-37,-91],[-51,-40],[-36,29],[-29,90],[-33,160],[17,52],[168,41],[42,28],[113,143],[48,91],[60,37],[80,109],[117,98],[102,47],[1,-45],[46,-65],[-68,-227]],[[6494,15468],[-50,-10],[-16,58],[-33,18],[27,38],[-17,54],[19,45],[52,-34],[51,-55],[-7,-61],[-26,-53]],[[6818,15792],[-71,-126],[-87,-103],[-45,-30],[-47,-2],[-20,39],[89,58],[38,72],[-5,69],[98,9],[50,91],[31,-30],[-31,-47]],[[6771,15797],[-26,-13],[-61,15],[45,72],[12,45],[20,13],[69,-31],[-28,-22],[-31,-79]],[[7012,16490],[49,-6],[39,-46],[-13,-52],[-75,-26],[-38,-153],[-98,-45],[-38,47],[-1,35],[68,81],[3,135],[104,30]],[[7140,16387],[-40,6],[8,49],[-43,45],[-75,10],[-80,-14],[-31,-73],[5,-88],[-73,-66],[-8,-41],[24,-34],[9,-90],[19,-60],[-9,-128],[-65,29],[-24,1],[-24,-18],[-45,-94],[-54,-80],[14,-78],[-111,-60],[-88,70],[-65,15],[-63,-26],[70,-38],[21,-56],[-33,-26],[45,-47],[-41,-93],[-144,-147],[-57,-88],[-57,-42],[-135,-25],[-76,-83],[-25,7],[-42,-27],[-93,-26],[-11,-18],[4,-12],[-78,-80],[-73,112],[-48,49],[-5,90],[9,77],[-10,58],[23,34],[-22,53],[49,26],[-22,102],[30,20],[18,65],[-13,56],[37,6],[13,42],[-39,85],[10,60],[37,65],[-7,29],[31,47],[-3,39],[35,79],[-10,62],[24,75],[-40,78],[78,19],[40,-45],[86,40],[47,71],[-10,35],[-47,31],[68,78],[30,88],[-25,54],[12,99],[64,83],[30,14],[27,54],[-2,38],[-36,112],[-33,37],[18,78],[61,-19],[86,71],[-4,70],[45,35],[33,96],[-29,34],[-8,75],[28,57],[44,30],[38,64],[-28,58],[-65,5],[-35,97],[123,-5],[24,-49],[104,57],[-41,63],[-60,16],[7,65],[-21,47],[44,92],[30,-34],[45,24],[-21,31],[105,10],[-13,39],[23,89],[0,59],[-37,37],[11,67],[-4,96]],[[6525,18533],[61,-75],[79,-38],[43,-73],[30,32],[72,-30],[24,-66],[67,-5],[24,-63],[64,-9],[22,87],[53,10],[19,92],[73,67],[-4,48],[49,32],[-7,89],[-36,39],[-3,49],[-29,50]],[[8392,14770],[-9,41],[28,41],[33,77],[19,-68],[-71,-91]],[[8033,14834],[-29,23],[28,76],[39,2],[-38,-101]],[[8410,14615],[-46,35],[4,33],[110,188],[-4,181],[66,60],[26,56],[48,17],[58,-108],[-7,-134],[-17,-45],[-61,-53],[-104,-164],[-73,-66]],[[8230,15247],[46,-34],[-60,-25],[10,-131],[-17,-10],[-83,28],[-69,-6],[-24,-38],[4,-49],[-40,-34],[-22,110],[10,46],[55,76],[156,81],[34,-14]],[[8618,15265],[-56,80],[35,64],[130,74],[-5,-107],[-32,-46],[-72,-65]],[[10152,15451],[-40,-15],[-57,17],[24,30],[84,43],[30,141],[16,43],[-2,73],[17,42],[51,65],[21,-4],[33,-86],[-3,-118],[-15,-73],[-55,-62],[-104,-96]],[[10276,15492],[54,88],[17,83],[29,54],[7,59],[-15,44],[74,91],[54,-11],[84,-59],[74,-35],[31,-37],[-13,-35],[-70,-58],[-90,-102],[-55,-35],[-123,-39],[-58,-8]],[[10322,15889],[-55,49],[48,17],[-1,-29],[23,-31],[-15,-6]],[[10360,15818],[-43,62],[21,14],[-23,32],[1,30],[59,4],[65,-39],[-80,-103]],[[10010,16184],[-12,-13]],[[9998,16171],[-30,-90],[27,-18],[55,29],[41,-18],[-3,-61],[54,-42],[104,-33],[23,-28],[-66,-119],[-3,-85],[-43,-141],[-53,-33],[-60,-64],[-19,-42],[-176,-126],[-78,-16],[-22,-20],[-64,-111],[-27,-11],[-4,-53],[18,-27],[-107,-169],[-33,-23],[-38,-73],[-177,-149],[-54,-57],[-134,-104],[-63,-91],[-136,-76],[-106,-32],[-210,-20],[-102,26],[-20,28],[26,64],[-54,115],[5,64],[21,45],[37,23],[38,93],[82,66],[50,80],[20,105],[-14,154],[-72,103],[53,53],[54,97],[-6,32],[21,86],[-137,-51],[-39,-41],[-25,-79],[61,-129],[-54,-19],[-33,-60],[-73,-78],[5,-92],[-20,-19],[-15,-46],[-49,-56],[-36,-140],[-24,-53],[3,-50],[29,-98],[-76,-50],[-66,-14],[-129,47],[-33,30],[-14,105],[4,118],[20,50],[28,155],[-29,71],[15,58],[142,-27],[30,16],[7,38],[-14,98],[46,13],[54,68],[132,87],[26,66]],[[13539,20304],[99,-81],[35,-5],[54,-45],[6,-55],[-39,-29],[-23,-113],[-86,-112],[-3,-41],[-62,-50],[-4,-103],[17,-38],[55,-32],[-7,-29],[38,-66],[25,-11],[4,-66],[36,-21],[19,-13],[28,-63],[-6,-47],[-72,-72],[-29,-77],[14,-45],[48,-68],[-20,-31],[93,-94],[-22,-166],[42,-8],[12,-12],[6,-14]],[[13797,18697],[-24,-28],[-104,-49],[-81,-1],[-39,-55],[-79,-14],[-23,91],[16,40],[-72,19],[-55,48],[-85,13],[-68,99],[-67,-10],[-59,42],[-106,-38],[-15,31],[-79,-54],[6,-82],[-25,-48],[29,-123],[-13,-139],[38,-56],[23,-83],[-12,-59],[-32,-34]],[[12871,18207],[-27,-42],[24,-50],[148,-47],[-41,-80],[-47,-39],[-24,-47],[15,-54],[71,-61],[110,-53],[50,-73],[-53,3],[-17,31],[-78,1],[-15,-52],[2,-115],[-32,-7],[0,-91],[-51,-72],[-40,-103],[5,-51],[-19,-31],[-73,22],[22,-58],[-56,-2],[4,-48],[46,-101],[-41,-30]],[[12754,16957],[-108,69],[-31,56],[-21,85],[-62,75],[-51,-27],[-43,25],[-12,62],[-31,28],[-42,-13],[-87,62],[-57,-4],[-113,-35],[-68,17],[-24,-13],[-127,29],[-108,-71],[-136,33],[-58,4],[-2,39],[-71,7]],[[11502,17385],[-10,26],[62,80],[-14,62],[8,46],[-16,69],[-68,79],[-88,46],[-100,103],[-6,32],[58,25],[-16,87],[-21,50],[26,45],[-34,44],[-5,77],[-38,94],[-7,95],[-57,75],[-50,-1],[-36,31],[-69,10],[3,82],[-44,31],[-67,127],[-40,35],[-2,31],[-72,94],[-69,59],[-45,69],[43,31],[5,56],[-39,120]],[[10694,19295],[-29,142],[-58,57],[-40,78],[67,29],[32,-58],[31,-4],[18,61],[-69,166],[66,3],[36,47],[53,-29],[-8,-69],[70,10],[75,-19],[74,8],[-16,114],[4,37],[-28,76],[31,65],[-54,11],[-20,51],[-106,3],[-38,54],[-21,72],[-28,14],[-14,64],[-34,22],[6,35],[-52,54],[-56,121],[-64,25],[-16,70],[-60,46],[27,64],[-69,30],[-34,-8],[-28,39],[-98,55],[-1,43],[-58,109],[23,12]],[[10208,20995],[47,-74],[32,-1],[86,-63],[151,25],[30,33],[35,-29],[66,-6],[43,-71],[46,-27],[81,38],[52,-10],[48,25],[92,-20],[97,-63],[84,25],[68,-6],[70,-22],[50,55],[91,14],[58,-10],[102,-85],[25,-52],[105,-72],[51,-59],[60,11],[49,-13],[32,-47],[113,-30],[56,-34],[70,19],[84,-28],[28,-23],[-8,-57],[57,-24],[-19,-38],[33,-91],[65,-18],[15,-40],[102,67],[-1,32],[46,38],[52,4],[50,26],[15,-59],[35,-11],[76,7],[41,69],[54,27],[0,-54],[75,-55],[45,14],[11,-60],[65,-12],[73,61],[43,-13],[54,20],[36,-11],[44,33],[122,30],[48,24]],[[10208,20995],[48,55],[42,14],[47,-20],[26,46],[-36,96],[-44,36],[71,109],[-47,52],[-36,14],[-14,45],[-81,118],[-49,112],[-84,37]],[[10051,21709],[-34,42],[34,24],[-19,59],[22,51],[46,10],[-40,57],[17,50],[-24,120],[44,41],[-78,93],[17,80],[54,39],[-53,70],[18,84],[-64,64]],[[9991,22593],[-12,73],[37,78],[53,13],[-28,41],[34,36],[-23,58],[27,18],[-11,80],[-74,84],[-37,63],[-1,116],[-53,64]],[[9903,23317],[98,-8],[22,-25],[90,-22],[64,2],[38,89],[175,4],[174,-55],[47,22],[111,-93],[95,-16],[23,61],[64,24],[22,82],[68,-11],[206,3],[30,-24],[91,14],[214,-13]],[[11535,23351],[27,-35],[91,-52],[-74,-64],[54,-76],[50,-15],[42,-49],[9,-60],[-9,-61],[50,-84],[47,-148],[158,-80],[-128,-62],[25,-85],[-18,-54],[88,-77],[82,-49],[-5,-49],[24,-91],[13,-103],[141,31],[58,-18],[48,-43],[-67,-45],[-43,-10],[-60,24],[-47,-102],[43,-69],[50,-24],[-11,-48],[29,-46],[-171,-17],[19,-77],[64,-105],[64,-36],[62,-115],[42,1],[13,-62],[68,-55],[93,78],[86,-25],[56,-46],[63,12],[32,-18],[47,37],[33,1],[48,51],[63,-3],[84,32],[47,5]],[[13015,21365],[65,-101],[44,-16],[3,-72],[25,-47],[-16,-125],[-24,-20],[19,-46],[-53,-102],[28,-46],[43,-13],[21,-72],[51,-16],[67,11],[38,-70],[4,-94],[19,-33],[59,-3],[22,72],[45,26],[45,-55],[61,-142],[-8,-45],[-34,-52]],[[7247,20665],[-69,27],[-111,207],[-65,27],[5,54],[50,45],[-15,77],[34,8],[13,49],[-104,29],[-51,59],[-5,31],[-47,29],[32,69],[123,6],[-19,33],[-20,117],[-79,90],[16,36],[-41,21],[-24,54],[105,53],[75,11],[29,73],[-49,98],[-61,8],[-55,44],[-12,92]],[[6902,22112],[28,21],[69,-20],[30,41],[72,-19],[174,28],[51,-11],[61,-41],[59,-8],[27,-45],[105,6],[122,-39],[82,-67],[17,-70],[94,-83],[39,28],[21,48],[60,-8],[40,30],[44,-18],[54,46],[-7,113],[35,59],[35,15],[101,4],[24,46],[90,37],[78,7],[2,57],[-40,64],[7,40],[81,41],[38,34],[143,-9],[72,104],[47,34],[27,58],[98,12],[43,-36],[41,32],[52,13],[91,-18],[28,-31],[64,22],[40,-6],[66,-43],[41,2],[65,38],[47,-13],[56,46],[107,13],[103,-49],[45,15],[70,-48],[50,9]],[[10051,21709],[-79,-26],[16,-58],[-8,-61],[-98,-52],[-70,-56],[-52,-20],[-62,-90],[-30,-27],[30,-49],[-43,-35],[-62,-2],[-23,-46],[26,-101],[-63,-63],[-124,-42],[-23,-19],[-89,-20],[-103,-72],[-43,10],[-71,-58],[-78,-14],[-105,37],[-39,27],[-177,-43],[-31,-37],[14,-28],[-9,-101],[-55,12],[-149,-13]],[[10694,19295],[-33,-19],[-81,10],[-71,-62],[-29,-83],[-43,-46],[-43,20],[6,-73],[-79,-47],[-19,-69],[-94,-14],[-28,-63],[-10,-79],[-60,7],[-62,-14],[-90,-64],[-40,-77],[-60,-25],[19,-72],[-56,-16],[-78,30]],[[5385,33865],[-24,-40],[10,-106],[32,-31],[11,-54],[-43,-44],[0,-41],[34,-30],[-59,-63],[11,-33]],[[5357,33423],[-35,-93],[-3,-135],[-20,-33],[-96,10],[-98,63],[-37,-19],[-28,-58],[30,-40],[18,-104],[-11,-10],[19,-110],[-15,-16],[-4,-98],[-103,30],[-4,-45],[35,-18],[2,-143],[17,-51],[-30,-87],[-52,-49],[-70,-34],[23,-82],[-46,-15],[84,-132],[0,-84],[46,-10],[29,-69],[-10,-181],[54,-39],[9,-44],[-94,-3],[15,-53],[45,-48],[-22,-29],[38,-97],[-13,-40],[-69,-14],[13,-52]],[[4974,31391],[-94,-20],[-208,-17],[-20,39],[-54,19],[-55,-40],[-54,-10],[-46,15],[-141,-5],[-122,-36],[-87,28],[-52,35],[-112,-26],[-55,-26],[-112,33],[-22,52],[-113,-32],[-86,19],[21,58],[-17,42],[-57,60],[29,58],[-30,77],[-4,97],[-61,42],[-83,1],[-46,18],[-30,96],[-38,53],[-34,7]],[[3191,32028],[14,47],[43,61],[68,46],[-45,20],[10,74],[20,28],[4,100],[-41,93],[6,140],[-32,64],[75,28],[44,60],[-31,75],[15,79],[2,118],[63,89],[-19,49],[32,33],[14,55],[-31,111],[51,88],[-73,79],[-1,44],[-45,65],[31,123],[-31,26],[-14,135],[17,113],[-24,28],[-54,2],[-30,31],[-57,97],[-2,133],[10,50],[-20,45],[42,47],[179,-54],[37,-40],[34,-100],[54,-11],[24,-50],[-11,-36],[87,-65],[81,-10],[64,31],[25,39],[97,-36],[55,43],[30,71],[134,-13],[53,7],[86,-18],[111,10],[44,-89],[119,-99],[112,17],[110,43],[82,2],[70,-47],[69,-5],[59,-21],[30,13],[76,-39],[26,-57],[40,9],[84,-11],[39,-54],[17,-56],[66,-13]],[[4974,31391],[44,-90],[-14,-41],[13,-41]],[[5017,31219],[113,-317],[-89,-25],[1,-67],[85,-281],[27,-35],[-108,-169],[54,-270],[-6,-124],[16,-114],[-96,-180]],[[5014,29637],[-59,-54],[-80,-51],[-106,-2],[-31,-75],[-74,45],[9,74],[-44,48],[-81,0],[-57,27],[-34,-27],[-128,-67],[-56,23],[-45,41],[64,66],[-40,56],[-81,-12],[-53,17],[-13,57],[77,47],[-16,36],[-103,59],[-53,-28],[-62,53],[-90,-70],[51,-57],[-79,-52],[-103,16],[-31,-51],[-107,21],[-60,22],[-96,-18],[-31,102],[-76,57],[4,40],[-40,12],[-62,-28],[19,-37],[-24,-36],[6,-47],[-44,-77],[22,-27],[-103,-52],[-40,14],[-33,-32],[-84,-21],[-47,14],[-25,55],[19,33],[-26,45],[-106,49],[-26,55],[-43,-8]],[[2693,29892],[-42,143],[101,2],[45,22],[-8,177],[-19,50],[-1,181],[-70,63],[-60,12],[-19,42],[10,45],[-67,79],[9,86],[70,57],[-14,67],[-75,65],[0,45],[-29,44],[-9,71],[34,112],[-23,80],[3,55],[51,80],[6,54],[40,73],[-7,33],[49,42],[-37,111],[12,52],[-49,25],[14,101],[46,22],[37,-20],[70,33],[84,-44],[6,-34],[75,-45],[70,7],[64,-10],[94,83],[37,75]],[[5014,29637],[30,-206],[-100,-172],[15,-58],[24,-234],[30,-200],[98,-117],[167,-88],[1,-76],[40,-38],[-1,-36],[-61,-38],[5,-84],[-56,-99],[33,-40],[-26,-42],[-38,-126],[-48,-80],[21,-62],[-59,-30],[-77,-58],[51,-45],[74,9],[115,-15],[18,-34],[-16,-124],[35,-28],[10,-69],[25,-12],[-21,-135],[-57,-82],[-103,-47],[64,-57],[-90,-49],[-111,-131]],[[5006,26934],[29,-38],[4,-55],[43,-82],[34,-6],[39,-64],[-52,-74],[34,-84],[80,-68],[8,-36],[-105,-148],[-152,-15],[-28,-32],[-99,-18],[-55,-52],[-29,27],[-73,-22],[-62,20]],[[4622,26187],[8,32],[-70,58],[27,53],[-56,91],[-27,71],[-38,5],[-82,-34],[-27,23],[-16,58],[-25,10],[-14,82],[-65,101],[-72,65],[-1,36],[-143,9],[-33,-15],[-3,-121],[-86,-50],[28,-39],[-16,-116],[31,-8],[41,-63],[4,-74],[-137,8],[-47,21],[-32,-55],[-89,-6],[-42,58],[-63,26],[-59,-40],[-27,30],[-121,-19],[-24,18],[-17,77],[-92,-18],[-53,13],[-43,-19],[-29,72],[-89,0],[-95,45],[10,50],[-106,50],[-90,-43],[-43,24],[-19,49],[-22,114],[-30,44],[-1,73],[22,25],[-35,168],[-18,39],[21,79],[-88,-17],[-57,-28],[-82,-20],[-52,39],[-59,-17],[-47,21],[-14,43],[-94,39],[-65,1],[-166,-99],[-43,41],[-98,14],[-51,72],[17,40],[-47,40],[-1,75],[-42,7],[-37,35],[-60,10]],[[1531,27540],[-60,101],[-44,8],[-42,71]],[[1385,27720],[3,25],[-44,52],[-33,93],[-4,70],[-28,102],[-27,50],[-9,95],[-21,63],[-6,97],[-24,89],[6,76],[-19,67],[10,92],[-15,30],[24,164],[-4,116],[26,11],[-17,66],[43,28],[8,41],[-68,233],[75,24],[54,74],[74,-7],[14,71],[-7,148],[23,20],[13,62],[83,31],[24,-39],[228,-117],[70,-57],[66,-18],[-9,-67],[67,-34],[29,-110],[54,63],[26,52],[74,43],[56,-86],[3,-36],[72,16],[-3,72],[-25,54],[25,86],[45,58],[103,-6],[-15,68],[-33,33],[20,77],[-24,56],[27,18],[166,-3],[39,-63],[68,4],[25,25]],[[14704,36055],[41,-42],[4,-104],[13,-53],[-7,-140],[-15,-112],[-23,-100],[-3,-61],[-56,-83],[-7,-43],[250,10],[110,30],[35,-8],[11,-100],[30,-52],[67,-24],[3,-41],[-37,-39],[-102,0],[-18,-46],[23,-62],[73,-12],[58,10],[63,-21],[85,-66],[-65,-35],[-45,-45],[-3,-100],[47,-21],[-22,-106],[-24,-49],[-86,-43],[-60,-59],[-53,-19],[-57,-46],[-19,-92],[-141,-51],[-37,-53],[-86,-37],[-8,-46],[77,-23],[160,-65],[49,-29],[14,-44]],[[14943,33933],[-76,-86],[-105,-29],[-70,18],[-48,-9],[-146,-1],[-61,-48],[37,-43],[-97,-69],[-62,-32],[-98,15],[-74,-53],[-3,-69]],[[14140,33527],[-19,5]],[[14121,33532],[-46,55],[-45,-36],[-87,18],[-117,-46],[-42,12],[-26,-37],[-43,12],[-29,-42],[-72,14],[-30,-24],[-56,-3],[-49,-55],[-39,-19],[-47,15],[-155,9],[-26,46],[-3,79],[-80,49],[-144,-4],[-81,12],[-16,-14],[-91,47],[-189,24],[-23,54],[42,42],[84,-15],[90,25],[70,86],[16,59],[-48,90],[-71,11],[-8,161],[4,48],[49,68],[-36,49],[-97,-7],[-60,-17],[-91,-49],[-69,-5],[-140,19],[66,71],[-27,106],[-45,2],[8,48],[42,29],[-22,50],[-57,29],[-8,45]],[[12277,34643],[-12,30],[-114,67],[-28,35],[-83,31],[-18,58],[72,52],[20,114],[-89,5],[-23,65],[81,62],[-27,55],[105,21],[61,36],[1,41],[-37,52],[-58,21],[-44,38],[-46,-33],[-54,8],[-10,32]],[[11974,35433],[-9,65],[54,96],[-24,26],[-15,65],[27,11],[88,-55],[126,-21],[8,51],[-14,56],[120,58],[-1,51],[23,42],[-38,63],[-6,60],[26,98]],[[12339,36099],[39,29],[136,9],[63,-63],[63,-2],[79,-22],[73,-88],[66,-23],[154,-85],[17,-78],[-53,-62],[116,-31],[28,-27],[72,15],[69,-16],[7,-34],[83,-33],[49,46],[78,17],[36,-27],[-3,157],[-38,56],[22,61],[43,9],[9,68],[75,-15],[40,10],[49,78],[-9,68],[51,55],[-73,57],[53,81],[-23,71],[57,25],[73,-14],[136,-122],[93,42],[198,-25],[22,-15],[87,26],[20,-30],[70,18],[32,34],[106,27],[75,-61],[12,-77],[-39,-101],[-54,-66],[42,-28],[64,42]],[[11974,35433],[-73,31],[-74,-30],[-57,71],[-79,12],[-45,58],[-41,5],[-28,-45],[-81,-8],[-9,-22],[-104,14],[-30,-31],[-69,-3],[-70,37],[-119,-39],[-84,-63],[-41,0],[32,121],[-52,-2],[-171,98],[-56,60],[35,76],[-54,62],[-29,65],[-130,5],[-24,-35],[-145,30],[-58,73],[-94,-9],[-29,53],[24,52],[-50,50],[-26,89],[-36,47],[30,136],[-44,32],[3,48],[-51,10],[-77,55],[-34,42]],[[9934,36578],[191,10],[52,28],[24,45],[157,4],[68,22],[55,37],[-30,25],[23,38],[-3,61],[27,48],[95,-73],[-26,-110],[-41,6],[-27,-33],[-13,-123],[64,-11],[46,34],[29,64],[32,20],[2,80],[22,47],[-9,88],[-62,9],[17,66],[-35,40],[-12,60],[-62,41],[-7,32],[-60,62],[-14,88],[10,51],[-53,41],[-38,108],[10,224],[2,175],[-19,267],[35,44],[100,-39],[117,-69],[53,-15],[26,61],[57,51],[46,-26],[60,28],[42,0],[30,30],[46,3],[74,73],[-4,50],[23,83],[-39,57],[-86,7],[-142,93],[-5,32],[30,46],[-7,50],[-29,34],[-13,58],[-66,38],[74,52],[23,113],[-15,25],[24,53],[36,25],[60,-7],[65,106],[-59,80],[-5,84]],[[10900,39369],[39,-13],[51,23],[40,-34],[62,58],[38,12],[96,-56],[28,12],[89,-81],[9,-79],[-28,-42],[-60,-40],[53,-81],[33,-77],[39,-55],[95,-21],[25,-50],[86,-14],[41,32],[87,23],[-1,46],[35,57],[49,30],[3,30],[-35,89],[45,61],[5,35],[51,29],[-21,28],[37,27],[68,-11],[31,-47],[198,-30],[5,-36],[67,-52],[53,42],[42,-21],[98,5],[89,-23],[56,10],[50,-85],[40,28],[35,-45],[-13,-44],[80,-38],[51,-90],[29,42],[88,-80],[18,-83],[-18,-55],[-55,-63],[-7,-48],[18,-71],[-20,-48],[4,-58],[33,-53],[102,43],[42,52],[49,-2],[109,-66],[102,17],[44,-74],[100,36],[86,-48],[20,-29],[56,-18],[31,-65],[5,-79],[69,-149],[-62,-93],[5,-59],[-24,-90],[-18,-14],[-14,-107],[42,-41],[-53,-64],[-38,1],[-54,-41],[-27,-62],[3,-53],[30,-17],[43,-79],[47,-60],[-7,-31],[-71,-37],[7,-42],[45,-20],[-23,-69],[-85,-15],[-67,-83],[14,-60],[-110,-10],[-49,-17],[-3,-30],[-52,-30],[-65,9],[-88,57],[-103,-113],[-127,21],[-70,48],[-91,-43],[-59,-101],[38,-50],[3,-82],[-56,-88],[-61,-50],[-28,-58],[-80,-59],[-52,18],[-54,-73],[-9,-60],[16,-36]],[[10900,39369],[-18,38],[9,52],[-101,40],[42,41],[1,45],[-39,42],[-33,-10],[-95,107],[33,18],[39,86],[4,55],[-41,40],[-94,15],[-61,46],[0,25],[-79,21],[3,79],[37,57],[-32,32],[1,44],[105,34],[121,-8],[67,16],[62,-12],[86,11],[48,66],[-61,57],[10,32],[-27,50],[-47,31],[-25,51],[6,47],[-131,40],[34,30],[-10,47],[33,100],[155,58],[101,18],[34,82],[42,-4],[64,29],[5,64],[-51,101],[37,46],[68,-36],[35,6],[-13,80],[41,39],[59,11],[-21,60],[-63,-10],[-114,8],[-16,37],[40,31],[145,14],[72,75],[57,-1],[80,-32],[69,2],[52,-54],[67,-3],[17,35],[67,-27],[47,24],[78,0],[120,-34],[45,39],[166,23],[68,-9],[69,-27],[62,21],[59,90],[90,-3],[39,-17],[109,34],[177,4],[31,-24],[104,20],[34,-29],[86,-22],[31,29],[77,4],[67,45],[45,88]],[[13380,41719],[87,32],[55,-5],[54,-28]],[[13576,41718],[37,-70],[53,-50],[3,-39],[57,-23],[45,-40],[54,-154],[58,-50],[-4,-46],[34,-67],[50,-37],[20,-77],[-36,-41],[-103,-9],[-29,-28],[33,-50],[-4,-95],[65,-33],[-3,-45],[-57,-36],[-101,29],[-57,-41],[-11,-107],[94,-135],[-2,-108],[42,-82],[-32,-58],[22,-113],[-38,-93],[63,-50],[-38,-65],[-12,-57],[-39,-64],[-65,-25],[15,-69],[-24,-23],[71,-61],[-7,-33],[38,-40],[68,2],[93,-39],[70,-11],[3,-63],[84,-78],[41,-109],[32,-25],[48,6],[42,-50],[33,18],[9,66],[66,29],[91,-23],[102,4],[71,-54],[13,-45],[-2,-103],[76,-40],[62,1],[26,81],[38,47],[21,123],[71,47],[77,118],[88,3],[50,57],[66,2],[45,39],[-29,59],[7,29],[-50,28],[-32,46],[32,56],[-80,116],[80,11],[40,-35],[48,50],[4,55],[-35,30],[0,39],[109,30],[-8,79],[-63,77],[17,20],[69,-1],[37,-47],[34,5],[23,50],[46,47],[99,29],[109,-52],[105,133],[173,12],[28,40],[152,50],[33,57],[34,13],[24,50],[183,124],[2,29],[55,12],[117,120],[10,38],[66,65],[32,-81],[61,2],[21,-39],[39,-12],[91,12],[95,29],[59,-65],[73,-24],[126,-5],[168,102],[75,8],[55,-29],[58,2],[41,28],[51,86],[86,17],[73,45],[43,59]],[[17938,41135],[74,-97],[4,-24],[-23,-160],[-28,-52],[33,-44],[42,-9],[-24,-59],[52,-104],[1,-48],[-27,-60],[-44,-32],[-6,-108],[9,-68],[-38,-133],[21,-33],[-47,-90],[-15,-89],[-121,-98],[-16,-60],[5,-50],[-21,-49],[56,-15],[38,15],[52,-75],[27,-62],[-29,-61],[-42,-8],[20,-74],[-69,-32],[-67,-55],[-27,24],[24,57],[-41,50],[-61,10],[-67,-39],[-47,29],[-37,-56],[81,-163],[38,-188],[69,4],[118,-94],[21,-72],[33,-27],[2,-108],[-49,-16],[-36,-64],[-28,3],[-67,-46],[-69,17],[-99,47],[-43,48],[-81,-5],[-34,-45],[-76,-46],[-47,-65],[10,-64],[-38,-26],[-12,-47],[20,-37],[-25,-47],[-103,-36],[-27,-29],[-6,-117],[-17,-43],[-62,2],[-52,-47],[-45,0],[-112,-65],[-33,64],[-102,71],[-162,26],[-74,22],[53,-123],[-32,-59],[-60,-55],[-72,-13],[-4,-31],[72,-85],[14,-38],[-11,-87],[-36,-77],[-105,3],[-12,-90],[-61,-52],[-23,-57],[-73,-13],[-54,13],[-39,-27],[0,-35],[-42,-57],[-123,-85],[-68,-23],[-55,18],[-71,97],[-102,17],[-82,-159],[-31,-105],[-90,-132],[-73,-60],[-41,-7],[15,-78],[-21,-69],[-1,-93],[37,-68],[-4,-91],[85,-72],[65,-3],[40,-77],[-100,-56],[-86,10],[-74,28],[-72,-32],[-43,-53],[-51,-33],[-153,-57],[-40,5],[-64,-67]],[[13576,41718],[74,101],[-52,64],[-57,33],[-13,36],[-79,57],[-11,59],[-92,71],[-70,94],[-80,30],[-22,63],[-28,11],[-48,67],[-3,62],[-76,37],[-8,37],[-79,57],[22,75],[43,50],[-36,18],[-7,105],[-45,23],[29,38],[-44,54],[73,34],[43,58],[-3,34],[94,-3],[61,40],[6,31],[51,58],[31,59],[117,31],[53,-14],[38,17],[2,45],[119,95],[47,7],[19,34],[51,28],[144,107],[33,43],[79,11],[60,28],[65,-44],[120,-58],[36,46],[-39,164],[2,34],[52,25],[25,63],[-34,28],[-80,104],[-42,-18],[-64,11],[50,61],[-17,66],[18,66],[56,19],[29,116],[-43,35],[9,63],[101,-6],[69,30],[-27,71],[43,40],[123,-60],[40,33],[-25,24],[41,49],[55,1],[44,33],[-50,27],[-46,76],[-3,39],[51,29],[9,78],[48,32],[-52,60],[-10,57],[89,36],[83,82],[28,7],[113,-68],[42,46],[82,2],[76,-33],[10,-42],[84,-21],[49,-89],[-11,-144],[147,-103],[12,-59],[135,-8],[8,52],[60,34],[109,5],[91,-90],[62,-40],[-22,-32],[97,-24],[51,-41],[37,-67],[-45,-73],[66,-64],[51,31],[74,5],[36,-26],[10,-55],[73,-16],[56,-58],[52,-99],[-29,-92],[-32,-40],[16,-53],[-27,-72],[8,-70],[42,-52],[100,-6],[35,-85],[-1,-68],[-53,-5],[-33,-51],[29,-53],[68,-38],[53,-8],[-15,-125],[76,-44],[-55,-41],[-8,-31],[38,-47],[128,-86],[12,-49],[34,-12],[-4,-55],[25,-48],[-2,-103],[25,-55],[53,-30],[32,14],[66,-17],[49,24],[23,50],[82,31],[13,44],[-14,62],[21,77],[-14,85],[35,9],[72,-69],[91,-10],[21,-24],[70,-4],[2,33],[55,23],[75,-140],[41,-24],[50,-1],[85,-25],[15,41],[51,3],[35,-47],[43,-6],[-43,-186],[39,-47],[-32,-49],[-6,-54],[43,-22],[-11,-81],[21,-45],[78,-28],[14,-43],[-18,-109],[-46,-39],[4,-89],[15,-27],[-75,-30],[46,-170],[-9,-80],[13,-74],[69,-6],[71,-52],[-5,-77],[-53,-16],[3,-54],[-18,-73],[42,-93],[11,-93],[-68,-83]],[[15497,22746],[18,-48],[-22,-22],[14,-119],[-26,-7],[16,-62],[-11,-56],[-64,-7],[-59,-41],[-71,-15],[8,-56],[-83,-6],[-5,-155],[-85,-23],[-38,-45],[-60,0],[0,-41],[57,-16],[23,-51],[55,-37],[63,-16],[-7,-35],[28,-58],[-28,-34],[68,-171],[-32,-51],[14,-55],[42,-45],[1,-98],[-12,-56],[15,-62],[-16,-66],[-45,-8],[-51,26],[-88,-41],[-68,20],[-65,-5],[-45,-42],[-92,-52],[-84,-5],[-13,-26],[-61,14],[-29,-90],[-91,7],[-51,38],[-41,-35],[-60,-6],[-41,73],[-6,46],[-69,56],[-106,-22],[-14,99]],[[14180,21239],[-40,47],[-20,62],[-55,47],[-32,51],[-38,12],[-72,-5],[-34,-13],[-99,-11],[-147,29],[-49,-4],[-22,11],[-35,18],[-61,-29],[-51,119],[-55,76],[-35,76],[-37,26]],[[13298,21751],[16,24],[-38,58],[-8,43],[-83,46],[40,50],[-22,42],[-101,64],[5,33],[-39,73],[-27,19],[29,53]],[[13070,22256],[95,40],[11,-15],[101,42],[95,10],[78,33],[34,91],[102,12],[59,-28],[41,-38],[79,-9],[51,13],[-2,124],[42,51],[-5,43],[-64,91],[33,44],[-21,101],[62,21],[67,-29],[87,17],[72,74],[84,-129],[6,-57],[52,-30],[55,-2],[36,68],[119,-7],[16,72],[-7,143],[52,26],[146,-18],[104,-62],[21,-69],[68,-43],[28,-46],[70,-10],[-7,-49],[30,-85],[42,-7],[19,-35],[143,-14],[125,14],[27,70],[37,21],[85,-15],[-7,33],[66,33]],[[13070,22256],[-62,79],[55,45],[-75,54],[21,31],[-51,49],[14,23],[-40,48],[-44,-15],[-102,61],[-16,44],[36,35],[-41,25],[-60,88],[7,168],[33,20]],[[12745,23011],[50,-51],[29,6],[62,57],[-30,42],[129,112],[103,37],[17,24],[-83,82],[-30,-23],[-59,39],[19,31],[-101,66],[15,40],[75,24],[-21,52],[127,73],[25,66],[41,45],[45,21],[56,-2],[29,34],[-20,46],[17,42],[94,4],[121,53],[93,2],[-32,86],[51,28],[38,-3],[9,47],[-49,44],[35,82],[35,13],[-33,65],[-19,91],[27,50],[11,103],[-28,49],[67,24],[110,-18],[30,-81],[-8,-49],[27,-81],[107,-26],[133,25],[40,-9],[23,43],[-7,38],[43,37],[93,24],[22,-60]],[[14273,24455],[18,-34],[71,-24],[48,-47],[56,-16],[74,17],[18,29],[53,-8],[47,-38],[-17,-39],[52,-76],[125,-7],[-36,-42],[-7,-39],[-40,-81],[-1,-76],[118,-77],[3,-32],[55,-29],[94,-3],[42,-29],[48,21],[35,-28],[81,-6],[49,39],[116,-61],[94,20],[60,-26],[17,-30],[-28,-56],[40,-82]],[[15558,23595],[-16,-71],[53,-120],[-127,-131],[-15,-44],[-63,-50],[12,-49],[-15,-73],[29,-28],[54,-95],[-14,-46],[-92,5],[-26,-48],[54,-15],[68,-71],[37,-13]],[[16459,17320],[4,-32],[37,-93],[-12,-101],[16,-52]],[[16504,17042],[-84,-70],[-86,-20],[-52,13],[-83,-20],[-18,-39],[-47,3],[-36,-39],[-29,-67],[12,-61],[-79,-12],[-45,-72],[-42,-110],[14,-63],[26,-43],[-55,-59],[-54,-7],[-93,49],[-55,60],[-148,-71],[-56,-41],[-21,-43],[40,-40]],[[15513,16290],[-1,0]],[[15512,16290],[-129,-66],[-26,-1],[-69,50],[-45,57],[-131,28]],[[15112,16358],[12,61],[-25,10],[-111,-23]],[[14988,16406],[-2,55],[-35,23],[-2,39],[-77,28]],[[14872,16551],[-110,158],[-33,3],[-7,86],[-16,28],[25,40],[-131,42],[-25,33],[38,49],[-72,20],[-46,102],[9,53],[-25,40],[27,21],[-28,58],[-66,45],[104,188],[-37,34],[60,113],[48,-9],[22,46],[-42,46],[-17,85],[9,96],[-14,54],[-39,42],[6,36],[54,19],[9,38],[-23,53],[-73,69],[17,18],[-81,69],[5,38],[-28,40],[13,62],[-45,67],[24,39],[-4,51],[19,47],[-51,43],[-60,16],[-55,77],[7,46],[-36,81],[24,88],[60,12],[23,54]],[[14311,19087],[17,-43],[54,-50],[70,-21],[-29,-30],[35,-49],[104,-81],[-68,-69],[78,-66],[-45,-39],[74,-83],[-24,-43],[61,-18],[17,-64],[48,39],[68,9],[47,-34],[133,-234],[54,9],[33,100],[52,18],[92,-11],[68,21],[29,35],[-17,37],[5,80],[27,66],[-142,245],[5,21],[-22,120],[-21,31],[13,91],[-54,128],[16,51],[-42,57],[-17,51],[4,54],[56,-19]],[[15090,19396],[27,-37],[93,-55],[35,-61],[32,-1],[35,-48],[-23,-58],[77,-85],[10,-27],[63,-40],[79,-81],[158,-110],[15,-53],[36,-54],[107,-29],[15,-43],[53,6],[122,-133],[65,-46],[-32,-18],[113,-84],[64,-23],[24,-34],[-35,-38],[10,-76],[44,-9],[54,-67],[42,-29],[9,-34],[110,-42],[21,-46],[91,-47],[60,-115],[49,-15],[2,-105],[77,4],[-24,-59]],[[16768,17604],[-111,-39],[-69,22],[-94,-21],[-58,-30],[-6,-44],[-34,-27],[-18,-53],[21,-92],[60,0]],[[11535,23351],[14,13],[201,-6],[82,32],[67,-46],[104,5],[75,-42],[60,-68],[52,37],[13,83],[39,56],[48,21]],[[12290,23436],[26,-69],[57,-70],[81,-7],[101,-39],[49,-61],[51,-6],[35,-75],[46,-48],[9,-50]],[[13298,21751],[-20,-71],[-62,-27],[-30,-57],[-46,14],[-34,-69],[-31,-21],[9,-52],[-70,-42],[1,-61]],[[14180,21239],[-43,-54],[1,-54],[31,-52],[47,-18],[49,-68],[36,-115],[39,-26],[22,-72],[47,-16],[26,-58],[-27,-41],[6,-54],[48,-69],[61,-44],[52,-59],[83,41],[46,123],[29,14],[75,-15],[106,-49],[33,-79],[-82,-97],[33,-60],[95,-100],[53,-37],[6,-101],[36,-62],[-25,-61],[64,-16],[44,-108],[43,-71],[-15,-76],[-65,-16],[-50,-46],[-48,-112],[54,-115]],[[14311,19087],[-105,21],[-11,-93],[-61,6],[1,-61],[-35,-50],[3,-37],[-38,-32],[-84,-17],[-27,26],[-43,-17],[-26,-53],[-43,4],[9,-86],[-54,-1]],[[16504,17042],[106,-18],[94,-59],[25,-53],[-58,-94],[50,-40],[28,-111],[71,-53],[4,-80],[26,2],[57,-42],[12,-87],[91,-13],[52,-39],[8,-43],[54,-16],[-15,-41],[-2,-80],[28,-119],[-44,-69],[35,-97],[-13,-70],[7,-39],[58,-63],[-5,-32],[50,-167],[31,23],[70,-28],[23,-76],[75,-50],[-12,-66],[31,-58],[-32,-41],[27,-58],[-32,-36],[67,-51]],[[17471,15078],[9,-29],[85,-62],[30,-92],[-37,-28],[-27,-101],[41,-95],[29,2],[-51,-97],[-66,-162],[-55,-202],[51,-113],[-35,-87],[60,-198],[30,-115],[-15,-217],[-53,-107],[-38,5],[2,49],[-30,26],[-73,13],[-47,42],[-100,-62],[-102,-8],[-28,-75],[-39,-59],[53,-34],[9,-64],[-45,-31],[-74,72],[-145,45],[-42,27],[-32,-40],[27,-40],[-61,-20],[-21,-58],[-28,-23],[-75,-3],[-39,-33],[-53,29]],[[16486,13133],[7,62],[-59,79],[2,35],[-75,53],[-48,-1],[-14,44],[-40,46],[-11,39],[-39,35],[-29,55],[-64,43],[0,43],[-80,137],[-81,61],[-17,52],[-66,74],[-81,43],[3,76],[-47,18],[-27,-26],[-58,90],[-64,-9],[-30,18],[15,119],[35,19],[-45,68],[3,39],[-26,110],[-72,97],[24,18],[-29,82],[50,56],[-43,96],[36,53],[-9,47],[61,27],[-2,29],[-45,44],[3,43],[-74,74],[-28,59],[81,34],[79,11],[100,-30],[107,42],[20,22],[58,-14],[148,-13],[26,-35],[64,-26],[38,34],[131,51],[-1,88],[-126,126],[8,53],[-62,53],[-40,58],[-102,47],[-33,1],[-8,114],[-22,57],[-10,72],[-51,-34],[-125,15],[-26,61],[-48,37],[-84,26],[-21,37],[-10,123]],[[16768,17604],[56,-63],[51,-31],[131,25],[51,-12],[79,-82],[43,1],[-20,-64],[66,-20],[70,-93],[-40,-25],[49,-52],[53,-1],[31,-39],[-32,-57],[-33,0],[-27,-40],[-7,-58],[106,-14],[37,-41],[-87,-22],[-29,-46],[-50,11],[-65,-145],[62,-37],[46,-6],[41,-63],[-3,-74],[50,-49],[31,8],[75,-43],[34,-88],[-25,-47],[88,-103],[72,-105],[40,-14],[17,-39],[-50,-64],[16,-65],[54,-90],[17,-114],[-1,-61],[64,-53],[91,136],[56,49],[47,-11],[46,54],[97,54],[38,83],[143,-7],[64,-56],[36,-80],[-52,-119],[44,-21],[-23,-77],[8,-42],[-103,-38],[-54,-50],[-1,-39],[24,-78],[-22,-74],[-69,-57],[-68,-30],[-67,52],[-38,-15],[-117,10],[-29,25],[-130,-15],[-8,-22],[35,-57],[-36,-47],[-93,-33],[9,-40],[-135,41],[-51,-47]],[[5017,31219],[136,-15],[48,13],[15,31],[95,52],[12,-87],[-8,-87],[40,-28],[34,21],[79,-17],[59,-65],[-1,-30],[55,-102],[84,-100],[38,-110],[-11,-29],[58,-46],[14,-117],[-22,-76],[-33,-28],[27,-74],[-27,-31],[19,-93]],[[5728,30201],[-62,-35],[20,-35],[10,-79],[29,-26],[-13,-49],[24,-77],[70,-93],[3,-36],[61,15],[59,-18],[52,-45],[58,1],[96,47],[23,-69],[-9,-73],[37,-44],[0,-60],[-44,-20],[-29,-61],[3,-32],[42,-60],[-14,-47],[-13,-138],[-15,-35],[5,-87]],[[6121,29045],[-58,-63],[-145,16],[-47,-20],[-2,-114],[62,-65],[-1,-59],[-41,-69],[-2,-68],[-81,-321],[-26,-30],[-8,-109],[36,-97],[-2,-129],[46,-81],[-52,-78],[-72,-11],[-8,-46],[11,-83],[102,-10],[12,-67],[-35,-84],[-9,-77],[30,-86],[33,-58],[-1,-91],[12,-57],[-4,-135],[32,-243]],[[5903,26710],[-33,1],[-55,-69],[-68,-39],[-63,16],[-27,38],[-18,117],[-28,46],[-68,-66],[-81,22],[-38,30],[-155,-22],[-67,126],[-80,-29],[-38,88],[-78,-35]],[[9219,26481],[20,-64],[51,2],[76,-115]],[[9366,26304],[-38,-140],[-39,-37],[16,-93],[101,-61],[60,18],[78,-28],[96,-66],[37,-39],[-1,-45],[50,-68],[-25,-42],[87,-143],[6,-65],[-74,-44],[25,-82]],[[9745,25369],[13,-83],[42,-4],[94,-179],[-4,-58],[21,-29],[100,-49],[-4,-37],[-91,-100],[11,-61],[-65,-15],[39,-77],[-64,-119],[48,-22],[23,-60]],[[9908,24476],[-25,-77],[32,-18],[32,-64],[-15,-39],[45,-49],[-12,-52],[-74,-13],[-9,-80],[-64,-47],[45,-95],[-44,-78],[-34,-15],[-14,-49],[-92,-76]],[[9679,23724],[-116,44],[-45,41],[-84,7],[-35,36],[-58,-7],[-34,27],[-54,-20],[-70,37],[-70,-37],[-89,76],[-66,40],[-174,70],[-146,23],[-51,20],[-24,80],[-119,-39],[-204,-35],[-69,7],[6,45],[-42,109],[-50,48],[-16,41],[-71,38],[-127,16],[-36,55],[52,67],[-48,57],[-57,11],[-32,38]],[[7750,24619],[-39,28],[-42,114],[5,22],[-46,67],[-116,50],[-68,70],[6,120],[40,82],[0,32],[-65,83],[29,36],[58,15],[-10,43],[-121,56],[-66,86],[48,38],[-6,51],[-34,77],[-56,30],[-75,11],[-69,55],[0,65],[21,55],[60,23],[8,82],[-65,148],[-58,48],[-89,138],[-7,101],[-80,46],[-45,56],[20,50],[42,41]],[[6930,26638],[110,61],[108,28],[58,44],[63,116]],[[7269,26887],[40,-67],[79,-18],[10,-69],[63,1],[111,-45],[98,23],[121,-8],[54,-76],[-15,-130],[11,-69],[-73,-17],[-13,-115],[24,-51],[-48,-20],[-23,-46],[24,-69],[107,-46],[9,-29],[-36,-35],[23,-63],[70,85],[47,34],[-3,44],[122,9],[140,67],[96,-27],[41,19],[136,103],[13,38],[71,32],[98,-66],[51,10],[5,30],[60,5],[34,-18],[85,51],[43,59],[-11,64],[73,-33],[153,-3],[60,40]],[[5903,26710],[59,-13],[61,21],[17,44],[55,24],[94,8],[63,22],[103,88],[23,76],[70,3],[71,-24],[178,33],[31,-82],[52,-36],[53,-9],[83,-35],[9,-43],[-44,-46],[49,-103]],[[7750,24619],[-73,-40],[-162,-8],[-87,-89],[-34,10],[-52,-60],[-59,-4],[-33,-87],[-130,52],[-51,-43],[-163,-33],[-60,51],[-40,16],[-51,-20],[4,-46],[-47,-10],[-89,-54],[-16,-39],[-90,-25],[-111,33],[-153,-57],[-64,3],[-26,-52],[26,-42],[-60,-7],[-40,-56],[-60,-38],[-52,-4],[-37,-48],[-65,28]],[[5875,23950],[-80,161],[-31,99],[60,28],[28,34],[-44,164],[-76,18],[-26,65],[-61,78],[-28,88],[-60,84],[21,34],[-1,71],[-111,49],[-32,139],[-65,42],[-4,103],[-29,54],[-1,46],[-53,20],[-64,103],[-6,90],[-63,-15],[-46,79],[-51,21],[-55,96],[-5,48],[-37,40],[9,31],[-51,65],[-77,13],[-5,65],[-30,19],[-102,-31],[-121,10]],[[4578,25961],[36,59],[2,35],[-43,49],[18,69],[31,14]],[[6121,29045],[64,-30],[48,0],[119,-88],[131,12],[-9,111],[130,1],[63,23],[18,36],[45,-5],[72,29],[222,-78],[22,-28],[56,7],[49,39],[131,17],[59,23],[130,-61],[56,-14],[137,-2],[40,-18],[68,18],[130,9],[51,39],[106,9],[37,-28],[81,-24]],[[8177,29042],[-8,-55],[45,-48]],[[8214,28939],[65,-62],[15,-64],[48,-17],[54,-43],[-2,-96],[72,-32],[79,-19],[12,-34],[52,-29],[23,-100],[33,-24]],[[8665,28419],[-6,-56],[-39,-60],[-15,-57],[29,-67],[-32,-53],[-125,-4],[5,-75],[-102,-62],[-27,-34],[-118,-89],[-39,-65],[-90,22],[-91,-32]],[[8015,27787],[-194,-82],[-38,-9],[-72,-97],[-157,-40],[-217,-44],[-48,-117],[2,-73],[-23,-44],[-4,-74],[23,-126],[-19,-70],[1,-124]],[[6902,22112],[-44,58],[-35,74],[36,2],[17,51],[-48,38],[-42,78],[-63,29],[-29,47],[-57,28],[-20,49],[-53,17],[-42,-29],[-60,7],[-39,79],[-46,46],[-45,71],[-27,92],[22,36],[56,2],[69,25],[-15,118],[-36,21],[-5,39],[-35,64],[-79,67],[-65,39],[-42,101],[-99,51],[-86,95]],[[5990,23507],[-54,60],[22,50],[-17,34],[13,48],[-35,27],[-11,55],[16,40],[-55,99],[6,30]],[[9679,23724],[43,-31],[-15,-130],[54,-61],[-35,-35],[44,-75],[133,-75]],[[11062,27355],[22,69],[-33,64],[-1,60],[-87,68],[-45,-44],[-84,-5],[-44,23],[-16,135],[17,14],[-24,68],[17,40],[-21,67],[-73,61],[-64,-2],[-50,-54],[-77,1],[-93,-42]],[[10406,27878],[-78,28],[-21,59],[89,31],[17,35],[-101,39],[53,134],[-89,8],[-175,-35],[-52,36],[-95,45],[-12,105],[-53,76],[30,77],[-31,88],[50,56],[-56,43],[1,58],[-110,41],[10,43],[50,58],[-6,54],[75,43],[29,38],[-8,42],[51,103],[-27,45]],[[9947,29228],[168,-27],[66,-39],[44,-59],[70,-18],[135,38]],[[10430,29123],[-1,-84],[90,-53],[75,34],[-21,39],[39,23],[239,-127],[7,-62],[65,8],[97,88],[18,59],[66,3],[64,-67]],[[11168,28984],[62,-95],[91,-30],[1,-33],[72,-64],[21,-35],[83,-39],[109,5],[128,-51],[60,50],[47,83],[-27,98],[24,74],[48,3],[91,37],[114,12],[56,50],[17,82],[157,17],[72,50],[74,20],[84,59],[-17,124],[-52,41],[-1,42],[50,1]],[[12532,29485],[7,-48],[62,-39]],[[12601,29398],[59,-90],[36,-31],[36,-85],[37,-20],[44,-69],[-42,-32],[41,-41],[46,-15],[20,-96],[36,-98],[-8,-18],[-120,15],[-78,60],[-38,-52],[-48,-9],[-63,-61],[-45,4],[-32,-31],[-43,48],[-50,3],[-57,-34],[-81,-93],[-62,-34],[10,-34],[-62,-54],[-50,-15],[-35,-50],[-56,-16],[-43,25],[-41,-33],[-160,-45],[-11,-25],[-86,12],[-68,-25],[-90,-16],[-23,11],[-100,-5],[-33,-28],[30,-78],[-31,-55],[-91,-41],[25,-64],[0,-132],[25,-33],[51,-143],[-9,-44],[39,-63],[-7,-28],[36,-58],[54,-32],[-10,-30],[43,-66],[-56,-36],[-70,18],[-178,-1],[-93,-40],[-37,-40]],[[10430,29123],[34,33],[51,135],[-8,34],[24,62],[-30,63],[14,37]],[[10515,29487],[19,-27],[98,41],[-34,63],[103,25],[54,-16],[54,24],[52,63],[54,91],[-54,25],[134,69],[107,-34],[25,-34],[-6,-93],[152,-29],[28,-54],[73,-2],[65,15],[6,-64],[-30,-24],[-39,-77],[-126,-55],[11,-96],[-66,-83],[0,-72],[-69,-5],[44,-56],[-2,-98]],[[9219,26481],[-60,111],[6,75],[-45,28],[24,38],[-14,97],[-52,25],[-38,43],[-46,157]],[[8994,27055],[54,8],[92,41],[13,101],[-46,50],[32,37],[-8,80],[118,1],[2,41],[158,2],[35,51],[-27,50],[-15,75],[43,88],[5,44],[82,56],[110,13],[81,-4],[94,-20],[63,-39],[83,-6],[116,27],[77,46],[84,-3],[50,-29],[33,26],[50,-3],[33,90]],[[11062,27355],[36,-95],[-71,-52],[25,-51],[5,-106],[59,-11],[42,-56],[49,-32],[72,0],[123,-58],[80,5],[46,-38],[106,32],[16,-60],[93,-37],[109,45],[42,-83],[73,15],[65,-53],[4,-76],[-28,-46],[-2,-92],[-93,-17],[-50,22],[-90,-37],[15,-29],[-56,-32],[2,-55],[-26,-58],[-41,-1],[34,-103],[38,-28],[48,-80],[69,-9],[22,-63],[64,44],[34,0],[-26,-76],[0,-129],[-119,-5]],[[11831,25850],[-7,61],[-33,54],[-28,86],[-125,-15],[-38,-69],[-8,-53],[-135,13],[-63,40],[-63,148],[17,61],[-31,65],[60,28],[-36,64],[-71,-37],[-21,29],[-65,8],[-35,-25],[-46,11],[-43,-26],[-192,-14],[-7,59],[-40,45],[-71,-35],[-84,-20],[-127,-5],[-35,32],[-34,112],[-59,-33],[-128,-15],[-49,23],[-31,42],[-85,5],[-58,-43],[-38,-75],[-78,-30],[-18,-38],[-72,-43],[-9,-49],[-80,-18],[-25,27],[-90,22],[-15,34],[-106,-29],[-54,17],[-56,49],[-53,-9]],[[8665,28419],[10,77],[29,70],[25,20],[12,141],[35,45],[91,52],[15,45],[-50,68],[64,24],[138,138],[48,69],[80,49],[121,12],[54,23],[86,4],[148,-8],[122,21],[55,-24],[124,8],[75,-25]],[[8994,27055],[-53,43],[-96,37],[-163,27],[-48,29],[-69,-13],[-45,18],[-11,71],[-92,39],[-79,-30],[1,88],[-47,65],[-20,66],[59,34],[28,37],[-10,98],[-27,50],[-40,-28],[-115,-9],[-35,49],[-61,50],[-56,11]],[[10515,29487],[11,65],[-17,62],[-61,95],[-6,71],[16,50],[-25,29],[7,48]],[[10440,29907],[-19,203],[4,50],[66,-4],[1,53],[-35,24],[-32,58],[-59,64],[-17,88],[29,52],[-21,92],[38,42],[5,40],[52,45],[-37,38],[-24,59],[-75,80],[-23,90],[-54,33],[-36,50],[16,41],[-28,50],[11,28],[78,32],[57,2],[41,37],[-8,131],[7,74],[-8,100]],[[10369,31559],[13,84],[-9,35],[34,88],[-16,117],[21,35],[8,91],[-25,45],[51,48],[-4,65],[-32,69],[-58,17],[-20,133],[19,63],[-62,44],[-17,36],[56,74],[0,48],[-55,14],[-32,57],[-39,23],[22,102],[30,56],[34,-1],[40,49],[45,12],[-9,120],[18,54]],[[10382,33137],[73,-45],[36,-6],[7,80],[61,139],[46,39],[88,13],[22,58],[-34,14],[81,68],[75,-5],[-6,-67],[-35,-35],[57,-45],[-14,-69],[20,-52],[68,60],[123,-11],[38,-29],[61,-4],[30,74],[53,59],[60,20],[101,-11],[67,-44],[19,-71],[58,-41]],[[11537,33226],[-95,-50],[-51,-87],[-79,-36],[19,-52],[-58,-19],[6,-54],[-27,-64],[-29,1],[-77,-48],[-60,-77],[17,-69],[-44,-19],[-69,44],[-61,-10],[-13,-40],[91,-70],[-43,-66],[13,-113],[-45,-121],[-52,-38],[3,-93],[112,-74],[27,-65],[-28,-41],[51,-53],[67,-27],[158,-23],[46,20],[65,-19],[150,22],[60,26],[67,-4],[49,26],[43,-26],[48,50],[75,24],[72,-65],[74,-27],[53,-44],[69,-9],[53,-40],[129,21],[34,-39],[58,-21],[7,-40]],[[12422,31717],[-120,-125],[-24,-56],[4,-46],[-153,-82],[-75,20],[-126,9],[-58,-52],[-176,-49],[-55,6],[-33,30],[-98,2],[-64,-55],[-197,13],[-37,22],[-134,-82],[-54,-53],[35,-27],[56,-107],[-11,-15],[18,-87],[108,-130],[50,-30],[-2,-68],[-20,-39],[114,-60],[6,-88],[-37,-33],[12,-189],[36,-21],[138,12],[58,-18],[35,-77],[50,-31],[36,-48],[77,-170],[-7,-77],[14,-106],[29,-24],[85,9],[60,-17],[45,-63],[203,-5],[47,-53],[159,2],[67,-21],[39,-74],[10,-79]],[[11831,25850],[-31,-25],[18,-49],[-41,-5],[-43,-64],[-3,-50],[31,-146],[51,-37],[19,-39],[-11,-55],[53,-54],[85,-171],[-62,-28],[-53,-42]],[[11844,25085],[-44,41],[-110,55],[-236,177],[-73,20],[-77,3],[-28,37],[-45,-11],[-52,-44],[-83,3],[-50,-15],[-53,-44],[-42,-84],[-27,39],[-99,35],[-85,15],[-57,-24],[-20,31],[-183,-9],[-15,36],[-124,-70],[-40,-82],[10,-61],[-74,37],[-62,2],[-92,21],[6,30],[-74,70],[-55,69],[-65,-38],[-82,35],[-68,10]],[[15002,13780],[-4,69],[-22,16],[-20,101],[40,-6],[16,-147],[-10,-33]],[[14809,15566],[-50,90],[32,115],[50,-17],[-6,-56],[33,-56],[-16,-43],[-43,-33]],[[14608,16184],[141,-29],[96,8],[18,-74],[-87,-157],[32,-70],[-57,-87],[-32,-98],[22,-60],[4,-82],[-17,-70],[-92,-13],[-66,59],[-9,93],[-59,41],[-54,76],[50,120],[-62,179],[-46,65],[15,50],[56,18],[60,46],[51,9],[36,-24]],[[16486,13133],[-6,-62],[38,-69],[-67,-78],[-16,-68],[4,-60],[24,-44],[48,-2],[26,-51],[38,-28],[-60,-56],[-14,-93]],[[16501,12522],[-69,-29],[-38,36],[-76,4],[-55,21],[-59,-9],[-57,37],[-57,83],[-39,19],[-11,80],[-59,54],[-37,-23],[-123,-26],[-34,-25],[8,-38],[-101,42],[-80,15],[-55,-224],[11,-126],[-28,-20],[-61,-1],[-22,-56],[33,-47],[-79,1],[-46,-13]],[[15367,12277],[-10,74],[43,70],[15,60],[-83,125],[47,44],[-22,69],[22,27],[-8,56],[30,20],[-18,76],[10,43],[-34,48],[57,45],[58,-46],[23,48],[-68,32],[-69,3],[2,-36],[-66,2],[-71,110],[-21,4],[-19,74],[27,61],[-54,87],[44,40],[26,115],[42,-26],[52,48],[-7,50],[-32,67],[-74,71],[35,95],[27,28],[-82,168],[-7,99],[-42,145],[4,50],[-37,69],[48,36],[-15,193],[-48,83],[-59,55],[-179,105],[-7,48],[-42,31],[-6,55],[-48,32],[17,27],[-46,111],[103,27],[-38,23],[81,87],[47,109],[26,83],[8,125],[-10,111],[-66,98],[0,36],[49,57],[-41,56],[-10,41],[33,50],[-18,83],[16,34],[65,-5],[39,50],[9,49],[29,33],[49,12],[124,0],[67,-85],[104,-36],[51,13],[73,71]],[[14984,16361],[16,-72],[-77,-34],[-13,27],[34,97],[40,-18]],[[15112,16358],[-103,-30],[-21,78]],[[14909,16299],[-39,36],[5,38],[62,3],[-28,-77]],[[14872,16551],[10,-57],[-32,-123],[5,-49],[35,-75],[-30,-14],[-105,37],[-70,-8],[-44,29],[-44,2],[-39,-24],[-82,-2],[-69,14],[-127,-44],[-64,-38],[-56,21],[-21,127],[-30,36],[-22,74],[9,101],[-74,-19],[-116,28],[-69,59],[16,57],[-41,35],[-10,40],[34,117],[-15,8],[-28,112],[-10,111],[-45,15],[-26,100],[-57,27],[24,189],[-9,96],[-82,65],[29,58],[-54,28],[-11,-74],[-29,-37],[15,-78],[-48,-86],[6,-48],[34,-32],[5,-62],[-35,-66],[-73,-20],[-110,204],[-42,40],[10,47],[86,161],[7,52],[-33,91],[-46,43],[-166,64],[-82,67],[-12,81],[24,51],[-59,55],[-60,-14],[-56,17],[-17,67]],[[9908,24476],[51,-4],[58,-26],[93,31],[94,-58],[14,-80],[51,-59],[75,-34],[16,-42],[94,-61],[3,-90],[105,-2],[58,30],[101,27],[110,-29],[29,-59],[96,6],[46,26],[-12,56],[73,3],[38,-71],[31,15],[107,-48],[51,-2],[69,67],[15,39],[148,5],[61,66],[68,18],[55,58]],[[11706,24258],[184,20],[80,-61],[1,-51],[26,-50],[99,-85],[29,-57],[74,-18],[61,-84],[-36,-36],[-65,-14],[-71,-31],[-122,-94],[-5,-35],[30,-39],[65,-3],[39,-23],[71,-7],[70,10],[22,-60],[53,-81],[-21,-23]],[[11844,25085],[-44,-32],[-8,-41],[-69,-21],[-53,-42],[41,-94],[54,-67],[-22,-33],[-68,-10],[2,-46],[-42,-32],[-70,26],[-20,-27],[-66,12],[-21,-27],[83,-120],[132,-116],[14,-63],[-7,-62],[26,-32]],[[4424,21251],[-49,46],[42,40],[34,-15],[-27,-71]],[[4929,21799],[10,-55],[41,-48],[-103,-18],[-46,45],[-6,58],[95,40],[9,-22]],[[3972,21968],[30,-26],[91,-14],[7,-16],[93,-7],[115,34],[19,-81],[-17,-62],[30,-57],[-30,-41],[26,-134],[-62,-67],[-26,-69],[-63,-23],[-108,8],[-41,37],[-40,-7],[-14,40],[-91,77],[-139,86],[-55,60],[-30,71],[-28,19],[-69,100],[114,30],[82,-4],[37,25],[90,25],[58,43],[21,-47]],[[4612,22928],[10,-50],[-47,3],[-2,40],[39,7]],[[4572,22880],[-100,-27],[-42,3],[-57,67],[70,20],[128,-32],[1,-31]],[[4055,23107],[40,10],[44,-25],[7,-116],[-94,37],[-41,53],[44,41]],[[4029,23306],[-46,-26],[-92,71],[45,43],[29,-1],[19,-25],[47,-45],[-2,-17]],[[3674,23466],[85,-87],[-62,-10],[-23,44],[0,53]],[[4534,23374],[-40,5],[-36,36],[-95,57],[2,24],[115,-18],[129,-52],[-3,-32],[-72,-20]],[[4056,23579],[38,-12],[-13,-44],[-46,-52],[-59,44],[35,58],[45,6]],[[5990,23507],[-9,-25],[61,-108],[-27,-33],[1,-52],[-107,-35],[-115,69],[-74,-19],[-36,56],[-105,-4],[-57,16],[-1,-58],[27,-29],[-5,-99],[22,-30],[67,-8],[12,-38],[-1,-91],[-57,-62],[21,-29],[-30,-43],[-68,0],[-40,24],[-30,47],[18,52],[-135,60],[-84,8],[-34,29]],[[5204,23105],[-19,5],[-33,-47],[-61,-25],[-28,-112],[25,-196],[-10,-36],[-75,-58],[18,-43],[-88,-48],[-66,11],[-45,50],[2,70],[-67,25],[47,-108],[34,-47],[71,-44],[-37,-40],[-3,-132],[17,-76],[38,-81],[37,-41],[-45,-90],[-41,-28],[8,-50],[-56,-35],[21,-37],[-17,-47],[-36,11],[-30,56],[-51,35],[-90,14],[-86,78],[-87,51],[-37,8],[-64,46],[-100,-10],[-22,55],[-53,33],[-48,-6],[-57,54],[-23,129],[-40,134],[-39,31],[-68,5],[-26,56],[-160,229],[-4,16],[-129,152],[-30,44],[9,98],[35,45],[72,41],[87,11],[105,-64],[44,8],[32,-71],[66,-55],[-6,-77],[67,-16],[44,-55],[47,19],[91,-36],[15,-70],[88,-58],[59,-26],[89,-9],[98,59],[45,4],[118,66],[80,82],[14,62],[67,31],[-12,21],[-89,-54],[-38,-60],[-43,-39],[-44,-11],[-27,46],[-107,-36],[-120,33],[-72,-20],[-76,60],[-44,129],[-53,54],[-57,11],[-20,35],[-73,56],[-5,35],[-12,31],[-3,101],[51,48],[18,56],[49,22],[44,-33],[111,-6],[16,-58],[63,-48],[54,-11],[48,-42],[58,-12],[59,19],[51,-34],[36,-1],[85,-56],[81,-9],[85,-62],[38,38],[2,59],[-39,6],[-57,-41],[-105,23],[-39,31],[59,24],[-113,48],[-51,47],[-205,116],[-49,56],[-142,72],[15,40],[200,127],[16,62]],[[4461,23928],[-50,75],[-55,31]],[[4356,24034],[62,15],[-11,92],[38,64],[-14,37],[-19,8],[1,95]],[[4413,24345],[-8,61],[-35,29],[-49,92],[-32,121],[-51,18],[-85,121],[4,52],[-52,65],[48,14],[9,39],[54,33],[-48,76],[-8,56],[51,61],[-50,39],[52,107],[-9,64],[-73,53],[26,88],[69,19],[-10,66],[11,86],[-68,73],[99,48],[124,-3],[30,28],[-18,52],[31,48],[-13,30],[117,13],[49,-33]],[[1531,27540],[-47,-101],[42,-135],[0,-69],[46,-113],[8,-64]],[[1580,27058],[-49,-16],[-101,-1],[4,-54],[-17,-73],[32,-42],[-6,-105],[71,-28],[-67,-122],[18,-42],[-6,-55],[28,-25],[-45,-83],[-68,-44],[-34,20],[-58,-12]],[[1282,26376],[-16,-61],[21,-59],[99,-136]],[[1386,26120],[-71,29],[-42,-41],[-52,13],[-48,-54],[25,-30],[-36,-26],[48,-47],[17,-70],[70,-95],[20,-44]],[[1317,25755],[-81,-45],[-153,153],[-111,81],[-8,71],[-37,65],[-171,133],[-187,102],[32,20],[-56,128],[-36,43],[-5,46],[-121,265],[-29,44],[-74,55],[7,52],[-40,171],[8,33],[-24,46],[-60,41],[-30,58],[-44,-2],[-28,48],[6,53],[-53,-6],[-22,30],[24,49],[51,29],[55,76],[-8,105],[-49,73],[-1,46],[56,43],[87,30],[10,75],[38,27],[1,69],[59,5],[53,-26],[73,39],[17,73],[102,34],[120,-113],[20,-61],[-14,-79],[35,-25],[57,8],[45,-33],[82,8],[5,45],[135,16],[18,-31],[20,-115],[38,-86],[-3,-25],[38,-70],[53,5],[51,56],[117,33]],[[3479,24008],[89,-66],[45,-14],[19,-77],[-139,42],[-95,61],[-19,44],[100,10]],[[4461,23928],[-8,-18],[-106,-70],[-97,-9],[-44,39],[14,65],[-11,53],[33,25],[114,21]],[[3843,23963],[-99,-73],[14,-32],[-70,-14],[-28,97],[60,11],[37,66],[86,45],[26,-60],[-26,-40]],[[4199,24023],[-19,-87],[-23,-28],[-75,30],[-74,-9],[-14,53],[76,9],[46,66],[13,62],[31,-5],[39,-91]],[[3835,24086],[-67,-42],[-29,42],[51,64],[55,-21],[-10,-43]],[[4309,24197],[-10,-80],[-82,-28],[-43,18],[2,49],[63,8],[70,33]],[[3805,24230],[80,-13],[-6,-43],[-42,-31],[-85,41],[53,46]],[[4261,24217],[-27,-45],[-55,-10],[-56,-45],[-8,-48],[-43,-73],[-72,-5],[-8,24],[50,61],[60,29],[44,42],[-40,43],[78,38],[32,39],[50,-11],[-5,-39]],[[4371,24279],[54,-40],[7,-30],[-34,-38],[-11,-113],[-19,-14],[-147,-13],[-9,51],[90,33],[14,94],[-30,46],[85,24]],[[4199,24313],[48,-12],[-86,-69],[-63,-30],[29,-60],[-112,-64],[-45,-58],[-31,-110],[-47,12],[-12,59],[17,52],[-26,53],[111,97],[29,107],[76,-21],[45,15],[10,33],[57,-4]],[[4208,24342],[-64,-18],[-38,-45],[-62,37],[62,48],[67,3],[35,-25]],[[3907,24254],[-36,-22],[-131,18],[28,53],[108,11],[63,67],[129,10],[-30,-49],[-75,-33],[-56,-55]],[[3528,24474],[13,64],[58,-26],[-71,-38]],[[3485,24450],[73,-58],[66,-4],[46,28],[47,1],[16,-72],[-63,-49],[-42,-156],[59,-116],[-33,-47],[-33,61],[-91,22],[-64,54],[-37,137],[8,50],[-51,93],[-48,118],[12,27],[88,-22],[47,-67]],[[3601,24453],[-50,24],[50,30],[38,-26],[-38,-28]],[[3530,24616],[37,-5],[51,-36],[-22,-53],[-51,23],[-15,71]],[[3051,25116],[40,-5],[-6,-114],[27,-101],[106,-121],[-31,-24],[-126,-43],[-53,9],[-21,-25],[-156,-1],[-20,24],[-11,114],[18,24],[95,46],[-43,65],[0,59],[-68,5],[-56,63],[79,58],[15,51],[96,19],[46,23],[56,-29],[13,-97]],[[2989,25331],[16,-54],[-87,-5],[-30,16],[39,91],[62,-48]],[[3147,25413],[3,-46],[36,-73],[17,-8],[20,10],[20,-7],[45,-98],[75,-131],[30,-140],[-49,-33],[-63,-79],[26,-123],[-48,-15],[-27,113],[-35,50],[-72,67],[-21,83],[-6,130],[-66,121],[-44,14],[30,49],[-29,69],[72,51],[86,-4]],[[2565,25638],[-96,-23],[16,-90],[-61,-43],[-76,1],[8,150],[80,149],[53,70],[33,-6],[12,-107],[31,-101]],[[4413,24345],[-47,-35],[-141,62],[-19,35],[-82,22],[-50,-15],[-85,9],[-128,-44],[-65,-36],[-48,17],[-16,82],[-51,-8],[-42,124],[-77,64],[-84,-4],[-11,-29],[16,-88],[-74,48],[-34,54],[-31,111],[-36,37],[-2,76],[74,-5],[32,78],[-24,140],[-142,258],[-50,-5],[-24,38],[24,23],[-38,15],[-3,49],[-93,4],[-141,-42],[-39,-92],[65,-61],[-103,-16],[-26,-58],[-94,-60],[-49,-12],[-132,4],[74,67],[38,-5],[57,84],[74,35],[-3,49],[55,6],[24,47],[-30,35]],[[2832,25403],[3,64],[32,50],[4,48],[-78,-27],[-60,8],[-46,-46],[-92,42]],[[2595,25542],[-77,9],[-37,62],[73,8],[26,29],[-49,198],[-39,14],[9,135],[-25,47],[-88,16],[-104,95]],[[2284,26155],[-74,-27],[-86,7],[-43,40],[-62,-51],[-49,25],[-47,63],[-86,53],[-97,177],[-5,88],[-42,151],[17,28],[-10,66],[-50,45],[-13,38],[-54,58],[20,34],[-23,108]],[[2631,24766],[50,-88],[11,-66],[117,-218],[28,-28],[35,-104],[71,-81],[-62,-8],[-104,224],[-31,29],[-57,145],[-37,26],[-9,54],[-58,96],[46,19]],[[2731,24711],[-47,15],[-60,62],[17,27],[25,-18],[40,-14],[46,-27],[-21,-45]],[[2090,24873],[27,-56],[33,-17],[12,-58],[35,-67],[17,-83],[89,-127],[51,-151],[-31,-76],[-38,103],[14,32],[-61,62],[-104,151],[-20,47],[-88,129],[21,91],[43,20]],[[2247,24916],[67,15],[120,-9],[36,-28],[66,-119],[56,-48],[50,-110],[-54,-34],[-40,-57],[1,-59],[30,-46],[8,-58],[50,-75],[6,-47],[-90,63],[-73,121],[-84,91],[-18,127],[-38,47],[-55,34],[-89,74],[21,39],[-37,102],[67,-23]],[[2571,24777],[-24,2],[-43,54],[-30,71],[-27,21],[73,61],[35,-22],[3,-46],[48,-105],[-35,-36]],[[2444,24929],[-25,25],[60,81],[37,-45],[-72,-61]],[[2751,25077],[47,-56],[57,3],[5,-47],[33,-83],[-98,-49],[-11,-65],[-28,-20],[-45,24],[-41,14],[-33,22],[-26,3],[-47,101],[-3,38],[-40,29],[-28,62],[25,21],[233,3]],[[2183,25042],[-50,13],[-22,52],[58,63],[21,-18],[-7,-110]],[[2832,25403],[23,-44],[-14,-29],[-67,-11],[7,-46],[-75,-32],[-58,-89],[-52,2],[-104,-68],[-62,-65],[-123,-70],[-67,12],[13,173],[37,106],[59,84],[9,93],[96,48],[50,62],[91,13]],[[1822,25685],[-7,-33],[10,-33],[-26,-79],[86,-113],[-8,-64],[-79,-48],[-75,-3],[-28,-18],[-60,32],[-17,80],[11,156],[-27,129],[72,-5],[-10,62],[31,4],[21,22],[68,-76],[38,-13]],[[1697,25765],[-34,-12],[-12,-30],[-48,-25],[-19,71],[117,75],[28,-25],[1,-22],[-33,-32]],[[1504,25996],[-73,45],[45,29],[28,-74]],[[1386,26120],[41,-36],[-2,-50],[105,-74],[-21,-31],[-9,-107],[62,-147],[7,-75],[-38,-50],[-5,-190],[38,-57],[-26,-33],[-98,99],[-74,121],[-61,122],[-61,88],[73,55]],[[2284,26155],[43,-61],[52,-42],[101,-28],[-7,-99],[-69,-157],[-60,-75],[-32,-77],[8,-110],[-23,-151],[-99,-127],[-98,-98],[-54,-36],[-77,-199],[-72,15],[-82,49],[-17,24],[-158,83],[-34,35],[75,140],[146,52],[88,75],[-22,97],[-76,78],[37,28],[20,47],[-46,6],[3,53],[-15,18],[-25,6],[-68,84],[14,17],[-6,27],[-25,21],[-130,-69],[-38,92],[26,77],[-102,148],[-51,23],[-31,60],[-109,137],[11,58]],[[5303,21854],[75,28],[-13,-113],[-41,-17],[-73,17],[-85,37],[29,54],[52,-13],[56,7]],[[5075,22311],[-34,14],[55,49],[12,-55],[-33,-8]],[[6525,18533],[8,52],[-25,78],[-45,61],[18,54],[37,49],[61,17],[14,45],[-27,46],[-51,11],[-14,62],[-37,24],[-26,59],[36,62],[-70,76],[-95,40],[7,82],[20,22],[-32,60],[21,26],[-26,72],[11,30],[-113,177],[-27,62],[81,-3],[39,31],[19,44],[-3,83],[-27,66],[-68,98],[-7,66],[-70,99],[24,41],[-36,59],[-42,19],[-46,-14],[-163,13],[-14,66],[8,53],[127,-10],[107,41],[-38,28],[19,58],[-39,38],[-42,-7],[-94,19],[9,65],[-53,101],[-44,35],[-66,86],[-81,86],[28,24],[-18,121],[-35,146],[-54,61],[-130,86],[-73,58],[123,18],[73,-32],[-73,116],[-50,31],[-84,83],[29,68],[-29,47],[-103,14],[-33,-48],[-50,29],[-27,-41],[-101,4],[21,68],[-14,53],[44,111],[-11,100],[-25,26],[97,107],[-42,15],[32,48],[-21,19],[-72,6],[19,104],[-15,38],[17,104],[32,62],[15,73],[-39,75],[-2,98],[87,140],[18,12]],[[9934,36578],[-60,-11],[-28,-68],[-74,7],[-48,-18],[-61,4],[-88,-62],[-30,-58],[-46,-46],[-82,-136],[-34,-34],[-10,-101],[-27,-63],[-68,-78],[-55,-168],[-54,-58],[-36,-72],[-30,-27],[-68,46],[-46,-10],[-50,-47],[-224,-281]],[[8715,35297],[-48,-32],[-63,7],[-98,-29],[-32,9],[-28,55],[-194,25],[-75,50],[-107,10],[-89,27],[-62,-4],[-22,30],[-71,43],[-30,38],[-66,24],[-97,0],[-90,78],[-51,8],[-35,-36],[-56,-5],[-50,35],[-119,23],[-58,-2],[-23,-55],[-44,-29],[-19,43],[-59,0],[-65,-26],[-8,75],[-88,-3],[-5,-48],[39,-63],[103,-109],[55,-84],[-18,-81],[63,-41],[5,-60],[-95,-41],[-97,37],[-35,-59],[-72,-61],[-34,-70],[-119,49],[-54,44]],[[6604,35069],[-79,16],[-13,59],[-54,27],[24,57],[9,69],[28,69],[56,230],[44,82],[7,53],[48,127],[41,41],[32,101],[-52,19]],[[6695,36019],[-14,37],[36,39],[-23,53],[36,131],[46,66],[89,56],[57,104],[29,12],[-49,65],[18,50],[58,38],[49,85],[6,115],[-20,70],[12,35],[-102,47],[-206,75],[-60,15],[-82,77],[21,41],[2,84],[60,123],[73,103],[9,91],[57,22],[43,46],[-5,26],[32,71],[164,40],[109,-3],[63,34],[52,69],[0,43],[57,50],[93,3],[46,17],[-43,43],[91,52],[24,87],[32,57],[140,86],[19,45],[119,41],[24,40],[9,97],[-47,40],[-41,110],[-16,90],[56,74],[158,58],[188,180],[20,62],[53,53],[-56,42],[-45,-8],[-80,29],[16,76],[-19,69],[14,75],[53,49],[-79,54],[33,43],[-11,50],[19,55],[-14,32],[1,96],[17,79],[-92,47],[18,45],[-58,71],[-51,0],[32,62],[107,108],[-21,52],[80,38],[47,64],[-16,69],[95,75],[48,-2],[95,93],[67,-16],[-1,-46],[121,-7],[97,53],[60,-10],[33,29],[72,6],[16,20],[78,20],[10,41],[70,59],[41,-2],[70,115],[11,44],[97,63],[70,-43],[107,-9],[52,76],[13,67],[103,74],[97,-50],[46,-3],[59,37],[8,60],[42,54],[10,69],[41,16],[58,84],[87,-13],[116,12],[160,84],[36,7],[23,61],[165,194],[32,62],[134,66],[39,32],[175,58],[88,7],[59,23],[56,44],[115,-14],[18,30],[86,21],[92,-20],[23,22],[95,-24],[109,45],[86,8],[83,-20],[57,1],[33,-30],[61,37],[29,41],[87,37],[55,74],[252,-15],[16,35],[140,-46],[37,8],[87,-29],[67,-89],[38,-20],[30,-70],[107,-54],[-20,-60],[-68,-31],[10,-48],[100,-48],[96,-18],[65,0],[82,-22],[66,-35],[158,-112]],[[5357,33423],[26,-15],[58,25],[62,-22],[6,-3]],[[5509,33408],[34,-25],[110,-19],[-32,-50],[37,-58],[65,17],[148,-65],[81,4],[63,35],[93,0],[49,16],[11,-124],[-22,-35],[-57,-23],[-38,-61],[-73,-78],[32,-18],[57,57],[54,33],[30,-59],[107,86],[71,-14],[68,6],[53,-56],[-11,-45],[45,-37],[-24,-75],[42,-10],[15,-44],[41,-17],[9,-47],[55,-18],[41,-82],[142,70],[-22,49],[-40,183],[48,40],[-5,25],[37,53],[47,21],[54,-8],[56,25],[23,40],[137,-12],[36,-22],[88,-8],[110,31],[26,18],[72,5],[44,-16],[70,26]],[[7586,33122],[2,-39],[-50,-56],[-103,-46],[-17,-38],[24,-32],[17,-103],[95,-76],[-49,-25],[-43,12],[-35,-74],[-80,-18],[30,-63],[-2,-81]],[[7375,32483],[101,-26],[27,-50],[-13,-96],[70,-13],[-23,-105],[-73,-21],[-85,-61],[51,-92],[103,-33],[14,-57],[-14,-74],[-32,-46],[-125,-30],[-41,-73],[-116,-41],[-39,-60],[-27,-76],[-4,-69],[-56,-18]],[[7093,31442],[-44,11],[-38,-26],[-100,-32],[-67,44],[-79,-4],[-68,-253],[-2,-68],[-106,-21],[-48,28],[-129,-65],[-79,-77],[-10,-50],[-73,-19],[-107,15],[-2,-36],[-48,-16],[18,-136],[-2,-70],[32,-122],[-4,-97],[-102,-25],[-22,-37],[-52,-186],[2,-41],[-39,-27],[-36,-56],[-105,-18],[7,36],[-62,107]],[[10369,31559],[-102,-31],[-19,-51],[-83,-5],[-48,15],[10,33],[-26,56],[-63,-16],[-117,13],[-116,-46],[-121,-7],[-199,-47],[-70,71],[33,30],[-38,43],[-59,1],[-62,-61],[-95,-67],[-54,9],[-75,-15],[-19,33],[9,86],[32,51],[-59,97],[-52,60],[13,98],[-46,36],[1,62],[-43,38],[-25,69],[-54,54],[-20,58],[-60,64],[-41,-4],[-42,-33],[-35,43],[45,46],[58,23],[32,37],[-4,44],[-125,20],[-65,-16],[-63,25],[-219,-39],[-104,12],[-14,33],[-110,52],[-36,-24],[-77,-2],[-38,49],[-63,-21],[-92,4],[-55,-35],[-58,-1],[-26,26],[-76,-31],[-113,1],[-46,-16]],[[7586,33122],[26,88],[38,84],[46,1],[10,56],[-35,30],[57,194],[57,55],[-23,46],[13,46],[79,59],[25,83]],[[7879,33864],[62,20],[62,57],[1,-79],[-16,-26],[21,-68],[125,-25],[27,-28],[107,-27],[8,-24],[177,-53],[79,-67],[0,-39],[59,-11],[2,-46],[29,-32],[83,-27],[-9,-70],[40,-15],[-59,-46],[16,-64],[51,11],[90,-55],[-127,-39],[-27,-43],[121,-45],[47,22],[64,-11],[11,25],[69,-2],[92,49],[64,15],[9,57],[66,62],[116,10],[73,87],[9,35],[-45,59],[-44,-1],[-14,61],[127,18],[48,73],[74,-22],[54,40],[53,-2],[-6,-51],[28,-81],[4,-69],[40,1],[50,-43],[25,-76],[-4,-136],[48,-14],[39,-51],[111,42],[9,41],[73,27],[30,-32],[95,8],[166,-27]],[[12277,34643],[-98,-28],[-136,31],[-53,-9],[-106,-130],[-47,24],[-124,-25],[-64,-65],[-56,-40],[-62,-70],[52,-53],[64,-25],[98,51],[106,-27],[28,-87],[-23,-45],[52,-101],[-6,-54],[52,-32],[34,-42],[5,-81],[-51,-6],[-26,-37],[-45,-126],[-72,-64],[-46,1],[-48,-56],[-44,-19],[-16,-60],[15,-86],[-38,-13],[-13,-45],[-58,-56],[-14,-42]],[[7879,33864],[-97,53],[2,30],[60,131],[-53,34],[-20,59],[29,78],[43,11],[41,49],[30,-5],[40,80],[69,99],[44,-3],[51,51],[101,78],[-63,36],[-10,149],[62,108],[43,37],[34,83],[125,80],[25,26],[115,42],[30,53],[95,4],[41,38],[-1,32]],[[5509,33408],[27,14],[55,121],[36,6],[-20,81],[40,128],[53,54],[112,189],[112,105],[75,102],[1,50],[26,18],[61,-8],[71,9],[-39,-70],[92,-10],[41,-54],[47,-23],[52,117],[6,63],[-26,99],[9,57],[29,58],[-20,22],[23,96],[4,96],[31,47],[87,66],[57,137],[53,91]],[[8177,29042],[-35,120],[-30,53],[7,70],[-22,27],[11,150],[20,156],[-13,33],[-158,157],[-20,143],[-99,104],[-25,118],[-30,39],[-54,28],[-40,42],[-15,62],[-31,46],[-52,42],[-38,97],[43,142],[5,57],[25,19],[40,78],[-87,81],[34,18]],[[7613,30924],[50,-1],[100,-31],[105,1],[166,65],[142,-31],[3,-40],[115,-111],[24,-57],[65,-33],[21,-48],[101,-33],[77,52],[49,-3],[32,28],[29,-63],[141,-5],[48,26],[56,-3],[4,-31],[44,-32],[28,19],[80,5],[22,-36],[48,2],[-1,-127],[31,-61],[13,-72],[78,-83],[45,-3],[5,-51],[41,-45],[2,-63],[24,-109],[27,-16]],[[9428,29934],[67,-9],[12,-42],[-26,-62],[-39,-18],[-80,-6],[-35,-44],[-108,16],[-33,28],[-82,9],[-22,-13],[-8,-118],[-38,-23],[-65,-2],[-82,73],[-147,26],[-37,-29],[54,-35],[26,-119],[-44,-36],[-46,-76],[0,-54],[46,-51],[73,-40],[50,1],[11,-60],[-106,-1],[-35,-23],[10,-54],[-50,-31],[-21,-109],[-100,-15],[-14,-16],[-93,3],[-62,22],[-77,2],[-58,-33],[-18,-41],[-37,-15]],[[9428,29934],[105,34],[9,71],[70,6],[90,-22],[37,-44],[40,-1],[139,-73],[30,-42],[140,47],[227,39],[73,-8],[52,-34]],[[7613,30924],[-67,60],[-34,53],[-14,56],[-32,26],[-77,-68],[-54,-19],[-35,63],[-68,21],[12,143],[-60,9],[-53,38],[-11,111],[-27,25]],[[14943,33933],[117,0],[6,39],[64,-34],[63,82],[95,25],[7,54],[69,33],[5,27],[127,19],[58,45],[76,-19],[-16,51],[36,45],[65,19],[62,-3],[104,34],[39,35],[124,56],[99,15],[117,36],[215,17],[60,34],[149,-11],[56,-21],[132,-4],[83,35],[184,29],[135,-7],[150,14],[24,-42],[109,-68]],[[17557,34468],[-72,-39],[-109,-38],[-82,6],[-120,-113],[-107,-64],[-41,-84],[20,-79],[54,-162],[27,-56],[36,-33],[191,-103],[119,-51],[65,-92],[2,-34]],[[17540,33526],[-51,-122],[-94,-102],[-36,-20],[-20,-45],[-83,-51],[-68,-139],[42,-57],[3,-42],[-59,-67],[-62,-2],[-11,-97],[-132,-18],[-120,-7],[-63,28],[-115,-17],[-24,48],[-35,-10],[-82,-67],[-74,-30],[-81,4],[-168,103],[-180,-129],[-43,-20],[-196,-31],[-18,24],[-104,-6],[-21,25],[-88,28],[-52,90],[-164,-3],[-8,-34],[-112,-58],[-38,3],[-59,-33],[12,-45],[-17,-45],[-35,-18],[-94,14]],[[14990,32578],[23,93],[-57,10],[14,69],[-59,11],[-43,46],[11,94],[-36,42],[-74,-13],[-45,31],[-83,-3],[-33,51],[-52,17],[-29,45],[-64,-37],[-83,-5],[-13,41],[31,50],[-89,33],[-18,30],[26,89],[38,54],[-25,42],[-37,12],[22,47],[-14,31],[-92,49],[-69,20]],[[14273,24455],[-8,71],[80,160],[54,88],[-25,106],[34,79],[-47,59],[8,48],[46,37],[26,47],[-46,107],[19,47],[9,95],[-24,61],[7,54],[64,128],[13,72]],[[14483,25714],[41,106],[1,39],[86,1],[65,-39],[3,-37],[161,-75],[40,-27],[82,4],[9,77],[-8,93],[30,106],[-6,157],[74,5],[51,-18],[43,26],[154,18],[108,60],[80,17],[10,74],[31,36],[210,29],[48,23],[46,-15],[139,8],[27,25],[82,20],[148,5],[10,-24],[92,-43],[45,-7],[28,36],[-22,40],[-7,69],[51,83],[-29,138],[40,38],[90,127],[55,11],[56,-38],[77,-28],[96,14],[57,-28],[110,-16],[108,-6],[55,-22],[66,9],[14,42],[38,9]],[[17268,26836],[0,-82],[25,-47],[-4,-111],[24,-65]],[[17313,26531],[-9,-90],[38,-79],[69,-55],[17,-73],[75,-109],[55,-57],[25,-79],[-7,-30],[41,-95],[81,-92],[21,-110],[-37,-145],[37,-123],[69,-35],[43,-43],[9,-46],[-20,-46],[-8,-80],[13,-59],[-47,-45],[-57,-14],[-91,-63],[-58,-19],[-82,17],[-133,-78],[-85,-76],[95,-156],[-51,-102],[25,-99],[-10,-31],[33,-72],[64,-29],[-12,-42],[62,-20],[31,-30],[7,-59],[-24,-46],[80,-39],[55,-70],[-12,-25],[31,-60]],[[17646,23927],[-98,1],[-52,-25],[-11,-56],[-35,3],[-102,79],[-213,-66],[-88,17],[-43,28],[-48,-26],[-113,-5],[-37,9],[-79,-26],[-116,-20],[-42,47],[15,35],[-28,42],[-98,26],[-66,76],[-93,40],[-89,-35],[-49,50],[0,39],[-96,7],[-40,-61],[9,-47],[-29,-127],[22,-37],[-5,-60],[40,-51],[-62,-37],[-136,-17],[-5,-72],[-33,-20],[-64,-1],[-118,-48],[-86,6]],[[14483,25714],[-28,6],[-86,90],[-31,68],[-40,43],[20,28],[22,169],[41,79],[47,241],[-11,32],[35,51],[-65,85],[-34,-14],[-71,63],[34,64],[-30,17],[15,51],[-42,58],[-11,52],[-48,47],[47,10],[1,59],[-39,20],[-1,95],[-36,44],[0,144],[-31,50],[13,58],[72,93],[70,45],[-11,44],[66,101],[36,37],[26,76],[8,83],[-18,139],[-56,42],[-145,-20],[-83,81],[-72,-43],[-54,7],[-46,-23],[-49,14],[-30,96],[10,95],[-35,88],[-148,80],[-110,172],[-3,89],[-19,121],[72,70],[6,29],[73,62],[26,124],[-14,53],[55,105],[75,72],[47,28],[3,71],[51,75],[64,69]],[[14021,29599],[62,19],[89,0],[44,-54],[6,-42],[181,-17],[79,93],[50,7],[112,-16],[76,-43],[41,-64],[150,-14],[15,-30],[122,-80],[91,-12],[93,-27],[30,35],[92,19],[-23,56],[88,57],[25,-36],[109,18],[41,56],[56,44],[110,25],[27,-7],[74,45],[39,-6],[76,45],[18,54]],[[15994,29724],[64,45],[54,11],[108,-12],[58,-19],[40,-44],[15,-109],[87,25],[64,57],[215,23],[72,35],[34,-22],[89,-115],[43,20],[51,-20],[102,21],[22,-65],[-16,-103],[109,-59],[48,-11],[10,-42],[-28,-91],[44,-44],[-44,-29],[-49,-74],[22,-49],[53,30],[153,16]],[[17414,29099],[18,-60],[11,-100],[28,-6],[26,-64],[-10,-53],[46,-82],[50,-47],[64,-102],[47,-94],[-45,-127]],[[17649,28364],[-73,5],[-92,-20],[-24,-71],[20,-52],[79,-119],[27,-12],[49,-80],[68,-15],[52,-65],[-17,-42],[22,-50],[-9,-62],[41,-34],[47,-120],[29,-41],[-19,-63],[-5,-84],[22,-53],[48,-45],[175,-83],[44,-70],[-137,-129],[-19,-46],[-41,-26],[-176,23],[-39,14],[-67,-19],[-53,-60],[-124,-29],[-105,25],[-64,-16],[-40,-89]],[[12601,29398],[88,-21],[33,-38],[67,-12],[49,21],[50,-7],[66,-45],[109,-3],[34,91],[-17,80],[32,54],[50,45],[-14,63],[-21,187],[-17,58],[-57,103],[-9,73],[12,41],[59,0],[70,-39],[88,-24],[68,33],[88,-25],[75,-5],[81,24],[50,-22],[88,-86],[-17,-37],[21,-29],[77,3],[59,-31],[25,-51],[-17,-95],[1,-78],[74,-49],[75,22]],[[16462,9220],[-45,44],[58,8],[-13,-52]],[[16489,9571],[-34,0],[-8,87],[85,179],[22,-49],[-29,-118],[-36,-99]],[[15707,9820],[27,-22],[-2,-81],[-30,-40],[-34,25],[7,71],[32,47]],[[15444,10595],[-26,-53],[-65,-53],[-11,84],[16,25],[86,-3]],[[16501,12522],[70,-36],[-12,-46],[38,-17],[23,-59],[-56,-66],[72,-62],[2,-53],[-32,-22],[24,-47],[96,-95],[43,-98],[58,-63],[95,-41],[2,-28],[48,-61],[29,-10],[123,-85],[66,-99],[5,-100],[89,11],[11,-65],[57,-82],[17,-51],[64,-49],[22,-74],[65,-82],[33,6],[4,-69],[29,-56],[67,-5],[28,-31],[123,-74],[82,8],[46,-48],[8,-44],[125,-94],[97,-52],[44,3],[30,-42],[73,-35],[28,-54],[57,-43],[63,6],[43,-34],[43,18],[34,-32],[7,-95],[25,-44],[47,-21],[31,-56],[37,-131],[65,-11],[45,-34],[48,-76],[83,-7],[7,-63],[-31,-70],[41,-17],[19,-69],[-3,-71],[48,-27],[80,-78],[-7,-114],[16,-48],[3,-80],[-18,-36],[36,-72],[-36,-24],[74,-79],[-22,-79],[62,-95],[-28,-46],[32,-95],[-27,-94],[23,-23],[-2,-49],[-45,-54],[-5,-65]],[[19182,8447],[-68,8],[-30,55],[-49,44],[-51,-22],[-54,30],[-125,-34],[-53,-30],[-79,3],[-56,25],[42,54],[-112,85],[-76,14],[-185,82],[-38,39],[-93,64],[-88,15],[-29,31],[-89,1],[-43,36],[-46,-4],[-40,45],[-75,11],[-44,-58],[-7,-49],[-102,-135],[2,-72],[-43,-59],[-92,28],[-13,-70],[-34,-55],[-30,7],[-48,-68],[-29,-6]],[[17305,8462],[-74,-17],[-15,21],[-17,101],[4,99],[-45,6],[-54,122],[-39,16],[-9,46],[37,26],[-89,127],[-69,86],[20,60],[-46,67],[-43,38],[-93,53],[-72,60],[14,57],[-24,22],[-89,-4],[-28,22],[-8,53],[27,57],[12,107],[-20,191],[11,54],[-30,42],[-9,111],[-65,74],[-10,-93],[39,-120],[-2,-67],[-92,-159],[-21,-54],[-8,-81],[30,-107],[-3,-60],[20,-25],[-8,-83],[-66,-75],[-15,-89],[11,-65],[-78,23],[-15,60],[41,53],[35,94],[-28,68],[-98,47],[-27,-4],[-21,94],[-59,60],[26,38],[-20,44],[52,45],[-2,96],[31,92],[-68,62],[-27,187],[-26,70],[2,45],[44,9],[7,74],[66,83],[-61,158],[-56,91],[-164,200],[0,44],[-77,113],[5,139],[49,81],[-82,-17],[-8,119],[-130,175],[-13,100],[-30,69],[-46,53],[64,133],[102,23],[45,-47],[33,40],[-41,36],[3,45],[-31,21],[-24,-60],[-82,-5],[-46,-50],[-48,-27],[-75,21],[-58,148],[10,29],[-74,224]],[[16026,110],[49,3],[30,-76],[-42,-37],[-82,5],[-31,39],[-8,50],[63,40],[21,-24]],[[17381,404],[25,-52],[-55,-8],[-2,53],[32,7]],[[16650,661],[50,5],[40,-84],[-7,-30],[-90,-7],[0,-63],[-32,-17],[5,-74],[-49,23],[-14,-49],[-71,0],[-43,-32],[-48,-11],[-10,-86],[-24,-54],[-34,-26],[-77,30],[39,46],[-32,45],[28,107],[43,11],[21,50],[40,25],[22,82],[40,41],[81,-16],[22,54],[35,27],[65,3]],[[16691,848],[23,-40],[54,16],[16,-42],[-16,-56],[-57,-2],[5,43],[-30,44],[5,37]],[[16452,967],[40,17],[29,-66],[49,8],[-11,-94],[-67,3],[-24,-35],[-70,53],[28,32],[26,82]],[[15670,1633],[58,11],[49,-35],[-6,-69],[-75,-67],[-29,-3],[-20,53],[17,25],[6,85]],[[16583,1794],[-20,-71],[12,-33],[-63,-20],[-41,22],[-18,50],[43,46],[87,6]],[[15999,1928],[-19,-52],[-44,-48],[-120,7],[-21,23],[79,36],[27,-25],[53,20],[-12,42],[57,-3]],[[16676,2151],[-35,-30],[-12,-48],[-44,30],[19,42],[72,6]],[[17621,2539],[5,-34],[-68,1],[0,45],[63,-12]],[[16116,2616],[36,2],[26,-71],[-22,-16],[-115,80],[75,5]],[[17302,2639],[33,14],[137,-81],[-35,-59],[21,-46],[-61,-69],[-82,-19],[-36,42],[71,63],[-40,27],[-8,128]],[[15735,2744],[45,4],[5,-53],[-40,-79],[-78,-50],[-18,68],[-31,19],[15,45],[39,18],[31,45],[32,-17]],[[16429,2879],[50,-47],[52,-14],[29,-73],[-2,-47],[41,-88],[71,-32],[31,-89],[-12,-64],[25,-67],[-9,-95],[23,-26],[-50,-56],[-98,6],[14,40],[-16,41],[10,68],[48,9],[-31,82],[19,59],[-15,40],[-37,7],[-64,85],[-2,29],[-111,48],[-10,44],[-50,-15],[-148,-107],[-28,53],[58,65],[54,27],[53,61],[83,75],[22,-19]],[[17833,2907],[47,-32],[-33,-32],[-30,18],[16,46]],[[17195,2947],[15,-49],[-43,-55],[-37,-14],[-8,99],[73,19]],[[16774,3022],[34,-35],[-5,-39],[-48,-4],[-21,35],[40,43]],[[17780,3074],[22,-96],[-13,-29],[-70,10],[-45,35],[43,74],[63,6]],[[17608,3071],[34,-46],[-27,-70],[-46,57],[-3,31],[42,28]],[[17425,2973],[7,-93],[-23,-25],[-68,15],[-14,-57],[-59,-4],[-51,92],[58,72],[54,11],[22,45],[2,87],[39,-10],[33,-133]],[[16648,3544],[22,-77],[61,-3],[-19,-43],[-102,-9],[-52,101],[64,40],[26,-9]],[[16676,3735],[31,-44],[-23,-64],[-33,19],[-65,-97],[-63,68],[45,37],[62,1],[46,80]],[[16645,3829],[-22,-54],[-48,24],[70,30]],[[16331,3912],[-26,-103],[-35,-4],[-48,113],[109,-6]],[[17341,3979],[22,-19],[-95,-66],[-22,35],[95,50]],[[18232,4597],[-41,-27],[-60,34],[64,45],[53,-23],[-16,-29]],[[19521,3685],[-11,-36],[45,-48],[-83,-84],[-69,-54],[-43,-140],[-77,-61],[11,-65],[-83,-60],[-59,-22],[6,-48],[-69,-67],[-66,-6],[-77,-47],[-9,-72],[-44,-66],[-83,-6],[-7,28],[-79,12],[-49,-78],[-7,-105],[32,-81],[-132,-98],[-120,-11],[-96,-70],[-19,8],[-101,-86],[-79,-99],[-85,-80],[12,-70],[-30,-78],[71,-27],[26,-55],[-14,-45],[38,-39],[1,-110],[-50,-48],[22,-34],[-24,-49],[-41,-8],[-45,-95],[-43,-34],[-106,-294],[-33,-63],[-45,-24],[23,-50],[-123,-77],[-28,-100],[-52,-42],[-34,-117],[-52,-66],[-66,-119],[-48,-45],[-39,57],[-43,135],[22,52],[-34,107],[15,53],[-8,56],[-71,42],[-22,40],[43,55],[53,42],[1,82],[-17,52],[24,16],[28,95],[21,33],[-43,75],[-13,93],[-32,11],[-36,49],[16,40],[-27,31],[-7,70],[36,39],[-51,74],[-24,79],[26,59],[-71,18],[0,85],[43,158],[60,29],[121,-25],[-37,60],[44,1],[76,-49],[-4,51],[19,62],[27,-4],[45,121],[59,2],[46,52],[-23,52],[-60,1],[-30,-30],[-51,48],[106,47],[34,58],[107,-12],[125,46],[13,76],[-5,59],[134,-6],[9,11],[-240,24],[28,77],[55,63],[-64,74],[-38,23],[-42,63],[34,18],[81,13],[30,46],[77,71],[5,103],[25,27],[21,84],[-47,28],[-47,74],[-21,170],[-36,-7],[-22,59],[68,117],[137,-23],[-26,36],[-21,71],[7,81],[-71,-5],[-29,29],[-1,81],[30,12],[16,52],[-7,47],[18,62],[0,76],[149,20],[123,-1],[30,56],[-17,44]],[[18237,4667],[30,25],[4,55],[103,175],[65,33],[58,86],[83,-7],[3,-33],[47,-23],[158,-135],[71,-119],[87,-77],[6,-94],[38,-35],[7,-43],[65,-28],[40,-57],[-47,-86],[-66,-3],[-15,-65],[23,-65],[-7,-97],[71,-33],[40,-95],[10,-80],[21,-63],[40,-13],[8,-44],[60,10],[82,-49],[51,-2],[26,25],[84,-12],[38,-33]],[[16275,4049],[58,-46],[-41,-22],[-17,68]],[[15974,4058],[7,-10],[-52,-62],[-64,-4],[-4,33],[92,7],[21,36]],[[16739,4860],[-1,-74],[55,-69],[12,-52],[-67,-54],[-18,-108],[-27,-73],[-9,-72],[19,-30],[-20,-61],[-13,-187],[-47,-15],[-76,26],[-21,-64],[-70,-13],[-85,-40],[0,45],[84,1],[0,69],[33,65],[-46,35],[9,27],[71,63],[-54,8],[71,148],[59,15],[-43,59],[12,56],[54,83],[13,59],[44,55],[-39,70],[42,33],[58,-5]],[[17386,4836],[42,-76],[-3,-132],[-31,-166],[30,-60],[-66,-67],[10,-149],[-78,46],[-33,52],[-68,-3],[-20,26],[-75,-21],[-7,47],[-35,57],[39,32],[-40,48],[-92,29],[-17,66],[36,77],[-46,56],[45,68],[-43,29],[43,29],[52,5],[132,-22],[33,34],[70,-3],[78,37],[44,-39]],[[14535,4882],[63,7],[42,-55],[-19,-26],[-77,4],[2,-29],[-62,-5],[-75,26],[-21,51],[87,-11],[60,38]],[[16729,4935],[-1,-37],[-62,-31],[-34,74],[63,34],[34,-40]],[[15951,4993],[-5,-64],[37,-68],[75,-17],[50,-58],[-33,-10],[-9,-51],[12,-53],[66,-5],[-13,-95],[-31,-44],[53,-41],[4,-29],[-83,20],[-24,75],[-59,13],[-25,32],[22,41],[-24,69],[50,32],[-46,73],[-1,56],[-60,48],[36,32],[8,44]],[[17268,4919],[-44,6],[21,68],[50,-18],[-27,-56]],[[17059,5008],[81,-39],[-62,-69],[-34,49],[15,59]],[[15073,5020],[-101,-60],[-37,60],[21,29],[81,42],[31,-23],[5,-48]],[[16665,5147],[72,-74],[-38,-26],[-20,-67],[-56,0],[-4,146],[46,21]],[[16607,5313],[52,-42],[-7,-28],[34,-36],[-38,-49],[-54,25],[-36,42],[49,88]],[[17801,5201],[-38,21],[-139,33],[-52,35],[17,27],[61,-2],[135,-33],[23,-23],[-7,-58]],[[15360,5449],[-73,-25],[-6,26],[79,-1]],[[15081,5465],[0,-30],[-63,-41],[-33,44],[96,27]],[[17163,5559],[43,-20],[-16,-36],[58,-23],[30,-41],[24,-76],[63,-44],[77,5],[192,-92],[53,-1],[82,-27],[-39,-62],[-87,-1],[-83,-21],[-102,16],[-57,-25],[-81,-72],[-79,-11],[-49,40],[8,41],[-31,45],[9,87],[29,2],[-5,71],[-67,-9],[5,41],[-26,75],[21,36],[-28,87],[56,15]],[[15240,5669],[-66,-44],[-22,42],[41,21],[47,-19]],[[17026,5673],[-61,22],[34,68],[43,-14],[-16,-76]],[[17051,5843],[26,-2],[23,-72],[-40,-7],[-37,45],[28,36]],[[17705,5784],[-34,8],[24,74],[69,27],[57,-1],[-12,-54],[-77,-26],[-27,-28]],[[16202,6041],[75,-7],[37,-59],[-29,-10],[8,-65],[-26,-71],[66,-26],[-53,-79],[-56,20],[-69,-19],[-40,82],[-55,15],[-13,40],[46,92],[3,43],[58,62],[48,-18]],[[15324,5974],[-12,47],[55,47],[17,-40],[-60,-54]],[[17017,6086],[-2,-34],[-69,0],[-3,39],[74,-5]],[[17385,6096],[-27,23],[41,32],[35,-30],[-49,-25]],[[16288,6228],[33,-12],[-8,-51],[-44,-38],[-58,23],[18,37],[59,41]],[[17231,6135],[-38,-14],[-101,17],[41,57],[87,94],[69,-70],[-3,-33],[-55,-51]],[[17327,6231],[-50,34],[29,30],[54,-1],[-33,-63]],[[16326,6364],[23,-36],[-29,-22],[-34,43],[40,15]],[[16192,6382],[9,-49],[44,-25],[-21,-76],[-101,-59],[-88,-78],[-116,-58],[-75,74],[-67,8],[-21,36],[44,104],[50,27],[41,-14],[59,10],[-13,-45],[29,-36],[65,-14],[39,26],[-15,35],[60,42],[77,92]],[[17370,6316],[-31,38],[-30,19],[24,33],[37,-90]],[[17298,6579],[51,-45],[-22,-50],[-1,-66],[-30,-40],[41,-29],[3,-42],[-28,-3],[-42,-35],[-67,62],[37,129],[-4,64],[62,55]],[[16631,6694],[23,-3],[24,-76],[51,-53],[-67,-48],[-87,1],[-40,62],[21,68],[75,49]],[[15532,6760],[58,-40],[-50,-65],[-50,14],[-28,91],[70,0]],[[16805,6953],[64,-25],[39,20],[61,-18],[80,-85],[-45,-35],[-5,-82],[25,-42],[48,-15],[68,14],[7,57],[-13,54],[50,3],[23,-54],[41,-27],[-38,-59],[-10,-202],[-17,-43],[-66,-31],[-18,-57],[-74,-107],[-53,-40],[-47,-72],[-64,-23],[-68,19],[-24,26],[8,105],[60,156],[7,41],[-46,64],[-4,40],[36,76],[-42,6],[-39,126],[-7,143],[28,82],[35,-15]],[[17704,7177],[-8,-18],[-86,17],[2,47],[64,-10],[28,-36]],[[17805,7202],[-74,-51],[3,51],[71,0]],[[15544,7303],[28,-19],[37,-85],[-79,-3],[-44,13],[-17,48],[75,46]],[[17429,8217],[75,-31],[7,-41],[-44,-42],[-63,37],[-14,40],[39,37]],[[16633,8265],[28,-61],[59,-185],[13,-82],[36,38],[75,-45],[-63,-50],[-68,-22],[22,-75],[-31,-13],[-82,160],[-18,76],[5,38],[-32,55],[19,70],[-19,93],[56,3]],[[17330,8321],[37,-26],[-12,-39],[46,-13],[-44,-75],[-63,-14],[-23,15],[10,57],[-13,46],[40,56],[22,-7]],[[19182,8447],[62,-74],[-41,-5],[31,-61],[4,-80],[-42,-30],[-96,47],[-74,-15],[-37,-63],[46,-30],[4,-72],[-19,-76],[-81,-70],[58,-70],[127,-62],[24,-42],[43,-6],[-10,-51],[22,-44],[-67,-41],[-26,-33],[54,-34],[20,-79],[-11,-49],[72,-84],[53,-32],[10,-176],[33,-48],[50,14],[70,-24],[13,-89],[41,-28],[61,2],[37,-48],[93,-77],[93,6],[58,-75],[0,-54],[-28,-59],[-13,-89],[-40,-59],[-8,-42],[120,-138],[-34,-101],[30,-17],[1,-53],[55,-121],[50,-15],[-5,-62],[-27,-29],[75,-114],[-70,-148],[118,41],[126,8],[-21,-92],[3,-46],[-55,-63],[-10,-36],[27,-46],[-9,-47],[106,-19],[41,-42],[0,-93],[-32,-14],[15,-67],[-19,-31],[9,-59],[46,-9],[73,-64],[2,-69],[66,-22],[-23,-67],[-12,-122],[-111,-74],[-43,-62],[11,-40],[-45,-36],[-4,-33],[-99,-29],[-54,40],[-44,-24],[-60,-5],[-46,-102],[14,-58],[32,-48],[-77,-106],[-134,-71],[14,-99],[-1,-82],[-105,-49],[-58,-49],[-20,-35],[-63,-41]],[[18237,4667],[-86,24],[-60,-7],[-23,61],[74,70],[30,76],[-116,-66],[-64,-65],[-45,-16],[-97,-78],[28,-36],[-64,-77],[-72,22],[-158,81],[20,36],[-59,59],[58,40],[16,31],[-11,58],[24,18],[22,61],[54,47],[-103,27],[-166,-12],[-31,36],[44,53],[101,-10],[110,28],[97,15],[-3,41],[56,10],[12,50],[55,12],[-30,68],[91,19],[-134,54],[67,78],[-29,13],[-78,-49],[-92,63],[-48,69],[36,20],[-40,42],[2,30],[46,32],[93,24],[-37,36],[52,16],[82,53],[6,36],[-50,55],[-99,4],[-60,-20],[-41,-86],[-47,-13],[-73,27],[-44,-12],[-44,42],[-38,106],[50,31],[51,63],[87,-5],[115,18],[3,32],[-82,14],[-144,11],[-50,43],[29,110],[30,56],[67,-32],[51,1],[32,-33],[63,-9],[154,-94],[38,28],[-89,38],[-135,42],[-8,33],[-76,60],[20,68],[1,55],[127,54],[75,12],[2,46],[-124,20],[-40,60],[62,75],[6,47],[33,60],[-12,49],[31,21],[7,44],[42,17],[18,60],[-101,32],[-18,29],[97,28],[64,84],[-12,14],[-93,-33],[-34,-29],[-35,111],[-3,98],[-31,110],[-93,75],[17,54],[8,125],[-35,5],[-11,50],[36,38],[-28,52],[12,50],[-55,106],[30,72],[-11,69],[-38,35],[-53,-2],[-37,73],[-104,35],[-12,33],[40,90]],[[11454,17272],[15,-49],[-68,-59]],[[11401,17164],[-104,-66],[-13,-117],[-48,-11],[-41,-40],[-75,-14],[-86,-52],[-32,-40],[-57,0]],[[10945,16824],[-32,6],[-21,64],[39,40],[-44,41],[4,98],[-28,92]],[[10863,17165],[60,99],[32,32],[97,-46],[113,78],[-14,52],[110,49],[73,15],[17,-58],[37,-6],[39,-46],[-46,-47],[73,-15]],[[11502,17385],[56,-21],[-14,-40],[-44,0],[-46,-52]],[[10863,17165],[-47,-29],[20,-28],[-113,-49],[49,-78]],[[10772,16981],[-13,-16]],[[10759,16965],[-101,30],[-71,49],[-52,-29],[-57,21],[-22,35],[-47,5],[-77,47],[-68,5],[-15,41],[-113,13],[-86,-62]],[[3266,10263],[-40,69],[24,58],[-30,125],[40,20],[38,-86],[-30,-127],[-2,-59]],[[3941,12188],[-6,73],[30,54],[49,24],[-9,-79],[-29,-14],[-35,-58]],[[10759,16965],[1,-7]],[[10760,16958],[16,-97]],[[10776,16861],[14,-20],[136,-37],[60,-24],[0,-29],[44,-132],[55,-52],[35,-10],[11,-56],[-30,-89],[31,-92],[41,-87],[68,-84],[110,-62],[0,-61],[-46,-71],[-54,-45],[-103,-49],[-121,-22],[-202,-83],[-84,14],[-118,91],[-111,50],[-19,25],[-87,40],[-60,2],[-122,-14],[-94,24],[-38,51],[14,37],[-28,28],[-72,-2],[-8,69]],[[12754,16957],[-40,-48],[-41,-110],[-53,52],[-47,-10],[-110,-118],[-31,-106],[26,-36],[-13,-30],[-196,-218],[-102,-60],[-170,-74],[-186,-58],[-151,-16],[-104,20],[-112,97],[-174,83],[-75,117],[15,80],[-10,29],[-66,59],[-33,77],[-2,72],[-23,32],[0,46],[36,26],[75,17],[58,39],[14,38],[45,1],[30,29],[14,101],[62,42],[11,34]],[[10760,16958],[22,-46],[-6,-51]],[[10945,16824],[-121,19],[-33,27],[5,61],[-24,50]],[[5385,33865],[38,32],[37,162],[51,37],[35,122],[101,129],[4,43],[42,68],[-7,106],[23,95],[45,18],[27,136],[42,23],[57,93],[0,123],[75,15],[80,107],[-47,36],[94,39],[35,68],[-30,37],[-13,74],[76,0],[25,28],[68,183],[149,55],[85,119],[21,95],[-15,55],[27,14],[135,-3],[50,45]],[[17649,28364],[15,-26],[98,-24],[98,-43],[103,-8],[96,-19],[141,-42],[125,-3],[45,60],[-31,46],[14,68],[109,44],[33,36],[0,52],[49,45],[51,16],[4,32],[-54,37],[24,28],[-35,72],[-7,116],[-86,66],[-14,46],[37,32],[89,20],[87,81],[63,24],[70,-11],[5,59],[39,77],[29,10],[-10,59],[-36,16],[-3,52],[-57,23],[42,60],[81,53],[62,-8],[11,88],[-7,79],[57,22],[23,57],[-12,42],[95,36]],[[19092,29834],[145,-90],[109,-30],[70,-31],[39,28],[102,-40],[105,27],[80,-20],[58,22],[51,-6],[111,73],[141,-92],[28,28],[102,-18],[69,30],[47,-42],[95,-1],[49,-44],[75,-11],[-15,-66],[73,-9],[6,47],[64,27],[43,-3],[65,-37],[74,-7],[148,-62],[17,24],[-20,53],[46,24],[71,-2],[32,-26],[55,9],[81,-37],[-14,-48],[82,-89],[15,-37],[-45,-86],[-13,-58],[-43,-14],[6,-69],[-44,-35],[-6,-102],[38,-62],[69,-192],[24,-33],[114,-32],[53,-28],[51,33],[124,32],[40,-9],[72,-53],[42,-57],[-55,-14],[-47,-47],[-12,-36],[-57,-36],[-1,-41],[31,-32],[0,-122],[23,-32],[108,-53]],[[21863,28200],[-4,-51],[105,-37],[36,-44],[7,-64],[41,-24],[-84,-48],[-119,-50],[-138,-20],[-91,-32],[-72,-43],[-47,-49],[-58,-3],[-47,-41],[-81,-33],[20,-31],[-29,-46],[-47,-37],[-53,-94],[-8,-87],[-48,-31],[-6,-131],[-40,-18],[-44,-62],[-27,-63],[-71,-38],[-107,40],[-45,50],[-61,30],[-84,23],[-40,-64],[-132,-91],[-82,-30],[-62,-5],[-379,5]],[[19966,26981],[-107,10],[-52,-10],[-122,10],[-24,-24],[-106,-19],[-181,72],[-26,-18],[-191,24],[-30,-22],[-57,13],[-56,-17],[-47,19],[-65,-32],[-38,-68],[-3,-63],[-67,-51],[17,-62],[-36,-63],[-51,-46],[-28,-75],[3,-36],[62,-54],[-5,-55],[30,-30],[14,-56],[-71,-133],[-9,-45],[22,-68],[-80,-63],[-61,13],[-121,-15],[-51,57],[-154,71],[-10,38],[-107,64],[-45,10],[-91,47],[-73,50],[-67,-8],[-42,97],[-23,16],[-57,-20],[-146,17],[-43,-24],[-66,0],[-94,67],[-98,32]],[[19966,26981],[-57,-138],[47,-29],[-41,-81],[-26,-102],[7,-62],[-30,-26],[29,-60],[44,-32],[12,-64],[58,-35],[19,-131],[55,-36],[68,3],[52,-52],[149,-87],[44,-44],[34,-75],[-25,-31],[-10,-72],[61,-24],[55,6],[5,-134],[12,-57],[-78,-39],[-42,-47],[7,-40],[-49,-24],[-5,-39]],[[20361,25429],[-21,-10],[-150,64],[-54,-5],[-66,23],[-37,41],[-68,24],[-47,0],[-3,-71],[97,-49],[47,-69],[-9,-53],[21,-30],[25,-112],[106,-73],[-26,-63],[-40,-45],[-50,-16],[-60,-49],[6,-30],[-48,-25],[-138,-44],[-148,-1],[-132,-62],[-94,46],[-173,102],[-53,13],[-64,-11],[-91,9],[-79,-27],[14,-36],[-66,-16],[-79,10],[-29,-33],[-66,-124],[0,-41],[31,-39],[-41,-22],[-22,-44],[33,-65],[-12,-46],[-44,-21],[26,-62],[8,-74],[-13,-71],[-44,-96],[-188,-68],[-40,-7],[-42,-55],[-37,52],[-154,114],[-38,3],[-13,-44],[-82,-41],[-40,-56],[-80,12],[-29,-13],[-77,31],[-38,-25],[-99,-23],[-96,-47],[-9,-32]],[[21863,28200],[28,76],[21,7],[70,-38],[53,-76],[41,-14],[119,33],[108,58],[56,64],[110,-20],[113,44],[40,-67],[36,-13],[-4,-52],[75,-72],[89,38],[62,-8],[28,-29],[63,-14],[145,63],[64,18],[49,-11],[85,84],[62,-4],[81,98],[59,42],[46,0],[27,76],[34,46],[79,33],[45,73],[68,59],[70,-16],[83,39],[96,2],[79,24],[70,39],[158,119],[58,-4],[32,-152],[-10,-45],[53,-43],[44,-7],[26,-64],[19,-127],[-55,-9],[-23,-41],[37,-34],[31,-71],[-103,-62],[-23,-35],[-83,-70],[-69,-6],[-66,-53],[-52,-69],[-52,-47],[-63,6],[-72,-21],[-86,-55],[-96,-24],[-29,-50],[-74,-53],[-102,-28],[-80,10],[-128,44],[-27,-12],[-31,-124],[-33,-98],[-6,-94],[-37,-33],[-29,-84],[-65,-50],[-22,-35],[-15,-80],[-64,-29],[-53,-52],[-66,4],[-64,-18],[21,-60],[-10,-32],[-66,-54],[-13,-79],[-32,-99],[43,-37],[82,-7],[28,23],[202,44],[23,-45],[-69,-63],[-67,-45],[-85,-30],[-55,6],[-70,-20],[-70,-2],[-202,40],[-70,2],[-88,-19],[-50,-64],[-49,-31],[-114,-25],[-98,-71],[-30,-49],[-41,-26],[-48,-57],[-19,-48],[-33,-25],[-54,-106],[-12,-66],[-69,-177],[-26,-117],[-29,-64],[8,-89],[-89,-76],[-57,20],[-29,45],[-57,-1],[-53,41],[-69,14],[-6,26],[-83,80],[-102,-43],[-68,1],[-77,-13],[-24,-50],[-53,-52],[-2,-66],[-86,-91],[-145,9],[-65,28],[-56,-63],[-79,-19],[-67,27],[-33,38],[-70,-20]],[[19559,31256],[-1,43],[-127,39],[-137,-77],[-233,38],[-126,-37],[-43,-37],[-75,87],[-81,14],[-52,-34],[-32,3],[-125,54],[-27,-41],[33,-59],[52,-38],[-53,-28],[-72,61],[-107,-46],[-88,8],[-79,-8],[-66,17],[-110,67],[-20,33],[-46,145],[-93,100],[-107,30]],[[17744,31590],[-235,100],[-46,62],[-127,-7],[-16,51],[-59,49],[-4,65],[38,38],[76,23],[76,42],[7,61],[-85,48],[-19,61],[-120,42],[-118,63],[104,63],[121,-24],[-9,41],[184,37],[63,4],[41,-28],[86,-7],[45,14],[75,54],[60,-22],[37,27],[-10,144],[-24,83],[20,51],[-12,33],[-124,44],[2,37],[85,66],[35,-19],[55,22],[59,45],[134,27],[34,17]],[[18173,32997],[23,12]],[[18196,33009],[129,16],[58,-71],[12,-36],[51,-58],[-23,-58],[27,-39],[-6,-60],[-45,9],[-26,-34],[83,-31],[57,-41],[-49,-46],[11,-57],[-49,-40],[-6,-49],[-67,-103],[2,-20],[103,13],[117,-39],[99,-19],[134,5],[-10,-101],[159,-77],[27,31],[139,6],[22,-29],[69,44],[63,-55],[100,-19],[16,46],[69,18],[38,-16],[56,30],[8,50],[54,2],[102,-86],[80,-11],[61,-29],[199,-1],[39,-20],[24,-57],[-40,-45],[9,-94],[81,-83],[40,-66],[-16,-59],[-95,-15],[-86,24],[-75,47],[-66,26],[-17,-71],[38,-86],[15,-68],[-47,-7],[-69,-42],[-35,-1],[-25,-47],[-20,-105],[-156,-29]],[[14990,32578],[21,-70],[53,-7],[-9,-98],[43,-45],[-126,-20],[-54,-27],[-117,-20],[-13,-47],[45,-9],[23,-48],[85,-17],[0,-96],[-44,7],[-74,-24],[-15,-85],[-123,5],[-1,-48],[92,-65],[1,-50],[60,-3],[61,45],[39,-23],[-27,-61],[7,-33],[-52,-40],[-3,-69],[-60,-19],[40,-32],[28,-62],[-72,-57],[-96,-90],[-47,-26],[46,-39],[-46,-56],[-49,-83],[30,-29],[138,-48],[-1,-66],[28,-6],[25,-70],[32,-26],[111,18],[57,28],[123,-7],[52,10],[167,150],[12,61],[95,-37],[20,-76],[-25,-79],[-33,-42],[-8,-66],[-84,-122],[30,-66],[-20,-60],[-9,-84],[27,-40],[21,-79],[-14,-93],[12,-35],[104,-34],[53,-30],[66,-1],[60,-38],[65,15],[17,-42],[-25,-46],[15,-27],[80,-60],[14,-126],[44,-17],[28,-57],[8,-63],[42,-54],[31,2]],[[12422,31717],[83,-14],[75,7],[45,-51],[33,4],[51,46],[78,-42],[26,-37],[62,7],[74,-44],[40,11],[0,50],[37,50],[31,-1],[16,52],[-45,44],[4,25],[-55,86],[-115,74],[-41,68],[-40,-2],[-102,75],[-3,85],[93,-32],[148,30],[49,1],[30,27],[78,34],[47,64],[49,38],[18,49],[60,19],[8,52],[-60,17],[-85,44],[20,41],[-14,76],[100,-2],[94,47],[96,83],[-41,136],[48,19],[-4,34],[84,60],[10,44],[46,25],[39,46],[0,31],[73,68],[41,65],[176,68],[48,-17],[118,46],[0,44],[76,65]],[[17540,33526],[38,-25],[93,-148],[31,-85],[-34,-53],[-48,-28],[-16,-53],[-86,-125],[71,-49],[75,49],[96,17],[91,40],[112,76],[88,4],[21,-63],[46,-7],[23,-64],[32,-15]],[[17744,31590],[-7,-80],[-59,-85],[-85,-8],[-138,3],[-32,-32],[-16,-53],[-57,-50],[89,-108],[-27,-65],[36,-43],[7,-98],[45,-8],[22,-75],[88,-127],[5,-58],[50,-50],[17,-146],[-55,-26],[-11,-105],[-60,-50],[-4,-44],[-65,-111],[3,-127],[84,-131],[31,-31],[29,-66],[45,-36],[22,-53],[68,-59],[99,-52],[145,-37],[8,-69],[-110,-2],[19,-44],[-12,-55],[-40,-19],[-22,-40],[-90,-23],[-79,-54],[-132,-58],[-20,-30],[-86,-38],[-35,-48]],[[17557,34468],[48,5],[71,42],[56,10],[57,-15],[56,19],[49,49],[113,-7],[167,21],[50,-16],[125,56],[42,-96],[-75,-61],[-22,-53],[-46,-28],[-76,-22],[-35,-48],[-90,3],[-24,-29],[14,-36],[-47,-45],[-73,-27],[-52,36],[-80,-52],[54,-19],[6,-45],[-42,-45],[-1,-30],[47,-86],[-19,-53],[29,-11],[-51,-98],[37,-40],[36,20],[158,-34],[54,5],[47,-31],[61,-105],[-26,-25],[0,-46],[50,-18],[48,-138],[91,-34],[3,-32],[-36,-37],[-99,-30],[-104,-90],[12,-48],[56,-95]],[[19559,31256],[-27,-51],[61,-51],[24,-90],[29,-40],[35,-127],[34,-70],[-65,-83],[-1,-50],[52,-31],[-23,-43],[-115,-102],[-49,-22],[-29,-49],[-66,-37],[-49,-6],[-15,-40],[67,-51],[-1,-35],[-63,-39],[-53,-81],[-11,-69],[11,-46],[-82,-58],[-74,-79],[15,-64],[-72,-8]]],"transform":{"scale":[0.0003657516928323671,0.0004147846512498813],"translate":[92.17274709741929,9.788147363310145]},"objects":{"MMR":{"type":"GeometryCollection","geometries":[{"arcs":[[0,1,2,3,4,5]],"type":"Polygon","properties":{"name":"Hinthada","shapeGroup":"MMR","gid":"MMR-2-0"},"id":"MMR-2-0"},{"arcs":[[[6]],[[7]],[[8]],[[9]],[[10]],[[11]],[[12,13]],[[14,15]],[[16,17]],[[18,19,20]]],"type":"MultiPolygon","properties":{"name":"Labutta","shapeGroup":"MMR","gid":"MMR-2-1"},"id":"MMR-2-1"},{"arcs":[[-3,21,22,23,24,25]],"type":"Polygon","properties":{"name":"Maubin","shapeGroup":"MMR","gid":"MMR-2-2"},"id":"MMR-2-2"},{"arcs":[[-14,26,-16,27,-18,28,29,-25,30,-20,31]],"type":"Polygon","properties":{"name":"Myaungmya","shapeGroup":"MMR","gid":"MMR-2-3"},"id":"MMR-2-3"},{"arcs":[[[32]],[[33]],[[34]],[[35]],[[36]],[[37]],[[-4,-26,-30,38,39]]],"type":"MultiPolygon","properties":{"name":"Pathein","shapeGroup":"MMR","gid":"MMR-2-4"},"id":"MMR-2-4"},{"arcs":[[[40]],[[41]],[[42]],[[43]],[[44]],[[45]],[[46]],[[47]],[[48]],[[-21,-31,-24,49,50]]],"type":"MultiPolygon","properties":{"name":"Pyapon","shapeGroup":"MMR","gid":"MMR-2-5"},"id":"MMR-2-5"},{"arcs":[[51,52,53,54,55,56,57]],"type":"Polygon","properties":{"name":"Bago","shapeGroup":"MMR","gid":"MMR-2-6"},"id":"MMR-2-6"},{"arcs":[[-58,58,59,60,61,62,63]],"type":"Polygon","properties":{"name":"Taungoo","shapeGroup":"MMR","gid":"MMR-2-7"},"id":"MMR-2-7"},{"arcs":[[-6,64,65,-60,66]],"type":"Polygon","properties":{"name":"Pyay","shapeGroup":"MMR","gid":"MMR-2-8"},"id":"MMR-2-8"},{"arcs":[[-1,-67,-59,-57,67]],"type":"Polygon","properties":{"name":"Thayarwady","shapeGroup":"MMR","gid":"MMR-2-9"},"id":"MMR-2-9"},{"arcs":[[68,69,70,71]],"type":"Polygon","properties":{"name":"Falam","shapeGroup":"MMR","gid":"MMR-2-10"},"id":"MMR-2-10"},{"arcs":[[-71,72,73,74,75]],"type":"Polygon","properties":{"name":"Hakha","shapeGroup":"MMR","gid":"MMR-2-11"},"id":"MMR-2-11"},{"arcs":[[-75,76,77,78,79,80]],"type":"Polygon","properties":{"name":"Mindat","shapeGroup":"MMR","gid":"MMR-2-12"},"id":"MMR-2-12"},{"arcs":[[81,82,83,84,85,86,87]],"type":"Polygon","properties":{"name":"Bhamo","shapeGroup":"MMR","gid":"MMR-2-13"},"id":"MMR-2-13"},{"arcs":[[-87,88,89,90]],"type":"Polygon","properties":{"name":"Mohnyin","shapeGroup":"MMR","gid":"MMR-2-14"},"id":"MMR-2-14"},{"arcs":[[-88,-91,91,92,93,94]],"type":"Polygon","properties":{"name":"Myitkyina","shapeGroup":"MMR","gid":"MMR-2-15"},"id":"MMR-2-15"},{"arcs":[[-94,95]],"type":"Polygon","properties":{"name":"Puta-O","shapeGroup":"MMR","gid":"MMR-2-16"},"id":"MMR-2-16"},{"arcs":[[96,97,98,99]],"type":"Polygon","properties":{"name":"Bawlake","shapeGroup":"MMR","gid":"MMR-2-17"},"id":"MMR-2-17"},{"arcs":[[-100,100,101,102,103]],"type":"Polygon","properties":{"name":"Loikaw","shapeGroup":"MMR","gid":"MMR-2-18"},"id":"MMR-2-18"},{"arcs":[[[104,105,106,107,108,109,110,111,112,113]],[[-63,114,115,-101,-99,116]]],"type":"MultiPolygon","properties":{"name":"Hpa-An","shapeGroup":"MMR","gid":"MMR-2-19"},"id":"MMR-2-19"},{"arcs":[[-52,-64,-117,-98,117,-112,118]],"type":"Polygon","properties":{"name":"Hpapun","shapeGroup":"MMR","gid":"MMR-2-20"},"id":"MMR-2-20"},{"arcs":[[-106,119,120,121]],"type":"Polygon","properties":{"name":"Kawkareik","shapeGroup":"MMR","gid":"MMR-2-21"},"id":"MMR-2-21"},{"arcs":[[-105,-114,122,-120]],"type":"Polygon","properties":{"name":"Myawaddy","shapeGroup":"MMR","gid":"MMR-2-22"},"id":"MMR-2-22"},{"arcs":[[-74,123,124,125,126,-77]],"type":"Polygon","properties":{"name":"Gangaw","shapeGroup":"MMR","gid":"MMR-2-23"},"id":"MMR-2-23"},{"arcs":[[127,128,129,130,131,132,133,134]],"type":"Polygon","properties":{"name":"Magway","shapeGroup":"MMR","gid":"MMR-2-24"},"id":"MMR-2-24"},{"arcs":[[-78,-127,135,-133,136,137,138]],"type":"Polygon","properties":{"name":"Minbu","shapeGroup":"MMR","gid":"MMR-2-25"},"id":"MMR-2-25"},{"arcs":[[-126,139,140,141,142,143,-134,-136]],"type":"Polygon","properties":{"name":"Pakokku","shapeGroup":"MMR","gid":"MMR-2-26"},"id":"MMR-2-26"},{"arcs":[[-61,-66,144,145,-137,-132,146]],"type":"Polygon","properties":{"name":"Thayet","shapeGroup":"MMR","gid":"MMR-2-27"},"id":"MMR-2-27"},{"arcs":[[147,148,149,150,151,152,153]],"type":"Polygon","properties":{"name":"Kyaukse","shapeGroup":"MMR","gid":"MMR-2-28"},"id":"MMR-2-28"},{"arcs":[[-151,154,155]],"type":"Polygon","properties":{"name":"Mandalay","shapeGroup":"MMR","gid":"MMR-2-29"},"id":"MMR-2-29"},{"arcs":[[-128,156,157,-148,158,159]],"type":"Polygon","properties":{"name":"Meiktila","shapeGroup":"MMR","gid":"MMR-2-30"},"id":"MMR-2-30"},{"arcs":[[-143,160,-149,-158,161]],"type":"Polygon","properties":{"name":"Myingyan","shapeGroup":"MMR","gid":"MMR-2-31"},"id":"MMR-2-31"},{"arcs":[[-135,-144,-162,-157]],"type":"Polygon","properties":{"name":"Nyaung-U","shapeGroup":"MMR","gid":"MMR-2-32"},"id":"MMR-2-32"},{"arcs":[[-152,-156,162,163,164,165,166,167]],"type":"Polygon","properties":{"name":"Pyinoolwin","shapeGroup":"MMR","gid":"MMR-2-33"},"id":"MMR-2-33"},{"arcs":[[-129,-160,168,169]],"type":"Polygon","properties":{"name":"Yamethin","shapeGroup":"MMR","gid":"MMR-2-34"},"id":"MMR-2-34"},{"arcs":[[[170]],[[171]],[[172]],[[-107,-122,173,174,175]],[[176]],[[-109,177]],[[178]]],"type":"MultiPolygon","properties":{"name":"Mawlamyine","shapeGroup":"MMR","gid":"MMR-2-35"},"id":"MMR-2-35"},{"arcs":[[-53,-119,-111,179]],"type":"Polygon","properties":{"name":"Thaton","shapeGroup":"MMR","gid":"MMR-2-36"},"id":"MMR-2-36"},{"arcs":[[-62,-147,-131,180,181,-115]],"type":"Polygon","properties":{"name":"Det Khi Na","shapeGroup":"MMR","gid":"MMR-2-37"},"id":"MMR-2-37"},{"arcs":[[-130,-170,182,-181]],"type":"Polygon","properties":{"name":"Oke Ta Ra","shapeGroup":"MMR","gid":"MMR-2-38"},"id":"MMR-2-38"},{"arcs":[[[183]],[[184]],[[185]],[[186]],[[187]],[[188]],[[189]],[[190]],[[191]],[[192]],[[-138,-146,193,194,195,196,197]]],"type":"MultiPolygon","properties":{"name":"Kyaukpyu","shapeGroup":"MMR","gid":"MMR-2-39"},"id":"MMR-2-39"},{"arcs":[[-80,198,199,200,201,202]],"type":"Polygon","properties":{"name":"Maungdaw","shapeGroup":"MMR","gid":"MMR-2-40"},"id":"MMR-2-40"},{"arcs":[[[203]],[[-196,204]],[[205]],[[206]],[[207]],[[208]],[[209]],[[210]],[[211]],[[212]],[[213]],[[214]],[[215]],[[216]],[[217]],[[218]],[[219]],[[220]],[[221]],[[222]],[[-79,-139,-198,223,224,225,226,-199]]],"type":"MultiPolygon","properties":{"name":"Mrauk-U","shapeGroup":"MMR","gid":"MMR-2-41"},"id":"MMR-2-41"},{"arcs":[[[227]],[[228]],[[229]],[[230]],[[231]],[[232]],[[233]],[[234]],[[-225,235]],[[236]],[[237]],[[238]],[[-202,239]],[[-200,-227,240]]],"type":"MultiPolygon","properties":{"name":"Sittwe","shapeGroup":"MMR","gid":"MMR-2-42"},"id":"MMR-2-42"},{"arcs":[[[241]],[[242]],[[-5,-40,243,-194,-145,-65]]],"type":"MultiPolygon","properties":{"name":"Thandwe","shapeGroup":"MMR","gid":"MMR-2-43"},"id":"MMR-2-43"},{"arcs":[[-90,244,245,246,247,-92]],"type":"Polygon","properties":{"name":"Hkamti","shapeGroup":"MMR","gid":"MMR-2-44"},"id":"MMR-2-44"},{"arcs":[[-70,248,249,250,251,252,-124,-73]],"type":"Polygon","properties":{"name":"Kale","shapeGroup":"MMR","gid":"MMR-2-45"},"id":"MMR-2-45"},{"arcs":[[-165,253,-251,254,255]],"type":"Polygon","properties":{"name":"Kanbalu","shapeGroup":"MMR","gid":"MMR-2-46"},"id":"MMR-2-46"},{"arcs":[[-86,256,-166,-256,257,-245,-89]],"type":"Polygon","properties":{"name":"Katha","shapeGroup":"MMR","gid":"MMR-2-47"},"id":"MMR-2-47"},{"arcs":[[-246,-258,-255,-250,258]],"type":"Polygon","properties":{"name":"Mawlaik","shapeGroup":"MMR","gid":"MMR-2-48"},"id":"MMR-2-48"},{"arcs":[[-141,259,260,261]],"type":"Polygon","properties":{"name":"Monywa","shapeGroup":"MMR","gid":"MMR-2-49"},"id":"MMR-2-49"},{"arcs":[[-142,-262,262,-163,-155,-150,-161]],"type":"Polygon","properties":{"name":"Sagaing","shapeGroup":"MMR","gid":"MMR-2-50"},"id":"MMR-2-50"},{"arcs":[[-164,-263,-261,263,-252,-254]],"type":"Polygon","properties":{"name":"Shwebo","shapeGroup":"MMR","gid":"MMR-2-51"},"id":"MMR-2-51"},{"arcs":[[-83,264,265,266,267]],"type":"Polygon","properties":{"name":"Muse","shapeGroup":"MMR","gid":"MMR-2-52"},"id":"MMR-2-52"},{"arcs":[[-103,268,269,270,271,272]],"type":"Polygon","properties":{"name":"Langkho","shapeGroup":"MMR","gid":"MMR-2-53"},"id":"MMR-2-53"},{"arcs":[[-270,273,274,275,276,277]],"type":"Polygon","properties":{"name":"Loilen","shapeGroup":"MMR","gid":"MMR-2-54"},"id":"MMR-2-54"},{"arcs":[[-102,-116,-182,-183,-169,-159,-154,278,-274,-269]],"type":"Polygon","properties":{"name":"Taunggyi","shapeGroup":"MMR","gid":"MMR-2-55"},"id":"MMR-2-55"},{"arcs":[[[279]],[[280]],[[281]],[[282]],[[-175,283,284,285]]],"type":"MultiPolygon","properties":{"name":"Dawei","shapeGroup":"MMR","gid":"MMR-2-56"},"id":"MMR-2-56"},{"arcs":[[[286]],[[287]],[[288]],[[289]],[[290]],[[291]],[[292]],[[293]],[[294]],[[295]],[[296]],[[297]],[[298]],[[299]],[[300]],[[301]],[[302]],[[303]],[[304]],[[305]],[[306]],[[307]],[[308]],[[309]],[[310]],[[311]],[[312,313]]],"type":"MultiPolygon","properties":{"name":"Kawthoung","shapeGroup":"MMR","gid":"MMR-2-57"},"id":"MMR-2-57"},{"arcs":[[[314]],[[315]],[[316]],[[317]],[[318]],[[319]],[[320]],[[321]],[[322]],[[323]],[[324]],[[325]],[[326]],[[327]],[[328]],[[329]],[[330]],[[331]],[[332]],[[333]],[[334]],[[335]],[[336]],[[337]],[[338]],[[339]],[[340]],[[341]],[[342]],[[343]],[[344]],[[345]],[[346]],[[347]],[[348]],[[349]],[[350]],[[351]],[[352]],[[353]],[[-285,354,-314,355]]],"type":"MultiPolygon","properties":{"name":"Myeik","shapeGroup":"MMR","gid":"MMR-2-58"},"id":"MMR-2-58"},{"arcs":[[356,357,358,359]],"type":"Polygon","properties":{"name":"Yangon (East)","shapeGroup":"MMR","gid":"MMR-2-59"},"id":"MMR-2-59"},{"arcs":[[-2,-68,-56,360,-360,361,362,363,-22]],"type":"Polygon","properties":{"name":"Yangon (North)","shapeGroup":"MMR","gid":"MMR-2-60"},"id":"MMR-2-60"},{"arcs":[[[364]],[[365]],[[-23,-364,366,367,368,-50]],[[-55,369,-357,-361]]],"type":"MultiPolygon","properties":{"name":"Yangon (South)","shapeGroup":"MMR","gid":"MMR-2-61"},"id":"MMR-2-61"},{"arcs":[[[-368,370]],[[-359,371,-362]]],"type":"MultiPolygon","properties":{"name":"Yangon (West)","shapeGroup":"MMR","gid":"MMR-2-62"},"id":"MMR-2-62"},{"arcs":[[-69,372,-247,-259,-249]],"type":"Polygon","properties":{"name":"Tamu","shapeGroup":"MMR","gid":"MMR-2-63"},"id":"MMR-2-63"},{"arcs":[[-125,-253,-264,-260,-140]],"type":"Polygon","properties":{"name":"Yinmarbin","shapeGroup":"MMR","gid":"MMR-2-64"},"id":"MMR-2-64"},{"arcs":[[-271,-278,373,374,375,376]],"type":"Polygon","properties":{"name":"Kengtung","shapeGroup":"MMR","gid":"MMR-2-65"},"id":"MMR-2-65"},{"arcs":[[-272,-377,377,378]],"type":"Polygon","properties":{"name":"Monghsat","shapeGroup":"MMR","gid":"MMR-2-66"},"id":"MMR-2-66"},{"arcs":[[-376,379,-378]],"type":"Polygon","properties":{"name":"Tachileik","shapeGroup":"MMR","gid":"MMR-2-67"},"id":"MMR-2-67"},{"arcs":[[380,381,382,383]],"type":"Polygon","properties":{"name":"Hopang","shapeGroup":"MMR","gid":"MMR-2-68"},"id":"MMR-2-68"},{"arcs":[[-84,-268,384,-275,-279,-153,-168,385]],"type":"Polygon","properties":{"name":"Kyaukme","shapeGroup":"MMR","gid":"MMR-2-69"},"id":"MMR-2-69"},{"arcs":[[-267,386,-382,387,-276,-385]],"type":"Polygon","properties":{"name":"Lashio","shapeGroup":"MMR","gid":"MMR-2-70"},"id":"MMR-2-70"},{"arcs":[[-266,388,-383,-387]],"type":"Polygon","properties":{"name":"Laukkaing","shapeGroup":"MMR","gid":"MMR-2-71"},"id":"MMR-2-71"},{"arcs":[[-277,-388,-381,389,-374]],"type":"Polygon","properties":{"name":"Matman","shapeGroup":"MMR","gid":"MMR-2-72"},"id":"MMR-2-72"},{"arcs":[[-85,-386,-167,-257]],"type":"Polygon","properties":{"name":"Mongmit","shapeGroup":"MMR","gid":"MMR-2-73"},"id":"MMR-2-73"}]}}}