{"type":"Topology","arcs":[[[1738,3027],[55,131],[28,92],[-1,73],[40,-1],[29,41],[117,61],[99,111],[64,-60],[-47,-26],[-15,-61],[-97,-92],[-1,-62],[55,-68],[-66,-46],[-22,31],[-55,-8],[-24,-55],[47,-58],[-50,-49],[-101,2],[-55,44]],[[1409,2719],[45,108],[148,142],[36,-51],[7,-78],[-34,-34],[24,-79],[55,-41],[-44,-174],[-44,-67],[-40,-4],[-1,84],[-43,26],[-29,88],[-51,-3],[-29,83]],[[1272,2203],[10,22],[99,41],[14,-35],[-45,-33],[-78,5]],[[0,30],[118,142],[43,-3],[89,30],[117,70],[144,-24],[-15,-95],[-41,-25],[-88,-3],[-32,-60],[-56,-48],[-86,3],[-44,-17],[-16,59],[-62,28],[-71,-57]],[[2121,10472],[23,42],[47,6],[41,-55],[-37,-67],[-38,1],[-36,73]],[[1974,7778],[61,20],[1,-60],[-62,40]],[[1794,11801],[28,85],[121,71],[18,108],[-10,73],[56,26],[75,-18],[23,-91],[-33,-64],[-69,-9],[-48,-36],[-67,-112],[-30,-26],[-64,-7]],[[1574,13993],[52,96],[75,-9],[56,-49],[12,-90],[-28,-63],[-43,-8],[-28,-38],[-49,30],[-47,131]],[[1564,6762],[94,12],[123,-2],[58,-31],[-26,-65],[-36,-13],[-139,7],[-30,-10],[-41,53],[-3,49]],[[821,16731],[24,38],[54,-11],[-13,-67],[-34,-7],[-31,47]]],"transform":{"scale":[0.00032706182795699514,0.00033360862305444576],"translate":[145.121162,14.110571]},"objects":{"MNP":{"type":"GeometryCollection","geometries":[{"arcs":[[0]],"type":"Polygon","properties":{"name":"Saipan","shapeGroup":"MNP","gid":"MNP-2-0"},"id":"MNP-2-0"},{"arcs":[[[1]],[[2]]],"type":"MultiPolygon","properties":{"name":"Tinian","shapeGroup":"MNP","gid":"MNP-2-1"},"id":"MNP-2-1"},{"arcs":[[3]],"type":"Polygon","properties":{"name":"Rota","shapeGroup":"MNP","gid":"MNP-2-2"},"id":"MNP-2-2"},{"arcs":[[[4]],[[5]],[[6]],[[7]],[[8]],[[9]]],"type":"MultiPolygon","properties":{"name":"Northern Islands","shapeGroup":"MNP","gid":"MNP-2-3"},"id":"MNP-2-3"}]}}}