{"type":"Topology","arcs":[[[9669,7647],[-2,-74],[38,-44],[2,-138],[29,-52],[-48,-23],[8,-112],[-26,-68],[-39,-47],[1,-50],[-56,-30],[-61,-60],[-38,-77],[-30,-102],[-101,-19],[48,-72],[7,-44],[-31,-85],[-34,-23],[-53,-62],[16,-33],[-46,-69],[-7,-60],[-27,-53]],[[9219,6250],[-34,-58],[-52,-34],[-15,-25],[-42,-50],[-39,-15],[-51,-102],[-105,-25],[-35,-61],[-79,-8]],[[8767,5872],[-535,-11],[-315,0]],[[7917,5861],[73,68],[18,122],[-2,79],[32,28],[10,42],[231,748],[-59,116],[141,240],[32,108],[85,-58],[-10,69],[14,105],[42,50],[-15,36],[6,43]],[[8515,7657],[192,10],[476,17],[89,67],[15,24],[59,-39],[97,-125],[50,-20],[52,11],[124,45]],[[8587,5776],[47,-8],[3,-27],[76,-87],[107,-30],[16,-72],[43,-71],[101,-88],[131,-10],[-122,-138],[98,-39],[11,-18]],[[9098,5188],[-20,-8],[-28,-62],[22,-3],[-62,-96],[-31,-122],[83,-74],[-34,-83],[51,-54],[-36,-40],[-13,-57],[53,-60],[-25,-35],[-34,-9],[12,-86],[-13,-38],[57,-33],[-8,-64],[-25,-18],[-45,-103],[73,-11]],[[9075,4132],[-46,-32],[-8,-30],[-93,-40],[-126,-83],[-96,-33],[-51,23],[1,6],[-43,2],[-52,-35],[-12,-34],[-66,-32],[-2,-43],[-34,-16],[-12,-62],[-41,-30],[-55,5],[-23,-46],[-61,-19]],[[8255,3633],[-65,36],[30,52],[-13,58],[-29,22],[-47,-5],[-67,-34],[-16,31],[76,118],[-21,103],[70,117],[-14,63],[-35,61],[-282,2],[-211,7]],[[7631,4264],[9,124],[-2,102],[-62,161],[55,47],[76,33],[33,44],[1,35],[-46,116],[-19,80],[21,25],[109,81],[47,24],[63,54],[47,0],[36,42],[-9,41],[110,105],[44,115],[48,70],[-10,13],[50,74],[59,25],[51,78],[85,15],[19,18],[57,2],[66,-22],[18,10]],[[8255,3633],[8,-39],[29,-30],[16,-78],[51,-41],[5,-48],[107,-146],[123,-59],[116,-114],[-27,-40],[53,-47],[4,-35],[97,-115],[61,-20],[102,-69],[-11,-43],[45,-53]],[[9034,2656],[-64,-93],[3,-31],[-45,-121],[-51,-174],[-38,-89],[-30,-105],[-83,-59],[-11,-28],[-46,-4],[-21,-57],[-59,-49],[-56,-26],[-13,-105],[15,-27],[-58,-57],[-108,-32],[-91,-102],[-7,-54],[15,-27]],[[8286,1416],[-74,25],[-36,-7],[-28,28],[-40,6],[-35,73],[4,66],[-43,95],[-98,6],[-81,52],[-44,9],[-27,137],[-31,15],[-54,86],[-42,11],[-55,39],[-50,-4],[-53,-26],[-48,28],[-23,57],[22,43],[-54,85],[-58,-36],[-27,2],[-14,49],[-80,39],[-23,-7],[-78,29],[-34,86],[17,69],[-65,79],[16,52],[-29,55],[-48,7],[-49,45],[-84,51],[-22,-30],[-98,-15],[-55,39],[-69,2],[-84,59],[-43,49],[-14,102],[-55,66],[-10,84],[23,29],[-36,34],[-21,49],[28,33],[5,48],[45,34],[53,61],[9,38],[33,29],[-57,40],[15,30],[-36,22],[-93,33],[-50,35],[-5,40],[-39,40],[-4,28],[-39,49],[-98,21],[-3,45],[-93,55],[-67,-11],[-46,39],[-45,3],[3,41],[-24,32],[16,35],[-22,22],[30,68],[-37,47],[33,41],[-11,24],[68,28],[0,68],[53,21],[39,52],[7,34],[46,14],[90,50],[64,-4]],[[6224,4513],[274,-95],[354,-129]],[[6852,4289],[779,-25]],[[9098,5188],[3,1],[68,24],[12,-42],[29,-24],[45,54],[71,18],[-25,-53],[20,-23],[-5,-49],[54,-23],[71,2],[37,-29],[36,-70],[-6,-13],[46,-84],[0,-28],[54,-50],[69,-42],[93,-11],[60,-40]],[[9830,4706],[-88,-181],[82,-596],[-1,-95],[-70,-103],[28,-27]],[[9781,3704],[-52,-46],[-80,86],[-69,49],[6,126],[-70,89],[-83,24],[-53,-1],[-3,42],[-32,17],[18,33],[-120,3],[-37,13],[-33,-15],[-98,8]],[[3583,24490],[60,-121],[0,-60],[51,-44],[-7,-51],[-54,-63],[118,-78],[-36,-53],[56,-39],[-4,-39],[44,-27],[-7,-47],[-44,10],[-76,-18],[-49,-23],[-16,-27],[-103,-68],[-81,-117],[-30,-32],[-58,-35],[-19,12],[-54,-37],[-74,-20],[-17,-49],[-82,-15],[-133,-59],[16,-34],[-23,-78],[72,-17],[36,33],[41,-48],[92,-32],[8,-57],[69,-10],[56,10],[67,-16],[5,-31],[65,-79],[1,-32],[147,-41],[69,27],[86,-6],[93,20],[38,-59],[8,-109],[48,-10],[1,-45],[810,-1040]],[[4773,21736],[-311,-142],[-622,-246]],[[3840,21348],[-94,-23],[-25,5],[12,64],[-35,32],[19,57],[-51,-13],[-46,24],[-22,53],[-40,36],[17,83],[-18,37],[-40,28],[-52,-9],[-76,55],[-48,-9],[-6,61],[-47,41],[18,72],[-8,23],[-53,21],[31,82],[-68,36],[21,30],[-24,72],[27,20],[11,78],[22,58],[25,21],[11,47],[-59,14],[-39,49],[-90,50],[-7,51],[-50,24],[-87,8],[-73,18],[-50,31],[-25,63],[-74,44],[-36,50],[-41,7],[-41,30],[-75,-12],[-84,74],[-54,22],[-2,27],[-37,28],[50,69],[1,76],[93,162],[-8,55],[32,69],[75,34],[-44,101],[-16,56],[-52,113],[-82,14],[-22,18],[-62,9],[-51,89],[-5,58],[-156,56],[-65,32],[20,49],[-32,53],[-7,65],[-41,39],[9,36],[53,39],[-17,50],[-31,31],[14,37],[-66,42],[-37,43],[-86,-4],[-16,-33],[-35,-15],[-108,40],[-40,5],[-29,-87],[32,-24],[-34,-33],[15,-36],[-45,-49],[-5,-41],[-65,28],[14,34],[-28,23],[-62,97],[-59,-1],[-29,-51],[-42,9],[-23,68],[-46,67],[-7,46],[-28,40],[34,65],[60,51],[28,46],[-3,72],[-84,23],[-57,-7],[-36,48],[-60,-8],[-59,-25],[-14,32],[19,51],[-27,27],[14,75],[-23,47],[65,69],[157,109],[39,-27],[43,-66],[3,-26],[74,-39],[84,-75],[163,-78],[68,-61],[76,-41],[133,-8],[92,-44],[58,52],[46,0],[48,19],[76,-44],[48,35],[72,21],[33,-26],[42,17],[65,-53],[20,-37],[54,-41],[32,11],[68,-32],[30,-47],[51,-31],[47,-65],[0,-67],[94,-59],[47,7],[88,-35],[28,20],[52,-24],[102,44],[63,77],[47,-5],[79,34],[106,-64],[94,-13]],[[6958,9836],[45,-83],[65,-27],[52,-41],[17,-100],[54,-64],[61,-39],[159,-45],[53,-4],[22,-31],[-13,-94],[-33,-36],[27,-31],[59,-7],[59,11],[69,31]],[[7654,9276],[6,-112]],[[7660,9164],[-556,-372],[-12,-33],[-44,-12],[-93,30],[-37,-32],[-57,-13],[-28,39],[-55,44],[-27,-51],[-81,1],[-26,31],[-99,58],[-3,-33],[-85,20],[-58,-6]],[[6399,8835],[-25,53],[-66,4],[-15,27],[-57,7],[-42,-37],[-68,-5],[-56,-23],[-42,24],[-76,-44],[-24,-43],[-61,-19],[-72,20],[-45,-14],[-57,-42],[-76,7],[-50,21],[-31,-23],[-165,-25],[-131,-29],[-12,-14],[6,-91],[-494,31],[-38,-1],[-26,30],[-44,-32],[-42,6],[-108,-79],[12,-40],[-44,-21],[-58,32],[-73,-48],[-53,-62],[-96,-24],[-24,44],[-72,19],[-43,41],[-28,1],[-63,60],[-34,9],[-67,-32],[6,-47],[-24,-71],[51,-98],[-39,-8],[-56,-42],[-2,-37],[-61,-43],[-91,55]],[[3623,8232],[47,59],[-31,69],[29,51],[11,59],[74,40],[11,41],[-50,46],[37,27],[28,68],[-9,27],[25,66],[-1,47],[6,2],[32,-1],[31,71],[120,16],[106,40],[115,118],[57,23],[56,59],[67,-35],[39,-1],[108,38],[13,18],[66,-17],[87,31],[28,38],[-12,73],[4,113],[33,42],[-4,48],[89,0],[48,38],[42,-39],[162,67],[-5,18],[53,73],[-4,45],[25,28],[84,-7],[10,73],[39,93],[37,9],[15,36],[60,26],[14,75],[46,51],[53,-5],[32,21],[33,101],[77,89],[31,110],[64,-19],[66,110],[55,5],[61,78],[16,40],[-2,7]],[[5947,10631],[137,-83],[-17,-43],[66,-79],[12,-31],[140,-129],[55,-62],[29,-72],[76,-45],[82,-99],[64,-29],[12,-36],[49,-48],[38,-11],[33,-59],[57,20],[70,-5],[108,16]],[[5332,11760],[17,-58],[1,-139],[15,-114],[-31,-69],[10,-17],[253,-214],[70,-7],[112,17],[74,41],[60,16],[30,-63],[-10,-41],[12,-75],[-11,-38],[85,-7],[13,-72],[-14,-28],[-164,-12],[-68,-32],[-5,-20]],[[5781,10828],[-5,-1],[-13,-29],[-60,-33],[-56,46],[-94,23],[-48,-46],[-53,-31],[-105,-32],[-136,-19],[-48,41],[-69,-30],[-36,-34],[-47,37],[-7,62],[-52,48],[-75,8],[-62,42],[-76,-10],[-31,52],[-212,21],[-116,-5],[-15,-25],[-54,-4],[-92,85],[-46,-1],[-22,-60],[-78,0],[-56,46],[29,55],[-6,51],[-44,65],[49,104],[-210,-46],[-28,-17],[-315,-45],[-90,-22],[-12,-46],[-43,-7],[-67,40],[-52,1],[-56,-32],[-76,9],[-24,67],[-54,51],[-84,-20],[-36,32],[28,74],[-16,82],[-34,52],[2,64],[-43,70],[20,153],[32,49],[-19,29],[-56,18],[-85,49],[-5,-2]],[[2722,11857],[7,42],[50,15],[60,126],[1,38],[30,11],[37,58],[9,46],[-26,28],[43,23],[-11,60],[-36,25],[26,57],[0,37],[102,-61],[92,-30],[41,21],[18,-32],[41,23],[-9,75],[58,-3],[-22,48],[7,43],[116,6],[44,40],[3,53],[-21,58],[70,26],[105,-12],[10,29],[39,13],[37,37],[99,24],[29,-14],[36,22]],[[3807,12789],[45,-19],[-31,-45],[20,-112],[-14,-26],[8,-71],[36,-35],[19,-72],[-7,-46],[82,-112],[18,-8],[102,-100],[50,-87],[2,-114],[45,-13],[73,-75],[46,-89],[86,36],[65,-11],[160,63],[41,10],[51,-60],[4,-24],[48,-24],[56,28],[27,-9],[84,32],[44,-5],[34,19],[41,-37],[-9,-57],[72,-33],[110,1],[82,39],[35,27]],[[3583,24490],[31,5],[58,-30],[78,22],[37,-15],[71,40],[24,41],[38,6],[151,-10],[53,-63],[53,-10],[43,-66],[108,-67],[104,-47],[94,-74],[77,-35],[-20,-40],[27,-42],[-65,-41],[-51,-64],[55,-60],[-15,-31],[0,-73],[31,-30],[-18,-33],[51,-142],[22,-18],[34,-69],[65,-35],[3,-100],[-37,-115],[71,-90],[-2,-35],[106,-123],[30,-10],[42,-68],[-15,-93],[48,-69],[51,-29],[55,-59],[41,-20],[41,-40],[6,-66],[85,-35],[49,-68],[24,-53],[37,-27],[49,-7],[26,-32],[83,-48],[60,-64],[-13,-57],[66,-42],[19,-49],[99,-60],[9,-23],[68,-31],[1,-41],[29,-47],[-17,-87],[50,-65],[-123,-43],[-62,-51],[-21,-46],[-1,-58],[93,-84],[-19,-21],[-90,-45],[-68,-44],[-24,-62]],[[5568,21302],[-100,50],[-114,-54],[-135,44],[-37,47],[-409,347]],[[2722,11857],[1,-3],[-80,-11],[-43,-53],[11,-32],[-19,-53],[26,-28],[4,-136],[-53,-12],[-37,-47],[-41,-6],[-39,-46],[-44,-6]],[[2408,11424],[-33,-12],[-67,64],[-34,67],[-75,-2],[-59,27],[10,34],[-52,55],[-77,63],[-110,52],[-44,35],[1,103],[-29,38],[-81,163],[30,28],[-11,97],[20,21],[-27,44],[-49,12],[-790,-47]],[[931,12266],[-20,48],[41,84],[39,129],[43,54],[62,2],[46,109],[34,20],[80,13],[8,31],[-33,26],[-42,85],[-64,62],[5,74],[-18,80],[23,36],[2,63],[32,45],[12,58],[-33,59],[35,35],[14,51],[53,35],[-3,56],[21,74],[2,70],[36,53],[-34,66],[-87,34],[-25,37],[-98,61],[-17,37],[8,64],[-1,146],[7,67],[43,45],[71,55],[52,60],[35,127],[57,78],[77,78],[74,50],[88,33],[42,-47],[38,-10],[68,43],[58,8],[131,-38],[-25,-87],[49,1],[35,68],[40,35],[54,12],[66,55],[83,121],[54,26],[99,13],[47,15],[52,-62],[62,-2],[57,-39],[48,34],[35,43],[95,56],[-18,43],[36,19],[76,77],[79,48],[27,-4],[47,33],[-46,73],[33,47],[92,16],[36,64],[41,5],[48,35]],[[3195,15457],[40,-17],[57,-1],[76,-3],[27,26],[64,6],[-90,-171],[5,-64],[-148,-38],[-37,-26],[40,-30],[14,-64],[65,-161],[58,-35],[2,-26],[-101,-89],[-12,-22],[14,-161],[47,-100],[26,-3],[92,49],[100,-96],[17,-55],[84,-87],[60,22],[60,2],[79,41],[59,59],[69,18],[87,37],[81,-108],[40,24],[128,-8]],[[4298,14376],[10,-46],[-38,-36],[-20,-43],[22,-63],[-24,-35],[-12,-86],[34,-63],[71,-2],[26,-44],[231,-21],[119,-27],[23,-28],[17,-98],[86,-42],[7,-25],[83,-32],[-19,-58],[-109,-39],[-45,-42],[-78,-19],[-22,-38],[-13,-82],[-30,-22]],[[4617,13385],[-50,-1],[-41,-18],[-23,-44],[-56,-5],[-55,-50],[-58,11],[-85,-36],[-3,-59],[23,-20],[-26,-32],[-110,-6],[-50,-58],[-59,-22],[-8,-50],[13,-45],[-69,-19],[-60,-54],[-87,-27],[-6,-61]],[[7645,16544],[78,-15],[-77,-71],[25,-64],[-48,-28],[-85,52],[30,19],[26,89],[51,18]],[[3623,8232],[-56,34],[-14,45],[-34,32],[-8,52],[23,36],[-12,46],[-72,101],[-42,33],[-52,14],[-36,-15],[-41,32],[4,33],[-53,84],[-59,46],[-62,0],[-85,47],[-81,19],[7,36],[-52,68],[-32,25],[14,31],[-22,77],[-80,89],[-24,61],[-38,19],[-31,86],[-52,45],[-11,69],[-30,24],[-38,-5],[-13,-30],[-43,13]],[[2498,9479],[-7,28],[34,29],[-4,82],[-68,87],[-11,50],[72,145],[-2,42],[-77,117],[12,29],[58,6],[12,66],[-54,99],[-88,91],[-43,64],[-4,57],[-36,55],[-35,0],[-69,51],[-10,80],[-40,31],[-19,64],[64,62],[-19,45],[18,75],[56,29],[17,42],[-56,82],[50,52],[66,102],[4,52],[56,28],[33,103]],[[5781,10828],[2,0],[-5,-44],[28,-18],[-11,-36],[-53,-21],[-63,-49],[-72,-83],[0,-7],[63,-32],[79,62],[40,15],[76,-5],[40,25],[40,-3],[2,-1]],[[9669,7647],[-25,110],[-29,43],[76,59],[16,36],[47,4],[73,-35],[60,-61],[10,-31],[36,-24],[63,-81],[104,-4],[32,-37],[71,25],[61,-60],[111,23],[85,68],[28,44],[5,42],[41,5],[104,57],[3,40],[36,-3],[7,99],[-25,89],[70,52],[27,86],[73,15],[63,41],[68,-27],[21,39],[72,21],[121,-19],[34,-25],[92,27],[37,-21],[60,19],[31,60],[49,43]],[[11477,8366],[371,-381],[1,-717],[172,-1],[-476,-892],[28,-96]],[[11573,6279],[-618,-7],[-225,-1],[-180,-44],[-27,3],[-69,-42],[-181,-34],[-70,16],[-11,37],[-127,70],[-102,0],[-34,-17],[-24,28],[-32,-37],[-8,3],[-49,-6],[-42,-64],[-35,-75],[-36,40],[-79,-1],[-151,44],[-48,-14],[-38,-39],[-7,-32],[-98,38],[-23,70],[-40,35]],[[8052,10180],[-23,4],[-58,51],[22,43],[38,-39],[21,-59]],[[8515,7657],[-46,73],[-67,13],[-83,34],[7,92],[-538,463],[54,169],[-72,68],[-9,48],[-31,28],[6,58],[-26,64],[9,139],[-25,35],[2,86],[-26,34],[-10,103]],[[7654,9276],[93,20],[165,60],[-9,51],[43,84],[-4,71],[-36,12],[17,69],[-7,48],[37,49],[51,20],[8,24],[68,4],[38,38],[-34,35],[-33,85],[-62,50],[-30,56],[84,64],[18,70],[52,-2],[98,-65],[37,-46],[59,-35],[-16,-33],[23,-55],[33,-1],[21,-39],[-25,-48],[-4,-61],[38,-7],[-4,-62],[29,-55],[40,-29],[53,-16],[58,2],[38,19],[53,-65],[104,-8],[27,-56],[45,-1],[92,-48],[18,-49],[5,-79],[16,-34],[42,-18],[46,-79],[50,-21],[46,-1],[49,-98],[54,-38],[1,-30],[46,-52],[55,-4],[76,-45],[24,-60],[67,-66],[129,99],[15,54],[64,30],[-1,42],[-45,55],[-27,51],[-32,15],[-18,54],[-26,14],[-18,77],[-65,30],[-23,32],[-12,214],[-56,14],[-38,47],[-22,109],[-46,46],[1,44],[-18,62],[40,41],[-24,39],[7,62],[-52,34],[-57,92],[-26,13],[-20,89],[-52,27],[-15,44],[23,36],[-13,85],[-31,46],[-20,133],[-31,55],[-38,18],[-31,48],[-54,219],[-27,63],[-78,24],[-130,19],[-139,-5],[-209,-27],[-94,0],[-13,18],[-83,10],[-38,50],[-35,114],[54,60],[10,116],[-17,30],[-6,67],[27,142],[41,111],[-9,100],[361,-322],[455,-376],[532,-612],[949,-923],[78,-177],[37,-123],[223,-230],[220,-206],[332,-344],[93,-101],[68,-83]],[[2498,9479],[-36,24],[-17,75],[-135,141],[15,43],[35,28],[-19,43],[45,49],[-1,41],[-43,49],[-8,49],[-26,48],[-57,31],[-49,-7],[-40,17],[-9,38],[-56,32],[-129,-13],[-56,75],[3,38],[-51,44],[-58,9],[-27,29],[-46,-12],[-28,-51],[-99,12],[-89,-48],[-75,-77],[9,-80],[-78,-68],[-52,0],[-56,50],[-50,5],[-33,72],[9,67],[32,80],[-27,38],[-64,29],[-56,-4],[-75,153],[-5,36],[-39,32],[-78,26],[-34,50],[-6,76],[-53,43],[-71,25],[-20,27],[-43,-9],[-17,28],[-53,21],[-43,-15],[-34,-40],[-25,1],[-41,61],[-79,15],[25,24],[30,67],[37,-2],[26,46],[41,30],[91,-11],[27,28],[-34,54],[-72,59],[-80,32],[21,42],[-26,39],[-121,41],[-36,-39],[-22,15],[-84,4],[-42,27],[-46,4],[-46,44],[-47,2],[-2,28],[54,50],[-25,42],[76,57],[82,-40],[75,-9],[65,40],[22,47],[53,-7],[89,57],[49,4],[52,39],[46,66],[-18,26],[21,46],[-22,40],[18,41],[91,-25],[113,83],[11,59],[48,23],[26,69],[-12,36],[17,83]],[[9830,4706],[91,1],[92,23],[48,40],[69,-39],[146,22],[41,41],[42,2],[75,99],[6,24],[84,53],[38,10]],[[10562,4982],[38,-52],[-15,-67],[-102,-100],[-30,-66],[72,-45],[13,-106],[-19,-60],[-8,-112],[51,-66],[24,-97],[52,-3],[70,-37],[19,-35],[60,-49],[58,32],[136,-101],[13,16],[-100,93],[-25,35],[79,59],[140,2],[50,-9],[14,-52],[109,-6],[38,-42],[62,-21],[40,-68],[37,-13],[15,-39],[-18,-44],[19,-36],[69,15],[21,-15],[90,-5]],[[11634,3888],[-28,-68],[-1,-104],[41,-28],[3,-103],[-32,-35],[-67,-31],[-69,-20],[-44,-63],[-62,-12],[-119,-50],[-26,-32],[-75,-9],[-43,32],[-27,-17],[-127,-48],[-46,-36],[-25,4],[-105,-22],[-83,10],[-65,-28],[1,-38],[-76,-61],[-14,27],[-63,15],[-6,24],[-56,29],[2,52],[-78,1],[-62,24],[-66,5],[-94,-40],[-25,-59],[-52,-39],[-127,-72],[-35,-46],[-101,-50],[-22,-32]],[[9760,2968],[-40,43],[-36,10],[-12,71],[11,49],[33,49],[48,23],[76,56],[8,50],[-42,43],[19,71],[-15,50],[-29,36],[-11,71],[35,18],[-3,62],[-21,34]],[[6224,4513],[39,3],[36,34],[15,43],[35,28],[1,51],[27,30],[33,-4],[18,45],[36,1],[67,50],[-23,18],[13,102],[51,21],[24,51],[-58,52],[19,37],[-6,110],[-23,33],[-8,51],[-22,24],[5,48],[-16,40],[71,67],[-19,57],[14,49],[89,-25],[99,65]],[[6741,5594],[25,-85],[-11,-55],[32,-31],[36,-104],[72,-16],[19,-29],[-5,-44],[61,-95],[31,-1],[25,-38],[-7,-34],[61,-69],[-11,-69],[5,-64],[59,-107],[-6,-32],[66,-30],[43,-43],[-12,-18],[100,-91],[1,-18],[76,-55],[32,-37],[22,-59],[-68,-18],[-81,21],[-67,2],[-86,33],[-71,-41],[-39,-73],[-191,-5]],[[3195,15457],[49,44],[-38,47],[-4,53],[-72,-22],[-128,20],[-30,34],[-67,-10],[-124,-48],[-95,4],[-116,-31],[-9,99],[-49,63],[-63,54],[-11,81],[-33,5],[-45,34],[9,143],[-24,85],[4,45],[-52,-3],[-117,50],[-18,69],[42,86],[18,57],[0,61],[31,33],[42,94],[34,27],[32,96],[-12,29],[20,51],[-6,43],[31,37],[20,95],[-21,82],[-47,33],[9,69],[56,59],[29,53],[13,79],[-47,48],[-13,36],[19,29],[-38,110],[8,118],[-16,66],[30,121],[-30,127],[-61,12],[-17,31],[-67,-7],[-16,20],[-121,-39],[-61,-7],[24,138],[57,19],[41,28],[-2,68],[-50,72],[30,52],[5,41],[-61,68],[-20,47],[35,74],[43,7],[11,-56],[60,-19],[31,-36],[34,-8],[30,40],[6,96],[-25,33],[26,64],[88,16],[-33,78],[25,34],[34,3],[16,46],[35,20],[-1,33],[58,93],[2,44],[91,60],[10,55],[44,37],[-12,52],[37,35],[-6,32],[32,38],[-66,48],[-41,1],[-19,35],[12,34],[-32,55],[-44,47],[-98,75],[4,57],[-34,20],[-21,94],[-19,13]],[[2360,19905],[55,-1],[81,-50],[86,9],[23,-12],[37,-62],[46,-4],[43,44],[44,-6],[54,-28],[-9,-34],[14,-121],[-6,-47],[-46,-81],[37,-7],[57,19],[116,54],[68,104],[67,64],[42,75],[70,24],[42,-50],[31,2],[157,-94],[97,-2],[66,29],[51,3],[55,-25],[13,-41],[42,-67],[36,22],[23,-2],[70,7],[29,43],[10,64],[-42,56],[6,3],[49,15],[9,13],[-6,-1],[-6,0],[20,30],[66,-10],[56,29],[41,-4],[13,9],[59,-4],[53,-26],[29,11],[79,-3],[45,-29],[107,13],[37,-10],[51,12],[10,69],[33,40],[-6,6],[0,50],[35,50],[80,-34],[34,-53],[54,-49],[53,-14],[66,-63],[47,-26],[82,-84],[-13,-32],[23,-77]],[[5125,19621],[-23,-23],[16,-44],[-20,-80],[-19,-8],[-23,-83],[-85,-83],[-21,-40],[7,-68],[-1,-9],[17,-19],[-35,-55],[19,-53],[50,3],[65,-33],[-3,-62],[-26,-41],[-5,-76],[47,-102],[-4,-63],[20,-21],[96,16],[58,-81],[-26,-42],[51,-67],[-31,-68],[-45,-4],[-43,-64],[-48,-40],[-106,35],[-33,-23],[-92,-4],[-62,20],[-38,-82],[-11,-73],[-52,-22],[-48,-45],[-43,43],[-74,20],[-50,-16],[-82,35],[-7,-23],[-86,-74],[-2,-27],[-74,-25],[-32,7],[-38,-33],[-47,-10],[-29,-53],[-41,-45],[16,-52],[-44,4],[-65,-25],[-26,-38],[-7,-44],[17,-3],[56,-55],[17,-40],[-15,-47],[14,-27],[-30,-76],[29,-36],[134,-41],[-32,-77],[17,-23],[93,0],[109,-45],[0,-109],[-84,-125],[-112,1],[-55,-28],[58,-65],[-6,-48],[18,-46],[31,-31],[-8,-34],[-58,-51],[42,-42],[41,-12],[28,-43],[65,8],[37,-50],[-93,-10],[-67,-17],[-36,-65],[-55,-41],[4,-51],[32,-97],[64,-94],[9,-44],[61,-55],[4,-4]],[[4269,16138],[5,-11],[-41,-62],[-58,-15],[-99,-90],[-70,-26],[-4,-92],[15,-43],[-14,-69],[25,-33],[78,-23],[17,38],[6,-8],[11,-48],[102,19],[34,-24],[73,-22],[56,8],[8,-125],[21,-31],[63,-5],[10,-8],[22,-18],[-54,-104],[29,-62],[8,-81],[96,-71],[25,-36],[34,37],[62,19],[70,-44],[73,-68],[91,-22],[7,-1],[53,-14],[68,41],[101,40],[27,1],[40,-40],[-27,-45],[-35,-1],[-42,-56],[18,-25],[-38,-57],[14,-35],[-76,-18],[-41,16],[-125,-37],[-54,-41],[-37,-9],[-21,-58],[-161,4],[-31,-49],[-69,2],[-16,-35],[-56,-25],[-69,-94],[-27,-64],[-68,-42]],[[8767,5872],[-38,-19],[-34,12],[-94,-52],[-14,-37]],[[6741,5594],[51,-5],[50,82],[-12,40],[7,71],[46,26],[38,52],[45,-32],[22,34],[56,13],[-16,46],[106,81],[10,48],[-15,38],[20,65],[-72,91]],[[7077,6244],[32,12],[119,-59],[43,0],[110,-31],[23,-28],[45,42],[96,-47],[72,1],[86,-11],[28,9],[106,-35],[51,-64],[36,-79],[-6,-39],[-27,-23],[26,-31]],[[5125,19621],[73,58],[130,21],[50,-6],[66,50],[43,1],[29,24],[58,14],[92,175],[55,-15]],[[5721,19943],[-19,-52],[36,-158],[-1,-55],[39,-55],[16,-49],[-43,-102],[-40,-17],[-32,-81],[7,-93],[32,-69],[56,-49],[-52,-56],[8,-75],[35,-78],[77,-28],[28,-44],[20,-136],[42,-97],[-12,-108],[37,-109],[-7,-89],[-25,-85],[8,-30],[101,-147],[-13,-99],[49,-111],[-7,-28],[52,-36],[7,-44],[-44,-128],[-56,-43],[7,-24],[-179,-64],[-30,-54],[-34,-33],[-14,-39],[-142,-62],[-61,-46],[-6,-42],[15,-63],[-23,-23],[-23,-92],[6,-51],[46,-51],[-146,-65],[-165,-81],[-67,-50],[-6,-39],[-75,-63],[-22,-46],[4,-76],[18,-33],[17,-77],[-70,-113],[-32,-102],[-30,-58],[0,-48],[-25,-77],[11,-100]],[[4994,15920],[-104,43],[-43,-29],[-65,21],[-37,33],[-170,32],[-48,45],[-47,7],[-31,-20],[-32,53],[0,39],[-46,9],[-102,-15]],[[4994,15920],[-27,-76],[65,-57],[1,-71],[32,-63],[41,-50],[29,-60],[119,-122],[-5,-38],[59,-15],[87,1],[64,-32],[70,22],[32,-62],[9,-90],[23,-92],[38,-54],[20,-87],[-74,-102],[-24,-52],[-5,-79],[27,-138],[81,-163],[79,-90],[99,-79],[72,-16],[27,-34],[-55,-144],[-15,-83],[39,-57],[98,-82],[40,-71],[-14,-36],[8,-133],[38,-24],[-4,-39],[21,-66],[43,-54],[22,-80],[-31,-51],[-9,-72],[14,-29],[-11,-46],[24,-52],[-4,-75],[34,-131],[-19,-28],[14,-64],[-2,-70],[19,-141],[13,-25],[-15,-51],[-34,-18],[-93,-87],[-43,-74],[34,-71],[-8,-76],[44,-45],[45,-73]],[[6126,12073],[-73,-66],[-12,-27],[-199,-10],[-70,-54],[-77,-8],[-41,-41],[-38,3],[-32,-31],[-68,3],[-53,-20],[-16,-24],[-58,-5]],[[5389,11793],[-49,170],[-19,188],[-14,78],[40,94],[-46,-11],[-6,86],[-24,51],[-24,11],[-18,64],[12,25],[53,12],[23,27],[-77,315],[-81,-25],[-55,0],[3,79],[25,72],[-80,1],[-155,-19],[7,-28],[-20,-90],[-40,-23],[-91,15],[-29,33],[40,37],[-2,61],[-49,11],[-16,48],[-83,11],[-6,104],[-29,48],[38,147]],[[9034,2656],[41,-44],[98,-38],[35,-105],[26,-8],[122,8],[106,-102],[49,7],[51,-27],[34,3]],[[9596,2350],[5,-91],[-16,-120],[-40,-54],[-114,-22],[-46,-31],[3,-42],[-76,-4],[-38,-29],[0,-41],[-117,-55],[17,-71],[22,-29],[19,-67],[41,3],[-7,-47],[62,-16],[42,-31],[36,-4],[26,-52],[40,22],[29,-32],[14,-51],[37,-24],[36,4],[65,-83],[46,-14],[1,-48],[-20,-31],[24,-65],[38,-42],[-39,-43],[6,-47],[57,-46],[4,-34],[30,-29],[-33,-49],[3,-34],[-49,-61],[-42,-14],[9,-34],[-42,-24],[44,-26],[-63,-98],[-9,-51],[11,-40],[102,-44],[34,-30],[-10,-45],[-32,-33],[13,-42],[-19,-47],[35,-48],[-14,-28],[38,-35],[8,-41],[-33,-56],[19,-25],[8,-66],[-43,-9],[-740,-4],[-18,32],[-47,23],[40,64],[-15,48],[-111,113],[29,73],[-33,46],[30,41],[73,27],[44,-3],[55,32],[58,4],[40,18],[43,93],[81,5],[-8,60],[-77,156],[34,37],[18,58],[-36,41],[-134,47],[-71,-19],[-26,18],[-52,-3],[-44,-44],[-79,13],[-28,15],[0,41],[-108,32],[-8,24],[-50,17],[19,49],[-29,27],[-16,54],[-39,-5],[-99,27],[-47,-22],[-48,5],[-33,172]],[[7077,6244],[-29,33],[27,52],[-28,57],[-3,51],[17,37],[-39,42],[8,39],[70,50],[-14,37],[-61,22],[7,51],[59,55],[55,26],[9,58],[48,31],[12,35],[-36,35],[13,39],[-65,19],[-24,45],[-9,72],[-32,46],[-9,50],[-50,35],[45,76],[-2,100],[-15,64],[44,44],[-35,60],[-34,33],[5,31],[-77,67],[-61,164],[-36,53],[60,26],[18,67],[38,35],[-31,41],[1,96],[-26,53],[-29,20],[-14,46],[-36,42],[-64,0],[-15,45],[-65,22],[-90,112],[-17,69],[-58,51],[-37,65],[-6,38],[-67,54]],[[5389,11793],[-57,-33]],[[10562,4982],[50,70],[-14,27],[28,56],[26,-14],[38,37],[100,18],[23,30],[69,16],[72,82],[20,52],[88,34],[42,66],[668,3]],[[11772,5459],[-45,-446],[-9,-148],[-15,-137],[-14,-71],[-55,-769]],[[5568,21302],[-14,-53],[22,-37],[35,-19],[34,-80],[-23,-73],[4,-93],[-28,-46],[96,-102],[14,-28],[-10,-59],[-25,-35],[28,-73],[-27,-53],[-4,-41],[37,-65],[-7,-56],[12,-78],[18,-23],[-11,-49],[18,-86],[-11,-34],[13,-51],[-16,-30],[16,-76],[-18,-19]],[[2360,19905],[-44,35],[27,43],[13,64],[2,83],[-26,8],[-39,63],[-34,23],[-20,44],[-89,-27],[-38,46],[77,86],[71,6],[45,-19],[60,17],[42,65],[3,37],[34,40],[92,-16],[44,14],[94,54],[39,-19],[95,-10],[68,-21],[48,19],[13,40],[35,34],[77,15],[33,47],[37,-1],[75,80],[-19,22],[74,37],[29,61],[117,123],[29,56],[59,-16],[62,49],[65,83],[69,17],[29,32],[32,-3],[14,44],[28,6],[58,82]],[[7265,11421],[-45,52],[-27,67],[65,-28],[21,-72],[-14,-19]],[[6126,12073],[65,-89],[60,-33],[6,-62],[29,-20],[-11,-46],[30,-29],[41,-79],[40,-29],[41,-77],[73,-55],[40,-55],[83,-4],[50,15],[40,38],[69,-12],[18,-45],[111,-58],[29,-55],[63,-60],[118,-56],[4,-77],[43,-12],[15,-30],[66,-28],[-75,-103],[-12,-50],[51,-54],[-34,-34],[-93,-122],[20,-119],[-47,-66],[3,-44],[-23,-56],[-60,-57],[-41,-13],[-58,-41],[-51,-75],[23,-105],[40,-99],[-3,-57],[48,-109],[21,-75]],[[9760,2968],[-5,-28],[-48,-45],[18,-81],[-13,-67],[-29,-33],[-5,-43],[-29,-47],[81,-83],[-36,-60],[-89,-78],[-9,-53]],[[11573,6279],[89,-296],[118,-417],[-8,-107]]],"transform":{"scale":[0.0002699355342784196,0.0003072954359852022],"translate":[32.673522099565275,-17.12627881421588]},"objects":{"MWI":{"type":"GeometryCollection","geometries":[{"arcs":[[0,1,2,3,4]],"type":"Polygon","properties":{"name":"Balaka","shapeGroup":"MWI","gid":"MWI-2-0"},"id":"MWI-2-0"},{"arcs":[[5,6,7,8,9]],"type":"Polygon","properties":{"name":"Blantyre","shapeGroup":"MWI","gid":"MWI-2-1"},"id":"MWI-2-1"},{"arcs":[[-9,10,11,12,13,14]],"type":"Polygon","properties":{"name":"Chikwawa","shapeGroup":"MWI","gid":"MWI-2-2"},"id":"MWI-2-2"},{"arcs":[[-7,15,16,17]],"type":"Polygon","properties":{"name":"Chiradzulu","shapeGroup":"MWI","gid":"MWI-2-3"},"id":"MWI-2-3"},{"arcs":[[18,19,20]],"type":"Polygon","properties":{"name":"Chitipa","shapeGroup":"MWI","gid":"MWI-2-4"},"id":"MWI-2-4"},{"arcs":[[21,22,23,24,25,26]],"type":"Polygon","properties":{"name":"Dedza","shapeGroup":"MWI","gid":"MWI-2-5"},"id":"MWI-2-5"},{"arcs":[[27,28,29,30]],"type":"Polygon","properties":{"name":"Dowa","shapeGroup":"MWI","gid":"MWI-2-6"},"id":"MWI-2-6"},{"arcs":[[-19,31,32]],"type":"Polygon","properties":{"name":"Karonga","shapeGroup":"MWI","gid":"MWI-2-7"},"id":"MWI-2-7"},{"arcs":[[-30,33,34,35,36,37,38]],"type":"Polygon","properties":{"name":"Kasungu","shapeGroup":"MWI","gid":"MWI-2-8"},"id":"MWI-2-8"},{"arcs":[[39]],"type":"Polygon","properties":{"name":"Likoma","shapeGroup":"MWI","gid":"MWI-2-9"},"id":"MWI-2-9"},{"arcs":[[-26,40,41,-34,-29,42]],"type":"Polygon","properties":{"name":"Lilongwe","shapeGroup":"MWI","gid":"MWI-2-10"},"id":"MWI-2-10"},{"arcs":[[-1,43,44,45]],"type":"Polygon","properties":{"name":"Machinga","shapeGroup":"MWI","gid":"MWI-2-11"},"id":"MWI-2-11"},{"arcs":[[[46]],[[-5,47,-23,48,-44]]],"type":"MultiPolygon","properties":{"name":"Mangochi","shapeGroup":"MWI","gid":"MWI-2-12"},"id":"MWI-2-12"},{"arcs":[[-35,-42,49]],"type":"Polygon","properties":{"name":"Mchinji","shapeGroup":"MWI","gid":"MWI-2-13"},"id":"MWI-2-13"},{"arcs":[[-17,50,51,52,53]],"type":"Polygon","properties":{"name":"Mulanje","shapeGroup":"MWI","gid":"MWI-2-14"},"id":"MWI-2-14"},{"arcs":[[-14,54,55]],"type":"Polygon","properties":{"name":"Mwanza","shapeGroup":"MWI","gid":"MWI-2-15"},"id":"MWI-2-15"},{"arcs":[[-37,56,57,58,59]],"type":"Polygon","properties":{"name":"Mzimba","shapeGroup":"MWI","gid":"MWI-2-16"},"id":"MWI-2-16"},{"arcs":[[-3,60,-10,-15,-56,61,62]],"type":"Polygon","properties":{"name":"Neno","shapeGroup":"MWI","gid":"MWI-2-17"},"id":"MWI-2-17"},{"arcs":[[-59,63,64,65]],"type":"Polygon","properties":{"name":"Nkhata Bay","shapeGroup":"MWI","gid":"MWI-2-18"},"id":"MWI-2-18"},{"arcs":[[-38,-60,-66,66,67,68]],"type":"Polygon","properties":{"name":"Nkhotakota","shapeGroup":"MWI","gid":"MWI-2-19"},"id":"MWI-2-19"},{"arcs":[[-12,69,70]],"type":"Polygon","properties":{"name":"Nsanje","shapeGroup":"MWI","gid":"MWI-2-20"},"id":"MWI-2-20"},{"arcs":[[-4,-63,71,-24,-48]],"type":"Polygon","properties":{"name":"Ntcheu","shapeGroup":"MWI","gid":"MWI-2-21"},"id":"MWI-2-21"},{"arcs":[[-31,-39,-69,72]],"type":"Polygon","properties":{"name":"Ntchisi","shapeGroup":"MWI","gid":"MWI-2-22"},"id":"MWI-2-22"},{"arcs":[[-52,73,74]],"type":"Polygon","properties":{"name":"Phalombe","shapeGroup":"MWI","gid":"MWI-2-23"},"id":"MWI-2-23"},{"arcs":[[-20,-33,75,-64,-58,76]],"type":"Polygon","properties":{"name":"Rumphi","shapeGroup":"MWI","gid":"MWI-2-24"},"id":"MWI-2-24"},{"arcs":[[[77]],[[-27,-43,-28,-73,-68,78]]],"type":"MultiPolygon","properties":{"name":"Salima","shapeGroup":"MWI","gid":"MWI-2-25"},"id":"MWI-2-25"},{"arcs":[[-8,-18,-54,79,-70,-11]],"type":"Polygon","properties":{"name":"Thyolo","shapeGroup":"MWI","gid":"MWI-2-26"},"id":"MWI-2-26"},{"arcs":[[-2,-46,80,-74,-51,-16,-6,-61]],"type":"Polygon","properties":{"name":"Zomba","shapeGroup":"MWI","gid":"MWI-2-27"},"id":"MWI-2-27"}]}}}