{"type":"Topology","arcs":[[[4264,8856],[20,-70],[-40,-132]],[[4244,8654],[-51,15],[-8,25],[-56,8],[-43,56],[-52,7]],[[4034,8765],[-25,75],[36,76],[86,-54],[105,9],[28,-15]],[[4264,8856],[182,-72]],[[4446,8784],[-23,-29],[11,-54],[-51,-24],[63,-50],[-44,-49],[28,-57],[-3,-45],[-81,-42],[-4,-28]],[[4342,8406],[-27,-78]],[[4315,8328],[-63,8],[-47,33]],[[4205,8369],[22,86],[-54,76],[-52,30],[15,24],[82,5],[26,64]],[[4342,8406],[107,6],[74,-85],[21,-8],[110,54]],[[4654,8373],[106,-118]],[[4760,8255],[-76,-92],[-92,-72]],[[4592,8091],[-29,1],[-49,45],[-50,-47],[-67,17],[-3,24],[-56,75],[4,102],[-27,20]],[[4205,8369],[-22,-40],[-1,-1]],[[4182,8328],[-110,25],[-68,-25],[-65,8],[-50,40],[-79,2],[-38,-23]],[[3772,8355],[-5,69],[24,9],[4,55],[88,101],[94,62],[57,114]],[[4592,8091],[-56,-77],[-31,-23]],[[4505,7991],[-40,-27],[-74,0],[-52,-23],[-139,20],[4,-30],[-36,-29],[-28,29],[-54,-33],[-17,21]],[[4069,7919],[-5,80],[54,-2],[3,105],[13,53],[28,21],[-13,39],[33,94],[0,19]],[[4069,7919],[-34,-36],[6,-35],[-83,-41],[-23,-41],[-3,-50],[-57,16]],[[3875,7732],[-24,20],[-54,129],[39,56],[-26,77],[-93,103],[-30,79]],[[3687,8196],[-5,32],[62,20],[44,49],[-16,58]],[[3875,7732],[-7,-118],[-32,-3],[8,-58],[-120,-120],[-192,14]],[[3532,7447],[-73,69]],[[3459,7516],[-11,103],[17,68],[-81,-6],[-68,40],[30,41],[16,58],[-35,32],[-9,93],[62,74],[-9,88]],[[3371,8107],[108,64],[34,-20],[22,-50],[32,-16],[46,72],[49,12],[25,27]],[[4505,7991],[18,-93],[17,-24],[-6,-58],[14,-51],[-38,-55],[17,-34],[12,-95],[-29,-31],[98,-94]],[[4608,7456],[-26,-28],[-15,-79]],[[4567,7349],[-108,-6],[-96,-65],[-267,0],[12,-130],[-93,-2],[-112,16],[-201,130],[-115,42],[-55,113]],[[3459,7516],[16,-42],[-19,-27],[-116,-51],[-78,40],[-75,-40],[-9,-59],[-83,-47],[-17,-104],[-34,-28],[-21,-116],[10,-39],[-34,-31],[-7,-72],[-44,-59]],[[2948,6841],[-15,-11]],[[2933,6830],[-97,-24],[-2,100],[-49,35],[-24,-9],[-47,30],[-30,-16],[-35,28],[-88,-31],[-34,22],[-61,-8],[-38,21],[-58,-15],[-53,-70],[-33,-87],[-33,-3],[-153,25],[-66,-26]],[[2032,6802],[-18,26],[47,38],[-10,65],[49,64]],[[2100,6995],[3,74],[20,44],[-63,81],[36,25],[17,40],[37,11],[-2,61],[-20,32],[-17,82],[-40,103],[-53,15]],[[2018,7563],[1,59],[24,48],[32,-3],[48,36],[20,60],[2,65],[-23,50],[60,55],[24,84],[-47,63],[-9,49],[49,9],[53,-26]],[[2252,8112],[87,-42],[56,-56],[72,-137],[117,72],[67,70],[-7,84],[21,58],[35,40],[102,-7],[47,36],[35,72],[100,-11],[54,7],[83,78],[55,12],[75,-29],[12,-48],[55,-6],[-1,-92],[51,-66],[3,-40]],[[2100,6995],[-73,-14],[-32,25],[-33,-13],[-111,21],[-20,12],[-53,-32]],[[1778,6994],[-5,50],[-64,28],[-75,-3],[-13,18]],[[1621,7087],[10,43],[54,39],[50,96],[57,37],[12,64]],[[1804,7366],[116,23],[69,53],[5,89],[22,30]],[[2016,7561],[2,2]],[[1621,7087],[-60,-30],[-7,-41],[-55,-35],[-63,32],[9,38],[-42,27]],[[1403,7078],[26,17],[69,-3],[-20,174]],[[1478,7266],[47,22],[108,-37],[89,82],[7,59],[35,14],[40,-40]],[[1403,7078],[-145,-21],[-16,9]],[[1242,7066],[29,50],[20,113],[-25,73],[26,21]],[[1292,7323],[71,5],[54,20],[51,-14]],[[1468,7334],[10,-68]],[[1292,7323],[-36,61],[4,33],[-61,69]],[[1199,7486],[33,24],[20,53],[51,7],[11,33],[88,-38],[55,-1]],[[1457,7564],[-3,-101],[14,-129]],[[1199,7486],[-10,29],[30,94],[-24,137],[-44,64]],[[1151,7810],[52,12],[86,-35],[104,10],[70,-20]],[[1463,7777],[-6,-213]],[[1463,7777],[48,-36],[77,26]],[[1588,7767],[53,27],[69,-37],[10,-37],[40,-48],[-16,-62],[37,-19],[10,-37],[47,-29],[69,15],[25,-32],[84,53]],[[1098,7396],[-27,-78],[-103,12],[-84,-7],[31,44],[-20,116],[7,84],[-13,60],[91,-4]],[[980,7623],[12,-133],[58,-87],[48,-7]],[[980,7623],[33,30],[95,-34],[5,-45],[44,-20],[-40,-78],[-19,-80]],[[1588,7767],[43,105],[54,31],[-2,73],[-15,49],[15,87]],[[1683,8112],[12,-84],[44,-38],[72,54],[98,4],[75,-14],[55,42],[-33,38],[38,66],[-11,48],[26,65],[9,61],[-12,65],[-38,60],[16,22],[134,72],[65,13],[160,7]],[[2393,8593],[31,-33],[-15,-54],[29,-30],[-91,-97],[-62,-9],[-38,-130],[-27,-34],[-3,-42],[35,-52]],[[1151,7810],[8,161],[24,13],[-8,59]],[[1175,8043],[50,-1],[30,60],[58,68],[14,60],[39,31],[-10,27]],[[1356,8288],[45,3],[181,-45]],[[1582,8246],[51,-46],[0,-42],[50,-46]],[[1175,8043],[13,39],[9,120],[-18,119],[-10,144]],[[1169,8465],[97,-3]],[[1266,8462],[24,-7],[48,-72],[-7,-42],[25,-53]],[[1266,8462],[-39,118],[94,-2],[52,63]],[[1373,8641],[62,-6],[50,47],[100,21],[62,-7]],[[1647,8696],[-7,-59],[35,-76],[62,-55],[-21,-34]],[[1716,8472],[-39,-31],[-51,-82],[-25,-22],[-19,-91]],[[1716,8472],[31,-29],[54,42],[1,71],[31,35],[49,17],[10,64],[37,93],[59,-3],[19,32],[-9,96]],[[1998,8890],[26,18],[52,-10],[28,23],[102,47],[49,-46],[136,17],[36,-66],[7,-55],[-74,-30],[-1,-52],[78,-40],[8,-27],[-52,-76]],[[1169,8465],[-14,54],[-50,103],[-44,44],[-20,94],[-26,49]],[[1015,8809],[49,66],[98,16],[47,-32],[69,-18],[25,24],[45,-8]],[[1348,8857],[19,-27],[-10,-51],[-42,-53],[6,-36],[52,-49]],[[1348,8857],[19,45],[65,27]],[[1432,8929],[55,-105],[64,61],[11,-49],[84,-104],[1,-36]],[[1432,8929],[29,71],[-38,41],[-2,48],[34,46],[60,26],[8,51],[41,11],[6,72]],[[1570,9295],[103,-46],[82,37],[24,40],[47,-58],[43,3],[60,-32],[18,-65],[-4,-81],[47,-71],[-25,-24],[33,-108]],[[1015,8809],[-35,68],[-70,49]],[[910,8926],[19,64],[123,130],[35,55],[103,85],[12,125],[-27,39],[-6,33]],[[1169,9457],[13,-39],[74,-25],[27,-26],[65,21],[51,-10],[39,-55],[92,-10],[40,-18]],[[910,8926],[-44,77],[-18,59],[-60,141],[68,114],[-8,119],[47,33],[-27,74],[23,53],[-5,65],[16,37],[41,2],[39,-46],[95,19],[-4,-39],[55,-28],[-32,-87],[73,-62]],[[303,8926],[35,25],[29,-55],[-41,-16],[-42,-82],[-61,49],[-8,23],[52,89],[36,-33]],[[393,9212],[50,-55],[-14,-60],[16,-45],[-96,-45],[-37,39],[-43,-13],[-54,-61],[-60,-11],[-33,73],[2,62],[-106,10],[-15,33],[-3,85],[85,7],[154,-21],[60,62],[41,6],[9,-53],[44,-13]],[[1778,6994],[22,-143],[-13,-76],[-82,-50],[-78,-61],[-8,-70],[-109,22]],[[1510,6616],[-112,25],[-16,39],[8,47],[-72,-10],[-55,131],[-41,61],[-32,107],[52,50]],[[2032,6802],[-36,-134],[-76,-52],[-2,-109],[13,-27],[-48,-126],[43,-90],[-39,-97],[-80,-101]],[[1807,6066],[-1,-1],[-186,12]],[[1620,6077],[-8,41],[-65,22],[23,99],[92,71],[-55,12],[-40,-18],[-27,119],[18,43],[-34,45],[-28,69],[14,36]],[[2933,6830],[39,-49],[10,-99],[-86,-99],[24,-37],[-29,-59],[-37,-30],[20,-65],[-23,-21],[-52,7],[-12,-44]],[[2787,6334],[-39,-11],[-40,58],[-24,6],[-61,61],[-28,-6],[-49,42],[-114,10],[-107,-43],[-32,-64],[-38,-122],[3,-81],[-29,-56]],[[2229,6128],[-111,-9],[-41,17],[-78,-21]],[[1999,6115],[-192,-49]],[[4608,7456],[51,-7],[99,-35],[17,33],[67,19],[15,188]],[[4857,7654],[39,-13],[65,-90],[-9,-42],[44,-29],[19,-62],[45,-1],[20,-39],[-2,-92],[104,-63],[98,71],[68,-43],[11,-40],[49,-44],[58,21],[40,40]],[[5506,7228],[51,20],[42,-41]],[[5599,7207],[19,-68],[-3,-42],[43,-54],[59,-9],[39,-74],[51,-45],[61,-74],[31,-56]],[[5899,6785],[-22,-42],[-35,-18],[-32,43],[-108,-5],[-44,-40],[8,-67],[-14,-28],[-63,-3],[-15,-36],[-61,11],[-25,-38],[-49,-16],[-89,2],[-6,-106],[-72,-38],[-2,-75]],[[5270,6329],[-101,-17],[-87,26],[-43,44],[-26,0],[-48,79]],[[4965,6461],[12,37],[-48,110],[-159,90],[-56,-4],[24,97],[-35,69],[26,23],[-1,61],[-23,35],[46,52],[-69,52],[-16,31],[-65,38],[-42,4],[19,59],[-14,28],[3,106]],[[4857,7654],[41,57],[4,83],[-11,36],[48,17],[37,62],[-6,92],[-16,31],[21,34]],[[4975,8066],[56,-59],[177,-130],[73,-74],[110,-59],[75,-7],[56,-52]],[[5522,7685],[-102,-104],[-40,4],[17,-106],[-14,-22],[22,-69],[9,-83],[79,-66]],[[5493,7239],[13,-11]],[[5493,7239],[1,107],[44,12],[92,62],[39,2],[19,-31],[54,2],[27,30]],[[5769,7423],[64,-126]],[[5833,7297],[-95,-40],[-36,33],[-43,2],[-22,-56],[-38,-29]],[[2948,6841],[109,-63],[91,-36],[340,-3],[48,-6],[-35,71],[36,26],[49,-39],[-18,-77],[43,-58],[7,-128],[-35,-65]],[[3583,6463],[-35,2],[-37,-31],[1,-124],[-17,-73],[-20,-25],[-50,-2],[-78,-23],[-19,-49],[-69,-33],[-53,14]],[[3206,6119],[-34,40],[-29,-3],[-51,58],[-62,-17],[-24,-42],[-30,1],[-34,46],[-44,20],[-45,-4]],[[2853,6218],[-22,66],[-44,50]],[[3206,6119],[-13,-101],[33,-91],[11,-58],[-26,-26],[-11,-54],[-44,7],[-70,-48],[-118,-7]],[[2968,5741],[-31,23],[31,62],[-85,51],[-57,-19],[-40,57]],[[2786,5915],[44,76],[44,51],[-44,49]],[[2830,6091],[-15,83],[38,44]],[[4965,6461],[-78,33],[-23,-64],[13,-68],[-54,-17],[-28,27],[-71,-65],[-71,61],[-38,12],[-109,2],[-17,-50],[-48,-69],[-45,-9],[-73,43],[-60,-15],[-10,-34]],[[4253,6248],[-38,9],[-46,43],[0,24],[-60,42],[-44,91],[-103,-50],[-111,27],[-51,23],[6,-64],[-22,-93],[-21,-16],[-25,-69],[-27,6],[-17,93],[-59,24],[-8,52],[-36,-3],[-8,76]],[[5899,6785],[12,-77],[54,-18],[33,-50],[32,15],[58,-43],[75,38]],[[6163,6650],[64,-100],[20,-58],[-26,-32],[43,-111],[1,-57],[-29,-12],[37,-96]],[[6273,6184],[-117,-10],[-64,13],[-81,-71],[8,-61],[-26,-34],[10,-43],[-99,-27],[-22,50],[-40,6],[-31,-75],[-47,-32],[-27,35],[-77,-32],[-61,18],[-34,-44]],[[5565,5877],[-29,63],[-58,48],[-117,-9],[-85,50],[-14,91],[53,19],[20,66],[-65,124]],[[2786,5915],[-40,-76],[9,-23],[-42,-55],[-79,15],[-80,-34],[6,-55],[-136,-77],[-71,2]],[[2353,5612],[0,2]],[[2353,5614],[23,41],[-17,92],[7,79],[-47,71],[58,62],[46,-1],[15,61],[54,-8],[187,81],[151,-1]],[[2353,5614],[-108,6],[-19,54],[25,19],[5,65],[-110,93],[7,96],[76,181]],[[2353,5612],[50,-112]],[[2403,5500],[-136,-109],[10,-59],[-96,-51],[-63,-14],[-47,-71]],[[2071,5196],[-35,-48],[-31,21],[11,88],[-56,20]],[[1960,5277],[-30,60],[-81,90],[13,81],[34,41],[12,95],[42,30],[-7,115],[-23,42],[-3,165],[74,9],[13,26],[-5,84]],[[2403,5500],[54,-53],[25,-60],[147,-136],[8,-288]],[[2637,4963],[-27,24],[-199,22],[-40,18],[-128,25],[-62,46],[3,28],[-44,51],[-31,-16],[-38,35]],[[2795,4700],[-63,-42],[-81,6],[-12,76]],[[2639,4740],[10,15],[-10,182]],[[2639,4937],[24,5],[95,-54],[110,41],[-3,79],[-26,21],[106,103],[43,-5],[22,76],[-11,42],[33,13],[23,94],[31,43]],[[3086,5395],[28,15],[43,-29],[38,-52]],[[3195,5329],[-39,-80],[24,-57],[7,-155],[44,-36],[-22,-130],[56,-36]],[[3265,4835],[-39,-12],[-42,-50],[-15,-72],[-58,-29],[-113,58],[-35,58],[-69,23],[-31,51],[-37,12],[-49,-29],[-8,-29],[34,-85],[-8,-31]],[[2968,5741],[2,-89],[30,-33],[-18,-51],[69,-24],[3,-82],[32,-67]],[[2639,4937],[-2,26]],[[2639,4740],[-43,-15],[-61,11],[-140,43],[-48,30],[-24,46],[-44,25],[-62,-17],[-23,44],[-53,16],[-13,63],[-49,-19],[-129,-8]],[[1950,4959],[-44,8],[-54,-19],[-36,15],[-63,54],[-11,130],[32,63],[71,9]],[[1845,5219],[23,-12],[70,64],[22,6]],[[2795,4700],[17,-161]],[[2812,4539],[-284,-107],[-129,-83]],[[2399,4349],[-35,115],[-58,103],[-47,47],[-81,52],[-31,-17],[-60,124],[-89,54],[-70,17],[-2,56],[24,59]],[[2812,4539],[196,-192],[-13,-54],[-2,-83]],[[2993,4210],[-26,-5],[3,-99],[-23,-55],[50,-7],[1,-38],[49,-4],[-1,-78]],[[3046,3924],[-8,-59],[-99,1]],[[2939,3866],[-95,-11],[-42,-37],[-61,3]],[[2741,3821],[2,91],[-14,49],[-67,96],[-55,51],[-62,24],[-23,64],[-57,81],[-34,22],[-32,50]],[[3265,4835],[44,-83],[56,-37],[63,11],[131,-171]],[[3559,4555],[14,-25],[-16,-56],[-59,-68],[-9,-50],[44,-103],[-37,-42],[-13,-45]],[[3483,4166],[-65,23],[-60,-89],[-70,-16],[-168,43],[-62,5],[-65,78]],[[4253,6248],[-17,-67],[20,-48],[50,-69],[-33,-110],[26,-33],[-64,-27],[-9,-77],[19,-25],[-8,-48],[44,-99],[1,-39],[43,-58],[-1,-41],[-36,-80],[14,-30],[64,-5],[32,-42],[-50,-59],[-63,-2],[-44,-52],[-106,26],[-15,44],[-50,24],[-34,-7],[-4,-58],[60,-59],[-31,-40],[-78,-10]],[[3983,5157],[-53,23],[-53,-52],[-23,-46],[-44,-9],[-24,36],[-1,46],[34,57],[-40,53],[21,78],[-59,30],[-30,-50],[-53,-30],[-17,-36],[-65,2],[-9,70],[-56,15],[-40,49],[-95,-72],[-103,37],[-78,-29]],[[6273,6184],[30,-120],[-40,-34],[-5,-60],[20,-121],[55,-114],[-21,-79],[-57,-68],[1,-88]],[[6256,5500],[-164,-6],[-38,-12],[16,-46],[-35,-39],[-5,-93],[34,-23],[-1,-97],[15,-64],[-50,-49],[-64,50],[6,43],[-37,28],[-11,39],[-45,-10],[-14,36],[-41,-7],[-74,39],[-28,51],[-73,17],[0,23],[-129,36],[-112,-49]],[[5406,5367],[-51,56],[42,41],[-15,95],[33,40],[-3,60],[45,26],[16,60],[66,21],[-4,63],[30,48]],[[5406,5367],[-21,-62],[-5,-75],[-72,-33],[-30,-104],[-34,-2],[-22,36],[-64,-21],[-35,-46],[-43,-91],[-41,-38]],[[5039,4931],[-146,32],[-42,-24],[-52,7],[-63,-33],[-62,53],[-42,-45],[10,-58],[-39,-30],[-10,-59]],[[4593,4774],[-61,19],[-53,101],[-106,-5],[-17,47],[-72,-20],[-2,59],[-24,42],[-72,-47],[-93,-21],[-30,-19]],[[4063,4930],[-55,24],[32,89],[-50,61],[-7,53]],[[4063,4930],[-21,-13],[-6,-95],[-15,-35],[-72,-68],[6,-41],[-17,-92],[-25,-31],[16,-34],[-26,-50]],[[3903,4471],[-83,36],[-27,55],[-15,75],[-67,12],[-76,-50],[-16,9],[-60,-53]],[[6256,5500],[-50,-20],[-6,-55],[-38,-33],[-2,-40],[39,-122],[43,-88],[-71,-13],[-42,-71],[2,-85],[14,-92],[-55,-6],[-24,-61],[4,-82],[44,-88],[64,-90]],[[6178,4554],[-69,-5],[-376,24],[-339,64]],[[5394,4637],[-43,33],[-39,63],[-97,8],[-39,59],[-46,-3],[-83,99],[-8,35]],[[4593,4774],[15,-31],[43,-9],[2,-37],[37,-117],[-17,-54],[22,-57],[-12,-66],[27,-86]],[[4710,4317],[1,-84],[-37,5],[-12,-87],[-144,8],[-42,17],[-59,-9],[-18,-30]],[[4399,4137],[-69,18],[-73,44],[-42,-29],[-145,-43],[-28,72],[15,104],[-34,62],[-39,8],[-56,106],[-25,-8]],[[5394,4637],[2,-112],[-31,-36],[2,-37],[-62,-35],[-12,-60],[-57,-29],[-45,2],[-34,-32],[9,-44],[74,-81]],[[5240,4173],[-89,-16],[-62,14],[-4,-63],[-49,-37]],[[5036,4071],[-22,52],[-28,6],[-62,68],[-64,9],[-5,60],[-33,34],[-112,17]],[[6178,4554],[127,-146],[-16,-54],[-47,-89],[-26,-117],[17,-117],[21,-75],[4,-213],[-23,-120],[0,-160]],[[6235,3463],[-108,28],[-238,2],[-88,-9],[-15,36],[-36,8],[-33,57],[-37,27],[-6,48],[-44,21],[17,53],[54,13],[28,97],[5,56],[-28,48],[-36,25],[-41,115],[-70,-66],[-72,-18],[-37,65],[-28,-9],[-27,-58],[-51,4],[-110,137],[6,30]],[[4399,4137],[21,-51],[-14,-48],[-50,-68],[15,-65],[-35,-30],[54,-72],[-39,-23]],[[4351,3780],[-207,63],[-29,34],[-71,-9],[-71,-32],[-22,88],[-56,2],[-51,20],[-4,51],[-65,31],[-34,-50]],[[3741,3978],[-99,28]],[[3642,4006],[-72,54],[-45,75],[-42,31]],[[5036,4071],[3,-80],[49,-40],[36,-56],[68,-40],[-1,-30],[-60,-38],[-41,2],[-5,-49],[47,-90],[48,-27],[-44,-99],[-2,-277]],[[5134,3247],[-99,22]],[[5035,3269],[-12,69],[-40,22],[-330,215],[-127,169],[-163,34]],[[4363,3778],[-12,2]],[[4363,3778],[42,-60],[32,-109],[5,-100],[20,-25],[-136,-15],[-51,-47],[1,-30]],[[4276,3392],[-56,9],[-30,-27],[-32,17],[-56,-13],[-110,-105]],[[3992,3273],[-60,1],[-56,31],[-19,43],[3,69],[-16,28],[-87,48]],[[3757,3493],[12,47],[38,49],[19,51],[-26,82],[10,66],[-23,64],[5,67],[-30,59],[-21,0]],[[5035,3269],[-114,-301]],[[4921,2968],[-107,17],[-25,42],[-203,6],[-131,-149]],[[4455,2884],[4,114],[20,62],[61,55],[-10,65],[-87,22],[-74,68],[8,49],[-29,8],[-72,65]],[[4455,2884],[-33,-47],[-5,-51],[-47,-3],[-154,13]],[[4216,2796],[-33,38],[-5,40],[-102,77],[4,106],[-63,-2],[-48,-20]],[[3969,3035],[8,91],[-10,89],[25,58]],[[4216,2796],[-1,-103]],[[4215,2693],[-42,27],[-59,-70],[-33,10],[-91,-34],[-57,-4]],[[3933,2622],[4,140],[-36,29],[0,46]],[[3901,2837],[32,0],[0,147],[36,51]],[[4921,2968],[12,-69],[-50,-71],[-6,-105],[15,-32]],[[4892,2691],[-30,-47],[-3,-71]],[[4859,2573],[-139,44],[-129,33],[-7,19],[-97,34]],[[4487,2703],[-85,-15],[-64,-37],[-76,13],[-47,29]],[[3901,2837],[-62,-6],[-6,-38],[-59,0],[-40,105],[0,28],[-62,7],[8,49],[-40,14],[-97,2],[-25,91],[-23,3]],[[3495,3092],[-23,242],[66,-2]],[[3538,3332],[149,-4],[70,165]],[[3933,2622],[-27,-48],[-65,-31]],[[3841,2543],[-72,55],[-124,-16],[-3,67],[-35,80],[-67,29],[8,71],[-63,62],[-82,-6]],[[3403,2885],[38,38],[25,53],[-11,31],[40,85]],[[5134,3247],[58,-27],[292,-344],[291,-118],[226,91]],[[6001,2849],[151,-333]],[[6152,2516],[-98,-90],[-57,-32],[-114,-40],[-143,-68],[-36,-42],[-6,-67]],[[5698,2177],[-125,4],[-105,50]],[[5468,2231],[97,162],[-72,50],[-25,2],[-96,103],[-62,30],[-70,-71]],[[5240,2507],[-42,15],[-51,57],[-65,-5],[-25,28],[-52,-52],[-46,19],[-50,67],[-17,55]],[[4487,2703],[-11,-68],[-39,-26],[34,-102],[-32,-114]],[[4439,2393],[-111,-27],[-52,49],[-59,1],[-95,-19],[0,-22],[-90,-2]],[[4032,2373],[-38,61],[-76,60],[-76,15],[-1,34]],[[4439,2393],[-43,-121],[50,0],[70,29],[22,-53],[-45,-64],[-37,14],[-20,-47]],[[4436,2151],[-92,33],[-100,21],[-58,45],[-51,2],[-25,54],[-78,67]],[[4859,2573],[-77,-24],[-63,-87],[9,-33],[-21,-47],[-9,-117],[-44,-37],[22,-39],[85,-32],[-12,-64],[-60,0],[-3,-34]],[[4686,2059],[-91,28],[-47,26],[-47,-1],[-65,39]],[[5240,2507],[9,-37],[-57,-57],[22,-68],[-38,-95],[-56,-24],[-17,-33],[-45,-12],[0,-34],[-56,-2],[-71,-40],[-71,25],[-50,-100],[-51,-25]],[[4759,2005],[-73,54]],[[5468,2231],[-128,-201],[-23,-51],[-38,-31],[-82,-123],[-8,-64],[-30,-88]],[[5159,1673],[-64,4],[-51,-25],[-47,39],[-81,124],[-135,123],[19,48],[-41,19]],[[5698,2177],[105,-35],[5,-86],[113,-165],[10,-26],[-53,-36],[-38,-80],[-3,-217],[63,-25]],[[5900,1507],[-38,-69],[-18,-87],[15,-58],[-28,-23]],[[5831,1270],[-91,54],[-90,79],[-75,41],[-84,25],[-62,-4],[-86,73],[-5,52],[-71,46],[-108,37]],[[6152,2516],[138,28],[116,-90],[145,38],[10,-138],[-25,-42],[-87,-346]],[[6449,1966],[12,-174],[-27,-1],[-2,-57],[69,-84],[44,-38],[31,-62]],[[6576,1550],[-50,15],[-88,-15],[-47,21],[-65,-3],[-68,-51],[-25,20],[-111,-123]],[[6122,1414],[-144,66],[-78,27]],[[6576,1550],[57,-109],[83,-112]],[[6716,1329],[21,-32],[-27,-56],[-52,5],[-61,-39],[-69,0],[-25,-47],[-73,-26]],[[6430,1134],[-48,-9],[-31,75],[-71,84],[-158,130]],[[6430,1134],[42,-21],[-1,-59],[-34,-39],[-30,-118],[17,-102]],[[6424,795],[-41,-31],[-26,-87],[-46,66],[-45,27],[-51,119],[-8,45],[-67,166],[-58,62],[-101,56],[-150,52]],[[6716,1329],[66,15],[22,-43],[66,-28],[45,-37],[36,-3],[29,41],[34,79],[113,-63],[2,-39],[76,-100],[13,-181]],[[7218,970],[-41,-31],[-172,8],[-84,70],[-69,12],[-68,-42],[-71,15],[-80,-48],[-96,-181],[-23,-99],[-69,114],[-21,7]],[[6449,1966],[6,1]],[[6455,1967],[811,-3],[28,-26],[68,-99],[19,-56],[-30,-19],[-9,-67],[33,-47],[53,-13],[44,-85],[28,-94],[41,-84],[43,-54],[-12,-41],[27,-29],[-8,-94],[45,-62],[-13,-58],[30,-54],[-30,-53],[15,-78],[-35,-18],[-30,19],[-68,-51],[-114,6],[-11,23],[-59,28],[37,32],[-59,73],[-81,7]],[[3403,2885],[-47,25],[-141,49]],[[3215,2959],[2,139],[59,-2],[1,46],[82,97],[-61,51],[-109,222]],[[3189,3512],[140,-2],[106,20],[-3,21]],[[3432,3551],[26,-34],[22,-105],[27,-57],[31,-23]],[[2659,3400],[-37,-11],[-5,76],[46,-5],[-4,-60]],[[2822,3537],[33,-21],[-29,-61],[-119,-99],[-20,17],[49,94],[34,42],[52,28]],[[2680,3575],[-89,-102],[12,82],[77,20]],[[2596,3558],[26,66],[51,23],[23,-32],[-35,-34],[-65,-23]],[[2693,3419],[-20,-6],[0,98],[67,140],[53,-5],[-6,-104],[-47,-24],[-47,-99]],[[2939,3866],[77,-53],[-52,-82],[5,-30],[50,-13],[26,-65],[64,-11],[28,-38],[16,-57],[27,-7]],[[3180,3510],[-81,-46],[-118,4],[-44,40],[-55,-54]],[[2882,3454],[-12,-48],[-43,16],[16,56],[38,37],[1,29],[-58,26],[8,71],[-11,37],[-67,71],[-13,72]],[[3215,2959],[-184,72],[-34,36],[-20,49],[-80,109],[-71,14],[-108,40],[-11,64],[57,57],[29,-28],[80,34],[9,48]],[[3180,3510],[9,2]],[[3046,3924],[92,-15],[98,-32],[37,17]],[[3273,3894],[-17,-19],[-8,-74],[71,-67],[8,-41],[-24,-26],[16,-39],[36,-12],[57,21],[27,-29]],[[3439,3608],[-7,-57]],[[3273,3894],[13,32],[57,-2],[49,-19],[46,28],[40,-57],[-8,-67]],[[3470,3809],[-23,-31],[31,-46],[-19,-48],[11,-46],[-31,-30]],[[3642,4006],[-39,-33],[-44,-121],[13,-49],[-102,6]],[[17259,1390],[10,-49],[70,-69],[0,-38],[-58,-15],[-14,-33]],[[17267,1186],[-8,-44],[-46,-36],[-128,5],[-61,-97],[-70,-35],[-30,-32]],[[16924,947],[-50,-21],[-117,22],[-52,108],[-219,210],[-21,52],[24,88],[-1,70],[24,55],[-69,38],[-52,6],[-34,57],[-43,20],[-35,106],[59,20],[16,53],[116,123],[4,-68],[-14,-71],[11,-81],[38,-29],[9,-41],[55,-37],[194,-84],[76,-53],[-13,-39],[89,-53],[50,-4],[47,-26],[18,22],[225,0]],[[17267,1186],[29,-33],[76,18],[7,-99],[18,-20],[82,-31],[25,-35],[-2,-41],[-88,-162],[-43,-94],[-39,-45],[-40,-73]],[[17292,571],[-85,-13],[-66,65],[-17,54],[-66,46],[-51,4],[-34,108],[8,43],[-57,69]],[[17259,1390],[92,18],[25,-8],[103,16],[69,-15],[11,90],[20,75],[47,-77],[-1,-71],[33,-36],[66,-12],[23,12],[18,58],[41,17],[56,-48],[-36,-85],[-2,-42],[51,-3],[17,-55]],[[17892,1224],[-55,-5],[-29,-69],[21,-46]],[[17829,1104],[-31,-19],[-94,4],[-45,-52],[-80,-33],[3,-57],[83,-22],[48,2]],[[17713,927],[-57,-42],[-16,-65],[-37,-66],[-19,-114],[-16,-28]],[[17568,612],[-41,-52],[-3,-148],[-32,-80]],[[17492,332],[-47,42],[-13,54],[-47,7],[-6,54],[-34,52],[-53,30]],[[17829,1104],[104,-13],[192,1],[-20,-34],[-1,-62]],[[18104,996],[-90,-58],[-82,-80]],[[17932,858],[-42,5],[-70,-15],[-71,40],[-36,39]],[[17892,1224],[37,-20],[88,28],[221,-91],[16,-30]],[[18254,1111],[-10,-83],[-79,-38],[-61,6]],[[17568,612],[229,-193],[77,-84],[39,-98],[91,-27],[77,-1],[-5,-122]],[[18076,87],[-7,-45],[-97,-42],[-66,29],[-82,10],[-115,123],[-21,66],[-79,-8],[-20,16],[-100,4],[3,92]],[[17932,858],[107,-108],[56,-66],[180,-152],[88,-86],[48,-14],[6,-39],[55,-88],[-20,-36],[36,-65]],[[18488,204],[-55,-46],[-49,1],[-26,-23],[12,-41],[-34,-12],[-124,-3],[-51,-39],[-47,0],[-38,46]],[[18254,1111],[92,85],[56,-15],[99,-59],[104,-30]],[[18605,1092],[75,-52],[36,-66],[66,-68],[93,-22]],[[18875,884],[14,-110],[-38,-72],[-2,-47],[-42,-51],[-55,16],[-39,-41],[-69,5],[-43,-51],[54,-77],[18,-89],[-22,-80]],[[18651,287],[-78,-10],[-37,9],[-48,-82]],[[18875,884],[90,-49],[24,33],[9,62],[69,115]],[[19067,1045],[21,-36],[223,-82],[76,-5],[92,-44],[44,-162]],[[19523,716],[-36,-39],[21,-92],[181,-117],[27,-66],[52,-32],[1,-55]],[[19769,315],[-53,-30],[-48,-48],[-65,-14],[-2,-51],[-40,5],[-38,87],[-76,35],[-47,-32],[-57,-7],[-87,44],[-157,47],[-33,27],[-54,-31],[-55,-1],[-51,-20],[-100,1],[-49,-24],[-106,-16]],[[19067,1045],[-67,76],[44,37],[91,24],[122,-32],[4,83],[-65,52],[21,55],[93,29]],[[19310,1369],[38,-66],[79,9],[64,68],[61,18],[55,-62],[113,-1],[21,-10]],[[19741,1325],[36,-22],[58,0],[77,47],[22,-54],[51,-72]],[[19985,1224],[-45,-81],[-22,-70],[-66,-56],[-57,-3],[-34,-139],[-37,-59],[-91,-73],[-60,-23],[-50,-4]],[[18605,1092],[67,23],[7,98],[23,83],[40,30],[26,88],[54,-12]],[[18822,1402],[102,-13],[48,37]],[[18972,1426],[52,-45],[286,-12]],[[18972,1426],[6,51],[66,57],[164,107],[104,54],[72,66]],[[19384,1761],[39,1],[36,-29],[36,1]],[[19495,1734],[35,-29],[24,-102],[53,-39],[101,-39],[30,-63],[3,-137]],[[18822,1402],[-54,12],[26,48],[54,66],[10,100],[101,184],[13,86],[48,123]],[[19020,2021],[95,-81],[46,31],[7,-51],[85,-8],[139,-55],[-8,-96]],[[19020,2021],[60,84],[29,15],[80,-32],[52,-8],[25,73],[30,8]],[[19296,2161],[61,34],[22,36],[51,29],[19,55]],[[19449,2315],[84,-88],[47,-26],[60,16],[16,-119],[17,-23],[11,-86],[26,-32],[-2,-53]],[[19708,1904],[-129,-121],[-84,-49]],[[19708,1904],[31,-43],[83,0],[3,26],[75,5]],[[19900,1892],[11,-69],[31,-43],[5,-71],[24,-42],[-26,-87],[84,-126],[115,-62],[-20,-89],[30,-7],[-9,-96]],[[20145,1200],[-160,24]],[[20145,1200],[115,-19],[103,15]],[[20363,1196],[-5,-90],[41,-47],[8,-40],[72,-14],[88,17],[101,-33]],[[20668,989],[-19,-70],[43,-39],[-23,-76],[-58,-58],[-15,-142],[-38,-67],[2,-57],[-104,-7],[-69,-16],[-46,5],[-101,-20],[-32,-50],[-52,-35],[-30,-42],[-11,-61],[-71,-8],[-145,15],[-130,54]],[[19900,1892],[84,90]],[[19984,1982],[62,7],[54,41],[147,13],[42,-21]],[[20289,2022],[12,-64],[-27,-81],[6,-67],[62,-18],[61,-55],[19,-49],[-38,-63],[124,-103],[86,-14],[54,-52],[-23,-54]],[[20625,1402],[-20,-83],[-107,-38],[-52,3],[-4,-38],[-79,-50]],[[19449,2315],[-12,35],[54,106]],[[19491,2456],[89,36],[22,-62],[34,6]],[[19636,2436],[14,-58],[49,-49],[36,7],[46,42],[32,-3],[34,-97],[68,-56],[20,-48],[43,-19],[-13,-104],[19,-69]],[[20289,2022],[40,12],[64,-12],[32,24],[29,111],[49,22],[32,63]],[[20535,2242],[139,-35],[90,2],[64,-18],[186,-27]],[[21014,2164],[6,-46],[-17,-110],[-30,0],[28,-77],[61,-35],[50,-4],[21,-43],[-51,-118],[-62,-44],[-4,-45],[53,-48],[-1,-31],[-68,-55],[-82,-22],[-75,0],[-27,-41],[-69,-43],[-26,-36],[-31,37],[-65,-1]],[[19636,2436],[34,-4],[17,75],[-22,112],[18,8]],[[19683,2627],[142,15],[243,124],[206,22],[41,-12]],[[20315,2776],[3,-1]],[[20318,2775],[-1,-54],[36,-87],[63,-37],[45,-44],[45,-20],[-6,-52],[73,-66],[10,-52],[-66,-91],[18,-30]],[[21014,2164],[116,37],[102,-3],[77,27],[50,-12]],[[21359,2213],[39,-6]],[[21398,2207],[10,-339],[183,3],[19,-10],[110,-171],[29,-58],[55,-70],[69,-52]],[[21873,1510],[-6,-60],[-46,-28],[25,-58],[7,-91],[-42,-16],[-5,-36]],[[21806,1221],[-44,-28],[-49,-61],[-65,1],[-32,33],[-55,-4],[-32,16],[-66,-20],[-58,29],[-32,-11],[-159,8],[-86,13],[-72,-44],[-25,-45],[-144,-39],[-44,2],[-93,-66],[-82,-16]],[[20318,2775],[146,-15],[211,-14],[3,99]],[[20678,2845],[81,2],[133,42],[254,207],[138,83],[3,49],[-30,32],[46,29],[175,10]],[[21478,3299],[81,-26],[-4,-50],[72,-14],[-51,-54],[-68,-19],[9,-44],[40,-26],[101,-23],[78,-48],[-18,-30],[-63,-30],[-56,11],[-52,59],[-34,-81],[24,-35],[-13,-33],[41,-63],[-57,-65],[1,-64],[-29,-28],[-29,-73],[-38,-19],[-12,-35],[49,-112],[178,-5],[15,-73],[-33,-38],[-125,30],[-28,-60],[-75,-6],[-23,-32]],[[20315,2776],[-75,74],[-2,47],[-32,77],[-113,33],[-29,69],[13,54],[-8,56],[-58,54],[-49,77]],[[19962,3317],[147,31],[39,-5],[156,23],[78,-218]],[[20382,3148],[67,-61],[116,-73],[24,-38],[29,-109],[60,-22]],[[21398,2207],[99,-28],[157,-34],[47,4],[33,54],[35,-23],[49,104],[-7,54],[127,35],[28,66],[48,27],[12,32],[-15,102],[35,44],[56,32],[50,-11],[187,108],[180,56],[61,0],[57,44],[36,-25],[63,11],[4,-57]],[[22740,2802],[-147,-31],[-35,-50],[-48,-40],[42,-112],[45,-32],[41,-3],[58,32],[44,50],[63,16],[52,-51],[38,10],[32,34],[51,18],[48,50],[61,-33],[-21,-36],[35,-37],[2,-75],[41,-42],[-4,-59]],[[23138,2411],[-124,6],[-151,-15],[-162,-85],[-66,-46],[-173,-6],[-1,-83],[-23,-35],[-112,-15],[-126,31],[-3,-35],[33,-34],[-26,-56],[-28,-100],[32,-56],[55,-39],[30,-61],[78,-18],[43,-36],[-32,-55],[-204,-2],[-52,-6],[-90,-93],[-64,-14],[-38,-31],[-61,-17]],[[21478,3299],[48,153],[7,84],[-10,126]],[[21523,3662],[96,30],[24,-4],[128,23]],[[21771,3711],[30,-84],[51,-20],[-3,-62],[27,-56],[-24,-67],[65,7],[53,63]],[[21970,3492],[49,-10],[44,-44],[77,22],[28,-24],[144,-11],[22,-14],[30,-74],[87,-49],[-12,-91],[-55,-23],[-11,-48],[135,-34],[82,-11],[43,23],[177,37],[56,-19],[78,30],[70,53],[42,-27],[33,40]],[[23089,3218],[51,-16],[-39,-127],[-49,-28],[-30,-115],[-72,34],[-72,-79],[-75,-38],[-32,-54],[-31,7]],[[20382,3148],[-77,218],[954,222],[264,74]],[[19683,2627],[-38,14],[11,72],[-25,33],[-11,59],[-189,180],[-39,24],[3,45]],[[19395,3054],[74,35],[3,33],[148,57],[61,39],[32,63],[34,21],[48,-15],[167,30]],[[19491,2456],[-75,55],[-76,-7],[-53,-50],[-31,10],[-34,76],[-41,22]],[[19181,2562],[-5,95],[17,72],[-12,84],[-36,123],[3,165],[67,115],[35,-7],[27,-50],[68,5],[50,-110]],[[21771,3711],[105,38],[120,70],[52,55],[45,83],[-16,54],[65,40],[90,72],[25,73],[35,41],[135,110],[37,49],[-4,53],[74,70],[138,205]],[[22672,4724],[91,-62],[58,-111],[6,-47],[-22,-51],[13,-143],[31,-20]],[[22849,4290],[-56,-27],[-51,-45],[-33,-67],[-85,-88],[-61,-44],[-8,-54],[-43,-13],[-24,-36],[-45,-15],[-107,-6],[-17,-14],[-42,-107],[20,-65],[-30,-41],[-144,-75],[-74,-59],[-79,-42]],[[22849,4290],[59,1],[54,21],[56,-30],[62,-67],[-39,-50],[25,-15],[52,26],[47,-3],[47,-104],[47,9],[37,68],[55,42],[28,48],[18,71],[54,43],[10,57],[47,14],[35,61]],[[23543,4482],[73,-80],[9,-59],[-42,-43],[21,-48],[80,-12],[38,-48],[-25,-35]],[[23697,4157],[-64,-42],[-36,-65],[-121,-114],[19,-79],[-36,-25],[-21,-94],[-58,-78],[-43,-34],[-89,-121],[-57,-91],[1,-34],[-75,-87],[-28,-75]],[[23138,2411],[88,-71],[105,-115],[85,-162],[70,-74],[160,-101],[66,-24],[243,14],[46,19],[78,9],[155,-1],[129,11],[82,42],[100,30],[169,21],[209,64]],[[24923,2073],[35,2],[0,-75],[-13,-45],[18,-35],[48,2],[38,28],[36,-19],[-70,-98],[37,-50],[-29,-55],[-59,-9],[-62,-71],[-53,26],[-41,-9],[-41,-71],[27,-33],[8,-91],[-32,-113],[-39,-36],[-23,-64],[-60,-58],[-42,-64],[17,-49],[-61,-119],[-44,-14],[-39,18],[-49,47],[-43,5],[-112,70],[-55,-48],[-96,-30],[-54,-40],[-67,-3],[-50,-55],[-116,95],[-49,-18],[-39,15],[-117,-36],[-46,15],[-63,-29],[-37,-39],[-69,-16],[-58,-30],[-61,-138],[-143,-48],[-89,-71],[-50,-11],[-13,31],[-48,33],[-41,80],[-59,29],[-76,-16],[-66,-42],[-51,-10],[-51,57],[-42,19],[-11,38],[-63,41],[-99,20],[-68,2],[-57,-23],[-83,23],[-25,57],[-58,5],[-78,-17],[-29,-19],[-76,1],[22,76],[88,37],[30,130],[-72,21],[-21,20],[-45,-28],[-81,6],[-37,44]],[[23697,4157],[-4,-66],[133,-13],[104,67],[71,-66],[91,-101],[53,-24],[48,-67],[-60,-17],[-33,-41],[-3,-36],[33,-46],[67,-61],[68,0],[52,-133],[47,-35],[74,-15],[33,-97],[54,-35]],[[24525,3371],[76,2],[46,-25],[13,-33],[77,-55],[5,-72],[117,-113],[218,0],[52,-31],[69,-8],[184,134],[40,84]],[[25422,3254],[86,-20],[-4,-102],[-56,-38],[12,-121],[-32,-43],[21,-61],[88,34],[68,-67],[11,-48],[39,-16],[-1,-56],[-57,-41],[-98,1],[-67,-52],[-25,-68],[-49,11],[-39,-26],[-19,-40],[-52,-30],[-29,35],[-40,-32],[-11,-46],[26,-53],[-60,-49],[-70,-2],[-78,-27],[-45,7],[-21,-64],[-10,-113],[13,-54]],[[23543,4482],[12,69],[51,64],[14,71],[35,43],[-23,51],[-44,35],[46,64],[-30,60],[11,51],[41,36],[6,104],[-34,51],[-29,119],[4,99],[-39,74],[28,14],[31,69]],[[23623,5556],[113,22]],[[23736,5578],[188,-38],[55,-33],[-14,-183],[63,-151],[36,-62],[34,26],[8,87],[19,19],[48,-72],[121,-12]],[[24294,5159],[7,-19],[-10,-128],[-42,-75],[-13,-58],[-33,-63],[12,-70],[25,-30],[-21,-93],[-57,-33],[-25,-69],[-109,-30],[79,-95],[81,-39],[75,-17],[58,-95],[82,-108],[84,-81],[53,-22],[32,-65],[56,-63],[29,-49],[4,-54],[90,-51],[25,-39],[-40,-84],[-67,24],[-168,-16],[-5,-69],[33,-78],[9,-58],[-13,-61]],[[22672,4724],[12,73],[214,143],[203,179],[55,70],[63,56],[68,90],[18,53]],[[23305,5388],[24,-37],[70,105],[92,64],[132,36]],[[26192,5098],[21,-43],[66,-43],[15,-49],[-52,-121],[-22,-117],[-5,-82],[21,-112],[36,-47],[7,-91],[62,-97],[-19,-55],[-26,-5],[-32,63],[-25,1],[-61,-112],[-9,-83],[-28,-85],[8,-67],[-19,-53],[70,-68],[-72,-79],[-2,-76],[-18,-40],[-48,-36],[-71,0],[-67,-71],[-114,-8],[-11,48],[-59,61]],[[25738,3631],[0,82],[-46,91],[-202,323],[-27,106],[-4,96],[-21,61],[3,53],[53,99],[38,103],[116,180],[23,44],[-75,45],[-18,26],[-209,182],[-21,-3]],[[25348,5119],[-7,94],[52,64],[17,60],[31,34]],[[25441,5371],[96,-122],[19,-54],[80,-88],[82,-69],[19,-47],[126,-69],[27,-3],[76,28],[47,-42],[50,50],[33,53],[-7,66],[30,28]],[[26119,5102],[73,-4]],[[23305,5388],[171,204],[94,166],[-12,33],[58,140],[-6,93],[-45,139],[22,29],[38,-13],[263,-33]],[[23888,6146],[-7,-125],[18,-51],[81,-82],[-3,-27],[-63,-92],[-50,-55],[-120,-42],[-23,-44],[15,-50]],[[24294,5159],[29,-11],[0,-47],[51,-47],[28,-54],[-35,-30],[-9,-42],[66,-41],[71,25],[71,6],[39,91],[65,4],[107,-29],[162,66],[47,28],[68,12],[87,-23],[53,-49],[62,25],[36,43],[56,33]],[[25738,3631],[-12,-73],[-58,-60],[-120,-67],[-13,-89],[-89,-86],[-24,-2]],[[23888,6146],[82,-63],[76,-42],[71,-123],[25,-69],[-19,-44],[42,-30],[-24,-133],[70,-20],[26,18],[78,-16],[58,10],[8,-81],[57,-109],[34,-5],[49,-38],[5,-62],[57,-60],[43,-7],[6,-68],[112,28],[73,59],[40,59],[59,52],[31,68]],[[24947,5470],[44,23],[41,-27],[121,-6],[85,-66],[20,20],[81,-2],[42,12],[60,-53]],[[26119,5102],[-33,23],[-2,106],[-25,23],[8,77],[20,38],[-50,65],[-10,49],[-51,39],[-116,24],[-94,58],[-21,32],[29,74]],[[25774,5710],[53,-5],[33,51],[-48,72],[-56,36],[-44,66],[8,109],[-15,5],[9,94],[21,15],[1,89],[-53,47],[18,53],[-10,50],[-54,68],[20,65],[-78,61],[-87,117],[105,59],[5,57],[53,4],[41,-84],[90,-38],[72,-5],[64,41],[-12,32],[59,51],[42,6]],[[26011,6826],[60,-24],[69,19],[23,22],[117,11],[22,-22],[28,-159],[21,-56],[-1,-121],[-28,-23],[-51,-123],[-82,-104],[-1,-53],[28,-41],[-3,-39],[23,-44],[-27,-56],[42,-77],[6,-40],[-15,-66],[43,-38],[79,-27],[23,-63],[-53,-88],[-12,-94],[11,-60],[30,-44]],[[26363,5416],[35,-10],[-11,-100],[-52,-140],[-59,-56],[-84,-12]],[[24947,5470],[-8,35],[46,58],[40,78],[-71,-24],[95,137],[16,56],[8,91],[-85,9],[-26,72],[3,199],[-20,12],[15,102],[-65,54],[-1,54],[99,31],[15,63],[84,52],[88,-16],[37,6],[24,46],[3,62],[35,52],[71,-52],[-40,-47],[6,-80],[-9,-107],[19,-24],[1,-151],[50,-86],[16,-103],[31,-72],[-10,-59],[20,-32],[-20,-47],[36,-23],[119,1],[26,-22],[65,13],[7,-43],[83,-7],[24,-48]],[[26011,6826],[4,45],[83,34],[64,73],[11,43],[-5,64],[37,38]],[[26205,7123],[104,-50],[50,-74],[44,-43],[34,-4],[55,24],[39,-25]],[[26531,6951],[50,-10],[61,-70],[-25,-130],[-19,-59],[10,-35],[47,-19],[12,-50],[-17,-71],[-13,-165],[-24,-91],[29,-62],[38,-29],[-12,-112],[25,-49],[-11,-43],[16,-78],[19,-31]],[[26717,5847],[1,-1]],[[26718,5846],[-13,-20],[-15,-101],[15,-31],[-71,-70],[-7,-36],[-41,-12],[-49,32],[-26,-45],[-53,-44],[-42,-12],[-30,-98],[-23,7]],[[26531,6951],[33,63],[-17,49],[23,39],[1,49],[24,69],[34,6],[33,52],[20,64],[38,20],[63,-31],[35,34],[7,84],[45,8]],[[26870,7457],[10,51]],[[26880,7508],[39,-14],[9,-43],[-11,-103],[46,-50],[2,-80],[-20,-114],[-20,-35],[-23,-96],[5,-108],[-32,-65],[19,-46],[62,-23],[12,-70],[61,-36]],[[27029,6625],[49,-107],[2,-89],[-25,-46],[-24,-123],[-21,-30],[-79,-30],[-16,-87],[-29,-45],[-65,-23],[-66,-103],[-38,-95]],[[26205,7123],[31,32],[-17,54],[-46,-21],[-87,10],[-100,55],[-19,31]],[[25967,7284],[73,79],[26,142],[30,27],[150,180],[91,6],[1,32]],[[26338,7750],[156,-17],[89,15],[18,-36]],[[26601,7712],[37,-26],[46,-67],[41,-102],[58,8],[87,-68]],[[25967,7284],[-94,71],[-15,73],[4,76],[32,34],[66,24],[89,100],[110,84],[50,78],[22,65],[51,-23],[-24,-65],[80,-51]],[[25694,7325],[-35,-11],[-3,-61],[-61,63],[-59,-50],[11,82],[38,75],[55,67],[23,-38],[31,-127]],[[27029,6625],[43,8],[38,-32],[44,-4],[52,60],[6,89],[51,70],[33,69],[116,4],[60,28],[32,81],[114,9],[27,13],[32,57]],[[27677,7077],[27,-40],[48,-16],[19,-61],[28,-17],[11,-100],[-40,-37],[17,-99],[-9,-27],[36,-131],[29,-13],[12,-95],[78,-21],[27,20],[20,54],[65,38],[68,-6],[43,-21],[21,42],[36,-39],[8,-38],[61,-75],[34,-10],[25,-39],[-14,-65],[-70,-62],[55,-8],[94,-90],[105,-9],[35,-37],[84,-58],[23,10]],[[28653,6027],[-52,-93],[20,-56],[-35,-45],[-88,-12],[-35,-34]],[[28463,5787],[-69,14],[-42,-32],[-72,-31],[-44,33],[-31,-9],[-47,66],[-27,5],[-47,-74],[-85,12],[-67,-19],[-27,64],[-31,3],[-26,46],[-66,-57],[8,-69],[-88,-19],[-77,-39],[-10,60],[-107,87],[-32,9],[-61,-26],[-75,-10],[-20,18],[-141,12],[-14,-58],[-72,-21],[-49,-100],[-69,27],[-11,59],[-77,48],[-93,1],[-41,62],[-35,-3]],[[26880,7508],[13,73],[45,-1],[17,27],[48,17],[26,58],[-23,35],[22,65],[66,82],[108,32]],[[27202,7896],[23,-38],[67,-53],[33,-57],[74,-53],[69,-27],[39,5],[33,65],[88,-8],[108,25],[77,36]],[[27813,7791],[78,-28],[55,17],[44,-32]],[[27990,7748],[-27,-39],[-4,-46],[23,-28],[-7,-43],[-28,-22],[-61,28],[-20,-87],[-39,-54],[57,-101],[-62,-7],[-49,-59],[-75,-24],[-46,-73],[17,-28],[8,-88]],[[26601,7712],[15,44],[82,61],[40,164],[-1,95],[151,89],[45,59],[47,36]],[[26980,8260],[54,-8]],[[27034,8252],[62,-18],[79,-51],[73,-78],[139,-14]],[[27387,8091],[-15,-38],[-46,-33],[-10,-31],[-46,-27],[-46,42],[-22,-108]],[[26980,8260],[0,107]],[[26980,8367],[36,18]],[[27016,8385],[48,-69],[-30,-64]],[[27387,8091],[53,24],[27,109]],[[27467,8224],[58,-14],[32,42],[39,108]],[[27596,8360],[96,23],[67,-54],[67,-21],[-22,-45],[19,-53],[-10,-35],[38,-41],[-4,-35],[43,-27],[-9,-129],[-53,-87],[17,-35],[-32,-30]],[[27016,8385],[43,57],[110,16],[64,-35],[50,-58],[31,-60],[63,-27],[3,0]],[[27380,8278],[54,-2],[33,-52]],[[26980,8367],[24,106],[73,26],[14,98],[23,14],[-65,76],[85,47]],[[27134,8734],[6,-63],[75,35],[6,-45],[36,-20],[18,-65],[68,0],[12,-93],[-48,-43],[35,-65],[-4,-28],[39,-51],[3,-18]],[[27134,8734],[11,40],[48,55],[24,58],[72,56],[-2,22],[103,41]],[[27390,9006],[36,-12],[70,19],[35,-90],[49,-44],[3,-69],[25,-73],[-22,-39],[56,-86],[32,-67],[52,-4]],[[27726,8541],[-51,-83],[-31,-21],[-48,-77]],[[27390,9006],[48,3],[-9,42],[53,110],[22,8],[183,119],[41,69],[-5,35],[75,93],[50,100],[79,34]],[[27927,9619],[61,-51],[-48,-94],[-2,-88],[-49,-110],[-8,-84],[33,-24],[-18,-78],[79,-27],[-15,-76],[-39,-39],[5,-40],[43,-25]],[[27969,8883],[-130,-116],[-26,-95],[-24,-52],[-63,-79]],[[27969,8883],[23,-30],[43,28],[119,20],[59,-21],[16,25],[54,2],[51,58],[62,28]],[[28396,8993],[60,-45],[67,0],[85,-105],[93,-27],[34,-80],[27,-32],[-61,-76],[-4,-49]],[[28697,8579],[-103,-3],[0,-68],[-65,-88],[-119,-32],[-31,-41],[-45,-28],[-6,-34],[206,-113],[31,-98],[2,-45],[-149,-76],[-8,-67]],[[28410,7886],[-54,-64],[-12,-79],[-50,-20],[-12,-65],[-107,19],[-24,30],[-141,28],[-20,13]],[[27927,9619],[24,46]],[[27951,9665],[11,-9],[-11,-12],[80,1],[29,-16],[85,2],[7,-67]],[[28152,9564],[-3,-73],[64,-46],[99,21],[7,61],[52,34]],[[28371,9561],[50,-21],[35,-73],[39,-36],[19,-93],[92,-23],[73,-64]],[[28679,9251],[20,-40],[-6,-42],[32,-27],[-16,-74],[-29,-17],[-87,39],[-96,-23],[-24,-35],[-41,4],[-36,-43]],[[27951,9665],[16,40],[-29,91],[40,58],[-20,82],[63,33],[45,75],[2,51],[27,8],[13,67],[37,51],[76,-80],[49,-37],[11,-49],[39,-79],[-66,-2],[-16,-43],[77,-68],[4,-76],[-63,-63],[-51,-95],[-53,-65]],[[29072,10280],[50,-36],[-69,-57],[-65,45],[1,48],[83,0]],[[28584,10671],[-27,-48],[-37,48],[-26,-55],[28,-21],[-83,-45],[-28,11],[-33,-52],[-57,-26],[9,83],[37,76],[72,5],[92,57],[33,49],[20,-82]],[[28980,10744],[34,-2],[19,-55],[-33,-26],[-20,-91],[-22,-49],[-58,-45],[-43,2],[-63,-29],[-81,-57],[-27,-54],[-37,39],[6,114],[-13,31],[23,71],[-12,36],[22,40],[77,15],[48,63],[84,-3],[56,18],[40,-18]],[[29703,5634],[91,-7],[37,-50],[66,-46],[105,-25],[33,-34],[-337,3],[-72,31],[-47,51],[69,74],[55,3]],[[28653,6027],[46,54],[78,23],[-61,82],[-53,9],[-33,40],[36,35],[38,97],[31,-13],[62,9],[51,-20],[68,1],[65,26],[36,71],[60,19],[93,-78],[35,-52],[58,-11],[76,56],[7,39],[-26,100]],[[29320,6514],[19,-19],[88,2],[148,-73],[20,25],[57,-1],[70,33],[47,-16]],[[29769,6465],[47,-59],[7,-44],[36,-61],[31,-22],[15,-43]],[[29905,6236],[-15,-103],[-74,-98],[-84,-42],[-23,-54],[12,-45]],[[29721,5894],[-15,-73],[-42,24],[5,46],[-26,25],[-106,-28],[-19,-25],[20,-46],[46,-55],[-4,-71],[43,-58],[-58,-52],[-30,-46],[-64,39],[-39,-34],[-13,-67],[-103,21],[-67,74],[-4,40],[-69,36],[-122,81],[-98,87],[-126,-60],[-61,14],[-33,-18],[-110,19],[-51,-43],[-36,37],[-58,0],[-18,26]],[[29905,6236],[37,-49],[57,24],[84,57],[42,-55],[69,6],[39,21],[54,-1],[74,-45],[100,0],[32,-27],[58,-12],[32,-54],[8,-77]],[[30591,6024],[6,-99],[15,-34],[82,-38],[19,-32],[53,-33]],[[30766,5788],[-20,-34],[-149,-31],[-47,-32],[-67,3],[-108,-34],[-53,-38],[-134,-52],[-113,42],[-72,-11],[-42,73],[-40,34],[-34,-1],[-17,58],[-106,26],[-43,103]],[[29769,6465],[57,-30],[65,-1],[70,29],[37,37],[119,-7],[6,60],[53,40],[31,68],[65,11],[118,-15]],[[30390,6657],[27,-66],[53,-4],[38,-56],[10,-71],[49,-85],[52,-36],[20,-47],[57,-14],[32,-40]],[[30728,6238],[-4,-40],[-39,-40],[-69,-38],[-6,-82],[-19,-14]],[[31269,6015],[45,-2],[17,-29],[68,-19],[-14,-42],[-53,9],[-60,-44],[2,53],[-43,47],[38,27]],[[30728,6238],[58,11],[20,-38],[57,-50],[43,35],[48,-49],[43,-13],[-12,-78],[65,-25],[34,36],[76,-15],[16,-49],[38,-13],[40,-64],[-41,-45],[-45,-1],[-19,-43],[-52,-18],[4,-40],[-78,17],[-55,-6],[-124,-42],[-25,25],[-53,15]],[[30969,6321],[40,-52],[87,7],[54,-18],[-37,-77],[-71,6],[-57,34],[-29,-19],[-43,37],[-41,4],[-100,63],[123,-6],[35,57],[39,-36]],[[29320,6514],[17,54],[5,26]],[[29342,6594],[69,34],[6,45],[-23,83],[108,45],[20,53],[119,48],[27,20],[17,57],[0,73],[59,93],[43,16],[72,78],[77,-31],[67,12],[84,-45],[105,-12],[406,68],[86,31],[49,31],[53,55],[581,-8],[61,47],[26,77],[80,103],[-14,53],[9,48]],[[31529,7668],[32,14],[31,-31],[114,-61],[12,-51],[-64,-35],[38,-36],[67,34],[-12,44],[39,5],[112,-33],[92,8],[38,47],[61,22],[82,-26],[54,-42],[47,-110],[-3,-64],[-23,-60],[35,-43],[-2,-54],[-95,-115],[-73,-49],[-187,-73],[-115,-22],[-121,-32],[-68,-56],[-51,-8],[-94,-37],[-49,-32],[-43,1],[-90,-22],[-203,29],[-42,-42],[-59,-5],[-51,51],[-13,74],[-66,32],[-131,-5],[-30,-80],[-36,-11],[-69,10],[-50,-19],[-88,-122],[-65,-6]],[[28410,7886],[168,-57],[87,-2],[34,-60],[67,8],[89,-29],[138,28],[31,33],[40,78],[167,71]],[[29231,7956],[24,-10]],[[29255,7946],[9,-70],[72,-50],[7,-22],[3,-493],[-28,-1],[24,-716]],[[29255,7946],[90,53],[52,-4],[132,17],[43,29],[98,0],[36,29]],[[29706,8070],[41,-73],[58,1],[72,-50],[38,-52],[80,55],[82,-16],[-60,-104],[74,-47],[160,-13],[3,-67],[113,0],[0,90],[69,26],[32,-24],[162,97],[-16,34],[132,174],[4,65]],[[30750,8166],[20,58],[48,-46],[117,-57],[197,-129],[58,-62],[67,-19],[38,-54],[102,-96],[138,-69],[-6,-24]],[[30089,8163],[133,-27],[0,-32],[-71,-20],[-62,79]],[[29706,8070],[-102,166],[-38,34],[-1,62]],[[29565,8332],[108,26],[52,-17],[84,10],[-12,55],[143,-3],[90,31],[0,46],[114,92],[22,40],[48,-5],[2,-44],[50,8],[-14,-56],[58,-84],[-21,-50],[63,-39],[7,-35],[47,-35],[-11,-28],[-65,-22],[-86,-62],[-40,22],[-64,4],[-28,-18],[-55,13],[6,-48],[-23,-39],[65,-26],[-15,-59],[72,-33],[96,60],[49,9],[18,-38],[53,16],[24,-50],[41,17],[-36,73],[58,35],[-30,79],[7,40],[38,45],[112,-15],[57,-32],[77,-6],[24,-43]],[[28697,8579],[69,10],[7,-54],[-26,-31],[-7,-57],[17,-25],[7,-77],[41,-69],[64,10],[25,79],[4,79],[177,72],[0,-76],[34,-78],[3,-44],[-22,-30],[13,-65],[61,-49],[-6,-49],[53,-101],[20,-68]],[[29740,8571],[-17,-36],[5,-53],[-50,10],[33,77],[29,2]],[[28679,9251],[45,34],[-7,97],[51,2],[10,37],[120,11],[50,39],[48,-4],[34,79]],[[29030,9546],[8,-22],[60,-12],[38,20],[65,-37],[19,-56],[36,-15],[84,14],[2,21],[57,89],[47,-118],[47,-52],[52,-28],[44,5],[63,-50],[104,-66],[14,-31],[-27,-60],[-9,-60],[23,-72],[-44,-129],[-63,27],[-99,-48],[-40,-66],[36,-18],[21,-60],[26,-22],[38,-98],[-54,-42],[88,-55],[6,-46],[-37,-22],[-49,-57],[-88,-1],[67,-47]],[[29335,9748],[25,-66],[28,-22],[2,-43],[-48,-44],[-93,-38],[-48,2],[-37,25],[-48,1],[-31,31],[41,40],[85,-11],[53,29],[-66,40],[-10,35],[44,29],[103,-8]],[[28371,9561],[31,42],[113,64],[-7,62],[62,79],[39,85],[37,53],[-42,41],[-1,94],[44,42],[128,62],[75,-38],[22,-52],[88,-52],[18,-55],[-21,-65],[-47,-57],[46,-56],[-8,-18],[75,-88],[-33,-39],[40,-119]],[[4760,8255],[57,-25],[100,-81],[58,-83]],[[5522,7685],[163,-154],[62,-97],[22,-11]],[[5530,8205],[53,-45],[-2,-36],[-31,-30],[-31,16],[-5,70],[16,25]],[[5833,7297],[-6,-15],[73,-129],[121,-252],[142,-251]],[[7459,3371],[78,-207],[-14,-78],[-80,-8],[-71,48],[-8,57],[19,34],[55,40],[-24,53],[15,60],[30,1]],[[6235,3463],[21,-102],[25,-57],[55,-56],[81,-108],[144,-132],[6,-18]],[[6567,2990],[-49,5],[-24,-27],[63,-67],[-43,-44],[-16,-88],[36,0],[37,-85],[-43,-32],[-225,110],[-27,38],[-65,17],[-101,55],[-109,-23]],[[7324,2419],[61,-10],[-2,-51],[-57,33],[-2,28]],[[6567,2990],[57,3],[84,-47],[45,-4],[106,-92],[26,-79],[-16,-50],[25,-69],[93,-138],[119,-102],[-19,-33],[43,-48],[-36,-37],[18,-83],[77,-75],[49,-127],[30,-45],[-813,3]],[[1482,5641],[54,-47],[5,-67],[-55,30],[-4,84]],[[1845,5219],[8,82],[-28,74],[-34,22],[-30,51],[-88,37],[-69,-4],[-21,37],[10,45],[37,47],[-68,16],[-25,93],[-30,-4],[49,99],[-6,86],[46,6],[24,171]],[[4446,8784],[45,-53],[130,-293],[33,-65]],[[19296,2161],[-47,-5],[-32,-66],[-34,28],[-84,27],[-82,-6],[-26,-25],[-39,28],[11,63],[21,32],[10,136],[-13,92],[15,72],[40,43],[62,39],[11,-31],[72,-26]]],"transform":{"scale":[0.0006080549345435404,0.0006046116941089012],"translate":[99.63967483000003,0.855363806000071]},"objects":{"MYS":{"type":"GeometryCollection","geometries":[{"arcs":[[0,1,2]],"type":"Polygon","properties":{"name":"Tumpat","shapeGroup":"MYS","gid":"MYS-2-0"},"id":"MYS-2-0"},{"arcs":[[-1,3,4,5,6,7]],"type":"Polygon","properties":{"name":"Kota Bharu","shapeGroup":"MYS","gid":"MYS-2-1"},"id":"MYS-2-1"},{"arcs":[[-6,8,9,10,11]],"type":"Polygon","properties":{"name":"Pasir Puteh","shapeGroup":"MYS","gid":"MYS-2-2"},"id":"MYS-2-2"},{"arcs":[[-2,-8,12,13,14]],"type":"Polygon","properties":{"name":"Pasir Mas","shapeGroup":"MYS","gid":"MYS-2-3"},"id":"MYS-2-3"},{"arcs":[[-7,-12,15,16,17,-13]],"type":"Polygon","properties":{"name":"Machang","shapeGroup":"MYS","gid":"MYS-2-4"},"id":"MYS-2-4"},{"arcs":[[-14,-18,18,19,20]],"type":"Polygon","properties":{"name":"Tanah Merah","shapeGroup":"MYS","gid":"MYS-2-5"},"id":"MYS-2-5"},{"arcs":[[-20,21,22,23,24]],"type":"Polygon","properties":{"name":"Jeli","shapeGroup":"MYS","gid":"MYS-2-6"},"id":"MYS-2-6"},{"arcs":[[-17,25,26,27,-22,-19]],"type":"Polygon","properties":{"name":"Kuala Krai","shapeGroup":"MYS","gid":"MYS-2-7"},"id":"MYS-2-7"},{"arcs":[[-24,28,29,30,31,32,33,34]],"type":"Polygon","properties":{"name":"Hulu Perak","shapeGroup":"MYS","gid":"MYS-2-8"},"id":"MYS-2-8"},{"arcs":[[-33,35,36,37,38,39]],"type":"Polygon","properties":{"name":"Selama","shapeGroup":"MYS","gid":"MYS-2-9"},"id":"MYS-2-9"},{"arcs":[[-38,40,41,42]],"type":"Polygon","properties":{"name":"Bandar Baharu","shapeGroup":"MYS","gid":"MYS-2-10"},"id":"MYS-2-10"},{"arcs":[[-42,43,44,45,46]],"type":"Polygon","properties":{"name":"Seberang Perai Selatan","shapeGroup":"MYS","gid":"MYS-2-11"},"id":"MYS-2-11"},{"arcs":[[-46,47,48,49]],"type":"Polygon","properties":{"name":"Seberang Perai Tengah","shapeGroup":"MYS","gid":"MYS-2-12"},"id":"MYS-2-12"},{"arcs":[[-49,50,51,52]],"type":"Polygon","properties":{"name":"Seberang Perai Utara","shapeGroup":"MYS","gid":"MYS-2-13"},"id":"MYS-2-13"},{"arcs":[[-39,-43,-47,-50,-53,53,54]],"type":"Polygon","properties":{"name":"Kulim","shapeGroup":"MYS","gid":"MYS-2-14"},"id":"MYS-2-14"},{"arcs":[[55,56]],"type":"Polygon","properties":{"name":"Barat Daya","shapeGroup":"MYS","gid":"MYS-2-15"},"id":"MYS-2-15"},{"arcs":[[-57,57]],"type":"Polygon","properties":{"name":"Timur Laut","shapeGroup":"MYS","gid":"MYS-2-16"},"id":"MYS-2-16"},{"arcs":[[-34,-40,-55,58,59,60]],"type":"Polygon","properties":{"name":"Baling","shapeGroup":"MYS","gid":"MYS-2-17"},"id":"MYS-2-17"},{"arcs":[[-52,61,62,63,64,-59,-54]],"type":"Polygon","properties":{"name":"Kuala Muda","shapeGroup":"MYS","gid":"MYS-2-18"},"id":"MYS-2-18"},{"arcs":[[-63,65,66,67]],"type":"Polygon","properties":{"name":"Yan","shapeGroup":"MYS","gid":"MYS-2-19"},"id":"MYS-2-19"},{"arcs":[[-64,-68,68,69,70,71]],"type":"Polygon","properties":{"name":"Pendang","shapeGroup":"MYS","gid":"MYS-2-20"},"id":"MYS-2-20"},{"arcs":[[-60,-65,-72,72,73]],"type":"Polygon","properties":{"name":"Sik","shapeGroup":"MYS","gid":"MYS-2-21"},"id":"MYS-2-21"},{"arcs":[[-67,74,75,76,-69]],"type":"Polygon","properties":{"name":"Kota Setar","shapeGroup":"MYS","gid":"MYS-2-22"},"id":"MYS-2-22"},{"arcs":[[-70,-77,77,78]],"type":"Polygon","properties":{"name":"Pokok Sena","shapeGroup":"MYS","gid":"MYS-2-23"},"id":"MYS-2-23"},{"arcs":[[-71,-79,79,80,-73]],"type":"Polygon","properties":{"name":"Padang Terap","shapeGroup":"MYS","gid":"MYS-2-24"},"id":"MYS-2-24"},{"arcs":[[-76,81,82,83,-80,-78]],"type":"Polygon","properties":{"name":"Kubang Pasu","shapeGroup":"MYS","gid":"MYS-2-25"},"id":"MYS-2-25"},{"arcs":[[-83,84]],"type":"Polygon","properties":{"name":"Perlis","shapeGroup":"MYS","gid":"MYS-2-26"},"id":"MYS-2-26"},{"arcs":[[[85]],[[86]]],"type":"MultiPolygon","properties":{"name":"Langkawi","shapeGroup":"MYS","gid":"MYS-2-27"},"id":"MYS-2-27"},{"arcs":[[-37,87,88,-44,-41]],"type":"Polygon","properties":{"name":"Kerian","shapeGroup":"MYS","gid":"MYS-2-28"},"id":"MYS-2-28"},{"arcs":[[-32,89,90,91,-88,-36]],"type":"Polygon","properties":{"name":"Larut dan Matang","shapeGroup":"MYS","gid":"MYS-2-29"},"id":"MYS-2-29"},{"arcs":[[-31,92,93,94,95,-90]],"type":"Polygon","properties":{"name":"Kuala Kangsar","shapeGroup":"MYS","gid":"MYS-2-30"},"id":"MYS-2-30"},{"arcs":[[-27,96,97,98,99,100,101,102]],"type":"Polygon","properties":{"name":"Hulu Terengganu","shapeGroup":"MYS","gid":"MYS-2-31"},"id":"MYS-2-31"},{"arcs":[[-98,103,104,105,106]],"type":"Polygon","properties":{"name":"Setiu","shapeGroup":"MYS","gid":"MYS-2-32"},"id":"MYS-2-32"},{"arcs":[[-99,-107,107,108,109]],"type":"Polygon","properties":{"name":"Kuala Terengganu","shapeGroup":"MYS","gid":"MYS-2-33"},"id":"MYS-2-33"},{"arcs":[[-30,110,111,112,113,-93]],"type":"Polygon","properties":{"name":"Kecil Lojing","shapeGroup":"MYS","gid":"MYS-2-34"},"id":"MYS-2-34"},{"arcs":[[-113,114,115,116,117]],"type":"Polygon","properties":{"name":"Cameron Highlands","shapeGroup":"MYS","gid":"MYS-2-35"},"id":"MYS-2-35"},{"arcs":[[-23,-28,-103,118,119,-111,-29]],"type":"Polygon","properties":{"name":"Gua Musang","shapeGroup":"MYS","gid":"MYS-2-36"},"id":"MYS-2-36"},{"arcs":[[-101,120,121,122,123]],"type":"Polygon","properties":{"name":"Dungun","shapeGroup":"MYS","gid":"MYS-2-37"},"id":"MYS-2-37"},{"arcs":[[-117,124,125,126]],"type":"Polygon","properties":{"name":"Kampar","shapeGroup":"MYS","gid":"MYS-2-38"},"id":"MYS-2-38"},{"arcs":[[-94,-114,-118,-127,127]],"type":"Polygon","properties":{"name":"Kinta","shapeGroup":"MYS","gid":"MYS-2-39"},"id":"MYS-2-39"},{"arcs":[[-95,-128,-126,128,129,130,131]],"type":"Polygon","properties":{"name":"Perak Tengah","shapeGroup":"MYS","gid":"MYS-2-40"},"id":"MYS-2-40"},{"arcs":[[-130,132,133]],"type":"Polygon","properties":{"name":"Hilir Perak","shapeGroup":"MYS","gid":"MYS-2-41"},"id":"MYS-2-41"},{"arcs":[[134,135,136,137,138,139]],"type":"Polygon","properties":{"name":"Muallim","shapeGroup":"MYS","gid":"MYS-2-42"},"id":"MYS-2-42"},{"arcs":[[-116,140,-137,141,-133,-129,-125]],"type":"Polygon","properties":{"name":"Batang Padang","shapeGroup":"MYS","gid":"MYS-2-43"},"id":"MYS-2-43"},{"arcs":[[-131,-134,-142,-136,142,143,144]],"type":"Polygon","properties":{"name":"Bagan Datuk","shapeGroup":"MYS","gid":"MYS-2-44"},"id":"MYS-2-44"},{"arcs":[[-135,145,146,147,-143]],"type":"Polygon","properties":{"name":"Sabak Bernam","shapeGroup":"MYS","gid":"MYS-2-45"},"id":"MYS-2-45"},{"arcs":[[-147,148,149,150,151,152]],"type":"Polygon","properties":{"name":"Kuala Selangor","shapeGroup":"MYS","gid":"MYS-2-46"},"id":"MYS-2-46"},{"arcs":[[-140,153,154,155,-149,-146]],"type":"Polygon","properties":{"name":"Ulu Selangor","shapeGroup":"MYS","gid":"MYS-2-47"},"id":"MYS-2-47"},{"arcs":[[-112,-120,156,157,-138,-141,-115]],"type":"Polygon","properties":{"name":"Lipis","shapeGroup":"MYS","gid":"MYS-2-48"},"id":"MYS-2-48"},{"arcs":[[-123,158,159,160]],"type":"Polygon","properties":{"name":"Kemaman","shapeGroup":"MYS","gid":"MYS-2-49"},"id":"MYS-2-49"},{"arcs":[[-102,-124,-161,161,162,163,164,-157,-119]],"type":"Polygon","properties":{"name":"Jerantut","shapeGroup":"MYS","gid":"MYS-2-50"},"id":"MYS-2-50"},{"arcs":[[-139,-158,-165,165,166,-154]],"type":"Polygon","properties":{"name":"Raub","shapeGroup":"MYS","gid":"MYS-2-51"},"id":"MYS-2-51"},{"arcs":[[-160,167,168,169,-162]],"type":"Polygon","properties":{"name":"Kuantan","shapeGroup":"MYS","gid":"MYS-2-52"},"id":"MYS-2-52"},{"arcs":[[-164,170,171,172,-166]],"type":"Polygon","properties":{"name":"Temerloh","shapeGroup":"MYS","gid":"MYS-2-53"},"id":"MYS-2-53"},{"arcs":[[-163,-170,173,174,175,-171]],"type":"Polygon","properties":{"name":"Maran","shapeGroup":"MYS","gid":"MYS-2-54"},"id":"MYS-2-54"},{"arcs":[[-169,176,177,-174]],"type":"Polygon","properties":{"name":"Pekan","shapeGroup":"MYS","gid":"MYS-2-55"},"id":"MYS-2-55"},{"arcs":[[-155,-167,-173,178,179,180,181]],"type":"Polygon","properties":{"name":"Bentong","shapeGroup":"MYS","gid":"MYS-2-56"},"id":"MYS-2-56"},{"arcs":[[-172,-176,182,183,184,185,-179]],"type":"Polygon","properties":{"name":"Bera","shapeGroup":"MYS","gid":"MYS-2-57"},"id":"MYS-2-57"},{"arcs":[[-180,-186,186,187,188,189]],"type":"Polygon","properties":{"name":"Jelebu","shapeGroup":"MYS","gid":"MYS-2-58"},"id":"MYS-2-58"},{"arcs":[[-185,190,191,192,-187]],"type":"Polygon","properties":{"name":"Jempol","shapeGroup":"MYS","gid":"MYS-2-59"},"id":"MYS-2-59"},{"arcs":[[-188,-193,193,194,195]],"type":"Polygon","properties":{"name":"Kuala Pilah","shapeGroup":"MYS","gid":"MYS-2-60"},"id":"MYS-2-60"},{"arcs":[[-195,196,197,198,199]],"type":"Polygon","properties":{"name":"Rembau","shapeGroup":"MYS","gid":"MYS-2-61"},"id":"MYS-2-61"},{"arcs":[[-192,200,201,202,203,-197,-194]],"type":"Polygon","properties":{"name":"Tampin","shapeGroup":"MYS","gid":"MYS-2-62"},"id":"MYS-2-62"},{"arcs":[[-189,-196,-200,204,205,206]],"type":"Polygon","properties":{"name":"Seremban","shapeGroup":"MYS","gid":"MYS-2-63"},"id":"MYS-2-63"},{"arcs":[[-199,207,208,209,-205]],"type":"Polygon","properties":{"name":"Port Dickson","shapeGroup":"MYS","gid":"MYS-2-64"},"id":"MYS-2-64"},{"arcs":[[-184,210,211,212,213,214,215,-201,-191]],"type":"Polygon","properties":{"name":"Segamat","shapeGroup":"MYS","gid":"MYS-2-65"},"id":"MYS-2-65"},{"arcs":[[-198,-204,216,217,218,-208]],"type":"Polygon","properties":{"name":"Alor Gajah","shapeGroup":"MYS","gid":"MYS-2-66"},"id":"MYS-2-66"},{"arcs":[[-218,219,220]],"type":"Polygon","properties":{"name":"Melaka Tengah","shapeGroup":"MYS","gid":"MYS-2-67"},"id":"MYS-2-67"},{"arcs":[[-203,221,222,-220,-217]],"type":"Polygon","properties":{"name":"Jasin","shapeGroup":"MYS","gid":"MYS-2-68"},"id":"MYS-2-68"},{"arcs":[[-202,-216,223,224,-222]],"type":"Polygon","properties":{"name":"Ledang","shapeGroup":"MYS","gid":"MYS-2-69"},"id":"MYS-2-69"},{"arcs":[[-215,225,226,-224]],"type":"Polygon","properties":{"name":"Muar","shapeGroup":"MYS","gid":"MYS-2-70"},"id":"MYS-2-70"},{"arcs":[[-214,227,228,229,-226]],"type":"Polygon","properties":{"name":"Batu Pahat","shapeGroup":"MYS","gid":"MYS-2-71"},"id":"MYS-2-71"},{"arcs":[[-213,230,231,232,233,-228]],"type":"Polygon","properties":{"name":"Kluang","shapeGroup":"MYS","gid":"MYS-2-72"},"id":"MYS-2-72"},{"arcs":[[-233,234,235,236]],"type":"Polygon","properties":{"name":"Kulaijaya","shapeGroup":"MYS","gid":"MYS-2-73"},"id":"MYS-2-73"},{"arcs":[[-229,-234,-237,237,238]],"type":"Polygon","properties":{"name":"Pontian","shapeGroup":"MYS","gid":"MYS-2-74"},"id":"MYS-2-74"},{"arcs":[[-236,239,240,-238]],"type":"Polygon","properties":{"name":"Johor Bahru","shapeGroup":"MYS","gid":"MYS-2-75"},"id":"MYS-2-75"},{"arcs":[[-232,241,242,-240,-235]],"type":"Polygon","properties":{"name":"Kota Tinggi","shapeGroup":"MYS","gid":"MYS-2-76"},"id":"MYS-2-76"},{"arcs":[[-206,-210,243,244,245,246]],"type":"Polygon","properties":{"name":"Sepang","shapeGroup":"MYS","gid":"MYS-2-77"},"id":"MYS-2-77"},{"arcs":[[[247]],[[248]],[[249]],[[250]],[[251]],[[-152,252,253,254]]],"type":"MultiPolygon","properties":{"name":"Klang","shapeGroup":"MYS","gid":"MYS-2-78"},"id":"MYS-2-78"},{"arcs":[[-245,255,-254,256]],"type":"Polygon","properties":{"name":"Kuala Langat","shapeGroup":"MYS","gid":"MYS-2-79"},"id":"MYS-2-79"},{"arcs":[[-151,257,258,259,-246,-257,-253]],"type":"Polygon","properties":{"name":"Petaling","shapeGroup":"MYS","gid":"MYS-2-80"},"id":"MYS-2-80"},{"arcs":[[-259,260,261]],"type":"Polygon","properties":{"name":"Kuala Lumpur","shapeGroup":"MYS","gid":"MYS-2-81"},"id":"MYS-2-81"},{"arcs":[[-150,-156,-182,262,-261,-258]],"type":"Polygon","properties":{"name":"Gombak","shapeGroup":"MYS","gid":"MYS-2-82"},"id":"MYS-2-82"},{"arcs":[[-181,-190,-207,-247,-260,-262,-263]],"type":"Polygon","properties":{"name":"Ulu Langat","shapeGroup":"MYS","gid":"MYS-2-83"},"id":"MYS-2-83"},{"arcs":[[263,264,265]],"type":"Polygon","properties":{"name":"Lundu","shapeGroup":"MYS","gid":"MYS-2-84"},"id":"MYS-2-84"},{"arcs":[[-265,266,267]],"type":"Polygon","properties":{"name":"Bau","shapeGroup":"MYS","gid":"MYS-2-85"},"id":"MYS-2-85"},{"arcs":[[-264,268,269,270,271,272,273,-267]],"type":"Polygon","properties":{"name":"Kuching","shapeGroup":"MYS","gid":"MYS-2-86"},"id":"MYS-2-86"},{"arcs":[[-271,274,275,276]],"type":"Polygon","properties":{"name":"Samarahan","shapeGroup":"MYS","gid":"MYS-2-87"},"id":"MYS-2-87"},{"arcs":[[-270,277,278,-275]],"type":"Polygon","properties":{"name":"Asajaya","shapeGroup":"MYS","gid":"MYS-2-88"},"id":"MYS-2-88"},{"arcs":[[-273,279,280]],"type":"Polygon","properties":{"name":"Tebedu","shapeGroup":"MYS","gid":"MYS-2-89"},"id":"MYS-2-89"},{"arcs":[[-272,-277,281,282,-280]],"type":"Polygon","properties":{"name":"Serian","shapeGroup":"MYS","gid":"MYS-2-90"},"id":"MYS-2-90"},{"arcs":[[-276,-279,283,284,285,286,-282]],"type":"Polygon","properties":{"name":"Simunjan","shapeGroup":"MYS","gid":"MYS-2-91"},"id":"MYS-2-91"},{"arcs":[[-286,287,288,289,290]],"type":"Polygon","properties":{"name":"Sri Aman","shapeGroup":"MYS","gid":"MYS-2-92"},"id":"MYS-2-92"},{"arcs":[[-289,291,292,293,294]],"type":"Polygon","properties":{"name":"Betong","shapeGroup":"MYS","gid":"MYS-2-93"},"id":"MYS-2-93"},{"arcs":[[-285,295,296,297,-292,-288]],"type":"Polygon","properties":{"name":"Pusa","shapeGroup":"MYS","gid":"MYS-2-94"},"id":"MYS-2-94"},{"arcs":[[-293,-298,298,299,300]],"type":"Polygon","properties":{"name":"Saratok","shapeGroup":"MYS","gid":"MYS-2-95"},"id":"MYS-2-95"},{"arcs":[[-297,301,302,-299]],"type":"Polygon","properties":{"name":"Kabong","shapeGroup":"MYS","gid":"MYS-2-96"},"id":"MYS-2-96"},{"arcs":[[-300,-303,303,304,305,306]],"type":"Polygon","properties":{"name":"Sarikei","shapeGroup":"MYS","gid":"MYS-2-97"},"id":"MYS-2-97"},{"arcs":[[-294,-301,-307,307,308,309]],"type":"Polygon","properties":{"name":"Pakan","shapeGroup":"MYS","gid":"MYS-2-98"},"id":"MYS-2-98"},{"arcs":[[-290,-295,-310,310,311,312]],"type":"Polygon","properties":{"name":"Lubok Antu","shapeGroup":"MYS","gid":"MYS-2-99"},"id":"MYS-2-99"},{"arcs":[[-309,313,314,315,316,-311]],"type":"Polygon","properties":{"name":"Julau","shapeGroup":"MYS","gid":"MYS-2-100"},"id":"MYS-2-100"},{"arcs":[[-306,317,318,319,-314,-308]],"type":"Polygon","properties":{"name":"Maradong","shapeGroup":"MYS","gid":"MYS-2-101"},"id":"MYS-2-101"},{"arcs":[[-316,320,321,322]],"type":"Polygon","properties":{"name":"Kanowit","shapeGroup":"MYS","gid":"MYS-2-102"},"id":"MYS-2-102"},{"arcs":[[-315,-320,323,324,325,326,-321]],"type":"Polygon","properties":{"name":"Sibu","shapeGroup":"MYS","gid":"MYS-2-103"},"id":"MYS-2-103"},{"arcs":[[-312,-317,-323,327,328,329,330,331]],"type":"Polygon","properties":{"name":"Song","shapeGroup":"MYS","gid":"MYS-2-104"},"id":"MYS-2-104"},{"arcs":[[-322,-327,332,333,334,-328]],"type":"Polygon","properties":{"name":"Selangau","shapeGroup":"MYS","gid":"MYS-2-105"},"id":"MYS-2-105"},{"arcs":[[-326,335,336,337,-333]],"type":"Polygon","properties":{"name":"Dalat","shapeGroup":"MYS","gid":"MYS-2-106"},"id":"MYS-2-106"},{"arcs":[[-330,338,339,340]],"type":"Polygon","properties":{"name":"Kapit","shapeGroup":"MYS","gid":"MYS-2-107"},"id":"MYS-2-107"},{"arcs":[[-329,-335,341,342,343,344,345,-339]],"type":"Polygon","properties":{"name":"Tatau","shapeGroup":"MYS","gid":"MYS-2-108"},"id":"MYS-2-108"},{"arcs":[[-334,-338,346,-342]],"type":"Polygon","properties":{"name":"Mukah","shapeGroup":"MYS","gid":"MYS-2-109"},"id":"MYS-2-109"},{"arcs":[[-325,347,348,-336]],"type":"Polygon","properties":{"name":"Matu","shapeGroup":"MYS","gid":"MYS-2-110"},"id":"MYS-2-110"},{"arcs":[[-319,349,350,-348,-324]],"type":"Polygon","properties":{"name":"Daro","shapeGroup":"MYS","gid":"MYS-2-111"},"id":"MYS-2-111"},{"arcs":[[-344,351,352,353]],"type":"Polygon","properties":{"name":"Bintulu","shapeGroup":"MYS","gid":"MYS-2-112"},"id":"MYS-2-112"},{"arcs":[[-345,-354,354,355,356]],"type":"Polygon","properties":{"name":"Sebauh","shapeGroup":"MYS","gid":"MYS-2-113"},"id":"MYS-2-113"},{"arcs":[[-331,-341,357,358]],"type":"Polygon","properties":{"name":"Bukit Mabong","shapeGroup":"MYS","gid":"MYS-2-114"},"id":"MYS-2-114"},{"arcs":[[-340,-346,-357,359,360,361,-358]],"type":"Polygon","properties":{"name":"Belaga","shapeGroup":"MYS","gid":"MYS-2-115"},"id":"MYS-2-115"},{"arcs":[[-356,362,363,364,365,-360]],"type":"Polygon","properties":{"name":"Beluru","shapeGroup":"MYS","gid":"MYS-2-116"},"id":"MYS-2-116"},{"arcs":[[-353,366,367,-363,-355]],"type":"Polygon","properties":{"name":"Subis","shapeGroup":"MYS","gid":"MYS-2-117"},"id":"MYS-2-117"},{"arcs":[[[368,369,370,371,372]],[[-364,-368,373,374]]],"type":"MultiPolygon","properties":{"name":"Miri","shapeGroup":"MYS","gid":"MYS-2-118"},"id":"MYS-2-118"},{"arcs":[[-361,-366,375,-370,376]],"type":"Polygon","properties":{"name":"Telang Usan","shapeGroup":"MYS","gid":"MYS-2-119"},"id":"MYS-2-119"},{"arcs":[[-365,-375,377,378,-371,-376]],"type":"Polygon","properties":{"name":"Marudi","shapeGroup":"MYS","gid":"MYS-2-120"},"id":"MYS-2-120"},{"arcs":[[-373,379,380,381,382]],"type":"Polygon","properties":{"name":"Lawas","shapeGroup":"MYS","gid":"MYS-2-121"},"id":"MYS-2-121"},{"arcs":[[-372,-379,383,-380]],"type":"Polygon","properties":{"name":"Limbang","shapeGroup":"MYS","gid":"MYS-2-122"},"id":"MYS-2-122"},{"arcs":[[-382,384,385,386,387,388]],"type":"Polygon","properties":{"name":"Sipitang","shapeGroup":"MYS","gid":"MYS-2-123"},"id":"MYS-2-123"},{"arcs":[[-387,389,390,391,392]],"type":"Polygon","properties":{"name":"Tenom","shapeGroup":"MYS","gid":"MYS-2-124"},"id":"MYS-2-124"},{"arcs":[[-386,393,394,395,396,-390]],"type":"Polygon","properties":{"name":"Beaufort","shapeGroup":"MYS","gid":"MYS-2-125"},"id":"MYS-2-125"},{"arcs":[[-395,397]],"type":"Polygon","properties":{"name":"Kuala Penyu","shapeGroup":"MYS","gid":"MYS-2-126"},"id":"MYS-2-126"},{"arcs":[[398]],"type":"Polygon","properties":{"name":"Labuan","shapeGroup":"MYS","gid":"MYS-2-127"},"id":"MYS-2-127"},{"arcs":[[-388,-393,399,400,401,402]],"type":"Polygon","properties":{"name":"Nabawan / Persiangan","shapeGroup":"MYS","gid":"MYS-2-128"},"id":"MYS-2-128"},{"arcs":[[-392,403,404,405,406,-400]],"type":"Polygon","properties":{"name":"Keningau","shapeGroup":"MYS","gid":"MYS-2-129"},"id":"MYS-2-129"},{"arcs":[[-391,-397,407,408,409,410,-404]],"type":"Polygon","properties":{"name":"Papar","shapeGroup":"MYS","gid":"MYS-2-130"},"id":"MYS-2-130"},{"arcs":[[-409,411,412,413]],"type":"Polygon","properties":{"name":"Putatan","shapeGroup":"MYS","gid":"MYS-2-131"},"id":"MYS-2-131"},{"arcs":[[-405,-411,414,415,416]],"type":"Polygon","properties":{"name":"Tambunan","shapeGroup":"MYS","gid":"MYS-2-132"},"id":"MYS-2-132"},{"arcs":[[-410,-414,417,418,-415]],"type":"Polygon","properties":{"name":"Penampang","shapeGroup":"MYS","gid":"MYS-2-133"},"id":"MYS-2-133"},{"arcs":[[-413,419,420,-418]],"type":"Polygon","properties":{"name":"Kota Kinabalu","shapeGroup":"MYS","gid":"MYS-2-134"},"id":"MYS-2-134"},{"arcs":[[-416,-419,-421,421,422,423]],"type":"Polygon","properties":{"name":"Tuaran","shapeGroup":"MYS","gid":"MYS-2-135"},"id":"MYS-2-135"},{"arcs":[[-423,424,425,426]],"type":"Polygon","properties":{"name":"Kota Belud","shapeGroup":"MYS","gid":"MYS-2-136"},"id":"MYS-2-136"},{"arcs":[[-406,-417,-424,-427,427,428,429,430]],"type":"Polygon","properties":{"name":"Ranau","shapeGroup":"MYS","gid":"MYS-2-137"},"id":"MYS-2-137"},{"arcs":[[-426,431,432,433,434,435,-428]],"type":"Polygon","properties":{"name":"Kota Marudu","shapeGroup":"MYS","gid":"MYS-2-138"},"id":"MYS-2-138"},{"arcs":[[[-433,436]],[[437]],[[438]],[[439]]],"type":"MultiPolygon","properties":{"name":"Kudat","shapeGroup":"MYS","gid":"MYS-2-139"},"id":"MYS-2-139"},{"arcs":[[[440]],[[-402,441,442,443,444,445]]],"type":"MultiPolygon","properties":{"name":"Kalabakan","shapeGroup":"MYS","gid":"MYS-2-140"},"id":"MYS-2-140"},{"arcs":[[-445,446,447,448]],"type":"Polygon","properties":{"name":"Tawau","shapeGroup":"MYS","gid":"MYS-2-141"},"id":"MYS-2-141"},{"arcs":[[-444,449,450,451,-447]],"type":"Polygon","properties":{"name":"Kunak","shapeGroup":"MYS","gid":"MYS-2-142"},"id":"MYS-2-142"},{"arcs":[[[452]],[[-448,-452,453]],[[454]]],"type":"MultiPolygon","properties":{"name":"Semporna","shapeGroup":"MYS","gid":"MYS-2-143"},"id":"MYS-2-143"},{"arcs":[[-443,455,456,457,-450]],"type":"Polygon","properties":{"name":"Lahad Datu","shapeGroup":"MYS","gid":"MYS-2-144"},"id":"MYS-2-144"},{"arcs":[[-401,-407,-431,458,459,460,-456,-442]],"type":"Polygon","properties":{"name":"Tongod","shapeGroup":"MYS","gid":"MYS-2-145"},"id":"MYS-2-145"},{"arcs":[[-457,-461,461,462,463]],"type":"Polygon","properties":{"name":"Kinabatangan","shapeGroup":"MYS","gid":"MYS-2-146"},"id":"MYS-2-146"},{"arcs":[[[464]],[[-463,465,466]]],"type":"MultiPolygon","properties":{"name":"Sandakan","shapeGroup":"MYS","gid":"MYS-2-147"},"id":"MYS-2-147"},{"arcs":[[-430,467,-459]],"type":"Polygon","properties":{"name":"Telupid","shapeGroup":"MYS","gid":"MYS-2-148"},"id":"MYS-2-148"},{"arcs":[[[468]],[[-429,-436,469,470,-466,-462,-460,-468]],[[471]]],"type":"MultiPolygon","properties":{"name":"Beluran","shapeGroup":"MYS","gid":"MYS-2-149"},"id":"MYS-2-149"},{"arcs":[[-435,472,-470]],"type":"Polygon","properties":{"name":"Pitas","shapeGroup":"MYS","gid":"MYS-2-150"},"id":"MYS-2-150"},{"arcs":[[-11,473,-104,-97,-26,-16]],"type":"Polygon","properties":{"name":"Besut","shapeGroup":"MYS","gid":"MYS-2-151"},"id":"MYS-2-151"},{"arcs":[[[-106,474,-108]],[[475]]],"type":"MultiPolygon","properties":{"name":"Kuala Nerus","shapeGroup":"MYS","gid":"MYS-2-152"},"id":"MYS-2-152"},{"arcs":[[-100,-110,476,-121]],"type":"Polygon","properties":{"name":"Marang","shapeGroup":"MYS","gid":"MYS-2-153"},"id":"MYS-2-153"},{"arcs":[[[477]],[[-175,-178,478,479,-211,-183]]],"type":"MultiPolygon","properties":{"name":"Rompin","shapeGroup":"MYS","gid":"MYS-2-154"},"id":"MYS-2-154"},{"arcs":[[[480]],[[-212,-480,481,-242,-231]]],"type":"MultiPolygon","properties":{"name":"Mersing","shapeGroup":"MYS","gid":"MYS-2-155"},"id":"MYS-2-155"},{"arcs":[[[482]],[[-91,-96,-132,-145,483]]],"type":"MultiPolygon","properties":{"name":"Manjung","shapeGroup":"MYS","gid":"MYS-2-156"},"id":"MYS-2-156"},{"arcs":[[-5,484,-9]],"type":"Polygon","properties":{"name":"Bachok","shapeGroup":"MYS","gid":"MYS-2-157"},"id":"MYS-2-157"},{"arcs":[[-305,485,-350,-318]],"type":"Polygon","properties":{"name":"Tanjung Manis","shapeGroup":"MYS","gid":"MYS-2-158"},"id":"MYS-2-158"}]}}}