{"type":"Topology","arcs":[[[9317,8731],[-309,305]],[[9008,9036],[36,17],[59,-12],[25,-42],[66,2],[21,17],[58,17],[71,-30],[48,3],[24,-20],[49,-6],[38,-19],[36,-54],[51,-46],[4,-50],[-15,-24],[-52,-25],[-17,26],[-25,-21],[-31,26],[-114,-42],[-23,-22]],[[9317,8731],[-27,-4],[-20,-34],[-55,-38],[-40,-66],[-62,15],[0,27],[-46,47],[-40,1],[-16,-18]],[[9011,8661],[-90,294]],[[8921,8955],[-27,88]],[[8894,9043],[56,5]],[[8950,9048],[2,-37],[40,27]],[[8992,9038],[16,-2]],[[8950,9048],[42,-10]],[[8921,8955],[-42,-43],[-115,-39],[-102,-30],[-28,-16]],[[8634,8827],[-46,-30],[-85,-43],[-81,-17],[-35,10],[-86,58],[-25,-51],[-14,-94],[5,-21]],[[8267,8639],[-142,3],[-82,-16],[-346,-75]],[[7697,8551],[-4,230]],[[7693,8781],[307,65],[356,81],[538,116]],[[9011,8661],[-27,-22],[-55,-17],[-21,6],[-72,-77]],[[8836,8551],[-72,84],[-130,192]],[[8836,8551],[-57,-28],[-28,-32],[-33,-12],[-19,-46],[-23,-10],[-19,-34],[-29,-18],[-12,-31],[-51,-43],[-26,-2],[-13,-25],[-38,-26],[-31,21],[-9,107],[-19,19],[-2,34],[-82,55],[-24,54],[-36,44],[-18,61]],[[7697,8551],[-738,-161],[-336,0]],[[6623,8390],[1,282]],[[6624,8672],[157,22],[16,-18],[99,-42],[43,-12],[228,48],[526,111]],[[4285,1245],[-24,-8],[-15,-38],[8,-25],[-106,-45],[18,-186],[22,-31],[-26,-35],[-47,-31],[-32,-35],[6,-38]],[[4089,773],[-47,17],[-53,-15],[-11,216],[51,64],[-51,40],[-70,26],[-14,-63],[-66,-39],[-67,-60]],[[3761,959],[-31,26],[-30,102],[83,6],[-67,92],[-49,116],[1,18],[96,41],[-7,52],[-65,15],[-18,108],[-105,-87],[-48,36],[-85,-19],[-8,35],[62,50],[59,-5],[11,51],[29,5],[-2,52],[-44,23],[7,65],[-69,50],[23,46],[39,19],[-9,52],[-42,33],[41,123],[4,49],[-15,62],[-73,-29],[-26,95],[76,2],[-70,105],[-26,-8],[-22,113],[-40,164]],[[3341,2617],[45,3],[46,117],[31,-71],[34,7],[55,-8],[77,-21],[15,-26],[53,2],[52,-28],[-3,-41],[75,26],[25,-10],[32,27],[127,-58],[0,94],[61,60],[64,0],[29,-16],[61,-6],[198,28],[134,35],[20,18],[63,28],[121,-1],[72,6]],[[4828,2782],[61,-6],[-3,-70]],[[4886,2706],[-2,-167],[-16,-132],[-25,-28],[124,-55],[0,-112],[-53,-42],[-54,-92],[-128,38],[34,45],[-83,20],[-48,-11],[-6,-59],[-66,-15],[-75,98],[-39,-58],[92,-89],[17,-4]],[[4558,2043],[-2,-56]],[[4556,1987],[-57,39],[-66,-12],[30,-54],[-62,-1],[-11,-42],[-53,-77],[-56,4],[-50,-7],[-37,-19],[7,-31],[103,2],[-65,-97],[46,-35],[-18,-50],[5,-41],[-12,-53],[-33,-79],[26,-36],[16,-76],[-15,-42],[31,-35]],[[4558,2043],[14,40],[72,-52],[12,-39],[-41,-27],[-7,-60],[63,-29],[-33,-74],[-48,18],[-26,-24],[-80,147],[72,44]],[[3341,2617],[29,32],[-45,42],[-75,-27],[13,-85],[34,-140],[-51,38],[-46,-33],[-54,59],[-35,55],[-80,108],[-55,-16],[-56,344],[-24,125],[-663,-6]],[[2233,3113],[-37,83],[2,58],[-50,105],[-79,93],[-15,35],[13,25],[-7,55],[-52,120],[-32,88],[-20,85],[2,84],[35,50],[0,84],[-6,33],[9,95],[-22,70]],[[1974,4276],[190,-23],[239,-31],[37,-21],[63,-7],[31,-18],[47,1],[81,-13],[5,-18],[206,-70]],[[2873,4076],[-13,-131],[54,-16],[90,5],[6,26],[47,9],[62,28],[39,9],[73,-3],[-22,-32],[-58,-39],[11,-12],[75,-4],[15,-33],[42,-3]],[[3294,3880],[51,31],[12,-31],[-52,-40],[21,-16],[23,-76],[-50,-15],[12,-56],[89,-10],[31,79],[57,6],[55,-36],[10,25],[47,-36],[51,-12],[-2,-50],[51,9],[-24,41],[21,67],[54,-13],[15,-21],[89,3]],[[3855,3729],[39,-88],[-42,-73],[100,-67],[-13,-33],[36,-59],[-18,-62],[23,-57],[9,-76],[90,7],[36,-29],[83,26],[17,33],[50,-11],[39,-30],[62,-33],[60,-17]],[[4426,3160],[12,-5],[145,4],[121,11],[-17,-44],[1,-74],[49,1],[-8,-105],[18,0],[3,-63],[44,-8],[34,-95]],[[3855,3729],[29,28],[27,4],[-14,48],[36,5],[25,45],[-2,26],[95,-27],[99,-20],[14,-50],[46,0],[30,28]],[[4240,3816],[98,-113],[77,-104],[7,-52],[27,-62],[42,-45],[-38,-30],[-31,-206],[4,-44]],[[3294,3880],[-22,72],[49,43],[47,11],[0,-28],[62,9],[-14,60],[-75,3],[-67,15],[10,77],[19,58],[40,15],[2,-47],[46,-2],[32,20],[39,50],[8,48],[-67,18],[5,29],[47,89],[21,62],[26,47],[69,-40],[28,17],[23,-36],[103,25]],[[3725,4495],[35,-39],[9,-67],[86,-38]],[[3855,4351],[71,45],[-17,47]],[[3909,4443],[110,30],[51,-14],[10,-83],[-41,-8],[21,-70],[29,-12],[-3,-75],[11,-52]],[[4097,4159],[11,-55],[39,-73],[95,-3],[4,-75],[52,9],[5,-33],[-54,-27],[2,-75],[-11,-11]],[[2873,4076],[16,-13],[54,7],[5,51],[-10,78],[6,50],[-74,52],[46,96],[19,1],[-13,72]],[[2922,4470],[-8,29]],[[2914,4499],[95,29],[-47,66],[20,201],[46,35],[76,2],[0,113],[-81,-3],[84,94],[63,-25],[44,31],[0,20],[37,28],[47,0],[-2,65],[56,36]],[[3352,5191],[70,22],[16,-22],[34,29],[37,-14],[14,17],[93,-8],[-24,34],[-59,-8],[33,75],[60,-46],[9,-34],[65,33],[44,41],[19,-41],[23,21]],[[3786,5290],[41,33],[18,-45],[42,28],[66,26],[-3,46],[94,18],[3,36],[44,-24],[7,58],[-16,53],[28,1],[18,35],[43,31],[9,26],[62,15],[27,-31],[73,25],[57,52],[73,28],[7,-17],[87,35]],[[4566,5719],[23,-67],[-53,-45],[0,-26],[27,-21],[-9,-56],[-30,-26],[10,-88],[-75,-12],[-7,-59],[26,-67],[33,-41],[48,-3]],[[4559,5208],[25,-44],[-24,-38],[40,-41],[35,28],[18,-77],[15,-130],[25,-62],[-3,-110],[72,12],[1,-36],[-66,-12],[12,-48],[81,-18],[19,-58]],[[4809,4574],[-71,-1],[-13,-39],[117,-102],[-49,-127]],[[4793,4305],[-23,25],[-82,-51],[-44,-14],[13,-44],[-68,-11],[-46,-24],[-42,9],[-35,-18],[-51,47],[-43,12],[-140,-4],[1,-26],[-81,3],[-55,-50]],[[3909,4443],[0,83],[-15,18],[-55,25]],[[3839,4569],[-72,-1],[-42,-73]],[[3756,5049],[-78,-29],[21,-29],[44,-30],[34,11],[43,-24]],[[3820,4948],[20,-12],[25,27],[73,23],[-14,66],[-47,-19],[-48,22]],[[3829,5055],[-10,13]],[[3819,5068],[3,7]],[[3822,5075],[1,9]],[[3823,5084],[1,60],[-34,5],[-16,-40]],[[3774,5109],[-11,-38]],[[3763,5071],[-7,-22]],[[4809,4574],[103,-14],[65,29],[13,33],[70,-6]],[[5060,4616],[65,6],[0,49],[208,0],[54,4],[0,28],[524,0]],[[5911,4703],[0,-239],[0,-442]],[[5911,4022],[-58,-2],[-467,0],[1,147],[-37,4],[-53,-60],[-24,14],[-71,1],[20,27],[-58,1],[-129,-57],[-72,13],[-61,65],[-36,-30],[-73,160]],[[3761,959],[-81,-44],[-87,-32],[-64,36],[-38,-6],[-58,-54],[19,-11],[43,-83],[38,-28],[18,-75],[25,-29],[-16,-36],[-25,-8],[-13,-46],[-80,-63],[-31,3],[-69,-31],[-30,9],[-90,4],[-53,-7]],[[3169,458],[-88,91],[-109,90],[-127,132],[-20,37],[-1,34],[-47,70],[-45,45],[-19,56],[3,24],[-44,59],[-32,75],[-31,30],[-53,92],[-27,107],[-4,91],[-18,25],[5,50],[-11,42],[-50,15],[3,28],[-25,49],[-31,106],[18,22],[42,10],[11,27],[-24,26],[-1,41],[-15,53],[-48,53],[-57,27],[-19,52],[11,73],[-4,38],[15,30],[-16,83],[-33,56],[2,53],[-38,48],[-21,41],[13,95],[24,42],[-5,41],[-25,43],[2,33],[-22,38],[-6,63],[26,76],[14,70],[14,16],[-23,57]],[[4963,7443],[19,40],[71,-7],[150,-3],[8,178],[-12,55],[0,145],[19,53],[-8,110]],[[5210,8014],[133,-8]],[[5343,8006],[-1,-297],[182,-1]],[[5524,7708],[385,0],[298,0]],[[6207,7708],[415,1]],[[6622,7709],[0,-579],[0,-329]],[[6622,6801],[-34,-2],[-27,-19],[-43,7],[-44,-22],[-86,0],[-55,25],[-74,11],[-92,-11],[-13,16],[-79,15],[-60,1],[-17,12],[-87,10]],[[5911,6844],[-49,0],[-149,24],[-58,-13],[-71,17],[-93,3],[-34,-11],[-4,-23],[-41,-26],[-83,-23],[-63,-36],[-23,-2],[-45,-47]],[[5198,6707],[1,477],[-236,259]],[[5198,6707],[-106,-36],[-40,-29],[-35,-57],[-63,-47],[-54,-103],[-17,-63],[7,-26],[-32,-131]],[[4858,6215],[-33,72],[-94,-31],[-5,-42]],[[4726,6214],[-68,12],[-105,78],[-47,44],[-216,36],[-101,40],[-100,99],[-32,92],[-41,36],[44,43],[35,-41],[52,25],[25,-1],[12,111],[48,-32],[59,-2]],[[4291,6754],[189,113],[3,134],[119,34]],[[4602,7035],[51,34],[26,-41],[90,89],[67,99],[-40,56],[60,45],[0,41],[29,48],[48,-28],[30,65]],[[4602,7035],[-74,92],[22,12],[-48,71],[-13,-9],[-40,43],[-49,88],[2,35],[-20,17],[0,48]],[[4382,7432],[66,40],[-38,56],[8,65],[32,3],[-1,34],[44,3],[3,99],[15,-3],[-13,98],[49,-5],[9,54],[56,1],[0,100],[15,75]],[[4627,8052],[188,-13]],[[4815,8039],[395,-25]],[[4815,8039],[8,209],[16,391],[55,185],[56,83]],[[4950,8907],[175,-124],[93,-14],[56,-2],[23,22],[59,-15],[35,5]],[[5391,8779],[-8,-187],[-18,-261],[-22,-325]],[[5391,8779],[94,-36],[69,-2],[81,6],[34,10],[34,-29]],[[5703,8728],[0,-89],[-149,0],[0,-139],[146,-305],[4,-1]],[[5704,8194],[-18,-74],[27,-2],[-28,-48],[-4,-39],[28,-50],[-36,-44],[37,-71],[-48,-52],[-44,-14],[-52,-40],[-42,-52]],[[6622,6801],[1,-467],[2,-847],[-714,1]],[[5911,5488],[-1,43]],[[5910,5531],[6,239],[-1,88]],[[5915,5858],[11,91],[-5,300],[-10,595]],[[5915,5858],[-468,-127],[-10,65],[16,190],[-48,35],[-119,-46],[-4,43],[-53,-16],[-164,117],[-43,24],[-144,25],[-20,47]],[[4566,5719],[59,28],[-11,14],[26,42],[-13,87],[15,1],[-21,82],[22,34],[-43,3],[19,66],[40,10],[98,-29],[-41,72],[50,21],[1,32],[-49,-18],[8,50]],[[5910,5531],[-83,-4],[-367,-3],[-48,-8],[-204,-2],[0,-180],[-14,-45],[3,-94]],[[5197,5195],[-93,-12],[3,-46],[-59,-1],[-89,15],[-36,31],[-31,9],[-22,-83],[-45,3],[-20,67],[-125,35],[-121,-5]],[[3786,5290],[-18,76],[-47,80],[17,63],[49,16],[-49,85],[-46,-9],[-13,88],[11,39],[-14,46],[-25,280],[-29,49],[-93,10],[-6,-23],[-39,11],[-59,39]],[[3425,6140],[-56,-6],[-34,10],[-29,55],[-24,3],[-35,39],[-15,32],[-45,-29],[-48,28]],[[3139,6272],[35,50],[24,50],[97,119],[21,38],[154,144],[33,22],[27,-29],[44,10],[-38,51],[58,54],[83,144],[30,40]],[[3707,6965],[63,-38],[27,29],[40,21],[16,-24],[-65,-40],[149,-129],[77,67],[52,-16],[99,19],[15,-48],[25,11],[74,-2],[12,-61]],[[3707,6965],[-122,69],[-22,57]],[[3563,7091],[-8,20],[17,281],[-15,77]],[[3557,7469],[141,79],[66,32],[89,111],[6,33]],[[3859,7724],[50,20],[15,-40],[50,22],[17,-41],[32,-15],[47,7],[-1,-36],[-29,-3],[-2,-62],[43,-10],[48,-43],[56,-37],[12,20],[67,-47],[38,1],[66,16],[14,-44]],[[3859,7724],[-34,176],[-35,151],[0,101],[99,0],[-36,66]],[[3853,8218],[31,4],[23,84],[35,24],[125,7],[14,-24],[71,1],[110,9],[57,-16],[21,-27],[42,-15],[101,0]],[[4483,8265],[0,-205],[144,-8]],[[4368,7603],[-11,105],[-57,8],[-44,-8],[-52,8],[6,-91],[63,-8],[20,22],[62,-18],[13,-18]],[[4483,8265],[0,440]],[[4483,8705],[0,132]],[[4483,8837],[0,280]],[[4483,9117],[302,1],[63,-85],[27,-51],[48,-34],[27,-41]],[[5703,8728],[18,-7]],[[5721,8721],[37,-15],[6,30]],[[5764,8736],[69,-3],[15,13],[62,-20]],[[5910,8726],[1,-338],[-39,-40],[-82,0],[-11,-37],[-28,1],[-47,-118]],[[5197,5195],[-1,-29],[54,-23],[-31,-154],[-43,-116],[-66,-85],[-34,-58],[-22,-54],[6,-60]],[[5194,5130],[0,7],[-4,-1],[0,-5],[4,-1]],[[3352,5191],[-30,51],[-8,47],[-24,38],[83,52],[-25,52],[35,3],[-8,73],[15,41],[-56,145],[2,8]],[[3336,5701],[22,83],[4,77],[62,74],[31,24],[-37,109],[13,22],[-6,50]],[[3336,5701],[-44,0],[-59,-20],[-20,29],[-54,-6],[-2,18],[-113,5],[0,-24],[-83,12],[-37,21],[-28,-47],[-52,-13],[-31,2],[19,53],[-52,-4],[-60,-22],[38,116],[-33,-12],[-12,22]],[[2713,5831],[23,65],[-32,16],[28,62],[-79,24],[-13,56],[24,100],[23,-6],[68,14],[95,100],[-15,41],[-79,36],[29,53],[-3,21],[-57,23],[12,60],[17,41]],[[2754,6537],[62,-27],[39,6],[9,-55],[73,-65],[140,-78],[42,-49],[20,3]],[[2754,6537],[-1,86]],[[2753,6623],[66,0],[29,58],[64,3],[45,-50],[74,86]],[[3031,6720],[57,20],[54,-4],[68,26],[14,-28],[55,29],[6,39],[-13,23],[2,61],[108,67],[67,5],[-19,50],[-2,44],[66,3],[57,17],[12,19]],[[3031,6720],[23,49],[-3,51],[-22,74],[10,54],[-15,18],[-12,100],[23,63],[1,73],[-24,57],[-23,124],[0,50],[12,68],[-11,34],[22,58]],[[3012,7593],[2,0]],[[3014,7593],[174,-31],[33,-15],[90,-22],[92,-15],[81,-1],[73,-40]],[[3014,7593],[-15,119],[36,34],[-30,16],[-62,141],[3,83],[24,47],[32,39],[37,27],[34,75],[-26,17],[2,29],[-31,26]],[[3018,8246],[306,0],[19,13],[-11,46],[-30,30],[35,47],[-12,13],[26,75]],[[3351,8470],[79,35],[-3,24]],[[3427,8529],[17,-29],[134,-128],[70,-89],[93,-17],[105,-36],[7,-12]],[[3427,8529],[38,33],[15,37],[73,30],[53,8],[35,-13],[49,24],[54,-14],[64,12],[0,74],[83,-15],[117,-3],[43,10],[76,-27],[48,-33],[43,43],[82,3],[97,-13],[42,2],[44,18]],[[3427,8529],[-35,60],[-26,65],[-17,0],[0,54]],[[3349,8708],[249,113],[168,3]],[[3766,8824],[360,6],[357,7]],[[3766,8824],[-37,67],[-11,42],[5,48],[-42,76]],[[3681,9057],[-2,60]],[[3679,9117],[336,-3],[260,4],[208,-1]],[[5721,8721],[43,15]],[[3855,4351],[-13,70],[-22,27],[19,121]],[[1974,4276],[-31,97],[5,22],[40,8],[-5,73],[-45,146],[-17,72],[4,40],[47,-13]],[[1972,4721],[39,17],[-4,28]],[[2007,4766],[12,90],[-15,50],[1,39]],[[2005,4945],[50,10],[51,27]],[[2106,4982],[-2,-76],[60,-23],[121,-34],[58,-24],[0,-188],[37,5],[79,-29],[40,-26],[57,-51],[126,-75],[92,-5],[38,-15],[41,5],[69,24]],[[2106,4982],[38,4],[-34,52],[-115,4]],[[1995,5042],[-40,92],[-19,79],[-26,56],[-59,67],[-17,51],[-87,106],[-32,50],[-69,80],[-47,37],[14,44],[-68,110],[-17,66],[-37,66],[-67,85],[-18,44],[-41,53]],[[1365,6128],[80,45],[81,72],[61,24]],[[1587,6269],[43,-47],[229,-404],[188,-330],[230,-99]],[[2277,5389],[125,-179],[59,40],[50,-55],[-27,-29],[10,-72],[26,-34],[-14,-29],[10,-53],[35,-28],[59,12],[11,-53],[43,-62],[113,-28],[12,-98],[-21,-145],[77,-16],[69,-61]],[[2277,5389],[77,-1],[51,-83],[37,58],[93,72],[51,-6],[22,80],[15,115],[71,92],[-2,18],[21,97]],[[3819,5068],[-17,-23],[-46,4]],[[3763,5071],[38,2]],[[3801,5073],[2,-1]],[[3803,5072],[8,-1]],[[3811,5071],[11,4]],[[3829,5055],[5,-60],[-14,-47]],[[3811,5071],[1,14]],[[3812,5085],[1,2]],[[3813,5087],[10,-3]],[[3813,5087],[-13,1]],[[3800,5088],[-26,21]],[[3800,5088],[1,-15]],[[1972,4721],[35,45]],[[2005,4945],[2,42],[-12,55]],[[1587,6269],[70,28],[90,15],[58,-7],[51,-18],[69,17],[35,-22],[41,14],[91,-33],[71,9],[50,21],[76,71],[23,8],[67,65],[46,21],[41,47],[9,24],[70,44],[8,32],[25,12],[42,61]],[[2620,6678],[44,-1],[30,-39],[59,-15]],[[3803,5072],[9,13]],[[928,7064],[-6,41],[-40,77],[-20,58],[-32,48],[-26,70],[-55,111],[-42,73],[-3,44],[-65,119],[-2,23],[-33,58],[-60,66]],[[544,7852],[594,0],[402,0],[353,0]],[[1893,7852],[-4,-14]],[[1889,7838],[-7,-35],[21,-75],[26,-67],[38,-32],[6,-47],[-16,-21],[11,-37]],[[1968,7524],[10,-38],[-15,-36],[31,-91],[51,-33],[-32,-62],[30,-15],[17,19],[35,-42],[-35,-41],[41,-23],[33,1],[36,-98]],[[2170,7065],[-479,0],[-763,-1]],[[2620,6678],[-55,49],[-71,4],[-44,71],[-55,28],[2,35],[35,37],[1,49],[-100,22],[-23,-8],[-9,43],[-86,-3],[-50,6],[5,54]],[[1968,7524],[81,0],[5,72],[-40,-2],[-2,65],[81,9],[189,0],[83,20],[42,3],[80,-15],[82,26]],[[2569,7702],[-2,-43],[76,6],[100,-5],[144,-31],[63,0],[62,-36]],[[2762,8848],[-57,53]],[[2705,8901],[-29,13],[-29,32]],[[2647,8946],[28,6],[-36,66],[-11,45],[-20,24],[1,34]],[[2609,9121],[125,-1]],[[2734,9120],[18,-87],[28,-43]],[[2780,8990],[27,-36],[3,-55]],[[2810,8899],[-48,-51]],[[2810,8899],[105,-6]],[[2915,8893],[-47,-56]],[[2868,8837],[0,2]],[[2868,8839],[-47,0],[-8,-28],[-69,-32],[-18,-87]],[[2726,8692],[-26,-59]],[[2700,8633],[-81,61]],[[2619,8694],[143,154]],[[2619,8694],[-77,-79]],[[2542,8615],[-2,35],[-40,63],[-37,-20],[-23,34]],[[2440,8727],[100,42],[52,39]],[[2592,8808],[51,15],[62,78]],[[2592,8808],[-24,46],[-1,48],[-25,23]],[[2542,8925],[105,21]],[[2542,8925],[-4,0]],[[2538,8925],[-33,39],[-2,46],[-73,60],[-24,38],[-24,13]],[[2382,9121],[227,0]],[[2734,9120],[221,-1]],[[2955,9119],[-175,-129]],[[2955,9119],[24,0]],[[2979,9119],[1,-49]],[[2980,9070],[-33,-10],[-61,-72]],[[2886,8988],[-76,-89]],[[2979,9119],[146,0]],[[3125,9119],[-17,-11],[-15,-105],[-4,-79]],[[3089,8924],[-29,15],[-11,50]],[[3049,8989],[-6,29],[-63,52]],[[3049,8989],[-163,-1]],[[3089,8924],[24,-80]],[[3113,8844],[-57,41]],[[3056,8885],[-141,8]],[[2915,8893],[12,-25],[59,-59],[45,-58]],[[3031,8751],[-23,-1],[-98,36]],[[2910,8786],[-42,0],[0,51]],[[2910,8786],[3,-93]],[[2913,8693],[-83,-1]],[[2830,8692],[0,93],[20,44],[18,10]],[[2830,8692],[-104,0]],[[2913,8693],[-2,-41],[-23,-29],[7,-32]],[[2895,8591],[-6,-65]],[[2889,8526],[-44,45],[-64,17],[-54,4],[-27,41]],[[1889,7838],[212,157],[-44,39],[-22,98],[-6,346]],[[2029,8478],[313,164],[1,63],[22,54],[26,-1]],[[2391,8758],[49,-31]],[[2542,8615],[41,-34],[49,-12],[67,-44],[49,-405],[-15,5],[-31,-67],[43,-113],[-2,-44],[-33,-34],[29,-47],[3,-26],[-63,-32],[-109,-38],[-1,-22]],[[2391,8758],[4,32],[-8,84],[-13,53]],[[2374,8927],[-25,68]],[[2349,8995],[11,16],[38,-24],[61,-20],[54,-38],[25,-4]],[[2349,8995],[-6,31],[0,95]],[[2343,9121],[39,0]],[[3125,9119],[154,-1]],[[3279,9118],[17,-61]],[[3296,9057],[-20,-28],[-83,-66],[-15,-23],[-1,-61],[-43,-50]],[[3134,8829],[-21,15]],[[3134,8829],[28,-20]],[[3162,8809],[-6,-161]],[[3156,8648],[-100,55]],[[3056,8703],[0,48]],[[3056,8751],[0,134]],[[3056,8751],[-25,0]],[[3056,8703],[0,-16]],[[3056,8687],[-25,6],[-118,0]],[[3056,8687],[0,-65]],[[3056,8622],[-32,-21],[-25,4],[-47,-15],[-57,1]],[[3056,8622],[19,-18],[8,-64]],[[3083,8540],[-2,-47],[-12,-36],[-52,-61],[-6,-59]],[[3011,8337],[-18,18],[5,98],[-14,37],[-74,38],[-21,-2]],[[2029,8478],[-7,360]],[[2022,8838],[77,37],[38,-4],[54,29]],[[2191,8900],[183,27]],[[2191,8900],[-40,39],[0,33],[-44,49],[4,34],[-21,15],[-2,52]],[[2088,9122],[255,-1]],[[3681,9057],[-36,-7],[-126,32],[-62,-22],[3,-59],[17,-26]],[[3477,8975],[-79,6],[-35,37],[11,38],[-20,22],[-58,-21]],[[3279,9118],[400,-1]],[[3477,8975],[-26,-11],[-21,-44],[-41,-20],[0,-50],[-16,-43],[-46,-35],[-19,-68]],[[3308,8704],[-146,105]],[[3308,8704],[-97,-103]],[[3211,8601],[-87,-90]],[[3124,8511],[21,40],[11,97]],[[3124,8511],[-41,29]],[[3351,8470],[-140,131]],[[3308,8704],[41,4]],[[2022,8838],[-5,284]],[[2017,9122],[71,0]],[[2290,2102],[0,7],[5,1],[0,-7],[-5,-1]],[[2302,2061],[7,2],[1,-7],[-8,5]],[[2318,2046],[5,3],[0,-6],[-5,3]],[[2453,1869],[2,-6],[-5,-1],[0,5],[3,2]],[[2487,1527],[-9,11],[-6,16],[6,0],[8,-16],[1,-11]],[[2513,1449],[-4,5],[3,7],[3,-2],[-2,-10]],[[69,8642],[-41,80],[-15,68],[-13,206],[7,104],[7,17],[16,113],[45,-9],[12,21],[31,4],[47,39],[97,30],[60,-12],[15,-30],[48,-31],[26,-2],[86,26],[21,-44],[88,16],[78,53],[96,49],[51,55],[47,20],[33,28],[73,3],[34,14],[91,-28],[77,16],[59,-30],[43,-57],[-7,-39],[88,-54],[31,-34],[52,-26],[45,-35],[48,-21],[54,-65],[42,10],[56,-17],[83,30]],[[1780,9110],[7,-26],[-41,-80],[-23,-33],[39,-31],[-4,-54],[-24,-28],[97,-218]],[[1831,8640],[-469,0],[-446,0],[-289,0],[-558,2]],[[1893,7852],[18,58],[-3,43],[-37,79],[-28,99],[7,182],[-19,327]],[[1780,9110],[3,16],[234,-4]],[[4089,773],[-43,-64],[-32,3],[-23,-18],[-24,24],[-56,-1],[-16,-33]],[[3895,684],[-25,4],[-42,49],[-51,-30],[-74,0],[-16,-17],[1,-66],[-41,-60],[-35,-5],[-18,-25],[36,-60],[-24,-26],[5,-26],[-28,-46],[-41,16],[-40,-24],[-16,-24],[-70,-25],[-42,-51],[-74,55],[-48,44],[-45,57],[-38,34]],[[4886,2706],[84,3],[91,-8],[96,1],[96,-16],[71,35],[29,32],[57,-85],[25,-47],[44,48],[110,-11],[10,-26],[93,-9],[37,-27],[23,16],[98,42],[6,-21],[54,14]],[[5910,2647],[0,-342],[0,-360],[1,-365],[-1,-322]],[[5910,1258],[-83,4],[-15,-50],[-18,-1],[-37,57],[-66,0],[-49,36],[-104,33],[-30,-17],[-21,24],[16,55],[-45,26],[-10,-80],[25,-13],[20,-39],[42,8],[-4,-32],[-129,39],[-111,14],[-144,59],[31,63],[-32,-6],[-16,-43],[-57,48],[-35,-121],[-36,8],[-38,-19],[-51,-68],[-53,-128],[-115,-14],[3,46],[-173,7],[-8,-107],[-7,-23],[-80,72],[-34,-22],[-105,60],[-56,111]],[[5910,1258],[1,-442],[-1,-390],[-87,-11],[-46,-52],[-58,16],[-25,-24],[-48,5],[-56,-23],[-28,-46],[-13,-64],[-55,-41],[-106,-12],[-17,-51],[26,-76],[-22,5],[-37,-35],[-55,-17],[-82,32],[-8,29],[-44,27],[-108,9],[-38,11],[-72,-9],[-59,-19],[-24,-19],[-65,-9],[-47,16],[-61,2],[-56,-29],[-78,38],[-30,2],[-54,63],[-105,24],[-85,6],[-33,-20],[-22,7],[-11,46],[-80,10],[-43,-22],[-16,10],[15,105],[-35,3],[-8,41],[-27,37],[12,28],[32,8],[13,40],[-50,110],[-92,-10],[-23,35],[10,56],[-14,26]],[[5911,4022],[0,-436],[-1,-280],[0,-327],[0,-332]],[[5910,8726],[43,0],[39,-16],[40,24],[56,-9],[49,22],[37,-26],[34,-9]],[[6208,8712],[0,-466],[-1,-538]],[[6623,8390],[-1,-681]],[[6208,8712],[40,-31],[53,-27],[71,4],[42,-31],[76,-18],[40,5],[2,19],[52,33],[40,6]],[[5911,5488],[0,-196],[0,-589]],[[1365,6128],[-36,41],[-45,120],[-60,74],[-36,71],[-18,102],[-59,128],[-23,36],[-9,110],[-27,67],[-47,63],[-57,52],[-20,72]],[[3011,8337],[14,-8],[-16,-57],[9,-26]],[[544,7852],[-11,59],[-119,168],[-153,135],[-40,49],[-16,79],[-30,61],[-5,41],[-65,84],[-18,42],[-18,72]]],"transform":{"scale":[0.0014016343548058797,0.0012695095137426943],"translate":[11.715630000006067,-28.969450000004173]},"objects":{"NAM":{"type":"GeometryCollection","geometries":[{"arcs":[[0,1]],"type":"Polygon","properties":{"name":"Kabe","shapeGroup":"NAM","gid":"NAM-2-0"},"id":"NAM-2-0"},{"arcs":[[-1,2,3,4,5,6,7]],"type":"Polygon","properties":{"name":"Katima Muliro Rural","shapeGroup":"NAM","gid":"NAM-2-1"},"id":"NAM-2-1"},{"arcs":[[-7,8]],"type":"Polygon","properties":{"name":"Katima Muliro Urban","shapeGroup":"NAM","gid":"NAM-2-2"},"id":"NAM-2-2"},{"arcs":[[-5,9,10,11,12,13]],"type":"Polygon","properties":{"name":"Kongola","shapeGroup":"NAM","gid":"NAM-2-3"},"id":"NAM-2-3"},{"arcs":[[-4,14,15,-10]],"type":"Polygon","properties":{"name":"Linyandi","shapeGroup":"NAM","gid":"NAM-2-4"},"id":"NAM-2-4"},{"arcs":[[-11,-16,16]],"type":"Polygon","properties":{"name":"Sibinda","shapeGroup":"NAM","gid":"NAM-2-5"},"id":"NAM-2-5"},{"arcs":[[-13,17,18,19]],"type":"Polygon","properties":{"name":"Arandis","shapeGroup":"NAM","gid":"NAM-2-6"},"id":"NAM-2-6"},{"arcs":[[20,21,22,23,24,25,26,27]],"type":"Polygon","properties":{"name":"Daures","shapeGroup":"NAM","gid":"NAM-2-7"},"id":"NAM-2-7"},{"arcs":[[-27,28]],"type":"Polygon","properties":{"name":"Karibib","shapeGroup":"NAM","gid":"NAM-2-8"},"id":"NAM-2-8"},{"arcs":[[-24,29,30,31,32,33,34,35]],"type":"Polygon","properties":{"name":"Omaruru","shapeGroup":"NAM","gid":"NAM-2-9"},"id":"NAM-2-9"},{"arcs":[[-35,36,37]],"type":"Polygon","properties":{"name":"Swakopmund","shapeGroup":"NAM","gid":"NAM-2-10"},"id":"NAM-2-10"},{"arcs":[[-34,38,39,40,41,42,-37]],"type":"Polygon","properties":{"name":"Walvisbay Rural","shapeGroup":"NAM","gid":"NAM-2-11"},"id":"NAM-2-11"},{"arcs":[[-33,43,44,45,46,47,48,49,50,51,-42,52,53,-39],[54,55,56,57,58,59,60,61]],"type":"Polygon","properties":{"name":"Walvisbay Urban","shapeGroup":"NAM","gid":"NAM-2-12"},"id":"NAM-2-12"},{"arcs":[[-51,62,63,64,65]],"type":"Polygon","properties":{"name":"Gibeon","shapeGroup":"NAM","gid":"NAM-2-13"},"id":"NAM-2-13"},{"arcs":[[-23,66,67,-30]],"type":"Polygon","properties":{"name":"Mariental Rural","shapeGroup":"NAM","gid":"NAM-2-14"},"id":"NAM-2-14"},{"arcs":[[68,69,70,71,72,73,74,75,76]],"type":"Polygon","properties":{"name":"Mariental Urban","shapeGroup":"NAM","gid":"NAM-2-15"},"id":"NAM-2-15"},{"arcs":[[-77,77,78,79,80,81]],"type":"Polygon","properties":{"name":"Rehoboth East","shapeGroup":"NAM","gid":"NAM-2-16"},"id":"NAM-2-16"},{"arcs":[[-69,-82,82,83,84,85]],"type":"Polygon","properties":{"name":"Rehoboth Rural","shapeGroup":"NAM","gid":"NAM-2-17"},"id":"NAM-2-17"},{"arcs":[[-70,-86,86,87,88]],"type":"Polygon","properties":{"name":"Rehoboth West","shapeGroup":"NAM","gid":"NAM-2-18"},"id":"NAM-2-18"},{"arcs":[[-71,-89,89,90,91]],"type":"Polygon","properties":{"name":"Berseba","shapeGroup":"NAM","gid":"NAM-2-19"},"id":"NAM-2-19"},{"arcs":[[-75,92,93,94,95]],"type":"Polygon","properties":{"name":"Karas","shapeGroup":"NAM","gid":"NAM-2-20"},"id":"NAM-2-20"},{"arcs":[[-76,-96,96,-78]],"type":"Polygon","properties":{"name":"Keetmanshoop Rural","shapeGroup":"NAM","gid":"NAM-2-21"},"id":"NAM-2-21"},{"arcs":[[-49,97,-79,-97,-95,98,99]],"type":"Polygon","properties":{"name":"Keetmanshoop Urban","shapeGroup":"NAM","gid":"NAM-2-22"},"id":"NAM-2-22"},{"arcs":[[-48,100,101,102,103,-80,-98]],"type":"Polygon","properties":{"name":"Luderitz","shapeGroup":"NAM","gid":"NAM-2-23"},"id":"NAM-2-23"},{"arcs":[[-81,-104,104,105,106,107,-83]],"type":"Polygon","properties":{"name":"Luderitz","shapeGroup":"NAM","gid":"NAM-2-24"},"id":"NAM-2-24"},{"arcs":[[-84,-108,108,109,110],[111]],"type":"Polygon","properties":{"name":"Luderitz","shapeGroup":"NAM","gid":"NAM-2-25"},"id":"NAM-2-25"},{"arcs":[[-85,-111,112,113,114,115,-87]],"type":"Polygon","properties":{"name":"Luderitz","shapeGroup":"NAM","gid":"NAM-2-26"},"id":"NAM-2-26"},{"arcs":[[-91,116,117,118,119]],"type":"Polygon","properties":{"name":"Luderitz","shapeGroup":"NAM","gid":"NAM-2-27"},"id":"NAM-2-27"},{"arcs":[[-50,-100,120,-63],[121]],"type":"Polygon","properties":{"name":"Luderitz","shapeGroup":"NAM","gid":"NAM-2-28"},"id":"NAM-2-28"},{"arcs":[[-47,122,123,-101]],"type":"Polygon","properties":{"name":"Luderitz","shapeGroup":"NAM","gid":"NAM-2-29"},"id":"NAM-2-29"},{"arcs":[[-102,-124,124,125,126]],"type":"Polygon","properties":{"name":"Oranjemund","shapeGroup":"NAM","gid":"NAM-2-30"},"id":"NAM-2-30"},{"arcs":[[-103,-127,127,128,129,-105]],"type":"Polygon","properties":{"name":"Kahenge","shapeGroup":"NAM","gid":"NAM-2-31"},"id":"NAM-2-31"},{"arcs":[[-106,-130,130,131,132]],"type":"Polygon","properties":{"name":"Kapako","shapeGroup":"NAM","gid":"NAM-2-32"},"id":"NAM-2-32"},{"arcs":[[-107,-133,133,134,135,136,-109]],"type":"Polygon","properties":{"name":"Mashare","shapeGroup":"NAM","gid":"NAM-2-33"},"id":"NAM-2-33"},{"arcs":[[-110,-137,137,-113]],"type":"Polygon","properties":{"name":"Mpungu","shapeGroup":"NAM","gid":"NAM-2-34"},"id":"NAM-2-34"},{"arcs":[[-112]],"type":"Polygon","properties":{"name":"Mukwe","shapeGroup":"NAM","gid":"NAM-2-35"},"id":"NAM-2-35"},{"arcs":[[-114,-138,138,139,140]],"type":"Polygon","properties":{"name":"Ndiyona","shapeGroup":"NAM","gid":"NAM-2-36"},"id":"NAM-2-36"},{"arcs":[[-115,-141,141,142,143]],"type":"Polygon","properties":{"name":"Rundu Rural","shapeGroup":"NAM","gid":"NAM-2-37"},"id":"NAM-2-37"},{"arcs":[[-118,144]],"type":"Polygon","properties":{"name":"Rundu Urban","shapeGroup":"NAM","gid":"NAM-2-38"},"id":"NAM-2-38"},{"arcs":[[-122]],"type":"Polygon","properties":{"name":"Hakahana","shapeGroup":"NAM","gid":"NAM-2-39"},"id":"NAM-2-39"},{"arcs":[[-41,145,-53]],"type":"Polygon","properties":{"name":"Katutura Central","shapeGroup":"NAM","gid":"NAM-2-40"},"id":"NAM-2-40"},{"arcs":[[-40,-54,-146]],"type":"Polygon","properties":{"name":"Katutura East","shapeGroup":"NAM","gid":"NAM-2-41"},"id":"NAM-2-41"},{"arcs":[[-32,146,147,148,149,150,-44]],"type":"Polygon","properties":{"name":"Khomasdal North","shapeGroup":"NAM","gid":"NAM-2-42"},"id":"NAM-2-42"},{"arcs":[[-45,-151,151,152,153,154,155]],"type":"Polygon","properties":{"name":"Soweto","shapeGroup":"NAM","gid":"NAM-2-43"},"id":"NAM-2-43"},{"arcs":[[-46,-156,156,-125,-123]],"type":"Polygon","properties":{"name":"Wanaheda","shapeGroup":"NAM","gid":"NAM-2-44"},"id":"NAM-2-44"},{"arcs":[[-58,157,-62,158,159,160,161]],"type":"Polygon","properties":{"name":"Windhoek East","shapeGroup":"NAM","gid":"NAM-2-45"},"id":"NAM-2-45"},{"arcs":[[-55,-158,-57,162]],"type":"Polygon","properties":{"name":"Windhoek Rural","shapeGroup":"NAM","gid":"NAM-2-46"},"id":"NAM-2-46"},{"arcs":[[-56,-163]],"type":"Polygon","properties":{"name":"Windhoek West","shapeGroup":"NAM","gid":"NAM-2-47"},"id":"NAM-2-47"},{"arcs":[[-59,-162,163,164,165]],"type":"Polygon","properties":{"name":"Epupa","shapeGroup":"NAM","gid":"NAM-2-48"},"id":"NAM-2-48"},{"arcs":[[-60,-166,166,167]],"type":"Polygon","properties":{"name":"Kamanjab","shapeGroup":"NAM","gid":"NAM-2-49"},"id":"NAM-2-49"},{"arcs":[[-61,-168,168,-159]],"type":"Polygon","properties":{"name":"Khorixas","shapeGroup":"NAM","gid":"NAM-2-50"},"id":"NAM-2-50"},{"arcs":[[-148,169]],"type":"Polygon","properties":{"name":"Opuwo","shapeGroup":"NAM","gid":"NAM-2-51"},"id":"NAM-2-51"},{"arcs":[[-150,170,-152]],"type":"Polygon","properties":{"name":"Outjo","shapeGroup":"NAM","gid":"NAM-2-52"},"id":"NAM-2-52"},{"arcs":[[-126,-157,-155,171,172,-128]],"type":"Polygon","properties":{"name":"Sesfontein","shapeGroup":"NAM","gid":"NAM-2-53"},"id":"NAM-2-53"},{"arcs":[[-161,173,-164]],"type":"Polygon","properties":{"name":"Eenhana","shapeGroup":"NAM","gid":"NAM-2-54"},"id":"NAM-2-54"},{"arcs":[[174,175,176,177,178,179]],"type":"Polygon","properties":{"name":"Endola","shapeGroup":"NAM","gid":"NAM-2-55"},"id":"NAM-2-55"},{"arcs":[[-129,-173,180,-179,181,182,-131]],"type":"Polygon","properties":{"name":"Engela","shapeGroup":"NAM","gid":"NAM-2-56"},"id":"NAM-2-56"},{"arcs":[[183,184,185,186,187,188,189]],"type":"Polygon","properties":{"name":"Epembe","shapeGroup":"NAM","gid":"NAM-2-57"},"id":"NAM-2-57"},{"arcs":[[-190,190,191,192,193,194,195,196]],"type":"Polygon","properties":{"name":"Ohangwena","shapeGroup":"NAM","gid":"NAM-2-58"},"id":"NAM-2-58"},{"arcs":[[-184,-197,197,198,199,200]],"type":"Polygon","properties":{"name":"Okongo","shapeGroup":"NAM","gid":"NAM-2-59"},"id":"NAM-2-59"},{"arcs":[[-185,-201,201,202]],"type":"Polygon","properties":{"name":"Omundaungilo","shapeGroup":"NAM","gid":"NAM-2-60"},"id":"NAM-2-60"},{"arcs":[[-186,-203,203,204,205]],"type":"Polygon","properties":{"name":"Ondombe","shapeGroup":"NAM","gid":"NAM-2-61"},"id":"NAM-2-61"},{"arcs":[[-188,206,207]],"type":"Polygon","properties":{"name":"Ongenga","shapeGroup":"NAM","gid":"NAM-2-62"},"id":"NAM-2-62"},{"arcs":[[-189,-208,208,209,210,211]],"type":"Polygon","properties":{"name":"Oshikango","shapeGroup":"NAM","gid":"NAM-2-63"},"id":"NAM-2-63"},{"arcs":[[-210,212,213,214,215]],"type":"Polygon","properties":{"name":"Aminius","shapeGroup":"NAM","gid":"NAM-2-64"},"id":"NAM-2-64"},{"arcs":[[-211,-216,216]],"type":"Polygon","properties":{"name":"Gobabis","shapeGroup":"NAM","gid":"NAM-2-65"},"id":"NAM-2-65"},{"arcs":[[-191,-212,-217,-215,217,218,219]],"type":"Polygon","properties":{"name":"Kalahari","shapeGroup":"NAM","gid":"NAM-2-66"},"id":"NAM-2-66"},{"arcs":[[-192,220,221,222]],"type":"Polygon","properties":{"name":"Kalahari","shapeGroup":"NAM","gid":"NAM-2-67"},"id":"NAM-2-67"},{"arcs":[[-193,-223,223,224,225]],"type":"Polygon","properties":{"name":"Otjinene","shapeGroup":"NAM","gid":"NAM-2-68"},"id":"NAM-2-68"},{"arcs":[[-194,-226,226]],"type":"Polygon","properties":{"name":"Otjombinde","shapeGroup":"NAM","gid":"NAM-2-69"},"id":"NAM-2-69"},{"arcs":[[-195,-227,-225,227,228,229]],"type":"Polygon","properties":{"name":"Steinhausen","shapeGroup":"NAM","gid":"NAM-2-70"},"id":"NAM-2-70"},{"arcs":[[-178,230,231,232,-199,233,-182]],"type":"Polygon","properties":{"name":"Anamulenge","shapeGroup":"NAM","gid":"NAM-2-71"},"id":"NAM-2-71"},{"arcs":[[-200,-233,234,235,236,-204,-202]],"type":"Polygon","properties":{"name":"Elim","shapeGroup":"NAM","gid":"NAM-2-72"},"id":"NAM-2-72"},{"arcs":[[-205,-237,237,238]],"type":"Polygon","properties":{"name":"Etayi","shapeGroup":"NAM","gid":"NAM-2-73"},"id":"NAM-2-73"},{"arcs":[[-214,239,240,241,242,-218]],"type":"Polygon","properties":{"name":"Ogongo","shapeGroup":"NAM","gid":"NAM-2-74"},"id":"NAM-2-74"},{"arcs":[[-219,-243,243,244,245,246,247]],"type":"Polygon","properties":{"name":"Okahao","shapeGroup":"NAM","gid":"NAM-2-75"},"id":"NAM-2-75"},{"arcs":[[-220,-248,248,-221]],"type":"Polygon","properties":{"name":"Okalongo","shapeGroup":"NAM","gid":"NAM-2-76"},"id":"NAM-2-76"},{"arcs":[[-222,-249,-247,249,250,-224]],"type":"Polygon","properties":{"name":"Onesi","shapeGroup":"NAM","gid":"NAM-2-77"},"id":"NAM-2-77"},{"arcs":[[-228,-251,251,252]],"type":"Polygon","properties":{"name":"Oshikuku","shapeGroup":"NAM","gid":"NAM-2-78"},"id":"NAM-2-78"},{"arcs":[[-229,-253,253,254,255]],"type":"Polygon","properties":{"name":"Outapi","shapeGroup":"NAM","gid":"NAM-2-79"},"id":"NAM-2-79"},{"arcs":[[-232,256,257,258,-235]],"type":"Polygon","properties":{"name":"Ruacana","shapeGroup":"NAM","gid":"NAM-2-80"},"id":"NAM-2-80"},{"arcs":[[-236,-259,259,260,-238]],"type":"Polygon","properties":{"name":"Tsandi","shapeGroup":"NAM","gid":"NAM-2-81"},"id":"NAM-2-81"},{"arcs":[[-143,261,262,-241,263]],"type":"Polygon","properties":{"name":"Okaku","shapeGroup":"NAM","gid":"NAM-2-82"},"id":"NAM-2-82"},{"arcs":[[-242,-263,264,265,-244]],"type":"Polygon","properties":{"name":"Okatana","shapeGroup":"NAM","gid":"NAM-2-83"},"id":"NAM-2-83"},{"arcs":[[-245,-266,266,267,268]],"type":"Polygon","properties":{"name":"Okatyali","shapeGroup":"NAM","gid":"NAM-2-84"},"id":"NAM-2-84"},{"arcs":[[-246,-269,269,-254,-252,-250]],"type":"Polygon","properties":{"name":"Ompundja","shapeGroup":"NAM","gid":"NAM-2-85"},"id":"NAM-2-85"},{"arcs":[[-136,270,-267,271,-139]],"type":"Polygon","properties":{"name":"Ondangwa","shapeGroup":"NAM","gid":"NAM-2-86"},"id":"NAM-2-86"},{"arcs":[[-258,272,273,-260]],"type":"Polygon","properties":{"name":"Ongwediva","shapeGroup":"NAM","gid":"NAM-2-87"},"id":"NAM-2-87"},{"arcs":[[-140,-272,-265,-262,-142]],"type":"Polygon","properties":{"name":"Oshakati East","shapeGroup":"NAM","gid":"NAM-2-88"},"id":"NAM-2-88"},{"arcs":[[274]],"type":"Polygon","properties":{"name":"Oshakati West","shapeGroup":"NAM","gid":"NAM-2-89"},"id":"NAM-2-89"},{"arcs":[[275]],"type":"Polygon","properties":{"name":"Uukwiyu","shapeGroup":"NAM","gid":"NAM-2-90"},"id":"NAM-2-90"},{"arcs":[[276]],"type":"Polygon","properties":{"name":"Uuvudhiya","shapeGroup":"NAM","gid":"NAM-2-91"},"id":"NAM-2-91"},{"arcs":[[277]],"type":"Polygon","properties":{"name":"Engodi","shapeGroup":"NAM","gid":"NAM-2-92"},"id":"NAM-2-92"},{"arcs":[[278]],"type":"Polygon","properties":{"name":"Guinas","shapeGroup":"NAM","gid":"NAM-2-93"},"id":"NAM-2-93"},{"arcs":[[279]],"type":"Polygon","properties":{"name":"Okankolo","shapeGroup":"NAM","gid":"NAM-2-94"},"id":"NAM-2-94"},{"arcs":[[280,281,282]],"type":"Polygon","properties":{"name":"Olukonda","shapeGroup":"NAM","gid":"NAM-2-95"},"id":"NAM-2-95"},{"arcs":[[-177,283,-282,284,-273,-257,-231]],"type":"Polygon","properties":{"name":"Omuntele","shapeGroup":"NAM","gid":"NAM-2-96"},"id":"NAM-2-96"},{"arcs":[[-22,285,286,-67]],"type":"Polygon","properties":{"name":"Omuthiyagwipundi","shapeGroup":"NAM","gid":"NAM-2-97"},"id":"NAM-2-97"},{"arcs":[[-26,287,288,289,-28,-29]],"type":"Polygon","properties":{"name":"Onayena","shapeGroup":"NAM","gid":"NAM-2-98"},"id":"NAM-2-98"},{"arcs":[[-21,-290,290,-286]],"type":"Polygon","properties":{"name":"Oniipa","shapeGroup":"NAM","gid":"NAM-2-99"},"id":"NAM-2-99"},{"arcs":[[-25,-36,-38,-43,-52,-66,291,-288]],"type":"Polygon","properties":{"name":"Onyaanya","shapeGroup":"NAM","gid":"NAM-2-100"},"id":"NAM-2-100"},{"arcs":[[-72,-92,-120,292,293]],"type":"Polygon","properties":{"name":"Tsumeb","shapeGroup":"NAM","gid":"NAM-2-101"},"id":"NAM-2-101"},{"arcs":[[-19,294,-73,-294,295]],"type":"Polygon","properties":{"name":"Grootfontein","shapeGroup":"NAM","gid":"NAM-2-102"},"id":"NAM-2-102"},{"arcs":[[-64,-121,-99,-94,296]],"type":"Polygon","properties":{"name":"Okahandja","shapeGroup":"NAM","gid":"NAM-2-103"},"id":"NAM-2-103"},{"arcs":[[-160,-169,-167,-165,-174]],"type":"Polygon","properties":{"name":"Okakarara","shapeGroup":"NAM","gid":"NAM-2-104"},"id":"NAM-2-104"},{"arcs":[[-154,297,-180,-181,-172]],"type":"Polygon","properties":{"name":"Omatako","shapeGroup":"NAM","gid":"NAM-2-105"},"id":"NAM-2-105"},{"arcs":[[-132,-183,-234,-198,-196,-230,-256,298,-134]],"type":"Polygon","properties":{"name":"Otavi","shapeGroup":"NAM","gid":"NAM-2-106"},"id":"NAM-2-106"},{"arcs":[[-135,-299,-255,-270,-268,-271]],"type":"Polygon","properties":{"name":"Otjiwarongo","shapeGroup":"NAM","gid":"NAM-2-107"},"id":"NAM-2-107"},{"arcs":[[-176,299,-283,-284]],"type":"Polygon","properties":{"name":"Tsumkwe","shapeGroup":"NAM","gid":"NAM-2-108"},"id":"NAM-2-108"}]}}}