{"type":"Topology","arcs":[[[9489,2682],[190,-380],[-53,-14],[-98,-54],[-41,-2],[-22,-54],[-82,13],[-17,15],[-72,-5],[-77,-51],[-14,-30],[-130,-49],[-94,-60],[-17,-28],[-98,-40],[-86,-61],[-27,-39],[-54,9],[-52,-28],[-78,11]],[[8567,1835],[-46,31]],[[8521,1866],[-56,20],[-117,103],[-69,-10],[-43,81],[-3,95],[25,61],[-28,61]],[[8230,2277],[32,31],[3,34],[50,13],[24,44],[-18,62],[-3,59],[-97,112],[59,191],[-48,12],[-39,98],[-44,78],[-22,9]],[[8127,3020],[0,47],[101,-30],[74,48],[33,1],[-65,87],[-68,44]],[[8202,3217],[40,24],[33,40],[45,29],[61,-13],[28,45],[-15,38],[33,29],[62,3],[10,-50],[83,-17],[47,18],[26,-16],[108,11],[3,34],[24,20]],[[8790,3412],[124,-8],[-3,-70],[49,-31],[-11,-27],[75,5],[20,14],[159,-241],[286,-372]],[[956,5854],[-18,-29],[71,-26],[5,-143],[14,-28],[-14,-72],[61,-29],[33,-51],[109,24],[107,-96],[98,-46],[15,-43],[69,-4]],[[1506,5311],[1,-41],[-27,-37],[-22,-101],[-123,-86]],[[1335,5046],[-77,2],[-60,-25],[-12,-64],[-1,-68]],[[1185,4891],[-11,3]],[[1174,4894],[-13,1],[-159,104],[-58,29],[-77,75],[-3,20],[-75,87],[-11,43],[-91,70],[-48,60],[-111,76],[-29,34],[-61,46],[-207,121],[-123,83],[-108,94],[13,64],[29,76],[33,33],[6,30],[118,59],[51,72],[22,47],[101,-15],[34,-33],[55,-31],[51,-63],[26,-14],[39,-80],[-12,-16],[15,-64],[27,-2],[87,-42],[87,-26],[83,6],[91,16]],[[1185,4891],[43,-14],[49,-60],[67,-52],[53,-23],[62,38]],[[1459,4780],[71,-61],[29,-59]],[[1559,4660],[-51,-15],[0,-22],[34,-51],[41,-26],[33,-59]],[[1616,4487],[-154,95],[-99,53],[13,28],[-28,30],[-26,66],[-73,73],[-75,62]],[[956,5854],[-44,22],[-30,-6],[-51,17],[-20,25],[40,32],[79,26],[57,35],[22,33],[390,24]],[[1399,6062],[15,-58],[33,-25],[-14,-48],[43,-204],[-61,-71],[10,-18],[73,-21]],[[1498,5617],[18,-67],[-31,-69],[28,-79],[-10,-24],[3,-67]],[[1399,6062],[251,15],[13,-24],[44,-19],[51,14],[3,45],[41,8],[49,33],[88,36],[-9,39],[12,31],[75,52],[26,40],[-28,25],[5,99],[29,17]],[[2049,6473],[24,-21],[57,-2],[43,72]],[[2173,6522],[47,-2],[19,18],[68,-23]],[[2307,6515],[-6,-26],[115,3],[62,-18]],[[2478,6474],[-21,-75],[-27,-17],[29,-78],[-121,-79],[-38,-9],[-64,9],[-18,-68],[-48,-41],[-35,9],[-49,-61],[-1,-64],[15,-63],[-58,-95],[-10,-49],[-49,-81],[7,-50],[-16,-89]],[[1974,5573],[-61,1],[-18,62],[-46,-19],[-160,20],[-33,55],[-29,-15],[-16,36],[-34,-26],[-42,6],[-37,-76]],[[1335,5046],[21,-48],[76,-29],[69,-119],[-3,-24]],[[1498,4826],[-39,-46]],[[2049,6473],[-46,89],[28,38],[28,67]],[[2059,6667],[56,-12],[21,-38],[-4,-53],[44,-17],[-3,-25]],[[2059,6667],[-1,7]],[[2058,6674],[81,58],[109,-8],[56,12]],[[2304,6736],[-13,-118],[-17,-47],[33,-56]],[[2304,6736],[81,41],[19,49]],[[2404,6826],[64,-47]],[[2468,6779],[76,-91],[45,-17],[-26,-93]],[[2563,6578],[-22,5],[-46,-62],[-2,-53]],[[2493,6468],[-15,6]],[[2058,6674],[-8,40],[17,33],[-7,36],[56,14],[31,32],[25,49],[42,-11],[72,32],[63,-26],[55,-47]],[[2493,6468],[-4,-42],[17,-30],[9,-67]],[[2515,6329],[-7,-40],[17,-48],[6,-86],[38,-15],[11,-52],[53,-78],[43,-38]],[[2676,5972],[-29,-37],[1,-82],[34,-65],[32,-156],[-23,-103]],[[2691,5529],[-131,-87],[-43,34],[-115,-78]],[[2402,5398],[-37,15],[-70,-21]],[[2295,5392],[-79,76],[-33,42],[-46,-7],[-98,62],[-26,-11],[-39,19]],[[1498,4826],[26,-1],[31,30],[79,48],[-1,69],[54,82],[19,59],[109,72],[104,78],[50,-63]],[[1969,5200],[-80,-10],[26,-75],[-76,-93],[4,-29],[-27,-32],[-3,-49],[12,-108],[88,-30]],[[1913,4774],[-101,-84]],[[1812,4690],[-91,-26],[-162,-4]],[[2295,5392],[11,-69],[19,-27],[-63,-13],[-36,-33],[-64,-29]],[[2162,5221],[-100,0],[-93,-21]],[[1812,4690],[59,-18],[24,22],[60,10],[25,31],[77,-1],[63,-64],[29,11]],[[2149,4681],[31,-3],[9,53],[131,30],[59,-7],[64,8],[68,40]],[[2511,4802],[95,-37],[36,-29]],[[2642,4736],[33,-113],[-152,-136],[-47,-1],[-43,-88],[6,-21],[-29,-38],[-1,-54],[-25,-35],[16,-84],[30,-32],[15,-54],[-3,-104]],[[2442,3976],[-14,-41]],[[2428,3935],[-45,43],[-75,54],[-82,46],[-95,63],[-184,106],[-223,156],[-42,40],[-66,44]],[[1913,4774],[70,39],[12,67],[31,32],[4,126],[33,12],[49,54]],[[2112,5104],[15,-78],[-15,-199],[6,-111],[31,-35]],[[2402,5398],[65,-89],[44,-81],[-7,-81],[34,-17],[9,-75],[-23,-66],[43,-47],[8,-29],[-17,-62],[-47,-49]],[[2112,5104],[39,41],[11,76]],[[2642,4736],[223,90],[78,83],[59,1],[233,-21]],[[3235,4889],[18,-127],[54,32],[21,-39],[-14,-30],[52,-20],[11,-32],[240,-298]],[[3617,4375],[-713,-113],[-55,-2],[-89,-52],[-34,-57],[-96,-32],[-86,-81],[-85,-17],[-17,-45]],[[2691,5529],[42,-67],[30,-11],[88,1],[10,60],[64,-18],[14,-75],[175,-81],[30,30],[60,-31],[43,6],[39,-19]],[[3286,5324],[-11,-111],[-54,-13],[-10,-36],[34,-46],[-48,-100],[38,-129]],[[3617,4375],[-417,-238],[-34,-27],[-109,-182],[84,-19],[-28,-43],[6,-29]],[[3119,3837],[-74,-42],[1,-41],[-70,-46],[-51,-49],[-7,-29],[-52,-3],[-60,36],[-87,-62],[24,-62],[23,-16],[-12,-48],[-70,-27],[13,-51]],[[2697,3397],[-51,59],[-2,24],[-46,79],[-45,58],[-59,119],[-12,74],[-55,84],[1,41]],[[2515,6329],[53,0],[21,40],[27,8],[160,-15],[0,48],[58,0],[55,-31],[69,22],[84,2],[116,-29]],[[3158,6374],[11,-41],[49,-82],[-7,-75]],[[3211,6176],[-24,7],[-27,-52],[17,-75],[-27,-37],[-58,-2],[-34,17],[-21,-17],[-45,25],[-29,-17],[-28,42],[-67,13],[-74,-45],[-66,-55],[-52,-8]],[[3211,6176],[36,-68],[20,11],[84,-69],[2,-50]],[[3353,6000],[-10,-42],[-26,-29],[11,-53],[-28,-17],[14,-58]],[[3314,5801],[-51,-100],[-8,-46],[62,-38],[-62,-75],[41,-26]],[[3296,5516],[47,-118],[-57,-74]],[[3314,5801],[27,-13],[82,-10],[29,-56],[41,11],[19,23],[41,-19],[85,-15],[22,-23]],[[3660,5699],[34,-31],[1,-97],[9,-140]],[[3704,5431],[-21,0],[-33,-38],[-109,-28],[-38,58],[-79,35],[-68,5],[-11,24],[-49,29]],[[2563,6578],[119,24],[46,31],[75,80],[14,37],[3,123]],[[2820,6873],[162,-16],[46,-45],[56,-14],[52,10],[30,-16],[29,14]],[[3195,6806],[60,-77]],[[3255,6729],[11,-43],[-45,-97],[5,-31],[-37,-44],[-29,-88],[-2,-52]],[[3704,5431],[20,-46]],[[3724,5385],[-17,-95],[27,-52],[-27,-28],[-10,-42],[13,-48]],[[3710,5120],[-37,-19],[-37,3],[-52,-22],[1,-36],[-62,-23],[-22,-93],[-26,-30],[11,-25],[-23,-27],[13,-91],[47,-8],[-9,-70],[103,-304]],[[2921,6987],[-52,-25],[-20,-26],[5,-40],[-34,-23]],[[2820,6873],[-74,8],[-56,33],[-99,15]],[[2591,6929],[-8,93]],[[2583,7022],[23,-8],[86,6],[13,25],[66,20],[38,-7],[60,-40],[29,13],[23,-44]],[[2468,6779],[69,59],[58,35],[-4,56]],[[2583,7022],[11,14],[-34,43],[-46,2],[-19,66],[61,75],[-10,34]],[[2546,7256],[62,3],[76,-16],[101,9],[41,-7],[67,-43],[51,18],[44,-12]],[[2988,7208],[2,-40],[-36,-52],[-1,-58],[-32,-71]],[[2546,7256],[3,25],[-47,79],[-2,109],[-19,99],[-41,16],[-13,28],[55,152],[-16,32]],[[2466,7796],[22,30],[61,-13],[69,-3]],[[2618,7810],[62,-30],[93,-16],[10,-73],[70,-54],[52,5],[62,-52]],[[2967,7590],[-3,-32],[41,-61],[78,-15]],[[3083,7482],[-6,-44],[-24,-14],[-16,-48],[82,-115],[0,-59]],[[3119,7202],[-20,-6],[-76,25],[-35,-13]],[[3083,7482],[81,-30],[59,-12],[27,-55],[66,-23]],[[3316,7362],[-84,-51],[0,-62],[-41,-63]],[[3191,7186],[-42,24],[-30,-8]],[[2967,7590],[23,-2],[64,56],[57,5]],[[3111,7649],[84,-32],[69,6]],[[3264,7623],[26,-23],[75,15],[42,-33],[50,4],[12,-23],[40,38],[25,1]],[[3534,7602],[-80,-146]],[[3454,7456],[-139,-42],[1,-52]],[[3454,7456],[39,-39],[4,-33],[43,-21],[-3,-27],[35,-43],[68,-20],[34,-51]],[[3674,7222],[-83,-35],[-50,-37],[-59,1],[-49,-28],[-72,11],[-59,-16]],[[3302,7118],[-92,43],[-19,25]],[[3534,7602],[-11,52]],[[3523,7654],[103,-28],[113,79],[76,14],[90,-9]],[[3905,7710],[48,-66]],[[3953,7644],[-60,-142],[96,-81],[-20,-35],[19,-55],[-1,-90]],[[3987,7241],[-21,-21],[-19,-56],[-42,-52]],[[3905,7112],[-60,37],[-46,65],[-57,-15],[-68,23]],[[3953,7644],[35,-9],[30,43],[42,29],[34,-51]],[[4094,7656],[107,-81],[1,-88],[29,-2],[15,-54],[26,-42]],[[4272,7389],[-39,-90],[-95,-61],[-75,-7],[-47,21],[-29,-11]],[[3302,7118],[0,-71],[-56,9],[-32,-47],[14,-62],[-39,-68],[-10,-40],[16,-33]],[[3255,6729],[68,15],[35,29],[57,3],[47,27],[57,-16],[125,-14],[86,11],[63,81]],[[3793,6865],[17,-26],[24,-97]],[[3834,6742],[-69,-177],[123,-38],[35,-26],[17,-49],[79,-92]],[[4019,6360],[-82,-14],[-36,-54],[-85,-50],[-111,-103],[40,-52],[-48,-27],[-59,-52]],[[3638,6008],[-63,18],[-62,-10],[-51,14],[-22,-25],[-54,9],[-33,-14]],[[3905,7112],[-53,-45],[-19,-54],[7,-30],[-27,-51],[-38,-25],[18,-42]],[[3638,6008],[-21,-96],[47,-51],[65,-15]],[[3729,5846],[-23,-119],[-46,-28]],[[4019,6360],[126,-14]],[[4145,6346],[27,-134],[21,-27]],[[4193,6185],[-70,-18],[-28,-42],[-7,-62]],[[4088,6063],[-98,-49],[-83,-62],[10,-50],[-34,-29],[-69,-3],[-45,-30],[-40,6]],[[2466,7796],[-34,0],[-48,29],[45,102],[14,61],[-4,56],[-17,21],[16,37],[112,54],[150,-8],[30,-18]],[[2730,8130],[20,-45],[-13,-106],[-25,-45],[-41,-37],[11,-34],[-43,-22],[-21,-31]],[[2730,8130],[27,-2],[42,30],[45,-9],[94,17]],[[2938,8166],[7,-69],[31,-51],[-1,-39],[34,-54],[-39,-79],[32,-16]],[[3002,7858],[24,-58],[26,-21],[59,-77],[0,-53]],[[2938,8166],[30,24],[35,-7],[30,20],[44,-42],[0,-21],[86,-31]],[[3163,8109],[32,-55],[31,-129]],[[3226,7925],[-42,3],[-130,-69],[-52,-1]],[[3264,7623],[6,10],[-24,92],[-11,119],[25,60],[-34,21]],[[3163,8109],[42,5],[54,49],[27,-60],[48,-4],[25,-18],[45,11]],[[3404,8092],[49,-50],[48,-101],[-7,-69],[-28,-23],[4,-36],[-21,-24],[34,-28]],[[3483,7761],[4,-31],[36,-76]],[[3483,7761],[26,33],[200,69],[22,23],[99,60]],[[3830,7946],[19,-19],[-2,-63],[27,-2],[44,-51],[-26,-43],[13,-58]],[[3404,8092],[126,0],[49,16],[71,99],[27,51],[-21,34],[32,36]],[[3688,8328],[35,-37],[31,-9],[37,-35],[96,-57],[18,-40],[27,-7]],[[3932,8143],[-35,-48],[-60,-39],[-38,-81],[31,-29]],[[3932,8143],[4,27],[49,41],[45,-8],[172,9],[10,57],[28,11],[35,-16],[53,34],[32,57],[61,-9]],[[4421,8346],[-7,-81],[-91,-61],[-18,-67],[19,-69],[-33,-46],[50,-75],[55,-24],[-12,-99],[13,-25]],[[4397,7799],[-1,-52],[-33,-2],[-49,45],[-119,-37],[-63,-73],[-38,-24]],[[3688,8328],[29,17],[28,51],[57,29],[11,41],[43,6],[5,54],[34,32],[30,-6],[13,48],[27,11],[-19,56],[15,16],[42,-17],[58,55],[12,35],[-34,28],[13,30],[52,25],[37,-1],[29,36],[83,31],[87,-1],[10,20],[73,8],[21,-27],[-13,-38],[-89,-158],[47,4],[58,-51],[22,-34],[57,-6],[21,-32],[105,-44],[31,-22],[-6,-42]],[[4677,8482],[-40,-21],[-38,3],[1,-41],[-18,-42],[-161,-35]],[[4677,8482],[44,-19],[43,70],[34,-20],[41,-2],[39,-27],[3,-88],[29,-21],[12,-45]],[[4922,8330],[-34,-49],[-41,-20],[-27,-31],[-103,-86],[-20,-43],[-5,-57],[27,-28],[11,-42],[-58,-107]],[[4672,7867],[-144,-17],[-131,-51]],[[4672,7867],[8,-60],[-32,-113],[12,-43],[-35,-53],[63,-83],[5,-74],[32,-22],[37,5]],[[4762,7424],[-9,-32],[-53,-23],[-9,-38],[-64,-8],[-31,53],[-60,27],[-22,29],[-45,11],[-70,-2],[-10,-52]],[[4389,7389],[-39,8],[-78,-8]],[[4922,8330],[47,-25],[99,15],[37,-45]],[[5105,8275],[-36,-48],[-58,-49],[-12,-49],[39,-45],[-34,-74],[2,-56],[-27,-67],[-28,-6],[1,-37],[-22,-60],[-2,-60],[-24,-12],[-6,-48],[27,-42],[-12,-50],[35,-54],[-47,-27],[12,-30]],[[4913,7461],[-63,-11],[-21,-39],[-67,13]],[[3119,3837],[15,-16],[79,-14],[58,-105],[23,3],[110,48]],[[3404,3753],[19,-53]],[[3423,3700],[17,-59],[37,-31]],[[3477,3610],[39,-49],[-54,-10],[-127,-54],[-33,-8],[8,-60],[-32,-15],[13,-33],[1,-84]],[[3292,3297],[-1,-42],[-27,-30],[-80,-27],[-62,-36],[-41,6],[-56,42],[-49,-3],[-40,-29],[1,-46],[-15,-38]],[[2922,3094],[-93,83],[-1,57],[-55,89],[-76,74]],[[3292,3297],[134,-52],[91,-11],[78,-42]],[[3595,3192],[-46,-42],[-4,-64],[-79,-125],[-12,-37]],[[3454,2924],[-58,-65],[-17,4],[-71,-49],[-24,-70],[7,-62]],[[3291,2682],[-108,78],[-60,51],[-38,18],[6,31],[-16,53],[-66,92],[-87,89]],[[3710,5120],[69,-6],[56,-36],[36,16],[64,-9],[106,-83],[49,-20],[53,2]],[[4143,4984],[-17,-42],[0,-231],[64,-111],[-23,-66],[19,-25],[-19,-77],[-58,-50],[31,-55],[-205,-310]],[[3935,4017],[-318,358]],[[4143,4984],[24,-3],[155,-55],[0,-52],[177,-16],[11,-20]],[[4510,4838],[-23,-45],[24,-58],[3,-76],[24,-13],[19,-62],[56,-55],[30,-6],[4,-34],[35,-20],[-41,-136],[65,-49],[40,0],[149,-130],[99,8]],[[4994,4162],[-42,-36],[-37,-99],[-1,-46]],[[4914,3981],[-76,-25],[-120,35],[-52,-10],[12,-27],[-33,-34],[-231,-99]],[[4414,3821],[-104,8],[-40,-44]],[[4270,3785],[-60,12]],[[4210,3797],[-88,0]],[[4122,3797],[-31,11],[-32,53],[1,25],[-125,131]],[[3935,4017],[-368,-98],[-27,-37],[-71,-27],[-92,-51],[27,-51]],[[3454,2924],[16,15],[98,35],[11,49],[54,66],[66,6],[44,34],[54,22],[46,-9],[44,-46]],[[3887,3096],[-31,-33]],[[3856,3063],[2,-43]],[[3858,3020],[-43,-92],[-5,-47],[-57,-79],[-20,-56],[11,-32],[-37,-41],[-41,-101],[-88,-61],[-58,-19]],[[3520,2492],[-139,131],[-90,59]],[[3856,3063],[48,-21],[-46,-22]],[[3887,3096],[66,18],[51,32]],[[4004,3146],[21,-41],[-4,-62]],[[4021,3043],[-26,-75]],[[3995,2968],[-19,-11],[22,-45]],[[3998,2912],[-54,-76],[-12,-78],[-55,-78],[7,-58],[-21,-39],[36,-132],[28,-25]],[[3927,2426],[-47,-87],[10,-32],[-9,-54]],[[3881,2253],[-72,31],[-57,50],[-152,69],[-33,22],[-47,67]],[[3998,2912],[26,-58],[-13,-52],[15,-69],[-18,-30],[45,-96],[-54,-51],[10,-90],[-30,-45],[-52,5]],[[4207,2932],[3,-41]],[[4210,2891],[-137,49]],[[4073,2940],[70,54]],[[4143,2994],[40,-13],[37,18]],[[4220,2999],[12,-30],[-25,-37]],[[3995,2968],[78,-28]],[[4210,2891],[17,-106],[-41,-51],[22,-18],[3,-39],[-91,-22],[-9,-44],[6,-60],[-15,-34],[29,-67],[36,-53]],[[4167,2397],[-33,-21],[-19,-35],[-39,-27]],[[4076,2314],[-33,-97],[-45,-69]],[[3998,2148],[-14,21],[-58,34],[-45,50]],[[4021,3043],[14,-33],[72,-1],[36,-15]],[[3595,3192],[-7,18],[53,39],[41,53]],[[3682,3302],[121,-55],[65,-7],[37,-22],[91,5]],[[3996,3223],[-12,-28],[20,-49]],[[3682,3302],[77,100]],[[3759,3402],[61,-52],[131,21]],[[3951,3371],[31,-22],[65,-22]],[[4047,3327],[-39,-17],[7,-47],[-19,-40]],[[4372,3220],[-65,-30],[-73,-15]],[[4234,3175],[-25,51]],[[4209,3226],[151,66]],[[4360,3292],[12,-72]],[[4047,3327],[104,21]],[[4151,3348],[-35,-66],[-16,-67],[7,-92],[31,9]],[[4138,3132],[13,-80],[-8,-58]],[[4151,3348],[25,-122],[-10,-25]],[[4166,3201],[5,-48],[-33,-21]],[[4166,3201],[43,25]],[[4234,3175],[19,-77]],[[4253,3098],[-5,-40],[-30,-26],[2,-33]],[[4372,3220],[-79,-98],[-40,-24]],[[6691,1747],[-1297,-73]],[[5394,1674],[-14,380],[9,186],[-25,42],[-3,47],[-40,325]],[[5321,2654],[1370,-907]],[[6691,1747],[-108,-721],[28,-92],[5,-43]],[[6616,891],[-137,52],[-334,166],[-175,6],[-262,104],[-98,112],[-130,25],[-63,-108]],[[5417,1248],[-60,-17],[-120,-57],[42,150]],[[5279,1324],[34,3],[89,143],[-8,204]],[[5417,1248],[-156,-264],[-41,3],[-28,21],[-103,27],[-58,49],[-25,9],[-21,70],[-43,84],[-129,153],[-36,20],[6,35],[-80,62],[1,17],[-45,50]],[[4659,1584],[0,25],[89,55]],[[4748,1664],[56,39],[23,-23],[42,21],[28,-26],[89,-4],[41,27],[14,-73],[42,-91],[38,-46],[158,-164]],[[5394,1674],[-296,356]],[[5098,2030],[223,624]],[[5394,1674],[-347,140],[-57,-36],[-15,66],[9,47],[-17,60],[-27,6],[1,45]],[[4941,2002],[157,28]],[[4076,2314],[75,-8],[81,7],[-1,-34],[68,-4],[49,39],[34,-54],[-1,-69],[21,-4],[72,-53],[31,-9],[40,13],[15,-35],[89,-43],[5,-20],[77,-53]],[[4731,1987],[3,-65],[37,-23],[-35,-46],[-59,-32],[15,-62],[56,-95]],[[4659,1584],[-32,16],[-50,49],[-51,34],[-54,14],[-47,36],[-5,29],[-35,7],[-23,49],[-33,30],[-67,26],[-2,27],[-36,45],[-80,61],[-92,43],[-50,41],[15,26],[-19,31]],[[4167,2397],[63,-28],[49,26],[75,-9],[41,53],[71,51],[63,25]],[[4529,2515],[56,-99],[40,-41],[54,-16],[39,-54],[7,-131],[82,-132]],[[4807,2042],[-49,-55],[-27,0]],[[4941,2002],[-41,-6],[-22,46]],[[4878,2042],[33,14],[3,77],[-173,387],[-40,69]],[[4701,2589],[30,12],[9,30]],[[4740,2631],[33,-2],[548,25]],[[4529,2515],[172,74]],[[4878,2042],[-30,-39],[-41,39]],[[4417,3146],[48,-11],[-22,-60],[-44,-45],[20,-30],[1,-46]],[[4420,2954],[-80,-38],[-13,-45],[-46,75]],[[4281,2946],[21,22],[-33,45],[-4,44],[72,75],[45,29],[35,-15]],[[4372,3220],[72,-39],[-27,-35]],[[4281,2946],[-20,-19],[-54,5]],[[4420,2954],[-15,-79],[71,-53],[35,24],[76,-1],[10,-26],[42,-2],[19,-52],[47,18],[25,-17],[10,-135]],[[4914,3981],[-2,-22],[34,-42],[-12,-99],[11,-21],[52,-4],[25,-54],[299,-1085]],[[4360,3292],[38,54],[12,38],[49,8],[24,18],[-1,47]],[[4482,3457],[13,154],[62,55],[-79,105],[-41,9],[-23,41]],[[4482,3457],[-172,44],[-29,79],[-11,205]],[[4151,3348],[-4,45],[31,12],[2,79],[13,37],[-10,80],[20,84],[7,112]],[[3951,3371],[43,119],[-96,103]],[[3898,3593],[106,72],[67,19],[51,113]],[[4389,7389],[32,-75],[8,-76],[-32,-74],[-26,-116],[-41,-22]],[[4330,7026],[-71,-28],[-23,32],[-28,-36],[9,-48],[-37,-22],[-39,-63],[-41,-84]],[[4100,6777],[-41,-61],[-110,20],[-115,6]],[[4100,6777],[31,-269],[-15,-11],[-97,-137]],[[4330,7026],[56,-134],[20,-6],[24,-54]],[[4430,6832],[-17,-37],[-38,-5],[-39,-44],[0,-65],[17,-36],[-32,-20],[-4,-52],[-33,-48],[-31,-96],[4,-52],[-32,-48],[-80,17]],[[4430,6832],[34,4],[28,-20],[42,48],[41,-73],[52,33],[35,1],[22,26],[47,23],[62,51],[29,-29],[50,67],[44,13]],[[4916,6976],[-4,-54],[44,-26],[50,-7],[39,-77],[46,-45],[56,-36],[43,6]],[[5190,6737],[-36,-34],[-10,-73],[-191,-207],[-69,-86]],[[4884,6337],[-53,-44],[-34,4],[-31,-32],[-53,-1],[-46,-82],[-13,-43],[-136,-7],[-46,-58],[-63,-17]],[[4409,6057],[-40,58],[-52,-5],[-74,62],[-50,13]],[[4913,7461],[75,-33],[79,-105]],[[5067,7323],[-30,-49],[0,-31],[-32,-75],[-51,-68],[13,-16],[-18,-59],[-33,-49]],[[5067,7323],[68,-23],[40,-26],[119,186],[-33,152],[67,9]],[[5328,7621],[60,-44],[54,-3],[36,-34],[22,-46],[4,-58],[34,-36],[2,-40],[36,3],[46,45],[65,-80],[71,-21],[86,47],[90,-6]],[[5934,7348],[-85,-99],[-47,-27],[-31,-99],[-19,-34],[9,-25],[-19,-40],[13,-37]],[[5755,6987],[-142,-70],[-80,36],[-39,-22],[-52,39],[-30,-39],[-47,-111],[35,-36]],[[5400,6784],[-94,-54],[-29,-6],[-31,26],[-56,-13]],[[5328,7621],[43,17],[31,36],[26,2],[29,41],[43,24],[42,39],[22,46],[82,61],[40,21],[32,98],[70,126],[110,134],[73,62],[41,88],[36,2],[11,40],[24,17],[11,49],[42,59],[14,52],[29,18],[22,69],[17,8],[46,69],[15,47],[43,32],[37,57],[4,39],[32,21],[50,59],[21,41],[-6,55],[91,51],[75,102],[42,18],[16,32],[14,79],[16,10],[-3,79],[34,7],[7,37],[-35,60],[28,38],[-56,50],[68,44],[29,34],[24,57],[109,299],[-2,56]],[[6917,10203],[13,23],[43,16],[49,95]],[[7022,10337],[13,7],[48,-46],[31,-16],[-36,-84],[0,-90],[39,-48],[29,4],[35,-37],[-13,-34],[-38,-31],[8,-71],[-2,-69],[-30,-7],[-8,-37],[41,-30],[-2,-36],[76,-60],[27,-47],[299,2],[-134,-560]],[[7405,9047],[-14,-69],[30,-108],[31,-48],[-34,-154],[-72,-49],[-111,-165]],[[7235,8454],[-242,-345],[-84,-85],[-258,135],[-357,-227],[-196,-6],[-56,-126],[-100,-64],[73,-64],[9,-46],[-12,-107],[35,-47]],[[6047,7472],[-29,-36],[-4,-38],[-31,-8],[-49,-42]],[[5105,8275],[38,29],[-11,27],[10,47],[-68,35],[23,54],[8,137],[-3,30],[54,5],[23,33],[46,29],[53,-12],[27,-22],[44,79],[92,-2],[55,46],[34,49],[37,-3],[9,56],[48,-4],[-15,-33],[65,-13],[51,42],[19,-5],[10,74],[33,-4],[72,19],[38,54],[21,-22],[40,6],[63,68],[17,77],[61,52],[0,87],[36,-6],[57,95],[53,15],[81,-8],[7,22],[94,-7],[23,-14],[113,12],[36,-16],[19,51],[49,48],[9,44],[-66,31],[-30,36],[-18,47],[2,49],[-60,28],[40,26],[7,51],[29,4],[28,56],[-10,46],[3,59],[54,35],[27,4],[16,61],[21,28],[-22,70],[17,23],[-16,67],[33,-2],[22,23],[37,-22],[14,-40],[57,-23],[56,20]],[[4088,6063],[31,-2],[49,-28],[7,-45],[-40,-37],[-31,-54],[-4,-52],[26,-41],[-47,-7],[21,-43],[-10,-29],[-60,-35],[-31,-40],[-1,-29],[-40,-29]],[[3958,5592],[5,-86],[-70,1],[-102,-65],[4,-21],[-32,-43],[-39,7]],[[4409,6057],[-23,-69],[-51,-9],[-23,-42],[11,-32],[-25,-94],[-15,-29],[33,-17],[28,20],[1,-68],[33,-37],[158,-64]],[[4536,5616],[-64,-45],[-18,-34]],[[4454,5537],[-22,-8],[-29,39],[-54,36],[-54,-32],[-37,-8],[-19,-29],[-75,2],[-37,18],[-169,37]],[[4454,5537],[-12,-16],[-21,-134],[-32,-59],[-68,-68],[-2,-59],[44,-17],[36,-41],[25,13],[59,-32],[34,12],[26,-27],[25,20],[35,-2],[21,-29],[37,7],[43,-36],[28,13]],[[4732,5082],[17,-57],[-38,-54],[-52,-40],[-39,5],[-18,-43]],[[4602,4893],[-62,-14],[-30,-41]],[[4536,5616],[21,-19],[15,-72],[64,17],[19,-7]],[[4655,5535],[-22,-71],[1,-63],[27,-42],[44,-2],[29,-64],[82,-24]],[[4816,5269],[-63,-95],[76,-65]],[[4829,5109],[-84,-10],[-13,-17]],[[4655,5535],[47,-19],[48,75],[72,-1],[35,28],[-5,62],[75,-52],[20,-40],[14,-101],[93,-39],[12,-14]],[[5066,5434],[-29,-35],[-49,-8],[-21,-52],[-36,-30],[-59,-30],[-56,-10]],[[4884,6337],[17,-80],[-1,-41],[50,-92],[4,-50]],[[4954,6074],[-76,-30],[2,-22],[-37,-49],[5,-27],[-63,-66],[12,-37],[40,-50],[38,7],[27,-69],[44,-33],[22,20],[32,-14],[49,-46],[59,23],[27,-26],[56,1],[112,-27]],[[5303,5629],[-109,-69],[14,-93]],[[5208,5467],[-32,10],[-31,-39],[-40,9],[-39,-13]],[[5208,5467],[14,-76],[39,-54],[-3,-38],[25,-31],[62,-1],[41,-29],[20,10],[51,-15],[5,-39]],[[5462,5194],[-66,-38]],[[5396,5156],[-101,6],[-13,10],[-107,-1],[-111,-58],[-106,28],[-74,-4],[-55,-28]],[[5303,5629],[95,-52],[41,8],[15,52],[43,-5],[16,29]],[[5513,5661],[23,-20],[67,-26],[54,9],[19,-12],[2,-46],[18,-28],[52,6],[48,-16],[37,-72],[27,-25],[54,7],[24,-43],[40,-32]],[[5978,5363],[-39,-36],[-25,3],[-79,-44],[-8,28],[-101,-17],[-86,5],[-41,-74],[-31,-23],[-75,-20],[-31,9]],[[5400,6784],[58,-38],[-11,-40],[11,-34],[34,-18],[-3,-61],[36,-121],[64,-13],[42,16],[21,-15],[5,-46],[45,-50],[-10,-33],[18,-28]],[[5710,6303],[-32,-13],[-51,28],[-41,-13],[-55,-51],[-29,-3],[-12,-61],[10,-80],[-7,-137],[-80,11]],[[5413,5984],[-185,102],[-97,26],[-68,-32],[-25,10],[-45,-17],[-39,1]],[[5413,5984],[5,-35],[31,-64],[-10,-56],[38,-39],[36,-129]],[[5710,6303],[29,17],[79,-18],[75,41],[38,-40],[63,-18],[43,42],[16,-7]],[[6053,6320],[3,-49],[101,-71],[29,-54],[47,-53],[49,7],[38,40],[28,-34],[58,-39],[0,-51],[-52,-20],[-45,-53],[-49,-21],[18,-44],[49,-63],[27,-14],[29,-44],[22,-64],[86,-63],[23,-38],[49,-1],[40,-18]],[[6603,5573],[56,6],[38,-19],[31,-39],[38,-19]],[[6766,5502],[-11,-42],[-21,-7],[20,-73],[-20,-39],[-36,-7],[-6,-41],[-44,-16],[28,-62],[3,-39],[-22,-33],[-36,27],[-33,-25],[19,-43],[-94,4],[-33,-43]],[[6480,5063],[-31,19],[5,39],[-51,46],[-44,5],[-40,-11],[-17,16],[28,38],[-18,35],[-66,-20],[-25,58],[-60,3],[-22,17],[-33,-34],[-14,58],[-39,34],[-38,13],[-37,-16]],[[5755,6987],[28,-40],[29,-9],[16,-38],[46,-54],[24,-11],[61,-79],[55,-33],[19,-47],[56,-65],[28,-17],[60,30],[39,-36],[27,-6],[68,-77]],[[6311,6505],[-39,-28],[-48,23],[-29,-36],[-55,-34],[-58,-7],[-34,-78],[5,-25]],[[4602,4893],[43,-38],[66,6],[29,-33],[59,-3],[90,67],[67,-22],[42,7],[42,25],[71,-32]],[[5111,4870],[-32,-41],[-14,-50],[40,-92],[-14,-37],[20,-52],[44,23],[35,-24],[68,8],[45,30]],[[5303,4635],[38,-75]],[[5341,4560],[-114,-58],[-61,-76],[45,-47],[-31,-60],[-28,3],[-40,-49],[-118,-111]],[[5396,5156],[1,-56],[-65,-93],[7,-31]],[[5339,4976],[-80,-42],[-67,11],[-53,-33],[-28,-42]],[[5339,4976],[13,-123],[-61,-103],[-33,-34],[45,-81]],[[5341,4560],[34,-54],[56,-66],[31,2],[57,-37]],[[5519,4405],[-2,-32]],[[5517,4373],[-58,-41],[-38,-127],[1,-40],[-17,-113],[-5,-179],[-70,-149],[-20,-113],[11,-957]],[[6480,5063],[-2,-36],[-23,-19],[-62,-1],[-39,-35],[-11,-29],[-51,-71],[-51,-12],[-24,22],[-51,0],[-172,-64],[7,-94],[-75,-54],[-77,-26],[-201,-48],[-8,-35],[-69,-109],[-52,-47]],[[6766,5502],[56,39],[48,3],[6,-20],[85,-54],[47,-52],[23,-2],[12,-43],[29,-17],[-11,-39],[2,-56],[32,-26]],[[7095,5235],[25,-42],[90,-102],[1,-13]],[[7211,5078],[-59,-26],[-65,-103],[-32,-38],[-48,-93],[29,-65],[-133,-64],[-56,-117],[-81,-36],[-27,29],[-108,-8],[-45,27],[-80,-69],[-92,-129]],[[6414,4386],[-88,2],[-52,-25],[-58,9],[-46,-32]],[[6170,4340],[-207,-77],[-51,24],[-44,-42],[-62,58],[-69,-29],[-62,42],[-55,-1],[-83,-14],[-20,72]],[[6170,4340],[-98,-107],[-102,-45],[-45,-5],[17,-89],[-32,-59],[-28,-12],[-69,4],[47,-73]],[[5860,3954],[-13,-72],[-67,-147],[13,-139],[-96,-73],[-19,-43],[-42,-25],[-315,-801]],[[6414,4386],[-40,-97],[-64,-46],[48,-144],[-22,-118]],[[6336,3981],[-61,10],[-30,-26],[-51,3],[-63,-47],[-37,4],[-26,-37],[-55,-26],[-7,33],[-146,59]],[[6336,3981],[31,-95],[34,-15],[20,-40],[1,-58]],[[6422,3773],[-37,-207],[-10,-37],[19,-25]],[[6394,3504],[-60,-29],[-59,-43],[-46,-9],[-114,-88],[11,-39],[-50,-52],[-2,-47],[-66,-17],[14,-60],[-701,-466]],[[7397,2894],[53,-31],[52,-62],[18,-51],[51,-39],[-24,-59],[-67,-53],[-9,-44],[36,-11],[56,-92],[17,-97],[22,-14],[-9,-36]],[[7593,2305],[-33,-44],[-49,-19],[-69,-49],[-84,18],[-17,25],[-62,-42],[4,-22],[-12,-87],[-49,-2],[-63,-35],[-468,-301]],[[6691,1747],[106,723],[-19,19],[67,58],[47,15],[24,40],[44,24],[48,-11],[42,13],[36,40],[3,24],[56,24],[28,90],[57,47],[38,-2],[52,28],[77,15]],[[6394,3504],[56,-54],[67,-24],[61,-1],[65,13],[14,-8]],[[6657,3430],[123,-16],[35,-59],[95,-60],[97,38],[114,10]],[[7121,3343],[147,-177],[152,-4],[38,45],[128,1]],[[7586,3208],[-13,-69],[19,-41]],[[7592,3098],[-6,-37],[-38,-16],[-38,-44],[-25,-5],[-72,-55],[-16,-47]],[[7414,4761],[15,-31],[71,-16],[8,-28],[-22,-35],[-20,-76],[-24,-46],[3,-27],[42,-79],[6,-62],[112,-42]],[[7605,4319],[18,-76],[52,-80]],[[7675,4163],[-50,5],[-31,22],[-78,-1],[6,-75],[-34,-16],[-95,40]],[[7393,4138],[-148,-49],[-240,-34],[-167,-76]],[[6838,3979],[-34,32],[7,78],[-33,55],[50,55],[-31,74],[53,85],[28,-7],[30,38],[32,11],[35,-14],[31,103],[50,63],[110,172],[20,42],[70,63],[44,-5],[15,-36],[41,4],[58,-31]],[[7121,3343],[-139,171],[58,109],[486,218],[157,99]],[[7683,3940],[40,-74],[-1,-26],[61,-81],[27,-274],[-5,-57]],[[7805,3428],[-167,-127],[-42,-17],[12,-48],[-22,-28]],[[6657,3430],[38,39],[20,63],[-15,32],[-6,77],[94,56],[87,62],[72,69],[89,8],[88,33],[72,19],[56,2],[10,25],[69,1],[25,33],[10,92],[46,54],[-19,43]],[[7675,4163],[1,-4]],[[7676,4159],[-67,-100],[74,-119]],[[7211,5078],[56,-39],[8,-48],[62,-40],[27,-38],[16,-54],[-10,-30],[44,-68]],[[6838,3979],[-71,19],[-35,-11],[-39,-60],[-3,-40],[-54,-31],[-22,-31],[-103,-3],[-30,-27],[-59,-22]],[[8127,3020],[-39,-33],[-61,8],[-1,29],[-39,2],[0,47],[-23,20],[-106,13],[-138,-13],[-25,12],[-103,-7]],[[7805,3428],[143,-78],[119,-43],[96,-41],[39,-49]],[[8521,1866],[-17,-47],[-56,-83],[-8,-38],[-33,-33],[-23,-44],[-43,-15],[-49,21],[-48,3],[-71,-93],[-26,-16],[-35,14],[-12,66],[-49,21],[-22,45],[-73,41],[-33,-6],[-37,47],[-58,4],[-89,-43],[-28,-24],[-37,-5],[-37,-37],[-65,6],[-65,22],[-22,-42],[-27,-2],[-23,30],[-744,89]],[[7593,2305],[37,-22],[31,-66],[26,43],[30,23],[35,-16],[45,18],[107,-17],[28,-31],[67,-15],[50,32],[39,64],[82,-16],[60,-25]],[[8567,1835],[-97,-194],[-17,-140],[31,-156],[-53,-73],[1,-76],[15,-63],[-37,-29],[-39,-62],[-34,-21],[-2,-50],[-17,-68],[120,-126]],[[8438,777],[-206,85],[-28,48],[-82,-34],[-159,90],[-37,32],[-166,-96],[-16,-17],[-423,-261],[-705,267]],[[10378,675],[78,-58],[-16,-25],[42,-21],[-5,54],[59,-24],[34,-60],[-8,-32],[31,-52],[-21,-72],[38,-89],[-28,-60],[-65,-25],[-48,14],[-30,-24],[-181,-43],[-19,-37],[-100,-25],[-61,-70],[-68,11],[-66,-28],[-46,-9],[-15,35],[-79,22],[-10,42],[-83,46],[-39,67],[-37,1],[-8,-41],[-44,18],[-24,-10],[-27,-42],[-45,6],[-38,33],[-39,-25],[-39,18],[-3,34],[-37,7]],[[9331,211],[-10,37],[12,118],[-5,40],[-25,33],[22,56],[52,57],[-25,18],[13,43],[22,7],[20,42],[76,42],[-85,88],[48,17],[26,30],[14,66],[-58,5],[-26,17],[16,114],[30,13],[41,42]],[[9489,1096],[3,0],[45,27],[53,-11],[-3,-66],[39,-43],[30,-7],[56,42],[33,-4],[99,7],[42,29],[41,-5],[43,32],[8,-58],[-11,-40],[52,-108],[40,27],[75,-14],[59,7],[52,-45],[95,-147],[38,-44]],[[6047,7472],[39,26],[74,-6],[30,62],[52,-10],[36,28],[55,21],[7,73],[134,10],[111,-9],[26,14],[40,-52],[-11,-49],[24,-48],[1,-84],[-32,-34],[23,-102],[50,-31]],[[6706,7281],[6,-42],[-29,-35],[2,-34],[-27,-13],[1,-31],[-27,-107],[42,-80],[-12,-50],[11,-27],[-17,-39],[18,-37],[-52,-63],[3,-56],[-71,-1],[-12,-79],[-19,-22],[31,-48]],[[6554,6517],[-65,-45],[-47,-22],[-46,21],[-30,-9],[-55,43]],[[7235,8454],[510,-85],[97,26],[110,10],[49,65],[139,-38],[188,-168]],[[8328,8264],[227,-424]],[[8555,7840],[-304,-295],[-126,-173],[-152,-258]],[[7973,7114],[-26,11],[-33,40],[-38,-30],[-86,16],[-30,20],[0,33],[-81,29],[-34,56],[-67,-10],[-46,-21],[-42,-3],[-12,52],[-42,1],[-37,-34],[-60,14],[-29,32],[-120,1],[-50,-25],[-31,25],[-32,-27],[-1,-33],[-37,-54],[-55,8],[-25,-23],[-22,70],[-30,39],[-48,-22],[-137,-8],[-16,10]],[[7973,7114],[-261,-443]],[[7712,6671],[-107,-202]],[[7605,6469],[-55,-4],[-11,17],[-54,-30],[-10,-44],[-145,-3],[-43,-9],[-23,-22],[12,-37],[-56,-22],[-51,-2],[-61,21],[-73,10],[-62,-15],[-32,40],[-72,48]],[[6869,6417],[-19,54],[46,19],[-3,40],[-95,28],[-41,-25],[-21,10],[-45,-17],[-57,-5],[-5,-48],[-20,-27],[-55,71]],[[6603,5573],[-14,49],[-27,38],[8,44],[20,18],[-5,38],[17,35],[-18,49],[-3,43],[15,44],[-30,87],[39,47],[29,13],[38,-72],[39,77],[32,82],[39,15],[31,49],[35,22],[-58,86],[17,71],[26,-15],[36,24]],[[7605,6469],[70,-53],[17,-75],[33,-59],[79,-90],[-37,-23],[28,-75],[33,-8],[1,-53],[22,-130],[39,-86],[34,-53],[-3,-17],[52,-78],[39,-116],[63,-24],[-9,-51],[14,-41]],[[8080,5437],[-50,-41],[-28,-6],[-16,-32]],[[7986,5358],[-79,-19],[-24,-21],[-25,24],[-43,-25],[11,-59],[-20,-112],[-79,34],[-46,-18],[-37,124],[-105,-47],[-18,59],[-91,-8],[-59,-19],[-174,54],[-35,-16],[-34,-49],[-33,-25]],[[7022,10337],[-2,72],[-21,26],[-48,14],[13,47],[46,5],[21,38],[-18,24],[32,46],[52,35],[23,36],[36,3],[33,40],[47,-7],[88,134],[29,29],[120,-7],[19,29],[79,14],[41,-19],[25,-28],[16,-52],[84,-48],[7,-43],[-58,-22],[60,-47],[11,-42],[40,-16],[6,-25],[38,-21],[24,-67],[28,2],[38,65],[31,-9],[3,-42],[96,5],[14,-31],[31,7],[39,-20],[38,12],[12,-28],[38,13],[53,-5],[20,-47],[78,-4],[27,-42],[73,-10],[15,43],[76,0],[50,62],[87,72],[12,38],[53,41],[35,-28],[-25,-33],[10,-26],[52,-12],[52,24],[34,-57],[53,-2],[48,34],[-20,31],[9,32],[-27,66],[27,55],[72,43],[61,-69],[63,-50],[57,-3],[48,12],[61,39],[68,-13],[5,21],[-49,96],[17,47],[56,-3],[23,-25],[-2,-61],[63,20],[45,2],[-14,-37],[62,-19],[49,41],[35,-28],[47,-5],[67,28],[46,54],[45,-24],[25,21],[32,-32],[32,16],[89,5],[29,48],[67,14],[79,40],[61,-5],[3,58],[40,-31],[79,53],[12,44],[41,58],[24,-31],[25,28],[65,13],[75,-20],[4,31],[56,47],[-10,43],[51,-22],[41,42],[13,35],[33,-9],[18,30],[-6,83],[25,-15],[15,54],[61,42],[66,-19],[11,-36],[29,-25],[49,33],[59,8],[52,53],[106,-5],[161,-40],[59,18],[-3,-49],[66,6],[57,-18],[50,30],[44,12],[54,-22],[61,-5],[-60,-51],[-133,-60],[-67,-67],[-32,-55],[-56,-155],[-40,-97],[-2,-227],[26,-140]],[[11586,10486],[-184,5],[-369,36],[-443,-59],[-450,-956],[-2,-34],[-44,-44],[38,-80],[3,-117],[-513,-2]],[[9622,9235],[-784,132]],[[8838,9367],[-722,28],[-711,-348]],[[8838,9367],[-179,-595],[-33,14],[-46,-7],[-19,-33],[-40,9],[-81,-103],[-20,-77],[62,-86],[-93,-83],[-26,-38],[16,-32],[-29,-20],[-22,-52]],[[9622,9235],[-196,-244],[39,-40],[4,-58],[41,-79]],[[9510,8814],[-17,-61],[-2,-452],[-242,-244],[-546,-294],[-73,50],[-75,27]],[[12957,9818],[66,6],[25,-109],[-30,-43],[-81,-31],[-2,24],[-59,-1],[-19,31],[62,-3],[-22,46],[19,18],[-2,40],[43,22]],[[11586,10486],[46,-188],[54,-146],[83,-242],[11,-13],[-2,-77],[36,-123],[10,-108],[-21,-73],[-52,-101],[-96,-205],[-101,-167],[-77,-85],[-61,-108],[-50,-39],[-30,-39],[-46,-19],[-56,-82],[-48,-102],[-54,-169],[18,-24],[-32,-43],[-32,-68],[-33,-110],[-35,-160]],[[11018,7995],[-47,-21],[-20,-88],[-215,-98],[-76,81],[-10,49],[7,38],[-31,36],[-25,-8],[-53,27],[-40,66],[5,93],[-47,-11],[-78,26],[-61,9],[-126,-29],[-38,-39],[-18,50],[-29,33],[10,21],[-36,27],[-6,54],[-38,0],[3,44],[-17,15],[-47,-5],[-11,28],[-77,38],[-26,32],[-16,51],[-69,37],[-30,44],[30,72],[-47,79],[-54,19],[-37,41],[-94,-13],[-44,21]],[[11018,7995],[-43,-274],[-11,-159],[-17,-12],[22,-45],[-35,-67],[-29,-120],[-22,-58],[-9,-123],[-18,-74],[-14,-194],[6,-153],[10,-119],[32,-230],[39,-225]],[[10929,6142],[-37,9],[-88,-20],[-21,22],[-52,17],[-29,26],[-37,7],[-4,48],[-50,26],[28,33],[-72,23],[-47,31],[-35,-4],[-107,61],[-85,-8],[-10,56],[25,76],[0,37],[-58,51],[1,38],[33,12],[8,48],[-99,-23],[-48,12],[-63,54],[-44,-18],[-44,1],[-234,38]],[[9760,6795],[-383,69],[-55,28],[-2,-34],[-78,-11],[-25,-16],[-38,11],[-58,-44],[-50,-16],[-63,33],[-42,-4],[-37,17],[-85,-74],[-538,-6],[-594,-77]],[[9760,6795],[-64,-98],[-56,-107],[-51,-24],[-8,-52],[39,-48],[-75,-118],[265,-173],[-6,-84],[11,-28],[-10,-37],[22,-43],[-11,-33],[13,-31],[-6,-42]],[[9823,5877],[-79,61],[-40,-3],[-71,22],[-23,27],[-138,-62],[-48,9],[-55,-9],[-36,45],[-55,-50],[16,-55],[-42,-6],[-71,18],[-98,15],[-12,31],[-39,37],[-80,12],[-68,-43],[-35,22],[-28,-19],[-84,-21],[-2,-35],[-66,-1],[-18,-50],[-125,62],[-54,-96],[-48,-32],[21,-53],[23,20],[34,-22],[-24,-23],[9,-33],[-40,-40],[51,-27],[60,-47],[-48,-29],[-34,-36],[-129,-14],[-49,21],[-25,-46],[-35,-27],[-30,1],[-60,34],[-68,2]],[[10929,6142],[65,-309],[26,-24],[-58,-229],[-10,-65]],[[10952,5515],[-40,-5]],[[10912,5510],[-41,44],[-74,20],[-42,24],[-46,-8],[-85,-65],[-21,1],[-3,0]],[[10600,5526],[-3,49],[-55,21],[-71,-8],[-42,29],[-72,20],[-16,16],[-83,25],[-95,-35]],[[10163,5643],[-41,23],[6,34],[-57,77],[15,40],[-87,-7],[-60,48],[-116,19]],[[7986,5358],[-8,-81],[-18,-22],[33,-54],[-5,-56],[23,-31]],[[8011,5114],[-75,-300],[-83,-113],[-80,-76],[-168,-306]],[[10163,5643],[11,-20],[-15,-52],[-72,9],[-7,-30],[-32,-18],[-73,-6],[-36,30],[-39,12],[-17,43],[-33,-29],[-60,13],[-62,-31],[11,-105],[-95,-210],[40,-34],[42,-14],[37,28],[23,-26],[5,-46],[30,-38],[41,0],[5,-44],[-29,-14],[-10,-33],[39,-10],[-39,-130]],[[9828,4888],[-556,-28]],[[9272,4860],[-395,-251],[-205,-11],[-1,27],[-55,30],[-33,63],[-28,-1],[-36,-30],[-44,0],[-23,75],[20,72],[-2,33],[-191,159],[-174,78],[-72,-9],[-22,19]],[[10952,5515],[-35,-317],[-4,-91],[6,-101],[11,-77],[35,-118],[38,-69],[64,-88],[3,-27],[-11,-150],[-31,-34],[-84,23],[-64,2],[-87,-32],[-73,-50],[-51,34],[6,29],[80,75],[5,27],[-31,39],[-53,93],[-10,52],[9,36],[-9,73],[13,34],[59,41],[86,-15],[45,93],[7,116],[-34,80],[37,116],[-14,25],[2,56],[48,31],[-3,89]],[[10600,5526],[42,-23],[9,-36],[-32,-27],[-4,-39],[49,-9],[24,16],[30,-29],[3,-81],[39,-32],[9,-32],[-19,-76],[27,-31],[-49,-85],[-104,-64],[-37,-44],[-24,-4],[-60,-52],[-32,11],[-85,1],[-84,-64],[1,-81],[-13,-60],[27,-22],[47,37],[40,-10],[27,-92],[-12,-32],[34,-82],[-38,-41],[-5,-56],[12,-72],[65,-36],[32,35],[47,26],[25,-41],[-11,-20],[-23,-130],[27,-9],[15,37],[-8,53],[20,6],[19,105],[58,49],[34,-32],[-12,-29],[-70,-98],[-51,-134]],[[10589,4097],[-86,3],[-52,146],[-39,24],[-44,-15],[-55,58],[-76,-30],[-47,45],[-54,2],[-58,49],[-51,26],[-120,22],[-84,57],[-61,60],[66,344]],[[7676,4159],[67,27],[0,39],[24,58],[72,2],[29,27],[76,-28],[12,45],[34,4],[28,28],[56,-4],[38,9],[25,28],[69,1],[-5,-42],[22,-28],[-12,-82],[-15,-10],[7,-68],[80,-46],[43,-42],[24,-6],[27,-52],[357,-214],[7,-122],[-14,-34],[21,-99],[-29,-42],[41,-68],[30,-28]],[[9272,4860],[269,-555],[10,-45],[129,-132],[26,5],[-18,-471]],[[9688,3662],[-7,-177],[-35,-16],[-8,-29],[-39,-27],[10,-28],[-20,-147],[17,-39],[24,-232],[1,-69],[11,-35],[-3,-57],[15,-47],[-37,-14],[-66,-49],[-62,-14]],[[10589,4097],[-49,-257],[-5,-151],[6,-169],[-27,-29],[-50,48],[-21,35],[-34,-9]],[[10409,3565],[-32,73],[5,54],[-25,80],[-33,34],[-95,30],[-97,-8],[-47,-42],[-81,-8],[-31,-52],[-30,4],[-47,-21],[-54,-82],[-44,2],[-16,43],[-37,-10],[-41,19],[-16,-19]],[[10452,3424],[9,-36],[-15,-46],[-10,-92],[8,-84],[23,-92],[-63,26],[3,62],[-28,24],[16,90],[-13,26],[34,40],[8,59],[28,23]],[[10409,3565],[-33,-41],[-33,-12],[9,-70],[-9,-61],[-28,-15],[-4,-51],[14,-42],[-79,-55],[-1,-41],[-107,-67],[14,-47],[50,-13],[-12,-30],[23,-43],[79,-84],[79,2],[8,32],[-8,69],[11,54],[21,32],[40,-31],[57,-14],[13,-98],[27,-55],[24,-85],[30,-189],[32,-178],[22,-39],[-12,-47],[-66,31],[-81,-68],[-29,-35],[-88,-14],[-57,-134],[-25,-90],[-27,-12],[-21,-78],[-72,12],[-32,-28],[-33,-65],[-37,-35],[-18,-111],[2,-163],[20,-132],[43,-177],[47,-145],[63,-161],[52,-101],[91,-135],[10,-30]],[[9489,1096],[1,5],[-60,30],[-110,1],[-71,42],[-105,212],[-214,122],[-72,12],[-291,315]],[[3423,3700],[101,14],[78,49],[1,102],[332,152]],[[3898,3593],[-70,-80],[-38,-27]],[[3790,3486],[-23,15],[-30,-22],[-16,49],[-51,16],[-45,69],[-23,2],[-38,-34],[-36,-6],[-51,35]],[[3790,3486],[-86,-38],[55,-46]],[[9331,211],[-47,-6],[-70,12],[-39,-12],[-5,37],[-38,5],[-38,51],[44,14],[14,40],[-28,87],[-37,10],[-47,37],[-69,7],[-42,61],[-62,3],[-33,72],[-40,16],[24,63],[-45,55],[-47,-48],[-61,-6],[-53,-53],[-79,18],[-95,103]],[[12249,3907],[6,-36],[-35,-10],[-21,-46],[-25,-2],[11,94],[64,0]],[[12403,4222],[14,-50],[-41,13],[27,37]]],"transform":{"scale":[0.0003799531805640715,0.0003775803347646943],"translate":[-87.69194439999998,10.707656500000036]},"objects":{"NIC":{"type":"GeometryCollection","geometries":[{"arcs":[[0,1,2,3,4,5,6]],"type":"Polygon","properties":{"name":"Municipio Nueva Guinea","shapeGroup":"NIC","gid":"NIC-2-0"},"id":"NIC-2-0"},{"arcs":[[7,8,9,10,11]],"type":"Polygon","properties":{"name":"El Viejo (Municipio)","shapeGroup":"NIC","gid":"NIC-2-1"},"id":"NIC-2-1"},{"arcs":[[-11,12,13,14,15]],"type":"Polygon","properties":{"name":"Corinto (Municipio)","shapeGroup":"NIC","gid":"NIC-2-2"},"id":"NIC-2-2"},{"arcs":[[-8,16,17,18]],"type":"Polygon","properties":{"name":"Puerto Morazán (Municipio)","shapeGroup":"NIC","gid":"NIC-2-3"},"id":"NIC-2-3"},{"arcs":[[-18,19,20,21,22,23,24]],"type":"Polygon","properties":{"name":"Somotillo (Municipio)","shapeGroup":"NIC","gid":"NIC-2-4"},"id":"NIC-2-4"},{"arcs":[[-10,25,26,-13]],"type":"Polygon","properties":{"name":"El Realejo (Municipio)","shapeGroup":"NIC","gid":"NIC-2-5"},"id":"NIC-2-5"},{"arcs":[[-21,27,28]],"type":"Polygon","properties":{"name":"Santo Tomás del Norte (Municipio)","shapeGroup":"NIC","gid":"NIC-2-6"},"id":"NIC-2-6"},{"arcs":[[-22,-29,29,30,31]],"type":"Polygon","properties":{"name":"San Juan de Cinco Pinos (Municipio)","shapeGroup":"NIC","gid":"NIC-2-7"},"id":"NIC-2-7"},{"arcs":[[-23,-32,32,33,34,35,36]],"type":"Polygon","properties":{"name":"San Francisco del Norte (Municipio)","shapeGroup":"NIC","gid":"NIC-2-8"},"id":"NIC-2-8"},{"arcs":[[-31,37,-33]],"type":"Polygon","properties":{"name":"San Pedro del Norte (Municipio)","shapeGroup":"NIC","gid":"NIC-2-9"},"id":"NIC-2-9"},{"arcs":[[-24,-37,38,39,40,41,42,43]],"type":"Polygon","properties":{"name":"Villanueva (Municipio)","shapeGroup":"NIC","gid":"NIC-2-10"},"id":"NIC-2-10"},{"arcs":[[-14,-27,44,45,46,47]],"type":"Polygon","properties":{"name":"Chichigalpa (Municipio)","shapeGroup":"NIC","gid":"NIC-2-11"},"id":"NIC-2-11"},{"arcs":[[-9,-19,-25,-44,48,49,-45,-26]],"type":"Polygon","properties":{"name":"Chinandega (Municipio)","shapeGroup":"NIC","gid":"NIC-2-12"},"id":"NIC-2-12"},{"arcs":[[-15,-48,50,51,52,53,54,55]],"type":"Polygon","properties":{"name":"Municipio León","shapeGroup":"NIC","gid":"NIC-2-13"},"id":"NIC-2-13"},{"arcs":[[-47,56,57,-51]],"type":"Polygon","properties":{"name":"Quezalguaque (Municipio)","shapeGroup":"NIC","gid":"NIC-2-14"},"id":"NIC-2-14"},{"arcs":[[-43,58,-52,-58,59,-49]],"type":"Polygon","properties":{"name":"Municipio Telica","shapeGroup":"NIC","gid":"NIC-2-15"},"id":"NIC-2-15"},{"arcs":[[-46,-50,-60,-57]],"type":"Polygon","properties":{"name":"Posoltega (Municipio)","shapeGroup":"NIC","gid":"NIC-2-16"},"id":"NIC-2-16"},{"arcs":[[-54,60,61,62]],"type":"Polygon","properties":{"name":"La Paz Centro (Municipio)","shapeGroup":"NIC","gid":"NIC-2-17"},"id":"NIC-2-17"},{"arcs":[[-42,63,64,-61,-53,-59]],"type":"Polygon","properties":{"name":"Municipio Larreynaga","shapeGroup":"NIC","gid":"NIC-2-18"},"id":"NIC-2-18"},{"arcs":[[-55,-63,65,66,67]],"type":"Polygon","properties":{"name":"Nagarote (Municipio)","shapeGroup":"NIC","gid":"NIC-2-19"},"id":"NIC-2-19"},{"arcs":[[-40,68,69,70]],"type":"Polygon","properties":{"name":"Municipio Achuapa","shapeGroup":"NIC","gid":"NIC-2-20"},"id":"NIC-2-20"},{"arcs":[[-41,-71,71,72,73,74,-64]],"type":"Polygon","properties":{"name":"Municipio El Sauce","shapeGroup":"NIC","gid":"NIC-2-21"},"id":"NIC-2-21"},{"arcs":[[-74,75,76,77]],"type":"Polygon","properties":{"name":"Municipio Santa Rosa del Peñón","shapeGroup":"NIC","gid":"NIC-2-22"},"id":"NIC-2-22"},{"arcs":[[-36,78,79,80,81,-69,-39]],"type":"Polygon","properties":{"name":"Municipio San Juan de Limay","shapeGroup":"NIC","gid":"NIC-2-23"},"id":"NIC-2-23"},{"arcs":[[-62,-65,-75,-78,82,83,84]],"type":"Polygon","properties":{"name":"El Jicaral (Municipio)","shapeGroup":"NIC","gid":"NIC-2-24"},"id":"NIC-2-24"},{"arcs":[[85,86,87,88]],"type":"Polygon","properties":{"name":"Municipio Las Sabanas","shapeGroup":"NIC","gid":"NIC-2-25"},"id":"NIC-2-25"},{"arcs":[[-35,89,-87,-79]],"type":"Polygon","properties":{"name":"Municipio San José de Cusmapa","shapeGroup":"NIC","gid":"NIC-2-26"},"id":"NIC-2-26"},{"arcs":[[-89,90,91,92]],"type":"Polygon","properties":{"name":"Municipio San Lucas","shapeGroup":"NIC","gid":"NIC-2-27"},"id":"NIC-2-27"},{"arcs":[[-92,93,94,95,96,97,98]],"type":"Polygon","properties":{"name":"Somoto (Municipio)","shapeGroup":"NIC","gid":"NIC-2-28"},"id":"NIC-2-28"},{"arcs":[[-98,99,100,101]],"type":"Polygon","properties":{"name":"Municipio Yalagüina","shapeGroup":"NIC","gid":"NIC-2-29"},"id":"NIC-2-29"},{"arcs":[[-97,102,103,104,105,106,-100]],"type":"Polygon","properties":{"name":"Totogalpa (Municipio)","shapeGroup":"NIC","gid":"NIC-2-30"},"id":"NIC-2-30"},{"arcs":[[-101,-107,107,108,109]],"type":"Polygon","properties":{"name":"Palacagüina (Municipio)","shapeGroup":"NIC","gid":"NIC-2-31"},"id":"NIC-2-31"},{"arcs":[[-106,110,111,112,113,114,115,-108]],"type":"Polygon","properties":{"name":"Municipio Telpaneca","shapeGroup":"NIC","gid":"NIC-2-32"},"id":"NIC-2-32"},{"arcs":[[-114,116,117,118]],"type":"Polygon","properties":{"name":"Municipio San Juan de Río Coco","shapeGroup":"NIC","gid":"NIC-2-33"},"id":"NIC-2-33"},{"arcs":[[-80,-86,-93,-99,-102,-110,119]],"type":"Polygon","properties":{"name":"Municipio Pueblo Nuevo","shapeGroup":"NIC","gid":"NIC-2-34"},"id":"NIC-2-34"},{"arcs":[[-70,-82,120,121,122,123,124,-72]],"type":"Polygon","properties":{"name":"Municipio Estelí","shapeGroup":"NIC","gid":"NIC-2-35"},"id":"NIC-2-35"},{"arcs":[[-81,-120,-109,-116,125,-121]],"type":"Polygon","properties":{"name":"Municipio Condega","shapeGroup":"NIC","gid":"NIC-2-36"},"id":"NIC-2-36"},{"arcs":[[-73,-125,126,127,-76]],"type":"Polygon","properties":{"name":"Municipio San Nicolas","shapeGroup":"NIC","gid":"NIC-2-37"},"id":"NIC-2-37"},{"arcs":[[-124,128,129,130,131,-127]],"type":"Polygon","properties":{"name":"Municipio La Trinidad","shapeGroup":"NIC","gid":"NIC-2-38"},"id":"NIC-2-38"},{"arcs":[[-95,132,133]],"type":"Polygon","properties":{"name":"Municipio Santa María","shapeGroup":"NIC","gid":"NIC-2-39"},"id":"NIC-2-39"},{"arcs":[[-96,-134,134,135,136,-103]],"type":"Polygon","properties":{"name":"Municipio Macuelizo","shapeGroup":"NIC","gid":"NIC-2-40"},"id":"NIC-2-40"},{"arcs":[[-136,137,138,139]],"type":"Polygon","properties":{"name":"Municipio Dipilito","shapeGroup":"NIC","gid":"NIC-2-41"},"id":"NIC-2-41"},{"arcs":[[-105,140,-139,141,142,143,-111]],"type":"Polygon","properties":{"name":"Municipio Monzonte","shapeGroup":"NIC","gid":"NIC-2-42"},"id":"NIC-2-42"},{"arcs":[[-104,-137,-140,-141]],"type":"Polygon","properties":{"name":"Ocotal (Municipio)","shapeGroup":"NIC","gid":"NIC-2-43"},"id":"NIC-2-43"},{"arcs":[[-112,-144,144,145]],"type":"Polygon","properties":{"name":"Municipio Ciudad Antigua","shapeGroup":"NIC","gid":"NIC-2-44"},"id":"NIC-2-44"},{"arcs":[[-143,146,147,148,-145]],"type":"Polygon","properties":{"name":"Municipio San Fernando","shapeGroup":"NIC","gid":"NIC-2-45"},"id":"NIC-2-45"},{"arcs":[[-113,-146,-149,149,150,151,-117]],"type":"Polygon","properties":{"name":"Municipio El Jacaro","shapeGroup":"NIC","gid":"NIC-2-46"},"id":"NIC-2-46"},{"arcs":[[-148,152,153,-150]],"type":"Polygon","properties":{"name":"Municipio Jalapa","shapeGroup":"NIC","gid":"NIC-2-47"},"id":"NIC-2-47"},{"arcs":[[-151,-154,154,155,156]],"type":"Polygon","properties":{"name":"Municipio Murra","shapeGroup":"NIC","gid":"NIC-2-48"},"id":"NIC-2-48"},{"arcs":[[-118,-152,-157,157,158,159]],"type":"Polygon","properties":{"name":"Municipio Quilalí","shapeGroup":"NIC","gid":"NIC-2-49"},"id":"NIC-2-49"},{"arcs":[[-156,160,161,162,-158]],"type":"Polygon","properties":{"name":"Municipio Wiwilí de Nueva Segovia","shapeGroup":"NIC","gid":"NIC-2-50"},"id":"NIC-2-50"},{"arcs":[[-67,163,164,165,166,167,168]],"type":"Polygon","properties":{"name":"Villa El Carmen (Municipio)","shapeGroup":"NIC","gid":"NIC-2-51"},"id":"NIC-2-51"},{"arcs":[[-168,169,170,171,172]],"type":"Polygon","properties":{"name":"San Rafael del Sur (Municipio)","shapeGroup":"NIC","gid":"NIC-2-52"},"id":"NIC-2-52"},{"arcs":[[-85,173,174,175]],"type":"Polygon","properties":{"name":"San Francisco Libre (Municipio)","shapeGroup":"NIC","gid":"NIC-2-53"},"id":"NIC-2-53"},{"arcs":[[-175,176,177,178,179,180,181,182,183]],"type":"Polygon","properties":{"name":"Tipitapa (Municipio)","shapeGroup":"NIC","gid":"NIC-2-54"},"id":"NIC-2-54"},{"arcs":[[-66,-176,184,-164]],"type":"Polygon","properties":{"name":"Mateare (Municipio)","shapeGroup":"NIC","gid":"NIC-2-55"},"id":"NIC-2-55"},{"arcs":[[-172,185,186,187,188,189]],"type":"Polygon","properties":{"name":"Diriamba (Municipio)","shapeGroup":"NIC","gid":"NIC-2-56"},"id":"NIC-2-56"},{"arcs":[[-188,190]],"type":"Polygon","properties":{"name":"Dolores (Municipio)","shapeGroup":"NIC","gid":"NIC-2-57"},"id":"NIC-2-57"},{"arcs":[[-187,191,192,193,194,195,196,197,-189,-191]],"type":"Polygon","properties":{"name":"Jinotepe (Municipio)","shapeGroup":"NIC","gid":"NIC-2-58"},"id":"NIC-2-58"},{"arcs":[[-196,198]],"type":"Polygon","properties":{"name":"La Conquista (Municipio)","shapeGroup":"NIC","gid":"NIC-2-59"},"id":"NIC-2-59"},{"arcs":[[199,200,201,202,203]],"type":"Polygon","properties":{"name":"La Paz de Carazo (Municipio)","shapeGroup":"NIC","gid":"NIC-2-60"},"id":"NIC-2-60"},{"arcs":[[-195,204,-201,205,206,207,208,-197,-199]],"type":"Polygon","properties":{"name":"Santa Teresa (Municipio)","shapeGroup":"NIC","gid":"NIC-2-61"},"id":"NIC-2-61"},{"arcs":[[-194,209,-202,-205]],"type":"Polygon","properties":{"name":"El Rosario (Municipio)","shapeGroup":"NIC","gid":"NIC-2-62"},"id":"NIC-2-62"},{"arcs":[[-171,210,211,212,-192,-186]],"type":"Polygon","properties":{"name":"San Marcos (Municipio)","shapeGroup":"NIC","gid":"NIC-2-63"},"id":"NIC-2-63"},{"arcs":[[-212,213,214,215,216]],"type":"Polygon","properties":{"name":"La Concepción (Municipio)","shapeGroup":"NIC","gid":"NIC-2-64"},"id":"NIC-2-64"},{"arcs":[[217,218,219,220]],"type":"Polygon","properties":{"name":"Catarina (Municipio)","shapeGroup":"NIC","gid":"NIC-2-65"},"id":"NIC-2-65"},{"arcs":[[-193,-213,-217,221,222,223,-210]],"type":"Polygon","properties":{"name":"Masatepe (Municipio)","shapeGroup":"NIC","gid":"NIC-2-66"},"id":"NIC-2-66"},{"arcs":[[-223,224,225]],"type":"Polygon","properties":{"name":"Nandasmo (Muncipio)","shapeGroup":"NIC","gid":"NIC-2-67"},"id":"NIC-2-67"},{"arcs":[[-203,-224,-226,226,-219,227,228]],"type":"Polygon","properties":{"name":"Niquinohomo (Municipio)","shapeGroup":"NIC","gid":"NIC-2-68"},"id":"NIC-2-68"},{"arcs":[[-218,229,-228]],"type":"Polygon","properties":{"name":"San Juan de Oriente (Municipio)","shapeGroup":"NIC","gid":"NIC-2-69"},"id":"NIC-2-69"},{"arcs":[[230,231,232]],"type":"Polygon","properties":{"name":"Altagracia (Municipio)","shapeGroup":"NIC","gid":"NIC-2-70"},"id":"NIC-2-70"},{"arcs":[[-231,233,234,235,236]],"type":"Polygon","properties":{"name":"Cárdenas","shapeGroup":"NIC","gid":"NIC-2-71"},"id":"NIC-2-71"},{"arcs":[[-236,237,238,239]],"type":"Polygon","properties":{"name":"San Juan del Sur (Municipio)","shapeGroup":"NIC","gid":"NIC-2-72"},"id":"NIC-2-72"},{"arcs":[[-232,240,241]],"type":"Polygon","properties":{"name":"Moyagalpa (Muncipio)","shapeGroup":"NIC","gid":"NIC-2-73"},"id":"NIC-2-73"},{"arcs":[[-241,242,243]],"type":"Polygon","properties":{"name":"San Jorge (Municipio)","shapeGroup":"NIC","gid":"NIC-2-74"},"id":"NIC-2-74"},{"arcs":[[-208,244,245,-239,246]],"type":"Polygon","properties":{"name":"Tola (Municipio)","shapeGroup":"NIC","gid":"NIC-2-75"},"id":"NIC-2-75"},{"arcs":[[-207,247,248,249,-245]],"type":"Polygon","properties":{"name":"Belén (Municipio)","shapeGroup":"NIC","gid":"NIC-2-76"},"id":"NIC-2-76"},{"arcs":[[-242,-244,250,251,252,253]],"type":"Polygon","properties":{"name":"Buenos Aires (Municipio)","shapeGroup":"NIC","gid":"NIC-2-77"},"id":"NIC-2-77"},{"arcs":[[-249,254,-252,255]],"type":"Polygon","properties":{"name":"Potosí (Municipio)","shapeGroup":"NIC","gid":"NIC-2-78"},"id":"NIC-2-78"},{"arcs":[[-237,-240,-246,-250,-256,-251,-243]],"type":"Polygon","properties":{"name":"Rivas (Municipio)","shapeGroup":"NIC","gid":"NIC-2-79"},"id":"NIC-2-79"},{"arcs":[[256,257,258]],"type":"Polygon","properties":{"name":"Diriomo (Municipio)","shapeGroup":"NIC","gid":"NIC-2-80"},"id":"NIC-2-80"},{"arcs":[[-204,-229,-230,259,-259,260]],"type":"Polygon","properties":{"name":"Diriá (Municipio)","shapeGroup":"NIC","gid":"NIC-2-81"},"id":"NIC-2-81"},{"arcs":[[-200,-261,-258,261,-253,-255,-248,-206]],"type":"Polygon","properties":{"name":"Nandaime (Municipio)","shapeGroup":"NIC","gid":"NIC-2-82"},"id":"NIC-2-82"},{"arcs":[[-180,262,-254,-262,-257,-260,-221,263,264]],"type":"Polygon","properties":{"name":"Granada (Municipio)","shapeGroup":"NIC","gid":"NIC-2-83"},"id":"NIC-2-83"},{"arcs":[[-181,-265,265]],"type":"Polygon","properties":{"name":"Tisma (Municipio)","shapeGroup":"NIC","gid":"NIC-2-84"},"id":"NIC-2-84"},{"arcs":[[-182,-266,-264,-220,-227,-225,266]],"type":"Polygon","properties":{"name":"Masaya (Municipio)","shapeGroup":"NIC","gid":"NIC-2-85"},"id":"NIC-2-85"},{"arcs":[[-183,-267,-222,-216,267,268]],"type":"Polygon","properties":{"name":"Nindirí (Municipio)","shapeGroup":"NIC","gid":"NIC-2-86"},"id":"NIC-2-86"},{"arcs":[[-115,-119,-160,269,270,271,-122,-126]],"type":"Polygon","properties":{"name":"Muncipio San Sebastián de Yalí","shapeGroup":"NIC","gid":"NIC-2-87"},"id":"NIC-2-87"},{"arcs":[[-123,-272,272]],"type":"Polygon","properties":{"name":"Municipio La Concordia","shapeGroup":"NIC","gid":"NIC-2-88"},"id":"NIC-2-88"},{"arcs":[[-129,-273,-271,273,274]],"type":"Polygon","properties":{"name":"Municipio San Rafael del Norte","shapeGroup":"NIC","gid":"NIC-2-89"},"id":"NIC-2-89"},{"arcs":[[-130,-275,275,276,277,278,279]],"type":"Polygon","properties":{"name":"Municipio de Jinotega","shapeGroup":"NIC","gid":"NIC-2-90"},"id":"NIC-2-90"},{"arcs":[[-159,-163,280,281,-276,-274,-270]],"type":"Polygon","properties":{"name":"Municipio Santa María de Pantasma","shapeGroup":"NIC","gid":"NIC-2-91"},"id":"NIC-2-91"},{"arcs":[[-277,-282,282,283,284,285,286]],"type":"Polygon","properties":{"name":"Municipio El Cuá","shapeGroup":"NIC","gid":"NIC-2-92"},"id":"NIC-2-92"},{"arcs":[[-284,287,288,289,290,291,292]],"type":"Polygon","properties":{"name":"Municipio San José de Bocay","shapeGroup":"NIC","gid":"NIC-2-93"},"id":"NIC-2-93"},{"arcs":[[-162,293,-288,-283,-281]],"type":"Polygon","properties":{"name":"Municipio Wiwilí de Jinotega","shapeGroup":"NIC","gid":"NIC-2-94"},"id":"NIC-2-94"},{"arcs":[[-77,-128,-132,294,295,-83]],"type":"Polygon","properties":{"name":"Municipio San Isidro","shapeGroup":"NIC","gid":"NIC-2-95"},"id":"NIC-2-95"},{"arcs":[[-131,-280,296,297,298,-295]],"type":"Polygon","properties":{"name":"Municipio Sebaco","shapeGroup":"NIC","gid":"NIC-2-96"},"id":"NIC-2-96"},{"arcs":[[-84,-296,-299,299,300,301,-177,-174]],"type":"Polygon","properties":{"name":"Municipio Ciudad Darco","shapeGroup":"NIC","gid":"NIC-2-97"},"id":"NIC-2-97"},{"arcs":[[-298,302,303,304,305,-300]],"type":"Polygon","properties":{"name":"Municipio Terrabona","shapeGroup":"NIC","gid":"NIC-2-98"},"id":"NIC-2-98"},{"arcs":[[-304,306,307]],"type":"Polygon","properties":{"name":"Municipio San Dionisio","shapeGroup":"NIC","gid":"NIC-2-99"},"id":"NIC-2-99"},{"arcs":[[-279,308,309,310,311,-307,-303,-297]],"type":"Polygon","properties":{"name":"Municipio Matagalpa","shapeGroup":"NIC","gid":"NIC-2-100"},"id":"NIC-2-100"},{"arcs":[[-305,-308,-312,312,313,314]],"type":"Polygon","properties":{"name":"Municipio Esquipulas","shapeGroup":"NIC","gid":"NIC-2-101"},"id":"NIC-2-101"},{"arcs":[[-311,315,316,317,-313]],"type":"Polygon","properties":{"name":"Municipio Muy Muy","shapeGroup":"NIC","gid":"NIC-2-102"},"id":"NIC-2-102"},{"arcs":[[-278,-287,318,319,320,-309]],"type":"Polygon","properties":{"name":"Municipio El Tuma - La Dalia","shapeGroup":"NIC","gid":"NIC-2-103"},"id":"NIC-2-103"},{"arcs":[[-310,-321,321,-316]],"type":"Polygon","properties":{"name":"Municipio San Ramon","shapeGroup":"NIC","gid":"NIC-2-104"},"id":"NIC-2-104"},{"arcs":[[-317,-322,-320,322,323,324,325,326]],"type":"Polygon","properties":{"name":"Municipio Matiguás","shapeGroup":"NIC","gid":"NIC-2-105"},"id":"NIC-2-105"},{"arcs":[[-286,327,328,-323,-319]],"type":"Polygon","properties":{"name":"Municipio Rancho Grande","shapeGroup":"NIC","gid":"NIC-2-106"},"id":"NIC-2-106"},{"arcs":[[-178,-302,329,330,331,332]],"type":"Polygon","properties":{"name":"Municipio Teustepe","shapeGroup":"NIC","gid":"NIC-2-107"},"id":"NIC-2-107"},{"arcs":[[-301,-306,-315,333,334,-330]],"type":"Polygon","properties":{"name":"Municipio San José de Los Remates","shapeGroup":"NIC","gid":"NIC-2-108"},"id":"NIC-2-108"},{"arcs":[[-331,-335,335]],"type":"Polygon","properties":{"name":"Municipio Santa Lucía","shapeGroup":"NIC","gid":"NIC-2-109"},"id":"NIC-2-109"},{"arcs":[[-179,-333,336,337,338,-263]],"type":"Polygon","properties":{"name":"San Lorenzo (Municipio)","shapeGroup":"NIC","gid":"NIC-2-110"},"id":"NIC-2-110"},{"arcs":[[-314,-318,-327,339,-337,-332,-336,-334]],"type":"Polygon","properties":{"name":"Municipio Boaco","shapeGroup":"NIC","gid":"NIC-2-111"},"id":"NIC-2-111"},{"arcs":[[-326,340,341,342,343,344,-338,-340]],"type":"Polygon","properties":{"name":"Municipio Camoapa","shapeGroup":"NIC","gid":"NIC-2-112"},"id":"NIC-2-112"},{"arcs":[[-339,-345,345,346]],"type":"Polygon","properties":{"name":"Comalapa (Municipio)","shapeGroup":"NIC","gid":"NIC-2-113"},"id":"NIC-2-113"},{"arcs":[[-344,347,348,-346]],"type":"Polygon","properties":{"name":"Municipio San Francisco de Cuapa","shapeGroup":"NIC","gid":"NIC-2-114"},"id":"NIC-2-114"},{"arcs":[[-347,-349,349,350,351]],"type":"Polygon","properties":{"name":"Juigalpa (Municipio)","shapeGroup":"NIC","gid":"NIC-2-115"},"id":"NIC-2-115"},{"arcs":[[352,353,354]],"type":"Polygon","properties":{"name":"Morrito (Municipio)","shapeGroup":"NIC","gid":"NIC-2-116"},"id":"NIC-2-116"},{"arcs":[[-233,-352,355,356,357,358,359,-355]],"type":"Polygon","properties":{"name":"Acoyapa","shapeGroup":"NIC","gid":"NIC-2-117"},"id":"NIC-2-117"},{"arcs":[[360,361,362,363,364]],"type":"Polygon","properties":{"name":"Municipio Santo Domingo","shapeGroup":"NIC","gid":"NIC-2-118"},"id":"NIC-2-118"},{"arcs":[[-358,365,366,367]],"type":"Polygon","properties":{"name":"Municipio Villa Sandino","shapeGroup":"NIC","gid":"NIC-2-119"},"id":"NIC-2-119"},{"arcs":[[-357,368,-363,369,370,-366]],"type":"Polygon","properties":{"name":"Municipio Santo Tomás","shapeGroup":"NIC","gid":"NIC-2-120"},"id":"NIC-2-120"},{"arcs":[[-343,371,-365,372,-350,-348]],"type":"Polygon","properties":{"name":"Municipio La Libertad","shapeGroup":"NIC","gid":"NIC-2-121"},"id":"NIC-2-121"},{"arcs":[[-351,-373,-364,-369,-356]],"type":"Polygon","properties":{"name":"Municipio San Pedro de Lóvago","shapeGroup":"NIC","gid":"NIC-2-122"},"id":"NIC-2-122"},{"arcs":[[-5,373,-359,-368,374]],"type":"Polygon","properties":{"name":"Municipio El Coral","shapeGroup":"NIC","gid":"NIC-2-123"},"id":"NIC-2-123"},{"arcs":[[-3,375,-354,376]],"type":"Polygon","properties":{"name":"San Miguelito (Municipio)","shapeGroup":"NIC","gid":"NIC-2-124"},"id":"NIC-2-124"},{"arcs":[[-4,-377,-353,-360,-374]],"type":"Polygon","properties":{"name":"Municipio El Almendro","shapeGroup":"NIC","gid":"NIC-2-125"},"id":"NIC-2-125"},{"arcs":[[-2,377,378,-234,-376]],"type":"Polygon","properties":{"name":"San Carlos (Municipio)","shapeGroup":"NIC","gid":"NIC-2-126"},"id":"NIC-2-126"},{"arcs":[[379,380,381]],"type":"Polygon","properties":{"name":"Municipio San Juan de Nicaragua","shapeGroup":"NIC","gid":"NIC-2-127"},"id":"NIC-2-127"},{"arcs":[[-285,-293,382,383,384,-328]],"type":"Polygon","properties":{"name":"Municipio Waslala","shapeGroup":"NIC","gid":"NIC-2-128"},"id":"NIC-2-128"},{"arcs":[[-292,385,386,387,388,-383]],"type":"Polygon","properties":{"name":"Municipio Siuna","shapeGroup":"NIC","gid":"NIC-2-129"},"id":"NIC-2-129"},{"arcs":[[-384,-389,389,390,391,392]],"type":"Polygon","properties":{"name":"Municipio Mulukukú","shapeGroup":"NIC","gid":"NIC-2-130"},"id":"NIC-2-130"},{"arcs":[[-325,393,-392,394,395,396,-341]],"type":"Polygon","properties":{"name":"Municipio Paiwas","shapeGroup":"NIC","gid":"NIC-2-131"},"id":"NIC-2-131"},{"arcs":[[-324,-329,-385,-393,-394]],"type":"Polygon","properties":{"name":"Municipio Río Blanco","shapeGroup":"NIC","gid":"NIC-2-132"},"id":"NIC-2-132"},{"arcs":[[-290,397,398,399,400]],"type":"Polygon","properties":{"name":"Municipio Waspán","shapeGroup":"NIC","gid":"NIC-2-133"},"id":"NIC-2-133"},{"arcs":[[-291,-401,401,-386]],"type":"Polygon","properties":{"name":"Municipio Bonanza","shapeGroup":"NIC","gid":"NIC-2-134"},"id":"NIC-2-134"},{"arcs":[[-387,-402,-400,402,403]],"type":"Polygon","properties":{"name":"Municipio Rosita","shapeGroup":"NIC","gid":"NIC-2-135"},"id":"NIC-2-135"},{"arcs":[[[404]],[[-399,405,406,-403]]],"type":"MultiPolygon","properties":{"name":"Municipio Puerto Cabezas","shapeGroup":"NIC","gid":"NIC-2-136"},"id":"NIC-2-136"},{"arcs":[[-388,-404,-407,407,408,409,-390]],"type":"Polygon","properties":{"name":"Municipio Prinzapolka","shapeGroup":"NIC","gid":"NIC-2-137"},"id":"NIC-2-137"},{"arcs":[[-391,-410,410,411,-395]],"type":"Polygon","properties":{"name":"Municipio La Cruz de Río Grande","shapeGroup":"NIC","gid":"NIC-2-138"},"id":"NIC-2-138"},{"arcs":[[-409,412,413,414,415,416,-411]],"type":"Polygon","properties":{"name":"Municipio Desembocadura de Cruz Río Grande","shapeGroup":"NIC","gid":"NIC-2-139"},"id":"NIC-2-139"},{"arcs":[[-342,-397,417,418,-361,-372]],"type":"Polygon","properties":{"name":"Municipio El Ayote","shapeGroup":"NIC","gid":"NIC-2-140"},"id":"NIC-2-140"},{"arcs":[[-396,-412,-417,419,420,421,-418]],"type":"Polygon","properties":{"name":"Municipio El Tortugero","shapeGroup":"NIC","gid":"NIC-2-141"},"id":"NIC-2-141"},{"arcs":[[[-414,422]],[[-416,423,424,-420]]],"type":"MultiPolygon","properties":{"name":"Municipio Laguna de Perlas","shapeGroup":"NIC","gid":"NIC-2-142"},"id":"NIC-2-142"},{"arcs":[[-6,-375,-367,-371,425]],"type":"Polygon","properties":{"name":"Municipio Muelle de los Bueyes","shapeGroup":"NIC","gid":"NIC-2-143"},"id":"NIC-2-143"},{"arcs":[[-7,-426,-370,-362,-419,-422,426,427]],"type":"Polygon","properties":{"name":"Municipio El Rama","shapeGroup":"NIC","gid":"NIC-2-144"},"id":"NIC-2-144"},{"arcs":[[-421,-425,428,429,-427]],"type":"Polygon","properties":{"name":"Municipio Kukra Hill","shapeGroup":"NIC","gid":"NIC-2-145"},"id":"NIC-2-145"},{"arcs":[[[430]],[[-1,-428,-430,431,-382,432]]],"type":"MultiPolygon","properties":{"name":"Municipio Bluefields","shapeGroup":"NIC","gid":"NIC-2-146"},"id":"NIC-2-146"},{"arcs":[[-166,433,-184,-269,434,435]],"type":"Polygon","properties":{"name":"Managua (Municipio)","shapeGroup":"NIC","gid":"NIC-2-147"},"id":"NIC-2-147"},{"arcs":[[-165,-185,-434]],"type":"Polygon","properties":{"name":"Ciudad Sandino (Municipio)","shapeGroup":"NIC","gid":"NIC-2-148"},"id":"NIC-2-148"},{"arcs":[[-167,-436,436,-214,-211,-170]],"type":"Polygon","properties":{"name":"El Crucero (Municipio)","shapeGroup":"NIC","gid":"NIC-2-149"},"id":"NIC-2-149"},{"arcs":[[-215,-437,-435,-268]],"type":"Polygon","properties":{"name":"Ticuantepe (Municipio)","shapeGroup":"NIC","gid":"NIC-2-150"},"id":"NIC-2-150"},{"arcs":[[-378,-433,-381,437]],"type":"Polygon","properties":{"name":"El Castillo (Municipio)","shapeGroup":"NIC","gid":"NIC-2-151"},"id":"NIC-2-151"},{"arcs":[[[438]],[[439]]],"type":"MultiPolygon","properties":{"name":"Corn Island","shapeGroup":"NIC","gid":"NIC-2-152"},"id":"NIC-2-152"}]}}}