{"type":"Topology","arcs":[[[5522,7295],[-48,21],[-38,-12]],[[5436,7304],[30,150],[47,22]],[[5513,7476],[139,15],[52,-39],[60,176]],[[5764,7628],[61,-33],[34,37],[109,-54],[0,-26]],[[5968,7552],[-128,-80],[34,-43],[-34,-81],[-101,-86],[85,-93],[11,-100]],[[5835,7069],[-101,-25],[-38,68],[-87,66],[-58,113],[-29,4]],[[3458,4627],[-17,15]],[[3441,4642],[-42,28],[-97,26]],[[3302,4696],[-135,-18],[-116,152],[0,54]],[[3051,4884],[100,80],[83,0],[-59,152],[-66,94]],[[3109,5210],[-21,30],[-69,212]],[[3019,5452],[24,14]],[[3043,5466],[334,-468],[142,-80]],[[3519,4918],[-85,-54],[134,-203],[-110,-34]],[[6406,6466],[-18,17],[-139,205]],[[6249,6688],[-128,141]],[[6121,6829],[35,18],[45,-23]],[[6201,6824],[49,-58],[34,-17],[94,178],[9,-5]],[[6387,6922],[32,-22],[55,8],[25,-23],[1,-94],[33,-33],[-49,-39],[-3,-152],[-11,-65],[-47,-5],[-17,-31]],[[6121,6829],[-81,90]],[[6040,6919],[-22,144],[37,21],[88,-8],[40,15],[107,-25],[4,-30]],[[6294,7036],[-2,-43],[-54,-68],[7,-69],[-44,-32]],[[3519,4918],[81,59],[71,68],[162,-174],[78,77],[19,3]],[[3930,4951],[58,-7],[-19,-102],[15,-31]],[[3984,4811],[-57,-8],[-37,-87]],[[3890,4716],[-36,-116]],[[3854,4600],[-21,-62],[-97,-31]],[[3736,4507],[-124,-38]],[[3612,4469],[-112,114]],[[3500,4583],[-7,7]],[[3493,4590],[-35,37]],[[4818,7160],[17,72],[-53,60],[4,57],[-102,45],[-12,32]],[[4672,7426],[41,8]],[[4713,7434],[167,62],[131,3],[26,-26]],[[5037,7473],[-28,-59],[25,-57],[-53,-58],[-39,-116]],[[4942,7183],[-49,-5],[-46,-38],[-29,20]],[[4125,7805],[-130,-133],[-25,-14]],[[3970,7658],[1,309],[-52,107],[-52,40]],[[3867,8114],[104,67],[156,-68],[233,12],[208,26],[78,26]],[[4646,8177],[-1,-107],[-78,-53],[-1,-54],[-233,-79],[-52,-53],[-26,0],[-52,54],[-77,1],[-1,-81]],[[3198,6711],[-35,75]],[[3163,6786],[-83,181]],[[3080,6967],[116,61],[-52,268],[25,161]],[[3169,7457],[413,-106],[77,0]],[[3659,7351],[61,-49],[38,4],[-17,-72],[12,-34],[-25,-55]],[[3728,7145],[-63,21],[-50,-3],[-7,-80],[-52,-54],[0,-42],[-48,-47],[-88,-28],[-222,-201]],[[4530,6444],[-69,153],[-46,4],[28,53],[-36,53],[-15,51],[-99,92],[-6,33]],[[4287,6883],[49,57],[86,21]],[[4422,6961],[91,-20]],[[4513,6941],[34,-47],[-6,-54],[70,-56],[-9,-83],[-37,-74],[119,-26],[70,27],[109,115],[79,27],[49,51]],[[4991,6821],[-8,-148],[-75,-39],[-51,-66],[-73,-51]],[[4784,6517],[-76,-55],[-66,49],[-86,-27],[-26,-40]],[[4287,6883],[-44,-35]],[[4243,6848],[1,125],[29,23],[-88,72],[-71,-5],[-28,28],[-35,-37],[-38,24]],[[4013,7078],[-9,26],[49,93],[43,53],[23,-24],[67,-4],[11,76],[-25,111],[7,40],[-24,79],[27,59]],[[4182,7587],[48,-1],[93,-54],[37,-4]],[[4360,7528],[-12,-96],[35,-37],[49,-16],[30,-49],[-70,-14],[-11,-37],[19,-60],[103,-9],[15,-27],[-38,-44],[60,-69]],[[4540,7070],[-20,-32],[-86,-11],[-12,-66]],[[4991,6821],[13,-5],[117,65],[1,18],[87,33]],[[5209,6932],[62,-24],[-9,-99],[87,-145]],[[5349,6664],[25,-41],[-59,-116],[-42,-32]],[[5273,6475],[-61,-47],[-53,56],[-96,-5]],[[5063,6479],[-58,7],[-22,52],[-96,-45],[-59,-44],[-44,68]],[[4513,6941],[95,-3],[182,-19],[28,20],[35,70],[104,84]],[[4957,7093],[34,-41],[99,-4],[90,-60]],[[5180,6988],[-17,-38],[46,-18]],[[4972,7940],[-198,48],[-50,188]],[[4724,8176],[104,13],[27,80],[103,-28],[234,37],[53,39]],[[5245,8317],[-1,-53],[90,-3],[20,-23],[-24,-57],[-87,9],[-2,-151],[-269,-99]],[[4942,7183],[-3,-71],[18,-19]],[[4540,7070],[119,98],[114,6],[45,-14]],[[3970,7658],[-78,-40],[-52,-107],[-103,-80],[-78,-80]],[[3169,7457],[25,161],[-103,53],[-26,0]],[[3065,7671],[25,134],[104,54],[25,67],[311,68],[337,120]],[[3080,6967],[-77,168],[-401,212]],[[2602,7347],[38,54],[116,81],[206,162],[103,27]],[[5063,6479],[-69,-97],[-150,-109]],[[4844,6273],[-103,-84],[-110,-29],[-40,78],[-79,-26],[-5,-31],[-79,-68],[-60,13],[-41,37]],[[4327,6163],[64,159],[50,71],[44,10],[45,41]],[[5478,6724],[31,14],[-18,62],[17,46]],[[5508,6846],[72,-34],[14,70],[79,10],[3,-86],[49,-21]],[[5725,6785],[-34,-62],[-12,-65],[-74,-110]],[[5605,6548],[-47,-42],[-64,57],[-20,64],[19,31],[-15,66]],[[5722,5722],[1,129],[-59,1],[-15,67]],[[5649,5919],[127,196],[25,-13],[55,118],[37,52],[-25,42]],[[5868,6314],[38,32]],[[5906,6346],[50,-86],[101,-84],[44,-51]],[[6101,6125],[-32,-79],[15,-51],[-23,-90],[40,-94],[21,-148]],[[6122,5663],[-74,-6],[-71,11],[-61,-18],[-55,-53]],[[5861,5597],[-3,63],[-136,62]],[[6101,6125],[33,44],[140,88],[29,44],[83,28]],[[6386,6329],[43,-1],[55,-102],[36,-1]],[[6520,6225],[-37,-83],[-27,-498],[-24,-32],[-113,40],[-64,-25],[-72,41],[-61,-5]],[[5722,5722],[-26,13],[-106,-25],[-41,-33]],[[5549,5677],[2,54],[-53,3],[-23,60],[-65,0],[-71,39],[27,108],[-22,65],[63,36],[0,27]],[[5407,6069],[15,44]],[[5422,6113],[63,-23],[-2,-66],[38,-26],[92,10],[-15,-60],[51,-29]],[[5095,5717],[-91,50],[-57,-27],[-36,49]],[[4911,5789],[-67,175],[91,67]],[[4935,6031],[50,-131],[51,37]],[[5036,5937],[-26,-69],[1,-46],[55,15],[65,-27],[-5,-44],[-31,-49]],[[5716,4590],[10,35],[-35,34],[13,38],[-27,30],[21,77],[-29,65]],[[5669,4869],[91,45],[81,-15]],[[5841,4899],[26,-51],[12,-106]],[[5879,4742],[-51,-97]],[[5828,4645],[-58,-41],[-54,-14]],[[5879,4742],[66,-27]],[[5945,4715],[26,-39],[48,-16]],[[6019,4660],[-46,-61],[-56,-30]],[[5917,4569],[-54,63],[-35,13]],[[4917,5140],[52,21],[-16,113],[48,144],[-15,51]],[[4986,5469],[174,37]],[[5160,5506],[35,-14]],[[5195,5492],[65,-202],[-51,-8],[21,-120],[-2,-74],[49,-22],[16,-59]],[[5293,5007],[-79,-16],[-74,30],[-23,67],[-68,25],[-116,10],[-16,17]],[[4924,4414],[-32,-10],[-41,71],[11,27],[-31,52],[-19,69]],[[4812,4623],[15,-10],[104,33],[62,37],[50,-4]],[[5043,4679],[55,-57],[102,2]],[[5200,4624],[4,-61],[72,-63],[19,-41]],[[5295,4459],[-53,-13],[-21,-44],[-79,11],[-130,-13],[-88,14]],[[5958,4295],[-18,78],[32,63],[67,-27],[10,42],[40,31],[-4,67]],[[6085,4549],[48,-10],[26,30],[50,7]],[[6209,4576],[46,-5]],[[6255,4571],[52,-49],[7,-56],[-13,-54],[27,-29]],[[6328,4383],[-52,-118],[-72,-14],[-34,-46]],[[6170,4205],[-106,30],[-39,-13],[-67,73]],[[6170,4205],[-28,-92],[-31,-29],[-163,-5]],[[5948,4079],[-77,-2],[-92,36],[19,33],[-4,73],[-45,25]],[[5749,4244],[-19,35],[65,37],[44,-6],[26,30]],[[5865,4340],[93,-45]],[[5861,5597],[29,-38],[-14,-79],[82,-74],[-70,-1],[-17,-44],[-61,14],[43,-96],[-14,-104]],[[5839,5175],[-49,26],[-47,-71],[-50,-17],[-30,44]],[[5663,5157],[25,37],[-118,79],[-34,124],[-29,45],[-28,-20],[-127,3],[-21,64],[-136,3]],[[5160,5506],[42,183]],[[5202,5689],[63,-46],[34,-92],[38,25],[81,-20],[18,29],[95,-29],[-8,96],[26,25]],[[5251,4674],[-39,99],[16,55],[79,29],[28,107],[-25,38]],[[5310,5002],[66,31],[37,68]],[[5413,5101],[44,-61],[61,-11],[51,41],[38,-16],[58,27],[3,-47],[-38,-64]],[[5630,4970],[-104,-34],[-3,-73],[-79,-165]],[[5444,4698],[-13,-19],[-67,17],[-113,-22]],[[4404,5270],[-16,98],[-74,84],[-59,5],[0,80]],[[4255,5537],[108,8],[112,27],[47,-13],[83,40]],[[4605,5599],[17,-42],[-34,-60],[20,-50],[52,26],[34,-80]],[[4694,5393],[-50,-27],[46,-36],[-5,-85]],[[4685,5245],[-46,-28]],[[4639,5217],[-61,-71],[-22,24],[-47,-31],[-26,69],[-40,59],[-39,3]],[[6255,4571],[20,73],[-22,73]],[[6253,4717],[56,48],[-13,44],[14,49],[64,-48],[111,27]],[[6485,4837],[0,-63],[-28,-41],[-15,-68],[-36,-69],[2,-42],[58,-129],[-138,-42]],[[4255,5537],[-93,11],[-112,2],[-54,74]],[[3996,5624],[37,38],[11,49],[-51,50],[-61,-19],[-367,264]],[[3565,6006],[437,114],[50,84],[85,11],[26,27],[42,-13],[80,-99]],[[4285,6130],[40,-65],[54,0],[97,-69],[28,-32],[35,-107],[38,-50],[-53,-67],[113,-63],[30,-34]],[[4667,5643],[-62,-44]],[[6209,4576],[-88,62],[68,81],[64,-2]],[[5663,5157],[-70,22],[-85,10],[-3,-27],[-66,-20],[-26,-41]],[[5310,5002],[-17,5]],[[5251,4674],[-51,-50]],[[5043,4679],[-21,81],[-45,15],[-14,37],[26,67],[47,32],[-17,34],[16,43],[-92,23],[-39,65]],[[4904,5076],[-18,44],[31,20]],[[5095,5717],[38,-13],[60,21],[9,-36]],[[4986,5469],[-95,-1]],[[4891,5468],[-76,63],[-8,60],[14,93],[22,33]],[[4843,5717],[68,72]],[[5841,4899],[-50,71],[5,64],[34,25],[44,92]],[[5874,5151],[98,-55],[137,0],[13,-25],[147,-44]],[[6269,5027],[-161,-28],[15,-58],[2,-131],[-79,4],[-59,-15],[-42,-84]],[[3996,5624],[-61,37],[-139,43]],[[3796,5704],[-259,36]],[[3537,5740],[28,266]],[[5716,4590],[-36,-58],[-64,-2],[-24,40]],[[5592,4570],[-16,104],[-34,22],[-98,2]],[[5630,4970],[39,-101]],[[4904,5076],[-30,-36],[-48,-1]],[[4826,5039],[-10,40]],[[4816,5079],[-4,38],[-57,51],[-25,49],[-45,28]],[[4694,5393],[52,24],[45,-46],[24,46],[65,-45],[45,39],[-34,57]],[[5437,3293],[35,70],[-21,85],[28,16],[28,100],[39,59]],[[5546,3623],[55,25],[120,-21],[17,-14]],[[5738,3613],[-12,-74],[47,-26],[16,-45]],[[5789,3468],[-142,-59],[-52,-37],[-70,-25],[-28,-35],[-60,-19]],[[4653,3945],[-32,16],[-59,-18]],[[4562,3943],[-17,14]],[[4545,3957],[9,66],[-69,1],[-48,18],[-33,57],[-8,69],[-86,8]],[[4310,4176],[-31,136],[-71,-9],[-34,44],[18,34],[-26,67]],[[4166,4448],[61,17],[-22,60]],[[4205,4525],[125,13],[50,-12]],[[4380,4526],[50,-11],[98,28],[37,-6],[122,13],[13,-24]],[[4700,4526],[-17,-77],[35,-64],[30,-192],[21,-39]],[[4769,4154],[-43,-59],[-34,-85],[-39,-65]],[[4562,3943],[-33,-74],[8,-110],[17,-35]],[[4554,3724],[67,-76]],[[4621,3648],[-44,-9],[-17,-67]],[[4560,3572],[-39,32],[-59,-75]],[[4462,3529],[-51,23],[-67,9],[10,85]],[[4354,3646],[38,-12],[11,78],[-105,25],[18,59]],[[4316,3796],[63,83],[85,-5],[18,36],[63,47]],[[4310,4176],[-154,-15],[2,-23],[-144,-23],[-102,-30],[-29,3],[-20,-49]],[[3863,4039],[-33,-9]],[[3830,4030],[-64,26]],[[3766,4056],[-13,13]],[[3753,4069],[18,12],[3,83],[-30,10]],[[3744,4174],[-2,45]],[[3742,4219],[9,48],[78,29],[20,-41],[46,0],[11,44],[43,15],[44,-14],[13,46]],[[4006,4346],[82,51],[4,45]],[[4092,4442],[74,6]],[[4065,3325],[30,88]],[[4095,3413],[37,-7]],[[4132,3406],[39,-20],[151,-48]],[[4322,3338],[15,-12],[-66,-76],[-39,-26]],[[4232,3224],[-149,33],[-18,68]],[[4769,4154],[145,53],[42,-1]],[[4956,4206],[-2,-81],[13,-59],[37,-9],[9,-40]],[[5013,4017],[-72,-22],[-14,-43],[-53,-51]],[[4874,3901],[-58,57],[-61,30],[-77,-63],[-30,-2]],[[4648,3923],[5,22]],[[3696,3494],[-73,-32],[-32,-45],[-92,-68]],[[3499,3349],[-45,65],[-31,12],[-69,106]],[[3354,3532],[-22,30],[49,59]],[[3381,3621],[76,-29],[83,46],[48,-1]],[[3588,3637],[81,45],[69,-7]],[[3738,3675],[105,-46],[34,-38],[48,-13]],[[3925,3578],[-64,-25],[8,-58],[-173,-1]],[[3354,3532],[-36,-34],[-45,7],[-84,-20],[-29,16]],[[3160,3501],[65,127]],[[3225,3628],[47,-24],[37,46],[47,-12]],[[3356,3638],[25,-17]],[[4826,3714],[39,78],[-18,36]],[[4847,3828],[93,14],[3,-57],[-31,-61]],[[4912,3724],[-86,-10]],[[4887,3666],[27,2]],[[4914,3668],[154,-15],[16,34],[103,21],[59,-59],[64,-19],[44,13]],[[5354,3643],[-21,-46],[-74,-102],[-48,7],[-47,40]],[[5164,3542],[-6,16],[-171,-6],[-68,39],[-32,75]],[[4065,3325],[-54,4],[12,-67],[-58,-26]],[[3965,3236],[-42,9],[-29,111],[-64,55]],[[3830,3411],[62,21],[203,-19]],[[4615,3466],[-36,76]],[[4579,3542],[32,13],[-1,87],[30,16]],[[4640,3658],[57,-19],[45,32],[5,-98],[-35,-96],[-97,-11]],[[4316,3796],[-118,-12],[-35,-57]],[[4163,3727],[-71,-21],[-133,1]],[[3959,3707],[-29,46]],[[3930,3753],[-4,65],[-50,52]],[[3876,3870],[8,88],[-21,81]],[[4424,4792],[-19,5],[-75,94],[-17,35],[-70,-22],[-25,36]],[[4218,4940],[92,84],[10,59],[42,47]],[[4362,5130],[65,-54],[-16,-25],[54,-74],[42,-85]],[[4507,4892],[-83,-100]],[[4380,4526],[-17,107],[69,91],[-8,68]],[[4507,4892],[46,21]],[[4553,4913],[70,-59],[69,-34],[17,-32],[63,23]],[[4772,4811],[-8,-100]],[[4764,4711],[-36,-14],[-31,-93],[3,-78]],[[3890,4716],[62,-43],[49,27],[82,-76],[48,80]],[[4131,4704],[77,-34],[-10,-86],[7,-59]],[[4092,4442],[-73,92],[-92,22],[-73,44]],[[3984,4811],[55,4],[45,40]],[[4084,4855],[59,-125],[-12,-26]],[[4816,5079],[-139,-30]],[[4677,5049],[23,87],[-61,81]],[[4826,5039],[17,-23],[-15,-75],[29,-24],[-18,-65],[-67,-41]],[[4553,4913],[41,36],[83,100]],[[4172,3047],[88,34],[35,33]],[[4295,3114],[61,32],[73,10]],[[4429,3156],[25,-94]],[[4454,3062],[-44,-7],[-6,-53]],[[4404,3002],[-29,5],[-140,-20],[-63,60]],[[5295,4459],[60,-12]],[[5355,4447],[21,-55],[110,-138]],[[5486,4254],[-19,-105],[17,-66],[-21,-56],[-41,20],[-54,-33]],[[5368,4014],[-95,80],[-19,35],[-51,6]],[[5203,4135],[-7,45],[-149,-20],[-77,71]],[[4970,4231],[-3,26],[-56,64],[43,13],[9,39],[-39,41]],[[3271,2953],[-36,2]],[[3235,2955],[-9,73],[154,23],[-6,57],[38,19],[-12,64]],[[3400,3191],[72,-7],[31,-39],[43,8],[59,87]],[[3605,3240],[25,-48]],[[3630,3192],[-23,-2],[-56,-91],[-27,-104]],[[3524,2995],[-97,-55],[-85,-10],[-71,23]],[[3736,4507],[12,-69],[55,-15],[59,-95],[144,18]],[[3742,4219],[-71,21],[4,98],[-79,40]],[[3596,4378],[16,91]],[[4322,3338],[69,72]],[[4391,3410],[27,-21],[24,-66]],[[4442,3323],[-11,-61],[33,-60],[-35,-46]],[[4295,3114],[-33,39],[-30,71]],[[4362,5130],[42,140]],[[4354,3646],[-94,-44],[-62,34],[-38,-19]],[[4160,3617],[-16,13],[19,97]],[[4554,3724],[40,9],[36,70],[-31,84],[49,36]],[[4874,3901],[-32,-25],[5,-48]],[[4826,3714],[-39,-8],[-45,63],[-49,-54],[-27,1],[-25,-49]],[[4641,3667],[-20,-19]],[[3830,4030],[10,-41],[-71,-51]],[[3769,3938],[-63,26],[46,40],[14,52]],[[3696,3494],[18,-100]],[[3714,3394],[-52,-36],[-32,-75]],[[3630,3283],[-63,34],[-69,-14],[1,46]],[[4970,4231],[-14,-25]],[[4764,4711],[18,-87],[30,-1]],[[4160,3617],[-98,-33]],[[4062,3584],[-63,-48],[-40,19]],[[3959,3555],[36,28],[-2,64],[-34,60]],[[4641,3667],[-1,-9]],[[4579,3542],[-19,30]],[[5738,3613],[31,45],[-7,59],[15,54],[45,73]],[[5822,3844],[46,0],[67,-35],[126,-104],[4,-87],[-51,-16],[-17,-87],[-116,-100],[-65,64],[-27,-11]],[[4172,3047],[-32,7]],[[4140,3054],[-49,49],[-27,5],[-37,63],[-82,41]],[[3945,3212],[20,24]],[[3235,2955],[-100,-13]],[[3135,2942],[26,52],[-9,53],[-56,38],[-63,-17],[-31,50],[-60,35],[-27,37]],[[2915,3190],[45,-6]],[[2960,3184],[82,21],[47,-4],[50,-29],[70,7],[93,-16],[98,28]],[[4912,3724],[2,-56]],[[4887,3666],[-62,-39],[-32,2],[2,-87],[132,-113]],[[4927,3429],[-73,-8],[42,-95],[29,-14],[-1,-62],[-112,24],[-65,49]],[[4747,3323],[-30,17]],[[4717,3340],[-46,82],[-56,44]],[[5203,4135],[-88,-47],[-13,-30],[-62,4],[-27,-45]],[[4084,4855],[35,9],[99,76]],[[3930,4951],[-39,74],[34,35],[-36,67],[70,43],[-26,46],[-6,189],[-40,154],[-91,145]],[[3744,4174],[-67,32],[-32,-11],[-44,-72],[-74,10],[-77,-85]],[[3450,4048],[-7,6]],[[3443,4054],[42,48],[28,138],[-63,56],[6,34]],[[3456,4330],[28,35]],[[3484,4365],[107,-27],[5,40]],[[3456,4330],[-77,-44],[-45,-54]],[[3334,4232],[-32,-13]],[[3302,4219],[-22,32],[6,83]],[[3286,4334],[6,23]],[[3292,4357],[10,39]],[[3302,4396],[155,-3],[-4,26]],[[3453,4419],[40,-13],[-9,-41]],[[3302,4219],[11,-146],[-22,-9],[-22,-86],[-22,3]],[[3247,3981],[-56,26],[-21,75],[-71,40]],[[3099,4122],[23,37],[-44,29],[35,73]],[[3113,4261],[16,3]],[[3129,4264],[118,-9],[39,79]],[[3334,3721],[-33,45],[-38,11],[-18,76],[-53,7],[-14,34]],[[3178,3894],[14,71],[59,-10]],[[3251,3955],[90,-55]],[[3341,3900],[4,-53],[52,-90]],[[3397,3757],[-63,-36]],[[3453,4419],[3,57],[44,107]],[[3302,4396],[33,88]],[[3335,4484],[38,82],[69,-14],[51,38]],[[3225,3628],[-49,16],[-21,63],[-34,17]],[[3121,3724],[15,75],[-3,89]],[[3133,3888],[45,6]],[[3334,3721],[22,-83]],[[3753,4069],[-33,-45],[-41,20],[-73,-53],[-105,17],[-31,21]],[[3470,4029],[-20,19]],[[2704,3540],[-29,89],[-44,54]],[[2631,3683],[127,74],[19,-3]],[[2777,3754],[130,35]],[[2907,3789],[43,12],[23,-65],[50,-38]],[[3023,3698],[-52,-64],[-51,25],[-60,-56],[-49,13],[-23,-38]],[[2788,3578],[-21,-25],[-63,-13]],[[2777,3754],[12,60],[-101,100]],[[2688,3914],[8,16]],[[2696,3930],[55,3],[54,30],[35,-29],[74,-12]],[[2914,3922],[30,-15]],[[2944,3907],[-45,-25],[-13,-74],[21,-19]],[[3876,3870],[-49,-25]],[[3827,3845],[-55,50]],[[3772,3895],[-3,43]],[[3738,3675],[60,105]],[[3798,3780],[66,-56],[34,-8],[32,37]],[[3959,3555],[-34,23]],[[3443,4054],[-42,5],[-45,73],[-22,100]],[[3247,3981],[4,-26]],[[3133,3888],[-97,21],[-13,-104]],[[3023,3805],[-22,12],[-57,90]],[[2914,3922],[9,67],[-60,101]],[[2863,4090],[57,58],[51,-75],[49,17],[45,39],[34,-7]],[[3798,3780],[29,65]],[[3772,3895],[-89,-35],[-30,30],[12,52],[-178,34]],[[3487,3976],[-17,53]],[[3397,3757],[60,48],[51,-20],[64,-54],[-5,-48],[21,-46]],[[3023,3805],[25,-88]],[[3048,3717],[-25,-19]],[[3487,3976],[-20,-42],[-51,49],[-75,-83]],[[3121,3724],[-73,-7]],[[2439,4371],[1,47],[-93,-5]],[[2347,4413],[54,41],[42,56],[65,39],[79,88]],[[2587,4637],[24,-48],[-50,-87]],[[2561,4502],[-37,-58],[-85,-73]],[[2540,5275],[-8,42]],[[2532,5317],[7,69],[-64,31],[13,73]],[[2488,5490],[-25,6],[1,64],[-41,28]],[[2423,5588],[4,74],[61,63],[-18,30]],[[2470,5755],[64,-12],[-9,-84],[20,-31],[77,-16],[15,40],[60,-35]],[[2697,5617],[18,-63],[74,-20]],[[2789,5534],[-57,-25],[-48,-73],[-8,-34],[-47,-70]],[[2629,5332],[-17,11],[-59,-70]],[[2553,5273],[-13,2]],[[2587,4637],[16,59]],[[2603,4696],[155,-22]],[[2758,4674],[-2,-35],[-50,-81],[-15,-78]],[[2691,4480],[-31,-33]],[[2660,4447],[-99,55]],[[2838,4555],[-45,87],[27,58]],[[2820,4700],[52,11],[71,-18]],[[2943,4693],[25,18],[107,-49],[20,-86]],[[3095,4576],[-4,-16]],[[3091,4560],[-65,2]],[[3026,4562],[-74,6]],[[2952,4568],[-31,47],[-83,-60]],[[2603,4696],[-110,92],[5,120],[-50,12],[18,90]],[[2466,5010],[201,-42],[11,39]],[[2678,5007],[62,-16]],[[2740,4991],[55,-39],[30,30]],[[2825,4982],[90,12],[128,-35],[8,-75]],[[3051,4884],[-71,-40],[2,-62]],[[2982,4782],[-68,-39],[-52,44],[-34,-53]],[[2828,4734],[-63,-23],[-7,-37]],[[2355,5083],[-37,65],[-150,46]],[[2168,5194],[9,28]],[[2177,5222],[69,-16],[94,15],[72,-46]],[[2412,5175],[-57,-92]],[[3335,4484],[-31,40],[-38,-3]],[[3266,4521],[133,80],[42,41]],[[2163,4647],[-28,14]],[[2135,4661],[76,232],[-113,40]],[[2098,4933],[31,102]],[[2129,5035],[76,-14],[64,-33],[11,-35]],[[2280,4953],[-17,-71],[-36,-15],[9,-58]],[[2236,4809],[-27,-105],[36,-18]],[[2245,4686],[1,-26]],[[2246,4660],[-74,9],[-9,-22]],[[2532,5317],[-39,6],[-62,47],[-42,-22],[2,-52]],[[2391,5296],[-62,15],[-132,6]],[[2197,5317],[19,124]],[[2216,5441],[28,-5],[107,51]],[[2351,5487],[22,-29],[94,-6],[21,38]],[[2820,4700],[8,34]],[[2982,4782],[2,-39],[-41,-50]],[[3109,5210],[-89,-36],[-63,-4],[-46,30]],[[2911,5200],[46,83],[-55,-8],[-61,28],[33,52],[0,44],[36,41],[-30,36],[-43,-21],[-9,45]],[[2828,5500],[95,7],[38,45]],[[2961,5552],[58,-100]],[[3537,5740],[-103,50],[-56,-36]],[[3378,5754],[-17,18],[-3,89]],[[3358,5861],[-5,92],[34,11],[-108,148],[120,120]],[[3399,6232],[98,-133]],[[3497,6099],[68,-93]],[[2280,4953],[33,50],[55,-44]],[[2368,4959],[-24,-37],[31,-42],[-26,-46],[8,-55],[-63,-43]],[[2294,4736],[-5,67],[-53,6]],[[2347,4413],[-65,-43],[-128,7]],[[2154,4377],[-8,10]],[[2146,4387],[16,37],[17,110]],[[2179,4534],[27,27],[40,99]],[[2245,4686],[49,50]],[[2368,4959],[68,58]],[[2436,5017],[30,-7]],[[2177,5222],[20,95]],[[2391,5296],[-3,-57],[45,-38]],[[2433,5201],[-21,-26]],[[2351,5487],[30,98],[42,3]],[[2216,5441],[39,319],[12,130],[18,97]],[[2285,5987],[29,-8],[70,-72],[64,-120]],[[2448,5787],[22,-32]],[[2520,6346],[-132,17]],[[2388,6363],[-112,16],[29,153]],[[2305,6532],[164,117],[87,0],[146,124]],[[2702,6773],[85,-175],[-88,-217],[-114,71],[-23,-5],[-42,-101]],[[3129,4264],[37,51],[-16,185],[-59,60]],[[3095,4576],[63,-24],[-6,-53],[42,-11],[67,36]],[[3261,4524],[5,-3]],[[3266,4521],[-26,-58],[52,-106]],[[2961,5552],[-17,74],[37,34],[-6,53]],[[2975,5713],[98,37]],[[3073,5750],[32,-66],[-27,-73],[70,-85]],[[3148,5526],[-105,-60]],[[3261,4524],[-5,97],[54,4],[-8,71]],[[2740,4991],[-9,95],[23,70]],[[2754,5156],[24,32]],[[2778,5188],[48,-20]],[[2826,5168],[-1,-186]],[[3358,5861],[-80,2],[-41,-28]],[[3237,5835],[-164,-85]],[[2975,5713],[-24,-6],[-72,45]],[[2879,5752],[16,101],[39,28],[-25,87]],[[2909,5968],[84,3],[42,45],[73,33],[16,199],[161,209]],[[3285,6457],[41,-125],[73,-100]],[[2678,5007],[-34,67],[17,54]],[[2661,5128],[93,28]],[[2879,5752],[-53,-15],[-74,35],[-10,33]],[[2742,5805],[-2,28]],[[2740,5833],[79,140],[90,-5]],[[2838,4555],[-45,-30],[-32,-47],[-70,2]],[[2789,5534],[39,-34]],[[2911,5200],[-41,-72],[-44,40]],[[2778,5188],[3,62],[-22,17],[-106,25],[-24,40]],[[2285,5987],[38,115],[65,261]],[[2520,6346],[-21,-90],[41,8],[47,-43],[43,-87],[-10,-97],[-38,-15],[75,-134],[-5,-15]],[[2652,5873],[-73,-18],[-56,16],[-5,-62],[-70,-22]],[[3163,6786],[-120,-23],[-116,77],[-129,-1],[-96,-66]],[[2305,6532],[-56,59],[-1,55],[128,69],[-1,134],[50,121],[178,283],[-1,94]],[[2540,5275],[-107,-74]],[[2660,4447],[-65,-45],[-34,-1]],[[2561,4401],[-113,-50]],[[2448,4351],[-9,20]],[[2355,5083],[81,-66]],[[2129,5035],[-41,54],[1,35],[59,27],[20,43]],[[2135,4661],[-120,55]],[[2015,4716],[83,217]],[[2553,5273],[15,-83],[93,-62]],[[2351,3243],[-64,93]],[[2287,3336],[-16,33]],[[2271,3369],[80,-18],[18,-78]],[[2369,3273],[-18,-30]],[[2329,3916],[-40,29],[-50,-25]],[[2239,3920],[-73,-21]],[[2166,3899],[-14,8]],[[2152,3907],[-46,58]],[[2106,3965],[11,10],[-3,109],[27,53]],[[2141,4137],[36,44]],[[2177,4181],[189,43]],[[2366,4224],[42,-45],[62,31],[32,-95],[-37,-73]],[[2465,4042],[-52,-38],[12,-37],[-66,-47],[-30,-4]],[[2035,3234],[-15,80]],[[2020,3314],[23,20],[96,15]],[[2139,3349],[37,-80]],[[2176,3269],[-30,-52]],[[2146,3217],[-111,17]],[[3237,5835],[37,-71],[65,9],[28,-29]],[[3367,5744],[-9,-97],[-210,-121]],[[1605,3346],[-94,-70]],[[1511,3276],[2,38],[-37,16],[-16,41]],[[1460,3371],[-35,74],[31,47],[-14,28]],[[1442,3520],[30,-14],[94,-85],[39,-75]],[[2198,3621],[61,-95]],[[2259,3526],[-3,-7]],[[2256,3519],[-117,-73]],[[2139,3446],[26,52],[6,102],[27,21]],[[1895,3630],[-9,-6]],[[1886,3624],[-111,24],[-24,46],[29,39],[-26,30]],[[1754,3763],[55,42]],[[1809,3805],[37,-1]],[[1846,3804],[11,-65],[38,-109]],[[2261,2872],[19,94],[-18,164]],[[2262,3130],[87,60]],[[2349,3190],[100,4]],[[2449,3194],[61,-17],[80,7]],[[2590,3184],[126,-7]],[[2716,3177],[-84,-55],[-67,5],[-72,-54],[-32,-77],[-104,-92]],[[2357,2904],[-53,-17]],[[2304,2887],[-43,-15]],[[2915,3190],[-126,22]],[[2789,3212],[-4,35]],[[2785,3247],[31,15],[-7,56],[104,-34]],[[2913,3284],[56,-33],[-9,-67]],[[2379,3713],[-38,50]],[[2341,3763],[67,81]],[[2408,3844],[24,-40],[54,-38]],[[2486,3766],[-107,-53]],[[1809,3805],[-31,104],[-85,-60],[29,-70]],[[1722,3779],[-60,53],[-42,-32],[-23,42],[-39,-16],[-47,82]],[[1511,3908],[181,219]],[[1692,4127],[90,-112],[52,-8]],[[1834,4007],[-64,-59],[35,-20],[83,29],[29,-46]],[[1917,3911],[2,-32]],[[1919,3879],[-47,7],[-38,-39],[12,-43]],[[2590,3184],[-14,82]],[[2576,3266],[60,43],[17,-84],[51,0],[81,22]],[[2789,3212],[-73,-35]],[[1511,3276],[23,1],[41,-70],[-46,-52],[-5,-53]],[[1524,3102],[-34,3],[-44,42],[-41,0],[-101,44],[-43,63]],[[1261,3254],[74,15],[59,32],[23,54],[43,16]],[[2351,3243],[-4,-45]],[[2347,3198],[-57,6],[-64,40]],[[2226,3244],[8,28],[73,25],[-20,39]],[[3378,5754],[-11,-10]],[[2179,4534],[-52,46]],[[2127,4580],[36,67]],[[1951,4189],[-50,23],[-89,87]],[[1812,4299],[54,98]],[[1866,4397],[84,-54],[42,26]],[[1992,4369],[-1,-47]],[[1991,4322],[-32,-63],[6,-51]],[[1965,4208],[-14,-19]],[[2256,3519],[44,-55],[-115,-29]],[[2185,3435],[-46,11]],[[1965,4208],[84,65]],[[2049,4273],[36,-5]],[[2085,4268],[-6,-63],[16,-41]],[[2095,4164],[-88,-85]],[[2007,4079],[-15,25]],[[1992,4104],[2,66],[-39,-12]],[[1955,4158],[-4,31]],[[2141,4137],[-46,27]],[[2085,4268],[34,-6]],[[2119,4262],[58,-81]],[[2146,4387],[-50,40],[-19,58]],[[2077,4485],[50,95]],[[1653,3442],[-49,32],[-45,53],[11,23]],[[1570,3550],[36,4]],[[1606,3554],[36,-48],[54,-16]],[[1696,3490],[-43,-48]],[[2561,4401],[33,-74],[52,-65],[83,-55]],[[2729,4207],[-32,-17],[2,-51],[-72,17],[-39,-18],[-31,-49]],[[2557,4089],[-92,-47]],[[2366,4224],[13,73],[69,54]],[[2077,4485],[-82,-89],[-3,-27]],[[1866,4397],[78,154],[71,165]],[[1991,4322],[48,10],[10,-59]],[[2631,3683],[-30,41],[68,18],[-17,35],[-76,-11],[-8,25]],[[2568,3791],[53,82],[67,41]],[[2369,3273],[42,-23],[61,0]],[[2472,3250],[-23,-56]],[[2349,3190],[-2,8]],[[2226,3244],[-50,25]],[[2139,3349],[34,12],[12,74]],[[2185,3435],[74,-40]],[[2259,3395],[12,-26]],[[2020,3314],[-108,30],[-40,0],[-19,-90]],[[1853,3254],[-53,22],[-30,44],[-119,1],[-46,25]],[[1442,3520],[-64,14],[-65,-8],[-168,-67]],[[1145,3459],[-55,32],[21,201],[138,43],[133,3]],[[1382,3738],[38,-18],[26,-51],[75,-46],[3,-33],[46,-40]],[[1653,3442],[97,-33],[81,15]],[[1831,3424],[74,5],[6,65],[-49,68],[-16,53]],[[1846,3615],[40,9]],[[1895,3630],[34,24]],[[1929,3654],[33,-40],[38,53],[45,-40],[45,-11],[46,28]],[[2136,3644],[46,0],[7,50],[35,-5],[-26,-68]],[[1754,3763],[-28,8]],[[1726,3771],[-4,8]],[[1831,3424],[-14,106],[-21,50]],[[1796,3580],[50,35]],[[2472,3250],[104,16]],[[2035,3234],[-53,-12],[-45,17]],[[1937,3239],[-84,15]],[[1261,3254],[-8,49],[-137,-3]],[[1116,3300],[29,159]],[[1696,3490],[52,64],[48,26]],[[1992,4104],[-63,-77],[-46,31]],[[1883,4058],[72,100]],[[2329,3916],[30,-60],[49,-12]],[[2341,3763],[-73,6],[-58,60],[28,31],[1,60]],[[1692,4127],[120,172]],[[1883,4058],[-49,-51]],[[2696,3930],[-80,17],[-2,97],[-57,45]],[[2729,4207],[30,0]],[[2759,4207],[59,-102],[45,-15]],[[2152,3907],[-89,-87],[-50,-1]],[[2013,3819],[-45,52],[-49,8]],[[1917,3911],[123,82]],[[2040,3993],[66,-28]],[[2040,3993],[-33,86]],[[2262,3130],[-71,22],[-45,65]],[[1081,2075],[48,-74]],[[1129,2001],[-67,-132]],[[1062,1869],[-200,-66],[-57,109],[-64,7]],[[741,1919],[-3,49],[-69,104],[36,71],[-23,37]],[[682,2180],[3,60]],[[685,2240],[117,-14],[64,-43],[53,6],[123,-18]],[[1042,2171],[-9,-29],[48,-67]],[[685,2240],[68,30],[-54,54]],[[699,2324],[84,68],[54,-32],[70,31],[63,-33],[44,24],[45,-10],[26,-32]],[[1085,2340],[58,-22],[-11,-66],[-68,-43],[-22,-38]],[[3945,3212],[-69,-2],[-32,-34],[-62,38],[-37,-5],[-28,-47],[-65,1],[-22,29]],[[3605,3240],[25,43]],[[3714,3394],[70,1],[46,16]],[[1129,2001],[97,-6],[49,-90],[115,3],[-21,-72],[66,11],[113,50],[25,-77],[27,-35]],[[1600,1785],[-122,-170],[-164,-125],[-15,-19],[-97,-8]],[[1202,1463],[-40,22],[-6,154],[-44,22],[14,73],[-8,96],[-56,39]],[[1085,2340],[40,47]],[[1125,2387],[90,-40]],[[1215,2347],[-15,-99],[5,-138],[-28,-27],[-40,20],[-56,-28]],[[682,2180],[-63,-37],[-66,33],[-72,-5]],[[481,2171],[-20,82],[25,75],[40,10],[78,-47],[38,46],[27,1]],[[669,2338],[30,-14]],[[1215,2347],[93,-35],[-12,-50],[89,-10],[38,-80],[166,28]],[[1589,2200],[60,-147]],[[1649,2053],[18,-43],[-21,-26],[9,-98],[15,-23]],[[1670,1863],[-103,-6],[33,-72]],[[1202,1463],[-81,-78],[-125,-46],[4,68],[-50,-36],[-59,-6],[-58,15],[-4,95],[11,30],[-69,40],[-106,20]],[[665,1565],[22,38],[10,81],[-80,12],[-38,65],[26,28],[60,4],[-4,135]],[[661,1928],[80,-9]],[[1125,2387],[-42,15],[-20,153]],[[1063,2555],[41,22],[114,-25],[70,17],[47,36],[18,45],[52,54],[125,-55],[11,64]],[[1541,2713],[69,-41]],[[1610,2672],[-8,-38],[-67,-44],[-15,-50],[9,-41],[59,-80],[11,-36]],[[1599,2383],[-30,-123],[20,-60]],[[481,2171],[-36,-3],[-70,-47],[-51,90],[-72,54],[-38,53],[4,41],[83,61],[6,33]],[[307,2453],[146,93],[70,136]],[[523,2682],[237,0],[-71,-154]],[[689,2528],[-32,8],[-102,-17],[40,-82],[73,-58],[1,-41]],[[661,1928],[-304,34],[-116,-51],[-44,-2],[-102,-55]],[[95,1854],[-18,17],[-77,163],[137,475],[112,71],[58,-127]],[[2952,4568],[-24,-152],[-47,-15],[-24,-80],[-27,-4],[-38,-94],[-33,-16]],[[4360,7528],[38,41],[37,-36]],[[4435,7533],[74,-73],[30,-5],[23,-67],[47,5],[63,33]],[[4242,1737],[-60,168],[-55,64],[-17,83]],[[4110,2052],[42,-2]],[[4152,2050],[65,-13],[55,-64],[76,-39],[38,-69],[4,-68],[24,-4]],[[4414,1793],[-52,-17]],[[4362,1776],[-120,-39]],[[2642,2176],[86,-8],[87,-63],[59,12],[59,-8]],[[2933,2109],[-10,-43],[-72,-65],[-59,-78],[-73,61],[-167,-22],[-35,28],[30,42],[72,-31],[-8,79],[31,96]],[[1599,2383],[27,61],[114,-58]],[[1740,2386],[18,-61],[40,-39],[0,-53],[36,-36],[-19,-34],[9,-59]],[[1824,2104],[-96,10],[-48,-61],[-31,0]],[[3588,2190],[-60,32],[-11,62],[13,83]],[[3530,2367],[81,10]],[[3611,2377],[34,-42]],[[3645,2335],[41,-66],[-9,-54]],[[3677,2215],[-55,-28],[-34,3]],[[4037,2479],[-15,71],[-28,51]],[[3994,2601],[66,17],[148,-19]],[[4208,2599],[14,-86]],[[4222,2513],[-102,-29],[-83,-5]],[[3530,2367],[-55,19],[-29,-16],[-60,21]],[[3386,2391],[-47,79],[4,33],[52,43],[-17,23]],[[3378,2569],[84,66]],[[3462,2635],[42,-43],[19,-58],[47,6]],[[3570,2540],[33,-91],[8,-72]],[[2388,2367],[-1,69],[-20,92],[-31,16],[2,90]],[[2338,2634],[58,11]],[[2396,2645],[66,15],[53,-42],[34,24]],[[2549,2642],[53,-17],[42,-43],[0,-93],[37,-20]],[[2681,2469],[-2,-65]],[[2679,2404],[-56,-21],[-144,-104],[22,-39]],[[2501,2240],[-44,-50]],[[2457,2190],[16,77],[-8,62],[-60,53],[-17,-15]],[[4152,2050],[20,17],[-22,71],[8,51]],[[4158,2189],[90,10],[136,47]],[[4384,2246],[38,-172]],[[4422,2074],[97,-185]],[[4519,1889],[-105,-96]],[[6294,7036],[6,2]],[[6300,7038],[38,15],[73,-2]],[[6411,7051],[23,-40],[-47,-89]],[[2923,2555],[-98,10]],[[2825,2565],[-62,12]],[[2763,2577],[-3,42],[39,64],[-13,66]],[[2786,2749],[14,11]],[[2800,2760],[33,-13],[9,-62],[51,9]],[[2893,2694],[30,-139]],[[3369,1694],[38,51],[-18,79],[24,78],[37,5],[-6,47],[-44,-6],[-76,72]],[[3324,2020],[19,51],[133,54],[75,5]],[[3551,2130],[-21,-81]],[[3530,2049],[-30,-38],[-35,-5],[7,-53],[53,8],[60,-96]],[[3585,1865],[-70,-51],[-11,-46],[-44,-62],[-91,-12]],[[3677,2215],[119,9]],[[3796,2224],[-4,-82],[53,-64],[15,-40]],[[3860,2038],[-40,-20],[1,-69]],[[3821,1949],[-36,-14]],[[3785,1935],[-13,13],[-121,-5]],[[3651,1943],[-4,85],[-117,21]],[[3551,2130],[37,15],[0,45]],[[2388,2367],[-60,-58],[-36,-3]],[[2292,2306],[-24,83],[-56,26]],[[2212,2415],[8,88],[30,52],[-22,52]],[[2228,2607],[58,1],[52,26]],[[2786,2749],[-143,20]],[[2643,2769],[-32,94],[23,4]],[[2634,2867],[62,22],[78,0]],[[2774,2889],[26,-129]],[[2681,2469],[85,57],[-3,51]],[[2825,2565],[43,-42],[-15,-95],[-23,-17],[43,-58]],[[2873,2353],[-23,-43]],[[2850,2310],[-10,-21],[-78,-26],[-78,84],[-5,57]],[[2873,2353],[77,-4],[17,-28],[52,25],[85,5]],[[3104,2351],[-37,-84],[-63,-72],[-3,-48]],[[3001,2147],[-29,48],[-29,-35]],[[2943,2160],[-49,23],[8,87],[-52,40]],[[4110,2052],[-37,55],[-27,-3]],[[4046,2104],[-73,-23],[-51,34]],[[3922,2115],[-14,117]],[[3908,2232],[57,29],[43,-43],[37,37],[48,1]],[[4093,2256],[65,-67]],[[3524,2995],[147,29],[42,-117],[19,9]],[[3732,2916],[31,-68],[-61,-55]],[[3702,2793],[-49,41],[-106,-13],[-1,-27],[-47,-72],[-35,19]],[[3464,2741],[-34,-9],[-19,45],[-71,3],[-36,20]],[[3304,2800],[37,13],[-30,48],[2,41],[-42,51]],[[3304,2800],[-5,-48],[-97,-15],[-21,-42],[10,-46]],[[3191,2649],[-93,-10]],[[3098,2639],[-8,122]],[[3090,2761],[-7,121],[-27,14]],[[3056,2896],[79,46]],[[3104,2351],[35,-27]],[[3139,2324],[70,-59],[33,-10],[59,29]],[[3301,2284],[7,-55],[-13,-77],[-19,-21],[-32,-106]],[[3244,2025],[-153,-4]],[[3091,2021],[-40,127],[-50,-1]],[[2893,2694],[8,65],[100,-44],[18,29],[71,17]],[[3098,2639],[-22,-74],[-87,-16],[-66,6]],[[3796,2224],[60,47],[-27,37]],[[3829,2308],[29,38]],[[3858,2346],[17,-85],[33,-29]],[[3922,2115],[-62,-77]],[[3324,2020],[-49,24],[-31,-19]],[[3301,2284],[34,26],[51,81]],[[3139,2324],[20,35],[-8,61],[18,44],[109,114]],[[3278,2578],[77,28],[23,-37]],[[2549,2642],[-11,80],[105,47]],[[4140,3054],[-35,-48]],[[4105,3006],[-73,16],[-124,-58],[7,-40]],[[3915,2924],[-80,27],[-103,-35]],[[2292,2306],[-38,-49],[-104,-67],[-14,-36]],[[2136,2154],[-17,27],[-88,-15]],[[2031,2166],[26,117],[21,4],[15,73],[-42,7],[3,41]],[[2054,2408],[16,30],[47,-9],[-6,-49],[101,35]],[[3462,2635],[2,106]],[[3702,2793],[-21,-70],[-37,-31]],[[3644,2692],[-89,-35],[40,-108],[-25,-9]],[[4242,1737],[-169,-55]],[[4073,1682],[-30,115]],[[4043,1797],[-28,106],[1,99]],[[4016,2002],[30,102]],[[3645,2335],[109,23],[22,-61],[53,11]],[[1610,2672],[56,-10],[99,30],[50,27]],[[1815,2719],[107,-97],[24,-39]],[[1946,2583],[-19,-17],[8,-75],[22,-52]],[[1957,2439],[-5,-31],[-113,-44],[-99,22]],[[3191,2649],[54,0],[33,-71]],[[3634,1524],[-51,69],[11,70],[52,65],[-2,132]],[[3644,1860],[24,-27],[136,37]],[[3804,1870],[19,-34],[-58,-34],[-34,-64],[30,-58],[-11,-43]],[[3750,1637],[-34,-46],[-40,-8],[-42,-59]],[[3651,1943],[-10,-58]],[[3641,1885],[-56,-20]],[[3785,1935],[19,-65]],[[3644,1860],[-3,25]],[[2774,2889],[66,9],[88,-29],[90,0],[38,27]],[[1824,2104],[42,-16]],[[1866,2088],[1,-129],[69,-99],[-17,-29],[-64,-32],[-75,9],[-12,60],[-98,-5]],[[2457,2190],[-71,-101],[-46,-22],[6,-53],[-68,-2],[-96,21],[-68,-29],[-9,79],[31,71]],[[4658,522],[11,25]],[[4669,547],[128,-51],[-22,-35]],[[4775,461],[-64,-16],[-20,-86],[-24,-4]],[[4667,355],[-41,118],[32,49]],[[4246,529],[26,59]],[[4272,588],[41,20],[49,-15]],[[4362,593],[29,-18],[-27,-73],[-68,-16]],[[4296,486],[-33,-3],[-17,46]],[[4648,1513],[6,21]],[[4654,1534],[28,3],[35,57],[66,35]],[[4783,1629],[69,-59]],[[4852,1570],[-89,-105]],[[4763,1465],[-36,30],[-44,-20],[-35,38]],[[4929,2242],[-48,49]],[[4881,2291],[-37,37],[-15,44],[-55,2],[-54,34]],[[4720,2408],[-16,77],[-24,41],[-5,64],[-78,72]],[[4597,2662],[67,55],[28,42]],[[4692,2759],[97,-49],[37,-39],[-31,-122],[52,-39],[61,-78],[34,-84],[40,-33],[23,-59]],[[5005,2256],[-76,-14]],[[4658,522],[-121,2],[-23,29]],[[4514,553],[65,77],[69,-15]],[[4648,615],[21,-68]],[[4597,2662],[-21,31],[0,69],[-16,95],[-61,25]],[[4499,2882],[32,72]],[[4531,2954],[26,19]],[[4557,2973],[3,-30],[67,1],[88,-64],[-33,-24],[10,-97]],[[4667,355],[-29,-38],[30,-41]],[[4668,276],[10,-76]],[[4678,200],[-33,57],[-60,67]],[[4585,324],[-79,133]],[[4506,457],[-49,46],[57,50]],[[4775,461],[-8,-46],[22,-54],[-24,-77],[-68,12],[-29,-20]],[[4110,176],[-65,42],[-21,40],[-4,78],[20,30],[106,103]],[[4146,469],[32,-101],[51,-25]],[[4229,343],[-10,-33]],[[4219,310],[-23,-101],[-86,-33]],[[4296,486],[-3,-85]],[[4293,401],[-39,-6],[-25,-52]],[[4146,469],[54,104]],[[4200,573],[46,-44]],[[4454,3062],[38,-76],[39,-32]],[[4499,2882],[-55,24],[-14,73],[-26,23]],[[4362,1776],[-14,-26],[35,-52],[44,-12]],[[4427,1686],[-29,-17],[-47,-107],[34,-91],[-106,-21]],[[4279,1450],[-23,38],[-56,40],[-22,49],[-44,11],[-57,-20],[-53,40]],[[4024,1608],[49,74]],[[4763,1465],[-8,-65],[8,-113]],[[4763,1287],[-16,-52],[-59,-13],[-74,25],[-53,-31]],[[4561,1216],[-59,37],[11,46],[41,43]],[[4554,1342],[88,100],[6,71]],[[4678,200],[-34,-51],[-35,25]],[[4609,174],[-41,55],[-8,53]],[[4560,282],[25,42]],[[4200,573],[-15,105],[50,58],[12,62]],[[4247,798],[25,-210]],[[4527,17],[11,100],[59,38]],[[4597,155],[52,-64],[36,-23],[-11,-59],[-65,-5],[-39,29],[-43,-16]],[[4783,1629],[53,73],[14,64],[-79,104],[-8,52]],[[4763,1922],[8,73],[99,-12],[40,20],[-6,54],[41,74],[-20,63],[4,48]],[[5005,2256],[18,-98],[-32,-225],[36,-116],[-98,-93],[-77,-154]],[[4384,2246],[-25,185]],[[4359,2431],[91,-18],[27,-25],[49,5],[119,50],[75,-35]],[[4881,2291],[-33,-27],[-27,24],[-69,16],[13,-85],[-75,-46],[-63,-14],[-70,-35],[-135,-50]],[[4560,282],[-115,3]],[[4445,285],[-46,106]],[[4399,391],[44,4],[63,62]],[[4279,1450],[-17,-50],[-43,-13],[-20,-80]],[[4199,1307],[-65,-22],[-86,8],[-9,38],[-149,70]],[[3890,1401],[91,25],[12,132],[31,50]],[[4293,401],[106,-10]],[[4445,285],[-50,-39]],[[4395,246],[-67,-6],[-34,49],[-75,21]],[[4763,1922],[-93,-40],[-105,-13],[-46,20]],[[5437,3293],[-22,30],[-73,-36],[-36,-58],[-34,-2],[-36,52],[-71,-5],[-12,56]],[[5153,3330],[44,4],[-1,59],[-31,53],[-1,96]],[[5354,3643],[54,-9],[35,26]],[[5443,3660],[103,-37]],[[2154,4377],[-35,-115]],[[5443,3660],[14,29],[-23,100]],[[5434,3789],[30,34],[65,28],[37,-51],[56,15],[59,64],[1,40],[91,-6],[5,-34],[45,-22]],[[5823,3857],[-1,-13]],[[2697,5617],[-18,66],[23,89],[40,33]],[[2166,3899],[-30,-255]],[[1929,3654],[53,77],[-2,60],[33,28]],[[4554,1342],[-45,7],[-53,37],[-26,-15],[-10,-60],[-82,-72]],[[4338,1239],[-84,-46],[-1,81],[-54,33]],[[4427,1686],[51,-10],[81,-39],[93,-67],[2,-36]],[[4561,1216],[-72,-77]],[[4489,1139],[-72,6],[-36,-78],[-30,-28]],[[4351,1039],[-41,56],[54,39],[25,39],[-51,66]],[[4222,2513],[48,13],[24,-58],[65,-37]],[[4093,2256],[-3,60],[-26,38],[-25,87]],[[4039,2441],[-2,38]],[[2054,2408],[-74,8],[-23,23]],[[1946,2583],[74,7],[66,-35],[99,66],[43,-14]],[[3821,1949],[60,4],[61,35],[74,14]],[[4043,1797],[-26,-21],[-15,-57],[-44,12],[-68,-33],[-87,-76]],[[3803,1622],[-53,15]],[[3858,2346],[-25,60],[88,14],[74,-22],[44,43]],[[3244,2025],[17,-120],[-22,-37],[21,-164]],[[3260,1704],[-65,-37],[-49,16],[-4,94],[-105,138],[54,106]],[[4763,1287],[46,-39],[113,74],[27,-24],[-72,-39],[41,-62],[-122,-52],[-28,-48],[-68,-67]],[[4700,1030],[-40,60],[-149,-9],[-22,58]],[[2031,2166],[-76,-26],[-89,-52]],[[1063,2555],[-79,-42],[-51,36],[-83,2],[-115,-26],[-46,3]],[[523,2682],[127,248],[152,143]],[[802,3073],[91,-47],[36,-37],[67,-12],[33,46],[60,27],[59,-30],[67,-14],[38,-86],[22,-107],[179,-27],[87,-73]],[[6249,6688],[-168,-46],[-85,-45],[-105,-24],[-6,-52],[21,-175]],[[5868,6314],[-48,22],[-34,101],[-139,30],[-42,81]],[[5725,6785],[19,60],[42,35],[11,64],[45,-42],[87,49],[46,39]],[[5975,6990],[65,-71]],[[6406,6466],[33,-9],[-53,-128]],[[5036,5937],[36,50],[80,24],[-9,37],[28,49],[53,11],[35,-47],[57,-17],[91,25]],[[3113,4261],[-118,-41],[-17,174],[36,33],[-42,119],[54,16]],[[5522,7295],[41,-97],[3,-95],[-101,-35],[17,-69],[40,-76],[-14,-77]],[[5478,6724],[-129,-60]],[[5180,6988],[51,-21],[66,187],[40,81],[55,26],[44,43]],[[5839,5175],[35,-24]],[[5273,6475],[29,-19],[-45,-63],[104,-36],[20,-37],[-1,-59],[35,-1],[49,-39],[-35,-64],[-7,-44]],[[4935,6031],[50,61],[-123,150],[-18,31]],[[4717,3340],[-50,30],[-47,-25],[-21,-46],[-37,-3],[-61,55],[-59,-28]],[[4391,3410],[59,38],[12,81]],[[3890,1401],[-19,70],[5,53],[-73,98]],[[4843,5717],[-58,-14],[-53,-39],[-65,-21]],[[4285,6130],[42,33]],[[2304,2887],[37,-98],[52,4],[22,-43],[-43,-21],[24,-84]],[[1815,2719],[31,62],[76,77]],[[1922,2858],[132,-49],[73,5],[80,26],[54,32]],[[4700,1030],[-46,-17],[-68,-90],[-2,-42],[-53,-35],[-43,95],[-37,-41],[-43,-4],[18,-59]],[[4426,837],[-42,-8],[-7,51],[-37,3],[-6,75],[-42,-37]],[[4292,921],[-6,83],[65,35]],[[665,1565],[-62,42],[-30,-6],[-86,49],[-130,-52],[21,-122],[-136,-14],[-71,46],[-33,49],[-17,87],[-34,37],[46,57],[-38,116]],[[2357,2904],[39,-9],[60,44],[53,69],[110,-18],[41,6],[-9,-90],[-17,-39]],[[3915,2924],[34,-69],[0,-35],[-47,-56],[-19,-44],[14,-35]],[[3897,2685],[-79,-63],[-47,-11],[-50,47],[-77,34]],[[2642,2176],[-43,39],[-74,33],[-24,-8]],[[2943,2160],[-10,-51]],[[3634,1524],[-123,40],[-17,-38],[-69,-4],[-121,20],[26,111]],[[3330,1653],[39,41]],[[3330,1653],[-70,51]],[[4609,174],[-12,-19]],[[4527,17],[-25,-17],[-54,15],[-6,41],[-58,-37],[-13,23]],[[4371,42],[-45,119],[35,7],[42,47],[-8,31]],[[5835,7069],[73,-5],[67,-74]],[[4132,3406],[-1,45],[-79,64],[10,69]],[[5917,4569],[18,-92],[-50,1],[-21,-79],[1,-59]],[[5749,4244],[-67,-3],[-27,28],[-61,-16],[-71,12],[-37,-11]],[[5355,4447],[23,28],[95,69],[56,25],[63,1]],[[6269,5027],[52,87],[29,-1],[29,-108],[43,-79],[39,-10],[24,-79]],[[6085,4549],[21,26],[-87,85]],[[1726,3771],[-77,-59],[65,-47],[-68,-59],[-51,-21],[11,-31]],[[1382,3738],[129,170]],[[5948,4079],[-17,-101],[-27,-31],[-70,-14],[-11,-76]],[[5434,3789],[-39,17],[-68,169],[41,39]],[[4247,798],[-26,44],[25,83],[46,-4]],[[4426,837],[3,-42],[46,-47],[-15,-81]],[[4460,667],[-40,-36],[-37,15],[-21,-53]],[[4435,7533],[42,33],[-18,42],[116,63],[21,-48],[78,6],[4,47],[87,0],[-4,-84],[-30,-17],[-18,-141]],[[2379,3713],[-34,-50],[-65,-29],[25,-45],[-46,-63]],[[6300,7038],[-25,144],[-66,39],[8,70],[21,51],[-31,90]],[[6207,7432],[30,-18],[41,59],[78,31],[42,-41],[32,20],[46,-52],[29,36],[51,25],[35,74],[-58,66],[2,61]],[[6535,7693],[148,5],[43,-310],[9,-90],[-49,-128]],[[6686,7170],[-26,-21],[-59,19],[-59,-31],[-42,0],[-89,-86]],[[3728,7145],[35,-14],[67,18],[39,-45],[73,-21],[71,-5]],[[4243,6848],[-27,-1],[-32,-49],[-6,-44],[27,-23],[-106,-80],[3,-143],[-80,9],[-5,-41],[-78,-21],[-51,96],[-85,-56],[-67,-79],[43,-66],[-42,-34],[-77,18],[15,-74],[-178,-161]],[[3285,6457],[-79,243],[-8,11]],[[2568,3791],[-82,-25]],[[4371,42],[-65,-28],[-52,80],[-56,-42],[-10,-35],[-69,-5],[-28,18],[27,48],[-8,98]],[[2740,5833],[-88,40]],[[1524,3102],[36,-18]],[[1560,3084],[62,-82],[32,-60],[79,-60],[76,-22],[113,-2]],[[802,3073],[150,140],[159,64],[5,23]],[[1937,3239],[-61,-18],[-48,-42],[-25,6],[-148,-43],[-38,-58],[-57,0]],[[2704,3540],[-72,6],[-44,-48],[-80,-27],[-83,-57],[-82,-19],[-84,0]],[[4747,3323],[-14,-39],[-105,-64],[-54,18],[-30,-38],[57,-79],[20,-94],[-64,-54]],[[3897,2685],[55,-66],[42,-18]],[[4125,7805],[34,-136],[47,-26],[-24,-56]],[[6686,7170],[-18,-49],[7,-50],[34,-25],[-6,-96],[24,-210],[-54,-207],[-133,-231],[-30,-42],[10,-35]],[[5968,7552],[72,43],[54,-22],[72,24],[38,-57],[3,-108]],[[4460,667],[100,40],[22,-27],[101,12],[-35,-77]],[[5153,3330],[-145,0],[-51,39],[10,32],[-40,28]],[[2913,3284],[48,19]],[[2961,3303],[45,-4],[3,46],[45,8],[18,40],[37,-3],[51,111]],[[2961,3303],[0,69],[-53,-26],[-2,87],[-67,40],[-14,54],[-37,51]],[[5513,7476],[-7,113],[-38,64],[-88,34],[-51,-27],[-58,7],[-86,-10],[-53,69]],[[5132,7726],[-57,21],[-40,-11],[-20,38],[-70,22],[-19,74],[46,70]],[[5245,8317],[131,79],[317,-5],[42,36],[50,-45],[265,-202],[65,-74],[93,-28]],[[6208,8078],[-36,-154],[-31,0],[-50,44],[-88,-57],[-24,22],[-141,-143],[-56,12],[-66,-18],[-52,-41],[41,-98],[59,-17]],[[5037,7473],[37,93],[43,45],[15,115]],[[4646,8177],[78,-1]],[[6208,8078],[35,-63],[34,-132],[72,-135],[3,-51],[41,-22],[73,-1],[69,19]],[[4208,2599],[-28,164],[-59,101],[17,43],[-33,99]]],"transform":{"scale":[0.0005805021567928708,0.00033523990862703064],"translate":[3.3079403360000583,50.751356369000064]},"objects":{"NLD":{"type":"GeometryCollection","geometries":[{"arcs":[[0,1,2,3,4,5]],"type":"Polygon","properties":{"name":"Groningen","shapeGroup":"NLD","gid":"NLD-2-0"},"id":"NLD-2-0"},{"arcs":[[6,7,8,9,10,11,12,13]],"type":"Polygon","properties":{"name":"Almere","shapeGroup":"NLD","gid":"NLD-2-1"},"id":"NLD-2-1"},{"arcs":[[14,15,16,17,18]],"type":"Polygon","properties":{"name":"Stadskanaal","shapeGroup":"NLD","gid":"NLD-2-2"},"id":"NLD-2-2"},{"arcs":[[-17,19,20,21]],"type":"Polygon","properties":{"name":"Veendam","shapeGroup":"NLD","gid":"NLD-2-3"},"id":"NLD-2-3"},{"arcs":[[-14,22,23,24,25,26,27,28,29,30]],"type":"Polygon","properties":{"name":"Zeewolde","shapeGroup":"NLD","gid":"NLD-2-4"},"id":"NLD-2-4"},{"arcs":[[31,32,33,34,35]],"type":"Polygon","properties":{"name":"Achtkarspelen","shapeGroup":"NLD","gid":"NLD-2-5"},"id":"NLD-2-5"},{"arcs":[[36,37,38,39]],"type":"Polygon","properties":{"name":"Ameland","shapeGroup":"NLD","gid":"NLD-2-6"},"id":"NLD-2-6"},{"arcs":[[40,41,42,43,44,45]],"type":"Polygon","properties":{"name":"Harlingen","shapeGroup":"NLD","gid":"NLD-2-7"},"id":"NLD-2-7"},{"arcs":[[46,47,48,49,50,51]],"type":"Polygon","properties":{"name":"Heerenveen","shapeGroup":"NLD","gid":"NLD-2-8"},"id":"NLD-2-8"},{"arcs":[[-48,52,53,54,55,56,57]],"type":"Polygon","properties":{"name":"Leeuwarden","shapeGroup":"NLD","gid":"NLD-2-9"},"id":"NLD-2-9"},{"arcs":[[-51,58,59,60,61,62]],"type":"Polygon","properties":{"name":"Ooststellingwerf","shapeGroup":"NLD","gid":"NLD-2-10"},"id":"NLD-2-10"},{"arcs":[[-50,63,64,65,-59]],"type":"Polygon","properties":{"name":"Opsterland","shapeGroup":"NLD","gid":"NLD-2-11"},"id":"NLD-2-11"},{"arcs":[[66,67,68]],"type":"Polygon","properties":{"name":"Schiermonnikoog","shapeGroup":"NLD","gid":"NLD-2-12"},"id":"NLD-2-12"},{"arcs":[[-36,69,-64,-49,-58,70]],"type":"Polygon","properties":{"name":"Smallingerland","shapeGroup":"NLD","gid":"NLD-2-13"},"id":"NLD-2-13"},{"arcs":[[-38,71,-44,72,73]],"type":"Polygon","properties":{"name":"Terschelling","shapeGroup":"NLD","gid":"NLD-2-14"},"id":"NLD-2-14"},{"arcs":[[-43,74,75,-73]],"type":"Polygon","properties":{"name":"Vlieland","shapeGroup":"NLD","gid":"NLD-2-15"},"id":"NLD-2-15"},{"arcs":[[-52,-63,76,77,78]],"type":"Polygon","properties":{"name":"Weststellingwerf","shapeGroup":"NLD","gid":"NLD-2-16"},"id":"NLD-2-16"},{"arcs":[[79,80,81,82]],"type":"Polygon","properties":{"name":"Assen","shapeGroup":"NLD","gid":"NLD-2-17"},"id":"NLD-2-17"},{"arcs":[[83,84,85,86,87,88,89]],"type":"Polygon","properties":{"name":"Coevorden","shapeGroup":"NLD","gid":"NLD-2-18"},"id":"NLD-2-18"},{"arcs":[[-88,90,91,92]],"type":"Polygon","properties":{"name":"Emmen","shapeGroup":"NLD","gid":"NLD-2-19"},"id":"NLD-2-19"},{"arcs":[[-84,93,94,95,96]],"type":"Polygon","properties":{"name":"Hoogeveen","shapeGroup":"NLD","gid":"NLD-2-20"},"id":"NLD-2-20"},{"arcs":[[97,98,99,100]],"type":"Polygon","properties":{"name":"Meppel","shapeGroup":"NLD","gid":"NLD-2-21"},"id":"NLD-2-21"},{"arcs":[[101,102,103,104,105]],"type":"Polygon","properties":{"name":"Almelo","shapeGroup":"NLD","gid":"NLD-2-22"},"id":"NLD-2-22"},{"arcs":[[-105,106,107,108,109]],"type":"Polygon","properties":{"name":"Borne","shapeGroup":"NLD","gid":"NLD-2-23"},"id":"NLD-2-23"},{"arcs":[[110,111,112,113,114]],"type":"Polygon","properties":{"name":"Dalfsen","shapeGroup":"NLD","gid":"NLD-2-24"},"id":"NLD-2-24"},{"arcs":[[115,116,117,118,119]],"type":"Polygon","properties":{"name":"Deventer","shapeGroup":"NLD","gid":"NLD-2-25"},"id":"NLD-2-25"},{"arcs":[[120,121,122,123,124,125]],"type":"Polygon","properties":{"name":"Enschede","shapeGroup":"NLD","gid":"NLD-2-26"},"id":"NLD-2-26"},{"arcs":[[-126,126,127,128,129]],"type":"Polygon","properties":{"name":"Haaksbergen","shapeGroup":"NLD","gid":"NLD-2-27"},"id":"NLD-2-27"},{"arcs":[[-90,130,131,132,-113,133,134,-94]],"type":"Polygon","properties":{"name":"Hardenberg","shapeGroup":"NLD","gid":"NLD-2-28"},"id":"NLD-2-28"},{"arcs":[[135,136,137,138,139]],"type":"Polygon","properties":{"name":"Hellendoorn","shapeGroup":"NLD","gid":"NLD-2-29"},"id":"NLD-2-29"},{"arcs":[[140,141,142,143,144,145]],"type":"Polygon","properties":{"name":"Kampen","shapeGroup":"NLD","gid":"NLD-2-30"},"id":"NLD-2-30"},{"arcs":[[-124,146,147,148]],"type":"Polygon","properties":{"name":"Losser","shapeGroup":"NLD","gid":"NLD-2-31"},"id":"NLD-2-31"},{"arcs":[[-142,149,150,151,152,153]],"type":"Polygon","properties":{"name":"Noordoostpolder","shapeGroup":"NLD","gid":"NLD-2-32"},"id":"NLD-2-32"},{"arcs":[[-123,154,-147]],"type":"Polygon","properties":{"name":"Oldenzaal","shapeGroup":"NLD","gid":"NLD-2-33"},"id":"NLD-2-33"},{"arcs":[[-114,-133,155,-137,156]],"type":"Polygon","properties":{"name":"Ommen","shapeGroup":"NLD","gid":"NLD-2-34"},"id":"NLD-2-34"},{"arcs":[[-115,-157,-136,157,-118,158,159]],"type":"Polygon","properties":{"name":"Raalte","shapeGroup":"NLD","gid":"NLD-2-35"},"id":"NLD-2-35"},{"arcs":[[-98,160,-134,-112,161,162,163]],"type":"Polygon","properties":{"name":"Staphorst","shapeGroup":"NLD","gid":"NLD-2-36"},"id":"NLD-2-36"},{"arcs":[[-104,164,165,166,-107]],"type":"Polygon","properties":{"name":"Tubbergen","shapeGroup":"NLD","gid":"NLD-2-37"},"id":"NLD-2-37"},{"arcs":[[-151,167,168,169]],"type":"Polygon","properties":{"name":"Urk","shapeGroup":"NLD","gid":"NLD-2-38"},"id":"NLD-2-38"},{"arcs":[[-102,170,171,-139,172]],"type":"Polygon","properties":{"name":"Wierden","shapeGroup":"NLD","gid":"NLD-2-39"},"id":"NLD-2-39"},{"arcs":[[-111,-160,173,174,175,-144,176,-162]],"type":"Polygon","properties":{"name":"Zwolle","shapeGroup":"NLD","gid":"NLD-2-40"},"id":"NLD-2-40"},{"arcs":[[177,178,179,180]],"type":"Polygon","properties":{"name":"Aalten","shapeGroup":"NLD","gid":"NLD-2-41"},"id":"NLD-2-41"},{"arcs":[[181,182,183,184,185,186,187,188,189]],"type":"Polygon","properties":{"name":"Apeldoorn","shapeGroup":"NLD","gid":"NLD-2-42"},"id":"NLD-2-42"},{"arcs":[[-183,190,191,192,193,194,195,196]],"type":"Polygon","properties":{"name":"Arnhem","shapeGroup":"NLD","gid":"NLD-2-43"},"id":"NLD-2-43"},{"arcs":[[-185,197,198,199,200,201,202,203,204,205]],"type":"Polygon","properties":{"name":"Barneveld","shapeGroup":"NLD","gid":"NLD-2-44"},"id":"NLD-2-44"},{"arcs":[[206,207,208,209,210]],"type":"Polygon","properties":{"name":"Beuningen","shapeGroup":"NLD","gid":"NLD-2-45"},"id":"NLD-2-45"},{"arcs":[[-190,211,212,213,214,215]],"type":"Polygon","properties":{"name":"Brummen","shapeGroup":"NLD","gid":"NLD-2-46"},"id":"NLD-2-46"},{"arcs":[[216,217,218,219,220,221,222]],"type":"Polygon","properties":{"name":"Buren","shapeGroup":"NLD","gid":"NLD-2-47"},"id":"NLD-2-47"},{"arcs":[[-219,223,224,225,226]],"type":"Polygon","properties":{"name":"Culemborg","shapeGroup":"NLD","gid":"NLD-2-48"},"id":"NLD-2-48"},{"arcs":[[227,228,229]],"type":"Polygon","properties":{"name":"Doesburg","shapeGroup":"NLD","gid":"NLD-2-49"},"id":"NLD-2-49"},{"arcs":[[230,231,232,233]],"type":"Polygon","properties":{"name":"Doetinchem","shapeGroup":"NLD","gid":"NLD-2-50"},"id":"NLD-2-50"},{"arcs":[[-207,234,235,236]],"type":"Polygon","properties":{"name":"Druten","shapeGroup":"NLD","gid":"NLD-2-51"},"id":"NLD-2-51"},{"arcs":[[237,238,239]],"type":"Polygon","properties":{"name":"Duiven","shapeGroup":"NLD","gid":"NLD-2-52"},"id":"NLD-2-52"},{"arcs":[[-184,-197,240,241,242,243,244,-198]],"type":"Polygon","properties":{"name":"Ede","shapeGroup":"NLD","gid":"NLD-2-53"},"id":"NLD-2-53"},{"arcs":[[245,246,247,248]],"type":"Polygon","properties":{"name":"Elburg","shapeGroup":"NLD","gid":"NLD-2-54"},"id":"NLD-2-54"},{"arcs":[[-188,249,-249,250,251,252,253]],"type":"Polygon","properties":{"name":"Epe","shapeGroup":"NLD","gid":"NLD-2-55"},"id":"NLD-2-55"},{"arcs":[[-26,254,255,-186,-206,256]],"type":"Polygon","properties":{"name":"Ermelo","shapeGroup":"NLD","gid":"NLD-2-56"},"id":"NLD-2-56"},{"arcs":[[-25,257,258,-255]],"type":"Polygon","properties":{"name":"Harderwijk","shapeGroup":"NLD","gid":"NLD-2-57"},"id":"NLD-2-57"},{"arcs":[[-145,-176,259,260]],"type":"Polygon","properties":{"name":"Hattem","shapeGroup":"NLD","gid":"NLD-2-58"},"id":"NLD-2-58"},{"arcs":[[-175,261,-252,262,-260]],"type":"Polygon","properties":{"name":"Heerde","shapeGroup":"NLD","gid":"NLD-2-59"},"id":"NLD-2-59"},{"arcs":[[263,264,265,266,267]],"type":"Polygon","properties":{"name":"Heumen","shapeGroup":"NLD","gid":"NLD-2-60"},"id":"NLD-2-60"},{"arcs":[[-120,268,269,270,271,272,273]],"type":"Polygon","properties":{"name":"Lochem","shapeGroup":"NLD","gid":"NLD-2-61"},"id":"NLD-2-61"},{"arcs":[[274,275,276,277,278,279]],"type":"Polygon","properties":{"name":"Maasdriel","shapeGroup":"NLD","gid":"NLD-2-62"},"id":"NLD-2-62"},{"arcs":[[-28,280,-204,281,282]],"type":"Polygon","properties":{"name":"Nijkerk","shapeGroup":"NLD","gid":"NLD-2-63"},"id":"NLD-2-63"},{"arcs":[[-210,283,284,285,-265,286]],"type":"Polygon","properties":{"name":"Nijmegen","shapeGroup":"NLD","gid":"NLD-2-64"},"id":"NLD-2-64"},{"arcs":[[-146,-261,-263,-251,-248,287]],"type":"Polygon","properties":{"name":"Oldebroek","shapeGroup":"NLD","gid":"NLD-2-65"},"id":"NLD-2-65"},{"arcs":[[-27,-257,-205,-281]],"type":"Polygon","properties":{"name":"Putten","shapeGroup":"NLD","gid":"NLD-2-66"},"id":"NLD-2-66"},{"arcs":[[-196,288,289,-241]],"type":"Polygon","properties":{"name":"Renkum","shapeGroup":"NLD","gid":"NLD-2-67"},"id":"NLD-2-67"},{"arcs":[[-192,290,-215,291,-228,292,293]],"type":"Polygon","properties":{"name":"Rheden","shapeGroup":"NLD","gid":"NLD-2-68"},"id":"NLD-2-68"},{"arcs":[[-182,-216,-291,-191]],"type":"Polygon","properties":{"name":"Rozendaal","shapeGroup":"NLD","gid":"NLD-2-69"},"id":"NLD-2-69"},{"arcs":[[-200,294,295]],"type":"Polygon","properties":{"name":"Scherpenzeel","shapeGroup":"NLD","gid":"NLD-2-70"},"id":"NLD-2-70"},{"arcs":[[-217,296,297,298]],"type":"Polygon","properties":{"name":"Tiel","shapeGroup":"NLD","gid":"NLD-2-71"},"id":"NLD-2-71"},{"arcs":[[-116,-274,299,-212,-189,-254,300]],"type":"Polygon","properties":{"name":"Voorst","shapeGroup":"NLD","gid":"NLD-2-72"},"id":"NLD-2-72"},{"arcs":[[-242,-290,301,302,303]],"type":"Polygon","properties":{"name":"Wageningen","shapeGroup":"NLD","gid":"NLD-2-73"},"id":"NLD-2-73"},{"arcs":[[-193,-294,304,-239,305]],"type":"Polygon","properties":{"name":"Westervoort","shapeGroup":"NLD","gid":"NLD-2-74"},"id":"NLD-2-74"},{"arcs":[[-180,306,307]],"type":"Polygon","properties":{"name":"Winterswijk","shapeGroup":"NLD","gid":"NLD-2-75"},"id":"NLD-2-75"},{"arcs":[[-211,-287,-264,308,309,310,-235]],"type":"Polygon","properties":{"name":"Wijchen","shapeGroup":"NLD","gid":"NLD-2-76"},"id":"NLD-2-76"},{"arcs":[[-276,311,312,313,314]],"type":"Polygon","properties":{"name":"Zaltbommel","shapeGroup":"NLD","gid":"NLD-2-77"},"id":"NLD-2-77"},{"arcs":[[-230,315,-231,316,317,318,319,-240,-305,-293]],"type":"Polygon","properties":{"name":"Zevenaar","shapeGroup":"NLD","gid":"NLD-2-78"},"id":"NLD-2-78"},{"arcs":[[-213,-300,-273,320]],"type":"Polygon","properties":{"name":"Zutphen","shapeGroup":"NLD","gid":"NLD-2-79"},"id":"NLD-2-79"},{"arcs":[[-187,-256,-259,321,-246,-250]],"type":"Polygon","properties":{"name":"Nunspeet","shapeGroup":"NLD","gid":"NLD-2-80"},"id":"NLD-2-80"},{"arcs":[[-24,322,-168,-150,-141,-288,-247,-322,-258]],"type":"Polygon","properties":{"name":"Dronten","shapeGroup":"NLD","gid":"NLD-2-81"},"id":"NLD-2-81"},{"arcs":[[-203,323,324,325,326,327,-282]],"type":"Polygon","properties":{"name":"Amersfoort","shapeGroup":"NLD","gid":"NLD-2-82"},"id":"NLD-2-82"},{"arcs":[[-327,328,329,330,331,332,333,334]],"type":"Polygon","properties":{"name":"Baarn","shapeGroup":"NLD","gid":"NLD-2-83"},"id":"NLD-2-83"},{"arcs":[[-331,335,336,337,338,339]],"type":"Polygon","properties":{"name":"De Bilt","shapeGroup":"NLD","gid":"NLD-2-84"},"id":"NLD-2-84"},{"arcs":[[340,341,342,343,344]],"type":"Polygon","properties":{"name":"Bunnik","shapeGroup":"NLD","gid":"NLD-2-85"},"id":"NLD-2-85"},{"arcs":[[-29,-283,-328,-335,345]],"type":"Polygon","properties":{"name":"Bunschoten","shapeGroup":"NLD","gid":"NLD-2-86"},"id":"NLD-2-86"},{"arcs":[[-30,-346,-334,346,347]],"type":"Polygon","properties":{"name":"Eemnes","shapeGroup":"NLD","gid":"NLD-2-87"},"id":"NLD-2-87"},{"arcs":[[-226,348,349,350,-341,351]],"type":"Polygon","properties":{"name":"Houten","shapeGroup":"NLD","gid":"NLD-2-88"},"id":"NLD-2-88"},{"arcs":[[-202,352,353,-324]],"type":"Polygon","properties":{"name":"Leusden","shapeGroup":"NLD","gid":"NLD-2-89"},"id":"NLD-2-89"},{"arcs":[[354,355,356,357,358,359]],"type":"Polygon","properties":{"name":"Lopik","shapeGroup":"NLD","gid":"NLD-2-90"},"id":"NLD-2-90"},{"arcs":[[-357,360,361,362,363,364]],"type":"Polygon","properties":{"name":"Montfoort","shapeGroup":"NLD","gid":"NLD-2-91"},"id":"NLD-2-91"},{"arcs":[[-199,-245,365,366,367,-295]],"type":"Polygon","properties":{"name":"Renswoude","shapeGroup":"NLD","gid":"NLD-2-92"},"id":"NLD-2-92"},{"arcs":[[-222,368,369,-243,-304,370]],"type":"Polygon","properties":{"name":"Rhenen","shapeGroup":"NLD","gid":"NLD-2-93"},"id":"NLD-2-93"},{"arcs":[[-326,371,-329]],"type":"Polygon","properties":{"name":"Soest","shapeGroup":"NLD","gid":"NLD-2-94"},"id":"NLD-2-94"},{"arcs":[[-337,372,-342,-351,373,374,-364,375,376]],"type":"Polygon","properties":{"name":"Utrecht","shapeGroup":"NLD","gid":"NLD-2-95"},"id":"NLD-2-95"},{"arcs":[[-244,-370,377,-366]],"type":"Polygon","properties":{"name":"Veenendaal","shapeGroup":"NLD","gid":"NLD-2-96"},"id":"NLD-2-96"},{"arcs":[[-201,-296,-368,378,379,-353]],"type":"Polygon","properties":{"name":"Woudenberg","shapeGroup":"NLD","gid":"NLD-2-97"},"id":"NLD-2-97"},{"arcs":[[-220,-227,-352,-345,380]],"type":"Polygon","properties":{"name":"Wijk bij Duurstede","shapeGroup":"NLD","gid":"NLD-2-98"},"id":"NLD-2-98"},{"arcs":[[-358,-365,-375,381,382]],"type":"Polygon","properties":{"name":"IJsselstein","shapeGroup":"NLD","gid":"NLD-2-99"},"id":"NLD-2-99"},{"arcs":[[-325,-354,-380,383,-343,-373,-336,-330,-372]],"type":"Polygon","properties":{"name":"Zeist","shapeGroup":"NLD","gid":"NLD-2-100"},"id":"NLD-2-100"},{"arcs":[[-350,384,-382,-374]],"type":"Polygon","properties":{"name":"Nieuwegein","shapeGroup":"NLD","gid":"NLD-2-101"},"id":"NLD-2-101"},{"arcs":[[385,386,387,388]],"type":"Polygon","properties":{"name":"Aalsmeer","shapeGroup":"NLD","gid":"NLD-2-102"},"id":"NLD-2-102"},{"arcs":[[389,390,391,392,393,394,395,396,397]],"type":"Polygon","properties":{"name":"Alkmaar","shapeGroup":"NLD","gid":"NLD-2-103"},"id":"NLD-2-103"},{"arcs":[[-388,398,399,400,401,402]],"type":"Polygon","properties":{"name":"Amstelveen","shapeGroup":"NLD","gid":"NLD-2-104"},"id":"NLD-2-104"},{"arcs":[[[403,404,405,406,407,408,409]],[[-400,410,411,412,413,414,415,416,417]]],"type":"MultiPolygon","properties":{"name":"Amsterdam","shapeGroup":"NLD","gid":"NLD-2-105"},"id":"NLD-2-105"},{"arcs":[[418,419,420,421]],"type":"Polygon","properties":{"name":"Beverwijk","shapeGroup":"NLD","gid":"NLD-2-106"},"id":"NLD-2-106"},{"arcs":[[-7,-31,-348,422,423]],"type":"Polygon","properties":{"name":"Blaricum","shapeGroup":"NLD","gid":"NLD-2-107"},"id":"NLD-2-107"},{"arcs":[[424,425,426,427,428,429,430,431]],"type":"Polygon","properties":{"name":"Bloemendaal","shapeGroup":"NLD","gid":"NLD-2-108"},"id":"NLD-2-108"},{"arcs":[[-391,432,433,434,435,436]],"type":"Polygon","properties":{"name":"Castricum","shapeGroup":"NLD","gid":"NLD-2-109"},"id":"NLD-2-109"},{"arcs":[[-405,437,-417,438]],"type":"Polygon","properties":{"name":"Diemen","shapeGroup":"NLD","gid":"NLD-2-110"},"id":"NLD-2-110"},{"arcs":[[-11,439,440,441,442]],"type":"Polygon","properties":{"name":"Edam-Volendam","shapeGroup":"NLD","gid":"NLD-2-111"},"id":"NLD-2-111"},{"arcs":[[-170,443,444,445,446,447]],"type":"Polygon","properties":{"name":"Enkhuizen","shapeGroup":"NLD","gid":"NLD-2-112"},"id":"NLD-2-112"},{"arcs":[[-429,448,449,450]],"type":"Polygon","properties":{"name":"Haarlem","shapeGroup":"NLD","gid":"NLD-2-113"},"id":"NLD-2-113"},{"arcs":[[-387,451,452,453,454,-431,455,-450,456,457,-411,-399]],"type":"Polygon","properties":{"name":"Haarlemmermeer","shapeGroup":"NLD","gid":"NLD-2-114"},"id":"NLD-2-114"},{"arcs":[[-421,458,-434,459,460]],"type":"Polygon","properties":{"name":"Heemskerk","shapeGroup":"NLD","gid":"NLD-2-115"},"id":"NLD-2-115"},{"arcs":[[-430,-451,-456]],"type":"Polygon","properties":{"name":"Heemstede","shapeGroup":"NLD","gid":"NLD-2-116"},"id":"NLD-2-116"},{"arcs":[[-392,-437,461]],"type":"Polygon","properties":{"name":"Heiloo","shapeGroup":"NLD","gid":"NLD-2-117"},"id":"NLD-2-117"},{"arcs":[[-393,-462,-436,462,463,464]],"type":"Polygon","properties":{"name":"Bergen (NH)","shapeGroup":"NLD","gid":"NLD-2-118"},"id":"NLD-2-118"},{"arcs":[[465,466,467,468]],"type":"Polygon","properties":{"name":"Den Helder","shapeGroup":"NLD","gid":"NLD-2-119"},"id":"NLD-2-119"},{"arcs":[[-332,-340,469,-407,470,471,472]],"type":"Polygon","properties":{"name":"Hilversum","shapeGroup":"NLD","gid":"NLD-2-120"},"id":"NLD-2-120"},{"arcs":[[-12,-443,473,474,475,476]],"type":"Polygon","properties":{"name":"Hoorn","shapeGroup":"NLD","gid":"NLD-2-121"},"id":"NLD-2-121"},{"arcs":[[-8,-424,-472,477]],"type":"Polygon","properties":{"name":"Huizen","shapeGroup":"NLD","gid":"NLD-2-122"},"id":"NLD-2-122"},{"arcs":[[-414,478,479,480,481]],"type":"Polygon","properties":{"name":"Landsmeer","shapeGroup":"NLD","gid":"NLD-2-123"},"id":"NLD-2-123"},{"arcs":[[-333,-473,-423,-347]],"type":"Polygon","properties":{"name":"Laren","shapeGroup":"NLD","gid":"NLD-2-124"},"id":"NLD-2-124"},{"arcs":[[-446,482,483,-475,484,485,486,487]],"type":"Polygon","properties":{"name":"Medemblik","shapeGroup":"NLD","gid":"NLD-2-125"},"id":"NLD-2-125"},{"arcs":[[-413,488,489,-479]],"type":"Polygon","properties":{"name":"Oostzaan","shapeGroup":"NLD","gid":"NLD-2-126"},"id":"NLD-2-126"},{"arcs":[[-486,490,491,492]],"type":"Polygon","properties":{"name":"Opmeer","shapeGroup":"NLD","gid":"NLD-2-127"},"id":"NLD-2-127"},{"arcs":[[-401,-418,-438,-404,493]],"type":"Polygon","properties":{"name":"Ouder-Amstel","shapeGroup":"NLD","gid":"NLD-2-128"},"id":"NLD-2-128"},{"arcs":[[-396,494,-441,495,-481,496]],"type":"Polygon","properties":{"name":"Purmerend","shapeGroup":"NLD","gid":"NLD-2-129"},"id":"NLD-2-129"},{"arcs":[[-464,497,-466,498,499]],"type":"Polygon","properties":{"name":"Schagen","shapeGroup":"NLD","gid":"NLD-2-130"},"id":"NLD-2-130"},{"arcs":[[-42,500,-468,501,-75]],"type":"Polygon","properties":{"name":"Texel","shapeGroup":"NLD","gid":"NLD-2-131"},"id":"NLD-2-131"},{"arcs":[[-390,502,-460,-433]],"type":"Polygon","properties":{"name":"Uitgeest","shapeGroup":"NLD","gid":"NLD-2-132"},"id":"NLD-2-132"},{"arcs":[[-389,-403,503,504,505]],"type":"Polygon","properties":{"name":"Uithoorn","shapeGroup":"NLD","gid":"NLD-2-133"},"id":"NLD-2-133"},{"arcs":[[-419,506,-457,-449,-428,507]],"type":"Polygon","properties":{"name":"Velsen","shapeGroup":"NLD","gid":"NLD-2-134"},"id":"NLD-2-134"},{"arcs":[[-426,508,509]],"type":"Polygon","properties":{"name":"Zandvoort","shapeGroup":"NLD","gid":"NLD-2-135"},"id":"NLD-2-135"},{"arcs":[[-398,510,-489,-412,-458,-507,-422,-461,-503]],"type":"Polygon","properties":{"name":"Zaanstad","shapeGroup":"NLD","gid":"NLD-2-136"},"id":"NLD-2-136"},{"arcs":[[511,512,513,514]],"type":"Polygon","properties":{"name":"Alblasserdam","shapeGroup":"NLD","gid":"NLD-2-137"},"id":"NLD-2-137"},{"arcs":[[515,516,517,518,519,520,521,522,523]],"type":"Polygon","properties":{"name":"Alphen aan den Rijn","shapeGroup":"NLD","gid":"NLD-2-138"},"id":"NLD-2-138"},{"arcs":[[524,525,526,527,528]],"type":"Polygon","properties":{"name":"Barendrecht","shapeGroup":"NLD","gid":"NLD-2-139"},"id":"NLD-2-139"},{"arcs":[[-476,-484,529,530]],"type":"Polygon","properties":{"name":"Drechterland","shapeGroup":"NLD","gid":"NLD-2-140"},"id":"NLD-2-140"},{"arcs":[[531,532,533,534]],"type":"Polygon","properties":{"name":"Brielle","shapeGroup":"NLD","gid":"NLD-2-141"},"id":"NLD-2-141"},{"arcs":[[535,536,537,538]],"type":"Polygon","properties":{"name":"Capelle aan den IJssel","shapeGroup":"NLD","gid":"NLD-2-142"},"id":"NLD-2-142"},{"arcs":[[539,540,541,542,543]],"type":"Polygon","properties":{"name":"Delft","shapeGroup":"NLD","gid":"NLD-2-143"},"id":"NLD-2-143"},{"arcs":[[544,545,546,547,548,549,550,551]],"type":"Polygon","properties":{"name":"Dordrecht","shapeGroup":"NLD","gid":"NLD-2-144"},"id":"NLD-2-144"},{"arcs":[[-314,552,553,554,555]],"type":"Polygon","properties":{"name":"Gorinchem","shapeGroup":"NLD","gid":"NLD-2-145"},"id":"NLD-2-145"},{"arcs":[[556,557,558,559]],"type":"Polygon","properties":{"name":"Gouda","shapeGroup":"NLD","gid":"NLD-2-146"},"id":"NLD-2-146"},{"arcs":[[-543,560,561,562,563,564,565,566]],"type":"Polygon","properties":{"name":"'s-Gravenhage","shapeGroup":"NLD","gid":"NLD-2-147"},"id":"NLD-2-147"},{"arcs":[[-549,567,568,-554,569]],"type":"Polygon","properties":{"name":"Hardinxveld-Giessendam","shapeGroup":"NLD","gid":"NLD-2-148"},"id":"NLD-2-148"},{"arcs":[[-533,570,571,572]],"type":"Polygon","properties":{"name":"Hellevoetsluis","shapeGroup":"NLD","gid":"NLD-2-149"},"id":"NLD-2-149"},{"arcs":[[-512,573,574,575]],"type":"Polygon","properties":{"name":"Hendrik-Ido-Ambacht","shapeGroup":"NLD","gid":"NLD-2-150"},"id":"NLD-2-150"},{"arcs":[[-445,576,-530,-483]],"type":"Polygon","properties":{"name":"Stede Broec","shapeGroup":"NLD","gid":"NLD-2-151"},"id":"NLD-2-151"},{"arcs":[[-432,-455,577,578]],"type":"Polygon","properties":{"name":"Hillegom","shapeGroup":"NLD","gid":"NLD-2-152"},"id":"NLD-2-152"},{"arcs":[[579,580,581,582,583,584]],"type":"Polygon","properties":{"name":"Katwijk","shapeGroup":"NLD","gid":"NLD-2-153"},"id":"NLD-2-153"},{"arcs":[[-538,585,586]],"type":"Polygon","properties":{"name":"Krimpen aan den IJssel","shapeGroup":"NLD","gid":"NLD-2-154"},"id":"NLD-2-154"},{"arcs":[[-585,587,588,589,590,591,592,593]],"type":"Polygon","properties":{"name":"Leiden","shapeGroup":"NLD","gid":"NLD-2-155"},"id":"NLD-2-155"},{"arcs":[[-521,594,-590,595,596]],"type":"Polygon","properties":{"name":"Leiderdorp","shapeGroup":"NLD","gid":"NLD-2-156"},"id":"NLD-2-156"},{"arcs":[[-454,597,598,-578]],"type":"Polygon","properties":{"name":"Lisse","shapeGroup":"NLD","gid":"NLD-2-157"},"id":"NLD-2-157"},{"arcs":[[599,600,601,602]],"type":"Polygon","properties":{"name":"Maassluis","shapeGroup":"NLD","gid":"NLD-2-158"},"id":"NLD-2-158"},{"arcs":[[-505,603,604,605,-523,606]],"type":"Polygon","properties":{"name":"Nieuwkoop","shapeGroup":"NLD","gid":"NLD-2-159"},"id":"NLD-2-159"},{"arcs":[[-425,-579,-599,607,-582,608,-509]],"type":"Polygon","properties":{"name":"Noordwijk","shapeGroup":"NLD","gid":"NLD-2-160"},"id":"NLD-2-160"},{"arcs":[[-584,609,-588]],"type":"Polygon","properties":{"name":"Oegstgeest","shapeGroup":"NLD","gid":"NLD-2-161"},"id":"NLD-2-161"},{"arcs":[[-356,610,611,-361]],"type":"Polygon","properties":{"name":"Oudewater","shapeGroup":"NLD","gid":"NLD-2-162"},"id":"NLD-2-162"},{"arcs":[[-515,612,613,-547,614,-574]],"type":"Polygon","properties":{"name":"Papendrecht","shapeGroup":"NLD","gid":"NLD-2-163"},"id":"NLD-2-163"},{"arcs":[[-513,-576,615,-527,616,617,618]],"type":"Polygon","properties":{"name":"Ridderkerk","shapeGroup":"NLD","gid":"NLD-2-164"},"id":"NLD-2-164"},{"arcs":[[-526,619,620,-535,621,622,623,-600,624,625,626,-540,627,628,629,-539,-587,-617]],"type":"Polygon","properties":{"name":"Rotterdam","shapeGroup":"NLD","gid":"NLD-2-165"},"id":"NLD-2-165"},{"arcs":[[-542,630,631,-561]],"type":"Polygon","properties":{"name":"Rijswijk","shapeGroup":"NLD","gid":"NLD-2-166"},"id":"NLD-2-166"},{"arcs":[[-626,632,633]],"type":"Polygon","properties":{"name":"Schiedam","shapeGroup":"NLD","gid":"NLD-2-167"},"id":"NLD-2-167"},{"arcs":[[-548,-614,634,-568]],"type":"Polygon","properties":{"name":"Sliedrecht","shapeGroup":"NLD","gid":"NLD-2-168"},"id":"NLD-2-168"},{"arcs":[[-525,635,636,-620]],"type":"Polygon","properties":{"name":"Albrandswaard","shapeGroup":"NLD","gid":"NLD-2-169"},"id":"NLD-2-169"},{"arcs":[[-534,-573,637,638,-622]],"type":"Polygon","properties":{"name":"Westvoorne","shapeGroup":"NLD","gid":"NLD-2-170"},"id":"NLD-2-170"},{"arcs":[[-603,639,-633,-625]],"type":"Polygon","properties":{"name":"Vlaardingen","shapeGroup":"NLD","gid":"NLD-2-171"},"id":"NLD-2-171"},{"arcs":[[-593,640,641]],"type":"Polygon","properties":{"name":"Voorschoten","shapeGroup":"NLD","gid":"NLD-2-172"},"id":"NLD-2-172"},{"arcs":[[-516,642,-558,643]],"type":"Polygon","properties":{"name":"Waddinxveen","shapeGroup":"NLD","gid":"NLD-2-173"},"id":"NLD-2-173"},{"arcs":[[-564,644,-580,-594,-642,645]],"type":"Polygon","properties":{"name":"Wassenaar","shapeGroup":"NLD","gid":"NLD-2-174"},"id":"NLD-2-174"},{"arcs":[[-363,646,-605,647,648,-376]],"type":"Polygon","properties":{"name":"Woerden","shapeGroup":"NLD","gid":"NLD-2-175"},"id":"NLD-2-175"},{"arcs":[[-519,649,650,-566,651,652]],"type":"Polygon","properties":{"name":"Zoetermeer","shapeGroup":"NLD","gid":"NLD-2-176"},"id":"NLD-2-176"},{"arcs":[[-520,-653,653,-591,-595]],"type":"Polygon","properties":{"name":"Zoeterwoude","shapeGroup":"NLD","gid":"NLD-2-177"},"id":"NLD-2-177"},{"arcs":[[-528,-616,-575,-615,-546,654]],"type":"Polygon","properties":{"name":"Zwijndrecht","shapeGroup":"NLD","gid":"NLD-2-178"},"id":"NLD-2-178"},{"arcs":[[655,656,657,658,659,660,661]],"type":"Polygon","properties":{"name":"Borsele","shapeGroup":"NLD","gid":"NLD-2-179"},"id":"NLD-2-179"},{"arcs":[[-661,662,663,664]],"type":"Polygon","properties":{"name":"Goes","shapeGroup":"NLD","gid":"NLD-2-180"},"id":"NLD-2-180"},{"arcs":[[-236,-311,665,-278,666,-298,667]],"type":"Polygon","properties":{"name":"West Maas en Waal","shapeGroup":"NLD","gid":"NLD-2-181"},"id":"NLD-2-181"},{"arcs":[[-657,668,669,670]],"type":"Polygon","properties":{"name":"Hulst","shapeGroup":"NLD","gid":"NLD-2-182"},"id":"NLD-2-182"},{"arcs":[[-662,-665,671,672,673]],"type":"Polygon","properties":{"name":"Kapelle","shapeGroup":"NLD","gid":"NLD-2-183"},"id":"NLD-2-183"},{"arcs":[[-660,674,675,676,-663]],"type":"Polygon","properties":{"name":"Middelburg","shapeGroup":"NLD","gid":"NLD-2-184"},"id":"NLD-2-184"},{"arcs":[[-656,-674,677,678,679,680,-669]],"type":"Polygon","properties":{"name":"Reimerswaal","shapeGroup":"NLD","gid":"NLD-2-185"},"id":"NLD-2-185"},{"arcs":[[-658,-671,681,682,683]],"type":"Polygon","properties":{"name":"Terneuzen","shapeGroup":"NLD","gid":"NLD-2-186"},"id":"NLD-2-186"},{"arcs":[[-673,684,685,686,687,688,-678]],"type":"Polygon","properties":{"name":"Tholen","shapeGroup":"NLD","gid":"NLD-2-187"},"id":"NLD-2-187"},{"arcs":[[-676,689,690,691,692]],"type":"Polygon","properties":{"name":"Veere","shapeGroup":"NLD","gid":"NLD-2-188"},"id":"NLD-2-188"},{"arcs":[[-659,-684,693,694,-690,-675]],"type":"Polygon","properties":{"name":"Vlissingen","shapeGroup":"NLD","gid":"NLD-2-189"},"id":"NLD-2-189"},{"arcs":[[-402,-494,-410,695,-648,-604,-504]],"type":"Polygon","properties":{"name":"De Ronde Venen","shapeGroup":"NLD","gid":"NLD-2-190"},"id":"NLD-2-190"},{"arcs":[[-32,-71,-57,696,697]],"type":"Polygon","properties":{"name":"Tytsjerksteradiel","shapeGroup":"NLD","gid":"NLD-2-191"},"id":"NLD-2-191"},{"arcs":[[698,699,700,701,702]],"type":"Polygon","properties":{"name":"Asten","shapeGroup":"NLD","gid":"NLD-2-192"},"id":"NLD-2-192"},{"arcs":[[703,704]],"type":"Polygon","properties":{"name":"Baarle-Nassau","shapeGroup":"NLD","gid":"NLD-2-193"},"id":"NLD-2-193"},{"arcs":[[-679,-689,705,706,707]],"type":"Polygon","properties":{"name":"Bergen op Zoom","shapeGroup":"NLD","gid":"NLD-2-194"},"id":"NLD-2-194"},{"arcs":[[708,709,710,711,712]],"type":"Polygon","properties":{"name":"Best","shapeGroup":"NLD","gid":"NLD-2-195"},"id":"NLD-2-195"},{"arcs":[[713,714,715,716]],"type":"Polygon","properties":{"name":"Boekel","shapeGroup":"NLD","gid":"NLD-2-196"},"id":"NLD-2-196"},{"arcs":[[-710,717,718,719,720,721]],"type":"Polygon","properties":{"name":"Boxtel","shapeGroup":"NLD","gid":"NLD-2-197"},"id":"NLD-2-197"},{"arcs":[[722,723,724,725,726,727,728,729]],"type":"Polygon","properties":{"name":"Breda","shapeGroup":"NLD","gid":"NLD-2-198"},"id":"NLD-2-198"},{"arcs":[[-701,730,731,732,733,734]],"type":"Polygon","properties":{"name":"Deurne","shapeGroup":"NLD","gid":"NLD-2-199"},"id":"NLD-2-199"},{"arcs":[[-18,-22,735,736,737]],"type":"Polygon","properties":{"name":"Pekela","shapeGroup":"NLD","gid":"NLD-2-200"},"id":"NLD-2-200"},{"arcs":[[738,739,740,741,742,743]],"type":"Polygon","properties":{"name":"Dongen","shapeGroup":"NLD","gid":"NLD-2-201"},"id":"NLD-2-201"},{"arcs":[[744,745,746,747,748]],"type":"Polygon","properties":{"name":"Eersel","shapeGroup":"NLD","gid":"NLD-2-202"},"id":"NLD-2-202"},{"arcs":[[-713,749,750,751,752,753,754,-747,755]],"type":"Polygon","properties":{"name":"Eindhoven","shapeGroup":"NLD","gid":"NLD-2-203"},"id":"NLD-2-203"},{"arcs":[[-723,756,757,758,759]],"type":"Polygon","properties":{"name":"Etten-Leur","shapeGroup":"NLD","gid":"NLD-2-204"},"id":"NLD-2-204"},{"arcs":[[-742,760,761,762,763]],"type":"Polygon","properties":{"name":"Geertruidenberg","shapeGroup":"NLD","gid":"NLD-2-205"},"id":"NLD-2-205"},{"arcs":[[-727,764,-740,765,766,767]],"type":"Polygon","properties":{"name":"Gilze en Rijen","shapeGroup":"NLD","gid":"NLD-2-206"},"id":"NLD-2-206"},{"arcs":[[-767,768,769,770,771]],"type":"Polygon","properties":{"name":"Goirle","shapeGroup":"NLD","gid":"NLD-2-207"},"id":"NLD-2-207"},{"arcs":[[-700,772,773,774,775,776,-731]],"type":"Polygon","properties":{"name":"Helmond","shapeGroup":"NLD","gid":"NLD-2-208"},"id":"NLD-2-208"},{"arcs":[[-280,777,778,779,780,781]],"type":"Polygon","properties":{"name":"'s-Hertogenbosch","shapeGroup":"NLD","gid":"NLD-2-209"},"id":"NLD-2-209"},{"arcs":[[-275,-782,782,783,784,785,786,-312]],"type":"Polygon","properties":{"name":"Heusden","shapeGroup":"NLD","gid":"NLD-2-210"},"id":"NLD-2-210"},{"arcs":[[-770,787,788,789,790,791]],"type":"Polygon","properties":{"name":"Hilvarenbeek","shapeGroup":"NLD","gid":"NLD-2-211"},"id":"NLD-2-211"},{"arcs":[[-744,792,-785,793]],"type":"Polygon","properties":{"name":"Loon op Zand","shapeGroup":"NLD","gid":"NLD-2-212"},"id":"NLD-2-212"},{"arcs":[[-751,794,795,796,-775,797]],"type":"Polygon","properties":{"name":"Nuenen, Gerwen en Nederwetten","shapeGroup":"NLD","gid":"NLD-2-213"},"id":"NLD-2-213"},{"arcs":[[-709,-756,-746,798,-790,799,-718]],"type":"Polygon","properties":{"name":"Oirschot","shapeGroup":"NLD","gid":"NLD-2-214"},"id":"NLD-2-214"},{"arcs":[[-719,-800,-789,800,801]],"type":"Polygon","properties":{"name":"Oisterwijk","shapeGroup":"NLD","gid":"NLD-2-215"},"id":"NLD-2-215"},{"arcs":[[-726,802,-761,-741,-765]],"type":"Polygon","properties":{"name":"Oosterhout","shapeGroup":"NLD","gid":"NLD-2-216"},"id":"NLD-2-216"},{"arcs":[[-279,-666,-310,803,804,805,-778]],"type":"Polygon","properties":{"name":"Oss","shapeGroup":"NLD","gid":"NLD-2-217"},"id":"NLD-2-217"},{"arcs":[[-758,806,807,808,809]],"type":"Polygon","properties":{"name":"Rucphen","shapeGroup":"NLD","gid":"NLD-2-218"},"id":"NLD-2-218"},{"arcs":[[-721,810,-780,811,812]],"type":"Polygon","properties":{"name":"Sint-Michielsgestel","shapeGroup":"NLD","gid":"NLD-2-219"},"id":"NLD-2-219"},{"arcs":[[-699,813,814,815,816,-773]],"type":"Polygon","properties":{"name":"Someren","shapeGroup":"NLD","gid":"NLD-2-220"},"id":"NLD-2-220"},{"arcs":[[-712,817,-795,-750]],"type":"Polygon","properties":{"name":"Son en Breugel","shapeGroup":"NLD","gid":"NLD-2-221"},"id":"NLD-2-221"},{"arcs":[[-688,818,819,820,821,-706]],"type":"Polygon","properties":{"name":"Steenbergen","shapeGroup":"NLD","gid":"NLD-2-222"},"id":"NLD-2-222"},{"arcs":[[-10,-415,-482,-496,-440]],"type":"Polygon","properties":{"name":"Waterland","shapeGroup":"NLD","gid":"NLD-2-223"},"id":"NLD-2-223"},{"arcs":[[-739,-794,-784,822,-801,-788,-769,-766]],"type":"Polygon","properties":{"name":"Tilburg","shapeGroup":"NLD","gid":"NLD-2-224"},"id":"NLD-2-224"},{"arcs":[[823,824,825,826]],"type":"Polygon","properties":{"name":"Valkenswaard","shapeGroup":"NLD","gid":"NLD-2-225"},"id":"NLD-2-225"},{"arcs":[[-748,-755,827,828]],"type":"Polygon","properties":{"name":"Veldhoven","shapeGroup":"NLD","gid":"NLD-2-226"},"id":"NLD-2-226"},{"arcs":[[-720,-802,-823,-783,-781,-811]],"type":"Polygon","properties":{"name":"Vught","shapeGroup":"NLD","gid":"NLD-2-227"},"id":"NLD-2-227"},{"arcs":[[-754,829,-825,830,-828]],"type":"Polygon","properties":{"name":"Waalre","shapeGroup":"NLD","gid":"NLD-2-228"},"id":"NLD-2-228"},{"arcs":[[-743,-764,831,-786,-793]],"type":"Polygon","properties":{"name":"Waalwijk","shapeGroup":"NLD","gid":"NLD-2-229"},"id":"NLD-2-229"},{"arcs":[[-680,-708,832,833]],"type":"Polygon","properties":{"name":"Woensdrecht","shapeGroup":"NLD","gid":"NLD-2-230"},"id":"NLD-2-230"},{"arcs":[[-730,834,-807,-757]],"type":"Polygon","properties":{"name":"Zundert","shapeGroup":"NLD","gid":"NLD-2-231"},"id":"NLD-2-231"},{"arcs":[[-397,-497,-480,-490,-511]],"type":"Polygon","properties":{"name":"Wormerland","shapeGroup":"NLD","gid":"NLD-2-232"},"id":"NLD-2-232"},{"arcs":[[835,836,837,838]],"type":"Polygon","properties":{"name":"Landgraaf","shapeGroup":"NLD","gid":"NLD-2-233"},"id":"NLD-2-233"},{"arcs":[[839,840,841,842]],"type":"Polygon","properties":{"name":"Beek","shapeGroup":"NLD","gid":"NLD-2-234"},"id":"NLD-2-234"},{"arcs":[[843,844,845,846,847]],"type":"Polygon","properties":{"name":"Beesel","shapeGroup":"NLD","gid":"NLD-2-235"},"id":"NLD-2-235"},{"arcs":[[848,849,850,851,852,853]],"type":"Polygon","properties":{"name":"Bergen (L)","shapeGroup":"NLD","gid":"NLD-2-236"},"id":"NLD-2-236"},{"arcs":[[-836,854,855,856]],"type":"Polygon","properties":{"name":"Brunssum","shapeGroup":"NLD","gid":"NLD-2-237"},"id":"NLD-2-237"},{"arcs":[[-852,857,858,859,860]],"type":"Polygon","properties":{"name":"Gennep","shapeGroup":"NLD","gid":"NLD-2-238"},"id":"NLD-2-238"},{"arcs":[[-839,861,862,863,864,865,-855]],"type":"Polygon","properties":{"name":"Heerlen","shapeGroup":"NLD","gid":"NLD-2-239"},"id":"NLD-2-239"},{"arcs":[[-838,866,-862]],"type":"Polygon","properties":{"name":"Kerkrade","shapeGroup":"NLD","gid":"NLD-2-240"},"id":"NLD-2-240"},{"arcs":[[867,868,869,870]],"type":"Polygon","properties":{"name":"Maastricht","shapeGroup":"NLD","gid":"NLD-2-241"},"id":"NLD-2-241"},{"arcs":[[-843,871,872,-869,873,874]],"type":"Polygon","properties":{"name":"Meerssen","shapeGroup":"NLD","gid":"NLD-2-242"},"id":"NLD-2-242"},{"arcs":[[-267,875,-859,876]],"type":"Polygon","properties":{"name":"Mook en Middelaar","shapeGroup":"NLD","gid":"NLD-2-243"},"id":"NLD-2-243"},{"arcs":[[-703,877,878,879,880,-814]],"type":"Polygon","properties":{"name":"Nederweert","shapeGroup":"NLD","gid":"NLD-2-244"},"id":"NLD-2-244"},{"arcs":[[-848,881,882,883,884]],"type":"Polygon","properties":{"name":"Roermond","shapeGroup":"NLD","gid":"NLD-2-245"},"id":"NLD-2-245"},{"arcs":[[-864,885,886,887]],"type":"Polygon","properties":{"name":"Simpelveld","shapeGroup":"NLD","gid":"NLD-2-246"},"id":"NLD-2-246"},{"arcs":[[-840,-875,888,889]],"type":"Polygon","properties":{"name":"Stein","shapeGroup":"NLD","gid":"NLD-2-247"},"id":"NLD-2-247"},{"arcs":[[890,891]],"type":"Polygon","properties":{"name":"Vaals","shapeGroup":"NLD","gid":"NLD-2-248"},"id":"NLD-2-248"},{"arcs":[[-846,892,893,-854,894]],"type":"Polygon","properties":{"name":"Venlo","shapeGroup":"NLD","gid":"NLD-2-249"},"id":"NLD-2-249"},{"arcs":[[-733,895,896,-850,897]],"type":"Polygon","properties":{"name":"Venray","shapeGroup":"NLD","gid":"NLD-2-250"},"id":"NLD-2-250"},{"arcs":[[-865,-888,898,899,900]],"type":"Polygon","properties":{"name":"Voerendaal","shapeGroup":"NLD","gid":"NLD-2-251"},"id":"NLD-2-251"},{"arcs":[[-880,901,902,903]],"type":"Polygon","properties":{"name":"Weert","shapeGroup":"NLD","gid":"NLD-2-252"},"id":"NLD-2-252"},{"arcs":[[-870,-873,904,-900,905,906]],"type":"Polygon","properties":{"name":"Valkenburg aan de Geul","shapeGroup":"NLD","gid":"NLD-2-253"},"id":"NLD-2-253"},{"arcs":[[-13,-477,-531,-577,-444,-169,-323,-23]],"type":"Polygon","properties":{"name":"Lelystad","shapeGroup":"NLD","gid":"NLD-2-254"},"id":"NLD-2-254"},{"arcs":[[-734,-898,-849,-894,907]],"type":"Polygon","properties":{"name":"Horst aan de Maas","shapeGroup":"NLD","gid":"NLD-2-255"},"id":"NLD-2-255"},{"arcs":[[-178,908,909,-233,910,911]],"type":"Polygon","properties":{"name":"Oude IJsselstreek","shapeGroup":"NLD","gid":"NLD-2-256"},"id":"NLD-2-256"},{"arcs":[[-453,912,-596,-589,-610,-583,-608,-598]],"type":"Polygon","properties":{"name":"Teylingen","shapeGroup":"NLD","gid":"NLD-2-257"},"id":"NLD-2-257"},{"arcs":[[-221,-381,-344,-384,-379,-367,-378,-369]],"type":"Polygon","properties":{"name":"Utrechtse Heuvelrug","shapeGroup":"NLD","gid":"NLD-2-258"},"id":"NLD-2-258"},{"arcs":[[-179,-912,913,914,915,-307]],"type":"Polygon","properties":{"name":"Oost Gelre","shapeGroup":"NLD","gid":"NLD-2-259"},"id":"NLD-2-259"},{"arcs":[[-395,916,-491,-485,-474,-442,-495]],"type":"Polygon","properties":{"name":"Koggenland","shapeGroup":"NLD","gid":"NLD-2-260"},"id":"NLD-2-260"},{"arcs":[[-518,917,-629,918,-650]],"type":"Polygon","properties":{"name":"Lansingerland","shapeGroup":"NLD","gid":"NLD-2-261"},"id":"NLD-2-261"},{"arcs":[[-844,-885,919,920,-902,-879,921]],"type":"Polygon","properties":{"name":"Leudal","shapeGroup":"NLD","gid":"NLD-2-262"},"id":"NLD-2-262"},{"arcs":[[-884,922,923,924,-920]],"type":"Polygon","properties":{"name":"Maasgouw","shapeGroup":"NLD","gid":"NLD-2-263"},"id":"NLD-2-263"},{"arcs":[[-717,925,-896,-732,-777,926,927]],"type":"Polygon","properties":{"name":"Gemert-Bakel","shapeGroup":"NLD","gid":"NLD-2-264"},"id":"NLD-2-264"},{"arcs":[[-759,-810,928,-821,929]],"type":"Polygon","properties":{"name":"Halderberge","shapeGroup":"NLD","gid":"NLD-2-265"},"id":"NLD-2-265"},{"arcs":[[-753,930,-816,931,932,-826,-830]],"type":"Polygon","properties":{"name":"Heeze-Leende","shapeGroup":"NLD","gid":"NLD-2-266"},"id":"NLD-2-266"},{"arcs":[[-776,-797,933,-927]],"type":"Polygon","properties":{"name":"Laarbeek","shapeGroup":"NLD","gid":"NLD-2-267"},"id":"NLD-2-267"},{"arcs":[[-791,934,935]],"type":"Polygon","properties":{"name":"Reusel-De Mierden","shapeGroup":"NLD","gid":"NLD-2-268"},"id":"NLD-2-268"},{"arcs":[[-883,936,937,-923]],"type":"Polygon","properties":{"name":"Roerdalen","shapeGroup":"NLD","gid":"NLD-2-269"},"id":"NLD-2-269"},{"arcs":[[-707,-822,-929,-809,938,-833]],"type":"Polygon","properties":{"name":"Roosendaal","shapeGroup":"NLD","gid":"NLD-2-270"},"id":"NLD-2-270"},{"arcs":[[-686,939,-692,940,941]],"type":"Polygon","properties":{"name":"Schouwen-Duiveland","shapeGroup":"NLD","gid":"NLD-2-271"},"id":"NLD-2-271"},{"arcs":[[-16,942,-86,943,-82,944,945,-20]],"type":"Polygon","properties":{"name":"Aa en Hunze","shapeGroup":"NLD","gid":"NLD-2-272"},"id":"NLD-2-272"},{"arcs":[[-15,946,-91,-87,-943]],"type":"Polygon","properties":{"name":"Borger-Odoorn","shapeGroup":"NLD","gid":"NLD-2-273"},"id":"NLD-2-273"},{"arcs":[[-95,-135,-161,-101,947]],"type":"Polygon","properties":{"name":"De Wolden","shapeGroup":"NLD","gid":"NLD-2-274"},"id":"NLD-2-274"},{"arcs":[[-664,-677,-693,-940,-685,-672]],"type":"Polygon","properties":{"name":"Noord-Beveland","shapeGroup":"NLD","gid":"NLD-2-275"},"id":"NLD-2-275"},{"arcs":[[-339,948,-408,-470]],"type":"Polygon","properties":{"name":"Wijdemeren","shapeGroup":"NLD","gid":"NLD-2-276"},"id":"NLD-2-276"},{"arcs":[[-1,949,-80,950,-60,-66,951]],"type":"Polygon","properties":{"name":"Noordenveld","shapeGroup":"NLD","gid":"NLD-2-277"},"id":"NLD-2-277"},{"arcs":[[-103,-173,-138,-156,-132,952,-165]],"type":"Polygon","properties":{"name":"Twenterand","shapeGroup":"NLD","gid":"NLD-2-278"},"id":"NLD-2-278"},{"arcs":[[-62,953,-96,-948,-100,954,-77]],"type":"Polygon","properties":{"name":"Westerveld","shapeGroup":"NLD","gid":"NLD-2-279"},"id":"NLD-2-279"},{"arcs":[[-194,-306,-238,-320,955,-285,956]],"type":"Polygon","properties":{"name":"Lingewaard","shapeGroup":"NLD","gid":"NLD-2-280"},"id":"NLD-2-280"},{"arcs":[[-815,-881,-904,957,-932]],"type":"Polygon","properties":{"name":"Cranendonck","shapeGroup":"NLD","gid":"NLD-2-281"},"id":"NLD-2-281"},{"arcs":[[-78,-955,-99,-164,958,-153,959]],"type":"Polygon","properties":{"name":"Steenwijkerland","shapeGroup":"NLD","gid":"NLD-2-282"},"id":"NLD-2-282"},{"arcs":[[-552,960,-724,-760,-930,-820,961,962]],"type":"Polygon","properties":{"name":"Moerdijk","shapeGroup":"NLD","gid":"NLD-2-283"},"id":"NLD-2-283"},{"arcs":[[-924,-938,963,964,965]],"type":"Polygon","properties":{"name":"Echt-Susteren","shapeGroup":"NLD","gid":"NLD-2-284"},"id":"NLD-2-284"},{"arcs":[[-683,966,-694]],"type":"Polygon","properties":{"name":"Sluis","shapeGroup":"NLD","gid":"NLD-2-285"},"id":"NLD-2-285"},{"arcs":[[-551,967,-762,-803,-725,-961]],"type":"Polygon","properties":{"name":"Drimmelen","shapeGroup":"NLD","gid":"NLD-2-286"},"id":"NLD-2-286"},{"arcs":[[-779,-806,968,969,-812]],"type":"Polygon","properties":{"name":"Bernheze","shapeGroup":"NLD","gid":"NLD-2-287"},"id":"NLD-2-287"},{"arcs":[[-704,970,-728,-768,-772,971]],"type":"Polygon","properties":{"name":"Alphen-Chaam","shapeGroup":"NLD","gid":"NLD-2-288"},"id":"NLD-2-288"},{"arcs":[[-749,-829,-831,-824,972,973]],"type":"Polygon","properties":{"name":"Bergeijk","shapeGroup":"NLD","gid":"NLD-2-289"},"id":"NLD-2-289"},{"arcs":[[-745,-974,974,-935,-799]],"type":"Polygon","properties":{"name":"Bladel","shapeGroup":"NLD","gid":"NLD-2-290"},"id":"NLD-2-290"},{"arcs":[[-887,975,-891,976,977,-906,-899]],"type":"Polygon","properties":{"name":"Gulpen-Wittem","shapeGroup":"NLD","gid":"NLD-2-291"},"id":"NLD-2-291"},{"arcs":[[-6,978,-945,-81,-950]],"type":"Polygon","properties":{"name":"Tynaarlo","shapeGroup":"NLD","gid":"NLD-2-292"},"id":"NLD-2-292"},{"arcs":[[-61,-951,-83,-944,-85,-97,-954]],"type":"Polygon","properties":{"name":"Midden-Drenthe","shapeGroup":"NLD","gid":"NLD-2-293"},"id":"NLD-2-293"},{"arcs":[[-195,-957,-284,-209,979,-302,-289]],"type":"Polygon","properties":{"name":"Overbetuwe","shapeGroup":"NLD","gid":"NLD-2-294"},"id":"NLD-2-294"},{"arcs":[[-106,-110,980,-129,981,-270,982,-171]],"type":"Polygon","properties":{"name":"Hof van Twente","shapeGroup":"NLD","gid":"NLD-2-295"},"id":"NLD-2-295"},{"arcs":[[-208,-237,-668,-297,-223,-371,-303,-980]],"type":"Polygon","properties":{"name":"Neder-Betuwe","shapeGroup":"NLD","gid":"NLD-2-296"},"id":"NLD-2-296"},{"arcs":[[-119,-158,-140,-172,-983,-269]],"type":"Polygon","properties":{"name":"Rijssen-Holten","shapeGroup":"NLD","gid":"NLD-2-297"},"id":"NLD-2-297"},{"arcs":[[-752,-798,-774,-817,-931]],"type":"Polygon","properties":{"name":"Geldrop-Mierlo","shapeGroup":"NLD","gid":"NLD-2-298"},"id":"NLD-2-298"},{"arcs":[[-117,-301,-253,-262,-174,-159]],"type":"Polygon","properties":{"name":"Olst-Wijhe","shapeGroup":"NLD","gid":"NLD-2-299"},"id":"NLD-2-299"},{"arcs":[[-108,-167,983,-148,-155,-122,984]],"type":"Polygon","properties":{"name":"Dinkelland","shapeGroup":"NLD","gid":"NLD-2-300"},"id":"NLD-2-300"},{"arcs":[[-562,-632,985,-601,-624,986]],"type":"Polygon","properties":{"name":"Westland","shapeGroup":"NLD","gid":"NLD-2-301"},"id":"NLD-2-301"},{"arcs":[[-541,-627,-634,-640,-602,-986,-631]],"type":"Polygon","properties":{"name":"Midden-Delfland","shapeGroup":"NLD","gid":"NLD-2-302"},"id":"NLD-2-302"},{"arcs":[[-128,987,-915,988,-271,-982]],"type":"Polygon","properties":{"name":"Berkelland","shapeGroup":"NLD","gid":"NLD-2-303"},"id":"NLD-2-303"},{"arcs":[[-214,-321,-272,-989,-914,-911,-232,-316,-229,-292]],"type":"Polygon","properties":{"name":"Bronckhorst","shapeGroup":"NLD","gid":"NLD-2-304"},"id":"NLD-2-304"},{"arcs":[[-841,-890,989,-965,990,991]],"type":"Polygon","properties":{"name":"Sittard-Geleen","shapeGroup":"NLD","gid":"NLD-2-305"},"id":"NLD-2-305"},{"arcs":[[-386,-506,-607,-522,-597,-913,-452]],"type":"Polygon","properties":{"name":"Kaag en Braassem","shapeGroup":"NLD","gid":"NLD-2-306"},"id":"NLD-2-306"},{"arcs":[[-33,-698,992]],"type":"Polygon","properties":{"name":"Dantumadiel","shapeGroup":"NLD","gid":"NLD-2-307"},"id":"NLD-2-307"},{"arcs":[[-517,-644,-557,993,-536,-630,-918]],"type":"Polygon","properties":{"name":"Zuidplas","shapeGroup":"NLD","gid":"NLD-2-308"},"id":"NLD-2-308"},{"arcs":[[-702,-735,-908,-893,-845,-922,-878]],"type":"Polygon","properties":{"name":"Peel en Maas","shapeGroup":"NLD","gid":"NLD-2-309"},"id":"NLD-2-309"},{"arcs":[[-737,994,995,996,997]],"type":"Polygon","properties":{"name":"Oldambt","shapeGroup":"NLD","gid":"NLD-2-310"},"id":"NLD-2-310"},{"arcs":[[-143,-154,-959,-163,-177]],"type":"Polygon","properties":{"name":"Zwartewaterland","shapeGroup":"NLD","gid":"NLD-2-311"},"id":"NLD-2-311"},{"arcs":[[-46,998,-54,999,-447,-488,1000]],"type":"Polygon","properties":{"name":"Súdwest-Fryslân","shapeGroup":"NLD","gid":"NLD-2-312"},"id":"NLD-2-312"},{"arcs":[[-362,-612,1001,-559,-643,-524,-606,-647]],"type":"Polygon","properties":{"name":"Bodegraven-Reeuwijk","shapeGroup":"NLD","gid":"NLD-2-313"},"id":"NLD-2-313"},{"arcs":[[-871,-907,-978,1002]],"type":"Polygon","properties":{"name":"Eijsden-Margraten","shapeGroup":"NLD","gid":"NLD-2-314"},"id":"NLD-2-314"},{"arcs":[[-338,-377,-649,-696,-409,-949]],"type":"Polygon","properties":{"name":"Stichtse Vecht","shapeGroup":"NLD","gid":"NLD-2-315"},"id":"NLD-2-315"},{"arcs":[[-41,-1001,-487,-493,1003,-499,-469,-501]],"type":"Polygon","properties":{"name":"Hollands Kroon","shapeGroup":"NLD","gid":"NLD-2-316"},"id":"NLD-2-316"},{"arcs":[[-565,-646,-641,-592,-654,-652]],"type":"Polygon","properties":{"name":"Leidschendam-Voorburg","shapeGroup":"NLD","gid":"NLD-2-317"},"id":"NLD-2-317"},{"arcs":[[-572,1004,1005,-962,-819,-687,-942,1006,-638]],"type":"Polygon","properties":{"name":"Goeree-Overflakkee","shapeGroup":"NLD","gid":"NLD-2-318"},"id":"NLD-2-318"},{"arcs":[[-544,-567,-651,-919,-628]],"type":"Polygon","properties":{"name":"Pijnacker-Nootdorp","shapeGroup":"NLD","gid":"NLD-2-319"},"id":"NLD-2-319"},{"arcs":[[-532,-621,-637,1007,-1005,-571]],"type":"Polygon","properties":{"name":"Nissewaard","shapeGroup":"NLD","gid":"NLD-2-320"},"id":"NLD-2-320"},{"arcs":[[-355,1008,-618,-586,-537,-994,-560,-1002,-611]],"type":"Polygon","properties":{"name":"Krimpenerwaard","shapeGroup":"NLD","gid":"NLD-2-321"},"id":"NLD-2-321"},{"arcs":[[-47,-79,-960,-152,-448,-1000,-53]],"type":"Polygon","properties":{"name":"De Fryske Marren","shapeGroup":"NLD","gid":"NLD-2-322"},"id":"NLD-2-322"},{"arcs":[[-9,-478,-471,-406,-439,-416]],"type":"Polygon","properties":{"name":"Gooise Meren","shapeGroup":"NLD","gid":"NLD-2-323"},"id":"NLD-2-323"},{"arcs":[[-266,-286,-956,-319,1009,-860,-876]],"type":"Polygon","properties":{"name":"Berg en Dal","shapeGroup":"NLD","gid":"NLD-2-324"},"id":"NLD-2-324"},{"arcs":[[-711,-722,-813,-970,1010,-714,-928,-934,-796,-818]],"type":"Polygon","properties":{"name":"Meierijstad","shapeGroup":"NLD","gid":"NLD-2-325"},"id":"NLD-2-325"},{"arcs":[[-37,1011,-55,-999,-45,-72]],"type":"Polygon","properties":{"name":"Waadhoeke","shapeGroup":"NLD","gid":"NLD-2-326"},"id":"NLD-2-326"},{"arcs":[[-19,-738,-998,1012,-92,-947]],"type":"Polygon","properties":{"name":"Westerwolde","shapeGroup":"NLD","gid":"NLD-2-327"},"id":"NLD-2-327"},{"arcs":[[-5,1013,-995,-736,-21,-946,-979]],"type":"Polygon","properties":{"name":"Midden-Groningen","shapeGroup":"NLD","gid":"NLD-2-328"},"id":"NLD-2-328"},{"arcs":[[-842,-992,1014,-856,-866,-901,-905,-872]],"type":"Polygon","properties":{"name":"Beekdaelen","shapeGroup":"NLD","gid":"NLD-2-329"},"id":"NLD-2-329"},{"arcs":[[-234,-910,1015,-317]],"type":"Polygon","properties":{"name":"Montferland","shapeGroup":"NLD","gid":"NLD-2-330"},"id":"NLD-2-330"},{"arcs":[[-313,-787,-832,-763,-968,-550,-570,-553]],"type":"Polygon","properties":{"name":"Altena","shapeGroup":"NLD","gid":"NLD-2-331"},"id":"NLD-2-331"},{"arcs":[[-218,-299,-667,-277,-315,-556,1016,1017,-224]],"type":"Polygon","properties":{"name":"West Betuwe","shapeGroup":"NLD","gid":"NLD-2-332"},"id":"NLD-2-332"},{"arcs":[[-225,-1018,1018,-359,-383,-385,-349]],"type":"Polygon","properties":{"name":"Vijfheerenlanden","shapeGroup":"NLD","gid":"NLD-2-333"},"id":"NLD-2-333"},{"arcs":[[-529,-655,-545,-963,-1006,-1008,-636]],"type":"Polygon","properties":{"name":"Hoeksche Waard","shapeGroup":"NLD","gid":"NLD-2-334"},"id":"NLD-2-334"},{"arcs":[[-3,1019,1020,-69,1021,1022]],"type":"Polygon","properties":{"name":"Het Hogeland","shapeGroup":"NLD","gid":"NLD-2-335"},"id":"NLD-2-335"},{"arcs":[[-2,-952,-65,-70,-35,1023,-1020]],"type":"Polygon","properties":{"name":"Westerkwartier","shapeGroup":"NLD","gid":"NLD-2-336"},"id":"NLD-2-336"},{"arcs":[[-34,-993,-697,-56,-1012,-40,1024,-67,-1021,-1024]],"type":"Polygon","properties":{"name":"Noardeast-Fryslân","shapeGroup":"NLD","gid":"NLD-2-337"},"id":"NLD-2-337"},{"arcs":[[-360,-1019,-1017,-555,-569,-635,-613,-514,-619,-1009]],"type":"Polygon","properties":{"name":"Molenlanden","shapeGroup":"NLD","gid":"NLD-2-338"},"id":"NLD-2-338"},{"arcs":[[-4,-1023,1025,-996,-1014]],"type":"Polygon","properties":{"name":"Eemsdelta","shapeGroup":"NLD","gid":"NLD-2-339"},"id":"NLD-2-339"},{"arcs":[[-394,-465,-500,-1004,-492,-917]],"type":"Polygon","properties":{"name":"Dijk en Waard","shapeGroup":"NLD","gid":"NLD-2-340"},"id":"NLD-2-340"},{"arcs":[[-268,-877,-858,-851,-897,-926,-716,1026,-804,-309]],"type":"Polygon","properties":{"name":"Land van Cuijk","shapeGroup":"NLD","gid":"NLD-2-341"},"id":"NLD-2-341"},{"arcs":[[-715,-1011,-969,-805,-1027]],"type":"Polygon","properties":{"name":"Maashorst","shapeGroup":"NLD","gid":"NLD-2-342"},"id":"NLD-2-342"},{"arcs":[[-109,-985,-121,-130,-981]],"type":"Polygon","properties":{"name":"Hengelo (O)","shapeGroup":"NLD","gid":"NLD-2-343"},"id":"NLD-2-343"}]}}}