{"type":"Topology","arcs":[[[4887,14136],[131,-45],[-23,-32],[-60,-5],[-72,59],[24,23]],[[5305,13813],[-32,-40],[22,-22],[-9,-68],[-62,-1],[-27,-24],[-55,6],[-70,-23],[-76,25],[-74,-86],[-45,39],[-29,-13],[-78,35],[-20,53],[-122,131],[-44,-7],[-50,-39],[-26,-58],[-38,-17],[-67,1],[-35,-48],[3,-67],[-59,-128],[60,-116],[43,8],[47,-26],[43,-66],[-9,-83],[32,-37],[-4,-76],[-19,-54],[31,-19],[0,-63],[-18,-37],[61,-138],[56,-167]],[[4635,12588],[-39,-27],[-36,-65],[-82,-52],[-56,-13],[-39,-43],[-11,-67],[112,-63],[61,-9],[51,-28],[55,11],[49,-25],[142,-138],[21,-35],[7,-62],[37,-47],[-4,-65],[62,-53],[11,-125],[-79,-40],[-20,-26],[5,-46],[-21,-109],[8,-89],[-26,-29],[0,-74],[-66,-126]],[[4777,11143],[-115,42],[-48,4],[-49,57],[-153,28],[-102,66],[-135,44],[-83,108],[-73,10],[-109,99],[-83,-7],[-51,7],[-66,-18],[-77,-55],[-51,59],[-41,70]],[[3541,11657],[-58,59],[-50,26],[-53,61],[-147,11],[-46,27],[-48,-34],[-112,-12],[-76,34],[-66,-37],[-29,-45],[-35,38],[-58,16],[-45,-11],[-70,10],[-35,35],[-49,19],[-77,55],[-64,-19],[-37,-31]],[[2386,11859],[-16,45]],[[2370,11904],[-17,26],[-15,104],[-48,77],[-140,106],[34,70],[-26,58],[-99,67],[-71,17],[-58,44],[-79,-5],[-111,12],[-21,70],[-61,28],[-33,75],[-56,32],[-70,1],[-22,35],[-47,13],[-69,43],[-10,41],[-38,26],[-47,-16],[-59,39],[-10,55],[-54,74],[5,51],[-56,18],[-82,-47],[-47,2],[-102,-57],[-57,29],[0,2764],[661,136],[-11,55],[-39,32],[5,35],[-57,39],[-66,-13],[-53,52],[9,53],[-20,35],[50,46],[-26,73],[-48,-14],[-25,22],[-15,98],[38,49],[11,105],[77,-2],[25,18],[19,136],[31,18],[33,-22],[84,29],[43,-15],[3,-48],[89,-32],[19,-43],[51,-26],[76,59],[26,-1],[71,-59],[29,-51],[-19,-34],[30,-44],[27,17],[6,54],[62,16],[22,-60],[65,22],[54,-67],[14,-60],[88,14],[27,-32],[-15,-64],[80,-24],[27,-44],[31,15],[-16,63],[45,1],[7,-79],[57,-7],[6,-63],[-57,-41],[75,-47],[5,-73],[92,-18],[18,-64],[55,-3],[78,86],[7,-45],[63,-59],[72,-4],[18,58],[83,-29],[69,22],[37,41],[-2,96],[47,92],[-40,107],[5,49],[65,21],[94,-17],[48,-31],[57,-80],[44,-12],[41,66],[-82,85],[7,64],[166,-124],[290,-251],[351,-327],[31,-37],[36,5],[38,-29],[246,-233],[104,-66],[78,-14],[47,5],[56,45],[26,68],[67,-8],[-12,-87],[-46,-21],[-24,-119],[-16,-9],[28,-98],[-66,-56],[-37,-4],[-29,-39],[-48,-15],[-71,-157],[20,-70],[59,-51],[178,-116],[43,-52],[7,-46],[-85,-14],[-3,-73],[-55,-26],[-42,22],[-71,3],[-32,41],[-81,-4],[5,-88],[29,-82],[39,-46],[55,-28],[121,-33],[7,-23],[-33,-49],[-17,-75],[29,-48],[64,-46],[-1,-50],[44,-6],[74,-67],[26,3],[55,-38],[120,-11],[17,30],[-36,79],[75,-37],[52,2],[36,-25]],[[5305,13813],[47,32],[-78,88],[-6,37],[46,14],[55,-75],[32,-102],[-48,-11],[14,-59],[41,-20],[35,23],[62,-48],[72,52],[8,118],[-33,20],[10,63],[39,-7],[-10,-63],[34,-42],[22,-71],[61,2],[65,58],[-60,71],[4,56],[54,50],[43,9],[7,-76],[99,12],[-2,-55],[45,-18],[7,-61],[82,-39],[-17,-92],[35,-81],[45,-63],[-27,-53],[-46,2],[-71,36],[0,27],[-49,23],[-36,39],[-51,7],[-54,-17],[-68,26],[-32,30],[-83,-33],[-76,-6],[19,-93],[-46,1],[-67,-32],[-16,-55],[36,-77],[-17,-78],[94,-53]],[[5525,13229],[-37,1],[-74,51],[-105,9],[-45,68],[3,46],[-40,12],[-28,70],[-65,29],[-20,-18],[-84,-6]],[[5030,13491],[-13,-6]],[[5017,13485],[-39,-27],[-39,2],[-43,-35],[-1,-95]],[[4895,13330],[-21,-65],[-66,-61],[17,-59],[36,-36],[-58,-33],[23,-67],[-19,-31],[11,-73],[-27,-106],[8,-62],[-23,-36],[-43,-8],[25,-71],[-25,-22],[-98,-12]],[[5409,15499],[97,-48],[21,-34],[-12,-39],[40,-80],[68,-101],[47,-54],[7,-39],[-30,-30],[-16,-126],[-48,4],[-50,-62],[23,-42],[92,-28],[-14,-49],[-66,-18],[-63,48],[42,13],[-39,102],[-32,-14],[-87,42],[-18,41],[-37,-22],[-22,51],[-85,30],[-34,30],[-42,161],[-67,-8],[-28,33],[-35,0],[-6,73],[56,25],[-13,62],[78,-4],[95,32],[77,58],[47,-13],[54,6]],[[6395,14057],[32,-40],[65,33],[22,-12],[57,-91],[-17,-43],[75,-94],[-38,-34],[-84,32],[5,-49],[84,-61],[86,-11],[37,17],[20,-42],[-77,-79],[-49,-30],[-7,-49],[22,-22],[-6,-134],[-147,48],[-52,31],[-116,94],[-62,-11],[-56,64],[52,60],[-30,87],[33,92],[45,-6],[42,-37],[22,45],[-41,28],[-5,65],[-44,38],[51,17],[-17,52],[65,65],[33,-23]],[[5979,14861],[141,-29],[83,29],[37,-36],[42,3],[57,-94],[82,-70],[48,-17],[72,15],[141,-78],[54,-129],[-85,19],[-117,-22],[-91,-78],[-44,-25],[-24,-36],[-77,-58],[1,-28],[47,-38],[-20,-36],[-48,12],[-66,61],[13,69],[36,40],[11,64],[-54,8],[-12,63],[-32,54],[-68,70],[18,12],[59,-33],[65,2],[-48,61],[-6,29],[-70,51],[-46,64],[-40,-16],[-163,31],[-17,62],[3,61],[58,33],[0,-47],[60,-43]],[[5325,14463],[108,-34],[3,63],[41,-4],[38,-41],[8,-66],[49,-22],[16,-72],[38,-21],[6,-119],[-75,0],[-45,-23],[-26,-78],[16,-34],[47,-33],[-11,-40],[-91,-16],[-65,46],[-47,18],[3,42],[-81,70],[15,46],[-25,78],[-17,10],[23,146],[-12,22],[31,66],[53,-4]],[[7007,13662],[33,-34],[55,-5],[-3,-62],[54,-38],[15,-45],[52,3],[-7,-45],[-43,-64],[-57,-18],[-29,11],[-114,99],[-17,-6],[-58,49],[24,36],[21,74],[-2,68],[15,33],[61,-56]],[[5792,14752],[147,-78],[99,-43],[65,-56],[19,-62],[-106,45],[-93,10],[-29,48],[-48,32],[-73,84],[19,20]],[[6214,13530],[-2,-58],[30,-19],[-94,-52],[-52,59],[6,38],[46,4],[41,49],[25,-21]],[[6093,14292],[-16,-48],[-44,-35],[-18,36],[78,47]],[[5525,13229],[-34,-21],[-75,42],[-36,-11],[-25,-49],[44,-60],[109,-44],[85,-72],[-10,-88],[-6,-177],[14,-56],[-26,-55],[4,-48],[-26,-32],[-42,23],[-26,-47],[58,4],[44,-26],[41,-77],[36,23],[36,-18],[86,-3],[40,-61],[204,15],[-10,49],[45,15],[19,-27],[99,-30],[21,18],[88,-60],[44,29],[47,-22],[28,-44],[-6,-81],[119,-123],[25,-125],[47,-16]],[[6586,11974],[47,-24],[61,-4],[22,-41],[-53,-42],[5,-54],[-34,-16],[-225,38],[-135,-46],[-68,-62],[-18,-86],[-73,-46],[33,-41],[-3,-63],[-85,-56],[-27,57],[-48,30],[-5,68],[42,23],[-16,119],[-39,52],[-85,-19],[-95,18],[29,55],[-4,112],[46,3],[21,-42],[64,-19],[13,131],[-28,41],[62,15],[-16,87],[-43,-5],[-53,64],[-31,-21],[-71,82],[-43,-4],[-56,46],[-47,-29],[-64,40],[-67,-8],[-22,29],[7,48],[-23,21],[-39,-33],[-24,29],[7,45],[32,28],[-37,65],[-31,-57],[-51,24],[-19,31],[-53,-100],[-46,6],[-109,76],[35,89],[-53,8],[37,109],[36,27],[22,-34],[46,-4],[-8,55],[-40,37],[52,32],[30,-14],[23,68],[36,27],[73,-4],[22,44],[-8,110],[-41,-9],[-42,-42],[-57,12],[18,69],[-53,-1],[-80,67],[-61,27],[-17,34],[105,-18],[9,73],[38,54],[-78,70],[-98,27],[-7,39]],[[6897,11965],[20,55],[33,-7]],[[6950,12013],[92,4],[43,-42],[-9,-28],[-146,-149],[-52,25],[-33,-38],[-42,35],[-16,44],[62,18],[33,-52],[52,28],[-37,107]],[[7295,12153],[-44,-15],[-29,-45],[-3,-93],[-31,-18],[-9,-46],[17,-52],[-40,-45],[1,-44],[-47,-44],[-37,21],[-10,50],[66,-10],[-23,46],[58,54],[-14,47],[44,87],[-20,26],[21,66]],[[7195,12138],[51,21],[49,-6]],[[5017,13485],[-12,-60],[-48,-33],[-12,-56],[-50,-6]],[[2386,11859],[39,-32],[-28,-136],[-67,-113],[-59,-29],[-7,-140],[-43,-77],[-39,-16],[12,-73],[-45,-118],[73,25],[54,34],[26,-29],[70,-35],[18,-125],[22,-43],[87,-62],[31,-45],[16,-155],[-113,-198],[-48,4],[-119,-76],[27,-37],[-68,-40],[-12,-75],[12,-39],[-13,-47],[-40,-28],[0,-70],[27,-54],[-26,-38],[-17,-79],[-47,-79],[-13,-120],[34,-46],[-10,-42],[-80,31],[-6,37],[-59,25],[-15,-36],[-72,-24],[-19,-51],[-84,-116],[-44,3]],[[1741,9495],[5,37],[-33,28],[-122,63],[-64,15]],[[1527,9638],[38,40],[-29,45],[18,105],[-15,97],[-34,19],[-5,48],[-52,70],[-45,22],[-47,51],[-16,78],[-36,41],[-25,91],[-24,15],[-67,-14],[-57,84],[-79,91],[-8,61],[-25,38],[-37,0],[-62,44],[-12,43],[81,57],[-40,10],[6,77],[33,27],[64,5],[33,-23],[59,161],[147,74],[24,88],[-59,6],[-68,27],[-21,51],[113,122],[77,39],[116,27],[35,-5],[133,51],[23,60],[90,37],[70,5],[69,-10],[52,36],[14,30],[47,-9],[93,84],[31,85],[135,58],[36,29],[69,-2]],[[8463,7900],[21,-58],[-28,-21],[-44,-112]],[[8412,7709],[-59,-8],[-8,-51],[-59,-205],[-52,-72],[15,-58],[51,-46],[-4,-41],[102,-32],[-32,-72],[70,-74],[15,-63],[31,-55],[33,-6],[10,-53],[-50,-71],[-60,-31],[21,-66],[-39,-56]],[[8397,6649],[-57,-3],[-346,123],[24,29],[-81,27],[-42,-25],[-120,32],[-147,7],[-36,28],[20,53],[-31,34],[124,191],[18,38],[-48,50],[-17,106],[-17,0]],[[7641,7339],[-92,26],[-39,39],[-25,-13],[-79,37],[18,98],[-58,49],[47,32],[-62,26],[-17,57]],[[7334,7690],[33,23],[68,-25],[29,85],[31,-42],[57,6],[55,-18],[10,46],[55,25],[60,-46],[51,-8],[-19,67],[86,-7],[8,46],[49,-7],[52,31],[56,-31],[1,-75],[65,-12],[12,88],[34,20],[110,-21],[52,42],[151,0],[23,23]],[[1741,9495],[-89,-82],[-151,-107],[-9,-34],[39,-44],[-14,-58],[43,-34],[24,-97],[-30,-130],[23,-33],[-6,-73],[-27,-32],[-4,-105],[47,-1],[7,-42],[41,0],[68,-42],[58,2]],[[1761,8583],[-1,-37],[60,-42],[58,-16],[-19,-44],[52,-43],[-12,-112],[48,-38],[-23,-29],[23,-44],[78,-21],[34,-73],[143,-64],[16,-30],[94,-33],[11,-44],[50,2],[13,-51],[30,-24]],[[2416,7840],[-37,-55],[-134,-20],[-149,-63],[-163,-37],[-104,-12],[-128,-67],[-114,-10],[-134,-59],[-29,-45],[-69,-45],[-43,-94],[-67,-95],[-23,-101],[5,-56],[-20,-53],[8,-83],[21,-26],[-15,-43],[12,-77],[-15,-24],[10,-99],[-15,-115],[19,-37],[-1,-67],[18,-39],[-10,-80],[60,-114],[52,-72],[4,-75],[31,-84],[-40,-69],[-48,-19],[-24,-30],[15,-79],[-22,-59],[-48,-14],[-64,36],[-43,-5],[-63,38],[42,101],[-12,44],[30,94],[29,34],[-6,97],[-27,74],[17,49],[-75,127],[-16,68],[-33,28],[-13,97],[1,74],[48,52],[-67,18],[10,128],[-45,-15],[-66,102],[-64,8],[24,69],[7,110],[25,41],[-72,64],[4,76],[-29,71],[-71,-33],[-27,85],[-79,-8],[-56,72],[-34,-21],[-39,-94],[-27,-11],[-73,126],[-15,46],[-76,46],[-74,16],[13,46],[-83,19],[-20,31],[-60,-18],[-2,40],[-38,65],[35,48],[-9,30],[135,70],[67,-10],[14,31],[43,-6],[62,42],[8,32],[48,28],[30,52],[38,-29],[52,63],[43,33],[21,56],[40,17],[4,44],[42,29],[5,42],[129,73],[32,74],[118,-40],[324,84],[187,265],[52,162],[-11,46],[5,97],[-36,59],[-12,89],[74,80],[51,74],[-22,88],[-50,84],[8,21]],[[1761,8583],[-2,11],[519,103],[155,-26],[26,-47],[84,8],[4,58],[89,37],[64,-43],[43,-1],[74,-49],[101,-6],[52,-28],[28,27]],[[2998,8627],[250,65],[342,-22]],[[3590,8670],[65,-185],[8,-114],[-19,-54],[118,-27],[-10,-28],[29,-44],[6,-54],[-7,-102],[28,-36],[87,0],[17,-46],[65,-86],[36,-6],[-38,-72],[33,-35],[11,-46],[33,-7]],[[4052,7728],[-57,-35],[-12,-49],[-55,-60],[-25,-5],[-96,24],[73,-66],[110,41],[109,-32],[-21,-46],[-54,-46],[-88,-8],[-19,20],[-82,32],[24,-58],[-285,102],[-540,148],[-274,89],[-30,38],[-170,-1],[-32,21],[-33,-20],[-79,23]],[[2998,8627],[24,40],[7,54],[27,18],[2,76],[28,31],[17,111],[-7,96],[29,17],[-20,105],[-32,36],[-11,106],[49,78],[18,77],[39,77],[0,135],[18,52],[-15,31],[29,69],[-46,115],[-1,68],[-50,88],[-17,118],[10,36],[-35,33],[-39,156],[-30,57],[-15,90],[7,107],[17,58],[-12,76],[58,52],[34,122],[-3,58],[120,60],[39,-9],[14,-72],[32,-12],[81,6],[176,83]],[[3540,11126],[-121,-268]],[[3419,10858],[74,-340],[91,-583],[-6,-54],[15,-48],[-7,-43],[20,-132],[19,-23],[5,-98],[43,-206],[-19,-69],[16,-90],[-11,-99],[-48,-33],[24,-32],[14,-59],[44,-89],[-23,-70],[23,-55],[-103,-65]],[[4777,11143],[134,-68],[80,-17],[91,-5],[79,-101],[256,-8],[25,-19],[65,0]],[[5507,10925],[-2,-55],[-53,-56],[-6,-34],[-69,-52],[-43,-69],[-2,-75],[-41,-49],[2,-109],[14,-61],[25,-31],[-16,-31],[-44,-13],[-124,37],[-68,-32],[-81,-13],[-8,-42],[-87,-14],[-4,-62],[-32,-62],[60,-47],[2,-29],[-60,-26],[-48,-62],[8,-47],[-28,-26],[26,-53]],[[4828,9812],[-64,-32],[-69,38],[-20,45],[-68,95],[-32,4],[-17,-70],[14,-54],[-33,-127],[-61,-57],[-43,-17]],[[4435,9637],[-62,54],[-15,33],[-46,28],[-32,42],[-1,38],[-45,68],[-69,148],[14,30],[-54,79],[-5,176],[-63,109],[-37,115],[-75,40],[-50,91],[-67,27],[-28,92],[-75,102],[-306,-51]],[[3540,11126],[1,531]],[[5507,10925],[78,-1],[130,-57],[2,93],[25,14],[66,-9],[132,-100],[77,1],[53,-42],[143,17]],[[6213,10841],[-7,-1074],[37,-27],[25,-57],[-15,-17],[-2,-88],[-66,-29],[-46,-119],[-46,-79],[14,-59],[32,-41],[56,22],[-33,103],[30,105],[84,13],[5,-52],[59,-6],[21,37],[59,33],[15,-45],[-87,-52],[5,-33],[-45,-18],[-3,-47],[-28,-60],[-82,0],[-1,-37],[43,-14],[32,-38],[6,-74],[-79,-18],[-5,-55],[-111,-86],[-20,-63],[4,-46],[-4,-4]],[[6060,8816],[-67,-16],[-71,-83],[-35,34],[-55,-48],[29,-189]],[[5861,8514],[-6,-26],[-186,-13],[-88,9],[-45,-10],[-58,14],[-66,66],[-42,-30],[-91,32],[-11,17],[52,79],[1,79],[-61,96],[-46,34],[-6,112],[-41,44],[-3,33],[-48,71],[-10,63],[-33,30],[-14,59],[-15,167],[19,30],[-12,44],[-57,65],[-132,206],[-34,27]],[[10640,7513],[-42,16],[-87,80],[-42,22],[12,51],[46,34],[-74,45],[-30,52],[-20,67],[-67,-112],[-56,64],[27,66],[58,42],[33,40],[49,-21],[30,41],[82,-24]],[[10559,7976],[-1,-17],[30,-3],[27,-43],[36,-9],[47,-67],[-31,-117],[31,-44],[-22,-65],[17,-68],[-53,-30]],[[9746,5741],[49,-23],[0,-40],[-36,-27],[-45,-87]],[[9714,5564],[-197,112],[-25,-1],[-31,50],[-41,21],[64,67],[132,-17],[52,-28],[78,-27]],[[9136,6529],[130,-129],[47,-162],[-51,-95],[-42,112],[-43,62],[-83,61],[-60,20],[-27,36],[51,86],[78,9]],[[9190,7002],[9,23],[75,32],[28,44],[-54,121],[-61,50],[-18,99],[-34,28]],[[9135,7399],[32,36],[45,-35],[50,5],[-20,42],[-39,32],[3,44],[39,15],[-28,47],[77,6],[73,128],[56,10],[12,-43],[-29,-40],[14,-29],[-27,-14],[-18,6],[-10,-29],[-33,-17],[-28,-98],[27,-58],[34,8],[11,78],[-14,68],[23,36],[40,-20],[13,35],[44,-1],[3,-47],[67,-21],[10,-40],[67,43],[25,-16],[-32,-49],[24,-85],[50,1],[-7,39],[43,25],[56,100],[58,-33],[38,25],[6,-85],[35,24],[-41,83],[65,117],[-14,56],[35,47],[-15,23],[30,100],[70,5],[35,55],[-25,28],[72,73],[35,-19],[38,-103],[42,-19],[-12,-112],[-57,-58],[40,-25],[18,-52],[-10,-63],[-37,-32],[-66,41],[5,33],[-124,36],[50,-70],[12,-101],[89,46],[15,-96],[31,-41],[72,3],[-25,69],[28,93],[35,64],[94,-20],[56,-92],[-73,-65],[-3,-31],[-48,-38],[1,-58],[39,17],[50,-66],[23,13],[-49,71],[44,28],[11,-46],[52,-37],[-2,-42],[50,-38]],[[10561,7269],[13,-28],[-57,-60],[-16,-54]],[[10501,7127],[-10,-14]],[[10491,7113],[-50,4],[-14,-47],[-56,-15],[-13,-70],[34,-79],[-4,-51],[-63,-31],[-62,-5],[-107,-101],[-4,-33],[-60,0],[-15,-36],[25,-46],[-92,-8],[-24,-16],[-26,-68],[10,-42],[-56,-49],[26,-34],[-22,-88],[28,-21],[-23,-71],[-50,-40],[-21,-79],[11,-54],[-42,-114],[-72,-1],[22,-50],[74,-63],[-23,-41],[-74,-10]],[[9748,5754],[-81,17],[-55,32],[-169,19],[-58,18],[-23,-31],[7,-93],[-34,-11],[-49,18],[-33,45],[16,35],[50,41],[-18,47],[-61,71],[-94,36],[-41,56],[64,5],[39,-33],[77,-16],[105,87],[38,-41],[73,-27],[-70,95],[-25,17],[-38,83],[-16,92],[-100,148],[-48,40],[-37,51],[-60,144],[-26,-11],[-37,48],[-23,91],[-43,78],[-25,7],[49,124],[17,-2],[6,-25],[13,-5],[65,19],[11,-54],[8,-13],[6,-3],[33,10],[29,39]],[[10252,7157],[-24,-38],[-37,-6],[11,-50],[48,13],[89,-5],[-39,96],[31,44],[-29,28],[-101,-40],[-70,11],[-60,-30],[13,-83],[107,24],[61,36]],[[9919,7351],[84,-55],[-53,-29],[10,-29],[60,0],[15,-46],[43,73],[39,1],[27,35],[-87,15],[-2,42],[66,2],[-21,57],[-92,-64],[-89,-2]],[[7641,7339],[22,-46],[-26,-45],[73,-75],[-125,-140],[-89,-18],[-13,-58],[40,-19],[-5,-41],[-61,-1],[-111,21],[-41,33],[-79,95],[-53,12],[1,29],[-47,27],[29,33],[-16,57],[-26,2],[-19,-20],[-46,0],[-15,-9],[0,-17],[46,-50],[-46,-19],[-6,-13],[20,-36],[56,-13],[48,17],[73,-36],[-22,-50],[-181,54],[-92,13],[-82,-15],[-48,16],[-67,-5],[-133,38],[-95,16],[-24,51],[-56,19],[33,-70],[44,-52],[-16,-37],[-106,-35],[-35,-29],[-16,-100],[6,-59],[-26,-64],[-27,-28],[-63,1],[23,75],[51,29],[3,46],[-21,35],[-57,-9],[-18,29],[23,61],[41,-7],[24,27],[-50,70],[-42,15],[-61,-16],[23,-65],[-207,-40],[-29,52],[-7,64],[-104,-17],[-52,10],[2,78],[46,37],[37,6],[85,98],[-36,41],[38,35],[33,-8],[-5,91],[-39,48],[-45,-8],[-22,-69],[-67,24],[-28,94],[31,25],[24,63],[-29,44],[30,82],[68,-71],[38,15],[48,51],[-22,24],[-46,-65],[-34,5],[-7,55],[22,54],[-44,11],[-22,39],[28,44],[30,6],[171,-22],[74,-35],[59,-13],[40,40],[-21,22],[-94,-4],[-162,44],[-143,-8],[-35,56],[39,77],[-8,60],[68,34],[-3,63]],[[5858,8195],[-41,84],[-61,88],[16,55],[67,26],[42,31],[-20,35]],[[6060,8816],[7,-9],[34,-31],[-14,-39],[-50,-43],[20,-52],[70,-20],[86,4],[45,22],[48,-5],[28,27],[46,7],[53,-23],[40,44],[22,-45],[72,41],[41,0],[24,36],[52,-14],[12,50],[-15,43],[58,19],[33,52],[71,-64],[-27,-56],[37,-13],[18,-73],[29,6],[14,-110],[68,-50],[-58,-38],[44,-44],[39,21],[5,-67],[70,31],[30,52],[40,-39],[9,-40],[-36,-33],[-5,-69],[-65,-33],[-6,-52],[52,-17],[78,8],[-4,-28],[-82,-89],[68,-45],[-35,-36],[62,-66],[13,-42],[60,-23],[11,-62],[65,4],[4,4]],[[7341,7817],[62,-26],[-30,-38],[-57,-31],[18,-32]],[[5333,7142],[146,-27],[181,-64],[37,-27],[88,-8],[35,-41],[-37,-20],[-59,40],[-57,-36],[-66,36],[-137,-83],[-22,-67],[53,-35],[74,-7],[24,-34],[-24,-51],[-49,9],[-17,60],[-84,61],[-75,18],[-79,42],[-70,5],[-105,136],[1,49],[48,-2],[41,-37],[77,3],[16,65],[60,15]],[[5926,7386],[12,-49],[-50,-39],[9,-39],[-31,-61],[-31,-22],[-34,30],[-2,50],[43,85],[38,39],[46,6]],[[7140,7179],[-16,-51],[-8,-15],[15,-15],[28,-4],[-11,-35],[-48,-26],[-38,9],[-27,36],[40,20],[8,15],[-48,60],[57,8],[29,23],[19,-25]],[[5699,7148],[40,2],[8,-71],[-95,11],[-14,43],[61,15]],[[6955,5235],[28,-13],[20,-49],[-92,0],[-22,65],[66,-3]],[[7061,5457],[15,-67],[57,-14],[15,-36],[-21,-28],[-71,52],[-12,55],[17,38]],[[7260,5168],[-45,-43],[-9,53],[54,-10]],[[8412,7709],[52,-86],[92,-6],[-44,-57],[54,-109],[68,14],[69,-47],[49,28],[63,-60],[59,-2],[75,46],[45,45],[48,-25],[11,21]],[[9053,7471],[29,-29],[-26,-33],[-9,-87],[66,35],[22,42]],[[9190,7002],[-31,-38],[-33,-8],[-11,54],[-14,16],[-40,9],[-31,-24],[-7,25],[-24,5],[-10,-6],[-49,-96],[4,-56],[29,-29],[-28,-88],[9,-54],[-39,-25],[-75,50],[-29,-40],[-33,-4],[18,-84],[42,0],[81,-54],[33,-35],[-29,-40],[-107,-38],[-54,3],[-134,128],[-192,46],[-39,30]],[[8852,6693],[147,-30],[32,-16],[-36,-60],[-106,11],[-54,27],[-37,-4],[-3,72],[57,0]],[[4435,9637],[51,-78],[17,-54],[32,-20],[15,-47],[33,-27],[8,-47],[37,-47],[23,-57],[54,-53],[-3,-54],[35,-63],[-16,-93],[30,-51],[-86,-13],[-47,102],[-81,15],[-54,-28],[10,-31],[-30,-57],[24,-64],[-49,-64],[-47,55],[-119,20],[8,44],[-39,48],[-55,9],[-9,71],[26,77],[-60,60],[-56,96],[-102,83],[-56,99],[-25,5],[-12,53],[-27,16],[-26,91],[-27,19],[-15,54],[-35,30],[9,61],[-44,108],[-30,17],[-40,69],[-20,65],[7,55],[-30,121],[-44,62],[19,82],[-25,77],[17,66],[-9,107],[20,59],[-173,173]],[[16049,6778],[-21,42],[23,72],[46,-2],[16,36],[63,59],[-8,64],[27,77],[28,31],[-6,55],[42,44],[-44,44],[18,34],[-12,86],[31,44],[29,89],[30,33],[-11,72],[13,27],[7,103]],[[16320,7788],[139,-50],[43,5],[38,-38],[61,1],[20,-39],[42,-10],[55,-53],[58,16],[34,27],[66,-53],[73,-23],[23,-75],[52,-21],[38,8],[61,-47],[-5,-32],[43,-23],[23,17],[73,9],[63,-24],[81,-13],[53,53],[50,2],[29,-26],[82,35],[126,8],[66,-53],[-24,-59],[14,-70],[-58,-68],[38,-28],[91,1],[38,-25],[18,-61]],[[17924,7079],[-30,-28],[-35,-79],[-6,-43],[24,-84],[-21,-48],[-42,-35],[-12,-161],[16,-195],[55,-180],[-36,-62],[-65,-4],[-55,77]],[[17717,6237],[-65,33],[0,-52],[-50,6],[-5,53],[-33,-3],[-70,90],[-44,-5],[8,-41],[-90,11],[-10,-67],[-23,-14]],[[17335,6248],[-36,27],[31,83],[-75,65],[-36,11],[-39,42],[-40,-58],[-80,22],[43,34],[-8,52],[-53,-40],[-115,9],[-84,-14],[-79,-31],[-36,-36],[-43,12],[-71,-22],[-136,30],[-39,37]],[[16439,6471],[-61,13],[-57,54],[12,46],[-29,17],[-59,-10],[-50,35],[31,40],[-106,57],[-71,55]],[[18557,7625],[39,26],[30,-34],[68,-2],[17,105],[-27,72],[41,12],[10,37],[83,14],[49,22],[14,51],[-5,91],[28,116],[-27,68],[69,58],[-6,68],[16,130],[51,70],[-15,28],[27,70],[-39,56],[39,42],[3,50],[32,14],[26,203],[50,103],[77,38],[47,43],[-6,66],[35,51],[60,2],[63,-18],[80,28],[94,89],[13,54],[71,16],[69,33],[50,43],[41,7],[90,49],[42,195],[180,3],[10,44],[90,166],[36,-7],[117,76]],[[20389,10073],[41,-47],[-10,-68],[13,-35],[45,0]],[[20478,9923],[-7,-32],[37,-135],[-32,-77],[-3,-67],[-63,15],[-61,-26],[36,-52],[37,-22],[20,-59],[-18,-55],[34,-72],[27,-9],[52,-111],[37,-47],[-45,-108],[10,-80],[-25,-39],[35,-133],[30,-2],[10,-69],[38,-21],[66,-68],[5,-33],[113,-213],[39,-35],[47,-18]],[[20897,8355],[-44,-31],[-163,-77],[-317,-199],[-83,-33],[-98,-80],[-244,-150],[-312,-141],[-151,-54],[-24,14],[-90,3],[-173,-31],[-31,52],[-93,14],[-181,-40],[-118,11],[-72,-13],[-143,-79],[-30,27],[-18,59],[45,18]],[[18274,11674],[33,-391],[-24,-458],[-141,-251],[93,-143],[249,-73],[39,-48],[0,-47],[28,-92],[-27,-64],[-44,-12],[-95,-126],[-1,-47],[-26,-15],[0,-126],[46,-296],[-12,-47],[-56,-8],[-61,25],[-101,-35],[-14,-91],[-64,-13],[26,-60],[39,-33],[22,-71],[-228,-79],[-405,-171]],[[17550,8902],[-5,48],[-38,53],[-56,114],[-31,23],[6,240],[-107,29],[-54,34],[-93,-13],[-127,97],[-68,-26],[-50,21],[-27,54],[-44,31],[-100,-34],[-41,-33],[-36,0]],[[16679,9540],[-20,42],[-100,38],[-58,-20],[-83,11],[-109,102],[-142,108],[-5,24]],[[16162,9845],[73,158],[136,30],[12,75],[-16,41],[-59,20],[-39,136],[20,52],[-10,65],[23,50],[47,27],[3,30],[58,55],[-3,85],[-24,62],[13,41],[49,15],[39,48],[42,6],[34,32],[84,25],[17,23],[-16,57],[28,10],[69,-36],[54,19],[66,2],[17,-20],[-14,-60],[480,123],[45,-5],[-54,79],[16,30],[80,44],[-14,90],[10,61],[-23,23],[23,50],[-11,64],[-39,68],[10,54],[-56,-10],[-25,49],[3,54],[51,2],[11,53],[-17,82],[40,22],[0,46],[30,20],[-44,37],[6,63],[63,24],[46,-15],[35,-49],[63,-17],[31,23],[44,-60],[20,23],[54,-7],[93,-60],[177,6],[89,-62],[39,-67],[107,-61],[26,4]],[[16320,7788],[-28,64],[-77,32],[-39,62],[-24,14],[15,56],[-18,39],[22,48],[-215,379],[-26,66],[21,25],[-2,71],[-74,88],[-79,70],[-51,3],[16,176],[-70,61],[-42,51],[-12,39],[-34,11],[-18,44],[-71,23],[-36,66],[-63,48]],[[15415,9324],[58,23],[6,25],[70,59],[74,-24],[72,-41],[51,11]],[[15746,9377],[116,-35],[65,-7],[102,18],[53,-69],[-45,-431],[35,-209],[106,-251],[99,-24],[137,-179],[477,-127],[235,218],[-17,70],[170,172],[-5,56],[-68,42],[-44,70],[27,47],[-10,100],[-73,-14],[21,232],[-234,196],[-76,26],[-40,43],[-63,10],[-4,123],[-31,86]],[[17550,8902],[30,-114],[23,-11],[72,-96],[-13,-55],[23,-32],[-17,-71],[56,-80],[14,-44],[-29,-43],[-9,-51],[53,-38],[36,-55],[16,-52],[27,-6],[-13,-67],[11,-41],[51,16],[4,-56],[-35,-33],[19,-28],[-22,-51],[41,-72],[57,-36],[69,0],[13,42],[58,51],[106,-32],[15,47],[64,-7],[42,45],[62,16],[56,-32],[-35,-63],[25,-54],[69,27],[21,-30],[-12,-40]],[[18498,7756],[-38,-15],[-17,-43],[20,-99],[-3,-59],[-61,4],[-53,-20],[-67,-79],[-57,-40],[-58,-120],[-69,-47],[11,-51],[-142,-118],[-40,10]],[[15746,9377],[37,54],[6,61],[24,13],[54,80],[57,35],[28,43],[-9,44],[24,164]],[[15967,9871],[151,-27],[44,1]],[[18557,7625],[-60,-6],[-36,70],[37,67]],[[18274,11674],[80,-59],[40,12],[155,1],[33,-15],[28,-47],[36,-9],[10,-74],[201,203],[677,679],[43,11],[40,-65],[44,-1],[25,83],[37,20],[15,40],[6,82],[17,17],[2,111],[21,18],[-16,98],[75,68]],[[19843,12847],[-1,-46],[32,-25],[4,-40],[48,-1],[-9,-52],[42,-49],[-48,-54],[29,-114],[31,-32],[-30,-75],[32,-31],[15,-98],[48,-5],[36,-28],[70,8],[18,-45],[30,-7],[6,-48],[30,-12]],[[20226,12093],[-28,-52],[36,-22],[18,-95],[-34,5],[-19,-39],[-33,10],[-24,-43],[-47,-25],[-44,-91],[-35,-41],[-3,-103],[20,-49],[-10,-35],[20,-57],[-19,-52],[-46,-44],[55,-52],[28,-73],[-10,-63],[35,-33],[-13,-44],[33,-48],[-7,-36],[60,-31],[-9,-47],[78,-93],[41,-6],[61,-71],[4,-98],[20,-71],[41,-13],[10,-34],[-23,-42],[35,-38],[-17,-42],[35,-112],[-17,-72],[-44,-62],[0,-77],[15,-29]],[[7341,7817],[1,5],[149,36],[27,84],[50,50],[49,15],[14,63],[52,83],[32,-5],[44,83],[38,0],[54,45],[49,66],[-15,26],[44,65],[33,13],[-9,111],[46,99],[-30,37],[-2,62],[-69,82],[-3,1128]],[[7895,9965],[22,3],[39,64],[51,43],[53,11],[79,-57],[23,-35],[2,-157],[65,-201],[41,-36],[90,-13],[19,-55],[58,-23]],[[8437,9509],[-3,-58],[15,-43],[-45,-91],[29,-174],[42,-39],[34,-75],[-31,-119],[-22,-27],[-5,-108],[45,-45],[13,-41],[80,-56],[19,-66],[58,-65],[-10,-41],[18,-39],[-14,-80],[-22,-40],[-13,-70],[21,-36],[-1,-51],[-27,-50],[-8,-67],[-53,-32],[8,-44],[-60,-13],[-42,-39]],[[6586,11974],[62,14],[68,-31],[14,-30],[43,-11],[72,52],[-3,46],[59,-2],[-4,-47]],[[6950,12013],[-7,31],[120,17],[51,21],[81,56]],[[7295,12153],[41,-16],[69,-80],[41,-27],[33,5],[35,-45],[39,-13],[86,55],[116,50],[50,52],[29,68],[-21,103],[49,-7],[30,34],[95,-14],[-1,-61],[28,-36],[-27,-79],[49,1],[12,29],[100,0],[112,63],[71,-57],[83,7],[96,-38],[95,-78],[-67,-3],[7,-30],[89,0],[13,-31],[116,40],[69,60],[38,76],[27,110],[-48,57],[12,33]],[[8861,12381],[163,23],[20,-104],[-5,-55],[-31,-90],[-6,-121],[57,-117],[-28,-79],[-62,-502],[52,-72],[-13,-41],[64,-50],[-16,-79],[32,-99],[-20,-79],[58,-19],[50,-43],[2,-72],[50,-40],[97,-13],[65,-52],[-52,-33],[48,-32],[33,-47],[5,-54],[97,-37],[65,-76],[65,-33],[26,-48],[44,-24],[53,-103],[62,-33],[36,-41],[10,-109],[-48,-40],[-38,-110],[54,-49],[42,-63],[14,-57],[55,-23],[9,-71]],[[9970,9594],[-26,-133],[-37,-49],[-86,-8],[-46,30],[-111,0],[-45,-25],[-71,0],[-50,-34],[18,-24],[-7,-102],[-38,-64],[-34,-24],[-8,-64],[-66,-68],[-63,-14],[-40,32],[-62,-5],[-53,-36],[-66,31]],[[9079,9037],[-43,-26],[-37,-56],[-71,-8],[-86,78],[-75,39],[-37,64],[2,48],[-184,131],[-55,68],[-56,134]],[[7895,9965],[-100,-39],[-135,-8],[-47,38],[-89,13],[-51,-26],[-62,9],[-39,29],[-141,-35],[-53,27],[-78,16],[-83,-48],[-59,-19],[-61,1],[-36,27],[-62,-5],[-32,-41],[-97,28],[-49,28],[-127,24],[-50,22],[-47,87],[48,65],[10,122],[-42,66],[18,79],[70,58],[13,74],[31,27],[1,95],[-41,43],[22,74],[-48,51],[-57,-17],[-31,13],[-130,-16],[-48,14]],[[10306,13179],[54,-25],[64,17],[30,-47],[-2,-42],[-108,2],[-62,-8],[-3,53],[-29,45],[56,5]],[[8861,12381],[2,56],[-51,73],[-59,5],[-12,24],[-67,12],[-19,27],[-73,5],[-38,26],[-43,2],[-55,62],[-43,28],[-12,43],[-63,37],[-19,37],[-65,36],[19,53],[-18,57],[-35,10],[-54,103],[-147,107],[-10,30],[-106,57],[-50,43],[-113,48],[-56,41],[21,67],[40,-33],[63,11],[47,43],[50,-55],[66,-30],[16,58],[78,-20],[17,-21],[63,-14],[16,41],[58,43],[-2,26],[-97,29],[-57,-3],[-26,23],[-65,-27],[-59,45],[-31,51],[-9,88],[66,11],[38,-21],[81,27],[46,-29],[38,12],[68,-104],[33,-12],[11,-53],[67,-66],[17,-45],[82,-49],[48,-1],[44,-69],[46,-33],[-113,-28],[-7,-39],[19,-73],[53,-44],[-21,-38],[34,-60],[34,-100],[36,-15],[49,37],[34,-30],[70,-10],[37,25],[53,-29],[78,-8],[66,8],[1,-57],[88,-77],[71,-14],[34,-46],[68,-8],[39,-35],[15,-89],[127,-203],[165,-191],[138,-187],[273,-312],[326,-315],[24,-9],[182,-144],[147,-97],[131,-49],[70,20],[8,28],[49,19],[76,-32],[90,3],[140,-56],[56,-14],[74,10],[36,49],[182,-25],[96,-61],[136,-58],[34,17],[55,-13],[55,20],[55,2],[55,-19],[149,-6],[57,66],[68,-13],[73,21],[62,-7],[62,25],[65,2],[80,-13],[54,-24]],[[12736,10997],[-88,-42],[-17,-39],[26,-60],[58,-58],[-64,-60],[28,-41],[36,8],[3,-68],[-17,-32],[19,-80],[32,-19],[-29,-87],[71,-1],[27,-43],[-21,-37],[17,-45],[-96,-30],[-7,-56],[31,-25],[-20,-43],[41,-28],[-69,-57],[32,-75],[-5,-107],[60,-81],[-27,-51],[-20,-72],[39,-83],[45,-65],[73,-57],[3,-31],[37,-26],[29,-65],[95,5],[35,-19],[31,-81],[31,-173]],[[13155,9073],[-86,-17],[-31,-58],[-102,-14],[-41,19],[-120,-9],[-73,48],[-37,46],[-10,39],[-46,17],[-89,12],[-100,-45],[-66,-4],[-27,14],[-50,66],[-30,85],[-62,80],[-59,34],[-87,82],[-42,17],[-65,-10],[-85,69],[-75,-30],[-6,-31],[-56,-68],[-1,-29],[-107,2],[-48,-24],[-25,15],[-47,-16],[-156,43],[-31,79],[-71,49],[-93,37],[-95,23],[-37,39],[-148,-7],[-32,23],[-37,64]],[[10782,9713],[-59,-26],[-80,128],[-79,-12],[-40,22],[-78,-31],[-27,21],[-38,-19],[-29,37],[-87,4],[-56,-59],[-3,-61],[-57,-45],[-76,-11],[-103,-67]],[[13155,9073],[5,-23],[71,-108],[-30,-72],[7,-21],[-65,-108],[64,-102],[6,-56],[42,6],[37,-73],[-55,-101]],[[13237,8415],[-28,9],[-12,96],[-71,-9],[-8,45],[-38,3],[-9,114],[-92,-25],[-42,14],[-61,-19],[-65,4],[-48,-22],[-38,-48],[-12,87],[-89,-28],[-25,53],[5,46],[-25,47],[14,48],[-15,33],[33,27],[-1,65],[-65,12],[-37,31],[-30,-10],[15,-48],[-69,-50],[53,-94],[-14,-60],[57,-90],[-130,38],[-105,85],[-21,-60],[-33,-12],[-31,-52],[-67,73],[42,36],[-23,38],[26,27],[2,56],[66,-25],[11,-30],[92,43],[1,46],[-34,113],[-123,65],[-96,-52],[-10,-79],[-27,3],[-75,-96],[-50,1],[-53,-22],[-6,42],[53,7],[100,123],[-41,12],[-40,45],[-4,46],[-64,-5],[8,-34],[-19,-50],[-75,-36],[-14,-42],[-42,-48],[-7,-61],[31,-80],[40,7],[59,42],[62,-39],[90,-27],[43,11],[20,-35],[-19,-53],[-81,31],[-64,-29],[-69,23],[-53,-40],[-10,-69],[21,-44],[70,49],[76,-24],[-10,-27],[-64,-13],[-15,-68],[-54,-22],[-53,90],[-49,34],[22,36],[-48,78],[-53,44],[-24,56],[-90,-4],[-49,-128],[-8,-55],[-108,-20],[21,-56],[30,-13],[16,-80],[39,-62],[-28,-18],[-98,79],[-30,-38],[4,-81],[45,-5],[3,-79],[-43,-13],[-41,-43],[-82,-13],[-35,75],[14,36],[36,9],[29,-46],[53,47],[-4,56],[-51,77],[-91,-7],[-75,26],[6,-55],[73,-13],[8,-53],[-71,-31],[19,-69],[-94,4],[-1,38],[-68,19]],[[10928,8256],[-16,19],[-60,-4],[-44,-25],[-41,24],[-107,-7]],[[10660,8263],[11,31],[-77,62],[17,29],[-1,61],[-30,35],[39,43],[-31,108],[-28,16],[17,51],[-13,45],[25,41],[-10,48],[37,147],[33,52],[49,44],[18,83],[65,83],[-35,56],[24,99],[50,47],[-37,51],[11,32],[-28,86],[32,63],[-16,37]],[[11517,7640],[9,48],[-20,45],[57,60],[18,54],[-6,47],[-25,42],[-44,17],[-43,-98],[-19,-66],[-93,-4],[-7,-32],[-50,-23],[-1,71],[31,45],[1,58],[-101,-14],[-49,88],[-1,30],[52,31],[53,-23],[-1,-38],[65,-13],[-23,-46],[44,-20],[79,34],[27,-2],[17,95],[81,53],[-38,67],[94,9],[20,-39],[-34,-30],[33,-34],[35,29],[112,8],[63,-74],[118,9],[53,35],[13,-52],[-48,-115],[-55,49],[-36,-85],[20,-39],[-34,-39],[-36,-7],[-40,25],[-10,-46],[-33,-13],[-41,82],[-54,-25],[19,-88],[-61,-9],[-33,57],[-29,-41],[36,-53],[-85,-20]],[[10279,6644],[44,-5],[-22,58],[56,64],[69,-9],[32,26],[73,-69],[43,35],[-28,34],[-50,16],[-3,38],[33,19],[1,42],[54,-28],[-5,-29],[124,-9],[50,-113],[51,-54],[-19,-35],[4,-59],[-65,5],[-125,-82],[-53,0],[3,37],[-76,13],[-54,-5],[-78,18],[-51,-9],[-52,25],[20,48],[-44,8],[-21,57],[29,45],[56,24],[14,-38],[-61,-28],[51,-40]],[[10668,7352],[-4,20]],[[10664,7372],[84,-6],[7,-34],[45,-4],[7,82],[30,17],[16,53],[-8,59],[41,24]],[[10886,7563],[3,-7]],[[10889,7556],[7,-43],[37,3],[9,-63],[70,2]],[[11012,7455],[100,-7],[53,73],[38,23],[64,-81],[-82,16],[-44,-56],[61,-45],[-68,-54],[1,-26]],[[11135,7298],[-40,-31],[-2,-67],[-91,-27],[-56,-29],[-15,58],[-31,-9],[-74,-60],[-4,54],[-37,49],[-8,40],[-74,69],[-35,7]],[[10501,7127],[30,2],[43,-36],[69,37],[16,82],[-31,40],[21,42]],[[10649,7294],[-1,8]],[[10648,7302],[27,-52],[64,-48],[-12,-78],[-32,-54],[-112,-53],[-37,56],[-51,-9],[-4,49]],[[10640,7513],[-12,-37],[34,-35],[2,-69]],[[10668,7352],[-20,-50]],[[10649,7294],[-88,-25]],[[9053,7471],[-64,37],[-21,75],[-109,133],[-21,63],[-49,26],[7,103],[-16,31],[23,101],[8,78],[21,13],[50,83],[2,34],[57,68],[3,113],[-14,25],[10,62],[-40,99],[31,34],[27,81],[0,93],[121,214]],[[10660,8263],[-15,-31],[-59,-13],[6,-58],[32,-26],[2,-74],[-48,6],[4,-52],[-20,-30],[-3,-9]],[[15415,9324],[-24,-3],[-44,-66],[-45,-24],[-40,5],[-94,81],[-61,149],[8,41],[-16,99],[-14,23],[-118,12],[-38,-64],[-48,-35],[-28,-94],[-37,-10],[-95,-110],[-52,-18],[-9,-57],[-51,-40],[-21,-72],[15,-53],[75,-57],[81,-130],[-9,-33],[37,-177],[-41,-47],[-39,-76],[49,-17],[5,-76],[-34,-18],[-65,-7]],[[14662,8450],[-164,-168],[-519,-82],[-381,120],[-199,-121]],[[13399,8199],[-42,86],[-42,17],[-57,66],[-21,47]],[[12736,10997],[127,-29],[36,31],[123,39],[98,-12],[42,15],[69,-6],[33,27],[195,60],[141,-3],[175,20],[45,63],[52,26],[76,-6],[42,34],[56,2],[27,33],[99,-4],[132,25],[33,47],[111,7],[29,37],[80,30],[34,53],[72,39],[135,-3],[88,18],[38,30],[24,58],[65,37],[123,0],[11,-12]],[[15147,11653],[10,-38],[-19,-33],[1,-91],[-18,-40],[73,-65],[-23,-42],[44,-61],[64,-16],[3,-34],[46,-37],[62,-18],[40,20],[36,-26],[-32,-56],[88,-41],[28,-28],[120,-19],[72,15],[133,-62],[-15,-46],[19,-33],[72,-19],[-1,-49],[79,-49],[40,-72],[33,-10],[20,-58],[41,-68],[-32,-22],[-51,-6],[-122,-49],[-41,-75],[26,-101],[53,-71],[-10,-41],[91,-25],[42,-65],[12,-123],[-26,-53],[-44,-16],[-94,-59]],[[14662,8450],[31,-671],[-10,-37],[50,-100],[0,-20],[106,13],[16,-75],[-50,-45],[-5,-61],[21,-104],[4,-95],[82,-15],[34,-40],[3,-81],[35,-33],[104,-11],[46,20],[91,-79],[91,7],[19,-45],[51,-67],[68,15],[36,-46]],[[15485,6880],[-8,-52],[-58,-76],[3,72],[-36,-7],[-16,-49],[-53,-19],[-24,56],[-82,15],[-22,88],[-42,30],[-65,-46],[-113,37],[-71,-35],[-33,76],[-42,-3],[-105,59],[-76,-73],[-73,39],[-48,-11],[-34,31],[-74,-3],[-13,-23],[-54,0],[-42,-48],[-64,-30],[-550,174],[-88,175],[-5,28]],[[13597,7285],[-4,126],[-57,109],[-12,61],[-44,44],[-41,-6],[3,61],[-43,45],[-13,99],[48,63],[-7,41],[16,67],[-36,56],[6,88],[-14,60]],[[11660,7264],[1121,78],[90,-106],[307,-21],[12,54]],[[13190,7269],[34,-55],[0,-41],[50,-153],[17,-1],[46,-98],[42,11],[186,-74],[-7,-34],[59,-29],[34,-36],[-12,-44],[28,-38],[-30,-34],[-28,-74],[-44,-34],[33,-64],[-28,-27],[10,-45],[-2,-141],[26,-77],[-9,-47],[23,-36],[-31,-124],[-3,-58]],[[13584,5916],[-90,-20],[0,41],[-31,93],[-110,1],[-36,-37],[-96,9],[-48,-24],[-61,0],[-17,-59],[-38,-71],[-59,9],[-74,-20],[-39,-36],[-39,-2]],[[12846,5800],[-409,564],[-31,49],[-78,46],[-34,-13],[-133,-4],[-62,-19],[-104,49],[-30,33],[-77,25],[-84,-32],[-89,21]],[[11715,6519],[-9,116],[-23,45],[7,54],[-40,4],[-45,31],[36,60],[35,111],[-44,24],[-31,66],[-43,22],[-24,87],[49,31],[11,57],[66,37]],[[16439,6471],[-39,-20],[-171,0],[-48,39],[-57,-17],[-25,40],[-66,-26],[-67,0],[9,-42],[-90,-51],[20,-68],[-5,-76],[-26,-28],[-73,11],[-50,-59],[1,-49],[-43,4],[-138,-33],[-72,-54],[9,-30]],[[15508,6012],[-82,-11],[-51,16],[-65,-41],[-18,-10]],[[15292,5966],[-47,25],[-29,-12],[-16,74],[-63,17],[-63,34],[-126,-37],[-54,-5],[-133,-48],[-50,35],[-62,95],[-33,-38],[11,-41],[-20,-68],[-66,-33],[23,-58],[-23,-15],[-13,-83],[-44,1],[-44,-31],[11,-52],[30,-18],[-27,-83],[25,-30],[22,-73],[-47,-49],[49,-26],[37,-64],[8,-113],[76,-75],[179,8],[29,10],[35,-40],[57,-6],[12,29],[51,-25],[3,-44]],[[14990,5127],[-23,-96],[-129,-64],[-77,18],[-101,-43],[-116,-18],[33,-32],[114,-29],[-44,-54],[9,-80],[-60,-51],[41,-135],[-36,-206],[50,-8],[-44,-105],[-32,-31],[-9,-54],[57,-71],[2,-44],[-38,-39],[-67,-17],[-12,-46],[61,-33]],[[14569,3889],[7,-31],[-46,-69],[-84,-92],[-67,25],[-31,-12],[23,-56],[-121,-23]],[[14250,3631],[-28,25],[-23,-15],[-67,9],[-8,-38],[-52,15],[-24,20],[-61,18],[-39,29],[54,73],[-60,24],[-74,1],[-61,-27],[-3,74],[-76,-3],[-21,44],[-80,64],[28,66],[-4,76],[58,113],[57,49],[114,32],[-60,24],[3,56],[-27,121],[19,114],[-16,95],[43,38]],[[13842,4728],[349,209],[-39,67],[32,60],[4,50],[33,55],[-10,43],[-82,6]],[[14129,5218],[-24,17],[-21,1],[-12,-16],[-29,-2],[-16,24],[57,90]],[[14084,5332],[6,63],[-29,70],[150,87],[-46,71],[-72,9],[-53,73],[-93,-32],[-26,73],[20,91],[-20,61],[-26,25],[-60,12],[-39,-37],[-172,-76],[-18,-36]],[[13606,5786],[-7,41],[19,42],[-34,47]],[[13190,7269],[50,-5],[31,-45],[38,-17],[25,26],[50,-14],[21,22],[105,57],[51,-23],[36,15]],[[15485,6880],[20,-37],[102,-80],[142,-23],[70,51],[43,-44],[92,49],[62,9],[33,-27]],[[15292,5966],[-2,-9],[-77,-26],[-48,-49],[22,-72],[36,-34],[-18,-50],[59,-3],[27,-49],[36,-2],[7,-70],[26,-54],[-85,-24],[-37,-93],[-36,-21],[-21,-100],[-99,-49],[-18,-40],[-74,-94]],[[12846,5800],[-5,-15],[-86,-31],[-4,-51],[-51,-71],[37,-59],[59,-67],[-137,-52],[-44,6],[-63,-33],[-17,-85],[68,-39],[16,-33],[-20,-40],[25,-38],[5,-51],[-30,-67],[26,-29]],[[12625,5045],[13,-108],[71,-100],[61,-27],[89,-8],[-3,-68],[-99,1],[-53,-35],[13,-83],[115,-39],[48,-95],[56,-13],[79,11],[6,-60],[-19,-20],[-27,-94],[25,-60],[70,-52],[-3,-87],[-22,-75],[36,-68],[-27,-85],[-88,-95],[-81,-70],[-63,-12],[-16,-27],[-51,-24],[-55,-2],[-2,118],[47,-14],[-33,84],[-43,21],[-100,-27],[10,-62],[100,3],[2,-122],[72,-88],[-105,-68],[-51,-14],[32,-54],[42,2],[19,70],[34,20],[69,-18],[45,38],[66,-23],[3,-81],[-112,-220],[43,-29],[20,-71],[22,-7],[-39,-97],[0,-47],[-38,-56],[-52,-51],[-74,-55],[-59,48],[-21,43],[-59,39],[-31,-11],[-69,56],[-72,-7],[-76,34],[-8,53],[-74,55],[-5,34],[-91,26],[-28,-53],[-156,43],[-67,5],[-32,26],[-46,3],[-128,35],[-74,35],[-76,65],[-2,-57],[-48,-26],[-48,45],[-57,33],[-47,-39],[-98,18],[51,86],[-77,67],[-45,20],[-43,-6],[-61,26],[-26,-23],[-50,2],[-112,46],[-15,-43],[-83,-11],[-12,46],[-61,-21],[-36,27],[-80,23],[-28,35],[83,71],[48,18],[115,-4],[43,17],[-23,82],[53,82],[-63,-2],[-24,36],[-44,18],[-68,-37],[-108,23],[-56,20],[-44,-35],[-4,-108],[-51,52],[-42,-2],[-20,45],[-83,25],[-47,36],[94,31],[-21,101],[-36,-11],[2,66],[-75,4],[-25,53],[41,54],[-6,34],[15,97],[46,-5]],[[10227,4340],[21,2],[21,78],[55,15],[141,0],[83,-40],[83,25],[205,213],[1,150],[189,180],[94,292],[49,0],[78,32],[81,166],[-9,72],[26,45],[44,20],[6,47],[50,4],[-6,41],[-50,35],[17,45],[-8,42],[36,80],[28,-5],[34,81],[99,39],[-2,59],[-33,27],[53,105],[42,38],[-10,36],[-53,36],[44,65],[50,-17],[1,49],[50,64],[-22,58]],[[9973,3414],[24,-66],[-29,-11],[-105,37],[71,51],[39,-11]],[[10258,3827],[36,-7],[-21,-55],[-45,-23],[-69,-6],[7,47],[38,-9],[18,50],[36,3]],[[10659,3815],[23,-67],[-20,-13],[-41,54],[38,26]],[[13606,5786],[-13,-30],[30,-45],[-23,-32],[-79,2],[-16,-61],[-89,-88],[69,-321],[-20,-29],[81,-21],[-1,-59],[76,-93],[38,-10],[51,-42],[71,28],[-9,-48],[-28,-16],[-3,-74]],[[13741,4847],[37,-29],[-34,-31],[-32,-107],[8,-30],[-82,-120],[-128,48],[-25,38],[-5,110],[52,31],[65,-111],[22,62],[-18,47],[-60,80],[-74,15],[-3,29],[63,40],[-12,40],[-47,-20],[-62,19],[10,-63],[-23,-33],[21,-78],[40,-57],[6,-124],[53,-60],[86,-44],[24,-38],[-27,-24],[-107,-12],[-125,32],[-79,-16],[-73,56],[-53,0],[-97,62],[-34,1],[-41,68],[-52,44],[-36,7],[-50,-64],[-93,11],[-8,58],[61,4],[73,39],[16,60],[-36,53],[-107,9],[-43,18],[-60,81],[-27,97]],[[12999,4558],[-86,-45],[-55,89],[40,62],[34,-4],[69,-63],[-2,-39]],[[10928,8256],[-7,-57],[-25,-12],[2,-112],[28,-37],[-11,-59],[-38,-47],[64,-61],[55,-110],[-14,-62],[-24,-32],[-50,-13],[-38,-47],[16,-44]],[[9872,4337],[32,-49],[-59,-124],[-28,17],[-11,97],[61,-13],[5,72]],[[9622,4619],[48,8],[22,-22],[-21,-61],[-75,-31],[-25,32],[36,32],[15,42]],[[10889,7556],[11,-2],[55,-2],[57,-97]],[[9746,5741],[2,13]],[[11135,7298],[91,28],[43,41],[112,70],[64,10],[56,-40],[55,8],[45,-22],[10,-88],[49,-41]],[[10227,4340],[21,58],[-39,13],[7,77],[23,24],[40,-26],[42,31],[17,39],[-61,3],[-43,26],[-13,41],[-90,-9],[-57,-41],[-28,29],[43,31],[-34,52],[61,28],[10,72],[-100,36],[-24,-32],[-49,55],[3,86],[-35,55],[3,43],[-17,92],[-54,-21],[-42,32],[-9,62],[-24,42],[-42,122],[-36,65],[-62,78],[-194,151],[-33,58],[42,4],[26,-43],[180,-85],[11,-44],[44,20]],[[18024,5632],[63,72],[55,-31],[81,-24],[78,-59],[184,-71],[9,-37]],[[18494,5482],[-78,-75],[0,-36],[56,-47],[-74,-130],[-99,-28],[-38,-64],[-25,19],[-62,-26],[-52,15],[-48,-37],[-62,65],[-2,-77],[-31,4],[-12,63],[-52,29],[-48,-6],[-80,-79],[-59,-13]],[[17728,5059],[-27,-11],[-56,26],[30,118]],[[17675,5192],[43,166],[89,66],[-5,36],[56,80],[102,75],[24,41],[40,-24]],[[17717,6237],[37,-82],[72,-17],[16,-38],[90,-60],[8,-84],[34,-125],[105,-116],[-55,-83]],[[17675,5192],[-322,56],[-154,121],[-118,-47],[-49,-100],[-46,-39],[-48,23],[-92,11],[-28,-27],[-94,-10],[-41,-26]],[[16683,5154],[-38,169],[-47,73],[-59,57],[-31,1],[2,99],[-27,42],[19,55],[-25,47],[-61,29],[-43,66],[-73,13],[-30,27],[-21,61]],[[16249,5893],[17,29],[-65,48],[25,70],[31,42],[76,52],[107,-17],[41,63],[35,-14],[86,14],[45,-31],[117,23],[30,-28],[56,-11],[66,37],[25,-18],[148,6],[37,-20],[46,37],[87,-17],[53,39],[23,51]],[[17728,5059],[-110,-131],[-52,-26],[-13,-47],[25,-15],[-3,-48],[-57,7],[-15,-53],[1,-86],[-36,-41],[7,-57],[-30,-25],[-2,-56],[-57,-13],[-51,39],[-9,-56],[-65,-6],[-34,-53],[-47,22],[-42,-30],[-18,-57],[-57,-34],[33,-27],[66,-23],[-27,-41]],[[17135,4202],[24,-34]],[[17159,4168],[-74,-1],[-102,52],[-44,49],[-73,9],[-100,33],[-108,107],[-9,-16],[-95,-46],[-151,-48],[-8,-23]],[[16395,4284],[-145,92],[-105,215]],[[16145,4591],[-10,47],[39,37],[47,94],[0,127],[16,63],[42,31],[-4,49],[84,46],[15,31],[61,-15],[89,-49],[38,77],[121,25]],[[17159,4168],[-48,-30],[10,-114],[35,-35],[5,-41],[41,-1],[56,-109],[2,-55],[52,-55],[-6,-48],[21,-55],[-28,-46],[-8,-67],[-46,-2],[-9,-75],[-29,-69],[-31,-30],[-40,15],[-57,-15],[-6,-70],[-43,-1],[-35,33],[-54,-27],[-43,4],[-26,-52],[-52,-12],[7,-52],[-222,-372],[-405,-458]],[[16200,2329],[-105,8],[-52,33],[-28,121],[-80,52],[-67,-22],[-60,9],[-29,28]],[[15779,2558],[48,322],[-35,0],[17,89],[-27,8],[-3,73],[44,62],[47,7],[113,-7],[30,-30],[39,35],[51,8],[60,34],[106,308],[101,379],[29,234],[18,39],[5,86],[-27,79]],[[15508,6012],[41,-39],[60,-8],[25,-50],[42,-23],[60,11],[111,-59],[72,-21],[69,35],[31,-34],[86,-14],[92,76],[52,7]],[[16145,4591],[-24,-26],[-68,1],[-19,-42],[-115,6],[-12,-87],[-32,-77],[8,-32],[-24,-37],[-57,-19],[-18,-26],[-137,-4],[-96,51],[-57,-74],[-51,-33],[23,-40],[-25,-40],[-64,-22],[-46,10],[-31,-26],[-40,20],[-108,-24],[-86,1],[-59,30],[-87,-17],[-96,-49],[-46,-57]],[[14778,3978],[-43,-37],[-54,-13],[-35,24],[-77,-63]],[[15779,2558],[-46,-18],[-44,24],[-49,-12],[-57,51],[-570,834],[-62,332],[69,18],[-2,45],[-46,42],[-80,23],[-19,43],[-95,38]],[[20688,2987],[45,80],[82,-3],[58,-73],[-11,-58],[109,-217],[-1,-64],[42,-142],[137,-139],[35,-115],[28,-25],[41,-76],[-55,-80],[4,-113],[34,-67],[-23,-13],[-14,-66],[-48,-20],[-49,-45],[-74,-9],[-49,-46],[-146,29],[-89,-20],[-33,-43],[-61,-26],[-14,-33],[-73,-6],[-48,-43],[-146,22],[-73,-17],[-60,-39],[-33,3],[-33,-55],[-32,16],[-61,-51],[-55,-2],[-60,54],[-29,-19],[-38,22],[8,57],[-64,33],[-68,-18],[-43,-30],[-44,-57],[-62,34],[-25,39],[162,162]],[[19759,1708],[-366,169]],[[19393,1877],[43,21],[26,-17],[79,0],[4,37],[151,266]],[[19696,2184],[240,296],[-8,-47],[42,-87],[32,-36],[6,-45],[70,-1],[58,-25],[44,29],[41,-17],[47,69],[-10,29],[114,84],[11,45],[-43,65],[8,66],[41,60],[65,12],[24,32],[40,-13],[45,25],[-14,38],[56,137],[55,97],[28,-10]],[[19696,2184],[-44,68],[39,44],[57,102],[-23,78],[-36,-17],[-108,-12],[-20,349],[-47,77],[44,52],[-3,76],[55,-3],[66,47],[3,24],[-39,48],[2,69],[15,32],[98,37],[50,67],[32,22],[136,-27],[-29,95],[-63,24],[-6,22],[46,95],[-26,64],[32,67],[49,-5],[72,18],[-18,29]],[[20030,3726],[16,30],[-7,74],[20,17],[124,-62],[76,-76],[62,-106],[32,-80],[62,-67],[48,-20],[35,-65],[82,-75],[36,-87],[84,-95],[18,-64],[-38,-14],[8,-49]],[[19759,1708],[-162,-162],[-2,-22],[-80,-7],[-86,71],[-48,15],[-31,-27],[-137,7],[-31,-39],[-77,-36],[-111,-30],[-26,9],[-19,-47],[-66,-42],[-24,-2],[-11,-35],[-68,-39],[-31,13],[-56,-27],[-3,-64],[-42,-114],[16,-104],[74,-14],[19,-32],[-22,-76],[77,-69],[-1,-38],[-198,-33],[-139,-67],[-59,-124],[12,-52],[-69,-30],[-69,-12],[-41,-35],[9,-71],[-16,-55],[-82,-69],[-147,52],[-55,-10],[-91,6],[-72,21],[-83,-9],[-36,18],[-64,-44],[-36,-49],[-40,0],[-137,42],[-107,-1],[-61,-38],[-11,-28],[-57,-35],[-21,31],[-77,21],[-62,-39],[-63,30]],[[16939,217],[6,52],[-19,32],[17,44],[-11,34],[4,142],[-33,126],[-95,-4],[-50,36],[-75,20],[-30,52],[-38,30],[-6,55],[-95,52],[48,36],[-13,27],[16,54],[-37,74],[35,35],[-25,85],[-48,50],[-9,35],[-53,43],[-71,11],[-41,43],[-78,32],[-32,43],[32,51],[86,56],[-65,59],[8,27],[-33,52],[-2,49],[-98,56],[-16,35],[74,124],[36,25],[-47,104],[-57,33],[11,59],[-46,40],[50,42],[5,26],[56,35]],[[16200,2329],[629,13],[806,136]],[[17635,2478],[952,-170],[42,-102],[-12,-106],[32,-50],[-6,-48],[32,-78],[38,-59],[59,-39],[182,283],[338,23],[32,-38],[49,-10],[35,-88],[-32,-40],[17,-79]],[[19363,1543],[-24,-38],[-143,-20],[-96,-25],[-109,-44],[-116,-91],[-75,-47],[-82,-96],[0,72],[-18,42],[79,20],[79,50],[4,29],[21,-1],[38,16],[33,26],[14,40],[32,-7],[46,17],[120,3],[106,51],[91,3]],[[17635,2478],[681,597]],[[18316,3075],[74,25],[54,41],[35,45],[12,92],[-15,69],[57,61],[-1,37],[52,82],[39,0],[13,58],[39,4],[-12,49],[53,72],[61,34],[30,34],[70,13],[10,54],[88,51],[6,49],[45,22],[-20,33],[37,39],[118,-7],[33,41],[167,19],[10,66],[45,58],[-18,63],[36,18],[61,64],[50,8]],[[19545,4369],[75,-34],[28,-45],[67,-52],[9,-27],[60,-39],[7,-34],[38,-28],[3,-69],[19,-29],[68,-34],[95,-71],[21,-63],[5,-83],[-10,-35]],[[18316,3075],[-110,7],[-23,81],[44,49],[0,62],[41,50],[-25,53],[-16,94],[60,44],[26,42],[-76,96],[-16,74],[-60,33]],[[18161,3760],[33,103],[-18,38],[27,20],[27,70],[-12,49],[21,19],[49,-13],[15,65],[39,23],[159,16],[44,11],[58,-39],[51,25],[-22,38],[32,73],[88,31],[13,47],[40,59],[102,25],[32,75],[-35,93],[29,64],[3,56],[42,30],[-19,106]],[[18959,4844],[30,0],[104,-99],[78,-106],[53,-49],[74,-41],[74,-86],[94,-61],[32,-34],[47,1]],[[17135,4202],[153,31],[117,-124],[346,-71],[103,-82],[307,-196]],[[18494,5482],[67,21],[0,31],[82,22],[65,-56],[48,-86],[24,-22],[112,-191],[62,-162],[21,-136],[-16,-59]],[[33670,5762],[10,69],[-40,-3],[-13,38],[-32,1],[-11,55],[-34,-16],[-38,49],[63,13],[-12,46]],[[33563,6014],[26,36],[99,51],[40,-18],[82,102],[53,17],[24,-50],[43,-47],[56,-23],[46,-144],[70,-90],[81,-60],[59,-86],[56,-59],[25,-85],[22,-153],[22,-34],[109,-15],[45,-41],[42,-120],[-3,-214],[10,-43],[39,9],[99,97],[93,59],[65,63],[40,5],[50,-38],[35,-121],[66,-142],[22,-162],[44,-85],[-1,-39],[53,-197],[46,-35],[-7,-66],[33,-82],[-17,-105],[32,-32],[112,-10],[30,-11],[7,-96],[34,-87],[31,-44],[-1,-85],[-96,-62],[43,-25],[19,-83],[30,-56],[-37,-145],[54,-60],[-27,-58],[13,-76],[-17,-78],[17,-68],[1,-89],[-163,-72],[-15,-47],[-111,-63],[-55,-11],[-39,9],[-33,34],[-18,156],[-220,-37],[-53,-58],[23,-80],[-55,-19],[-48,-55],[-51,-14],[-49,96],[-19,97],[-22,47],[-7,84],[-24,103],[0,59],[-99,-26],[-92,62],[-72,82],[-50,36],[-89,19],[-49,24],[-227,-114],[-36,48],[-148,91],[-97,133],[-63,48],[-79,119],[-94,176],[-75,91],[-19,88],[-37,74],[0,105],[-141,243],[2,121],[-34,15],[-85,-36],[-48,29],[-128,331],[9,38],[68,88],[2,45],[-89,36],[-37,57],[62,14],[42,68],[40,31],[106,9],[69,-10],[114,101],[32,43],[86,21],[34,36],[214,-66],[97,-19],[55,2],[28,22],[-10,59],[47,48],[-15,42],[-69,78],[29,97]],[[37123,10935],[42,-40],[62,-88],[56,-5],[28,40],[118,-65],[47,-59],[1,-26],[48,-34],[45,-2],[32,-30],[24,-66],[-13,-19],[65,-81],[8,-45],[43,-85],[48,7],[103,-23],[18,-32],[127,-74],[42,-86],[-38,-43],[-47,-100],[15,-72],[89,-105],[77,-124],[121,-80],[154,53],[101,-17],[54,-64],[37,-97],[59,-100],[67,-146],[63,-63],[94,-63]],[[38913,9101],[-2,-35],[106,-108],[64,-116],[-1,-39],[-44,-81],[102,60],[147,-24],[30,-29],[90,-145],[23,-82],[96,-107],[94,-197],[35,-49],[12,-111],[60,-101],[-11,-62],[-49,-94],[-6,-115],[67,-131],[40,-106],[33,-48],[54,-47],[77,-18],[45,-45],[34,-187],[106,-54],[44,-53],[19,-50],[59,-76],[20,-47]],[[40257,6804],[-830,-331],[-79,-75],[-58,8],[-83,-41],[-37,-1],[-25,40],[-66,-73],[-23,22],[-62,1],[-15,-35],[-63,-39],[-86,-35],[-32,-145],[-46,-36],[-10,-41],[-92,-3],[-17,36],[-88,12],[-37,-16],[-4,-61],[-59,16],[6,65],[-54,5],[-10,-30],[-77,-55],[-30,41],[-40,-18],[-16,-73],[-65,18],[-56,-83],[-45,19],[7,34],[-80,61],[-5,25],[-63,29],[49,57],[-47,7],[-29,30],[-17,67],[-58,21],[-69,-38],[4,47],[-82,41],[-8,60],[38,44],[29,81],[-67,330],[-245,241],[-228,109],[-99,62],[-54,-15],[-88,20],[-3,86],[46,-22],[54,15],[-27,40],[-33,-19],[-9,66],[53,99],[-108,-7],[-42,9],[-46,46],[1,72],[-86,92],[41,11],[4,61],[-43,-12],[-86,41],[15,48],[-10,55],[-76,64],[-47,69],[54,64],[-37,24],[-41,55],[31,21],[-28,42],[-35,-14],[-6,58],[-89,-19],[-49,35],[61,25],[-81,35],[20,43],[77,29],[16,58],[-50,27],[9,45],[-34,66],[12,73],[-87,36],[-58,-52],[-12,70],[-32,1],[-69,43],[-40,10],[10,115],[-19,47],[-49,-2],[-55,-38],[-44,5],[-53,56],[36,20],[-19,52],[-92,62],[48,59],[31,18],[24,49],[-52,3],[-22,35],[25,80],[-31,27],[-59,-23],[-26,103],[-65,10],[27,40],[-50,41],[19,40],[3,65],[-44,10],[1,67],[-16,31],[12,46],[-26,16],[-2,59],[48,54],[9,65],[133,30],[40,56],[38,4],[35,62],[-14,31],[38,84],[78,75],[45,31],[75,96],[-1,46],[29,48],[-12,47],[122,53],[60,12],[21,-19],[69,46],[71,12],[41,44],[30,89],[16,-3],[92,71],[11,22],[152,31],[48,-3],[47,34],[73,-31],[26,-53],[48,15],[67,-5]],[[33563,6014],[-130,-6],[-22,29],[-32,11],[11,33],[-50,53],[-13,-71],[-51,41],[-96,-7],[-6,-53],[-35,7],[-22,65],[-92,1],[177,166],[89,48],[58,172],[22,6],[0,106],[-9,45],[29,159],[-49,53],[-68,-4],[-52,30],[-54,72],[-5,58],[-77,29],[-17,58],[-36,53],[-71,57],[-18,70],[22,26],[43,-27],[74,7],[36,-49],[99,96],[26,76],[-37,49],[36,28],[49,80],[50,-6],[75,-137],[58,-33],[44,28],[24,-41],[87,66],[55,14],[15,54],[40,67],[74,38],[-16,82],[-48,27],[62,28],[-46,58],[20,59],[70,15],[-20,38],[32,36],[16,70],[26,53],[30,3],[47,106],[-28,58],[26,130],[27,35],[59,0],[32,-43],[48,-36],[-11,-69],[29,-126],[47,-75],[-31,-58],[28,-19],[105,12],[66,-55],[35,-13],[9,-55],[35,21],[61,1],[24,-41],[200,-235],[31,-91],[41,-66],[-9,-135],[26,-36],[52,-112],[84,-88],[121,-32],[76,19],[94,-23],[138,-133],[103,-59],[51,-5],[106,37],[-112,13],[-105,41],[-57,49],[-73,96],[-53,36],[-32,-16],[-110,21],[92,29],[210,0],[55,-26],[60,-47],[163,-26],[160,-63],[67,-59],[13,-66],[24,-34],[152,-77],[34,-262],[16,-23],[56,-1],[59,40]],[[36281,6539],[140,-286],[93,-164],[647,-962],[3,-112],[35,-82],[21,-113],[-3,-72],[-24,-22],[-11,-73],[-89,-148],[26,-51],[-43,-83],[-44,-119],[-20,-138],[4,-58],[-47,-75],[-47,-42],[19,-75],[-24,-88],[-31,-59],[-18,-90],[27,-91],[55,-23],[42,-59]],[[36992,3454],[-89,-124],[-38,-122],[23,-40],[-26,-65],[35,-111],[-21,-77],[-27,-35],[-1,-80],[66,-17],[24,-46],[-8,-85],[26,-93],[46,-43],[23,-68],[37,-45],[1,-43],[62,-121],[30,-29],[14,-91],[-112,-97],[-62,-109],[-84,-47],[-107,-17],[-28,-83],[-58,-40],[-93,60],[-116,10],[-35,-47],[-24,91],[-40,63],[-51,49],[-29,-2],[-468,-1905],[-49,42],[-2,70],[-60,-6],[-15,53],[-63,15],[-29,27],[-38,-10],[-47,35],[-22,53],[-73,35],[-55,41],[-65,95],[-156,127],[-63,30],[-63,65],[-27,103],[-71,71],[-62,17],[-50,223],[55,97],[-28,64],[-89,19],[-44,-13],[-10,45],[23,62],[27,27],[-33,105],[-43,24],[-52,-5],[-20,-40],[-60,-46],[-32,17],[1,51],[-33,60],[-45,33],[-40,66],[-48,-16],[-33,37],[-37,-6],[-32,60],[-86,42],[-1,76],[-55,44],[49,42],[-20,52],[-148,99],[-92,48],[64,88],[-102,-40],[-45,-6],[-61,53],[24,65],[-36,31],[86,42],[21,90],[-27,45],[49,58],[-21,34],[-62,39],[-20,36],[-79,-50],[-23,-41],[-3,-50],[-41,-33],[-34,68],[30,114],[63,4],[17,19],[-17,108],[-32,19],[-13,46],[-40,-3],[-43,53],[-26,5],[-43,79],[-87,27],[-8,38],[27,51],[-56,53],[-119,64],[-46,-45],[-32,24],[-15,51],[23,34],[-16,41],[-128,2],[-19,19],[-11,79],[49,64],[66,32],[26,63],[-18,22],[1,85],[-42,50],[1,46],[-27,15],[-5,62],[-23,13],[-59,101],[-33,31],[-15,50],[-69,97],[-89,98],[-3,31],[-75,126],[7,31],[-40,115],[-117,105],[-137,83],[-47,44],[-102,51],[12,56],[-22,35],[-3,52],[-54,117],[4,46],[-62,105],[-1,82],[-26,39],[10,75],[51,61],[-108,124],[-31,74],[-44,56],[8,62],[-29,19],[21,38],[-11,61],[44,121],[23,5],[102,125],[86,11],[-9,-62],[28,-76],[2,-60],[-47,-42],[32,-23],[95,-1],[26,-13],[96,1],[47,44],[60,-23],[38,-35],[97,-27],[39,3],[90,37],[94,61],[28,-12],[35,51],[109,17],[28,-66],[31,-13],[37,29],[15,-53],[54,-3],[-20,56],[81,-16],[25,61],[29,-23],[-13,-35],[38,-11],[23,-30],[125,10],[8,-41],[-54,-8],[-31,-31],[42,-21],[23,-45],[77,-3],[-2,-54],[39,3],[11,-49]],[[31885,11195],[37,29],[42,80],[58,28],[98,2],[121,77],[55,20],[241,-28],[61,-50],[18,-161],[30,-52],[78,-23],[136,60],[58,123],[-26,45],[-3,48],[79,128],[61,-18],[52,-32],[67,29],[34,75],[48,58],[45,26],[40,52],[91,-38],[18,34],[98,-6],[109,-108],[96,-54],[59,8],[60,31],[6,56],[-50,99],[39,52],[9,81],[47,73],[-28,75],[20,47],[100,36],[75,13],[100,77],[22,137],[-21,90]],[[34165,12414],[21,-37],[70,-75],[-1,-60],[53,-56],[1,-29],[-75,-102],[-58,6],[-22,46],[-54,16],[-73,-78],[-51,-91],[38,-54],[75,15],[103,-39],[46,-98],[36,-33],[-38,-44],[-35,-78],[8,-124],[21,-23],[68,-5],[0,-54],[59,-30],[38,16],[105,-52],[28,-35],[4,-53],[25,-58],[-18,-47],[14,-39],[41,-29],[14,-39],[-27,-45],[14,-95],[55,-15],[51,-44],[43,-16],[90,9],[36,-32],[47,-1],[27,-32],[-11,-99],[87,-72],[153,-29],[20,66],[65,-72],[53,0],[-12,-97],[51,-57],[-28,-67],[-36,-39],[6,-46],[-48,-1],[-79,36],[-232,9],[-54,18],[-45,33],[-149,191],[-73,55],[-65,23],[-12,-52],[36,-85],[5,-101],[131,-300],[-75,-143],[-7,-48],[-58,-173],[143,-10],[-29,-80],[75,-5],[75,-62],[-75,-112],[35,-48],[-39,-115],[-42,34],[-48,5],[-37,-34],[7,-64],[29,-25],[30,-70],[-21,-66],[34,-48],[-28,-77],[3,-79],[36,-68],[91,-49],[65,19],[40,35],[35,-2],[43,-39],[80,-49],[152,-129],[28,-7],[53,-57],[36,15],[82,0],[48,-34],[50,-96],[70,-28],[24,-26],[74,-313],[54,-33],[139,-42],[67,-247],[179,-570]],[[36125,7154],[122,-535],[-26,-77],[-44,-4],[-1,57],[44,119],[-40,40],[-17,66],[-76,68],[-63,6],[-80,135],[-107,81],[-246,73],[-76,52],[-92,35],[-149,9],[-115,27],[-107,-1],[-133,102],[-41,163],[2,89],[-44,53],[-21,62],[-35,22],[-47,78],[-46,156],[-84,150],[-5,53],[-52,112],[12,97],[37,-33],[63,-4],[54,-38],[-62,-38],[20,-45],[62,22],[-12,64],[-60,48],[45,40],[63,-29],[91,-7],[31,-62],[66,-50],[1,53],[-46,21],[-21,33],[-69,33],[-68,57],[-28,81],[92,-16],[3,32],[-76,29],[-34,-12],[15,-99],[72,-57],[-8,-26],[-92,37],[-75,-52],[-10,48],[-61,22],[-24,62],[-86,136],[-118,107],[-34,87],[14,43],[56,68],[60,-24],[59,26],[9,40],[-105,115],[-49,10],[-9,28],[-64,25],[-28,53],[-28,121],[-79,98],[-16,-46],[55,-69],[1,-48],[-41,-15],[27,-63],[-3,-73],[32,-32],[-40,-48],[12,-46],[44,-43],[46,-17],[56,-5],[-27,-77],[3,-52],[47,-101],[92,-99],[44,-75],[32,-122],[-2,-58],[-30,-40],[-97,28],[-137,177],[-37,88],[-76,88],[-70,45],[-50,6],[-43,-26],[-49,-53],[-43,-7],[-81,-98],[25,-121],[-22,-76],[8,-34],[-103,-49],[-85,9],[-15,-81],[-52,-16],[-18,-26],[-55,8],[-23,-24],[-59,-3],[-30,54],[-58,-14],[-5,80],[-43,31],[14,47],[96,65],[-15,102],[86,-47],[68,-3],[61,50],[22,-89],[37,42],[50,13],[-34,97],[6,36],[-42,58],[-4,35],[-44,-2],[-6,54],[51,100],[39,34],[-4,90],[-66,122],[19,49],[-41,53],[-38,21],[-120,-99],[68,-21],[58,-62],[53,-26],[19,-37],[-31,-130],[-65,-91],[-3,-76],[18,-62],[-10,-107],[-69,14],[-46,78],[-66,27],[-70,-7],[-13,63],[125,137],[15,55],[-71,60],[7,-121],[-11,-27],[-86,-68],[-50,7],[-3,-66],[-31,-11],[11,-54],[-24,-85],[-39,-6],[-79,17],[-31,43],[-45,126],[-28,20],[-51,-33],[-54,-7],[2,-64],[-35,10],[-80,-42],[9,-40],[-54,-18],[-22,-63],[-54,-64],[-61,54],[5,129],[-19,101],[45,89],[-57,2],[-5,97],[7,62],[-43,66],[-4,62],[-31,55],[39,78],[37,14],[-34,64],[-77,-34],[-37,92],[18,42],[-49,13],[-11,-101],[-49,-8],[-37,-98],[107,-112],[96,-247],[14,-203],[-15,-24],[-21,-100],[45,-84],[125,-76],[-1,-76],[-16,-48],[-90,-103],[11,-102],[-22,-36],[-5,-149],[-79,48],[-22,43],[-35,10],[-94,-40]],[[32173,7923],[37,63],[-28,140],[7,187],[-22,174],[-26,111],[-64,228],[-52,89],[-37,23],[-31,55],[0,105],[-43,95],[-61,57],[-7,93],[-77,173],[-10,146],[-27,51],[48,29],[54,54],[-10,40],[8,89],[-21,23],[19,48],[-39,39],[-31,59],[-67,15],[-42,29],[-6,54],[23,77],[-77,33],[-37,99],[70,199],[6,83],[96,16],[11,43],[77,37],[-5,43],[37,11],[-2,58],[17,59],[-8,31],[51,106],[-19,108]],[[34235,9117],[104,-32],[6,-44],[-72,-44],[-32,-3],[-81,52],[32,68],[43,3]],[[33956,8615],[36,-7],[0,-54],[44,-30],[5,-80],[-58,-14],[-45,35],[12,25],[-17,92],[23,33]],[[34014,8617],[43,-1],[14,-68],[-53,-3],[-4,72]],[[40257,6804],[-12,-60],[-94,-71],[-17,-74],[27,-22],[159,-49],[89,-133],[58,-184],[-10,-131],[18,-74],[-22,-181],[16,-81],[110,-151],[127,-90],[81,-101],[165,-74],[-34,-30],[-56,-6],[-118,14],[-23,-27],[15,-38],[73,-57],[29,-50],[79,-74],[19,-50],[-48,-7],[-47,-57],[-150,29],[-67,-40],[-38,-4],[-103,30],[-112,9],[-241,-83],[-44,-3],[-85,18],[-73,-32],[-89,-76],[-129,-206],[-42,-134],[1,-32],[135,-254],[18,-135],[-3,-50],[-39,-25],[-92,-19],[-51,-28],[-110,-105],[-31,-72],[-134,-150],[-91,15],[-35,-17],[-37,-49],[-79,-166],[-69,-60],[-47,-24],[-15,-78],[-29,-49],[-41,-29],[-97,-17],[-24,-19],[13,-107],[-84,-170],[-27,-76],[-37,-38],[-72,6],[-118,-42],[-81,-122],[-3,-139],[-60,-35],[-103,-136],[-66,-54],[-26,-72],[-88,58],[-71,22],[-62,127],[-105,57],[-4,120],[-80,123],[-42,84],[-21,124],[-37,65],[-67,214],[-67,78],[-61,19],[-74,48],[-52,1],[3,67],[-102,59],[-23,26],[-157,16],[-32,40]],[[36281,6539],[-30,60],[-126,555]],[[34165,12414],[46,85],[54,42],[8,126],[68,67],[107,8],[88,46],[54,67],[-53,62],[62,60],[-12,33],[38,108],[39,29]],[[34664,13147],[28,-15],[97,7],[139,-43],[66,-65],[46,-3],[96,-67],[5,-35],[37,-15],[-5,-39],[65,-42],[50,-15],[29,-37],[-16,-28],[55,-24],[109,-20],[17,-86],[93,0],[69,-45],[41,-55],[-42,-45],[4,-47],[45,20],[74,-47],[39,-85],[99,-53],[70,-52],[51,-15],[13,-27],[-61,-34],[69,-86],[14,-69],[100,-139],[57,-33],[96,26],[80,-68],[-4,-29],[37,-30],[46,-2],[51,-44],[71,-16],[28,-26],[51,12],[57,-53],[32,1],[85,-70],[7,-42],[-24,-57],[19,-53],[82,-54],[40,18],[43,-6],[52,-63],[51,-29],[-29,-58],[24,-31],[-13,-57],[31,-34],[-7,-108]],[[15147,11653],[30,12],[84,-11],[113,19],[103,48],[23,65],[79,46],[17,42],[48,26],[101,161],[110,59],[60,75],[11,84],[146,107],[51,52],[163,18],[74,45],[13,86],[138,36],[42,53],[65,27],[31,36],[120,68],[174,60],[24,33],[53,10],[36,37],[86,27],[22,22],[60,-12],[60,29],[5,29],[88,19],[14,32],[106,33],[3,35],[50,25],[38,-5],[71,22],[106,57],[152,-14],[69,24],[6,36],[63,20],[66,-6],[30,18],[107,21],[90,85],[55,12],[123,-13],[182,4],[22,30],[64,16],[39,29],[133,23],[107,-18],[79,3],[57,41],[19,45],[96,-9],[109,16],[55,20],[56,82],[50,-1],[117,40],[91,9],[28,31],[64,-15]],[[19894,13789],[-16,-70],[-34,-55],[-22,-144],[50,-26],[-45,-39],[43,-69],[-60,-37],[22,-41],[-48,-56],[4,-70],[40,-27],[25,-95],[34,-27],[-38,-39],[51,-51],[-7,-33],[-50,-63]],[[27580,16320],[-6,-633],[-59,2],[2,62],[-42,10],[-31,-37],[-110,-46],[-28,-54],[-47,20],[-61,-76],[-11,-49],[-40,-25],[-23,-84],[2,-37],[-29,-83],[-49,-82],[-7,-80],[-62,-45],[-157,17],[-84,-37],[-15,-23],[-65,-15],[-35,-59],[-97,3],[-53,-64],[-95,-48]],[[26378,14857],[49,105],[-45,58],[36,91],[-13,90],[-29,14],[-93,-30],[20,50],[-28,55],[15,39],[-41,63],[-33,17],[-141,4],[-41,17],[-54,72],[-65,18],[-42,-14],[-27,-44],[-36,-9],[-51,-134],[-83,-45],[-34,17],[-21,71],[-44,13],[-84,-50],[-29,-51],[-50,5],[-161,-46],[-32,27],[18,30],[71,16],[45,38],[51,14],[42,55],[-19,45],[15,137],[-63,68],[-83,48],[68,100],[54,40],[-82,23],[-85,44],[-113,-53],[-25,-70],[-49,15],[-35,-16],[-64,34],[-15,33],[-82,-3],[-126,-82],[-64,35]],[[24680,15811],[-93,74],[-54,-13],[-33,-43],[-30,-7],[-32,37],[31,21],[22,83],[-3,90],[-74,115],[-88,18],[-27,-11],[-67,36],[-46,1],[-29,23],[-56,6],[23,78],[205,19],[24,48],[35,23],[34,-13],[54,50]],[[24476,16446],[29,-6],[35,27],[9,50],[43,29],[32,-23],[69,14],[38,-18],[48,29],[43,-2],[7,-49],[76,13],[0,48],[61,86],[28,-50],[30,16],[64,-9],[65,-36],[27,-44],[77,2],[95,-38],[73,7],[84,-44],[87,3],[58,-29],[29,17],[130,3],[73,37],[146,-109],[63,-13],[25,19],[50,-5],[33,23],[176,-98],[169,-67],[85,0],[137,-32],[47,7],[57,50],[52,17],[13,32],[75,-1],[45,-29],[20,31],[77,38],[67,-50],[34,-4],[67,27],[71,-17],[95,26],[29,18],[61,-22]],[[24680,15811],[-52,-12],[-44,20],[-15,-53],[-66,-20],[-85,-9],[-2,-80]],[[24416,15657],[-20,31],[-45,4],[-22,36],[-93,42],[-72,-53],[-104,-40],[-37,48],[-63,-101],[-46,-25],[-47,-60],[-29,39],[-45,-26],[-48,13],[-38,-25],[-24,47],[-61,-13],[-1,-47],[62,-41],[-39,-46],[-54,12],[20,-280],[-21,-51],[0,-71],[-45,-54],[-313,8],[-24,16],[-94,127],[-70,-3],[-27,25],[-66,-47],[-64,-5],[-26,72],[-32,-26],[-112,63],[-54,44],[-103,65]],[[22559,15335],[48,86],[37,39],[64,38],[88,36],[87,-13],[88,24],[21,50],[47,45],[0,70],[54,-12],[18,105],[91,12],[56,70],[48,7],[62,61],[-31,39],[37,42],[38,82],[88,37],[-44,51],[21,40],[39,30],[74,18],[-19,59],[-121,-42],[-26,19],[74,114],[111,87],[44,11],[23,41],[62,29],[-10,61],[57,12],[47,42],[84,-58],[53,43],[15,-32],[55,-10],[79,28],[26,41],[31,7],[45,-33],[22,69],[59,39],[77,-38],[20,-51],[76,-20],[3,-21],[-46,-52],[-20,-45],[74,-56],[17,-92],[-26,2]],[[24285,16867],[-19,-29],[-68,-37],[8,48],[79,18]],[[24108,16764],[-28,-58],[-30,44],[58,14]],[[19894,13789],[62,-1],[42,41],[76,0],[76,65],[137,6],[70,65],[82,14],[144,76],[7,44],[51,67],[71,71],[15,38],[121,93],[36,60]],[[20884,14428],[56,-40],[89,21],[72,67],[76,-31],[19,-42],[30,-3],[-14,-133],[5,-342],[77,-271],[-152,-34],[-55,38],[15,87],[-21,40],[-75,-3],[-72,-71],[52,-29],[31,-69],[-90,-227],[-29,-84],[12,-32],[-65,-74],[9,-53],[-46,-47],[11,-35],[-86,-22],[-17,-48],[-63,-30],[-51,6],[-89,-41],[-67,-10],[0,-37],[33,-24],[41,-79],[-38,-37],[-24,-75],[41,-67],[-28,-27],[125,-131]],[[20596,12439],[-312,-227],[-58,-119]],[[21198,12954],[9,-109],[-62,27],[53,82]],[[22638,13376],[55,-70],[-13,-25],[-57,3],[-40,35],[26,51],[29,6]],[[21876,14136],[29,-57],[-48,-24],[-13,46],[32,35]],[[22286,14557],[61,-39],[-37,-35],[-6,-56],[-35,0],[-23,-38],[-87,-1],[32,49],[-25,73],[25,48],[59,-36],[36,35]],[[22342,14670],[-55,-82],[-49,-19],[-46,15],[64,77],[42,-20],[44,29]],[[20884,14428],[49,55],[101,52],[30,83],[93,28],[12,69],[46,32],[6,29],[41,36],[23,58],[52,81],[150,59],[81,5],[-18,-67],[25,-58],[-25,-71],[20,-49],[-45,-104],[27,-37],[87,-28],[105,4],[9,-72],[-27,-226],[-40,-31],[-14,-36],[-63,-31],[-46,-71],[34,-21],[26,-61],[-81,-82],[-33,-62],[-22,-81],[6,-125],[-33,-29],[28,-44],[-33,-94],[38,-5],[-15,-89],[-23,-38],[8,-66],[-39,-20],[-67,11],[-56,-42],[-1,-59],[-53,-9],[-120,54],[-55,-71],[-35,-2],[-84,-43],[-32,-31],[-24,-68],[39,-12],[-113,-170],[-50,-28],[-13,-37],[-67,-64],[-36,-11],[-7,-41],[-47,25],[-47,-15],[15,-33],[52,7],[29,-57],[50,54],[45,-45],[60,4],[-19,74],[52,11],[3,-60],[44,-103],[52,-6],[67,23],[-3,65],[-59,55],[-31,88],[49,1],[-19,51],[1,103],[59,32],[100,-12],[-24,38],[53,10],[9,-94],[-44,-29],[106,-135],[34,-24],[51,-4],[8,41],[64,48],[42,-94],[52,-49],[-36,-71],[48,-38],[-15,-100],[16,-29],[-36,-39],[-12,17],[-8,2],[-4,-2],[-30,-4],[-11,-20],[11,-22],[-13,-4],[0,-2],[3,-9],[-1,-2],[-11,-6],[-5,-2],[-30,26],[-7,-47],[-30,-5]],[[21283,12311],[1,-50]],[[21284,12261],[-359,-47],[-109,-12],[-13,9],[-207,228]],[[22295,15249],[63,-51],[-10,-31],[-78,-4],[-16,67],[41,19]],[[24416,15657],[-16,-88],[8,-59],[-18,-40],[-44,-23],[20,-47],[-4,-76],[-78,-41],[-57,-228],[-17,-40],[7,-67],[65,5]],[[24282,14953],[-24,-18],[7,-77],[-44,-35],[-77,-125],[-58,-56],[3,-60],[-52,-164],[-14,-151],[33,-10],[10,-52],[-53,-56],[-1,-33],[36,-21],[-13,-41],[19,-49],[-68,-29],[-12,55],[-87,-5],[-63,-42],[17,-60],[-8,-65],[-113,34],[-81,-10],[-5,-71],[-26,-26],[-7,-76],[-40,-155],[-113,11],[6,-63],[-16,-70],[-51,-39],[-70,-12],[6,-54],[30,-47],[-36,-44],[-225,45],[-57,21],[-132,-4],[-108,-51],[-64,86],[-28,-8],[-25,66],[-30,17],[-29,53],[0,60],[-61,74],[35,22],[-50,45],[32,21],[-26,45],[-58,31],[0,56],[42,17],[-25,50],[-67,-87],[-30,-12],[-69,20],[-31,-40],[-137,-16],[23,76],[163,95],[47,14],[-8,57],[-70,33],[-77,65],[-42,-77],[32,-38],[-12,-68],[-61,3],[-49,-60],[-16,40],[13,109],[-35,19],[24,56],[77,21],[2,35],[59,9],[44,-69],[52,-44],[71,71],[16,52],[-22,38],[37,17],[86,-58],[43,61],[125,-24],[63,73],[-25,36],[61,18],[-16,41],[-132,-63],[-92,-59],[-79,-9],[-45,49],[51,59],[0,40],[-42,3],[-44,85],[19,105],[49,15],[0,82],[38,-8],[9,71],[-101,17],[28,33],[-74,36],[-29,-56],[-7,-58],[-53,-14],[-24,28],[-101,-126],[-40,14],[-15,-48],[12,-52],[-71,-25],[20,-54],[-39,-27],[-28,-48],[-79,-62],[-130,-17],[-37,49],[29,264],[12,68],[-4,105],[34,30],[62,92],[-43,15],[25,38],[-21,53],[37,20],[50,-7],[33,-61],[65,-16],[-58,134],[24,26],[-24,39],[64,36],[49,108],[90,-11],[55,-86],[94,-80],[-24,78],[40,0],[21,-82],[32,-33],[-2,114],[65,42],[29,-36],[-20,-91],[44,11],[87,-146],[26,22],[-80,73],[3,79],[-72,140],[25,58],[69,30]],[[28369,7662],[24,22],[-11,48],[74,-38],[-12,171],[21,30],[-23,65],[-103,112],[82,80],[-11,102],[-44,111],[22,7],[-50,199],[-9,105],[36,20],[32,-17],[45,25],[43,-46],[56,4],[18,29],[81,-14],[-1,50],[137,55],[21,-16],[15,-68],[44,14],[33,94],[20,6],[116,-97],[20,-80],[43,10],[21,-39],[11,-68],[-37,-118],[151,-54],[33,-37],[12,-82],[-34,-65],[-59,17],[-45,-8],[22,-78],[30,-46],[56,-17],[-12,-99],[27,-67],[-30,-23],[-20,-81],[21,-43],[-60,-40],[-25,-49],[-16,-83],[-77,2],[-26,34],[-66,-9],[-65,12],[-59,-10],[19,48],[-45,15],[-54,-84],[-32,3],[-17,-71],[-25,-29],[18,-52],[-23,-68],[70,-70],[18,-160],[40,-33],[-18,-49],[-38,37],[-43,16],[-63,101],[29,44],[-61,107],[-2,33],[35,24],[-39,39],[-94,68],[-79,34],[-46,6],[-22,109]],[[27431,7710],[5,-41],[92,-86],[35,-68],[0,-111],[51,-24],[26,-84],[-46,-4],[-51,30],[-108,-30],[-30,-46],[2,-35],[53,-42],[-16,-68],[-31,19],[-39,-66],[16,-48],[-81,-45],[-18,30],[-47,9],[5,42],[-37,21],[5,62],[-22,29],[-19,96],[102,60],[-43,36],[52,108],[-40,107],[33,56],[23,5],[31,81],[97,7]],[[27345,8492],[-5,-53],[79,-42],[27,-63],[85,21],[-11,68],[53,-34],[-32,-85],[47,-37],[-40,-75],[2,-55],[-34,-4],[-38,44],[-85,53],[-61,4],[9,34],[-39,54],[-38,-29],[-33,32],[34,50],[-19,34],[44,60],[55,23]],[[28320,8904],[-36,-31],[-5,-42],[-50,-7],[-43,-32],[-7,-30],[53,-21],[11,-34],[85,19],[-34,-62],[12,-48],[-29,-31],[-40,52],[-21,69],[-101,20],[-30,-9],[-47,37],[19,40],[52,-22],[23,50],[33,-4],[73,29],[33,42],[49,15]],[[29383,8244],[38,-65],[37,-24],[-3,-62],[-98,-16],[-64,47],[7,48],[47,95],[36,-23]],[[27752,9014],[32,-51],[-29,-75],[-67,-16],[-20,74],[39,45],[45,23]],[[27946,9096],[-27,-35],[-10,-57],[-63,-5],[70,137],[30,-40]],[[29236,7465],[3,-67],[-73,-3],[-17,49],[87,21]],[[27869,9153],[9,-29],[-24,-44],[-52,-27],[23,103],[44,-3]],[[28135,8915],[-17,-67],[-42,38],[23,33],[36,-4]],[[29499,8096],[-6,-68],[-39,-8],[10,64],[35,12]],[[27702,9926],[33,-7],[-10,-48],[52,-43],[-59,-57],[-73,45],[57,110]],[[27971,9660],[56,-43],[-37,-47],[-82,-2],[-14,64],[77,28]],[[27918,9919],[3,-61],[-45,20],[42,41]],[[27973,9519],[36,-22],[2,-52],[-26,-11],[-12,85]],[[27785,10164],[-13,-54],[-42,47],[55,7]],[[26378,14857],[-28,-29],[-1,-44],[-51,-19],[-45,-101]],[[26253,14664],[-73,-48],[41,-172],[37,-63],[59,-60],[179,-56],[60,-29],[73,-61],[88,-15],[58,-28],[63,68],[107,-65],[22,4],[68,-132],[3,-25],[-79,-2],[-38,-35],[-74,-20],[-17,-45],[-45,-13],[-96,-56],[-59,-12],[-50,-56],[-1,-60],[-55,-41],[-38,-61],[-4,-73],[31,-46],[24,-91],[-16,-33],[98,-90],[154,-8],[63,-88],[71,-7],[79,-29],[50,40],[38,7],[28,-26],[85,-42],[-21,-49],[44,-18],[-38,-45],[23,-71],[82,-96],[-33,-36],[-50,-15],[38,-77],[-43,-36],[-30,30],[29,43],[-112,13],[19,-79],[-45,-77],[-31,17],[23,76],[-10,33],[-74,-17],[-22,-41]],[[26936,12650],[-16,-103],[-66,-13],[-130,2],[-299,53],[-173,24],[-12,22],[-62,-20],[-108,-4],[-90,9],[-258,-1],[-33,16],[-32,-20],[-224,-22],[-37,36],[-87,-68],[-177,-23],[-26,39],[-47,-31],[-106,-29],[-149,-18],[-100,-37],[9,-41],[-22,-41],[-67,-56],[3,-54],[-39,-7],[-94,15],[-82,-111],[2,-58],[-80,-28],[25,-30],[-16,-61],[-103,69],[-35,66],[15,38],[-17,33],[-44,21],[-37,96],[-12,78],[-53,53],[-46,18],[-13,37],[-66,59],[-26,-2],[-58,55],[-77,38],[-103,79],[-84,121],[-76,52],[-25,31],[-41,103],[-93,165],[37,49],[5,65],[-14,28],[110,96],[-7,33],[79,69],[48,185],[5,62],[28,23],[-1,52],[28,19],[62,7],[52,-25],[88,-10],[71,32],[-51,84],[44,3],[78,-36],[26,-30],[10,-65],[27,-13],[-9,-45],[44,-26],[22,54],[43,13],[56,-37],[-15,184],[71,54],[78,-48],[15,14],[-39,75],[-42,-1],[-59,71],[-21,50],[-41,22],[-27,49],[14,44],[-34,51],[21,19],[-46,64],[19,29],[-26,68],[34,63],[40,44],[24,61],[102,102],[31,75],[-47,76]],[[24700,12625],[10,22],[208,128],[126,29],[46,20],[27,86],[-37,30],[-12,52],[-27,30],[-103,10],[-51,40],[-74,-8],[-75,6],[-62,-94],[-51,-7],[-37,37],[-77,-55],[-25,-65],[-35,1],[-106,-34],[170,-171],[54,-1],[37,-58],[94,2]],[[31885,11195],[-105,0],[-127,40],[-62,-40],[-86,2],[-116,43],[-22,-25],[-53,-14],[-61,29],[3,59],[-41,124],[-42,60],[-30,81],[-38,24],[-61,8],[-105,62],[-5,39],[-41,55],[-56,19],[-55,41],[-20,49],[-37,29],[7,87],[-76,30],[-130,-45],[-44,32],[-34,54],[-66,23],[-39,-39],[-72,29],[-96,-13],[-35,-22],[-176,92],[-77,-37],[-2,-62],[-121,19],[-77,-4],[9,56],[-46,53],[-24,55],[-36,3],[-46,41],[-44,12],[-73,-55],[-88,-6],[-22,-28],[-58,-28],[-70,8],[-55,-20],[-160,-6],[-29,-10],[-53,29],[-87,-37],[5,-26],[-70,-49],[0,-56]],[[28740,11960],[-63,8],[-30,-16],[-32,47],[-75,-22],[-57,18],[-63,42],[-38,-1],[-29,32],[-59,7],[-107,57],[-120,42],[-80,71],[-30,3],[-77,63],[-56,-61],[-202,66],[-118,90],[-72,23],[56,46],[-14,83],[-47,2],[-32,-53],[-103,-44],[-176,46],[-35,-3],[-73,42],[-11,46],[-61,56]],[[26253,14664],[38,0],[70,-50],[62,13],[87,-19],[49,21],[32,-24],[56,-1],[28,39],[101,19],[55,47],[42,17],[141,3],[47,29],[99,-55],[98,-1],[73,37],[60,8],[71,-18],[114,-123],[-74,-60],[25,-41],[82,9],[109,-18],[100,18],[185,-24],[103,40],[113,14],[190,85],[45,-3],[120,-45],[29,1],[108,53],[89,88],[15,38],[-40,59],[8,40],[56,50],[42,89],[44,32],[49,1],[80,-97],[35,-13],[236,147],[97,82],[311,-75],[38,-1],[30,-29],[71,-2],[71,-17],[77,35],[39,93],[63,36],[22,-11],[6,-55],[70,-24],[66,47],[65,-60],[64,-15],[60,-110],[61,-31],[56,-6],[18,-32],[85,-10],[60,-85],[56,-11],[42,18],[100,-31],[36,60],[138,-36],[85,37],[88,-8],[27,34],[54,27],[27,46],[56,55],[64,-34],[62,17],[3,-70],[-28,-103],[14,-70],[36,-41],[49,-24],[89,-7],[-17,-65],[54,-72],[6,-125],[94,-119],[38,-13],[66,9],[45,-78],[41,-9],[35,64],[9,104],[106,90],[113,31],[52,-37],[35,-95],[136,-6],[98,-61],[82,72],[71,0],[83,61],[48,3],[21,-25],[-13,-58],[46,-78],[44,-147],[-46,-61],[76,-29],[49,-56],[178,-94],[107,4],[47,47],[47,18],[120,-28],[156,-8],[122,-33],[66,-6],[51,-37],[78,-5],[103,-49],[95,-58],[82,13],[60,-54],[59,-29],[-47,-37],[35,-139],[74,-3],[16,-26],[-16,-75],[-34,-89],[6,-32],[71,-24],[63,-67]],[[31811,13093],[16,-65],[-60,-18],[-56,35],[100,48]],[[29163,13545],[45,8],[28,-22],[47,5],[23,-50],[45,-23],[138,-2],[10,-74],[-91,-48],[-39,24],[-108,12],[-99,-31],[-39,44],[-8,42],[59,38],[-11,77]],[[29175,13748],[-7,-51],[19,-40],[52,-40],[6,-28],[-43,-32],[-96,25],[-44,-7],[-13,51],[66,-2],[42,-28],[19,77],[-24,-4],[23,79]],[[29767,12835],[-14,35],[30,104],[49,28],[-9,44],[39,71],[24,-28],[-23,-43],[63,-20],[36,31],[68,-71],[37,30],[-25,60],[24,44],[-72,83],[116,25],[70,-40],[69,-83],[69,-1],[5,42],[-81,21],[-26,46],[-120,44],[-25,90],[-48,18],[-5,42],[45,70],[-45,23],[-4,-56],[-80,-32],[-29,47],[17,31],[-21,41],[-73,21],[8,36],[-63,19],[-123,-28],[-100,81],[42,19],[8,97],[102,-34],[71,23],[51,32],[17,29],[83,18],[128,-20],[49,33],[34,-30],[98,-32],[45,19],[28,-21],[18,-52],[61,8],[33,-24],[123,-4],[54,31],[45,-44],[-37,-32],[25,-86],[-112,-53],[24,-60],[46,-2],[14,-28],[51,8],[3,-39],[76,-71],[-92,22],[-110,41],[-81,1],[-27,-63],[57,-79],[49,-42],[-25,-22],[19,-39],[-29,-31],[-31,-75],[129,61],[33,48],[10,44],[-12,68],[18,20],[71,-48],[12,-63],[-33,-57],[117,18],[-35,60],[49,95],[-16,40],[12,50],[81,-21],[59,37],[13,-40],[-53,-30],[-63,-146],[18,-69],[40,-15],[35,-92],[48,-18],[61,70],[-5,55],[37,103],[50,-48],[28,4],[-2,-72],[30,-25],[-18,-56],[42,-57],[47,-22],[57,26],[138,-145],[-2,-59],[36,-17],[18,-110],[88,4],[-1,44],[28,70],[0,63],[-18,36],[51,50],[-10,32],[92,-16],[39,66],[67,-50],[-7,-37],[35,-23],[37,28],[65,-55],[22,63],[-56,45],[-2,118],[-50,92],[-47,21],[-48,-39],[-49,17],[-30,-27],[-63,89],[-91,-10],[25,42],[47,9],[25,42],[-63,34],[-55,-16],[-56,-34],[-52,6],[-85,27],[-72,-2],[-51,26],[-117,6],[-50,33],[-81,31],[-86,-42],[-74,53],[-24,-81],[-45,53],[-38,7],[19,55],[-51,19],[-39,-13],[-59,56],[55,34],[82,154],[109,8],[-24,105],[-64,-40],[-37,1],[-70,31],[-66,-3],[-41,62],[-55,-3],[-40,47],[-62,-3],[-126,18],[-76,-12],[-84,39],[-24,29],[-162,-25],[-36,48],[-21,-51],[-80,-14],[-131,21],[-61,-20],[-162,-19],[-21,-61],[98,-4],[72,-53],[-13,-50],[18,-63],[-48,-36],[-94,27],[33,43],[-122,-28],[-53,17],[-32,-21],[-34,54],[-65,29],[-27,-52],[-7,-55],[-42,27],[-8,-64],[-63,54],[-62,-14],[63,-38],[4,-64],[34,-29],[-39,-32],[18,-41],[62,-1],[36,-101],[63,-99],[-52,-35],[59,-52],[64,-30],[82,-11],[38,-43],[43,-1],[17,-51],[33,14],[35,-36],[65,-2],[37,24],[149,-59],[17,-62],[-15,-81],[20,-31]],[[30755,9966],[-35,-45],[-18,50],[53,-5]],[[29657,11163],[2,-27],[-51,-69],[-58,-46],[-67,-3],[22,88],[-101,107],[24,24],[156,26],[67,-17],[-11,-41],[17,-42]],[[32173,7923],[-26,86],[5,25],[-50,28],[2,29],[-60,78],[-63,31],[-15,52],[-37,41],[35,38],[-14,50],[14,29],[-65,57],[28,67],[-34,30],[27,30],[-67,48],[-42,-5],[-38,-98],[-89,73],[-46,24],[-72,143],[17,44],[35,-6],[13,43],[-54,49],[-6,39],[21,44],[55,50],[-13,73],[-35,58],[-75,31],[20,89],[-118,90],[-27,94],[-34,42],[-35,14],[-1,56],[49,-9],[55,34],[50,-25],[49,-67],[52,-17],[14,54],[-81,112],[-49,31],[-23,52],[34,57],[0,37],[-28,42],[24,66],[-63,38],[-104,15],[-111,41],[-134,93],[34,31],[-84,70],[-89,46],[-109,-14],[-16,-84],[-56,58],[-6,56],[-44,-9],[-31,32],[20,36],[-38,60],[46,60],[9,39],[73,61],[0,85],[29,59],[-25,29],[-39,-116],[5,-63],[-42,-17],[-61,40],[-59,-2],[-45,-37],[-22,-43],[-44,-40],[-109,59],[60,46],[15,54],[-22,40],[-74,46],[-49,-15],[-84,24],[-6,56],[-51,-16],[-1,-42],[-99,22],[-45,32],[-47,0],[-2,45],[-36,33],[-61,8],[4,55],[-28,118],[29,20],[-34,45],[-94,60],[-68,10],[-7,31],[23,46],[-28,37],[-12,64],[-77,34],[-17,60],[9,42],[-81,66],[-31,-35],[16,-27],[71,-12],[11,-88],[-16,-31],[24,-86],[-127,-15],[-37,-17],[-55,-90],[-52,-40],[-61,35],[-81,90],[-40,26],[-1,58],[-65,100],[-5,60],[-35,37],[-32,151],[-32,15],[-10,53],[-55,42],[-57,6],[-9,84],[-58,84]],[[21284,12261],[101,-257],[-1,-57],[-75,-28],[64,-112],[-7,-39],[-41,-71],[38,-148],[-21,-38],[32,-32],[6,-63],[31,-75],[56,13],[14,-50],[50,-14],[69,53],[21,-53],[-18,-69],[113,-8],[82,-80],[40,3],[19,50],[38,21],[112,17],[143,-70],[21,61],[49,16],[29,39],[58,40],[13,-36],[-7,-62],[18,-78],[63,-35],[87,-71],[70,31],[41,34],[33,-35],[19,-92],[47,-63],[37,-12]],[[22728,10891],[50,36],[34,-65],[34,-15],[30,-104],[3,-50],[-24,-18],[58,-43],[75,-81],[-43,-62],[-14,-70],[-53,-2],[-16,-71],[38,-34],[-76,-101],[-196,-76],[16,107],[-20,-3],[-55,-62],[10,-86],[-24,-43],[-85,22],[-29,-4],[-45,-60],[-48,-34],[-61,53],[-61,32],[39,52],[-11,31],[5,20],[-15,20],[21,4],[-2,11]],[[22263,10195],[24,34],[-49,69],[-80,16],[-38,-36],[-36,37],[-75,-19],[-13,-40],[-50,-13],[-72,-66],[-99,-8],[-48,61],[-76,58],[-17,31],[-42,4],[-48,46],[-48,22],[-51,-45],[-57,-27],[-47,10],[-94,49],[-78,9],[-140,-11],[-36,-46],[-91,-36],[-106,-166],[-80,-65],[-46,-15],[-1,-31]],[[20669,10017],[-191,-94]],[[22263,10195],[-12,-11],[-21,7],[23,-32],[0,-64],[-28,-4],[-5,-51],[75,-44],[41,-66],[89,-24],[53,-48],[178,-83],[73,-23],[13,19],[73,20],[78,2],[20,-24],[-16,-61],[90,31],[76,73],[-60,-1],[-31,24],[90,31],[40,67],[88,39],[112,96],[11,-26],[-60,-69],[-135,-111],[-180,-176],[-166,-128],[-150,-75],[-196,-60],[-71,6],[-24,-39],[-203,-40],[-13,-35],[-73,-45],[18,-79],[-144,-56],[-59,22]],[[21857,9157],[-32,50],[-65,45],[-99,42],[-31,36],[-93,4],[-46,36],[-98,21],[-24,25],[-41,-9],[-22,49],[-55,15],[-41,109],[-27,111],[-46,13],[-69,84],[-25,96],[-42,63],[-63,6],[-72,22],[-65,-5],[-31,33],[-101,14]],[[21857,9157],[31,-25],[-88,-70],[-22,-37],[-189,-94],[-41,-79],[-21,-77],[-58,-62],[-66,-33],[-40,-46],[-81,-34],[-88,-56],[-133,-104],[-95,-39],[-69,-46]],[[24235,11087],[54,-21],[34,-68],[59,-33],[9,-49],[-64,-26],[-8,43],[-45,16],[-60,-17],[-38,45],[5,77],[54,33]],[[23960,9748],[44,-16],[28,-49],[-21,-47],[-38,26],[-73,-25],[-3,57],[37,8],[26,46]],[[24599,11164],[8,-40],[-46,-63],[-44,49],[82,54]],[[24020,9541],[40,-10],[10,-48],[-26,-23],[-41,21],[17,60]],[[23254,11603],[-33,22],[8,54],[-18,59],[-95,56],[-54,-19],[-100,75],[-69,-3],[-13,17],[-65,-24],[-34,64],[7,91],[57,7],[19,67],[94,52],[-14,53],[-35,11],[8,86],[-152,113],[14,74],[33,18],[8,51],[68,51],[-50,114],[-36,7],[15,63],[-3,68],[-51,30],[-45,4],[-42,56],[-16,47]],[[22660,12967],[10,37],[-36,35],[-36,-24],[-60,2],[-53,37],[6,50],[64,14],[39,40],[-5,106],[44,-23],[-26,-92],[-2,-71],[99,92],[-40,43],[67,17],[37,-56],[38,9],[76,-20],[-15,64],[85,-28],[26,19],[-9,57],[59,-21],[9,-28],[48,-14],[49,18],[67,1],[19,-26],[108,-8],[16,-15],[90,-155],[34,-98],[22,-31],[89,-66],[84,-119],[95,-71],[115,-66],[28,-48],[148,-120],[50,-74],[-15,-58],[54,-77],[25,-55],[-12,-81],[71,-27],[-42,-66],[77,-60],[-35,-135],[-54,-41],[-41,9],[-38,-50],[-70,15],[-137,-3],[-105,-50],[-110,-1],[-4,-39],[-68,38],[3,49],[-63,-4],[-35,-21],[-20,-43],[25,-119],[-45,-20],[-40,18],[7,43],[-19,30],[-46,-7],[-51,-46],[-11,44],[-46,26]],[[22287,13692],[40,-45],[3,-61],[42,-12],[44,25],[39,-40],[-24,-48],[-136,-74],[-41,-48],[-83,38],[-57,58],[-8,67],[24,75],[30,-1],[50,50],[41,-49],[36,65]],[[21283,12311],[31,4],[8,47],[27,-25],[6,0],[9,6],[3,2],[1,3],[10,13],[-11,24],[27,2],[8,5],[6,16],[6,1],[19,-21],[34,36],[-2,37],[54,47],[-25,66],[87,148],[-29,88],[-49,105],[-35,-3],[-6,84],[23,40],[35,6],[1,-71],[53,34],[78,-134],[64,36],[-99,63],[-13,41],[-36,19],[28,69],[87,7],[21,-53],[32,-33],[76,0],[-44,66],[-46,34],[16,111],[54,13],[-16,44],[-31,3],[-4,78],[-84,85],[57,18],[-6,53],[-41,1],[-20,51],[55,20],[35,75],[81,-93],[35,-7],[5,-97],[42,12],[30,60],[5,78],[81,-47],[0,-107],[60,-8],[-66,-59],[25,-51],[61,-81],[43,-5],[22,35],[-24,41],[27,24],[45,-55],[79,-6],[85,60],[80,-95],[64,1],[5,-43],[36,-80],[-50,-12],[-25,-28],[-41,2],[-4,-84],[-28,-35],[-1,-73],[-28,-37],[-62,51],[-32,-23],[-57,21],[-14,-24],[-63,-19],[-23,47],[-36,14],[-33,-39],[47,-21],[14,-46],[-17,-66],[34,-2],[43,51],[58,-26],[3,-99],[43,12],[-10,75],[18,26],[64,-11],[-24,-58],[31,-58],[28,-5],[19,73],[-15,47],[-32,29],[16,35],[54,29],[-12,73],[89,27],[129,27],[19,-55]],[[23254,11603],[-56,-84],[-111,-70],[-41,-54],[-22,13],[-77,-77],[22,-54],[-64,-24],[3,-56],[-38,-57],[-53,-48],[-35,-159],[-38,9],[-16,-51]],[[27580,16320],[48,23],[146,20],[142,13],[54,-22],[30,24],[43,-13],[64,14],[33,-31],[35,28],[77,-27],[94,29],[34,-49],[-94,-85],[-49,29],[-42,-85],[-36,-21],[-52,26],[-102,-27],[-104,3],[-72,-15],[-27,13],[-86,-71],[-6,-34],[-43,-40],[-26,-49],[0,-68],[39,-55],[-51,-48],[10,-66],[35,-57],[33,-20],[-45,-98],[33,-6],[16,-44],[37,-18],[58,-2],[13,27],[68,40],[52,-2],[107,-48],[114,13],[44,42],[28,54],[47,21],[60,-33],[90,48],[43,-20],[104,-74],[120,-24],[52,-113],[101,-25],[36,20],[131,0],[31,-54],[106,13],[12,65],[32,-4],[2,57],[54,18],[48,-10],[10,-29],[55,-37],[41,43],[82,-7],[97,26],[-1,70],[26,19],[93,16],[-2,-42],[66,0],[28,-28],[84,18],[9,39],[150,50],[22,-66],[53,-6],[54,-61],[87,-32],[58,45],[47,-67],[71,-38],[93,2],[3,42],[34,15],[76,-32],[87,-6],[44,-32],[-8,-56],[37,-2],[61,62],[45,-9],[89,32],[56,67],[79,37],[107,-20],[49,-61],[85,-3],[12,-43],[83,-11],[40,-38],[34,6],[101,-25],[18,36],[85,-4],[22,-35],[35,16],[39,-75],[30,16],[73,-11],[152,-9],[42,-32],[25,-61],[-2,-35],[48,-33],[50,23],[94,-78],[118,4],[16,-54],[29,-24],[126,-41],[69,8],[58,-24],[29,10],[48,-59],[65,-40],[38,-7],[24,-45],[53,-7],[68,-32],[20,-59],[44,-3],[33,42],[73,-48],[50,-10],[14,-39],[62,14],[52,-16],[48,-82],[43,-2],[86,-58],[66,-20],[85,-7],[62,9],[47,25],[37,-39],[74,-9],[97,-63],[100,-16],[41,-46],[24,46],[39,-1],[61,-44],[-57,-35],[5,-45],[63,-28],[67,19],[77,-36],[77,-7],[78,13],[18,-17],[66,1],[63,-28],[73,-51],[-3,-89],[82,-30],[115,-112],[-2,-47],[48,-48],[95,-29],[23,29],[73,-135],[39,10],[97,-58],[46,-82],[-97,10],[38,-54],[42,0],[79,-86],[11,-38],[51,-53],[50,-10],[28,-46],[63,-70],[56,-22],[-11,-28],[82,-18],[30,-46],[-49,-87],[32,-18],[52,2],[11,-27],[53,-18],[16,-28],[55,14],[-34,55],[-37,23],[-22,71],[30,34],[-9,45],[-40,43],[-2,71],[53,-18],[47,-43],[43,-72],[77,-106],[13,-33],[226,-158],[-5,-60],[37,-134],[74,-40],[72,-60],[72,-38],[-59,-16],[25,-51],[110,-44],[-3,-103],[52,30],[17,-34],[78,-22],[3,-39],[-47,-23],[-51,32],[-36,-43],[-11,-54],[66,-77],[49,-14],[46,-97],[-7,-43],[30,-56],[121,-79],[-32,-47],[27,-33],[75,-44],[40,-3],[38,-83],[51,5],[18,-33],[44,-2],[67,-69],[48,-70],[72,-27],[-3,-78],[38,-16],[17,-63],[51,5],[17,38],[47,-60],[32,12],[-71,120],[-30,92],[33,-3],[23,-38],[60,-46],[49,-108],[27,-27],[57,-5],[43,-46],[5,-36],[59,-17],[65,-38],[17,-62],[-33,-32],[-1,-62],[57,-66],[77,-22],[28,42],[-3,58],[72,-9],[48,-69],[-9,-27],[40,-52],[-27,-23],[-9,-85],[-40,-2],[-39,-61],[4,-73],[30,-61],[309,-187],[108,12],[179,-71],[39,-24],[111,-5],[54,24],[89,-21],[-1,43],[36,55],[73,-9],[5,39],[58,16],[114,-111],[50,9],[30,41],[-18,48],[43,8],[12,-48],[-42,-55],[4,-127],[-16,-13],[-110,-10],[-77,-35],[-7,-29],[6,-200],[-267,-328],[-7,-69],[-30,-74],[-73,-115],[1,-77]],[[36801,12512],[56,-41],[-10,-59],[-88,22],[-20,39],[33,39],[29,0]],[[36956,12078],[96,-66],[30,-67],[-41,-9],[-11,38],[-63,50],[-11,54]],[[37127,11943],[47,-88],[-42,0],[-22,52],[17,36]],[[5858,8195],[-18,-44],[-67,-63],[22,-39],[-21,-41],[-72,-20],[53,-73],[-92,-89],[-8,-94],[-26,-38],[-22,-77],[-91,-54],[-55,2],[-23,-37],[-49,40],[-60,68],[-155,59],[6,54],[104,45],[27,41],[79,47],[43,-8],[44,16],[-54,52],[-67,-18],[-89,-57],[-52,-66],[-71,52],[-50,-6],[-54,-33],[-38,-56],[-54,23],[-19,39],[-35,-4],[72,-113],[-44,-71],[-11,-47],[-71,53],[-73,-8],[-5,-90],[-86,-11],[-81,13],[-5,44],[-43,60],[-52,1],[-28,-15],[-62,16],[-30,-85],[-40,6],[-57,62],[-26,-17],[-25,134],[59,41],[58,-11],[13,41],[-48,42],[-11,-41],[-54,0],[-39,-26],[-4,-75],[-44,-76],[-58,73],[-47,12]],[[4402,7503],[-13,37],[30,102],[41,-29],[33,25],[57,-1],[39,-64],[-5,-29],[-67,-34],[-86,8],[-29,-15]],[[5217,7474],[-78,36],[-107,5],[-44,26],[-38,100],[59,79],[57,-29],[71,-15],[46,-106],[52,-63],[-18,-33]],[[4571,7433],[-20,36],[33,41],[28,-12],[-18,-52],[-23,-13]],[[5092,7307],[-40,12],[44,49],[37,-36],[-41,-25]],[[5017,7297],[-60,36],[-82,106],[-54,26],[-51,-25],[-45,31],[-24,40],[-65,-37],[-38,-66],[-92,-61],[-48,-13],[-39,14],[-17,36],[28,46],[56,2],[52,26],[20,-24],[21,-4],[40,34],[9,37],[87,24],[76,-3],[76,-23],[54,47],[32,-13],[51,-53],[33,6],[52,-36],[-9,-71],[-63,-82]],[[5187,7276],[48,75],[111,106],[-5,-49],[-52,-63],[-102,-69]],[[4577,6980],[-20,9],[-41,81],[-57,69],[-170,129],[-9,56],[50,-1],[39,-21],[123,17],[104,61],[34,49],[72,15],[34,-33],[53,11],[34,33],[50,-27],[50,-63],[-71,-61],[52,-25],[58,32],[80,-53],[68,-16],[-7,-26],[-105,12],[-115,-82],[-53,16],[-70,-36],[-18,-38],[-106,-52],[-57,-14],[-2,-42]],[[4941,6132],[-105,57],[-92,19],[43,37],[-15,49],[88,20],[49,27],[-17,47],[10,55],[62,22],[95,-19],[-41,-86],[35,-31],[-42,-43],[0,-80],[-70,-74]],[[16939,217],[-101,-25],[-73,9],[-139,-58],[-61,-2],[-39,-39],[-41,3],[-50,-45],[-63,24],[-46,-38],[-32,10],[-55,-21],[-47,21],[-158,10],[-31,16],[-103,-12],[-68,23],[-82,-18],[-33,-51],[-208,27],[-66,29],[-63,-46],[-63,6],[-16,50],[-51,-15],[-8,-46],[-121,-29],[-43,32],[-33,-24],[-29,57],[27,58],[-53,35],[-28,83],[-59,9],[-58,62],[-64,-23],[-75,22],[13,37],[-55,20],[65,98],[58,1],[10,44],[-26,19],[20,49],[-30,48],[16,60],[27,28],[-8,35],[80,41],[58,65],[72,9],[3,93],[-42,131],[-34,73],[-111,138],[-67,58],[-23,95],[2,72],[34,49],[47,22],[13,44],[-18,50],[-72,95],[-64,63],[-54,74],[-11,42],[-171,86],[38,101],[61,1],[11,38],[-12,98],[61,64],[-2,74],[-88,119],[-17,34],[-92,63],[-8,27],[33,39],[5,39],[-30,72],[-53,46],[-119,48],[-8,83],[-159,86],[-52,18],[-87,72],[-19,55],[2,64],[61,-8],[14,75],[83,38],[128,9],[-21,25],[-79,-1],[-62,-18],[-60,48],[-41,77],[-20,81],[11,33],[112,-2],[39,-27],[44,-6],[8,-10],[23,7],[10,22],[48,6],[20,13],[29,-22]],[[8595,592],[85,16],[50,-17],[38,15],[37,-33],[29,21],[63,9],[27,-44],[-82,-39],[-48,-42],[9,-42],[-61,-105],[-61,-70],[21,-60],[-27,-39],[-27,77],[-27,33],[-7,46],[-51,113],[-39,57],[29,52],[-7,36],[49,16]],[[12794,2580],[29,-4],[123,-83],[27,-32],[-74,-21],[-57,-36],[-142,-12],[17,65],[-5,65],[82,58]],[[13601,2617],[137,-7],[63,-19],[77,18],[73,-53],[-78,-126],[-18,-65],[-87,-31],[-86,-80],[-41,6],[-17,33],[-118,58],[-122,31],[-58,-18],[-34,-31],[-61,-25],[-5,-67],[-64,-25],[-18,-33],[-198,-126],[16,-46],[-118,-34],[-121,-25],[4,47],[-36,38],[-27,-21],[-67,-6],[-37,-36],[16,-25],[-38,-33],[-85,42],[117,136],[84,86],[81,14],[49,51],[93,-6],[42,30],[66,-6],[77,12],[54,100],[59,56],[32,47],[60,45],[133,17],[44,31],[58,6],[66,44],[33,-4]],[[9060,3055],[49,-125],[75,33],[-2,-62],[-31,-19],[48,-42],[27,-104],[-23,-70],[35,-90],[-13,-9],[35,-105],[21,-11],[24,-87],[38,-47],[75,32],[109,-2],[33,-130],[1,-84],[-39,-62],[-97,-7],[-41,-36],[-87,-22],[-48,-122],[19,-74],[-33,-91],[-46,-33],[29,-79],[65,-24],[52,-40],[64,-21],[-23,-50],[27,-82],[-2,-34],[75,-87],[47,32],[84,-44],[115,21],[42,-47],[11,71],[34,29],[47,-8],[76,-64],[26,-52],[43,-22],[7,-72],[62,-38],[-4,-119],[26,-42],[49,-14],[1,-57],[-177,7],[-98,-36],[-27,-28],[-60,-5],[-141,58],[-27,0],[-167,98],[-94,-1],[-47,27],[-117,20],[-159,17],[-57,12],[-90,70],[-25,-3],[-43,84],[-57,77],[-55,47],[-66,85],[-64,32],[-28,40],[-70,54],[-60,24],[-103,96],[-27,8],[-49,93],[20,54],[-30,58],[-39,133],[-61,52],[-12,32],[19,68],[-51,33],[6,44],[35,21],[39,-13],[56,-44],[35,6],[36,45],[17,59],[-12,26],[26,76],[44,-14],[29,33],[16,79],[2,106],[39,20],[11,64],[44,37],[66,-1],[22,-19],[74,40],[124,144],[35,58],[50,-20],[13,25],[59,-45],[47,29],[-32,64],[-37,18],[18,51],[74,-22],[44,39]],[[9388,3092],[33,-23],[-24,-60],[-24,-14],[-52,18],[-23,39],[90,40]],[[13347,3879],[43,-12],[65,-59],[58,-16],[10,-121],[23,-41],[-34,-66],[-118,19],[-38,38],[-108,45],[16,55],[77,29],[8,46],[-16,55],[14,28]],[[13676,4404],[38,-9],[25,-72],[-28,-52],[-82,-4],[-60,66],[50,68],[57,3]],[[13842,4728],[-46,-11],[32,77],[49,65],[-2,140],[114,103],[-13,59],[30,10],[17,39],[50,9],[10,15],[46,-16]],[[14084,5332],[-61,-86],[-18,-67],[-35,-11],[8,-70],[-59,-17],[-8,-32],[-45,-30],[-19,-151],[-66,-42],[-40,21]]],"transform":{"scale":[0.00014395285411493772,0.00014424924967646938],"translate":[-83.05162498334408,7.204337418591059]},"objects":{"PAN":{"type":"GeometryCollection","geometries":[{"arcs":[[[0]],[[1,2,3,4,5,6]]],"type":"MultiPolygon","properties":{"name":"Changuinola","shapeGroup":"PAN","gid":"PAN-2-0"},"id":"PAN-2-0"},{"arcs":[[[-2,7,8,9,10,11]],[[12]],[[13]],[[14]],[[15]],[[16]],[[17]],[[18]],[[19]]],"type":"MultiPolygon","properties":{"name":"Bocas del Toro","shapeGroup":"PAN","gid":"PAN-2-1"},"id":"PAN-2-1"},{"arcs":[[[-9,20,21]],[[22,23]],[[24,25]],[[-11,26]]],"type":"MultiPolygon","properties":{"name":"Chiriquí Grande","shapeGroup":"PAN","gid":"PAN-2-2"},"id":"PAN-2-2"},{"arcs":[[-6,27,28,29]],"type":"Polygon","properties":{"name":"Renacimiento","shapeGroup":"PAN","gid":"PAN-2-3"},"id":"PAN-2-3"},{"arcs":[[30,31,32,33,34]],"type":"Polygon","properties":{"name":"San Félix","shapeGroup":"PAN","gid":"PAN-2-4"},"id":"PAN-2-4"},{"arcs":[[-29,35,36,37]],"type":"Polygon","properties":{"name":"Barú","shapeGroup":"PAN","gid":"PAN-2-5"},"id":"PAN-2-5"},{"arcs":[[-37,38,39,40,41]],"type":"Polygon","properties":{"name":"Alanje","shapeGroup":"PAN","gid":"PAN-2-6"},"id":"PAN-2-6"},{"arcs":[[-40,42,43,44]],"type":"Polygon","properties":{"name":"Boquerón","shapeGroup":"PAN","gid":"PAN-2-7"},"id":"PAN-2-7"},{"arcs":[[-4,45,46,47,48,-44,49]],"type":"Polygon","properties":{"name":"Boquete","shapeGroup":"PAN","gid":"PAN-2-8"},"id":"PAN-2-8"},{"arcs":[[-5,-50,-43,-39,-36,-28]],"type":"Polygon","properties":{"name":"Bugaba","shapeGroup":"PAN","gid":"PAN-2-9"},"id":"PAN-2-9"},{"arcs":[[-47,50,51,52,53]],"type":"Polygon","properties":{"name":"Gualaca","shapeGroup":"PAN","gid":"PAN-2-10"},"id":"PAN-2-10"},{"arcs":[[[54,55]],[[56,57]],[[58]],[[59,60,61,62,63,64],[65],[66]]],"type":"MultiPolygon","properties":{"name":"Tolé","shapeGroup":"PAN","gid":"PAN-2-11"},"id":"PAN-2-11"},{"arcs":[[[-34,67,68,-53,69,70]],[[71]],[[72]],[[73]],[[74]],[[75]],[[76]],[[77]]],"type":"MultiPolygon","properties":{"name":"San Lorenzo","shapeGroup":"PAN","gid":"PAN-2-12"},"id":"PAN-2-12"},{"arcs":[[[-32,78,79,-60,80]],[[81]]],"type":"MultiPolygon","properties":{"name":"Remedios","shapeGroup":"PAN","gid":"PAN-2-13"},"id":"PAN-2-13"},{"arcs":[[-49,82]],"type":"Polygon","properties":{"name":"Dolega","shapeGroup":"PAN","gid":"PAN-2-14"},"id":"PAN-2-14"},{"arcs":[[83,84,85,86,87,88]],"type":"Polygon","properties":{"name":"Aguadulce","shapeGroup":"PAN","gid":"PAN-2-15"},"id":"PAN-2-15"},{"arcs":[[89,90,91,92]],"type":"Polygon","properties":{"name":"Antón","shapeGroup":"PAN","gid":"PAN-2-16"},"id":"PAN-2-16"},{"arcs":[[93,94,95,96]],"type":"Polygon","properties":{"name":"La Pintada","shapeGroup":"PAN","gid":"PAN-2-17"},"id":"PAN-2-17"},{"arcs":[[-85,97,98,99,-95,100,101]],"type":"Polygon","properties":{"name":"Natá","shapeGroup":"PAN","gid":"PAN-2-18"},"id":"PAN-2-18"},{"arcs":[[-96,-100,102,103]],"type":"Polygon","properties":{"name":"Olá","shapeGroup":"PAN","gid":"PAN-2-19"},"id":"PAN-2-19"},{"arcs":[[-90,104,-101,-94,105,106,107]],"type":"Polygon","properties":{"name":"Penonomé","shapeGroup":"PAN","gid":"PAN-2-20"},"id":"PAN-2-20"},{"arcs":[[-35,-71,108,109,110]],"type":"Polygon","properties":{"name":"Mironó","shapeGroup":"PAN","gid":"PAN-2-21"},"id":"PAN-2-21"},{"arcs":[[-3,-12,-27,-10,-22,111,-24,112,-25,113,114,115,116,-110,117,-51,-46]],"type":"Polygon","properties":{"name":"Kankintú","shapeGroup":"PAN","gid":"PAN-2-22"},"id":"PAN-2-22"},{"arcs":[[[118]],[[-115,119,120,121,122]]],"type":"MultiPolygon","properties":{"name":"Kusapín","shapeGroup":"PAN","gid":"PAN-2-23"},"id":"PAN-2-23"},{"arcs":[[[-122,123,124,125,126]],[[127]],[[128]],[[129,130,131,132,133,134]],[[-63,135,136,137]]],"type":"MultiPolygon","properties":{"name":"Ñürüm","shapeGroup":"PAN","gid":"PAN-2-24"},"id":"PAN-2-24"},{"arcs":[[[-55,138,-130,139,-137,140,-61,-80,141,-116,-123,-127,142]],[[-66]],[[-67]]],"type":"MultiPolygon","properties":{"name":"Müna","shapeGroup":"PAN","gid":"PAN-2-25"},"id":"PAN-2-25"},{"arcs":[[-31,-111,-117,-142,-79]],"type":"Polygon","properties":{"name":"Nole Duima","shapeGroup":"PAN","gid":"PAN-2-26"},"id":"PAN-2-26"},{"arcs":[[-52,-118,-109,-70]],"type":"Polygon","properties":{"name":"Besiko","shapeGroup":"PAN","gid":"PAN-2-27"},"id":"PAN-2-27"},{"arcs":[[-99,143,144,145,-124,-121,146,147,-103]],"type":"Polygon","properties":{"name":"Santa Fé","shapeGroup":"PAN","gid":"PAN-2-28"},"id":"PAN-2-28"},{"arcs":[[-145,148,149,150]],"type":"Polygon","properties":{"name":"San Francisco","shapeGroup":"PAN","gid":"PAN-2-29"},"id":"PAN-2-29"},{"arcs":[[151,152,153,154,155]],"type":"Polygon","properties":{"name":"La Mesa","shapeGroup":"PAN","gid":"PAN-2-30"},"id":"PAN-2-30"},{"arcs":[[-89,156,157,158,159,160,161,162,163,164,165,-153,166,-150,167]],"type":"Polygon","properties":{"name":"Santiago","shapeGroup":"PAN","gid":"PAN-2-31"},"id":"PAN-2-31"},{"arcs":[[-159,168]],"type":"Polygon","properties":{"name":"Atalaya","shapeGroup":"PAN","gid":"PAN-2-32"},"id":"PAN-2-32"},{"arcs":[[-84,-168,-149,-144,-98]],"type":"Polygon","properties":{"name":"Calobre","shapeGroup":"PAN","gid":"PAN-2-33"},"id":"PAN-2-33"},{"arcs":[[[-155,169,170,171]],[[172]],[[173]],[[174]]],"type":"MultiPolygon","properties":{"name":"Soná","shapeGroup":"PAN","gid":"PAN-2-34"},"id":"PAN-2-34"},{"arcs":[[[-154,-166,175,176,-170]],[[177]]],"type":"MultiPolygon","properties":{"name":"Río de Jesús","shapeGroup":"PAN","gid":"PAN-2-35"},"id":"PAN-2-35"},{"arcs":[[[-56,-143,-126,178,-131,-139]],[[-62,-141,-136]],[[179]],[[180]],[[-133,181]],[[-57,182,-64,-138,-140,-135,183,-156,-172,184],[-129]]],"type":"MultiPolygon","properties":{"name":"Las Palmas","shapeGroup":"PAN","gid":"PAN-2-36"},"id":"PAN-2-36"},{"arcs":[[-125,-146,-151,-167,-152,-184,-134,-182,-132,-179],[-128]],"type":"Polygon","properties":{"name":"Cañazas","shapeGroup":"PAN","gid":"PAN-2-37"},"id":"PAN-2-37"},{"arcs":[[185,186,187,188]],"type":"Polygon","properties":{"name":"Chitré","shapeGroup":"PAN","gid":"PAN-2-38"},"id":"PAN-2-38"},{"arcs":[[-87,189,-189,190,191,192]],"type":"Polygon","properties":{"name":"Parita","shapeGroup":"PAN","gid":"PAN-2-39"},"id":"PAN-2-39"},{"arcs":[[-188,193,194,195,196,197,-191]],"type":"Polygon","properties":{"name":"Pesé","shapeGroup":"PAN","gid":"PAN-2-40"},"id":"PAN-2-40"},{"arcs":[[-196,198,199,200]],"type":"Polygon","properties":{"name":"Los Pozos","shapeGroup":"PAN","gid":"PAN-2-41"},"id":"PAN-2-41"},{"arcs":[[-158,201,-192,-198,202,203,-160,-169]],"type":"Polygon","properties":{"name":"Ocú","shapeGroup":"PAN","gid":"PAN-2-42"},"id":"PAN-2-42"},{"arcs":[[-197,-201,204,-203]],"type":"Polygon","properties":{"name":"Las Minas","shapeGroup":"PAN","gid":"PAN-2-43"},"id":"PAN-2-43"},{"arcs":[[-88,-193,-202,-157]],"type":"Polygon","properties":{"name":"Santa María","shapeGroup":"PAN","gid":"PAN-2-44"},"id":"PAN-2-44"},{"arcs":[[205,206,207,208]],"type":"Polygon","properties":{"name":"Pedasí","shapeGroup":"PAN","gid":"PAN-2-45"},"id":"PAN-2-45"},{"arcs":[[-209,209,210]],"type":"Polygon","properties":{"name":"Pocrí","shapeGroup":"PAN","gid":"PAN-2-46"},"id":"PAN-2-46"},{"arcs":[[[-207,211,212,213,214]],[[215]]],"type":"MultiPolygon","properties":{"name":"Tonosí","shapeGroup":"PAN","gid":"PAN-2-47"},"id":"PAN-2-47"},{"arcs":[[-208,-215,216,217,218,-210]],"type":"Polygon","properties":{"name":"Las Tablas","shapeGroup":"PAN","gid":"PAN-2-48"},"id":"PAN-2-48"},{"arcs":[[-218,219,220,221]],"type":"Polygon","properties":{"name":"Guararé","shapeGroup":"PAN","gid":"PAN-2-49"},"id":"PAN-2-49"},{"arcs":[[-195,222,-220,-217,-214,-199]],"type":"Polygon","properties":{"name":"Macaracas","shapeGroup":"PAN","gid":"PAN-2-50"},"id":"PAN-2-50"},{"arcs":[[-187,223,-221,-223,-194]],"type":"Polygon","properties":{"name":"Los Santos","shapeGroup":"PAN","gid":"PAN-2-51"},"id":"PAN-2-51"},{"arcs":[[224,225]],"type":"Polygon","properties":{"name":"Sambú","shapeGroup":"PAN","gid":"PAN-2-52"},"id":"PAN-2-52"},{"arcs":[[226,227,228]],"type":"Polygon","properties":{"name":"Cémaco","shapeGroup":"PAN","gid":"PAN-2-53"},"id":"PAN-2-53"},{"arcs":[[[-226,229,230,231]],[[232,233,234,235]],[[236]],[[237]],[[238]]],"type":"MultiPolygon","properties":{"name":"Chepigana","shapeGroup":"PAN","gid":"PAN-2-54"},"id":"PAN-2-54"},{"arcs":[[-229,239,-231,240,-234,241,242]],"type":"Polygon","properties":{"name":"Pinogana","shapeGroup":"PAN","gid":"PAN-2-55"},"id":"PAN-2-55"},{"arcs":[[-97,-104,-148,243,244,-106]],"type":"Polygon","properties":{"name":"Donoso","shapeGroup":"PAN","gid":"PAN-2-56"},"id":"PAN-2-56"},{"arcs":[[245,246,247,248]],"type":"Polygon","properties":{"name":"Santa Isabel","shapeGroup":"PAN","gid":"PAN-2-57"},"id":"PAN-2-57"},{"arcs":[[[-248,249,250,251]],[[252]],[[253]]],"type":"MultiPolygon","properties":{"name":"Portobelo","shapeGroup":"PAN","gid":"PAN-2-58"},"id":"PAN-2-58"},{"arcs":[[-107,-245,254,255,256]],"type":"Polygon","properties":{"name":"Chagres","shapeGroup":"PAN","gid":"PAN-2-59"},"id":"PAN-2-59"},{"arcs":[[[257]],[[258]],[[259]],[[260]],[[261]],[[-256,262,263,264]],[[265]],[[-251,266,267]]],"type":"MultiPolygon","properties":{"name":"Colón","shapeGroup":"PAN","gid":"PAN-2-60"},"id":"PAN-2-60"},{"arcs":[[[268]],[[269]],[[270]],[[271]],[[272]],[[273]],[[274]],[[275]],[[276]],[[277]],[[278]],[[279]],[[280]],[[281]],[[282]],[[283]]],"type":"MultiPolygon","properties":{"name":"Balboa","shapeGroup":"PAN","gid":"PAN-2-61"},"id":"PAN-2-61"},{"arcs":[[-247,284,285,286,-267,-250],[287]],"type":"Polygon","properties":{"name":"Panamá","shapeGroup":"PAN","gid":"PAN-2-62"},"id":"PAN-2-62"},{"arcs":[[-288]],"type":"Polygon","properties":{"name":"San Miguelito","shapeGroup":"PAN","gid":"PAN-2-63"},"id":"PAN-2-63"},{"arcs":[[[-233,288,289,-286,290,-242],[294]],[[291]],[[292]],[[293]]],"type":"MultiPolygon","properties":{"name":"Chepo","shapeGroup":"PAN","gid":"PAN-2-64"},"id":"PAN-2-64"},{"arcs":[[[295]],[[296]],[[-236,297,-289]]],"type":"MultiPolygon","properties":{"name":"Chimán","shapeGroup":"PAN","gid":"PAN-2-65"},"id":"PAN-2-65"},{"arcs":[[-91,-108,-257,-265,298,299,300,301]],"type":"Polygon","properties":{"name":"Capira","shapeGroup":"PAN","gid":"PAN-2-66"},"id":"PAN-2-66"},{"arcs":[[-301,302,303]],"type":"Polygon","properties":{"name":"Chame","shapeGroup":"PAN","gid":"PAN-2-67"},"id":"PAN-2-67"},{"arcs":[[-92,-302,-304,304]],"type":"Polygon","properties":{"name":"San Carlos","shapeGroup":"PAN","gid":"PAN-2-68"},"id":"PAN-2-68"},{"arcs":[[[305]],[[306]],[[307]],[[308]]],"type":"MultiPolygon","properties":{"name":"Taboga","shapeGroup":"PAN","gid":"PAN-2-69"},"id":"PAN-2-69"},{"arcs":[[309,310]],"type":"Polygon","properties":{"name":"Arraiján","shapeGroup":"PAN","gid":"PAN-2-70"},"id":"PAN-2-70"},{"arcs":[[[311]],[[-264,312,-310,313,-299]]],"type":"MultiPolygon","properties":{"name":"La Chorrera","shapeGroup":"PAN","gid":"PAN-2-71"},"id":"PAN-2-71"},{"arcs":[[[-227,-243,-291,-285,-246,314]],[[315]],[[316]],[[317]]],"type":"MultiPolygon","properties":{"name":"Comarca Kuna Yala","shapeGroup":"PAN","gid":"PAN-2-72"},"id":"PAN-2-72"},{"arcs":[[[-41,-45,-83,-48,-54,-69,318]],[[319]],[[320]],[[321]],[[322]],[[323]],[[324]],[[325]],[[326]]],"type":"MultiPolygon","properties":{"name":"David","shapeGroup":"PAN","gid":"PAN-2-73"},"id":"PAN-2-73"},{"arcs":[[-161,-204,-205,-200,-213,327]],"type":"Polygon","properties":{"name":"Mariato","shapeGroup":"PAN","gid":"PAN-2-74"},"id":"PAN-2-74"},{"arcs":[[[328]],[[329]],[[330]],[[331]],[[332]],[[333]],[[334]],[[-163,335]],[[-165,336,-176]]],"type":"MultiPolygon","properties":{"name":"Montijo","shapeGroup":"PAN","gid":"PAN-2-75"},"id":"PAN-2-75"}]}}}