{"type":"Topology","arcs":[[[28988,38389],[368,151]],[[29356,38540],[28,-32],[-23,-40]],[[29361,38468],[17,-36]],[[29378,38432],[-50,-48]],[[29328,38384],[-266,-72]],[[29062,38312],[-35,23],[-43,-23],[-59,18],[22,68],[41,-9]],[[28988,38389],[-20,23],[59,59],[5,49],[46,30],[-27,52],[58,54]],[[29109,38656],[123,-35],[47,9]],[[29279,38630],[27,6],[24,-74],[26,-22]],[[29328,38384],[-230,-200]],[[29098,38184],[-68,30],[32,98]],[[29378,38432],[123,-25],[-4,-70],[-19,-69]],[[29478,38268],[-147,-18],[-137,-99],[2,-38]],[[29196,38113],[-98,71]],[[29478,38268],[34,-133],[33,-71]],[[29545,38064],[-32,-72]],[[29513,37992],[-72,-56],[-154,-44]],[[29287,37892],[-44,82],[40,81],[-33,49],[-54,9]],[[29563,37541],[-2,125],[54,18],[46,149]],[[29661,37833],[13,26],[94,35],[38,-11],[11,-42],[42,-28]],[[29859,37813],[-68,-119]],[[29791,37694],[-31,-18],[-11,-71],[-25,-59],[-57,9],[-69,-30],[-35,16]],[[29563,37541],[-134,-4],[-25,42]],[[29404,37579],[51,116],[113,174]],[[29568,37869],[93,-36]],[[29513,37992],[77,-77],[-22,-46]],[[29404,37579],[-7,5]],[[29397,37584],[-1,69],[-75,65],[-42,-17]],[[29279,37701],[-3,25],[36,79],[-25,87]],[[29397,37584],[-45,-10],[-100,52],[-3,4],[46,27],[-16,44]],[[29859,37813],[80,-68],[82,1]],[[30021,37746],[-2,-62],[29,-51],[-61,-62],[-17,-41],[-84,22],[-17,81],[21,35],[-43,34],[-56,-8]],[[29545,38064],[43,40],[25,-16],[61,63],[23,-2]],[[29697,38149],[139,-73],[25,38],[153,-84]],[[30014,38030],[-19,-84],[-33,-31],[30,-44],[-7,-36],[36,-89]],[[26071,33741],[31,-7],[-14,-63]],[[26088,33671],[-67,24]],[[26021,33695],[-14,49]],[[26007,33744],[64,-3]],[[26007,33744],[-27,96],[97,-3],[41,24],[25,-36]],[[26143,33825],[-72,-84]],[[26088,33671],[49,-41]],[[26137,33630],[-101,-86],[-81,11],[49,63],[17,77]],[[26143,33825],[37,-21],[50,-68],[-48,-78],[-45,-28]],[[18,100],[51,-5],[-38,-95],[-31,66],[18,34]],[[31098,43848],[35,10]],[[31133,43858],[-7,-67],[-30,-48],[2,105]],[[31098,43848],[-32,71],[52,21],[15,-82]],[[30335,38899],[-43,-39]],[[30292,38860],[-21,78]],[[30271,38938],[64,-39]],[[30335,38899],[38,-33]],[[30373,38866],[-61,-28]],[[30312,38838],[-20,22]],[[30373,38866],[13,-34]],[[30386,38832],[-67,-18]],[[30319,38814],[-7,24]],[[30386,38832],[4,-10]],[[30390,38822],[-26,-48],[42,-14]],[[30406,38760],[-33,-21]],[[30373,38739],[-55,31]],[[30318,38770],[1,44]],[[30390,38822],[16,-62]],[[30373,38739],[-78,-57]],[[30295,38682],[-20,34],[-102,33]],[[30173,38749],[29,45],[116,-24]],[[30173,38749],[-58,-22],[-47,-58]],[[30068,38669],[-43,62],[-90,21],[-48,-5]],[[29887,38747],[3,111],[-53,61],[46,66],[42,23],[46,67],[-8,28],[101,32]],[[30064,39135],[92,-61],[49,-8]],[[30205,39066],[32,-33],[34,-95]],[[30437,39899],[11,102],[-36,60],[-8,145]],[[30404,40206],[42,0]],[[30446,40206],[25,-57],[19,-194],[-33,-58]],[[30457,39897],[-20,2]],[[30404,40206],[-48,0]],[[30356,40206],[24,58],[-66,33],[13,47],[43,50]],[[30370,40394],[52,28]],[[30422,40422],[32,-21],[-11,-48],[3,-147]],[[30437,39899],[-62,6],[9,-45],[-37,-76],[-45,-4],[-59,-37]],[[30243,39743],[-42,1],[-60,-96],[-29,-24]],[[30112,39624],[-55,51],[59,119]],[[30116,39794],[57,19],[41,44],[25,55],[82,86],[50,99],[25,78],[-40,31]],[[30243,39743],[199,-48]],[[30442,39695],[-26,-30],[28,-43],[-33,-83],[-43,-25],[41,-75]],[[30409,39439],[-81,-29],[-34,47],[-217,25]],[[30077,39482],[19,32]],[[30096,39514],[4,37],[53,34],[-41,39]],[[30457,39897],[-15,-202]],[[30472,40538],[-14,-49]],[[30458,40489],[-69,79]],[[30389,40568],[20,16]],[[30409,40584],[63,-46]],[[30368,40550],[74,-79]],[[30442,40471],[-71,18],[-35,-44]],[[30336,40445],[-47,15]],[[30289,40460],[74,106]],[[30363,40566],[5,-16]],[[30458,40489],[-16,-18]],[[30368,40550],[21,18]],[[30409,40584],[16,14]],[[30425,40598],[58,-36],[-11,-24]],[[30370,40394],[-34,51]],[[30442,40471],[-20,-49]],[[30357,40615],[-134,-16]],[[30223,40599],[-25,66],[-41,-9],[11,75],[60,81],[25,9],[95,-58],[-1,-67]],[[30347,40696],[10,-81]],[[30289,40460],[-66,139]],[[30357,40615],[6,-49]],[[30347,40696],[67,-42],[11,-56]],[[30077,39482],[-224,319]],[[29853,39801],[14,25]],[[29867,39826],[45,-46],[184,-266]],[[30077,39482],[12,-37],[-1,-97]],[[30088,39348],[-40,-26]],[[30048,39322],[-59,63],[-30,82],[-62,-24],[-84,-106],[-178,46],[-77,5]],[[29558,39388],[13,67],[-18,92],[-31,64],[39,73],[29,3],[79,-41],[30,8],[86,77],[7,43],[61,27]],[[29867,39826],[70,33],[27,-43],[57,5],[68,-36],[27,9]],[[29348,38971],[15,67],[-138,68]],[[29225,39106],[-2,35],[66,4],[55,-26],[5,63],[53,86]],[[29402,39268],[45,-84],[-5,-108],[31,-50],[-77,-19],[4,-97]],[[29400,38910],[-52,61]],[[29278,38917],[3,-41]],[[29281,38876],[-31,-7],[-56,68],[16,24]],[[29210,38961],[68,-44]],[[29348,38971],[-70,-54]],[[29210,38961],[2,51],[27,23],[-14,71]],[[29400,38910],[5,-54]],[[29405,38856],[-108,-3],[-16,23]],[[29887,38747],[-79,-28],[11,-69]],[[29819,38650],[-26,-30]],[[29793,38620],[-103,80],[-38,84],[-81,-19],[-45,24],[-20,47]],[[29506,38836],[-10,31],[-23,18],[-20,-29],[-48,0]],[[29402,39268],[14,66],[62,-37],[78,49],[2,42]],[[30048,39322],[16,-14]],[[30064,39308],[-3,-46]],[[30061,39262],[-10,-113],[13,-14]],[[29361,38468],[24,41],[-36,48],[-17,6],[-19,71],[53,65],[32,-17],[65,-88]],[[29463,38594],[276,-130]],[[29739,38464],[9,-94]],[[29748,38370],[-41,-80],[-10,-141]],[[29109,38656],[-60,67],[9,40],[61,15],[81,-1],[4,60],[35,6],[35,-39],[47,-14],[-59,-91],[17,-69]],[[29793,38620],[-11,-50]],[[29782,38570],[-69,-83],[21,-16]],[[29734,38471],[5,-7]],[[29463,38594],[-65,93],[-45,39],[94,52],[-36,66],[82,23],[13,-31]],[[29819,38650],[383,-63]],[[30202,38587],[-47,-69]],[[30155,38518],[-373,52]],[[30068,38669],[191,-50]],[[30259,38619],[-57,-32]],[[29734,38471],[418,-15]],[[30152,38456],[-2,-105]],[[30150,38351],[-402,19]],[[30155,38518],[-3,-62]],[[30150,38351],[-90,-46],[-20,-58],[-40,-26],[14,-191]],[[30295,38682],[-36,-63]],[[30409,39439],[-22,-45],[14,-74]],[[30401,39320],[-313,28]],[[30401,39320],[6,-27]],[[30407,39293],[-343,15]],[[30061,39262],[354,-15]],[[30415,39247],[-111,-107],[-52,-4],[-47,-70]],[[30407,39293],[8,-46]],[[27084,34475],[-59,150]],[[27025,34625],[27,26],[62,2],[12,-31],[67,-5],[9,-45],[-65,-38],[-53,-59]],[[27084,34475],[-1,-1]],[[27083,34474],[-232,32]],[[26851,34506],[160,132]],[[27011,34638],[12,-11]],[[27023,34627],[2,-2]],[[27011,34638],[-42,34]],[[26969,34672],[90,123],[49,90],[119,48],[-22,-104],[-32,-36],[-19,-73],[-73,-22],[-58,-71]],[[26851,34506],[-35,5]],[[26816,34511],[4,67],[19,35],[130,59]],[[27083,34474],[-166,-64],[-45,-71],[-34,33],[-22,139]],[[10312,11426],[9,-124],[-49,34],[40,90]],[[9521,20132],[44,-21],[2,-94],[-43,4],[-28,85],[25,26]],[[29117,37491],[42,-9]],[[29159,37482],[40,-82]],[[29199,37400],[-80,42]],[[29119,37442],[-2,49]],[[28973,37413],[50,35]],[[29023,37448],[22,-51]],[[29045,37397],[-21,-51],[-51,67]],[[29084,37486],[-9,13]],[[29075,37499],[35,41]],[[29110,37540],[2,-47]],[[29112,37493],[-28,-7]],[[29084,37486],[-23,-14]],[[29061,37472],[-11,16]],[[29050,37488],[25,11]],[[28973,37413],[-32,11],[-21,65],[107,-16]],[[29027,37473],[-2,-14]],[[29025,37459],[-2,-11]],[[28804,37315],[-23,75],[72,40],[-7,-52],[-42,-63]],[[29119,37442],[-50,-6]],[[29069,37436],[-10,34]],[[29059,37470],[2,2]],[[29112,37493],[5,-2]],[[29025,37459],[34,11]],[[29069,37436],[-24,-39]],[[29110,37540],[71,-1]],[[29181,37539],[-22,-57]],[[28835,37534],[-9,60]],[[28826,37594],[60,-29],[-51,-31]],[[29027,37473],[23,15]],[[29181,37539],[13,41],[92,-26],[10,-23],[-36,-55],[38,-69]],[[29298,37407],[-21,-16]],[[29277,37391],[-78,9]],[[28835,37534],[-3,-40],[-62,5],[-22,23],[-6,62],[-23,49],[107,-39]],[[28675,37054],[36,80],[0,33],[-74,66],[-59,27],[4,36],[114,-76],[83,-29],[14,-66],[26,-28],[-62,-52],[-11,52],[-56,-39],[-18,-68],[36,-173],[106,-38],[-24,-104],[-35,-2],[-39,53],[-52,35],[-14,54],[-103,22],[-88,-56],[-7,-70],[17,-25],[-24,-53],[-71,-92],[-60,47],[-82,-121],[-144,-49],[7,29],[-38,45],[-10,79],[83,-89],[74,20],[11,63],[117,88],[41,63],[-1,30],[47,84],[105,55],[74,7],[52,58],[25,104]],[[26938,35587],[-56,72],[22,15],[44,-50],[-10,-37]],[[27470,36864],[-73,33],[77,22],[-4,-55]],[[28992,37200],[13,38],[69,-27],[106,-7],[7,-87],[-110,-23],[-20,42],[-65,64]],[[27896,35854],[-39,123],[36,40],[36,-36],[-11,-120],[78,-7],[71,15],[92,79],[-5,100],[45,-35],[1,-69],[-41,-104],[20,-62],[42,-27],[5,-74],[-46,26],[-10,42],[-52,53],[-54,-1],[-20,-29],[-76,-46],[-69,21],[-29,31],[26,80]],[[29298,37407],[47,-43],[-9,-72],[-54,-36],[-27,-68],[-64,51],[90,100],[-4,52]]],"transform":{"scale":[0.00011566079739243556,0.00011593028611301288],"translate":[131.12015573094982,2.999592077333773]},"objects":{"PLW":{"type":"GeometryCollection","geometries":[{"arcs":[[0,1,2,3,4,5]],"type":"Polygon","properties":{"name":"Ngchemiangel","shapeGroup":"PLW","gid":"PLW-2-0"},"id":"PLW-2-0"},{"arcs":[[-1,6,7,8]],"type":"Polygon","properties":{"name":"Medorm","shapeGroup":"PLW","gid":"PLW-2-1"},"id":"PLW-2-1"},{"arcs":[[-5,9,10]],"type":"Polygon","properties":{"name":"Elechui","shapeGroup":"PLW","gid":"PLW-2-2"},"id":"PLW-2-2"},{"arcs":[[-4,11,12,13,-10]],"type":"Polygon","properties":{"name":"Ngerkeai","shapeGroup":"PLW","gid":"PLW-2-3"},"id":"PLW-2-3"},{"arcs":[[-13,14,15,16,17]],"type":"Polygon","properties":{"name":"Imul","shapeGroup":"PLW","gid":"PLW-2-4"},"id":"PLW-2-4"},{"arcs":[[18,19,20,21]],"type":"Polygon","properties":{"name":"Ordome","shapeGroup":"PLW","gid":"PLW-2-5"},"id":"PLW-2-5"},{"arcs":[[-19,22,23,24]],"type":"Polygon","properties":{"name":"Ngerusar","shapeGroup":"PLW","gid":"PLW-2-6"},"id":"PLW-2-6"},{"arcs":[[-17,25,-24,26,27,28]],"type":"Polygon","properties":{"name":"Ngeruluobel","shapeGroup":"PLW","gid":"PLW-2-7"},"id":"PLW-2-7"},{"arcs":[[-28,29]],"type":"Polygon","properties":{"name":"Ngetkib","shapeGroup":"PLW","gid":"PLW-2-8"},"id":"PLW-2-8"},{"arcs":[[-21,30,31]],"type":"Polygon","properties":{"name":"Oikull","shapeGroup":"PLW","gid":"PLW-2-9"},"id":"PLW-2-9"},{"arcs":[[-16,32,33,34,-31,-20,-25,-26]],"type":"Polygon","properties":{"name":"Ngchesechang","shapeGroup":"PLW","gid":"PLW-2-10"},"id":"PLW-2-10"},{"arcs":[[35,36,37,38]],"type":"Polygon","properties":{"name":"Rois","shapeGroup":"PLW","gid":"PLW-2-11"},"id":"PLW-2-11"},{"arcs":[[-39,39,40]],"type":"Polygon","properties":{"name":"Ngebeianged","shapeGroup":"PLW","gid":"PLW-2-12"},"id":"PLW-2-12"},{"arcs":[[-37,41,42]],"type":"Polygon","properties":{"name":"Ngermasech","shapeGroup":"PLW","gid":"PLW-2-13"},"id":"PLW-2-13"},{"arcs":[[-36,-41,43,-42]],"type":"Polygon","properties":{"name":"Ngerbelau","shapeGroup":"PLW","gid":"PLW-2-14"},"id":"PLW-2-14"},{"arcs":[[44]],"type":"Polygon","properties":{"name":"Hatohobei + Helens Reef","shapeGroup":"PLW","gid":"PLW-2-15"},"id":"PLW-2-15"},{"arcs":[[45,46]],"type":"Polygon","properties":{"name":"Dimes","shapeGroup":"PLW","gid":"PLW-2-16"},"id":"PLW-2-16"},{"arcs":[[-46,47]],"type":"Polygon","properties":{"name":"Dilong","shapeGroup":"PLW","gid":"PLW-2-17"},"id":"PLW-2-17"},{"arcs":[[48,49,50]],"type":"Polygon","properties":{"name":"Ngeburch","shapeGroup":"PLW","gid":"PLW-2-18"},"id":"PLW-2-18"},{"arcs":[[-49,51,52,53]],"type":"Polygon","properties":{"name":"Ngeruliang","shapeGroup":"PLW","gid":"PLW-2-19"},"id":"PLW-2-19"},{"arcs":[[-53,54,55,56]],"type":"Polygon","properties":{"name":"Ngermelech","shapeGroup":"PLW","gid":"PLW-2-20"},"id":"PLW-2-20"},{"arcs":[[-56,57,58,59,60,61]],"type":"Polygon","properties":{"name":"Ukaeb","shapeGroup":"PLW","gid":"PLW-2-21"},"id":"PLW-2-21"},{"arcs":[[-59,62]],"type":"Polygon","properties":{"name":"Ngerang","shapeGroup":"PLW","gid":"PLW-2-22"},"id":"PLW-2-22"},{"arcs":[[-61,63,64,65]],"type":"Polygon","properties":{"name":"Negerubesang","shapeGroup":"PLW","gid":"PLW-2-23"},"id":"PLW-2-23"},{"arcs":[[-50,-54,-57,-62,-66,66,67,68,69,70]],"type":"Polygon","properties":{"name":"Melekeok","shapeGroup":"PLW","gid":"PLW-2-24"},"id":"PLW-2-24"},{"arcs":[[71,72,73,74]],"type":"Polygon","properties":{"name":"Chelab","shapeGroup":"PLW","gid":"PLW-2-25"},"id":"PLW-2-25"},{"arcs":[[-73,75,76,77,78]],"type":"Polygon","properties":{"name":"Choll","shapeGroup":"PLW","gid":"PLW-2-26"},"id":"PLW-2-26"},{"arcs":[[-72,79,80,81,82,-76]],"type":"Polygon","properties":{"name":"Ngebuked","shapeGroup":"PLW","gid":"PLW-2-27"},"id":"PLW-2-27"},{"arcs":[[-81,83,84,85,86,87]],"type":"Polygon","properties":{"name":"Ngkeklau","shapeGroup":"PLW","gid":"PLW-2-28"},"id":"PLW-2-28"},{"arcs":[[-75,88,-84,-80]],"type":"Polygon","properties":{"name":"Ulimang","shapeGroup":"PLW","gid":"PLW-2-29"},"id":"PLW-2-29"},{"arcs":[[89,90,91,92]],"type":"Polygon","properties":{"name":"Iebukel","shapeGroup":"PLW","gid":"PLW-2-30"},"id":"PLW-2-30"},{"arcs":[[93,94,95,96,97]],"type":"Polygon","properties":{"name":"Mengellang","shapeGroup":"PLW","gid":"PLW-2-31"},"id":"PLW-2-31"},{"arcs":[[-91,98,-94,99]],"type":"Polygon","properties":{"name":"Ngebei","shapeGroup":"PLW","gid":"PLW-2-32"},"id":"PLW-2-32"},{"arcs":[[-93,100,101]],"type":"Polygon","properties":{"name":"Ngerbau","shapeGroup":"PLW","gid":"PLW-2-33"},"id":"PLW-2-33"},{"arcs":[[-78,102,-95,103]],"type":"Polygon","properties":{"name":"Ngebei","shapeGroup":"PLW","gid":"PLW-2-34"},"id":"PLW-2-34"},{"arcs":[[104,105,106]],"type":"Polygon","properties":{"name":"Ollei","shapeGroup":"PLW","gid":"PLW-2-35"},"id":"PLW-2-35"},{"arcs":[[-97,107,-105,108]],"type":"Polygon","properties":{"name":"Ngeiungel","shapeGroup":"PLW","gid":"PLW-2-36"},"id":"PLW-2-36"},{"arcs":[[-92,-100,-98,-109,-107,109,-101]],"type":"Polygon","properties":{"name":"Badrulchau","shapeGroup":"PLW","gid":"PLW-2-37"},"id":"PLW-2-37"},{"arcs":[[-87,110,111,112]],"type":"Polygon","properties":{"name":"Ngerutoi","shapeGroup":"PLW","gid":"PLW-2-38"},"id":"PLW-2-38"},{"arcs":[[-111,113,114,115,116]],"type":"Polygon","properties":{"name":"Ngetbong","shapeGroup":"PLW","gid":"PLW-2-39"},"id":"PLW-2-39"},{"arcs":[[-82,-88,-113,117]],"type":"Polygon","properties":{"name":"Urdmau","shapeGroup":"PLW","gid":"PLW-2-40"},"id":"PLW-2-40"},{"arcs":[[118,119,120,121]],"type":"Polygon","properties":{"name":"Imeong","shapeGroup":"PLW","gid":"PLW-2-41"},"id":"PLW-2-41"},{"arcs":[[122,123,124]],"type":"Polygon","properties":{"name":"Ngchemesed","shapeGroup":"PLW","gid":"PLW-2-42"},"id":"PLW-2-42"},{"arcs":[[-119,125,-125,126]],"type":"Polygon","properties":{"name":"Ngermetengel","shapeGroup":"PLW","gid":"PLW-2-43"},"id":"PLW-2-43"},{"arcs":[[-122,127,128,-123,-126]],"type":"Polygon","properties":{"name":"Ngereklengon","shapeGroup":"PLW","gid":"PLW-2-44"},"id":"PLW-2-44"},{"arcs":[[-69,129,130,131,132,-128,-121,133,-116,134,135,136]],"type":"Polygon","properties":{"name":"Ngerutchei","shapeGroup":"PLW","gid":"PLW-2-45"},"id":"PLW-2-45"},{"arcs":[[[-3,137,138,139,140,-33,-15,-12]],[[-8,141]]],"type":"MultiPolygon","properties":{"name":"Ngatpang","shapeGroup":"PLW","gid":"PLW-2-46"},"id":"PLW-2-46"},{"arcs":[[-132,142,143,144,-139,145]],"type":"Polygon","properties":{"name":"Ibobang","shapeGroup":"PLW","gid":"PLW-2-47"},"id":"PLW-2-47"},{"arcs":[[-131,146,147,148,-143]],"type":"Polygon","properties":{"name":"Ngchesar","shapeGroup":"PLW","gid":"PLW-2-48"},"id":"PLW-2-48"},{"arcs":[[-68,149,150,-147,-130]],"type":"Polygon","properties":{"name":"Ngeriungs","shapeGroup":"PLW","gid":"PLW-2-49"},"id":"PLW-2-49"},{"arcs":[[-140,-145,151,152,153]],"type":"Polygon","properties":{"name":"Ngerngesang","shapeGroup":"PLW","gid":"PLW-2-50"},"id":"PLW-2-50"},{"arcs":[[-144,-149,154,-152]],"type":"Polygon","properties":{"name":"Ngerkesou","shapeGroup":"PLW","gid":"PLW-2-51"},"id":"PLW-2-51"},{"arcs":[[-34,-141,-154,155]],"type":"Polygon","properties":{"name":"Ngersuul","shapeGroup":"PLW","gid":"PLW-2-52"},"id":"PLW-2-52"},{"arcs":[[-65,156,-150,-67]],"type":"Polygon","properties":{"name":"Ngeruikl","shapeGroup":"PLW","gid":"PLW-2-53"},"id":"PLW-2-53"},{"arcs":[[-86,157,158,-114]],"type":"Polygon","properties":{"name":"Ngellau","shapeGroup":"PLW","gid":"PLW-2-54"},"id":"PLW-2-54"},{"arcs":[[-115,-159,159,160,-135]],"type":"Polygon","properties":{"name":"Ngercheluuk","shapeGroup":"PLW","gid":"PLW-2-55"},"id":"PLW-2-55"},{"arcs":[[-70,-137,161,162]],"type":"Polygon","properties":{"name":"Ngermechau","shapeGroup":"PLW","gid":"PLW-2-56"},"id":"PLW-2-56"},{"arcs":[[-136,-161,163,-162]],"type":"Polygon","properties":{"name":"Ngersngai","shapeGroup":"PLW","gid":"PLW-2-57"},"id":"PLW-2-57"},{"arcs":[[164,165]],"type":"Polygon","properties":{"name":"Ngerdelolk","shapeGroup":"PLW","gid":"PLW-2-58"},"id":"PLW-2-58"},{"arcs":[[-165,166,167,168,169,170]],"type":"Polygon","properties":{"name":"Ngesias","shapeGroup":"PLW","gid":"PLW-2-59"},"id":"PLW-2-59"},{"arcs":[[-170,171,172]],"type":"Polygon","properties":{"name":"Ngerchol","shapeGroup":"PLW","gid":"PLW-2-60"},"id":"PLW-2-60"},{"arcs":[[-169,173,174,-172]],"type":"Polygon","properties":{"name":"Ngerkeiukl","shapeGroup":"PLW","gid":"PLW-2-61"},"id":"PLW-2-61"},{"arcs":[[-168,175,-174]],"type":"Polygon","properties":{"name":"Teliu","shapeGroup":"PLW","gid":"PLW-2-62"},"id":"PLW-2-62"},{"arcs":[[[176]],[[177]]],"type":"MultiPolygon","properties":{"name":"Sonsorol + Pulo Anna + Merir","shapeGroup":"PLW","gid":"PLW-2-63"},"id":"PLW-2-63"},{"arcs":[[178,179,180,181]],"type":"Polygon","properties":{"name":"Ngerkesowaol","shapeGroup":"PLW","gid":"PLW-2-64"},"id":"PLW-2-64"},{"arcs":[[182,183,184]],"type":"Polygon","properties":{"name":"Ngerbeched","shapeGroup":"PLW","gid":"PLW-2-65"},"id":"PLW-2-65"},{"arcs":[[185,186,187,188]],"type":"Polygon","properties":{"name":"Iyebukel","shapeGroup":"PLW","gid":"PLW-2-66"},"id":"PLW-2-66"},{"arcs":[[-186,189,190,191]],"type":"Polygon","properties":{"name":"Meketii","shapeGroup":"PLW","gid":"PLW-2-67"},"id":"PLW-2-67"},{"arcs":[[[-183,192,193,194]],[[195]]],"type":"MultiPolygon","properties":{"name":"Medalaii","shapeGroup":"PLW","gid":"PLW-2-68"},"id":"PLW-2-68"},{"arcs":[[-182,196,197,198,-190,-189,199]],"type":"Polygon","properties":{"name":"Idid 03","shapeGroup":"PLW","gid":"PLW-2-69"},"id":"PLW-2-69"},{"arcs":[[-184,-195,200,-198,201]],"type":"Polygon","properties":{"name":"Ikelau","shapeGroup":"PLW","gid":"PLW-2-70"},"id":"PLW-2-70"},{"arcs":[[-179,-200,-188,202,203]],"type":"Polygon","properties":{"name":"Ngerchemai","shapeGroup":"PLW","gid":"PLW-2-71"},"id":"PLW-2-71"},{"arcs":[[204,205]],"type":"Polygon","properties":{"name":"Meyuns","shapeGroup":"PLW","gid":"PLW-2-72"},"id":"PLW-2-72"},{"arcs":[[-191,-199,-201,-194,206]],"type":"Polygon","properties":{"name":"Dngronger","shapeGroup":"PLW","gid":"PLW-2-73"},"id":"PLW-2-73"},{"arcs":[[-180,-204,207,208,209]],"type":"Polygon","properties":{"name":"Ngermid","shapeGroup":"PLW","gid":"PLW-2-74"},"id":"PLW-2-74"},{"arcs":[[-205,210]],"type":"Polygon","properties":{"name":"Ngerkebesang","shapeGroup":"PLW","gid":"PLW-2-75"},"id":"PLW-2-75"},{"arcs":[[[211]],[[212]],[[213]],[[214]],[[215]],[[-209,216]]],"type":"MultiPolygon","properties":{"name":"Rock Islands","shapeGroup":"PLW","gid":"PLW-2-76"},"id":"PLW-2-76"}]}}}