{"type":"Topology","arcs":[[[18066,3778],[-7,-33],[-29,-10],[-15,26],[51,17]],[[18611,4862],[64,-95],[29,-20],[69,0],[35,-18],[33,73],[40,0],[71,57],[54,-13],[-3,-28],[42,-34],[34,25],[13,-63],[81,1],[9,-53],[58,2],[0,-54],[25,-15],[65,18],[31,-52],[39,-4],[46,34],[22,-37],[-9,-29],[-31,-13],[-27,-76],[1,-28],[-29,-68],[232,0],[-16,-15],[16,-62],[42,-2],[71,40],[27,-43],[-11,-63],[92,-2],[21,-65],[65,-29],[291,-1],[0,-793]],[[20203,3337],[-121,-7],[-25,-12],[-32,19],[-79,-9],[-30,-41],[-42,39],[-67,9],[-32,28],[-77,3],[-98,75],[-39,14],[-49,45],[-37,-19],[-53,-68],[-75,35],[-37,-2],[-69,50],[-68,29],[-81,20],[-10,25],[-89,32],[-118,18],[-63,-5],[-55,-13],[-75,-37],[-84,-85],[-72,86],[-47,30],[-90,20],[-110,-5],[-49,-11],[-18,-17],[-39,39],[-78,1],[-17,52],[29,36],[-52,14],[25,66],[-37,56],[-31,-20],[-29,10],[-112,-113],[-21,25],[-45,9],[-45,-16],[-42,5],[-31,24],[-28,-4],[-43,-32],[-66,-30],[-87,-9],[-97,16],[-69,-20],[-25,48],[-78,13],[-31,16],[-8,94],[-77,30],[-57,-28],[-138,114],[-70,-27],[-30,25],[22,26],[-2,31],[22,29],[52,14],[38,95],[-57,-11],[-51,-104],[-38,-25],[8,-40],[-36,-40],[-99,-79],[-109,-5],[-24,-9],[-60,23],[-33,-30],[-19,-45],[-75,2],[-3,36],[-39,26],[2,34],[-23,40],[-44,33]],[[16215,3978],[179,177],[216,16],[23,251],[336,461]],[[16969,4883],[46,-28],[21,23],[59,10],[67,-40],[11,20],[40,-26],[27,14],[16,49],[30,14],[53,-51],[43,-20],[24,9],[104,-98],[-20,-65],[24,-22],[41,13],[50,-26],[1,-60],[73,-23],[58,-77],[30,-8],[64,23],[79,-70],[50,-1],[16,-37],[37,-37],[25,14],[29,-21],[50,-13],[27,7],[26,37],[34,-27],[-9,-31],[25,-50],[66,5],[30,64],[-8,35],[53,12],[29,-25],[37,37],[62,6],[43,-16],[36,43],[58,-23],[18,31],[-1,105],[-57,37],[-22,54],[8,24],[-12,48],[1,67],[27,64],[23,9]],[[5130,21216],[0,-452]],[[5130,20764],[-55,28],[-51,-66],[-37,16],[-78,73],[-32,7],[-7,29],[-54,23],[-13,-23],[-35,-1],[-15,49],[-68,-10]],[[4685,20889],[-19,34],[-88,-5],[-37,22],[-35,44],[-26,52],[-23,6],[-12,47],[-55,33],[-5,-26],[-34,-6],[-92,-107],[-68,9],[-24,-18],[-67,37]],[[4100,21011],[-42,0],[-131,96],[-44,52],[-73,10],[-51,-28],[-59,4],[-63,-32],[-47,35],[-109,12],[-27,-34],[-64,-33],[-38,14],[-58,42],[-36,-41],[-4,-35],[-25,-9],[-51,22],[-26,27],[-67,-33],[-34,34],[-60,-169],[-41,-130],[-38,-86],[-179,14],[-1,-418]],[[2732,20325],[-709,10],[-8,25],[9,67],[-17,22]],[[2007,20449],[19,19],[-25,76],[8,70],[29,125],[24,2],[11,59],[-17,21],[-11,65],[2,58],[17,54],[-3,66],[27,45],[-20,41],[12,52],[-23,34],[-7,45],[25,45],[-196,139],[-10,461],[402,266],[59,52]],[[2330,22244],[47,-47],[191,31],[80,-8],[48,-30],[115,-88],[-11,-59],[10,-57],[38,-28],[60,8],[26,18],[122,-81],[84,-21],[58,2],[57,-35],[58,-23],[67,-9],[62,1],[23,-60],[64,-12],[49,-42],[135,-64],[118,-84],[48,-24],[75,-4],[61,-17],[54,-5],[86,-49],[99,-32],[91,-37],[154,-31],[97,-54],[71,-15],[90,-8],[21,-17],[57,-16],[84,4],[105,-42],[58,-8],[48,15]],[[20602,2993],[39,-16],[11,-45],[-32,-45],[-57,30],[11,42],[28,34]],[[21209,3013],[-46,-11],[4,46],[42,-35]],[[23338,3514],[-5,-31],[-56,-13],[-30,45],[65,27],[26,-28]],[[18611,4862],[14,10],[-4,83],[76,55],[31,13],[42,-74],[25,-1],[888,299]],[[19683,5247],[36,-41],[41,33],[85,9],[120,-15],[66,-21],[56,-31],[45,15],[16,35],[40,-4],[21,-23],[53,0],[29,34],[53,-13],[51,31],[27,-32],[59,-29],[58,-17],[80,12],[49,-52],[43,-11],[119,17],[39,-5],[62,36],[62,-10],[-6,-58],[39,-47],[49,-9],[16,-28],[-15,-32],[-5,-53],[-105,-34],[-10,-32],[-41,-2],[-97,-30],[-29,-33],[-75,27],[-30,-36],[-52,-11],[-92,-1],[-73,-20],[-52,-4],[-101,-50],[-15,-33],[9,-73],[41,-19],[14,-49],[36,-30],[10,-35],[117,-30],[7,-47],[34,-72],[62,-54],[20,-28],[-7,-68],[75,1],[29,-31],[18,-44],[41,-38],[60,-18],[89,-45],[49,23],[83,-7],[8,-21],[83,3],[71,-85],[68,38],[11,25],[51,8],[30,-33],[25,-68],[97,-9],[50,-70],[28,-4],[32,-58],[76,-4],[72,-34],[72,-5],[79,-25],[81,35],[130,-82],[53,63],[38,-18],[43,-4],[11,-22],[-28,-29],[-4,-34],[58,-3],[31,-78],[109,-9],[112,72],[9,-14],[55,8],[10,-24],[45,9],[34,-15],[32,39],[49,-2],[55,32],[20,39],[83,8],[-65,-57],[-15,-24],[-34,1],[-121,-77],[-24,-37],[-49,8],[-39,-22],[-13,-25],[-46,-6],[-109,-39],[-13,-24],[-63,-23],[-22,15],[-43,-23],[-43,29],[-96,30],[-22,-6],[-57,33],[-30,-8],[-55,13],[-3,29],[-81,-4],[-13,28],[-33,-6],[-22,-37],[-40,-4],[-37,-37],[-29,-79],[2,-91],[55,-16],[130,-5],[20,-16],[56,-9],[58,-26],[24,3],[27,-30],[124,-57],[136,-43],[76,-7]],[[22456,2995],[-68,-137],[-178,11],[-5,-257]],[[22205,2612],[-7,20],[-57,-1],[-41,11],[-56,-9],[-30,-88],[-52,-18],[-100,-69],[-80,11],[-7,59],[-27,19],[-44,-4],[-34,-45],[-106,-36],[-27,7],[-39,-26],[-30,7],[-40,-25],[4,45],[-39,0],[-35,17],[10,28],[38,6],[-6,37],[-84,-7],[-36,4],[-47,-60],[-34,32],[-10,48],[-67,26],[-30,29],[-49,-9],[3,76],[-42,37],[-74,-49],[2,39],[-108,66],[-27,-25],[-32,57],[-34,4],[-10,-43],[-27,-10],[-20,67],[31,-6],[39,46],[-91,3],[37,47],[41,2],[32,-43],[108,21],[40,-33],[94,29],[69,77],[9,24],[46,1],[49,-14],[44,10],[12,82],[-36,3],[-31,-16],[-7,-34],[-50,-10],[-38,26],[-46,-24],[-43,15],[-33,27],[-97,45],[-23,-37],[-27,-83],[-6,-41],[-28,-6],[-12,62],[-34,42],[-24,67],[-36,50],[-35,9],[-44,45],[-27,8],[-70,55],[-36,-1],[-54,41],[-91,13],[-103,-5]],[[4100,19993],[471,-416],[107,122],[264,-823],[20,-70],[-59,-207],[165,-119],[48,-150]],[[5116,18330],[-193,-2],[-379,-442],[4,-952]],[[4548,16934],[-50,4],[-23,-15],[-42,34],[-31,-3],[-35,-34]],[[4367,16920],[-59,4],[-26,28],[5,43],[-79,54],[-33,12],[-94,-31],[-85,31],[-64,-32],[-114,61],[-48,1],[-58,21],[-36,29],[-32,-26],[10,-31],[-25,-39],[-36,-6],[-12,-33],[-53,24],[-17,52],[-46,31],[-32,-14],[-37,34]],[[3396,17133],[-1,880],[-807,0],[-1446,0],[0,907]],[[1142,18920],[865,674]],[[2007,19594],[24,-30],[45,54],[29,8],[6,-34],[-25,-31],[-43,-23],[6,-34],[98,7],[62,-112],[1011,0]],[[3220,19399],[651,1],[0,384],[229,0],[0,209]],[[4685,20889],[1,-284],[-125,-20],[-13,-135],[35,-9],[144,-179]],[[4727,20262],[-424,-264],[-105,15],[-7,27],[-60,0],[-31,33]],[[4100,20073],[-15,78],[-38,33],[28,25],[-29,72],[15,79],[-51,44],[49,67],[0,81],[-19,44],[17,38],[-16,24],[12,69],[20,22],[47,17],[-7,82],[-13,6],[0,157]],[[8353,15059],[21,-30],[40,-29],[96,-4],[85,-45],[109,-127],[45,-16],[11,34],[63,-8],[45,-50],[2,-23],[56,-61],[41,-15],[121,-95]],[[9088,14590],[-49,-41],[-20,-33],[-66,-2],[-13,-37],[-27,-26],[-3,-36],[-44,-3],[-29,-16],[-29,-44],[-6,-40],[27,-15],[68,-2],[42,-65]],[[8939,14230],[15,-31],[-55,-16],[-10,-51],[36,-57],[-8,-21],[17,-61],[-57,-28],[11,-55],[29,-38],[-28,-11],[-5,-59],[-62,0],[-18,-38],[-7,-64]],[[8797,13700],[-83,-26],[-30,-54],[-15,-68],[-46,-50],[-16,-76],[-107,82]],[[8500,13508],[-430,323]],[[8070,13831],[266,203],[-1,455],[-42,-39],[-38,24],[-35,-26],[-35,20],[-37,-8],[-23,-79],[-81,-7],[-85,30],[-8,59],[-30,29],[-40,84],[7,34],[-28,54]],[[7860,14664],[17,110],[26,46],[84,65],[24,-1],[91,61],[-21,85],[-5,53]],[[8076,15083],[33,6],[27,24],[81,-10],[136,-44]],[[7845,20094],[-92,-28],[44,44],[48,-16]],[[7626,20115],[12,-44],[-15,-24],[-32,22],[6,38],[29,8]],[[7760,20130],[8,-44],[-24,-16],[-52,-7],[-38,81],[106,-14]],[[5116,18330],[181,2],[428,814],[2,433]],[[5727,19579],[360,1],[23,38],[736,-1]],[[6846,19617],[349,0],[-1,370],[-30,81],[0,58]],[[7164,20126],[10,-11],[85,-17],[21,5],[133,3],[161,19],[-6,-37],[-26,-12],[-43,10],[-25,-26],[-49,-16],[11,-37],[31,33],[39,20],[46,-54],[49,-3],[38,-37],[11,41],[41,41],[9,-51],[25,-55],[40,-19],[40,18],[-19,40],[22,37],[41,10],[31,39],[35,6],[43,-49],[38,-18],[49,60],[-75,-20],[-110,75],[13,26],[91,-17],[132,-3],[179,-39],[118,-20],[59,-23],[16,-19],[0,-76],[46,-65],[-28,-49],[-19,-88],[16,-93],[59,-76]],[[8542,19579],[2,-1510]],[[8544,18069],[-712,-597],[-504,-422],[-165,-51]],[[7163,16999],[-709,-170]],[[6454,16829],[-812,-196]],[[5642,16633],[-15,-14],[-105,86],[-66,21],[-36,1],[-64,-26],[-17,-18],[-59,8],[-28,28],[-46,-4],[-10,39],[-77,-13],[-26,13],[-63,-6],[-31,-67],[-53,10],[-51,23],[-62,70],[-25,7],[-76,57],[-21,2],[-68,59],[-42,20],[-53,5]],[[9599,19497],[48,-13],[27,-21],[27,-51],[-11,-91],[-62,-57],[-56,-5],[-45,36],[-19,-2],[-20,115],[15,51],[96,38]],[[8542,19579],[66,-36],[117,12],[7,-34],[32,-1],[48,-28],[86,-32],[177,-106],[112,-72],[25,-56],[-38,-1],[-19,-28],[3,-60],[39,-60],[60,-16],[51,22],[23,-45],[32,-26],[-2,-24],[46,-14],[10,-29],[39,-28],[-12,-55],[1,-46],[31,7],[37,-49],[18,-42],[37,-36],[46,-25],[26,5],[52,-40],[27,0],[33,-41],[46,25],[20,-28],[77,1],[24,-44],[54,-2],[52,29],[30,-2],[93,28],[95,-9],[44,-33],[41,-85],[28,-39],[112,-51],[28,-70],[50,3],[27,-31],[28,-59],[31,-23]],[[10632,18205],[-539,-387]],[[10093,17818],[-82,87],[-237,25],[-323,251],[-427,-96],[-13,136],[-467,-152]],[[15402,9342],[-704,0],[-143,-106],[-57,106],[-401,0]],[[14097,9342],[-130,96],[-5,-31],[-31,-1],[-71,45],[-43,-46],[-21,-37],[-73,-24],[-68,38],[-15,81],[-30,49],[-37,-34],[-71,-19],[-30,108],[7,75],[-15,42],[40,20],[14,70],[-227,165]],[[13291,9939],[-352,261]],[[12939,10200],[15,90],[47,77],[7,40],[72,148],[-12,250],[-21,59],[-50,27],[-78,90],[-55,3],[-77,58],[-123,18],[-49,86],[17,63],[-62,60],[-68,100],[29,42],[12,47],[-7,33],[23,61],[-27,115],[84,120],[-125,74]],[[12491,11861],[69,101],[37,22],[75,-14],[99,87],[-8,120],[10,106],[16,46],[65,76],[177,107],[217,90],[142,-105],[332,72],[42,6],[79,-406],[-53,-26],[-15,-59],[-23,-190],[-136,-1],[-192,-133],[12,-108],[201,-4],[69,-29],[-17,-98],[21,-12],[124,11],[31,62],[63,31],[64,-9],[22,21],[64,19],[-24,-274],[-200,-281],[429,-442],[1119,-1305]],[[33930,13987],[28,-56],[-33,-22],[-29,52],[34,26]],[[34533,13141],[-4,-1],[-5,-3]],[[34524,13137],[-212,-83],[-124,107],[-433,68],[-427,321],[-39,80],[-221,64],[-166,185],[45,337],[-304,0]],[[32643,14216],[-427,611],[198,148],[121,35],[156,89],[51,23],[44,35]],[[32786,15157],[30,-47],[-20,-47],[15,-87],[38,-69],[-18,-28],[21,-52],[35,-28],[34,37],[25,-44],[71,-43],[22,1],[12,-44],[51,-38],[20,-72],[18,-8],[46,17],[46,-17],[16,-48],[38,-38],[48,-13],[3,-136],[42,-113],[-3,-18],[39,-51],[31,-66],[70,-68],[57,-26],[39,4],[9,29],[38,-18],[-6,-31],[13,-60],[75,-35],[65,15],[24,-12],[14,40],[-34,49],[41,46],[9,-125],[60,-21],[15,-64],[26,-26],[47,-8],[29,-31],[42,-79],[62,-81],[42,-27],[84,-25],[30,-92],[49,-96],[32,-33],[9,-67],[51,-43],[71,-44],[24,-35]],[[10129,13706],[-15,-57],[-38,-36],[-51,-1],[-65,-76]],[[9960,13536],[-35,48],[-39,5],[-57,76],[-37,6],[-39,34],[-94,13],[-48,76],[10,67],[-11,32]],[[9610,13893],[13,76],[22,44],[-37,45],[49,51],[34,84],[75,47],[-55,81],[25,164]],[[9736,14485],[53,-30]],[[9789,14455],[35,-207],[114,-128],[153,0]],[[10091,14120],[38,-414]],[[9789,14455],[112,341]],[[9901,14796],[22,-8],[81,55],[32,6],[92,-4],[24,-25],[24,-99],[208,125],[5,-60],[27,-51]],[[10416,14735],[-184,-379],[-86,-61],[-30,-56]],[[10116,14239],[-25,-119]],[[8076,15083],[-25,-54],[-30,-18],[-10,-35],[-85,56],[-22,-18],[-46,28],[-10,26],[-57,-10]],[[7791,15058],[-14,38],[15,63],[-6,26],[38,60],[-35,52],[-62,23],[-55,102],[0,39],[46,142],[203,90]],[[7921,15693],[367,-3],[3,-385],[123,-28]],[[8414,15277],[-34,-199],[-27,-19]],[[22957,4883],[32,-61],[-59,-7],[-9,48],[36,20]],[[22697,4955],[83,-30],[84,-61],[4,-88],[48,-56],[103,-27],[43,-60],[43,-24],[51,-77],[18,-45],[35,-16],[24,-41],[105,-38],[-18,-126],[27,-26],[12,-35],[139,-91],[42,-5],[44,22],[-5,54],[11,62],[55,69],[25,62],[95,12],[31,38],[58,9],[23,-12],[20,-54],[22,-18],[7,-61],[-21,-94],[-35,-62],[-5,-95],[-23,-16],[-47,-88],[-17,-80],[-31,-64],[-30,-29],[-11,51],[-45,1],[-25,23],[-66,33],[-60,-13],[-46,50],[-66,21],[-53,-7],[-73,2],[-103,18],[-18,23],[5,51],[-8,99],[37,21],[33,78],[-17,33],[-30,21],[-24,-12],[-8,-41],[-103,-11],[-64,119],[13,48],[-17,65],[-6,74],[-53,78],[-25,53],[-45,14],[-62,82],[-52,-15],[-20,26],[-28,151],[20,55]],[[23240,5296],[60,-17],[25,-34],[-17,-47],[3,-42],[40,-53],[-41,-39],[-51,72],[-13,37],[-42,9],[-63,55],[30,50],[69,9]],[[22081,5936],[39,-11],[80,-48],[12,-28],[40,-3],[27,-23],[65,-11],[60,-49],[17,-63],[59,-28],[57,-10],[20,22],[92,1],[62,67],[22,-1],[53,-34],[26,-30],[24,-50],[30,-26],[11,-62],[34,-37],[73,-28],[23,-45],[-3,-45],[-28,-78],[-36,-19],[23,-37],[41,7],[29,-32],[7,-57],[20,-41],[33,1],[17,-42],[-24,-58],[-109,1],[-8,-47],[-59,-44],[-14,61],[19,35],[-3,41],[-107,-2],[0,-32],[-30,-25],[-86,56],[-80,-9],[-59,-16],[-144,36],[-42,47],[-126,39],[-60,4],[-83,-15],[-36,-29],[-58,-5],[-28,19],[-19,52],[11,44],[112,76],[75,25],[9,74],[-29,60],[-39,11],[-22,44],[-35,27],[-87,109],[2,53],[-15,99],[46,54],[40,15],[37,39],[22,1]],[[22787,6007],[-36,-9],[-1,50],[46,-9],[-9,-32]],[[22695,6104],[2,-30],[33,-32],[-20,-35],[-40,31],[-12,34],[12,34],[25,-2]],[[15941,13550],[14,-28],[44,-34],[33,-110],[17,-28],[-7,-64],[-25,-58],[15,-26],[-30,-55],[1,-70],[20,-32],[8,-67],[-50,-29],[74,-12],[12,-57],[-3,-67],[-45,-36],[-71,-89],[-51,-14],[-50,1],[-40,-31],[-46,11],[-78,-3],[-58,23],[-47,-39],[-45,20],[-52,-16],[-58,5]],[[15423,12645],[-5,147],[-728,0],[-7,51],[-27,55],[0,52],[21,43],[-283,416]],[[14394,13409],[758,184],[264,-27]],[[15416,13566],[70,-27],[10,-51],[30,-13],[33,38],[30,-36],[34,4],[42,39],[28,-15],[56,48],[65,20],[11,-13],[116,-10]],[[25828,19051],[9,-51],[-4,-118],[64,-23]],[[25897,18859],[24,-49]],[[25921,18810],[-49,-53],[36,-23],[60,-94],[27,-12],[18,-87],[23,-41],[-18,-58],[12,-22]],[[26030,18420],[-25,-9],[-39,19],[-58,-34],[-12,21],[-46,13],[-28,-16],[45,-66],[-58,-79],[-44,-31],[-25,3],[-33,-30],[10,-38],[-47,-40],[-12,15],[-228,-173],[-361,-561],[-135,-223],[15,-109],[-91,-18]],[[24858,17064],[-125,133]],[[24733,17197],[24,58],[64,102],[-7,139],[19,46],[-36,9],[-41,67],[7,83],[-13,43],[19,30],[10,71],[-33,181],[-28,9],[-10,45],[-35,54],[-21,-2],[24,114],[10,20],[-16,101],[-22,19],[-60,87],[-25,48],[-27,-6],[-17,53],[-40,7],[-12,106],[9,21],[-60,86],[25,53],[-20,25],[-53,147],[6,28],[71,64],[39,-27],[49,-8],[108,-2],[30,14],[110,-5],[7,-19],[78,10],[44,-45],[21,19],[79,8],[75,-7],[33,-31],[35,11],[41,-19],[8,-53],[-31,-67],[79,-78],[37,-48],[26,5],[57,-30],[3,-21],[48,-4],[77,49],[77,87],[37,72],[-16,46],[-53,23],[-39,50],[-7,28],[47,35],[93,-16],[35,-25],[47,3],[38,17],[15,-22],[56,-4]],[[14097,9342],[869,-948],[190,74],[449,-512],[-510,-491],[89,-19],[-44,-97],[0,-24],[54,-57],[40,-24],[10,-59],[50,-105]],[[15294,7080],[-1256,0],[0,616],[2,225],[-43,123],[-54,13],[-265,136],[-367,133],[-622,792]],[[12689,9118],[0,438],[112,0],[29,22],[43,-15],[49,3],[82,80],[-1,81],[63,65],[6,24],[46,2],[31,29],[25,-21],[44,25],[47,45],[26,43]],[[10416,14735],[5,-13],[118,-180],[49,22],[30,-44]],[[10618,14520],[-56,-240],[-75,-38],[-35,-188],[-336,185]],[[8939,14230],[82,57],[52,19],[48,-24],[90,-74],[39,96]],[[9250,14304],[45,32],[19,40],[90,-7],[12,-18],[43,14]],[[9459,14365],[-44,-119],[-52,-32],[-1,-38],[22,-38],[0,-32],[23,-114],[26,-23]],[[9433,13969],[-92,-115],[-14,-196],[-45,-54],[-27,22],[-78,16],[-24,-18],[-13,-37],[-39,-45],[-45,31],[-19,-2],[-75,37],[-165,92]],[[10905,13490],[-270,-154]],[[10635,13336],[-17,165],[-20,61],[54,240],[-23,31]],[[10629,13833],[45,43],[56,-43],[39,36],[-14,84],[139,134],[49,101],[102,332]],[[11045,14520],[372,0]],[[11417,14520],[-113,-363],[80,-198],[-148,-134],[-8,-152],[-224,-98],[-32,-8],[-67,-77]],[[14663,10856],[41,17],[28,-30],[-43,-23],[-3,-27],[-46,19],[-11,39],[34,5]],[[12491,11861],[-91,59],[-71,-2],[-42,108]],[[12287,12026],[-81,184],[544,743],[46,140],[17,365],[22,52],[215,68],[75,18]],[[13125,13596],[12,-144],[-100,-88],[39,-78],[131,-165],[64,-54],[71,-5],[43,35],[57,77],[281,1],[69,-10],[81,-67],[-1,-40],[66,-49],[6,-54],[69,-47],[77,-11]],[[14090,12897],[-58,-54],[5,-84],[-16,-38],[-9,-81],[-41,-23]],[[13971,12617],[6,-28],[47,-35],[-19,-20],[-31,-175],[-1,-101],[13,-71],[-15,-65],[7,-62],[-1,-105],[59,-8],[27,-94],[31,-26],[39,1],[11,-33],[39,-18],[33,-83],[41,-8],[5,-78],[-35,-21],[-6,-71],[37,-12],[45,-35],[67,-78],[44,-122],[-34,-120],[48,-28],[-4,-29],[-30,-38],[24,-28],[34,-7],[-31,-54],[10,-45],[39,-38],[25,-59],[56,-20],[2,-38],[-46,-35],[-2,-19],[107,-13],[-24,-48],[68,7],[31,35],[33,-33],[-15,-25],[63,-5],[16,-40],[99,13],[17,-8],[-12,-57],[12,-12],[54,29],[22,-55],[5,-55],[39,2],[46,-13],[67,-68],[-17,-51],[61,24],[21,-34],[60,-52],[7,-73],[-23,-30],[29,-34],[63,-39],[28,20],[53,-18],[-2,-28],[30,-21],[0,-47],[-37,-9],[19,-58],[44,-12],[25,-67],[-40,-29],[44,-24],[22,27],[42,19],[8,46],[46,-3],[17,-55],[36,-34],[9,-101],[10,-36],[-9,-67],[17,-49],[52,-48],[23,5],[44,-30],[33,-3],[22,54],[29,6],[87,-55],[87,35],[37,-23],[73,-71],[103,-58]],[[16286,9342],[-884,0]],[[8500,13508],[-6,-42],[22,-79],[-37,-18],[-41,-40],[-23,24],[-79,-18],[-39,-38],[-44,-3],[-44,-85],[14,-112],[-38,-29],[41,-58],[54,-15],[102,4],[78,-24],[40,-47],[28,-60],[-7,-31],[-34,-14]],[[8487,12823],[-93,38],[-43,7],[-69,-8],[-7,12],[-133,11],[-67,38],[13,68],[-28,34],[-61,-4],[-40,19],[-72,-23],[-52,17],[-60,-12],[-39,30],[-54,-9],[-24,-19],[-56,19],[-15,31],[-40,14],[-53,46],[11,54],[-33,27],[-32,-9],[-33,42],[-32,9],[-85,50],[0,56],[-44,71],[-48,25],[-28,-1],[-39,-50],[-49,4],[6,31],[-12,61],[-20,5],[-19,59],[-43,17],[2,51],[-44,-16],[-30,30],[-72,13],[-39,17],[-11,22],[-57,-8],[0,120]],[[6743,13812],[56,-3],[37,13],[25,29],[33,-6],[4,67],[35,69],[39,-34],[80,-90],[85,-18],[24,-39],[45,0],[30,-76],[169,135],[236,-26],[34,3],[49,59],[15,80],[56,9],[44,20]],[[7839,14004],[231,-173]],[[16969,4883],[-16,54],[-63,76],[16,51],[-39,37],[-26,5],[-34,49],[-49,43],[-42,-9],[-78,31],[-26,49],[-26,-7],[-49,73],[-40,-7],[-22,27],[-7,74],[-38,42],[11,22],[42,17],[51,85],[-13,65],[12,26],[-40,50],[-12,58],[-16,17],[-63,3],[-11,29],[-35,37],[6,104],[-48,55]],[[16314,6039],[115,99],[21,35],[31,87],[60,22],[123,-60],[-4,163],[45,291],[24,20],[61,9],[37,54],[-14,43],[-44,26],[-18,39],[1,86],[39,231],[0,171],[46,44],[4,29],[67,56],[11,40],[39,25],[13,106],[-49,169],[-174,104],[-203,249],[0,688],[147,230]],[[16692,9095],[18,-96],[-4,-48],[25,-19],[33,-49],[-6,-63],[10,-58],[32,-71],[35,-46],[24,-109],[-7,-117],[8,-118],[39,-54],[27,-75],[-23,-26],[-17,-65],[24,-45],[-30,-33],[17,-92],[59,-91],[70,-51],[90,-29],[58,11],[43,-47],[49,-19],[33,-51],[86,-43],[9,-46],[56,-86],[20,-18],[7,-129],[-6,-82],[11,-49],[59,-178],[40,-9],[-23,-83],[35,-26],[5,-55],[-11,-48],[33,-60],[60,-60],[85,-101],[46,-20],[15,15],[98,-19],[44,-20],[133,-37],[109,24],[15,20],[54,24],[70,-5],[78,32],[19,26],[-3,51],[51,7],[24,-19],[68,12],[68,-13],[1,-22],[52,-8],[24,27],[108,17],[27,61],[51,35],[18,27],[53,23],[-6,-45],[8,-43],[52,30],[21,-13],[32,21],[23,-14],[31,28],[36,-20],[70,29],[-27,-87],[18,0],[12,59],[28,11],[53,-20],[29,-23],[5,-34],[32,-42],[17,-66],[-51,-87],[42,-23],[-7,-78],[-97,-62],[-20,23],[-30,-40],[-3,-27],[-42,-64],[2,-119],[-39,-83],[1,-38],[-77,-39],[-23,-78],[12,-100],[36,-73],[9,-69],[62,-94],[40,-35],[21,8],[49,-27],[27,17],[89,-30],[15,-22],[51,19],[57,-77],[70,-14],[4,-30],[59,-36],[4,-45]],[[6743,13812],[-142,66],[-5,-57],[-36,-19],[-48,-2],[-37,-105],[-49,29],[-19,-11]],[[6407,13713],[-24,82],[-38,57],[-55,17],[-111,81],[-75,72]],[[6104,14022],[190,3],[3,51],[-41,75],[146,1],[11,-93],[37,-20],[35,5],[-11,88],[-30,21],[525,11],[-17,48],[-2,87],[15,49]],[[6965,14348],[264,114],[610,-458]],[[7921,15693],[-3,132],[79,204],[25,34],[0,34],[47,30],[25,53],[-32,61],[-52,15],[-63,84],[-24,17],[-51,66]],[[7872,16423],[101,1],[418,-160],[41,-46],[50,-6],[14,-65],[36,-36],[23,-54]],[[8555,16057],[55,-26],[57,-4],[147,-144],[35,-30],[36,-53],[40,-6],[62,-70],[-10,-44],[17,-46],[25,4],[97,-42],[4,-29],[39,-53],[64,-36],[24,4],[26,-49],[32,-11],[-9,-51],[69,-37],[29,19],[105,-15],[8,-112],[-11,-42],[31,-32],[1,-59],[41,-41],[13,-30]],[[9582,15022],[-1,-1]],[[9581,15021],[-51,17],[-49,-11],[-44,-36],[-63,-24],[-38,-28],[-36,28],[-66,-34],[-24,3],[-32,38],[-69,54],[-11,-3]],[[9098,15025],[-242,85],[-255,126],[-187,41]],[[14394,13409],[-383,303],[-422,54]],[[13589,13766],[-271,175],[-365,521]],[[12953,14462],[437,293]],[[13390,14755],[189,-18],[324,-237],[254,-70],[328,-246],[298,50],[31,34],[51,98],[520,-542],[31,-258]],[[8487,12823],[4,-19],[53,-25],[37,-38],[42,-1],[57,-19],[37,2],[22,-34],[84,-35],[36,-23]],[[8859,12631],[-35,-9],[-450,-63],[-1255,-193],[-626,0]],[[6493,12366],[-1,938],[-25,13],[-38,46],[4,26],[-23,40],[-33,8],[-37,42],[25,50],[25,-1],[30,29],[4,51],[-19,62],[2,43]],[[11417,14520],[40,-58]],[[11457,14462],[47,-19],[40,-53],[-2,-51],[33,-40],[66,-43],[10,-31],[55,21],[35,-63],[384,-244],[-159,-810]],[[11966,13129],[-507,1]],[[11459,13130],[-180,152],[-207,37],[-118,31],[-49,140]],[[13051,7182],[-32,29],[-38,114],[22,16],[16,-64],[43,-37],[-11,-58]],[[15294,7080],[20,-30],[72,-33],[-28,-58],[4,-44],[36,-38],[49,-7],[18,16],[52,-21],[46,-2],[4,-44],[40,-36],[48,-68],[5,-24],[36,-11],[0,-55],[22,-17],[13,-63],[50,-38],[16,-69],[1,-86],[77,-13],[44,41],[42,-15],[42,2],[43,-88],[-4,-69],[20,-48]],[[16062,6162],[-860,-876],[-63,-151],[-84,-119]],[[15055,5016],[-27,44],[-25,81],[-29,19],[-73,88],[-13,68],[-59,29],[-11,60],[-68,58],[12,27]],[[14762,5490],[7,27],[-6,101],[-25,75],[10,56],[-33,-13],[-49,80],[-63,-11],[-56,73],[-81,-9],[-84,-72],[-65,-23],[0,-69],[-43,3],[-4,-59],[88,-89]],[[14358,5560],[-39,-11],[-12,49],[-35,-19],[-39,54],[1,21],[-38,47],[-22,67],[-45,11],[-13,33],[1,49],[-15,62],[-4,73],[-56,66],[-58,27],[-44,3],[-13,-35],[-29,12],[11,74],[-13,12],[-22,77],[23,145],[-42,48],[0,37],[43,-9],[81,54],[44,64],[20,84],[-41,3],[9,-39],[-45,-88],[-33,-23],[-34,2],[-26,-25],[-38,0],[-131,59],[-22,35],[-45,40],[-50,25],[-54,-7],[-55,11],[-24,17],[-60,4],[-40,23],[-84,7],[-71,74],[-33,10],[-18,69],[-40,67],[18,48],[-11,29],[-50,72],[23,33],[11,51],[65,-3],[25,41],[-9,75],[-24,-27],[-51,8],[15,35],[-17,65],[-68,50],[-15,78],[-17,45],[-48,46],[-15,27],[-64,72],[-52,79],[-31,32],[-104,56]],[[12689,7831],[0,1287]],[[6568,15171],[12,-73],[35,-36],[-5,-41],[18,-84],[34,-67],[74,-17]],[[6736,14853],[22,-13],[3,-37],[67,-193]],[[6828,14610],[-267,98],[-431,-193],[-298,199]],[[5832,14714],[-101,68],[-200,308],[-239,88]],[[5292,15178],[-280,104]],[[5012,15282],[0,38],[91,67],[-16,48],[-74,39],[-8,33],[-73,48],[-13,25],[-56,13],[-7,28],[45,13],[24,45],[30,-14],[61,21],[38,25],[14,-33],[1,-53],[44,-13],[20,18],[60,19],[45,-43],[26,18],[57,-27],[34,15],[48,-10],[39,-33],[20,23],[69,-13],[50,-30],[31,12],[56,-3],[55,-60],[169,-14],[14,34],[-5,40],[49,17],[62,-14],[24,22],[44,-42],[22,-89],[19,-48],[-2,-105],[5,-62],[32,-29],[11,-67],[21,-28],[12,-73],[31,5],[25,73],[58,22],[33,-20],[22,-60],[65,-80],[44,27],[30,83],[42,74],[18,7]],[[20619,15707],[-167,-480],[-30,-10],[-20,-67],[28,-172],[-67,-121],[225,35],[95,-37],[196,-23],[63,-24],[85,90],[97,53],[84,-32],[20,-48],[43,-6],[31,-51],[29,-175],[73,-17],[9,-27],[48,-37],[20,44],[25,10],[50,-39],[11,-53],[72,-25],[38,-41],[64,34],[28,-29],[54,-5],[47,256],[289,44],[24,6],[20,52],[4,69],[-11,29],[59,70],[-8,52],[46,15],[6,37],[41,31]],[[22340,15115],[0,-440],[406,-406]],[[22746,14269],[-38,-37],[-18,-38],[-35,-25],[-81,-16],[-43,-39],[-50,1],[-97,-58],[12,31],[-20,34],[-62,-52],[-74,0],[-11,-30],[-44,-39],[-16,-46],[-51,-17],[-82,-75],[-15,-41],[-94,-16],[-40,-37],[-102,0],[-42,23],[-40,5],[-27,-36],[-33,17],[-17,-24],[-76,-3],[-32,-19],[-53,15],[9,64],[-71,-1],[-26,51],[-100,-71],[-62,-22],[-23,-31],[-37,-14],[-22,25],[-21,71],[-46,20],[-54,-77],[35,-43],[-55,-37],[-7,34],[-47,7],[-82,85],[-97,-72],[-27,-35],[-58,71],[-25,3],[-23,-54],[-50,28],[-36,-16],[-75,18],[-50,-2],[-12,14],[-50,-3],[-33,-15],[-36,12],[-61,-25],[-153,-20],[-41,46],[-56,27],[-29,40],[-7,56],[-18,46],[-33,-11],[-13,68],[-40,25],[-34,62],[-1,28],[-54,38],[2,82],[-25,-11],[-42,24],[-68,10],[-66,24],[-14,30],[-47,-11],[-27,31],[-71,-2],[-65,8],[-30,-31],[-32,3],[-15,-28],[-53,-46],[-62,14],[-41,-10],[-65,2],[-52,-68],[-20,-49],[-38,-39],[-56,7],[-44,16],[-6,35],[-40,14],[24,77],[-32,46],[-28,15],[-34,-16],[-12,53],[63,40],[-60,36],[-43,9],[-58,-9],[-15,38],[-30,-16],[-29,19],[-51,9],[-20,32],[-27,-7],[-49,46],[-46,-44],[-5,53],[51,42],[-61,31],[-7,45],[-24,5],[-34,36],[-55,-2],[-30,-42],[-40,-7],[27,56],[-25,34],[6,38],[-24,44],[-25,-20],[-69,9],[-29,42],[-87,-6],[-48,21],[-2,20],[-37,62],[-60,9],[-48,-20],[-10,-55],[-41,10],[-66,39],[1,32],[-55,38],[-104,7],[-67,39],[-22,-4],[-55,27],[-52,41],[-47,56],[-51,77],[-28,101],[-4,53],[40,92],[-9,48],[10,90],[49,163],[19,32],[78,47],[14,-4],[58,32],[102,-68],[62,-10],[20,-48],[34,-14],[1,-70],[70,-32],[49,0],[41,27],[-1,41],[35,20],[19,-10],[80,64],[42,13],[52,-33],[47,0],[33,22],[54,-24],[39,-55],[53,-25],[15,-23],[47,26],[47,-9],[39,15],[39,71],[29,26],[37,-17],[37,23],[50,11],[23,24],[84,17],[27,-36],[32,9],[103,-78],[41,27],[40,-55],[64,8],[50,-47],[42,-12],[23,-30],[20,13],[55,-24],[26,-26],[-32,-29],[28,-39],[81,1],[31,25],[53,2],[30,28],[24,-15],[62,-3],[74,18],[43,1],[56,53],[43,-49],[43,11],[9,26],[38,-26],[52,-9],[52,71],[89,38],[66,48],[94,-15],[29,29],[49,-9],[42,10],[-8,71],[33,2],[6,-35],[-8,-62],[-24,-66],[5,-38],[31,6],[93,-36],[3,47],[108,37],[22,42],[-10,33],[52,1],[73,-17],[33,-37]],[[9433,13969],[91,-38],[28,-3],[58,-35]],[[9960,13536],[-2,-102],[-33,-45],[-45,-6],[-41,21],[-69,-10],[-47,36],[-55,18],[-44,-25],[-62,17],[-43,-40],[-39,-303],[267,-86],[229,-298],[267,0]],[[10243,12713],[77,-128],[-118,-362]],[[10202,12223],[-252,185],[-44,-115],[-67,31],[-26,27],[-53,-16],[-52,62],[-103,11],[-20,-18],[-25,34],[-21,-6],[-44,30],[-29,-5],[-45,47],[-30,6],[-15,51],[-34,24],[-5,50],[-70,-1],[-49,-91],[-45,-2],[-29,41],[-100,7],[-76,75],[-49,-24],[-60,5]],[[22986,22385],[45,-36],[82,-25],[45,-51],[-1,-28],[59,2],[48,-12],[-34,-42],[-52,-4],[-14,38],[-72,-32],[-15,12],[-112,-3],[-46,32],[-56,-8],[-29,17],[-36,-58],[-54,9],[-53,-41],[-19,27],[43,33],[25,45],[71,9],[20,28],[50,16],[45,50],[56,0],[4,22]],[[22418,22887],[32,-2],[57,-25],[25,-28],[69,-51],[-12,-12],[-63,-5],[-26,32],[-38,2],[-59,52],[15,37]],[[22624,22949],[20,-43],[-59,-61],[-48,48],[15,39],[72,17]],[[22204,22982],[54,-3],[26,-33],[46,11],[24,-34],[-41,-45],[-12,-50],[-50,85],[-27,23],[-59,14],[13,43],[26,-11]],[[22431,23036],[18,-28],[-40,-24],[-5,42],[27,10]],[[22359,23055],[-48,-11],[-37,30],[2,22],[53,46],[17,-28],[13,-59]],[[22216,23154],[-46,8],[22,46],[27,-26],[-3,-28]],[[24522,22144],[-41,-251],[-75,4],[-159,128],[-15,-34]],[[24232,21991],[-83,42],[-48,49],[-31,12],[-34,33],[-60,8],[-128,88],[-21,26],[-40,1],[-72,57],[-70,82],[-65,-8],[-35,67],[-44,35],[-12,49],[-63,25],[-46,1],[-37,29],[-33,-2],[-58,76],[-42,27],[-33,-4],[-61,26],[-36,-2],[-28,20],[-126,-15],[-8,-27],[-57,2],[-36,-12],[-26,20],[-87,19],[-53,36],[-41,16],[-49,58],[27,12],[36,46],[44,-28],[59,-21],[30,-22],[10,49],[60,53],[74,-13],[20,8],[32,63],[-31,15],[27,62],[-114,-13],[-31,23],[-41,64],[-7,39],[12,48],[-5,42],[19,28],[42,-22],[71,-115],[58,-7],[64,-83],[56,-16],[56,-89],[49,2],[48,-21],[54,13],[50,-42],[6,-49],[32,-28],[-4,-27],[68,3],[17,-51],[59,-11],[18,-36],[66,10],[25,-21],[7,-32],[34,1],[14,-21],[-12,-104],[19,-33],[37,-13],[18,-28],[91,-18],[20,23],[84,10],[34,-21],[38,-5],[29,-70],[51,13],[31,-11],[32,22],[42,-10],[51,-38],[7,-23],[41,-18],[1,-41],[58,-52],[49,-20],[20,13],[56,-39],[9,-28],[36,-3]],[[22190,23250],[-43,54],[22,41],[31,-35],[6,-50],[-16,-10]],[[22170,23368],[-27,-9],[-32,74],[-30,30],[15,23],[38,-22],[22,-35],[14,-61]],[[21418,23769],[38,-54],[53,0],[46,-26],[16,-44],[102,-21],[68,-33],[0,-13],[58,-44],[99,-21],[20,-30],[54,-10],[6,-48],[-10,-44],[53,-66],[-20,-39],[-7,-65],[-16,-38],[-10,-73],[29,-30],[-11,-42],[-66,-19],[-51,3],[-47,-29],[-27,35],[-37,-27],[-36,24],[-36,-38],[-85,18],[-42,-2],[-36,14],[-42,-39],[-51,32],[-72,-45],[-35,53],[-71,33],[-66,75],[-32,68],[-12,74],[-40,34],[0,37],[-54,30],[-14,31],[-120,6],[-48,20],[-33,70],[37,53],[27,-58],[26,3],[39,46],[23,9],[93,69],[3,28],[36,28],[48,-18],[37,4],[22,24],[38,7],[26,-22],[10,46],[47,48],[73,16]],[[20915,25570],[8,-22],[43,-15],[12,-33],[-79,9],[-35,32],[-38,4],[-14,-51],[-36,24],[5,31],[-19,55],[78,-39],[17,12],[21,67],[30,-17],[7,-57]],[[20121,25835],[58,-70],[-10,-25],[-36,25],[-35,62],[23,8]],[[20084,26358],[42,-7],[70,-70],[34,-16],[36,-71],[-2,-43],[22,-37],[16,-56],[19,-25],[1,-43],[21,-5],[44,-57],[-69,-38],[-34,32],[-32,-47],[-76,119],[-12,-62],[-57,-8],[-25,31],[-87,58],[-41,45],[-18,37],[-30,19],[-46,6],[-30,66],[42,62],[-8,20],[17,43],[42,32],[-6,97],[15,12],[68,-13],[68,-51],[16,-30]],[[12689,7831],[-101,134],[-48,101],[-37,50],[-32,72],[-20,72],[-25,28],[-3,50],[9,65],[-19,84],[-35,38],[-9,103],[-53,57],[-135,83],[-121,101],[-37,63],[19,61],[-81,88],[10,23],[-42,21],[-54,43],[-86,30],[-126,14],[-88,16],[-121,13],[-45,21],[-87,92],[-35,62],[26,37],[-15,50],[-23,-15],[-60,26],[-55,-69],[-137,-3]],[[11023,9442],[22,81],[32,89],[-9,72],[-29,56],[14,22],[41,14],[-2,26],[38,51],[60,-8],[-33,57],[-24,60],[-57,46],[6,35],[-31,75],[-25,124],[131,548],[-34,68],[-36,103],[-99,38],[13,44],[-10,39],[11,36],[-22,104],[54,77],[16,49],[-29,85],[-32,36],[-82,-13],[-45,95],[10,24],[86,-56],[97,-22],[35,0],[51,35]],[[11141,11532],[4,-2]],[[11145,11530],[825,-611],[38,-371],[76,-64],[659,-139],[196,-145]],[[9088,14590],[-7,83],[12,39],[-7,41],[-54,102],[2,22],[56,59],[8,89]],[[9581,15021],[-92,-395],[-19,-33],[-34,-12],[-22,-28],[-42,-5],[-40,12],[-22,-28],[-39,-5],[-9,-24],[-63,-25],[-14,-60],[80,-51],[-15,-63]],[[9993,9702],[-59,18],[7,103],[32,-38],[29,-69],[-9,-14]],[[6942,9725],[-18,12],[-50,98],[-7,32],[17,40],[33,-34],[42,-106],[-17,-42]],[[7708,9979],[85,-8],[45,-46],[0,-31],[-52,-45],[-89,-16],[-43,14],[-11,110],[15,32],[50,-10]],[[9197,10029],[30,-11],[0,-54],[48,-25],[-39,-43],[-35,13],[-73,90],[52,40],[17,-10]],[[8154,9919],[-104,41],[-8,90],[48,-66],[38,-29],[26,-36]],[[7211,9762],[-56,3],[-31,25],[-62,31],[-53,47],[-124,196],[47,-19],[57,-40],[95,-34],[26,-17],[54,-62],[33,-50],[14,-80]],[[9342,10090],[-11,-28],[0,-13],[11,-29],[-12,-56],[14,-32],[68,-62],[-116,33],[-12,49],[-51,15],[-2,58],[31,22],[19,37],[51,15],[10,-9]],[[8205,10150],[68,-71],[15,-34],[10,-64],[40,-37],[33,-46],[21,-11],[30,-45],[-40,-28],[-36,11],[-44,53],[-91,153],[-44,34],[18,39],[-19,45],[39,1]],[[7985,10075],[-55,-13],[-23,11],[-13,70],[-25,56],[18,39],[33,10],[15,-67],[44,-62],[6,-44]],[[7639,10292],[47,-120],[50,-23],[69,-4],[2,-68],[-34,-24],[-32,-48],[-43,-3],[-44,26],[-25,59],[-69,65],[-15,25],[-14,73],[17,61],[23,-20],[14,20],[27,30],[27,-49]],[[8196,10160],[-26,-4],[-10,-19],[17,-32],[-19,-39],[48,-46],[-14,-32],[-32,-19],[-34,1],[-32,31],[-42,72],[5,45],[42,83],[-2,35],[-42,48],[5,26],[39,31],[38,7],[29,-63],[33,-17],[8,-46],[-11,-62]],[[8747,10224],[-38,-1],[-1,33],[25,4],[27,46],[15,-55],[-28,-27]],[[8244,10138],[-35,28],[1,101],[-38,22],[-26,67],[27,1],[36,-31],[38,-78],[27,-33],[-13,-61],[-17,-16]],[[7802,10380],[29,-1],[37,-88],[6,-33],[-26,-24],[-59,16],[10,48],[-19,41],[22,41]],[[7745,10184],[-54,14],[5,38],[27,40],[1,63],[50,44],[-2,-54],[16,-42],[-9,-48],[31,-36],[-65,-19]],[[7899,10249],[-14,58],[-43,82],[76,-42],[2,-84],[-21,-14]],[[7912,10419],[99,-37],[14,-31],[-26,-46],[1,-29],[52,-28],[26,-26],[-40,-73],[-36,26],[-44,68],[-12,82],[-30,54],[-4,40]],[[8122,10472],[39,9],[16,-19],[17,-99],[-51,5],[-21,104]],[[6699,10360],[-36,29],[-31,77],[31,33],[44,-120],[-8,-19]],[[7784,10393],[-16,57],[34,3],[-18,-60]],[[8594,10458],[-30,41],[25,26],[36,-7],[3,-19],[-32,-29],[-2,-12]],[[8519,10495],[38,-3],[38,-44],[2,-31],[-57,-114],[-36,52],[-8,80],[-34,47],[-11,45],[47,-9],[21,-23]],[[8935,10290],[-50,22],[-46,51],[-27,53],[29,61],[-3,54],[26,-6],[63,-46],[46,-82],[-2,-45],[-18,-52],[-18,-10]],[[7840,10392],[-27,-7],[-15,31],[9,44],[-40,20],[17,56],[31,-34],[18,-6],[25,-33],[4,-43],[-22,-28]],[[8715,10529],[-1,-71],[22,-36],[11,-121],[-9,-32],[-55,-12],[-21,-31],[-67,6],[-48,30],[23,95],[33,61],[-2,51],[32,34],[73,34],[9,-8]],[[8785,10455],[-42,18],[-5,65],[25,12],[41,-22],[13,-36],[-32,-37]],[[8265,10523],[22,-5],[5,-57],[36,30],[27,-47],[-26,-37],[-3,-32],[47,-73],[42,-12],[11,-43],[68,-50],[-16,-51],[-39,-16],[-21,12],[-21,55],[-108,179],[-48,34],[-4,85],[-20,51],[36,24],[-2,-32],[14,-15]],[[8588,10597],[31,-23],[-13,-40],[-23,-10],[-36,-28],[-43,17],[28,27],[38,72],[18,-15]],[[9063,10625],[25,-22],[-11,-41],[12,-88],[60,-92],[-15,-114],[-17,-93],[-18,-21],[-44,-12],[-51,17],[-6,24],[-56,19],[25,34],[1,43],[24,75],[-5,116],[-36,45],[38,36],[-5,31],[37,41],[42,2]],[[8398,10608],[3,-107],[23,-81],[-24,-68],[-36,0],[-26,28],[26,73],[-34,44],[-37,-27],[1,35],[-10,23],[-30,13],[3,37],[-23,23],[38,34],[49,-32],[56,41],[21,-36]],[[8821,10631],[-1,-85],[-69,45],[-13,41],[40,4],[28,31],[15,-36]],[[7933,10552],[-7,-119],[-56,5],[-18,51],[-30,15],[-39,43],[3,57],[23,75],[24,-44],[52,-50],[48,-33]],[[8119,10719],[2,-40],[26,-50],[20,-76],[30,-42],[-67,-24],[-20,22],[-12,97],[-37,59],[-23,17],[4,36],[77,1]],[[8756,10555],[-44,-1],[-77,-25],[-4,45],[-18,36],[26,61],[-20,26],[47,26],[36,-62],[24,-66],[30,-40]],[[8328,10706],[-12,-79],[-54,14],[-42,30],[33,52],[15,-24],[37,24],[23,-17]],[[8205,10697],[9,-28],[41,-28],[-41,-78],[-24,3],[-21,73],[-23,21],[25,41],[9,34],[25,-38]],[[7960,10712],[35,3],[19,-50],[33,-32],[22,-47],[15,-113],[35,-38],[13,-70],[-27,-5],[-52,-44],[-4,-36],[-43,4],[33,78],[-22,39],[-37,0],[-38,39],[2,99],[12,50],[-19,31],[4,68],[-39,35],[39,14],[19,-25]],[[7939,10573],[-35,12],[-71,67],[-8,77],[51,-7],[57,-44],[-3,-60],[9,-45]],[[8886,10740],[17,-13],[-16,-42],[29,-11],[-45,-88],[-8,-43],[-27,4],[13,58],[-29,98],[66,37]],[[8948,10709],[-24,-118],[-29,40],[27,44],[-30,10],[11,33],[33,29],[12,-38]],[[8552,10736],[4,-25],[15,-28],[-4,-61],[-29,-57],[-28,-33],[-54,13],[6,42],[33,40],[19,54],[-6,36],[-15,11],[12,29],[24,6],[23,-27]],[[8753,10759],[10,-42],[19,-3],[0,-58],[-51,-12],[-47,62],[19,49],[50,4]],[[8605,10601],[-22,16],[-5,63],[-17,31],[-15,65],[36,14],[37,-16],[12,-50],[-19,-25],[20,-29],[-27,-69]],[[8145,10799],[-11,-55],[38,-31],[-31,-29],[-15,44],[-45,10],[-1,47],[37,22],[28,-8]],[[8109,10815],[-30,-22],[-10,-46],[-42,-28],[-26,69],[6,21],[102,6]],[[8542,10778],[-30,-12],[-23,-20],[-11,64],[9,34],[55,-66]],[[8216,10826],[47,19],[12,-22],[-26,-38],[-5,-51],[-60,6],[-19,40],[24,15],[-36,38],[40,30],[23,-37]],[[8710,10850],[8,-38],[-48,-80],[-30,2],[-7,37],[-44,29],[9,16],[-14,17],[19,32],[26,-17],[35,0],[29,23],[17,-21]],[[8165,10752],[-23,4],[6,49],[-35,16],[2,41],[42,11],[-10,-39],[36,-34],[-24,-23],[6,-25]],[[8572,10791],[-37,21],[11,34],[19,13],[4,31],[28,-8],[-18,-54],[15,-8],[-22,-29]],[[7873,10914],[0,-47],[29,-38],[54,-6],[18,-56],[-46,-9],[-49,-26],[-40,37],[-17,81],[-17,39],[7,38],[61,-13]],[[7984,10998],[17,-13],[35,-2],[49,16],[18,21],[42,-5],[3,-63],[14,-47],[-34,-25],[-35,-45],[-50,-18],[-133,18],[-32,44],[5,54],[-41,-9],[-40,29],[23,45],[34,-21],[56,38],[57,8],[12,-25]],[[8301,11030],[2,-44],[21,-22],[-50,-40],[8,-42],[37,1],[29,26],[22,-20],[-6,-83],[61,-24],[62,-75],[2,-33],[-58,-75],[-11,57],[-92,-2],[13,52],[-35,31],[-31,-25],[-19,65],[30,52],[-28,24],[-32,-22],[-26,33],[-36,9],[9,44],[-21,38],[0,36],[91,36],[13,26],[45,-23]],[[10202,12223],[190,-140]],[[10392,12083],[749,-551]],[[11023,9442],[-38,40],[-47,17],[-65,1],[-143,-18],[-149,-13],[-135,13],[-24,22],[-5,65],[-15,27],[-106,87],[-44,17],[-52,7],[-115,-4],[-47,-8],[-32,85],[-32,30],[-21,40],[-33,-40],[-7,-93],[-29,6],[-22,44],[-38,19],[-64,10],[-13,74],[-29,41],[-31,-6],[57,-69],[-95,-54],[-61,41],[-29,30],[-31,-54],[-46,14],[-33,66],[-48,38],[-54,28],[-10,22],[14,54],[-14,26],[7,37],[6,10],[-19,10],[-54,-13],[-17,-41],[-39,-20],[-28,35],[20,34],[-6,34],[-40,102],[1,119],[40,62],[-48,13],[-64,59],[-8,60],[53,71],[-50,-4],[-37,25],[-51,-23],[-26,-40],[6,-24],[-25,-20],[-12,-18],[5,-15],[27,-45],[-20,-9],[-22,45],[-55,31],[-5,39],[16,40],[55,-18],[-3,53],[11,37],[-18,154],[26,27],[-13,37],[-32,-68],[0,-57],[-65,3],[-65,-55],[-24,13],[12,38],[-46,4],[-2,63],[-22,41],[-58,-2],[50,84],[8,45],[-37,-4],[-20,-37],[26,-40],[-24,-23],[-17,-43],[-32,17],[-5,22],[-28,10],[-10,-39],[-58,12],[-9,42],[-56,-35],[35,-53],[-1,-49],[-42,20],[-34,-5],[-23,44],[10,42],[-13,34],[-28,2],[-35,-30],[-25,26],[45,41],[2,24],[-17,10],[1,39],[-25,32],[-26,4],[-18,-31],[-51,-21],[-87,14],[-65,-35],[-41,4],[-23,33],[-17,8],[-42,-16],[-58,-35],[-39,17],[-26,-71],[-7,-89],[30,-82],[-17,-96],[-18,-35],[-24,-112],[-22,-34],[28,-34],[10,-58],[-62,-61],[0,-50],[-36,-31],[-38,78],[-21,18],[8,12],[31,-5],[8,14],[-22,41],[-5,0],[22,-46],[-6,-5],[-35,4],[-21,-32],[-13,-11],[-31,2],[-3,32],[-62,65],[-15,50],[-44,5],[11,-41],[24,-17],[39,-68],[-12,-97],[7,-36],[60,-110],[66,-72],[7,-43],[-26,-83],[-37,-34],[-65,11],[-34,23],[-19,32],[-31,99],[-18,-6],[16,-77],[-24,-30],[-84,35],[-134,94],[-79,20],[-80,-1],[-91,80],[-94,70],[-31,51],[-60,151],[-31,99],[-24,35],[-42,30],[-50,8],[-28,-17],[-36,2],[-47,64],[-63,51],[-28,53],[23,48],[94,-15],[24,14],[0,149],[-33,40],[-35,-8],[-65,15],[22,77],[-44,89],[-88,60],[15,-45],[53,-20],[41,-65],[4,-38],[-15,-52],[25,-37],[29,-9],[54,18],[16,-42],[5,-91],[-26,-25],[-81,3],[-28,-20],[-12,-44],[10,-33],[45,-71],[89,-80],[22,-29],[79,-9],[23,-30],[-17,-37],[16,-70],[45,-74],[73,-146],[53,-79],[18,-88],[35,-88],[-12,-46],[4,-46],[43,-110],[71,-118],[63,-142],[30,-84]],[[7058,9368],[-2119,2486],[0,510]],[[4939,12364],[1554,2]],[[21497,6273],[14,-33],[45,3],[43,-24],[40,-61],[35,4],[32,-57],[26,-19],[12,-55],[51,-149],[-3,-52],[54,-44],[-44,-78],[-43,-35],[-6,-50],[-27,-37],[72,-19],[-55,-123],[-46,9],[-33,-8],[-19,46],[-95,44],[-9,45],[-24,38],[-109,2],[-82,64],[-40,68],[-42,32],[7,38],[-42,17],[-3,47],[-22,27],[-4,67],[32,52],[19,80],[46,44],[42,60],[112,58],[66,-1]],[[23694,7152],[15,-38],[-38,-20],[-62,5],[33,39],[24,55],[28,-41]],[[24030,7675],[-39,1],[-24,26],[-8,37],[88,74],[24,-18],[-4,-59],[-37,-61]],[[23181,7950],[7,-38],[-98,-51],[-15,37],[29,50],[-30,58],[26,75],[41,31],[50,-37],[3,-79],[-13,-46]],[[23535,8303],[17,-46],[-16,-83],[9,-20],[-1,-69],[-43,-44],[25,-48],[64,-53],[9,-57],[-10,-80],[-61,-84],[-1,-155],[-30,-78],[-12,-84],[14,-31],[33,-23],[2,-49],[-62,79],[-104,58],[-17,46],[53,72],[52,50],[45,75],[9,56],[51,68],[0,20],[-47,22],[-40,64],[-37,35],[-68,-19],[-109,20],[-23,33],[11,74],[40,61],[13,55],[32,52],[63,51],[46,27],[70,10],[23,-5]],[[25921,18810],[35,-20],[72,40],[56,-69],[69,-49],[59,-6],[52,22],[28,-19],[114,32],[33,17],[27,-42],[-36,-55],[-17,-97],[-60,-52],[13,-55],[-38,-62],[6,-23],[-35,-73],[7,-38]],[[26306,18261],[-29,28],[-24,-6],[-65,87],[-37,-3],[-28,26],[-42,-12],[-51,39]],[[26527,19015],[-72,1],[-2,34],[35,14],[39,-49]],[[26570,19268],[37,-16],[10,-24],[57,-56],[7,-44],[-38,-31],[-6,-31],[-50,-26],[-49,-11],[-18,28],[31,58],[-62,55],[23,29],[25,-4],[31,23],[2,50]],[[5832,14714],[8,-422],[90,-95]],[[5930,14197],[-114,21],[-2,-206],[-76,47],[-419,-6],[1,-357],[-243,-1],[78,-92],[-2,-96],[-432,311],[-628,210]],[[4093,14028],[0,665]],[[4093,14693],[104,4],[25,-24],[37,77],[99,-44],[84,-53]],[[4442,14653],[174,-116],[100,-362],[17,373],[27,117],[1,56],[18,30],[86,17],[150,-17],[216,-138],[60,454],[1,111]],[[7163,16999],[21,-36],[30,-15],[13,-40],[57,-49],[41,-17],[70,-4],[64,-16],[-2,-29],[40,-19],[11,-28],[-9,-52],[25,-13],[-4,-33],[73,-104],[68,-49],[41,11],[49,-3],[36,-29]],[[7787,16474],[-24,-69],[19,-29],[19,-85],[-23,-82],[2,-63],[-28,-40],[-32,7],[-58,-7],[-59,27],[-54,-5],[-22,-30],[-23,-68],[-56,-14],[-20,-24],[-62,-4],[-39,-29],[-17,-73],[8,-43],[-49,-29],[-48,-17]],[[7221,15797],[-65,-31],[-28,-29],[-42,6],[-55,-37],[-50,19],[-80,2]],[[6901,15727],[-56,32],[-86,82],[-76,-100],[-44,29],[-23,79],[-88,77],[-31,-38],[-148,68],[-67,63],[-93,31]],[[6189,16050],[-41,22],[-5,56]],[[6143,16128],[58,16],[29,70],[47,5],[29,25],[-9,47],[-39,60],[-44,45],[62,81],[-28,39],[-2,40],[29,32],[179,241]],[[4367,16920],[0,-1398],[187,-70]],[[4554,15452],[-40,-87],[4,-36],[-27,-17],[-36,-80],[11,-38],[96,-27],[5,-191],[-22,-59],[16,-83],[-11,-94],[-45,-51],[-63,-36]],[[4093,14693],[-64,26],[-61,47],[-26,2],[-73,42],[-12,51],[-803,717]],[[3054,15578],[-258,233],[12,86],[21,50],[47,64],[53,46]],[[2929,16057],[89,75],[35,52],[58,16],[16,-15],[78,11],[75,-35],[44,6],[30,26],[-12,59],[27,77],[-17,35],[11,42],[0,60],[16,20],[6,55],[-10,43],[-36,46],[-38,86],[16,74],[40,11],[28,-10],[11,-36],[0,378]],[[9736,14485],[-114,57],[-37,-13],[-62,-5],[-45,-101],[-19,-58]],[[9582,15022],[38,7],[42,-24],[54,4],[16,-28],[36,-12],[68,-72],[-1,-28],[28,-21],[38,-52]],[[14090,12897],[39,-34],[183,-210]],[[14312,12653],[-31,0],[-42,-42],[-50,-30],[-115,-25],[-59,17],[-44,44]],[[5642,16633],[15,-35],[54,-57],[9,-37],[29,-44],[67,-46],[35,-48],[90,-25],[38,-22],[33,-97],[-4,-33],[95,-2],[40,-59]],[[6189,16050],[18,-66],[-18,-104],[39,-2],[4,-47],[25,-13],[62,7],[25,-94],[58,-31],[-40,-25],[24,-88],[16,-11],[29,-60],[-7,-46],[20,-21],[109,-4],[23,12]],[[6576,15457],[8,-59],[-17,-28],[-10,-72],[24,-64],[-13,-63]],[[5012,15282],[-458,170]],[[10129,13706],[42,44],[41,-16],[67,17],[44,53],[33,23],[83,-8],[16,98],[174,-84]],[[10635,13336],[-480,-244],[-121,-219],[209,-160]],[[11375,16855],[-13,-39],[-44,-20],[44,-25],[-21,-92],[19,-33],[5,-48],[-18,-19],[-3,-75],[40,-48],[-62,-62],[-26,-42],[-14,-51],[-39,-86],[15,-48],[-3,-78],[-33,-27],[-4,-57]],[[11218,16005],[-104,77],[-30,-7],[-27,-39],[-53,-27],[-72,-2],[-21,21],[-36,-6],[-65,-41]],[[10810,15981],[11,65],[-29,-14],[-81,-8],[-29,83],[-284,-24],[-72,122],[-46,-2],[-48,-43],[-22,25],[-38,6],[-66,43],[-10,21],[-45,-5],[-21,30],[-38,83],[23,49],[-11,45]],[[10004,16457],[77,1],[171,329],[-38,48],[35,46],[-5,81],[40,27],[7,37],[-44,72],[-86,83],[83,84],[194,64],[-3,252]],[[10435,17581],[14,-6],[249,-343],[182,-5],[-20,-185],[15,-68],[91,30],[76,38],[57,2],[130,-23],[119,-167],[27,1]],[[14773,23244],[-56,-21],[-17,62],[27,26],[57,5],[4,-45],[-15,-27]],[[14878,23761],[69,-27],[40,6],[-12,-50],[-29,-18],[-64,-6],[-36,-25],[-5,-26],[-42,-19],[7,69],[43,29],[29,67]],[[15966,24086],[52,-81],[78,-52],[13,-19],[-51,-51],[3,-20],[-59,-45],[-39,-11],[-82,15],[-26,-17],[-46,-4],[-19,34],[-52,-44],[-8,28],[28,63],[25,4],[30,-27],[48,5],[37,52],[1,91],[32,18],[35,61]],[[15597,24504],[-6,-21],[-71,3],[-75,-24],[-3,26],[50,-4],[54,18],[41,27],[10,-25]],[[15899,24611],[15,-44],[-23,-28],[-47,-18],[-43,7],[-10,34],[34,40],[74,9]],[[15094,24629],[-40,-37],[23,-26],[-3,-58],[-86,-14],[-93,19],[-34,16],[45,74],[35,4],[1,-40],[90,47],[-18,103],[40,-19],[40,-69]],[[13767,24808],[34,-2],[68,-30],[65,-1],[40,15],[49,-20],[40,10],[59,-19],[32,18],[84,-31],[33,22],[49,-14],[77,-62],[48,49],[32,-17],[46,-2],[42,-41],[46,-2],[98,-32],[6,-22],[59,-26],[51,-7],[21,28],[40,-18],[-19,-57],[-95,-4],[-5,-48],[-23,-25],[-27,30],[-26,-59],[39,-39],[-33,-35],[-15,-54],[-80,-67],[-59,-68],[-48,22],[-56,5],[-80,54],[-52,-20],[-66,-64],[-74,13],[-9,17],[-48,-8],[-38,-29],[-45,-15],[-81,27],[-51,-6],[-25,12],[-52,-1],[-3,19],[-47,23],[-43,-16],[-75,41],[-47,-9],[-31,38],[-37,4],[-36,26],[12,33],[-30,28],[-34,-31],[-82,3],[-3,-38],[44,-12],[40,-32],[-6,-48],[-25,-16],[-48,7],[-28,-25],[-50,-10],[-33,57],[-51,-10],[-27,13],[-38,-39],[-37,-106],[-37,-29],[-30,42],[-72,75],[20,41],[-16,85],[22,43],[28,2],[-7,47],[34,-1],[16,-28],[49,24],[61,-17],[32,38],[-18,67],[-35,31],[-50,76],[-7,52],[12,28],[-4,49],[86,-74],[11,46],[31,62],[35,31],[48,-22],[48,-40],[18,9],[42,-25],[29,31],[79,-21],[71,59],[154,55],[14,-13]],[[4581,25392],[58,6],[17,-24],[-15,-38],[-58,22],[-36,-43],[-11,37],[16,56],[29,-16]],[[9717,25941],[-47,-50],[-10,-35],[-41,29],[35,18],[41,40],[22,-2]],[[5055,26034],[-11,55],[35,6],[39,-12],[-63,-49]],[[5130,20764],[84,-26],[18,26],[37,-20],[39,-44]],[[5308,20700],[-2,-183],[35,-62],[4,-75],[-27,-22],[29,-37],[11,-75],[0,-205]],[[5358,20041],[-208,1],[-106,331],[-7,7],[-204,-78],[0,-42],[-106,2]],[[12287,12026],[-54,4],[-88,68],[-129,121],[-61,31],[-91,25]],[[11864,12275],[-8,33],[-43,60],[-6,113],[-42,99],[79,36],[31,54],[91,459]],[[11457,14462],[483,0]],[[11940,14462],[1013,0]],[[13589,13766],[-221,27],[-149,-23],[-32,-53],[-3,-28],[-31,-38],[-28,-55]],[[6104,14022],[-24,147],[-150,28]],[[6828,14610],[137,-52],[0,-210]],[[11145,11530],[35,14],[70,3],[7,33],[28,1],[33,82],[52,35],[49,-31],[20,-41],[42,-5],[27,50],[24,-31],[20,7],[55,-24],[13,53],[-6,87],[22,77],[-18,43],[33,70],[74,63],[11,35],[35,24],[60,80],[-12,64],[45,56]],[[5126,8356],[-4,-27],[-31,-19],[-127,-19],[-59,13],[-37,23],[7,29],[96,-5],[122,18],[33,-13]],[[5077,8205],[-1,-95],[-824,-2],[-35,18],[12,49],[-18,60],[31,58],[25,19],[11,48],[-14,56],[-42,35],[35,52]],[[4257,8503],[4,1],[42,19],[85,12],[37,-22],[41,-56],[58,-34],[88,-39],[61,-41],[89,-73],[66,-11],[110,-35],[139,-19]],[[4295,8528],[-82,16],[-92,-5],[-70,-37],[-122,-92],[-35,-2],[-52,-25],[-73,-17],[-78,-2],[-72,49],[-31,64]],[[3588,8477],[48,-47],[43,-29],[50,-10],[103,13],[112,77],[84,40],[111,34],[66,2],[90,-29]],[[6429,9101],[94,-86],[3,-65],[-11,-15],[-102,-41],[-32,18],[-59,62],[-40,28],[-15,31],[7,57],[120,23],[35,-12]],[[6541,9152],[14,-67],[-29,-3],[-94,62],[-53,1],[-74,-14],[-66,14],[-59,134],[63,8],[57,26],[108,-38],[35,-21],[98,-102]],[[6017,9294],[33,-16],[111,-33],[20,-74],[53,-113],[-103,55],[-36,5],[-78,29],[-23,35],[-18,91],[-20,19],[-61,2],[-23,40],[-35,33],[32,35],[-15,31],[-37,18],[4,61],[53,10],[52,-23],[18,-117],[73,-88]],[[7058,9368],[-25,-49],[-60,23],[-38,39],[-40,69],[-38,16],[-49,-20],[-11,-22],[84,11],[34,-93],[28,-56],[-10,-53],[-33,-21],[-217,4],[-72,9],[-71,54],[-85,46],[-82,33],[-80,9],[-41,-6],[-45,-38],[-37,-5],[-116,21],[-31,14],[-23,32],[-17,111],[-45,69],[-40,17],[-69,-20],[-57,20],[-16,123],[-19,49],[-30,21],[-39,-14],[-5,-63],[-27,-49],[-109,3],[17,-29],[93,10],[26,11],[24,49],[5,44],[29,-11],[13,-87],[-5,-39],[25,-59],[56,-34],[3,-60],[38,-24],[5,-33],[-33,-16],[68,-88],[68,-14],[29,-107],[21,-34],[146,-53],[56,-47],[36,-50],[82,-63],[10,-38]],[[6339,8880],[-78,2],[-87,-112]],[[6174,8770],[-6,-7]],[[6168,8763],[-7,-9],[-300,-3],[-1,-29]],[[5860,8722],[-150,-11],[-67,-36]],[[5643,8675],[-292,-1],[-72,-45],[-40,-35]],[[5239,8594],[-157,-42],[-202,-78],[-91,31],[-20,22],[-77,42],[-28,26],[-22,6]],[[4642,8601],[-122,2],[-53,41],[-36,10],[-43,-17]],[[4388,8637],[-131,11],[-76,13],[-43,-7],[-66,-42],[-41,1],[-46,-17],[-93,-54],[-58,-48],[-45,5],[-119,30],[-31,19],[-33,42],[-19,115],[-5,86],[-14,63],[-18,29],[-51,34],[-29,2],[-43,40],[-40,-20],[-33,2],[-36,-19],[-80,22],[-57,-17],[-64,-49],[-66,-80],[-66,-28],[-89,48],[-84,-1],[-76,26],[-103,100],[-7,26]],[[2626,8969],[37,95],[48,23],[44,35],[1,29],[-18,73],[-25,60],[1,60],[-22,35],[-93,-13],[-58,13],[-51,25],[-34,35],[-60,-12],[-33,6],[1,43],[18,54],[1,37],[-37,24],[-33,-28],[-16,-52],[-24,7],[-13,87],[-34,167],[-44,30],[-35,-27],[-32,5],[-24,40],[-64,24],[-75,3],[-47,16],[1,-47],[-29,-19],[-50,72],[-19,8],[-171,24],[-18,-35],[18,-61],[-62,33],[-14,42],[17,17],[68,16],[31,45],[7,37],[-32,1],[-32,-46],[-72,17],[-27,26],[-23,88],[-61,-3],[-92,-30],[-20,19],[15,68],[-11,46],[-28,36],[-897,-4]],[[404,10213],[0,1958],[-43,4],[-10,-24],[-79,16],[-13,-34],[-36,40],[-18,49],[-43,6],[-44,71],[48,53],[-29,41],[-36,-12],[-42,64],[22,48],[33,13],[-8,37],[-27,39],[-62,22],[0,56],[-17,52],[41,7],[-8,111],[35,31]],[[68,12861],[2,3],[774,5],[0,-81],[45,-20],[47,55],[0,45],[25,25],[4,49],[71,132],[29,17],[20,46],[20,-2],[21,59],[48,51],[39,21],[-3,47],[19,83],[36,17],[37,58],[-11,79],[7,29],[-45,67],[-8,75],[19,120],[18,87],[30,81],[42,-29],[79,-10],[59,-23],[53,-10],[59,-27],[109,-104],[198,-46],[234,0],[467,649],[-455,955],[27,2],[22,-34],[34,11],[12,-28],[125,-69],[-10,-36],[25,-40],[32,12],[37,-38],[169,-87],[324,132],[23,145],[47,79],[-16,30],[-6,68],[52,67]],[[4093,14028],[0,-1664],[846,0]],[[10093,17818],[141,-208],[69,-22],[132,-7]],[[10004,16457],[-43,39],[21,22],[30,72],[-7,32],[-41,73],[-71,60],[-58,60],[1,89],[23,25],[-2,65],[-93,95],[-43,1],[-30,40],[-42,-22],[-81,61],[-25,3],[-27,-35],[-27,-56],[-69,-12],[-39,4],[-58,62],[-77,-127],[54,-50],[-277,-188],[49,-50],[31,-17],[32,-60],[26,-21],[-30,-26],[31,-28],[-9,-99],[-27,-25],[-50,-6],[-15,-15],[-5,-52],[-142,33],[-141,-135],[77,-130],[-39,-21],[-141,65],[-115,-126]],[[7872,16423],[-85,51]],[[7860,14664],[-24,-33],[-65,56],[-51,-28],[-26,54],[-57,-33],[-41,41],[-19,-42],[-148,15],[131,65]],[[7560,14759],[10,15],[-21,63],[22,24],[11,44],[-27,40],[12,70],[38,-7],[26,31],[36,2],[42,-20],[33,25],[49,12]],[[7560,14759],[-24,85],[-40,41],[-42,87],[-116,123]],[[7338,15095],[-72,307],[33,60],[-16,53],[-30,-2],[-58,65],[0,34],[28,47],[-19,57],[17,81]],[[29346,19329],[-41,-32],[-11,-55],[-37,-11],[-43,18],[-32,45],[-47,40],[4,56],[46,64],[26,15],[31,44],[67,36],[11,-34],[-14,-53],[18,-55],[17,-11],[5,-67]],[[29443,19582],[32,7],[39,-83],[-42,-29],[-62,55],[-46,-21],[-11,37],[65,10],[25,24]],[[28352,21003],[13,-48],[32,-56],[-3,-28],[-53,-3],[-26,23],[-32,-12],[-50,97],[60,24],[33,37],[26,-34]],[[28510,21208],[82,-14],[19,-32],[-34,-68],[-62,62],[-29,5],[-19,-24],[-43,-3],[21,64],[29,23],[36,-13]],[[26987,22051],[11,-17],[8,-111],[-12,-83],[45,-4],[17,-24],[-3,-64],[-35,-85],[3,-64],[-20,-34],[-35,-7],[-86,83],[-5,43],[-67,30],[16,50],[-39,34],[-36,54],[-14,69],[68,83],[39,24],[61,9],[21,14],[63,0]],[[24522,22144],[22,6],[19,-35],[36,-24],[25,2],[25,-28],[43,-12],[23,-30],[48,11],[33,-21],[15,-45],[55,-58],[18,-73],[74,-60],[33,8],[29,-56],[83,-86],[40,15],[63,8],[63,-41],[59,8],[77,-16],[28,-84],[19,-7],[73,26],[34,-7],[41,-44],[30,22],[15,-88],[31,-42],[25,-5],[18,-38],[35,-12],[67,-80],[32,-71],[45,-65],[24,-47],[27,-4],[34,-46],[15,-40],[96,-51],[99,-77],[31,-2],[51,-28],[16,-26],[56,-33],[13,-39],[-21,-67],[9,-29],[41,6],[48,-36],[28,-49],[30,-98],[75,-8],[61,62],[37,-11],[20,-77],[22,-27],[11,-64],[47,-58],[22,-74],[-32,-68],[49,-45],[1,-26],[86,-35],[74,15],[36,-8],[17,-46],[60,-29],[37,-59],[38,6],[84,-43],[55,6],[55,80],[67,-21],[-13,-44],[15,-26],[0,-54],[15,-24],[-3,-44],[39,-33],[13,-59],[35,-29],[68,-26],[90,46],[24,-58],[-8,-59],[6,-32],[56,-54],[84,-97],[24,-54],[-4,-31],[22,-43],[35,-17],[4,-29],[-14,-57],[49,-53],[90,-37],[23,-49],[4,-43],[24,-41],[-16,-61],[6,-59],[-23,-42],[39,-74],[-12,-42],[-100,-70],[-41,-46],[-59,-119],[-5,-45],[47,-78],[32,-3],[-5,-57],[10,-47],[-1,-90],[-51,-32],[-40,-50],[-19,-81],[7,-50],[-55,-9],[-18,-56],[-31,-15],[11,-47],[-24,-48],[-80,-58],[-22,-39],[-45,18],[-15,-18],[9,-102],[-52,-44],[0,87],[-34,55],[-13,47],[-48,5],[-22,49],[-57,64],[-34,49],[-29,70],[-79,11],[-40,59],[-8,102],[-15,38],[3,48],[-13,30],[-65,37],[3,25],[-20,77],[14,43],[-55,92],[14,58],[38,29],[9,98],[14,33],[4,59],[-16,70],[25,73],[-16,25],[-4,92],[6,33],[-25,50],[27,100],[-44,45],[-16,43],[-34,34],[-19,71],[-34,18],[-19,32],[8,57],[-11,69],[-19,10],[-37,103],[-31,34],[-19,63],[-34,12],[-36,47],[-7,54],[-45,68],[-27,76],[-43,10],[-16,25],[-57,34],[-49,67],[-1,35],[-25,39],[-25,15],[-74,108],[-33,27],[-36,65],[8,106],[-46,20],[-67,55],[-5,23],[-52,89],[-38,27],[-60,17],[-11,54],[-23,2],[-24,33],[-60,31],[-10,23],[-68,42],[-47,-20],[-71,21],[-48,4],[-43,36],[-28,-13],[-65,40],[-25,31],[-49,-42],[-10,20],[-60,19],[-42,26],[-17,-7],[-55,59],[-34,5],[-63,73],[-57,34],[-70,72],[-89,45],[-39,28],[-55,22],[-22,49],[-44,66],[-91,115],[-82,96],[-81,44],[-49,10],[-34,33],[-178,67],[-51,59],[-17,62],[-19,31]],[[27036,22225],[-25,31],[29,44],[36,-27],[-16,-38],[-24,-10]],[[25472,22562],[39,-54],[14,-63],[41,-47],[36,-19],[30,11],[44,-26],[36,-49],[5,-59],[-16,-57],[-52,-60],[-55,18],[-49,67],[-19,134],[-23,32],[-51,-8],[-43,54],[22,34],[-5,51],[46,41]],[[27043,22657],[-18,3],[-13,47],[30,28],[35,-41],[-34,-37]],[[25370,22901],[66,-23],[7,-19],[46,-7],[28,-29],[37,-61],[-27,-40],[32,-20],[-5,-89],[-32,-46],[-49,15],[-31,-41],[-30,-18],[-46,26],[-24,37],[-1,118],[35,25],[15,38],[-23,20],[-36,92],[38,22]],[[25520,23174],[61,-34],[21,-65],[-25,-64],[-37,-14],[-100,16],[-32,21],[14,63],[46,75],[52,2]],[[14762,5490],[-42,-9],[-12,42],[-37,18],[-10,-39],[29,-58],[-6,-23],[-43,0],[-60,37],[-31,48],[-25,-18],[-21,48],[-40,15],[-9,43],[-48,63],[-16,43],[-97,-3],[20,-40],[46,-21],[9,-44],[-11,-32]],[[15423,12645],[-25,-44],[17,-47],[-31,-5],[-41,15],[-50,-13],[-113,24],[-33,22],[-39,-14],[-59,30],[-62,4],[-33,-38],[-21,4],[-54,-37],[-47,0],[-45,21],[-66,-8],[-33,26],[-136,-16],[-112,89],[-39,-12],[-89,7]],[[31646,15674],[29,-22],[-39,-73],[-13,45],[-43,70],[-1,62],[15,12],[43,-22],[9,-72]],[[32643,14216],[-337,-28]],[[32306,14188],[-67,75],[-51,31],[-84,37],[-5,26],[-42,28],[-72,29],[-2,41],[-38,52],[-80,54],[-29,32],[-36,83],[-1,86],[37,40],[-8,68],[-42,70],[-7,44],[-61,84],[-6,53],[55,99],[-1,48],[-17,54],[7,48],[17,13],[37,98],[-26,76],[35,18],[25,-40],[21,37],[-16,79],[7,28],[-26,73],[-41,3],[-40,55],[-15,36],[-66,25],[-12,30],[83,77],[24,-4],[33,-35],[30,-13],[27,-48],[34,-26],[5,-35],[84,-48],[27,-41],[34,26],[25,-57],[69,-33],[0,-33],[58,36],[62,-1],[23,-17],[90,9],[48,-8],[30,-19],[9,-40],[39,67],[47,-24],[24,-25],[-33,-55],[54,-27],[24,-73],[9,-58],[23,-10],[25,-41],[27,-83],[37,-60],[59,-45]],[[31666,16782],[-13,-55],[7,-94],[62,-35],[30,-61],[-5,-112],[-13,-72],[-17,-37],[-13,-69],[3,-45],[-18,-86],[14,-48],[-24,-38],[8,-50],[-15,-49],[-52,-47],[-20,22],[22,57],[-44,-13],[-5,-58],[-37,-43],[-9,53],[-19,20],[-13,56],[5,46],[-24,24],[-32,65],[-2,65],[-27,64],[-22,84],[1,61],[-13,74],[41,18],[5,27],[-21,70],[13,14],[-22,86],[32,31],[-2,34],[-27,34],[-51,-42],[-26,-37],[-20,2],[24,73],[62,94],[66,64],[55,76],[44,12],[54,-34],[13,-87],[53,-91],[-8,-23]],[[42659,18006],[-55,-6],[-33,39],[46,28],[56,-29],[-14,-32]],[[30577,18406],[68,-31],[5,-92],[39,-63],[-25,-33],[-7,-77],[-53,-1],[-44,57],[19,25],[21,-48],[35,-14],[16,94],[-37,126],[-37,57]],[[68,12861],[-27,50],[41,34],[38,-5],[27,24],[-2,39],[-36,-11],[3,42],[50,4],[16,19],[6,55],[-15,50],[22,41],[74,17],[-85,52],[25,37],[-44,52],[12,33],[58,3],[69,83],[-56,-13],[-24,18],[12,34],[39,-8],[-10,57],[18,24],[-15,37],[75,18],[20,-9],[0,1397],[1,839],[0,1147]],[[360,17021],[1133,-425],[774,-290],[662,-249]],[[4100,20073],[0,-80]],[[3220,19399],[3,886],[3,34],[-494,6]],[[10392,12083],[629,521],[57,176],[248,3],[133,347]],[[26306,18261],[0,-25],[37,-50],[41,-80],[-11,-39],[43,-68],[-18,-21],[-3,-55],[21,-73],[-22,-41],[-10,-57],[5,-46],[-16,-20],[3,-77],[-38,-27],[-5,-40],[-22,-10],[-18,-58],[12,-29],[-28,-52],[-75,-58],[3,-35],[-43,-72],[-44,-41],[-19,0],[-17,-60],[-36,-31],[-58,7],[-99,-51],[-56,4],[-48,23],[-27,-8],[-79,37],[-35,-17],[-37,19],[-22,-16],[-16,-42],[-31,39],[-67,-4],[-30,-29],[-14,-41],[1,-55],[37,-55],[-57,-139],[19,-69],[-4,-40],[57,-49],[36,-48],[4,-34],[30,-21],[38,9],[35,-55],[41,-12],[33,-43],[30,-72],[24,-17],[70,-86],[28,-71],[-2,-69],[-30,-80],[-48,-69],[-31,-6],[9,-35],[-31,-33],[-45,16],[-78,-58],[-44,-13],[-41,-32],[-59,-80],[-38,1],[-27,-27],[-39,2],[-31,-39],[-46,-19],[-32,27],[-36,-26],[-5,-36],[-84,-64],[-52,8],[-45,51],[-27,7],[-61,111],[-112,19],[-45,-1],[-37,-23],[-14,-56],[-41,-63],[-49,29],[-20,52],[-59,29],[-18,-21],[-77,8],[-28,23],[-93,-4],[-36,-40],[1,-36],[-28,-54],[12,-63],[22,-24],[4,-56],[31,-12],[47,5],[38,-15],[3,-80],[-17,-36],[-36,-29],[-87,18],[-65,-45],[2,-27],[-43,-12],[-14,-88],[-20,-36],[13,-18],[-22,-54],[-30,-38],[-79,-50],[-28,6],[-59,-47],[-32,-53],[-53,-18],[-76,-71],[-27,-34],[-18,-53],[-50,-53],[-54,-14],[-32,38],[-60,-45],[-54,-2],[-47,-14],[-46,-29],[-18,-61],[-22,-28],[-47,-12],[-30,-34],[-24,46],[-49,12],[-64,-30],[-41,18],[-128,-2],[-91,-54],[-38,-13],[-19,45],[-54,3],[-45,-41],[16,-30],[7,-60]],[[22340,15115],[24,33],[40,14],[175,-13],[53,5],[65,-12],[4,-19],[44,-45],[94,29],[33,-11],[17,31],[81,44],[49,-20],[45,38],[28,-6],[61,54],[-12,97],[-26,19],[-7,63],[38,53],[-14,40],[59,-3],[64,-55],[61,-37],[30,23],[3,62],[64,8],[28,28],[53,20],[34,36],[17,74],[16,29],[37,21],[39,-18],[64,54],[43,51],[39,66],[-27,33],[-88,25],[-56,-9],[-21,31],[-30,6],[241,556],[215,377],[213,177],[628,0]],[[25828,19051],[38,68],[20,91],[38,28],[40,-61],[36,-19],[14,-78],[40,-33],[22,-92],[-8,-11],[-63,11],[-15,47],[-31,-19],[-16,84],[-39,-15],[-22,-53],[8,-53],[39,-32],[-2,-44],[-30,-11]],[[25732,19251],[-63,17],[5,70],[27,15],[45,-46],[-14,-56]],[[11940,14462],[-111,54],[-171,56],[-43,126],[-77,53],[-133,-49],[-344,320],[-330,825],[124,51],[-45,83]],[[11218,16005],[-22,-43],[-1,-38],[30,-48],[30,-77],[62,-50],[75,19],[18,31],[73,-1],[24,-43],[59,13],[44,-24],[43,58],[58,-9],[60,19],[15,-43],[44,-32],[54,9],[13,-26],[36,6],[56,-9],[83,-68],[52,-11],[76,-2],[23,-49],[63,-12],[32,-22],[62,-12],[39,7],[44,-59],[73,28],[53,32],[24,-41],[44,-21],[17,-49],[45,-4],[50,21],[25,-9],[32,22],[41,-7],[25,-21],[-1,-47],[14,-32],[135,-52],[53,-67],[23,-15],[20,-56],[42,-27],[14,-27],[31,-9],[43,-56],[40,5],[104,-22],[68,-75],[56,-8],[35,-77]],[[13569,14875],[-179,-120]],[[14332,16485],[28,-25],[49,-69],[39,-8],[22,-31],[37,-18],[-8,-43],[10,-41],[56,-109],[32,-27],[-40,-17],[13,-28],[-5,-48],[30,-37],[-64,-27],[-21,8],[-67,-29],[-37,-48],[-44,5],[-71,83],[-48,44],[-79,36],[-3,24],[-68,10],[-6,36],[17,19],[3,53],[-26,13],[13,49],[-23,45],[19,65],[34,22],[49,-6],[73,58],[86,41]],[[14006,16765],[32,-15],[-6,-74],[-30,-17],[-36,25],[-2,52],[42,29]],[[16215,3978],[-61,-5],[-12,17],[14,60],[-19,36],[-50,26],[-42,-84],[-57,41],[-91,11],[-84,-33],[-27,-36],[-16,-57],[-40,66],[8,106],[-32,61],[-55,6],[-43,38],[-49,-1],[-71,56],[-52,64],[-13,52],[-41,47],[-47,30],[-15,45],[-48,29],[-11,34],[15,30],[2,86],[-41,60],[-10,63],[-35,63],[-39,39],[-51,27],[-47,61]],[[16062,6162],[11,-33],[40,-38],[65,-76],[24,34],[112,-10]],[[28316,818],[44,-39],[29,-9],[25,-32],[45,-23],[33,15],[27,-35],[35,2],[76,-67],[81,-32],[114,-52],[57,-15],[39,-31],[149,-66],[55,3],[67,-29],[55,-8],[24,-18],[30,10],[64,-38],[58,-18],[33,-73],[46,-38],[38,-3],[-9,-34],[75,-76],[-8,-41],[-27,-16],[-29,23],[-128,-17],[-42,9],[-10,-51],[-60,31],[-14,29],[-56,-7],[-22,-14],[-41,15],[-59,-73],[-61,7],[-11,25],[67,6],[8,31],[-32,17],[-30,-6],[-37,26],[-4,26],[-60,29],[-29,-22],[-57,16],[47,33],[-49,62],[-34,-8],[-46,-37],[-24,18],[-75,16],[-34,-9],[-19,57],[-2,39],[28,72],[-40,9],[-20,-28],[-61,34],[-68,-45],[-24,22],[67,37],[10,20],[-82,29],[-25,33],[9,31],[-49,30],[-34,-34],[-35,62],[22,38],[-65,16],[2,28],[-34,37],[5,55],[20,8],[22,45],[40,-7]],[[28767,858],[73,-3],[43,-30],[42,-50],[-52,0],[-82,30],[-40,30],[16,23]],[[30585,911],[19,0],[29,-40],[69,-35],[35,-36],[16,-66],[19,-38],[0,-43],[-19,-28],[-60,-38],[-60,35],[-43,5],[-31,23],[-35,-28],[-62,20],[-6,-30],[-40,-5],[-24,46],[-30,-68],[-25,19],[-38,-26],[-118,17],[-65,70],[-46,17],[3,47],[70,3],[33,19],[45,-27],[9,28],[35,-16],[137,28],[-50,44],[-35,2],[-26,48],[-30,9],[-6,29],[47,-1],[26,-20],[52,26],[26,-26],[130,10],[49,26]],[[28105,1192],[17,-34],[66,-15],[44,-51],[64,-22],[44,-47],[38,-6],[14,-24],[-48,-37],[-46,-2],[11,-39],[-26,-9],[-42,24],[11,44],[-32,37],[-67,7],[-11,33],[-41,35],[-31,3],[-25,66],[-5,45],[65,-8]],[[27660,1250],[-2,-61],[-39,34],[41,27]],[[27859,1276],[55,-1],[5,-81],[-32,-25],[17,-33],[-24,-20],[-32,51],[-29,-2],[-22,31],[19,24],[-3,42],[46,14]],[[28030,1278],[11,-43],[-65,-16],[-24,12],[0,39],[59,18],[19,-10]],[[27125,1346],[40,-39],[-72,-23],[-21,21],[23,40],[30,1]],[[28000,1381],[72,-33],[-6,-21],[-57,34],[-9,20]],[[26830,1478],[37,-47],[-37,-27],[-30,39],[30,35]],[[26494,2243],[-32,-35],[-38,51],[31,31],[39,-47]],[[22630,2436],[-38,-35],[-5,46],[43,-11]],[[26423,2517],[35,-49],[32,-19],[2,-30],[-37,-21],[-30,26],[-55,-5],[-18,-25],[-29,16],[-6,37],[34,67],[44,17],[28,-14]],[[22400,2639],[18,-1],[48,-40],[0,-28],[-37,-4],[-29,38],[0,35]],[[27362,2649],[49,-36],[75,-37],[40,-42],[13,-40],[-52,-27],[-12,-22],[-38,-9],[-43,14],[-47,-15],[-46,-1],[-8,-50],[-66,0],[-123,50],[-79,61],[-54,-23],[-32,38],[-28,-1],[-111,51],[-68,53],[11,23],[51,16],[34,-23],[127,-42],[27,4],[54,-35],[52,-22],[37,0],[36,30],[131,42],[58,51],[12,-8]],[[23315,2720],[-2,-26],[38,-13],[25,24],[32,-4],[11,-62],[-35,-9],[-31,-55],[57,-18],[-3,-19],[-71,-42],[-60,38],[-25,42],[-35,18],[-31,-26],[-81,34],[-68,-30],[-11,48],[31,10],[9,39],[47,23],[74,20],[75,-6],[54,14]],[[22580,2718],[35,15],[6,-34],[61,-73],[-51,-31],[-22,28],[-30,2],[-57,57],[58,36]],[[22963,2838],[19,3],[37,-34],[5,-41],[-32,-14],[-2,-57],[19,-17],[-23,-44],[33,-60],[-35,-24],[-76,10],[-47,14],[-109,12],[7,71],[44,-48],[72,-7],[43,-30],[30,-4],[10,30],[-21,45],[-80,51],[-37,59],[-40,45],[9,49],[48,-9],[9,-27],[34,-3],[20,-24],[40,45],[23,9]],[[22456,2995],[33,-54],[13,-71],[38,-35],[13,-51],[-46,-26],[-35,-37],[-30,13],[-92,-5],[10,-19],[-44,-39],[-31,-1],[-52,-62],[-28,4]],[[26920,6821],[96,-17],[110,-39],[67,-18],[25,-31],[30,3],[29,26],[83,21],[37,-42],[51,-26],[-1,-57],[11,-48],[32,6],[66,-12],[13,-25],[30,7],[46,34],[73,-58],[-10,-79],[26,-5],[99,-51],[3,-29],[-36,-37],[21,-33],[-35,-44],[-64,36],[-9,28],[-42,-21],[-6,-37],[26,-8],[66,-67],[20,-40],[-37,-36],[-15,55],[-34,26],[-51,-14],[-32,-40],[-62,-18],[-61,2],[-36,-25],[-26,28],[-30,-7],[-15,51],[-55,32],[-52,0],[2,33],[-40,34],[-25,-23],[8,-34],[45,-14],[-16,-84],[-21,-11],[-24,32],[-9,42],[-49,30],[-50,11],[-54,31],[-22,42],[41,5],[21,-20],[68,19],[17,19],[3,49],[-68,50],[-34,4],[15,60],[25,27],[41,6],[0,33],[-41,-2],[-18,-26],[-58,-40],[-34,17],[-55,47],[-35,54],[-55,-10],[-23,34],[-45,34],[-51,5],[-26,19],[-71,-23],[-6,23],[53,59],[39,54],[46,3],[28,-13],[25,20],[43,-2],[59,15]],[[25519,6806],[-32,1],[-35,35],[-3,45],[30,18],[41,-21],[18,-45],[-19,-33]],[[26585,6916],[42,-12],[16,-39],[45,-46],[-27,-19],[-47,60],[-47,15],[-49,-22],[-24,-56],[29,-38],[-22,-89],[-56,106],[-5,37],[36,41],[37,1],[53,67],[19,-6]],[[25345,6963],[-29,20],[16,44],[33,-13],[-20,-51]],[[16286,9342],[12,-19],[18,-103],[32,-58],[33,-12],[102,53],[22,-23],[66,14],[51,-24],[36,21],[26,-15],[-11,-32],[19,-49]],[[34524,13137],[11,-10],[1,-103],[-15,-91],[32,-112],[66,-112],[10,-67],[-31,-30],[-12,-96],[-39,-50],[-61,-42],[-10,47],[44,64],[6,52],[-13,38],[-48,-101],[-63,-69],[-14,61],[-20,18],[-98,-33],[-40,-57],[-44,-23],[-108,-116],[-47,-95],[-79,55],[-45,22],[-50,-37],[-88,14],[-16,12],[-110,36],[-44,5],[-164,107],[-102,89],[-68,46],[-84,45],[-72,116],[-126,112],[-59,96],[-133,163],[-22,33],[36,23],[32,-33],[24,-4],[21,34],[11,52],[42,133],[2,41],[-23,123],[-14,24],[25,44],[-27,86],[-30,49],[-70,59],[-90,28],[-69,-4],[-50,33],[-73,19],[-48,60],[-113,61],[-30,34],[8,59],[-16,33],[11,48],[-22,62]],[[5561,6534],[3,-55],[-22,-49],[-59,-24],[-77,32],[-11,28],[91,65],[30,14],[45,-11]],[[5413,6512],[-23,1],[-36,30],[0,33],[57,46],[37,-17],[34,-39],[-69,-54]],[[5949,6750],[-26,-30],[-30,23],[-34,-54],[-51,34],[-7,30],[33,50],[62,47],[44,18],[29,-39],[-20,-79]],[[5914,7547],[43,-5],[33,-51],[5,-53],[-14,-83],[-31,-5],[-11,88],[-25,109]],[[5846,7526],[-35,15],[-40,63],[95,-49],[-20,-29]],[[5781,7678],[61,-12],[48,-38],[20,-59],[-100,66],[-46,16],[17,27]],[[5734,7788],[-55,49],[43,13],[20,-43],[-8,-19]],[[5681,7846],[-55,22],[-46,75],[26,25],[73,-36],[20,-62],[-18,-24]],[[6823,8048],[18,-22],[-4,-34],[-41,-43],[-24,8],[-55,57],[27,27],[62,38],[17,-31]],[[6443,8108],[42,-34],[-2,-60],[-72,-49],[-54,7],[-43,54],[9,59],[24,39],[36,17],[32,-6],[28,-27]],[[5508,7967],[-53,32],[-24,28],[-94,74],[15,42],[83,-107],[73,-69]],[[5324,8106],[-43,29],[2,42],[44,-25],[-3,-46]],[[6665,8208],[56,-28],[21,-28],[9,-53],[-10,-29],[-43,-29],[-3,39],[-33,-4],[-83,80],[26,77],[60,-25]],[[6298,8260],[30,-78],[-44,-74],[-55,-7],[1,-24],[52,5],[-5,-33],[-78,4],[-48,56],[-81,47],[-63,27],[-61,39],[21,25],[65,22],[89,-60],[38,-4],[41,12],[51,83],[32,-12],[15,-28]],[[5700,8133],[113,-22],[47,-32],[80,-26],[75,-43],[41,-34],[74,-85],[61,-37],[21,-41],[62,-37],[17,-30],[49,-32],[37,-11],[30,-28],[10,-56],[-14,-62],[-38,-51],[-28,15],[3,32],[-39,67],[-86,62],[-55,26],[-59,13],[-78,63],[-133,50],[-55,44],[-37,62],[-52,62],[-57,34],[-54,13],[-87,43],[-50,55],[-42,14],[-100,100],[43,45],[50,-11],[46,-43],[30,-59],[37,-29],[67,-22],[71,-9]],[[5600,8207],[-61,20],[-26,33],[-22,54],[29,9],[54,-28],[53,-79],[-27,-9]],[[6500,8258],[-64,-19],[-51,48],[53,42],[45,-5],[17,-66]],[[6352,8225],[-78,81],[-27,10],[2,51],[71,-46],[39,-69],[-7,-27]],[[5801,8402],[125,18],[215,-5],[63,10],[27,-6],[18,-37],[-23,-99],[-42,-63],[-47,-7],[-54,24],[-48,39],[-105,-32],[-57,4],[-75,31],[-145,110],[49,65],[53,-15],[46,-37]],[[5841,8478],[16,-37],[-67,-3],[-16,38],[67,2]],[[5921,8443],[-53,-2],[-14,38],[58,-12],[9,-24]],[[6289,8495],[72,-3],[60,-25],[40,-43],[25,-90],[-61,-2],[-52,-36],[-118,130],[-103,39],[16,24],[72,14],[49,-8]],[[5598,8507],[5,-42],[-28,-27],[-39,-16],[-102,-5],[-60,6],[-124,36],[6,21],[45,18],[198,10],[70,8],[29,-9]],[[5097,8453],[-34,12],[148,60],[31,6],[19,-20],[-51,-33],[-113,-25]],[[5805,8563],[108,-2],[130,-10],[34,-8],[-20,-45],[-80,-8],[-124,18],[-86,22],[-47,0],[-62,-22],[-17,25],[164,30]],[[4642,8601],[20,-9],[39,-59],[-6,-14],[-76,-12],[-82,59],[-149,71]],[[5643,8675],[-52,-23],[-154,-12],[-143,-30],[-55,-16]],[[6168,8763],[-5,-12],[-14,-10],[-109,-14],[-75,8],[-105,-13]],[[2956,8748],[-20,-7],[-72,18],[15,39],[50,-19],[27,-31]],[[6339,8880],[13,-54],[-14,-74],[-20,-17],[-50,-8],[-92,4],[-2,39]],[[6345,8880],[14,0],[73,-22],[91,39],[46,-18],[22,-47],[-29,-64],[-63,-25],[-56,-10],[-97,7],[12,80],[-13,60]],[[5077,8205],[95,-13],[54,-45],[57,-66],[197,-161],[54,-58],[33,-57],[67,-85],[108,-170],[78,-84],[31,-45],[18,-56],[-7,-42],[3,-92],[16,-106],[-4,-64],[21,-186],[-32,-39],[-33,-18],[-29,-41],[-35,-12],[-62,-42],[-72,18],[-88,-4],[-93,-42],[-124,-20],[-40,-50],[-43,-23],[-86,-7],[-35,-23],[-158,-46],[-117,-98],[-26,-5],[-15,-41],[-32,-36],[-64,-39],[-42,-12],[-36,-41],[-170,-104],[-33,-40],[-34,10],[-37,-36],[-66,-41],[-33,-38],[-63,-16],[-26,-27],[-75,-30],[-70,22],[-13,-7],[-76,13],[-57,41],[-65,78],[-130,101],[-101,43],[-57,-1],[-35,25],[-117,31],[-62,4],[-51,53],[-69,45],[-59,25],[20,120],[-10,122],[27,79],[-18,53],[-29,-126],[6,-81],[-6,-79],[-22,-52],[-73,-63],[-70,-17],[-33,13],[-103,-49],[-59,28],[-154,-29],[-64,18],[-74,-63],[-101,-13],[-69,10],[-115,36],[-63,9],[-123,-39],[-83,-12],[-132,-32],[-62,36],[-133,-2],[-60,18],[-56,73],[-75,45],[-125,30],[-125,-17],[-54,4],[-68,-89],[-108,-86],[-99,-52],[-72,-21],[-40,11],[-66,-4],[-64,79],[-61,62],[-31,46],[-86,71],[0,3771]],[[2626,8969],[-11,-11],[31,-46],[55,-60],[52,-32],[88,-23],[18,-39],[51,-24],[97,-2],[52,9],[38,65],[18,-1],[74,49],[76,2],[128,29],[69,-4],[33,-41],[-7,-40],[15,-47],[27,-44],[15,-121],[16,-58],[27,-53]],[[4295,8528],[-38,-25]],[[12394,17510],[-17,-31],[-41,-24],[-39,2],[-38,54],[8,70],[28,26],[64,16],[32,-36],[3,-77]],[[10632,18205],[37,-32],[28,-72],[41,-37],[23,21],[48,-72],[6,-57],[81,-126],[79,-86],[35,-16],[15,-46],[36,-44],[21,4],[14,-46],[32,-3],[24,-31],[141,-87],[67,-71],[4,-47],[-48,-78],[-16,-90],[10,-101],[20,-40],[10,-79],[33,-88],[2,-26]],[[11912,18128],[33,-43],[15,-70],[-16,-43],[16,-51],[-33,-87],[-1,-76],[-24,-27],[-111,-57],[-109,-31],[-53,5],[-44,50],[-35,10],[-17,112],[-1,97],[23,35],[14,105],[20,5],[33,60],[16,1],[89,97],[61,22],[63,-37],[54,-42],[7,-35]],[[21138,16261],[13,-47],[-55,1],[3,42],[39,4]],[[20619,15707],[23,-27],[48,13],[66,68],[32,18],[57,62],[24,93],[24,53],[-27,31],[-26,-18],[-39,32],[-11,35],[-35,42],[-7,55],[24,29],[10,42],[34,6],[47,58],[23,42],[39,-12],[38,24],[4,68],[55,70],[-21,57],[-35,65],[-5,54],[58,70],[12,46],[-27,69],[4,52],[43,86],[51,-3],[51,15],[17,19],[71,-13],[93,-59],[11,-22],[51,-39],[5,-22],[-38,-47],[7,-33],[-88,-39],[-32,-23],[-83,-19],[-52,-51],[-16,-36],[-6,-51],[51,-111],[-26,-66],[25,-33],[-126,-51],[-17,-25],[49,-50],[15,6],[26,-68],[-20,-25],[17,-68],[61,-85],[0,-50],[47,-157],[2,-39],[-25,-46],[58,-38],[78,-61],[51,3],[50,23],[25,-18],[44,22],[31,-29],[63,-17],[46,-3],[36,43],[38,64],[42,28],[3,23],[50,38],[81,46],[6,28],[30,43],[70,28],[68,-1],[57,-34],[32,2],[50,-23],[34,-43],[27,-2],[47,-40],[16,-56],[7,-67],[42,-42],[43,-6],[58,28],[71,-18],[27,28],[57,34],[45,66],[22,60],[-23,20],[44,34],[48,3],[39,-11],[46,21],[16,-58],[29,-45],[90,-16],[69,24],[17,32],[53,43],[40,17],[37,53],[44,46],[7,28],[42,69],[-17,56],[17,119],[27,62],[36,37],[-5,61],[30,39],[20,78],[64,120],[41,28],[144,127],[28,42],[63,70],[21,44],[42,53],[41,19],[27,39],[49,17],[51,32],[18,-5],[73,33],[8,26],[-10,59],[27,33],[21,-27],[25,9],[55,-15],[52,-41],[53,-4],[64,-34],[34,9],[58,59],[32,0],[17,-32],[116,-75],[66,42],[12,-3],[58,52]],[[23675,17316],[112,-91],[-20,-39],[-28,-3],[-11,-34],[-73,-22],[-28,2],[-117,93],[75,73],[42,21],[48,0]],[[19048,17360],[29,-63],[-35,-53],[-48,-28],[-17,5],[-50,65],[4,33],[52,44],[65,-3]],[[19817,17931],[49,-12],[41,-23],[2,-38],[22,-11],[2,-52],[-18,-42],[-26,-6],[-21,29],[-37,13],[17,61],[-37,44],[-44,-5],[-16,-54],[40,-64],[-114,13],[-6,58],[27,44],[18,-1],[46,41],[55,5]],[[19555,17992],[-3,-11],[-90,-23],[-10,32],[103,2]],[[6736,14853],[20,72],[110,-8],[43,-27],[31,12],[21,33],[7,55],[22,-4],[13,38],[65,-17],[24,-35],[37,-10],[28,62],[57,27],[30,28],[33,-11],[52,10],[9,17]],[[13569,14875],[67,-62],[21,30],[55,26],[75,3],[28,-28],[61,-23],[27,-36],[-1,-38],[45,-49],[31,-1],[52,-43],[65,-40],[52,5],[32,59],[37,4],[49,-61],[8,-56],[68,-6],[82,27],[12,-13],[103,-8],[31,-9],[74,41],[43,65],[33,5],[33,-28],[69,-22],[54,45],[22,-15],[56,-71],[103,-18],[68,-20],[57,-58],[52,-25],[5,-43],[99,-57],[89,-61],[39,-59],[65,-67],[7,-58],[18,-30],[49,-40],[33,-51],[-3,-80],[31,-14],[24,-87],[38,-47],[42,-31],[70,-3],[52,-45],[5,-26],[41,-13],[18,-37],[-14,-56]],[[15904,15842],[56,-1],[72,-17],[20,-35],[53,-53],[7,-32],[38,-32],[34,-11],[36,9],[26,-19],[69,1],[72,-54],[64,-37],[47,-42],[82,-128],[9,-32],[-45,-153],[-24,-149],[-42,-58],[-9,-74],[-43,14],[-14,-44],[-32,-6],[-35,71],[-56,58],[-46,24],[-23,-13],[-30,23],[-23,-10],[-32,49],[-52,14],[-30,36],[27,54],[-18,35],[-63,37],[-38,34],[-32,0],[-16,57],[-52,83],[-26,23],[-10,96],[6,21],[-20,96],[8,73],[44,85],[41,7]],[[16586,15871],[-84,59],[-4,56],[16,47],[28,35],[45,-12],[39,-27],[23,-63],[-2,-36],[-23,-33],[-38,-26]],[[15456,16291],[48,-7],[29,-67],[-19,-41],[-43,-43],[-42,0],[-63,41],[6,83],[49,36],[35,-2]],[[360,17021],[0,2088]],[[360,19109],[452,289],[-3,-477],[333,-1]],[[2007,19594],[18,434],[-9,25],[10,55],[-47,26],[7,19],[-51,95],[14,39],[-13,59],[12,31],[-3,58],[62,14]],[[10618,14520],[121,0],[86,176],[201,-32],[19,-144]],[[360,19109],[0,1222],[0,611],[0,886],[0,1321],[33,-23],[32,21],[67,-1],[27,-20],[47,-7],[29,-30],[55,3],[58,-33],[49,12],[73,6],[24,-40],[22,7],[23,-33],[31,4],[41,-22],[15,-48],[70,-11],[14,-29],[35,-10],[27,-26],[98,-33],[93,-17],[52,-21],[29,-28],[64,-16],[64,-28],[120,-68],[92,-67],[108,-52],[180,-107],[82,-44],[105,-27],[31,-16],[5,-33],[57,-41],[18,-27]],[[6901,15727],[-25,-69],[-41,-46],[-9,-37],[-61,-2],[-22,-19],[-96,-1],[-38,-34],[-33,-62]],[[9110,20537],[-40,21],[10,29],[34,18],[20,-47],[-24,-21]],[[8653,20827],[-9,-20],[-64,18],[18,35],[33,-7],[22,-26]],[[6202,21162],[69,-13],[72,-59],[35,-1],[-25,-58],[-41,-2],[-6,-26],[-65,-9],[-48,32],[29,16],[-12,67],[-38,33],[30,20]],[[5130,21216],[52,15],[113,-4],[115,-33],[40,-24],[33,-37],[120,-7],[136,-40],[165,-11],[63,-19],[33,-42],[76,8],[44,-16],[42,-61],[54,-24],[6,-41],[23,-48],[29,-25],[18,-42],[50,-51],[34,2],[12,-30],[29,-15],[78,-15],[37,21],[0,-44],[30,-34],[104,-44],[62,-7],[40,-38],[23,-5],[22,-72],[33,-34],[100,-39],[46,-5],[27,-34],[33,-12],[48,-109],[64,-74]],[[6846,19617],[8,422],[-280,61],[-71,108],[11,47],[-106,32],[-16,-25],[-45,13],[-12,42],[-108,80],[-18,23],[0,136],[-462,0],[-22,4],[-62,55],[-18,4],[-102,-21],[-1,165],[-171,2],[-63,-65]],[[7729,21211],[-50,-3],[6,35],[44,-32]],[[6168,21343],[33,-10],[92,-78],[58,-37],[-23,-33],[-88,-14],[-64,41],[-68,19],[23,72],[-13,32],[50,8]],[[5591,21591],[40,-4],[32,-42],[-32,-26],[-65,58],[25,14]],[[7503,21591],[25,-28],[-32,-51],[-70,-28],[-22,22],[-36,82],[9,26],[55,36],[71,-59]],[[5358,20041],[2,-209],[175,-252],[192,-1]]],"transform":{"scale":[0.0004367609289246138,0.0003906596098593682],"translate":[140.84389404,-11.64823298999994]},"objects":{"PNG":{"type":"GeometryCollection","geometries":[{"arcs":[[[0]],[[1,2,3,4]]],"type":"MultiPolygon","properties":{"name":"Abau District","shapeGroup":"PNG","gid":"PNG-2-0"},"id":"PNG-2-0"},{"arcs":[[5,6,7,8,9,10,11]],"type":"Polygon","properties":{"name":"Aitape/Lumi District","shapeGroup":"PNG","gid":"PNG-2-1"},"id":"PNG-2-1"},{"arcs":[[[12]],[[13]],[[14]],[[-2,15,16,17,18]]],"type":"MultiPolygon","properties":{"name":"Alotau District","shapeGroup":"PNG","gid":"PNG-2-2"},"id":"PNG-2-2"},{"arcs":[[[19,20,21,22,23,24,25,26]],[[-8,27,28,29]]],"type":"MultiPolygon","properties":{"name":"Ambunti/Drekikier District","shapeGroup":"PNG","gid":"PNG-2-3"},"id":"PNG-2-3"},{"arcs":[[30,31,32,33,34,35,36,37]],"type":"Polygon","properties":{"name":"Anglimp/South Waghi District","shapeGroup":"PNG","gid":"PNG-2-4"},"id":"PNG-2-4"},{"arcs":[[[38]],[[39]],[[40]],[[-21,41,42,43,44,45,46,47,48,49]]],"type":"MultiPolygon","properties":{"name":"Angoram District","shapeGroup":"PNG","gid":"PNG-2-5"},"id":"PNG-2-5"},{"arcs":[[[50]],[[-46,51,52,53]]],"type":"MultiPolygon","properties":{"name":"Bogia District","shapeGroup":"PNG","gid":"PNG-2-6"},"id":"PNG-2-6"},{"arcs":[[54,55,56,57,58]],"type":"Polygon","properties":{"name":"Bulolo District","shapeGroup":"PNG","gid":"PNG-2-7"},"id":"PNG-2-7"},{"arcs":[[[59]],[[60,61,62,63]]],"type":"MultiPolygon","properties":{"name":"Central Bougainville District","shapeGroup":"PNG","gid":"PNG-2-8"},"id":"PNG-2-8"},{"arcs":[[64,65,66,67,68,69]],"type":"Polygon","properties":{"name":"Chuave District","shapeGroup":"PNG","gid":"PNG-2-9"},"id":"PNG-2-9"},{"arcs":[[-69,70,71,72,73]],"type":"Polygon","properties":{"name":"Daulo District","shapeGroup":"PNG","gid":"PNG-2-10"},"id":"PNG-2-10"},{"arcs":[[-38,74,75,76,77]],"type":"Polygon","properties":{"name":"Dei District","shapeGroup":"PNG","gid":"PNG-2-11"},"id":"PNG-2-11"},{"arcs":[[[78]],[[79]],[[80]],[[81]],[[82]],[[83]]],"type":"MultiPolygon","properties":{"name":"Esa'ala District","shapeGroup":"PNG","gid":"PNG-2-12"},"id":"PNG-2-12"},{"arcs":[[84,85,86,87]],"type":"Polygon","properties":{"name":"Finschafen District","shapeGroup":"PNG","gid":"PNG-2-13"},"id":"PNG-2-13"},{"arcs":[[88,89,90,91,92,93]],"type":"Polygon","properties":{"name":"Gazelle District","shapeGroup":"PNG","gid":"PNG-2-14"},"id":"PNG-2-14"},{"arcs":[[-56,94,95,96]],"type":"Polygon","properties":{"name":"Goilala District","shapeGroup":"PNG","gid":"PNG-2-15"},"id":"PNG-2-15"},{"arcs":[[-73,97,98]],"type":"Polygon","properties":{"name":"Goroka District","shapeGroup":"PNG","gid":"PNG-2-16"},"id":"PNG-2-16"},{"arcs":[[-33,99,100,101,102]],"type":"Polygon","properties":{"name":"Gumine District","shapeGroup":"PNG","gid":"PNG-2-17"},"id":"PNG-2-17"},{"arcs":[[103,104,105,106,107]],"type":"Polygon","properties":{"name":"Henganofi District","shapeGroup":"PNG","gid":"PNG-2-18"},"id":"PNG-2-18"},{"arcs":[[[108]],[[-59,109,110,111,112,113,114]]],"type":"MultiPolygon","properties":{"name":"Huon District","shapeGroup":"PNG","gid":"PNG-2-19"},"id":"PNG-2-19"},{"arcs":[[-35,115,116,117,118]],"type":"Polygon","properties":{"name":"Ialibu/Pangia District","shapeGroup":"PNG","gid":"PNG-2-20"},"id":"PNG-2-20"},{"arcs":[[-5,119,120,121,-16]],"type":"Polygon","properties":{"name":"Ijivitari District","shapeGroup":"PNG","gid":"PNG-2-21"},"id":"PNG-2-21"},{"arcs":[[-118,122,123,124,125]],"type":"Polygon","properties":{"name":"Imbonggu District","shapeGroup":"PNG","gid":"PNG-2-22"},"id":"PNG-2-22"},{"arcs":[[-77,126,127,128,129,130,131]],"type":"Polygon","properties":{"name":"Jimi District","shapeGroup":"PNG","gid":"PNG-2-23"},"id":"PNG-2-23"},{"arcs":[[-87,132,133,134,135]],"type":"Polygon","properties":{"name":"Kabwum District","shapeGroup":"PNG","gid":"PNG-2-24"},"id":"PNG-2-24"},{"arcs":[[-117,136,137,138,-123]],"type":"Polygon","properties":{"name":"Kagua/Erave District","shapeGroup":"PNG","gid":"PNG-2-25"},"id":"PNG-2-25"},{"arcs":[[-108,139,140,141,142]],"type":"Polygon","properties":{"name":"Kainanatu District","shapeGroup":"PNG","gid":"PNG-2-26"},"id":"PNG-2-26"},{"arcs":[[[143]],[[-96,144,145,146,147,148,149]]],"type":"MultiPolygon","properties":{"name":"Kairuku - Hiri District","shapeGroup":"PNG","gid":"PNG-2-27"},"id":"PNG-2-27"},{"arcs":[[150,151,152,153,154,155]],"type":"Polygon","properties":{"name":"Kandep District","shapeGroup":"PNG","gid":"PNG-2-28"},"id":"PNG-2-28"},{"arcs":[[156,157,158]],"type":"Polygon","properties":{"name":"Kandrian/Gloucester District","shapeGroup":"PNG","gid":"PNG-2-29"},"id":"PNG-2-29"},{"arcs":[[-34,-103,159,-66,160,161,162,-137,-116]],"type":"Polygon","properties":{"name":"Karimui/Nomane District","shapeGroup":"PNG","gid":"PNG-2-30"},"id":"PNG-2-30"},{"arcs":[[[163]],[[164]],[[165]],[[166]],[[167]],[[168]],[[169]],[[170,171]],[[172]],[[173]],[[174]],[[175]],[[176]],[[177]]],"type":"MultiPolygon","properties":{"name":"Kavieng District","shapeGroup":"PNG","gid":"PNG-2-31"},"id":"PNG-2-31"},{"arcs":[[-57,-97,-150,178,179,180,181]],"type":"Polygon","properties":{"name":"Kerema District","shapeGroup":"PNG","gid":"PNG-2-32"},"id":"PNG-2-32"},{"arcs":[[-32,182,-131,183,-100]],"type":"Polygon","properties":{"name":"Kerowagi District","shapeGroup":"PNG","gid":"PNG-2-33"},"id":"PNG-2-33"},{"arcs":[[[184]],[[185]],[[186]],[[187]],[[188]],[[189]],[[190]],[[191]],[[192]],[[193]],[[194]],[[195]],[[196]],[[197]],[[198]],[[199]],[[200]],[[201]],[[202]],[[203]],[[204]],[[205]],[[206]],[[207]],[[208]],[[209]],[[210]],[[211]],[[212]],[[213]],[[214]],[[215]],[[216]],[[217]],[[218]],[[219]],[[220]],[[221]],[[222]],[[223]],[[224]],[[225]],[[226]],[[227]],[[228]],[[229]],[[230]],[[231]],[[232]],[[233]],[[234]],[[235]],[[236]],[[-138,-163,237,238,-180,239,240,241]]],"type":"MultiPolygon","properties":{"name":"Kikori District","shapeGroup":"PNG","gid":"PNG-2-34"},"id":"PNG-2-34"},{"arcs":[[[242]],[[243]],[[244]],[[245]],[[246]]],"type":"MultiPolygon","properties":{"name":"Kiriwina-Goodenough District","shapeGroup":"PNG","gid":"PNG-2-35"},"id":"PNG-2-35"},{"arcs":[[[-91,247,248]],[[249]],[[250]]],"type":"MultiPolygon","properties":{"name":"Kokopo District","shapeGroup":"PNG","gid":"PNG-2-36"},"id":"PNG-2-36"},{"arcs":[[-154,251,252,253,254,255]],"type":"Polygon","properties":{"name":"Komo/Magarima District","shapeGroup":"PNG","gid":"PNG-2-37"},"id":"PNG-2-37"},{"arcs":[[-48,256,257,258,259,260,261]],"type":"Polygon","properties":{"name":"Kompiam District","shapeGroup":"PNG","gid":"PNG-2-38"},"id":"PNG-2-38"},{"arcs":[[-23,262,263,-255,264,265,266]],"type":"Polygon","properties":{"name":"Koroba/Kopiago District","shapeGroup":"PNG","gid":"PNG-2-39"},"id":"PNG-2-39"},{"arcs":[[-68,267,-101,-184,-130,268,-71]],"type":"Polygon","properties":{"name":"Kundiawa/Gembogl District","shapeGroup":"PNG","gid":"PNG-2-40"},"id":"PNG-2-40"},{"arcs":[[-113,269,270]],"type":"Polygon","properties":{"name":"Lae District","shapeGroup":"PNG","gid":"PNG-2-41"},"id":"PNG-2-41"},{"arcs":[[-22,-50,271,-261,272,273,-156,274,-263]],"type":"Polygon","properties":{"name":"Lagaip/Pogera District","shapeGroup":"PNG","gid":"PNG-2-42"},"id":"PNG-2-42"},{"arcs":[[-65,275,-105,276,-161]],"type":"Polygon","properties":{"name":"Lufa District","shapeGroup":"PNG","gid":"PNG-2-43"},"id":"PNG-2-43"},{"arcs":[[277,278,279,280,281]],"type":"Polygon","properties":{"name":"Madang District","shapeGroup":"PNG","gid":"PNG-2-44"},"id":"PNG-2-44"},{"arcs":[[[282]],[[283]],[[284]],[[285]],[[286]],[[287]],[[288]],[[289]],[[290]],[[291]]],"type":"MultiPolygon","properties":{"name":"Manus District","shapeGroup":"PNG","gid":"PNG-2-45"},"id":"PNG-2-45"},{"arcs":[[-7,292,293,294,-28]],"type":"Polygon","properties":{"name":"Maprik District","shapeGroup":"PNG","gid":"PNG-2-46"},"id":"PNG-2-46"},{"arcs":[[-111,295,296,-141,297,298,-134,299]],"type":"Polygon","properties":{"name":"Markham District","shapeGroup":"PNG","gid":"PNG-2-47"},"id":"PNG-2-47"},{"arcs":[[-125,300,-252,-153,301]],"type":"Polygon","properties":{"name":"Mendi/Munihu District","shapeGroup":"PNG","gid":"PNG-2-48"},"id":"PNG-2-48"},{"arcs":[[-58,-182,302,-296,-110]],"type":"Polygon","properties":{"name":"Menyamya District","shapeGroup":"PNG","gid":"PNG-2-49"},"id":"PNG-2-49"},{"arcs":[[[303]],[[304,305]],[[306,307]],[[308]],[[309]],[[310]],[[-241,311,312,313,314,315,316,317,318,319,320,321,322,-265,-254,323]]],"type":"MultiPolygon","properties":{"name":"Middle Fly District","shapeGroup":"PNG","gid":"PNG-2-50"},"id":"PNG-2-50"},{"arcs":[[-47,-54,324,-281,325,-128,326,-257]],"type":"Polygon","properties":{"name":"Middle Ramu District","shapeGroup":"PNG","gid":"PNG-2-51"},"id":"PNG-2-51"},{"arcs":[[-37,327,328,-75]],"type":"Polygon","properties":{"name":"Mt Hagen District","shapeGroup":"PNG","gid":"PNG-2-52"},"id":"PNG-2-52"},{"arcs":[[-76,-329,329,330,-258,-327,-127]],"type":"Polygon","properties":{"name":"Mul/Baiyer District","shapeGroup":"PNG","gid":"PNG-2-53"},"id":"PNG-2-53"},{"arcs":[[[331]],[[332]],[[333]],[[334]],[[335]],[[-171,336]],[[337]],[[338]],[[339]],[[340]],[[341]]],"type":"MultiPolygon","properties":{"name":"Namatanai District","shapeGroup":"PNG","gid":"PNG-2-54"},"id":"PNG-2-54"},{"arcs":[[-148,342]],"type":"Polygon","properties":{"name":"National Capital District","shapeGroup":"PNG","gid":"PNG-2-55"},"id":"PNG-2-55"},{"arcs":[[-86,343,-270,-112,-300,-133]],"type":"Polygon","properties":{"name":"Nawae District","shapeGroup":"PNG","gid":"PNG-2-56"},"id":"PNG-2-56"},{"arcs":[[-124,-139,-242,-324,-253,-301]],"type":"Polygon","properties":{"name":"Nipa/Kutubu District","shapeGroup":"PNG","gid":"PNG-2-57"},"id":"PNG-2-57"},{"arcs":[[[344]],[[-63,345,346]],[[347]],[[348]],[[349]]],"type":"MultiPolygon","properties":{"name":"North Bougainville District","shapeGroup":"PNG","gid":"PNG-2-58"},"id":"PNG-2-58"},{"arcs":[[-266,-323,350,351]],"type":"Polygon","properties":{"name":"North Fly District","shapeGroup":"PNG","gid":"PNG-2-59"},"id":"PNG-2-59"},{"arcs":[[-31,-78,-132,-183]],"type":"Polygon","properties":{"name":"North Waghi District","shapeGroup":"PNG","gid":"PNG-2-60"},"id":"PNG-2-60"},{"arcs":[[-9,-30,352,-27,353]],"type":"Polygon","properties":{"name":"Nuku District","shapeGroup":"PNG","gid":"PNG-2-61"},"id":"PNG-2-61"},{"arcs":[[-142,-297,-303,-181,-239,354]],"type":"Polygon","properties":{"name":"Obura/Wonenara District","shapeGroup":"PNG","gid":"PNG-2-62"},"id":"PNG-2-62"},{"arcs":[[-104,-143,-355,-238,-162,-277]],"type":"Polygon","properties":{"name":"Okapa District","shapeGroup":"PNG","gid":"PNG-2-63"},"id":"PNG-2-63"},{"arcs":[[-92,-249,355,-158,356]],"type":"Polygon","properties":{"name":"Pomio District","shapeGroup":"PNG","gid":"PNG-2-64"},"id":"PNG-2-64"},{"arcs":[[[-89,357]],[[358]]],"type":"MultiPolygon","properties":{"name":"Rabaul District","shapeGroup":"PNG","gid":"PNG-2-65"},"id":"PNG-2-65"},{"arcs":[[[-135,-299,359,-279,360,361]],[[362]],[[363]]],"type":"MultiPolygon","properties":{"name":"Rai Coast District","shapeGroup":"PNG","gid":"PNG-2-66"},"id":"PNG-2-66"},{"arcs":[[-4,364,-146,365,-120]],"type":"Polygon","properties":{"name":"Rigo District","shapeGroup":"PNG","gid":"PNG-2-67"},"id":"PNG-2-67"},{"arcs":[[[366]],[[367]],[[368]],[[369]],[[370]],[[371]],[[372]],[[373]],[[374]],[[375]],[[376]],[[377]],[[378]],[[379]],[[380]],[[381]],[[382]],[[383]],[[-18,384]],[[385]],[[386]],[[387]],[[388]]],"type":"MultiPolygon","properties":{"name":"Samarai-Murua District","shapeGroup":"PNG","gid":"PNG-2-68"},"id":"PNG-2-68"},{"arcs":[[-67,-160,-102,-268]],"type":"Polygon","properties":{"name":"Sina Sina Yonggomugl District","shapeGroup":"PNG","gid":"PNG-2-69"},"id":"PNG-2-69"},{"arcs":[[-55,-115,389,-121,-366,-145,-95]],"type":"Polygon","properties":{"name":"Sohe District","shapeGroup":"PNG","gid":"PNG-2-70"},"id":"PNG-2-70"},{"arcs":[[-62,390,-346]],"type":"Polygon","properties":{"name":"South Bougainville District","shapeGroup":"PNG","gid":"PNG-2-71"},"id":"PNG-2-71"},{"arcs":[[[391]],[[392]],[[393]],[[394]],[[395]],[[396]],[[397]],[[398]],[[399]],[[400]],[[401]],[[402]],[[403]],[[404]],[[405]],[[406]],[[407]],[[408]],[[409]],[[410]],[[411]],[[412]],[[413]],[[414]],[[415]],[[-319,416]],[[-317,417]],[[-315,418]],[[419]],[[-313,420]],[[421]],[[-305,422,-321,423,-307,424]]],"type":"MultiPolygon","properties":{"name":"South Fly District","shapeGroup":"PNG","gid":"PNG-2-72"},"id":"PNG-2-72"},{"arcs":[[[425]],[[-53,426,-282,-325]],[[427]]],"type":"MultiPolygon","properties":{"name":"Sumkar District","shapeGroup":"PNG","gid":"PNG-2-73"},"id":"PNG-2-73"},{"arcs":[[[428]],[[-93,-357,-157,429]],[[430]],[[431]],[[432]],[[433]]],"type":"MultiPolygon","properties":{"name":"Talasea District","shapeGroup":"PNG","gid":"PNG-2-74"},"id":"PNG-2-74"},{"arcs":[[-36,-119,-126,-302,-152,434,-330,-328]],"type":"Polygon","properties":{"name":"Tambul/Nebilyer District","shapeGroup":"PNG","gid":"PNG-2-75"},"id":"PNG-2-75"},{"arcs":[[-155,-256,-264,-275]],"type":"Polygon","properties":{"name":"Tari/Pori District","shapeGroup":"PNG","gid":"PNG-2-76"},"id":"PNG-2-76"},{"arcs":[[[-88,-136,-362,435]],[[436]],[[437]],[[438]]],"type":"MultiPolygon","properties":{"name":"Tawae/Siassi District","shapeGroup":"PNG","gid":"PNG-2-77"},"id":"PNG-2-77"},{"arcs":[[[-24,-267,-352,439,440]],[[-10,-354,-26,441]]],"type":"MultiPolygon","properties":{"name":"Telefomin District","shapeGroup":"PNG","gid":"PNG-2-78"},"id":"PNG-2-78"},{"arcs":[[-70,-74,-99,442,-106,-276]],"type":"Polygon","properties":{"name":"Unggai/Benna District","shapeGroup":"PNG","gid":"PNG-2-79"},"id":"PNG-2-79"},{"arcs":[[-72,-269,-129,-326,-280,-360,-298,-140,-107,-443,-98]],"type":"Polygon","properties":{"name":"Usino Bundi District","shapeGroup":"PNG","gid":"PNG-2-80"},"id":"PNG-2-80"},{"arcs":[[-11,-442,-25,-441,443]],"type":"Polygon","properties":{"name":"Vanimo/Green River District","shapeGroup":"PNG","gid":"PNG-2-81"},"id":"PNG-2-81"},{"arcs":[[[-260,444,-273]],[[-49,-262,-272]]],"type":"MultiPolygon","properties":{"name":"Wabag District","shapeGroup":"PNG","gid":"PNG-2-82"},"id":"PNG-2-82"},{"arcs":[[-151,-274,-445,-259,-331,-435]],"type":"Polygon","properties":{"name":"Wapenamanda District","shapeGroup":"PNG","gid":"PNG-2-83"},"id":"PNG-2-83"},{"arcs":[[[445]],[[446]],[[447]],[[-6,448,-44,449,-293]],[[450]],[[451]],[[452]],[[453]]],"type":"MultiPolygon","properties":{"name":"Wewak District","shapeGroup":"PNG","gid":"PNG-2-84"},"id":"PNG-2-84"},{"arcs":[[-20,-353,-29,-295,454,-42]],"type":"Polygon","properties":{"name":"Wosera Gawi District","shapeGroup":"PNG","gid":"PNG-2-85"},"id":"PNG-2-85"},{"arcs":[[-43,-455,-294,-450]],"type":"Polygon","properties":{"name":"Yangoru Saussia District","shapeGroup":"PNG","gid":"PNG-2-86"},"id":"PNG-2-86"}]}}}