{"type":"Topology","arcs":[[[19034,5016],[65,2]],[[19099,5018],[57,-34],[7,-51]],[[19163,4933],[-45,4],[-64,-34],[-26,-54],[-52,34],[55,88],[3,45]],[[19099,5018],[81,92]],[[19180,5110],[54,-15]],[[19234,5095],[49,-87]],[[19283,5008],[-23,-49],[-97,-26]],[[19234,5095],[45,62],[97,-31]],[[19376,5126],[31,-66]],[[19407,5060],[-39,-60]],[[19368,5000],[-85,8]],[[19407,5060],[94,-23],[-2,-53]],[[19499,4984],[-61,-26],[-70,42]],[[19034,5016],[112,334],[23,4]],[[19169,5354],[25,-39],[57,-5]],[[19251,5310],[-42,-44],[-35,-86],[6,-70]],[[19251,5310],[79,19],[124,-55]],[[19454,5274],[-5,-87],[-73,-61]],[[19454,5274],[34,70]],[[19488,5344],[101,-13]],[[19589,5331],[-11,-41],[71,-29],[20,-60]],[[19669,5201],[-47,-61]],[[19622,5140],[-10,-96],[-90,-75]],[[19522,4969],[-23,15]],[[19622,5140],[74,-51],[-6,-93]],[[19690,4996],[-82,-30],[-18,-29],[-68,32]],[[19669,5201],[-3,41],[98,-22],[61,46],[8,55],[79,4]],[[19912,5325],[4,-20]],[[19916,5305],[-22,-79],[22,-57]],[[19916,5169],[-56,-70],[13,-64]],[[19873,5035],[-49,-44],[15,-83]],[[19839,4908],[-51,5],[-91,51],[-7,32]],[[19873,5035],[36,-47],[45,9]],[[19954,4997],[-24,-71]],[[19930,4926],[-22,-73],[-51,1],[-18,54]],[[19954,4997],[31,7]],[[19985,5004],[78,-54]],[[20063,4950],[-8,-32],[-123,-36],[-2,44]],[[19916,5169],[92,-14],[-33,-71],[10,-80]],[[19916,5305],[122,-20],[21,-75],[74,-49],[37,18]],[[20170,5179],[28,-15]],[[20198,5164],[4,-130]],[[20202,5034],[-77,-66],[-62,-18]],[[20198,5164],[40,-12],[18,-74],[75,4]],[[20331,5082],[-129,-48]],[[20170,5179],[-8,87],[80,46],[86,-41]],[[20328,5271],[3,-189]],[[19912,5325],[4,35]],[[19916,5360],[75,17],[72,43],[102,10],[54,30]],[[20219,5460],[51,-3],[35,-58],[23,-128]],[[19589,5331],[56,55],[-50,118],[108,38]],[[19703,5542],[113,16],[14,-60],[65,31]],[[19895,5529],[21,-169]],[[19895,5529],[40,172],[-53,78]],[[19882,5779],[92,31],[136,-20]],[[20110,5790],[9,-105],[50,35],[109,-7]],[[20278,5713],[33,-30],[-15,-81],[-77,-142]],[[19703,5542],[-29,100],[-59,46],[33,52]],[[19648,5740],[37,36],[125,2]],[[19810,5778],[72,1]],[[19488,5344],[13,151],[36,60],[-21,76],[-87,30],[41,54],[7,107]],[[19477,5822],[39,9]],[[19516,5831],[29,-73],[105,16],[-2,-34]],[[19169,5354],[-30,72],[28,32],[-45,87],[31,56],[-29,132],[22,34]],[[19146,5767],[59,-13]],[[19205,5754],[42,-39],[68,-4],[34,51],[-4,51],[132,9]],[[20110,5790],[1,301]],[[20111,6091],[99,49]],[[20210,6140],[34,-53],[96,-39],[27,-49],[55,-14],[28,-71]],[[20450,5914],[-35,-124],[-137,-77]],[[19810,5778],[-59,100],[21,120]],[[19772,5998],[55,122]],[[19827,6120],[35,-3],[97,39]],[[19959,6156],[4,-51],[148,-14]],[[19516,5831],[58,63],[-21,93]],[[19553,5987],[71,-23],[148,34]],[[19205,5754],[24,151],[-100,95]],[[19129,6000],[-14,46],[27,61]],[[19142,6107],[78,-2],[31,24],[55,-56],[125,-52],[37,43]],[[19468,6064],[85,-77]],[[19146,5767],[-7,150],[-76,16],[66,67]],[[19468,6064],[51,34],[-1,47],[85,78]],[[19603,6223],[101,2]],[[19704,6225],[20,-62],[98,21]],[[19822,6184],[5,-64]],[[20210,6140],[46,65]],[[20256,6205],[29,41]],[[20285,6246],[46,64]],[[20331,6310],[89,33],[69,-94],[31,-89]],[[20520,6160],[23,-75],[100,-16],[38,16]],[[20681,6085],[-4,-93],[-203,-33],[-24,-45]],[[20520,6160],[221,59],[-16,-110],[-44,-24]],[[20331,6310],[-39,20],[67,108],[9,45]],[[20368,6483],[38,0]],[[20406,6483],[113,-164],[44,-38],[50,-96],[-93,-25]],[[19959,6156],[-46,73],[33,63]],[[19946,6292],[310,-87]],[[19822,6184],[51,157]],[[19873,6341],[73,-49]],[[19142,6107],[16,162],[-22,111],[-35,87],[-63,81]],[[19038,6548],[109,-100]],[[19147,6448],[25,-110],[25,-26],[210,-44],[39,-30],[157,-15]],[[19147,6448],[83,21],[-33,70],[33,56]],[[19230,6595],[23,7]],[[19253,6602],[67,5]],[[19320,6607],[38,-27],[48,29],[69,3],[54,-70],[2,-55]],[[19531,6487],[7,-69],[136,-61]],[[19674,6357],[38,-95],[-8,-37]],[[19873,6341],[12,69]],[[19885,6410],[56,-27],[19,54],[108,39],[49,-46]],[[20117,6430],[53,-27],[25,-72],[90,-85]],[[20117,6430],[68,103]],[[20185,6533],[54,49]],[[20239,6582],[56,-43],[65,-2],[8,-54]],[[19885,6410],[-29,60],[-78,-45],[-51,44],[-25,64]],[[19702,6533],[37,66],[-68,48],[1,61],[99,-34],[-4,67]],[[19767,6741],[87,24],[53,-54],[29,36],[5,78],[29,14]],[[19970,6839],[76,-64]],[[20046,6775],[45,-78],[-23,-34],[68,-126],[49,-4]],[[20046,6775],[17,27],[118,24]],[[20181,6826],[41,-28]],[[20222,6798],[0,-37]],[[20222,6761],[5,-86],[-46,-57],[58,-36]],[[20222,6761],[45,25],[85,4],[87,60]],[[20439,6850],[26,-9]],[[20465,6841],[-30,-52],[-31,-200],[-29,-29],[31,-77]],[[20222,6798],[104,109]],[[20326,6907],[30,-15],[89,61],[35,-61],[-41,-42]],[[19320,6607],[22,108],[122,15],[17,65],[-108,64]],[[19373,6859],[-24,16]],[[19349,6875],[129,97],[69,-5],[85,-47]],[[19632,6920],[135,-179]],[[19702,6533],[-117,5],[-54,-51]],[[19253,6602],[19,115]],[[19272,6717],[104,83],[-3,59]],[[19230,6595],[-56,-3]],[[19174,6592],[-96,38],[-77,-44],[-47,35]],[[18954,6621],[11,55]],[[18965,6676],[40,43]],[[19005,6719],[21,22]],[[19026,6741],[37,-4],[51,47],[7,44]],[[19121,6828],[63,4]],[[19184,6832],[-21,-54],[109,-61]],[[19184,6832],[11,111],[74,-13]],[[19269,6930],[80,-55]],[[19174,6592],[-35,-74],[-101,30]],[[19038,6548],[-78,-54]],[[18960,6494],[-42,83],[36,44]],[[18960,6494],[-37,-25],[-114,1],[1,133]],[[18810,6603],[45,10]],[[18855,6613],[48,4]],[[18903,6617],[51,4]],[[18810,6603],[-72,79],[15,30],[79,-8]],[[18832,6704],[-15,-66],[38,-25]],[[18832,6704],[50,12]],[[18882,6716],[35,-44],[-14,-55]],[[18882,6716],[36,19]],[[18918,6735],[47,-59]],[[18918,6735],[8,69]],[[18926,6804],[79,-85]],[[18926,6804],[85,-8]],[[19011,6796],[15,-55]],[[19011,6796],[-62,6],[24,64],[43,4]],[[19016,6870],[105,-42]],[[19016,6870],[-2,61]],[[19014,6931],[-2,60],[39,40],[26,123]],[[19077,7154],[5,22]],[[19082,7176],[107,-54],[12,-39]],[[19201,7083],[45,-48],[-8,-55],[31,-50]],[[19201,7083],[109,69],[-2,108]],[[19308,7260],[127,-5]],[[19435,7255],[84,-10]],[[19519,7245],[58,-60],[21,-68]],[[19598,7117],[-17,-115],[72,-15],[0,-44]],[[19653,6943],[-21,-23]],[[19014,6931],[-78,84],[-34,-73]],[[18902,6942],[-48,3],[4,61],[34,24]],[[18892,7030],[52,119]],[[18944,7149],[72,12]],[[19016,7161],[61,-7]],[[18902,6942],[-14,-57]],[[18888,6885],[-55,-10]],[[18833,6875],[-67,23]],[[18766,6898],[-4,71]],[[18762,6969],[57,44]],[[18819,7013],[73,17]],[[18888,6885],[-15,-84],[-90,-40]],[[18783,6761],[3,51]],[[18786,6812],[18,26]],[[18804,6838],[29,37]],[[18804,6838],[-38,60]],[[18786,6812],[-37,1]],[[18749,6813],[17,85]],[[18783,6761],[-93,-11]],[[18690,6750],[19,64]],[[18709,6814],[40,-1]],[[18690,6750],[-113,3],[-23,76]],[[18554,6829],[46,12],[109,-27]],[[18554,6829],[26,117],[32,71]],[[18612,7017],[79,-73],[71,25]],[[18612,7017],[-22,73],[29,69]],[[18619,7159],[33,2],[29,-78],[46,43],[44,-7]],[[18771,7119],[43,-63]],[[18814,7056],[5,-43]],[[18814,7056],[56,52],[7,54]],[[18877,7162],[67,-13]],[[18771,7119],[88,36]],[[18859,7155],[18,7]],[[19653,6943],[169,16],[18,52],[65,24]],[[19905,7035],[93,-40]],[[19998,6995],[75,-30],[7,-45],[-110,-81]],[[19998,6995],[31,41],[152,33],[29,40]],[[20210,7109],[44,-59]],[[20254,7050],[0,-104],[-63,-74],[-10,-46]],[[20254,7050],[37,-78]],[[20291,6972],[35,-65]],[[20291,6972],[55,36],[4,72],[42,76]],[[20392,7156],[53,12],[100,-65]],[[20545,7103],[80,-102]],[[20625,7001],[-12,-70],[-148,-90]],[[20545,7103],[42,125]],[[20587,7228],[62,11],[30,-28],[2,-126],[-56,-84]],[[20392,7156],[-74,130]],[[20318,7286],[24,33],[83,30]],[[20425,7349],[51,0],[111,-121]],[[19905,7035],[-21,82]],[[19884,7117],[34,35],[51,-34],[72,32]],[[20041,7150],[144,-35]],[[20185,7115],[25,-6]],[[19884,7117],[-73,-39],[-30,63],[-96,20]],[[19685,7161],[49,93],[91,20],[13,56],[88,59]],[[19926,7389],[60,-109]],[[19986,7280],[42,-63],[13,-67]],[[20318,7286],[-110,57]],[[20208,7343],[-7,69],[26,54],[-40,76]],[[20187,7542],[45,21],[53,-24]],[[20285,7539],[31,-77],[76,32]],[[20392,7494],[52,-60],[-19,-85]],[[20285,7539],[29,123]],[[20314,7662],[79,-8],[-1,-160]],[[19926,7389],[-23,47],[23,47]],[[19926,7483],[39,15],[188,-145],[50,-8]],[[20203,7345],[-46,-62]],[[20157,7283],[-171,-3]],[[20208,7343],[-5,2]],[[19926,7483],[-19,31]],[[19907,7514],[64,17],[36,39]],[[20007,7570],[51,56],[49,0],[17,-57]],[[20124,7569],[63,-27]],[[20124,7569],[21,21],[29,142],[66,1],[16,55]],[[20256,7788],[58,-126]],[[20007,7570],[-89,114]],[[19918,7684],[47,73]],[[19965,7757],[21,3],[94,94],[52,-19],[76,34]],[[20208,7869],[6,-54],[42,-27]],[[19907,7514],[-77,38]],[[19830,7552],[-42,119]],[[19788,7671],[34,97],[70,-13],[26,-71]],[[19598,7117],[87,44]],[[19519,7245],[-2,41],[122,105]],[[19639,7391],[21,48],[103,51],[12,58],[55,4]],[[18619,7159],[15,123],[71,-15]],[[18705,7267],[51,63],[42,0]],[[18798,7330],[39,-28]],[[18837,7302],[-9,-93],[31,-54]],[[18837,7302],[134,10]],[[18971,7312],[36,-49],[-23,-76],[32,-26]],[[18971,7312],[11,81]],[[18982,7393],[91,-11]],[[19073,7382],[26,-31]],[[19099,7351],[-70,-17],[0,-49],[96,-46]],[[19125,7239],[-43,-63]],[[18798,7330],[20,36]],[[18818,7366],[25,57],[54,38]],[[18897,7461],[67,-32]],[[18964,7429],[18,-36]],[[18705,7267],[-63,13],[11,144]],[[18653,7424],[66,25]],[[18719,7449],[68,0]],[[18787,7449],[31,-83]],[[19125,7239],[76,46]],[[19201,7285],[107,-25]],[[19099,7351],[101,-21]],[[19200,7330],[1,-45]],[[19200,7330],[54,71]],[[19254,7401],[71,-63],[53,35]],[[19378,7373],[42,-50],[15,-68]],[[19378,7373],[-49,104]],[[19329,7477],[80,62],[18,93]],[[19427,7632],[75,9]],[[19502,7641],[60,-151]],[[19562,7490],[77,-99]],[[19254,7401],[16,57],[59,19]],[[19502,7641],[15,58]],[[19517,7699],[57,-19],[-4,-96],[28,-23],[-36,-71]],[[19517,7699],[57,86],[20,62]],[[19594,7847],[50,-35]],[[19644,7812],[-20,-53],[50,-83],[42,60]],[[19716,7736],[72,-65]],[[19644,7812],[57,20],[27,-33]],[[19728,7799],[-12,-63]],[[19728,7799],[14,147]],[[19742,7946],[49,16]],[[19791,7962],[52,-25],[7,-65],[47,-10],[59,-88]],[[19956,7774],[9,-17]],[[19427,7632],[-6,25]],[[19421,7657],[-6,24]],[[19415,7681],[102,18]],[[19329,7477],[-8,88]],[[19321,7565],[49,63]],[[19370,7628],[51,29]],[[19370,7628],[45,53]],[[19073,7382],[60,44],[-11,74],[-75,78]],[[19047,7578],[9,68]],[[19056,7646],[83,15]],[[19139,7661],[36,-19],[-26,-79],[107,33]],[[19256,7596],[65,-31]],[[18964,7429],[-9,89],[56,54]],[[19011,7572],[36,6]],[[19139,7661],[49,33]],[[19188,7694],[56,37]],[[19244,7731],[24,-103],[-12,-32]],[[19244,7731],[97,98]],[[19341,7829],[44,-25],[30,-123]],[[19341,7829],[67,101]],[[19408,7930],[28,-50],[56,30],[102,-63]],[[19244,7731],[-15,101]],[[19229,7832],[43,24],[-48,121],[32,38]],[[19256,8015],[27,-45],[92,72]],[[19375,8042],[26,-88]],[[19401,7954],[7,-24]],[[19401,7954],[114,56]],[[19515,8010],[44,-17]],[[19559,7993],[35,-26]],[[19594,7967],[0,-120]],[[18787,7449],[110,12]],[[18653,7424],[2,75],[33,19]],[[18688,7518],[31,-69]],[[18688,7518],[53,42],[44,-1]],[[18785,7559],[64,-21],[48,-77]],[[18785,7559],[-28,37],[62,57]],[[18819,7653],[63,-39],[63,7],[3,-72],[63,23]],[[18819,7653],[52,12],[31,80],[60,3],[7,73],[-73,48]],[[18896,7869],[22,61]],[[18918,7930],[87,-34]],[[19005,7896],[16,-66]],[[19021,7830],[35,-90],[-25,-69],[25,-25]],[[18819,7653],[46,66],[31,150]],[[19021,7830],[38,-6]],[[19059,7824],[77,-11],[41,-34],[11,-85]],[[19059,7824],[19,70],[102,-20],[49,-42]],[[19005,7896],[56,56],[-68,155]],[[18993,8107],[-4,65]],[[18989,8172],[42,3],[105,-45],[46,-82],[74,-33]],[[18918,7930],[1,53],[74,124]],[[19375,8042],[4,35]],[[19379,8077],[92,2],[33,40]],[[19504,8119],[11,-109]],[[18989,8172],[58,83]],[[19047,8255],[58,-11],[48,30]],[[19153,8274],[69,-21],[93,21],[13,-78]],[[19328,8196],[51,-119]],[[19328,8196],[100,70]],[[19428,8266],[41,-87],[41,25]],[[19510,8204],[-6,-85]],[[19510,8204],[44,60]],[[19554,8264],[35,48]],[[19589,8312],[21,-11]],[[19610,8301],[-22,-107]],[[19588,8194],[-16,-67],[29,-38]],[[19601,8089],[-37,-18],[-5,-78]],[[19588,8194],[62,11],[27,58]],[[19677,8263],[32,-39]],[[19709,8224],[6,-35]],[[19715,8189],[-21,-16]],[[19694,8173],[-24,-57],[-69,-27]],[[19610,8301],[38,43]],[[19648,8344],[29,-81]],[[19594,7967],[75,12],[73,-33]],[[19791,7962],[69,75]],[[19860,8037],[35,-4],[44,57]],[[19939,8090],[44,-20],[31,-111]],[[20014,7959],[-44,-66],[-14,-119]],[[20014,7959],[60,34],[62,-39],[90,-3],[-18,-82]],[[19694,8173],[166,-81],[0,-55]],[[19715,8189],[157,78],[37,36],[54,-18]],[[19963,8285],[96,-22]],[[20059,8263],[-16,-101],[-40,-51],[-64,-21]],[[20059,8263],[38,60],[126,-5],[-4,-82],[86,17],[29,-32]],[[20334,8221],[41,-99],[-8,-61],[45,-57],[40,12],[35,-53],[-55,-84]],[[20432,7879],[-52,-28],[-172,18]],[[20334,8221],[17,67],[37,21]],[[20388,8309],[63,-16],[48,30],[62,-29],[131,42]],[[20692,8336],[64,-81],[-26,-176],[-75,-59],[-3,-100],[-27,-64],[-127,-8],[-66,31]],[[19963,8285],[96,98]],[[20059,8383],[72,19],[79,55],[37,-13],[72,50]],[[20319,8494],[56,33]],[[20375,8527],[43,-8]],[[20418,8519],[-30,-210]],[[20418,8519],[116,21],[134,-8],[30,-30]],[[20698,8502],[-49,-29],[-22,-93],[65,-44]],[[20319,8494],[11,131],[23,41]],[[20353,8666],[57,23]],[[20410,8689],[-1,-56],[-34,-106]],[[20059,8383],[-89,63]],[[19970,8446],[11,49]],[[19981,8495],[158,79]],[[20139,8574],[91,39],[26,44]],[[20256,8657],[97,9]],[[19709,8224],[58,50],[-27,81],[75,51]],[[19815,8406],[81,75],[74,-35]],[[19648,8344],[13,86],[-23,40]],[[19638,8470],[18,11]],[[19656,8481],[146,-35],[13,-40]],[[19589,8312],[-54,42],[11,86]],[[19546,8440],[92,30]],[[19428,8266],[29,57]],[[19457,8323],[39,-42],[58,-17]],[[19457,8323],[-5,34]],[[19452,8357],[53,93]],[[19505,8450],[41,-10]],[[19153,8274],[6,76]],[[19159,8350],[74,10],[8,40],[65,-3]],[[19306,8397],[-11,-63],[95,-67],[38,-1]],[[19306,8397],[16,28]],[[19322,8425],[57,-3],[16,-50],[57,-15]],[[19047,8255],[27,118],[-48,87],[36,94],[55,13]],[[19117,8567],[46,-16]],[[19163,8551],[32,-108],[-36,-93]],[[19163,8551],[63,22],[56,-28]],[[19282,8545],[24,-24],[16,-96]],[[19282,8545],[89,-27],[37,47]],[[19408,8565],[73,37]],[[19481,8602],[17,-110]],[[19498,8492],[7,-42]],[[19498,8492],[139,38]],[[19637,8530],[19,-49]],[[19637,8530],[65,50]],[[19702,8580],[64,-56],[43,54]],[[19809,8578],[67,-8],[24,-34],[58,1]],[[19958,8537],[23,-42]],[[19809,8578],[48,39],[14,50],[-34,48]],[[19837,8715],[39,38]],[[19876,8753],[68,51]],[[19944,8804],[-11,-75],[57,-145],[-32,-47]],[[19702,8580],[-8,52]],[[19694,8632],[53,33]],[[19747,8665],[90,50]],[[19481,8602],[27,25]],[[19508,8627],[71,-32],[65,30]],[[19644,8625],[50,7]],[[19117,8567],[-42,30],[34,68]],[[19109,8665],[80,-20],[61,78]],[[19250,8723],[13,41]],[[19263,8764],[37,-16]],[[19300,8748],[14,-68],[70,11]],[[19384,8691],[0,-78],[24,-48]],[[19109,8665],[22,137]],[[19131,8802],[78,-76],[41,-3]],[[20410,8689],[74,33],[45,-29],[62,39],[-9,76],[39,29]],[[20621,8837],[15,-68],[74,31],[73,-36]],[[20783,8764],[5,-47],[48,-107],[-88,-106],[-50,-2]],[[20621,8837],[11,48]],[[20632,8885],[31,139],[29,37]],[[20692,9061],[99,29]],[[20791,9090],[33,-70],[3,-104],[-25,-72],[43,-44],[-62,-36]],[[20256,8657],[7,86]],[[20263,8743],[-1,57]],[[20262,8800],[13,35],[80,29],[75,115]],[[20430,8979],[70,-20],[68,-60],[64,-14]],[[19944,8804],[67,27]],[[20011,8831],[14,6]],[[20025,8837],[104,-127]],[[20129,8710],[19,-38],[-9,-98]],[[20129,8710],[134,33]],[[20025,8837],[129,24],[16,31]],[[20170,8892],[18,-22]],[[20188,8870],[74,-70]],[[20188,8870],[52,21],[48,85],[-7,41]],[[20281,9017],[144,-5]],[[20425,9012],[5,-33]],[[20170,8892],[4,47]],[[20174,8939],[26,67]],[[20200,9006],[62,63]],[[20262,9069],[19,-52]],[[20425,9012],[55,76],[-28,30]],[[20452,9118],[20,1],[61,138]],[[20533,9257],[38,38]],[[20571,9295],[-14,-117],[20,-36],[115,-81]],[[20262,9069],[0,68]],[[20262,9137],[48,57],[-25,58]],[[20285,9252],[44,-22]],[[20329,9230],[26,-38],[105,-48],[-8,-26]],[[20200,9006],[-63,29]],[[20137,9035],[22,53],[-51,32],[22,55]],[[20130,9175],[53,35],[54,-22],[25,-51]],[[20571,9295],[88,17],[1,31]],[[20660,9343],[61,4]],[[20721,9347],[54,-68],[18,-73],[37,-15],[-39,-101]],[[20329,9230],[45,68],[-10,55]],[[20364,9353],[74,-11],[38,38],[33,-110],[24,-13]],[[20364,9353],[4,47]],[[20368,9400],[28,83]],[[20396,9483],[53,-2]],[[20449,9481],[46,-5],[43,39],[31,-102],[83,-41]],[[20652,9372],[8,-29]],[[19384,8691],[108,-13]],[[19492,8678],[16,-51]],[[19300,8748],[137,42]],[[19437,8790],[66,20]],[[19503,8810],[11,-68],[-22,-64]],[[19263,8764],[5,71]],[[19268,8835],[76,27]],[[19344,8862],[49,-58],[44,-14]],[[19131,8802],[24,46]],[[19155,8848],[47,-24],[7,33]],[[19209,8857],[54,4]],[[19263,8861],[5,-26]],[[19155,8848],[-18,14],[37,18],[7,-40],[-26,8]],[[19209,8857],[9,72]],[[19218,8929],[45,-68]],[[19344,8862],[18,43]],[[19362,8905],[30,85],[43,5]],[[19435,8995],[87,-43]],[[19522,8952],[56,-23]],[[19578,8929],[-41,-23],[14,-71]],[[19551,8835],[-48,-25]],[[19218,8929],[-20,93]],[[19198,9022],[52,9]],[[19250,9031],[70,-60],[42,-66]],[[19250,9031],[23,-4]],[[19273,9027],[82,-18],[13,81]],[[19368,9090],[53,4]],[[19421,9094],[28,-25],[-14,-74]],[[19273,9027],[-32,82]],[[19241,9109],[78,46]],[[19319,9155],[49,-65]],[[19198,9022],[16,104]],[[19214,9126],[27,-17]],[[19214,9126],[39,180]],[[19253,9306],[75,-98]],[[19328,9208],[-9,-53]],[[19328,9208],[50,0],[10,31]],[[19388,9239],[45,23]],[[19433,9262],[15,-14]],[[19448,9248],[-10,-115]],[[19438,9133],[-17,-39]],[[19328,9208],[60,31]],[[19438,9133],[54,-32],[73,-5]],[[19565,9096],[-55,-48],[38,-45],[-26,-51]],[[19448,9248],[149,-65]],[[19597,9183],[-32,-87]],[[19433,9262],[-14,47],[52,36]],[[19471,9345],[83,-45],[37,56]],[[19591,9356],[87,-21],[50,15]],[[19728,9350],[-39,-79]],[[19689,9271],[4,-85],[-96,-3]],[[19471,9345],[0,35]],[[19471,9380],[2,6]],[[19473,9386],[81,30]],[[19554,9416],[48,-2]],[[19602,9414],[-11,-58]],[[19253,9306],[59,43]],[[19312,9349],[83,53]],[[19395,9402],[76,-22]],[[19253,9306],[18,66]],[[19271,9372],[41,-23]],[[19551,8835],[100,-74]],[[19651,8761],[-7,-136]],[[19651,8761],[93,-1]],[[19744,8760],[3,-95]],[[19744,8760],[34,6],[52,71]],[[19830,8837],[24,0]],[[19854,8837],[22,-84]],[[19854,8837],[35,52]],[[19889,8889],[122,-58]],[[19889,8889],[67,61],[45,7]],[[20001,8957],[50,-31],[123,13]],[[19578,8929],[35,-64],[37,51]],[[19650,8916],[74,28]],[[19724,8944],[83,-58],[23,-49]],[[19578,8929],[72,-13]],[[19597,9183],[11,-112],[57,-9]],[[19665,9062],[-17,-48],[-65,-15],[-5,-70]],[[19665,9062],[63,-8],[27,31]],[[19755,9085],[35,-52],[-66,-89]],[[19755,9085],[95,24]],[[19850,9109],[86,22],[22,33]],[[19958,9164],[23,-65]],[[19981,9099],[9,-77]],[[19990,9022],[11,-65]],[[19990,9022],[147,13]],[[19981,9099],[57,-3],[24,85]],[[20062,9181],[41,10]],[[20103,9191],[27,-16]],[[19958,9164],[-57,79],[40,33],[70,11]],[[20011,9287],[54,-17],[-3,-89]],[[19689,9271],[137,-96],[24,-66]],[[19728,9350],[73,-36],[22,51]],[[19823,9365],[53,8]],[[19876,9373],[17,-16]],[[19893,9357],[118,-70]],[[20011,9287],[11,79],[64,8]],[[20086,9374],[17,20]],[[20103,9394],[85,-41]],[[20188,9353],[4,-12]],[[20192,9341],[-27,-84],[-62,-66]],[[20192,9341],[56,4]],[[20248,9345],[37,-93]],[[20248,9345],[60,82],[60,-27]],[[20188,9353],[19,79],[-34,107]],[[20173,9539],[38,20]],[[20211,9559],[67,27]],[[20278,9586],[54,-65],[64,-38]],[[20103,9394],[26,54],[-26,81]],[[20103,9529],[70,10]],[[19893,9357],[99,40],[4,30]],[[19996,9427],[90,-53]],[[19996,9427],[16,79]],[[20012,9506],[89,21]],[[20101,9527],[2,2]],[[19876,9373],[41,60],[0,65]],[[19917,9498],[35,15]],[[19952,9513],[60,-7]],[[19602,9414],[115,28]],[[19717,9442],[49,12]],[[19766,9454],[57,-89]],[[19766,9454],[73,37],[40,-4]],[[19879,9487],[38,11]],[[20278,9586],[77,102]],[[20355,9688],[28,31]],[[20383,9719],[34,-15]],[[20417,9704],[37,-89],[39,-39]],[[20493,9576],[-44,-95]],[[20493,9576],[78,11],[16,67]],[[20587,9654],[65,-62],[61,-7]],[[20713,9585],[94,-38]],[[20807,9547],[11,-42],[-80,-56],[-74,3],[-12,-80]],[[20807,9547],[47,40],[57,-30]],[[20911,9557],[-53,-77],[7,-65],[-58,-59],[-86,-9]],[[20713,9585],[95,89],[-36,93]],[[20772,9767],[86,8],[91,46]],[[20949,9821],[111,-20]],[[21060,9801],[93,-94]],[[21153,9707],[-3,-51],[-124,-84],[-43,20],[-72,-35]],[[21060,9801],[98,66],[37,174]],[[21195,10041],[68,-11],[91,-105],[-54,-98],[-147,-120]],[[20949,9821],[-14,104]],[[20935,9925],[34,123],[68,13]],[[21037,10061],[158,-20]],[[20417,9704],[82,57],[105,25]],[[20604,9786],[-17,-132]],[[20604,9786],[39,9]],[[20643,9795],[41,43],[68,-22],[20,-49]],[[20935,9925],[-55,-20],[-37,58],[-70,-7],[-51,25],[-3,66],[29,40]],[[20748,10087],[-37,52],[34,134],[-7,74]],[[20738,10347],[73,23],[46,41],[36,-69],[52,-3],[89,33],[1,-101],[42,-12],[-40,-198]],[[20643,9795],[-8,56],[-43,38],[31,40],[-62,84],[-25,98]],[[20536,10111],[89,-27],[123,3]],[[20536,10111],[-26,21]],[[20510,10132],[-26,64]],[[20484,10196],[3,92]],[[20487,10288],[27,127],[44,5],[90,-49],[52,30],[38,-54]],[[19271,9372],[-30,11],[8,113]],[[19249,9496],[65,2]],[[19314,9498],[81,-96]],[[19314,9498],[8,58]],[[19322,9556],[60,-28]],[[19382,9528],[20,-57],[56,-17]],[[19458,9454],[15,-68]],[[19249,9496],[-24,27]],[[19225,9523],[97,33]],[[19458,9454],[55,124],[38,20]],[[19551,9598],[83,14]],[[19634,9612],[-31,-33],[35,-58],[-82,-80],[-2,-25]],[[19634,9612],[9,3]],[[19643,9615],[105,-40]],[[19748,9575],[-53,-88],[22,-45]],[[19748,9575],[101,0],[30,34]],[[19879,9609],[20,5]],[[19899,9614],[-12,-53]],[[19887,9561],[-8,-74]],[[19643,9615],[-9,69]],[[19634,9684],[87,22]],[[19721,9706],[62,-12],[34,42]],[[19817,9736],[0,-55],[40,-20]],[[19857,9661],[22,-52]],[[19382,9528],[43,18],[-5,63]],[[19420,9609],[5,6]],[[19425,9615],[88,26]],[[19513,9641],[38,-43]],[[19634,9684],[-66,13],[16,47]],[[19584,9744],[18,37]],[[19602,9781],[17,16]],[[19619,9797],[58,-21]],[[19677,9776],[44,-70]],[[19513,9641],[17,89]],[[19530,9730],[54,14]],[[19225,9523],[-27,127]],[[19198,9650],[42,-27]],[[19240,9623],[76,-64]],[[19316,9559],[6,-3]],[[19198,9650],[-8,101]],[[19190,9751],[66,46]],[[19256,9797],[28,-61]],[[19284,9736],[-16,-44]],[[19268,9692],[-28,-69]],[[19190,9751],[-45,48],[1,63]],[[19146,9862],[55,9]],[[19201,9871],[54,-50]],[[19255,9821],[1,-24]],[[19425,9615],[38,85],[66,29]],[[19529,9729],[1,1]],[[19284,9736],[77,-8]],[[19361,9728],[-22,-86]],[[19339,9642],[-71,50]],[[19420,9609],[-73,28]],[[19347,9637],[-8,5]],[[19361,9728],[11,27],[94,3]],[[19466,9758],[52,0]],[[19518,9758],[11,-29]],[[19887,9561],[65,-48]],[[19899,9614],[52,-60],[83,10]],[[20034,9564],[48,-9]],[[20082,9555],[19,-28]],[[19899,9614],[113,8],[22,-58]],[[20211,9559],[-34,144],[-36,75]],[[20141,9778],[165,-33],[49,-57]],[[20082,9555],[49,161],[-42,83]],[[20089,9799],[43,-9]],[[20132,9790],[9,-12]],[[19857,9661],[115,68],[2,49]],[[19974,9778],[67,12]],[[20041,9790],[48,9]],[[20132,9790],[116,71],[8,24]],[[20256,9885],[48,31],[38,-91]],[[20342,9825],[41,-106]],[[20342,9825],[46,0],[68,112],[-18,101],[72,94]],[[20256,9885],[-50,48],[-7,63]],[[20199,9996],[84,31],[13,67],[61,-23],[16,75],[41,45],[70,5]],[[20199,9996],[-67,33]],[[20132,10029],[45,114],[-22,66]],[[20155,10209],[0,33]],[[20155,10242],[67,52],[57,-31],[110,-15],[98,40]],[[20041,9790],[-34,90],[42,107]],[[20049,9987],[83,42]],[[19817,9736],[6,86],[30,16]],[[19853,9838],[24,67]],[[19877,9905],[31,-66],[66,-61]],[[19877,9905],[112,60],[2,31]],[[19991,9996],[58,-9]],[[19991,9996],[-61,15]],[[19930,10011],[-53,32],[6,69],[71,26],[104,-10],[97,81]],[[19930,10011],[-47,-19],[-85,22]],[[19798,10014],[-4,91],[-68,31]],[[19726,10136],[26,87]],[[19752,10223],[54,38],[15,54],[99,-42],[77,48],[79,6],[60,-20],[19,-65]],[[19146,9862],[-9,156]],[[19137,10018],[52,-4]],[[19189,10014],[12,-143]],[[19255,9821],[76,-3],[25,51]],[[19356,9869],[79,-6]],[[19435,9863],[35,-34],[-4,-71]],[[19518,9758],[84,23]],[[19677,9776],[65,100]],[[19742,9876],[43,4],[68,-42]],[[19742,9876],[10,67]],[[19752,9943],[46,71]],[[19619,9797],[2,135]],[[19621,9932],[53,4]],[[19674,9936],[78,7]],[[19435,9863],[38,14],[10,61],[56,-3]],[[19539,9935],[82,-3]],[[19674,9936],[10,38],[-92,90]],[[19592,10064],[26,5]],[[19618,10069],[108,67]],[[19539,9935],[-26,81]],[[19513,10016],[27,48],[52,0]],[[19189,10014],[75,39]],[[19264,10053],[81,-22]],[[19345,10031],[34,-39]],[[19379,9992],[19,-33],[-42,-90]],[[19379,9992],[68,12]],[[19447,10004],[66,12]],[[19447,10004],[13,67],[59,39]],[[19519,10110],[99,-41]],[[19519,10110],[31,69]],[[19550,10179],[105,45]],[[19655,10224],[97,-1]],[[19345,10031],[37,121],[28,5]],[[19410,10157],[140,22]],[[19264,10053],[10,68],[-44,57],[3,68]],[[19233,10246],[14,20]],[[19247,10266],[12,6]],[[19259,10272],[104,20]],[[19363,10292],[-9,-67],[61,-13]],[[19415,10212],[-5,-55]],[[19137,10018],[-46,173]],[[19091,10191],[92,53],[50,2]],[[19415,10212],[206,76]],[[19621,10288],[34,-64]],[[19091,10191],[-14,88],[57,58]],[[19134,10337],[113,-71]],[[19134,10337],[96,84]],[[19230,10421],[40,-56]],[[19270,10365],[-11,-93]],[[19270,10365],[92,48]],[[19362,10413],[29,-16]],[[19391,10397],[13,-61],[-41,-44]],[[19391,10397],[150,32]],[[19541,10429],[101,5],[-2,-42]],[[19640,10392],[-19,-104]],[[19230,10421],[42,75],[59,0]],[[19331,10496],[31,-83]],[[19331,10496],[175,42]],[[19506,10538],[44,-60],[-9,-49]],[[19506,10538],[141,63],[-7,-66],[74,-20],[18,-69],[-92,-54]],[[0,7567],[105,1]],[[105,7568],[-96,-88],[-9,87]],[[0,7567],[11,69],[75,26],[19,-94]],[[139,7890],[18,-25],[-17,-25],[-20,36],[19,14]],[[2157,6716],[26,-36],[90,-55],[-25,-61],[-137,-10],[-98,73],[75,24],[69,65]],[[2479,6426],[-8,69]],[[2471,6495],[172,-20]],[[2643,6475],[115,0],[-10,-61],[-168,-10],[-101,22]],[[2471,6495],[-47,96]],[[2424,6591],[134,-27],[85,-89]],[[2479,6426],[-138,21],[-36,60],[10,61],[109,23]],[[2793,6718],[218,-111],[-18,-41],[-77,34],[-64,5],[-86,56]],[[2766,6661],[27,57]],[[2766,6661],[-62,-2],[-33,41],[-85,34],[23,45],[184,-61]],[[2698,7164],[77,18],[54,-34],[-32,-59],[-99,75]],[[3435,6853],[149,-6],[33,-44],[-41,-87]],[[3576,6716],[-53,52],[-95,31],[7,54]],[[3576,6716],[-20,-36],[-174,38],[-65,101],[20,40],[98,-6]],[[5070,5815],[162,-24],[-6,-60]],[[5226,5731],[-68,37],[-71,-31]],[[5087,5737],[-17,78]],[[5226,5731],[-6,-41],[-144,-18],[-23,22]],[[5053,5694],[-17,23]],[[5036,5717],[51,20]],[[5053,5694],[-1,-39],[-131,5]],[[4921,5660],[4,53]],[[4925,5713],[111,4]],[[4925,5713],[-126,12]],[[4799,5725],[-49,33]],[[4750,5758],[200,36],[31,-20],[89,41]],[[4921,5660],[-43,-13],[-73,27]],[[4805,5674],[-6,51]],[[4805,5674],[-67,0],[-139,135],[14,35],[81,24],[56,-110]],[[5289,4873],[38,-109],[-131,43],[0,54],[93,12]],[[12269,11],[-25,64]],[[12244,75],[72,-12]],[[12316,63],[-47,-52]],[[12244,75],[20,67]],[[12264,142],[72,-39],[-20,-40]],[[12269,11],[-56,-11]],[[12213,0],[-11,85]],[[12202,85],[42,-10]],[[12202,85],[-1,29]],[[12201,114],[-24,71]],[[12177,185],[24,13],[63,-56]],[[12213,0],[-41,7]],[[12172,7],[0,106]],[[12172,113],[29,1]],[[12172,7],[-56,25]],[[12116,32],[13,72]],[[12129,104],[43,9]],[[12129,104],[-26,13]],[[12103,117],[-11,44]],[[12092,161],[85,24]],[[12116,32],[-40,24]],[[12076,56],[27,61]],[[12076,56],[-60,21],[-48,85],[18,23]],[[11986,185],[42,-51],[75,-17]],[[11986,185],[34,24],[72,-48]],[[12712,402],[-13,47],[18,42],[34,2],[-39,-91]],[[19873,6341],[-199,16]],[[20185,7115],[8,87],[-36,81]],[[19316,9559],[31,78]]],"transform":{"scale":[0.0011743257944608857,0.0008958861035674496],"translate":[-31.273462455600455,32.654508256365716]},"objects":{"PRT":{"type":"GeometryCollection","geometries":[{"arcs":[[0,1,2]],"type":"Polygon","properties":{"name":"Vila do Bispo","shapeGroup":"PRT","gid":"PRT-2-0"},"id":"PRT-2-0"},{"arcs":[[-2,3,4,5,6]],"type":"Polygon","properties":{"name":"Lagos","shapeGroup":"PRT","gid":"PRT-2-1"},"id":"PRT-2-1"},{"arcs":[[-6,7,8,9,10]],"type":"Polygon","properties":{"name":"Portimao","shapeGroup":"PRT","gid":"PRT-2-2"},"id":"PRT-2-2"},{"arcs":[[-10,11,12]],"type":"Polygon","properties":{"name":"Lagoa","shapeGroup":"PRT","gid":"PRT-2-3"},"id":"PRT-2-3"},{"arcs":[[-1,13,14,15,-4]],"type":"Polygon","properties":{"name":"Alijezur","shapeGroup":"PRT","gid":"PRT-2-4"},"id":"PRT-2-4"},{"arcs":[[-5,-16,16,17,-8]],"type":"Polygon","properties":{"name":"Monchique","shapeGroup":"PRT","gid":"PRT-2-5"},"id":"PRT-2-5"},{"arcs":[[-9,-18,18,19,20,21,22,23,-12]],"type":"Polygon","properties":{"name":"Silves","shapeGroup":"PRT","gid":"PRT-2-6"},"id":"PRT-2-6"},{"arcs":[[-23,24,25]],"type":"Polygon","properties":{"name":"Albufeira","shapeGroup":"PRT","gid":"PRT-2-7"},"id":"PRT-2-7"},{"arcs":[[-22,26,27,28,29,30,31,-25]],"type":"Polygon","properties":{"name":"Loule","shapeGroup":"PRT","gid":"PRT-2-8"},"id":"PRT-2-8"},{"arcs":[[-31,32,33,34]],"type":"Polygon","properties":{"name":"Faro","shapeGroup":"PRT","gid":"PRT-2-9"},"id":"PRT-2-9"},{"arcs":[[-34,35,36,37]],"type":"Polygon","properties":{"name":"Olhao","shapeGroup":"PRT","gid":"PRT-2-10"},"id":"PRT-2-10"},{"arcs":[[-30,38,-36,-33]],"type":"Polygon","properties":{"name":"Sao Bras de Alportel","shapeGroup":"PRT","gid":"PRT-2-11"},"id":"PRT-2-11"},{"arcs":[[-29,39,40,41,42,-37,-39]],"type":"Polygon","properties":{"name":"Tavira","shapeGroup":"PRT","gid":"PRT-2-12"},"id":"PRT-2-12"},{"arcs":[[-42,43,44]],"type":"Polygon","properties":{"name":"Vila Real de Santo Antonio","shapeGroup":"PRT","gid":"PRT-2-13"},"id":"PRT-2-13"},{"arcs":[[-41,45,46,-44]],"type":"Polygon","properties":{"name":"Castro Marim","shapeGroup":"PRT","gid":"PRT-2-14"},"id":"PRT-2-14"},{"arcs":[[-28,47,48,49,-46,-40]],"type":"Polygon","properties":{"name":"Alcoutim","shapeGroup":"PRT","gid":"PRT-2-15"},"id":"PRT-2-15"},{"arcs":[[-21,50,51,52,-48,-27]],"type":"Polygon","properties":{"name":"Almodovar","shapeGroup":"PRT","gid":"PRT-2-16"},"id":"PRT-2-16"},{"arcs":[[-49,-53,53,54,55,56]],"type":"Polygon","properties":{"name":"Mertola","shapeGroup":"PRT","gid":"PRT-2-17"},"id":"PRT-2-17"},{"arcs":[[-52,57,58,59,-54]],"type":"Polygon","properties":{"name":"Castro Verde","shapeGroup":"PRT","gid":"PRT-2-18"},"id":"PRT-2-18"},{"arcs":[[-20,60,61,62,-58,-51]],"type":"Polygon","properties":{"name":"Ourique","shapeGroup":"PRT","gid":"PRT-2-19"},"id":"PRT-2-19"},{"arcs":[[-15,63,64,65,-61,-19,-17]],"type":"Polygon","properties":{"name":"Odemira","shapeGroup":"PRT","gid":"PRT-2-20"},"id":"PRT-2-20"},{"arcs":[[-56,66,67,68,69]],"type":"Polygon","properties":{"name":"Serpa","shapeGroup":"PRT","gid":"PRT-2-21"},"id":"PRT-2-21"},{"arcs":[[-55,-60,70,71,72,73,-67]],"type":"Polygon","properties":{"name":"Beja","shapeGroup":"PRT","gid":"PRT-2-22"},"id":"PRT-2-22"},{"arcs":[[-59,-63,74,75,-71]],"type":"Polygon","properties":{"name":"Aljustrel","shapeGroup":"PRT","gid":"PRT-2-23"},"id":"PRT-2-23"},{"arcs":[[-62,-66,76,77,78,79,-75]],"type":"Polygon","properties":{"name":"Santiago do Cacem","shapeGroup":"PRT","gid":"PRT-2-24"},"id":"PRT-2-24"},{"arcs":[[-65,80,-77]],"type":"Polygon","properties":{"name":"Sines","shapeGroup":"PRT","gid":"PRT-2-25"},"id":"PRT-2-25"},{"arcs":[[-72,-76,-80,81,82,83,84]],"type":"Polygon","properties":{"name":"Ferriera do Alentejo","shapeGroup":"PRT","gid":"PRT-2-26"},"id":"PRT-2-26"},{"arcs":[[-69,85,86,87,88,89,90]],"type":"Polygon","properties":{"name":"Moura","shapeGroup":"PRT","gid":"PRT-2-27"},"id":"PRT-2-27"},{"arcs":[[-90,91]],"type":"Polygon","properties":{"name":"Barrancos","shapeGroup":"PRT","gid":"PRT-2-28"},"id":"PRT-2-28"},{"arcs":[[-89,92,93,94]],"type":"Polygon","properties":{"name":"Mourao","shapeGroup":"PRT","gid":"PRT-2-29"},"id":"PRT-2-29"},{"arcs":[[-68,-74,95,96,-86]],"type":"Polygon","properties":{"name":"Vidigueira","shapeGroup":"PRT","gid":"PRT-2-30"},"id":"PRT-2-30"},{"arcs":[[-73,-85,97,98,-96]],"type":"Polygon","properties":{"name":"Cuba","shapeGroup":"PRT","gid":"PRT-2-31"},"id":"PRT-2-31"},{"arcs":[[-79,99,100,101,-82]],"type":"Polygon","properties":{"name":"Grandola","shapeGroup":"PRT","gid":"PRT-2-32"},"id":"PRT-2-32"},{"arcs":[[-83,-102,102,103,104,105,106,107]],"type":"Polygon","properties":{"name":"Alcacer do Sal","shapeGroup":"PRT","gid":"PRT-2-33"},"id":"PRT-2-33"},{"arcs":[[-87,-97,-99,108,109,110]],"type":"Polygon","properties":{"name":"Portel","shapeGroup":"PRT","gid":"PRT-2-34"},"id":"PRT-2-34"},{"arcs":[[-88,-111,111,112,113,-93]],"type":"Polygon","properties":{"name":"Reguengos de Monsaraz","shapeGroup":"PRT","gid":"PRT-2-35"},"id":"PRT-2-35"},{"arcs":[[-110,114,115,116,117,118,-112]],"type":"Polygon","properties":{"name":"Evora","shapeGroup":"PRT","gid":"PRT-2-36"},"id":"PRT-2-36"},{"arcs":[[-113,-119,119,120,121,122]],"type":"Polygon","properties":{"name":"Redondo","shapeGroup":"PRT","gid":"PRT-2-37"},"id":"PRT-2-37"},{"arcs":[[-94,-114,-123,123,124,125]],"type":"Polygon","properties":{"name":"Alandroal","shapeGroup":"PRT","gid":"PRT-2-38"},"id":"PRT-2-38"},{"arcs":[[-122,126,127,-124]],"type":"Polygon","properties":{"name":"Vila Vicosa","shapeGroup":"PRT","gid":"PRT-2-39"},"id":"PRT-2-39"},{"arcs":[[-106,128,129,130,131,-116,132]],"type":"Polygon","properties":{"name":"Montemor-o-Novo","shapeGroup":"PRT","gid":"PRT-2-40"},"id":"PRT-2-40"},{"arcs":[[-105,133,134,-129]],"type":"Polygon","properties":{"name":"Vendas Novas","shapeGroup":"PRT","gid":"PRT-2-41"},"id":"PRT-2-41"},{"arcs":[[-104,135,136,137,138,139,140,141,142,-134]],"type":"Polygon","properties":{"name":"Palmela","shapeGroup":"PRT","gid":"PRT-2-42"},"id":"PRT-2-42"},{"arcs":[[-130,-135,-143,143,144]],"type":"Polygon","properties":{"name":"Montijo","shapeGroup":"PRT","gid":"PRT-2-43"},"id":"PRT-2-43"},{"arcs":[[-137,145,146,147]],"type":"Polygon","properties":{"name":"Setubul","shapeGroup":"PRT","gid":"PRT-2-44"},"id":"PRT-2-44"},{"arcs":[[-148,148,149,150,151]],"type":"Polygon","properties":{"name":"Sesimbra","shapeGroup":"PRT","gid":"PRT-2-45"},"id":"PRT-2-45"},{"arcs":[[-150,152,153]],"type":"Polygon","properties":{"name":"Almada","shapeGroup":"PRT","gid":"PRT-2-46"},"id":"PRT-2-46"},{"arcs":[[-151,-154,154,155]],"type":"Polygon","properties":{"name":"Seixal","shapeGroup":"PRT","gid":"PRT-2-47"},"id":"PRT-2-47"},{"arcs":[[-138,-152,-156,156,157]],"type":"Polygon","properties":{"name":"Barriero","shapeGroup":"PRT","gid":"PRT-2-48"},"id":"PRT-2-48"},{"arcs":[[-139,-158,158,159]],"type":"Polygon","properties":{"name":"Moita","shapeGroup":"PRT","gid":"PRT-2-49"},"id":"PRT-2-49"},{"arcs":[[-140,-160,160,161]],"type":"Polygon","properties":{"name":"Montijo","shapeGroup":"PRT","gid":"PRT-2-50"},"id":"PRT-2-50"},{"arcs":[[-141,-162,162,163]],"type":"Polygon","properties":{"name":"Alcochete","shapeGroup":"PRT","gid":"PRT-2-51"},"id":"PRT-2-51"},{"arcs":[[-142,-164,164,165,166,167,168,-144]],"type":"Polygon","properties":{"name":"Benavente","shapeGroup":"PRT","gid":"PRT-2-52"},"id":"PRT-2-52"},{"arcs":[[-131,-145,-169,169,170,171,172,173,174]],"type":"Polygon","properties":{"name":"Coruche","shapeGroup":"PRT","gid":"PRT-2-53"},"id":"PRT-2-53"},{"arcs":[[-166,175,176,177,178,179]],"type":"Polygon","properties":{"name":"Vila Franca de Xira","shapeGroup":"PRT","gid":"PRT-2-54"},"id":"PRT-2-54"},{"arcs":[[-177,180,181,182,183,184,185]],"type":"Polygon","properties":{"name":"Loures","shapeGroup":"PRT","gid":"PRT-2-55"},"id":"PRT-2-55"},{"arcs":[[-182,186,187,188,189]],"type":"Polygon","properties":{"name":"Lisboa","shapeGroup":"PRT","gid":"PRT-2-56"},"id":"PRT-2-56"},{"arcs":[[-183,-190,190]],"type":"Polygon","properties":{"name":"Odivelas","shapeGroup":"PRT","gid":"PRT-2-57"},"id":"PRT-2-57"},{"arcs":[[-189,191,192,-191]],"type":"Polygon","properties":{"name":"Amadora","shapeGroup":"PRT","gid":"PRT-2-58"},"id":"PRT-2-58"},{"arcs":[[-188,193,194,195,-192]],"type":"Polygon","properties":{"name":"Oeiras","shapeGroup":"PRT","gid":"PRT-2-59"},"id":"PRT-2-59"},{"arcs":[[-195,196,197]],"type":"Polygon","properties":{"name":"Cascais","shapeGroup":"PRT","gid":"PRT-2-60"},"id":"PRT-2-60"},{"arcs":[[-184,-193,-196,-198,198,199]],"type":"Polygon","properties":{"name":"Sintra","shapeGroup":"PRT","gid":"PRT-2-61"},"id":"PRT-2-61"},{"arcs":[[-185,-200,200,201,202,203]],"type":"Polygon","properties":{"name":"Mafra","shapeGroup":"PRT","gid":"PRT-2-62"},"id":"PRT-2-62"},{"arcs":[[-178,-186,-204,204,205]],"type":"Polygon","properties":{"name":"Arruda dos Vinhos","shapeGroup":"PRT","gid":"PRT-2-63"},"id":"PRT-2-63"},{"arcs":[[-203,206,207,-205]],"type":"Polygon","properties":{"name":"Sobral de Monte Agraco","shapeGroup":"PRT","gid":"PRT-2-64"},"id":"PRT-2-64"},{"arcs":[[-117,-132,-175,208,209,210]],"type":"Polygon","properties":{"name":"Arraiolos","shapeGroup":"PRT","gid":"PRT-2-65"},"id":"PRT-2-65"},{"arcs":[[-118,-211,211,212,213,-120]],"type":"Polygon","properties":{"name":"Estremoz","shapeGroup":"PRT","gid":"PRT-2-66"},"id":"PRT-2-66"},{"arcs":[[-121,-214,214,215,-127]],"type":"Polygon","properties":{"name":"Borba","shapeGroup":"PRT","gid":"PRT-2-67"},"id":"PRT-2-67"},{"arcs":[[-125,-128,-216,216,217,218,219]],"type":"Polygon","properties":{"name":"Elvas","shapeGroup":"PRT","gid":"PRT-2-68"},"id":"PRT-2-68"},{"arcs":[[-219,220,221]],"type":"Polygon","properties":{"name":"Campo Maior","shapeGroup":"PRT","gid":"PRT-2-69"},"id":"PRT-2-69"},{"arcs":[[-218,222,223,224,-221]],"type":"Polygon","properties":{"name":"Arronches","shapeGroup":"PRT","gid":"PRT-2-70"},"id":"PRT-2-70"},{"arcs":[[-210,225,226,227,228,-212]],"type":"Polygon","properties":{"name":"Sousel","shapeGroup":"PRT","gid":"PRT-2-71"},"id":"PRT-2-71"},{"arcs":[[-227,229,230,231,232]],"type":"Polygon","properties":{"name":"Avis","shapeGroup":"PRT","gid":"PRT-2-72"},"id":"PRT-2-72"},{"arcs":[[-224,233,234,235,236,237]],"type":"Polygon","properties":{"name":"Portalegre","shapeGroup":"PRT","gid":"PRT-2-73"},"id":"PRT-2-73"},{"arcs":[[-237,238,239]],"type":"Polygon","properties":{"name":"Marvao","shapeGroup":"PRT","gid":"PRT-2-74"},"id":"PRT-2-74"},{"arcs":[[-232,240,241,242,243]],"type":"Polygon","properties":{"name":"Alter do Chao","shapeGroup":"PRT","gid":"PRT-2-75"},"id":"PRT-2-75"},{"arcs":[[-235,244,-242,245,246,247,248]],"type":"Polygon","properties":{"name":"Crato","shapeGroup":"PRT","gid":"PRT-2-76"},"id":"PRT-2-76"},{"arcs":[[-236,-249,249,250,-239]],"type":"Polygon","properties":{"name":"Castelo de Vide","shapeGroup":"PRT","gid":"PRT-2-77"},"id":"PRT-2-77"},{"arcs":[[-248,251,252,253,254,-250]],"type":"Polygon","properties":{"name":"Nisa","shapeGroup":"PRT","gid":"PRT-2-78"},"id":"PRT-2-78"},{"arcs":[[-247,255,256,257,-252]],"type":"Polygon","properties":{"name":"Gaviao","shapeGroup":"PRT","gid":"PRT-2-79"},"id":"PRT-2-79"},{"arcs":[[-174,258,-230,-226,-209]],"type":"Polygon","properties":{"name":"Mora","shapeGroup":"PRT","gid":"PRT-2-80"},"id":"PRT-2-80"},{"arcs":[[-173,259,260,-256,-246,-241,-231,-259]],"type":"Polygon","properties":{"name":"Ponte de Sor","shapeGroup":"PRT","gid":"PRT-2-81"},"id":"PRT-2-81"},{"arcs":[[-202,261,262,263,264,-207]],"type":"Polygon","properties":{"name":"Torres Vedras","shapeGroup":"PRT","gid":"PRT-2-82"},"id":"PRT-2-82"},{"arcs":[[-179,-206,-208,-265,265,266]],"type":"Polygon","properties":{"name":"Alenquer","shapeGroup":"PRT","gid":"PRT-2-83"},"id":"PRT-2-83"},{"arcs":[[-167,-180,-267,267,268,269,270,271]],"type":"Polygon","properties":{"name":"Azambuja","shapeGroup":"PRT","gid":"PRT-2-84"},"id":"PRT-2-84"},{"arcs":[[-264,272,273,274,275,-268,-266]],"type":"Polygon","properties":{"name":"Cadaval","shapeGroup":"PRT","gid":"PRT-2-85"},"id":"PRT-2-85"},{"arcs":[[-263,276,277,278,279,-273]],"type":"Polygon","properties":{"name":"Lourinha","shapeGroup":"PRT","gid":"PRT-2-86"},"id":"PRT-2-86"},{"arcs":[[-168,-272,280,281,-170]],"type":"Polygon","properties":{"name":"Salvaterra de Magos","shapeGroup":"PRT","gid":"PRT-2-87"},"id":"PRT-2-87"},{"arcs":[[-271,282,283,-281]],"type":"Polygon","properties":{"name":"Cartaxo","shapeGroup":"PRT","gid":"PRT-2-88"},"id":"PRT-2-88"},{"arcs":[[-171,-282,-284,284,285,286]],"type":"Polygon","properties":{"name":"Almeirim","shapeGroup":"PRT","gid":"PRT-2-89"},"id":"PRT-2-89"},{"arcs":[[-172,-287,287,288,289,290,291,-260]],"type":"Polygon","properties":{"name":"Chamusca","shapeGroup":"PRT","gid":"PRT-2-90"},"id":"PRT-2-90"},{"arcs":[[-286,292,-288]],"type":"Polygon","properties":{"name":"Alpiarca","shapeGroup":"PRT","gid":"PRT-2-91"},"id":"PRT-2-91"},{"arcs":[[-291,293,294]],"type":"Polygon","properties":{"name":"Constancia","shapeGroup":"PRT","gid":"PRT-2-92"},"id":"PRT-2-92"},{"arcs":[[-257,-261,-292,-295,295,296,297,298]],"type":"Polygon","properties":{"name":"Abrantes","shapeGroup":"PRT","gid":"PRT-2-93"},"id":"PRT-2-93"},{"arcs":[[-298,299,300]],"type":"Polygon","properties":{"name":"Sardoal","shapeGroup":"PRT","gid":"PRT-2-94"},"id":"PRT-2-94"},{"arcs":[[-253,-258,-299,-301,301,302,303,304]],"type":"Polygon","properties":{"name":"Macao","shapeGroup":"PRT","gid":"PRT-2-95"},"id":"PRT-2-95"},{"arcs":[[-290,305,306,307,-294]],"type":"Polygon","properties":{"name":"Vila Nova da Barquinha","shapeGroup":"PRT","gid":"PRT-2-96"},"id":"PRT-2-96"},{"arcs":[[-289,308,309,310,-306]],"type":"Polygon","properties":{"name":"Golega","shapeGroup":"PRT","gid":"PRT-2-97"},"id":"PRT-2-97"},{"arcs":[[-307,-311,311]],"type":"Polygon","properties":{"name":"Entroncamento","shapeGroup":"PRT","gid":"PRT-2-98"},"id":"PRT-2-98"},{"arcs":[[-270,312,313,314,315,316,-309,-293,-285,-283]],"type":"Polygon","properties":{"name":"Santarem","shapeGroup":"PRT","gid":"PRT-2-99"},"id":"PRT-2-99"},{"arcs":[[-269,-276,317,318,-313]],"type":"Polygon","properties":{"name":"Rio Maior","shapeGroup":"PRT","gid":"PRT-2-100"},"id":"PRT-2-100"},{"arcs":[[-316,319,320,321]],"type":"Polygon","properties":{"name":"Alcanenena","shapeGroup":"PRT","gid":"PRT-2-101"},"id":"PRT-2-101"},{"arcs":[[-310,-317,-322,322,323,-312]],"type":"Polygon","properties":{"name":"Torres Novas","shapeGroup":"PRT","gid":"PRT-2-102"},"id":"PRT-2-102"},{"arcs":[[-296,-308,-324,324,325]],"type":"Polygon","properties":{"name":"Tomar","shapeGroup":"PRT","gid":"PRT-2-103"},"id":"PRT-2-103"},{"arcs":[[-323,326,327,328,329,330,-325]],"type":"Polygon","properties":{"name":"Ourem","shapeGroup":"PRT","gid":"PRT-2-104"},"id":"PRT-2-104"},{"arcs":[[-326,-331,331,332,333,334]],"type":"Polygon","properties":{"name":"Ferreira do Zezere","shapeGroup":"PRT","gid":"PRT-2-105"},"id":"PRT-2-105"},{"arcs":[[-274,-280,335]],"type":"Polygon","properties":{"name":"Bombarral","shapeGroup":"PRT","gid":"PRT-2-106"},"id":"PRT-2-106"},{"arcs":[[-278,336,337]],"type":"Polygon","properties":{"name":"Peniche","shapeGroup":"PRT","gid":"PRT-2-107"},"id":"PRT-2-107"},{"arcs":[[-279,-338,338,339,-336]],"type":"Polygon","properties":{"name":"Obidos","shapeGroup":"PRT","gid":"PRT-2-108"},"id":"PRT-2-108"},{"arcs":[[-275,-340,340,341,-318]],"type":"Polygon","properties":{"name":"Caldas da Rainha","shapeGroup":"PRT","gid":"PRT-2-109"},"id":"PRT-2-109"},{"arcs":[[-314,-319,-342,342,343,344,345,346]],"type":"Polygon","properties":{"name":"Alcobaca","shapeGroup":"PRT","gid":"PRT-2-110"},"id":"PRT-2-110"},{"arcs":[[-343,347]],"type":"Polygon","properties":{"name":"Nazare","shapeGroup":"PRT","gid":"PRT-2-111"},"id":"PRT-2-111"},{"arcs":[[-315,-347,348,349,-320]],"type":"Polygon","properties":{"name":"Porto de Mos","shapeGroup":"PRT","gid":"PRT-2-112"},"id":"PRT-2-112"},{"arcs":[[-321,-350,350,-327]],"type":"Polygon","properties":{"name":"Batalha","shapeGroup":"PRT","gid":"PRT-2-113"},"id":"PRT-2-113"},{"arcs":[[-328,-351,-349,-346,351,352,353]],"type":"Polygon","properties":{"name":"Leiria","shapeGroup":"PRT","gid":"PRT-2-114"},"id":"PRT-2-114"},{"arcs":[[-345,354,-352]],"type":"Polygon","properties":{"name":"Marinha Grande","shapeGroup":"PRT","gid":"PRT-2-115"},"id":"PRT-2-115"},{"arcs":[[-330,355,356,357,-332]],"type":"Polygon","properties":{"name":"Alvaiazere","shapeGroup":"PRT","gid":"PRT-2-116"},"id":"PRT-2-116"},{"arcs":[[-329,-354,358,359,360,361,-356]],"type":"Polygon","properties":{"name":"Pombal","shapeGroup":"PRT","gid":"PRT-2-117"},"id":"PRT-2-117"},{"arcs":[[-357,-362,362,363,364]],"type":"Polygon","properties":{"name":"Ansiao","shapeGroup":"PRT","gid":"PRT-2-118"},"id":"PRT-2-118"},{"arcs":[[-333,-358,-365,365,366,367,368,369,370]],"type":"Polygon","properties":{"name":"Figueiro dos Vinhos","shapeGroup":"PRT","gid":"PRT-2-119"},"id":"PRT-2-119"},{"arcs":[[-370,371,372,373,374,375]],"type":"Polygon","properties":{"name":"Pedrogao Grande","shapeGroup":"PRT","gid":"PRT-2-120"},"id":"PRT-2-120"},{"arcs":[[-369,376,377,-372]],"type":"Polygon","properties":{"name":"Castanheira de Pera","shapeGroup":"PRT","gid":"PRT-2-121"},"id":"PRT-2-121"},{"arcs":[[-297,-335,378,-302,-300]],"type":"Polygon","properties":{"name":"Vila de Rei","shapeGroup":"PRT","gid":"PRT-2-122"},"id":"PRT-2-122"},{"arcs":[[-304,379,380,381,382]],"type":"Polygon","properties":{"name":"Proenca-a-Nova","shapeGroup":"PRT","gid":"PRT-2-123"},"id":"PRT-2-123"},{"arcs":[[-254,-305,-383,383]],"type":"Polygon","properties":{"name":"Vila Velha de Rodao","shapeGroup":"PRT","gid":"PRT-2-124"},"id":"PRT-2-124"},{"arcs":[[-303,-379,-334,-371,-376,384,-380]],"type":"Polygon","properties":{"name":"Serta","shapeGroup":"PRT","gid":"PRT-2-125"},"id":"PRT-2-125"},{"arcs":[[-375,385,386,387,-381,-385]],"type":"Polygon","properties":{"name":"Oleiros","shapeGroup":"PRT","gid":"PRT-2-126"},"id":"PRT-2-126"},{"arcs":[[-382,-388,388,389,390,-384]],"type":"Polygon","properties":{"name":"Castelo Branco","shapeGroup":"PRT","gid":"PRT-2-127"},"id":"PRT-2-127"},{"arcs":[[-390,391,392,393]],"type":"Polygon","properties":{"name":"Idanha-a-Nova","shapeGroup":"PRT","gid":"PRT-2-128"},"id":"PRT-2-128"},{"arcs":[[-387,394,395,396,397,398,-392,-389]],"type":"Polygon","properties":{"name":"Fundao","shapeGroup":"PRT","gid":"PRT-2-129"},"id":"PRT-2-129"},{"arcs":[[-393,-399,399,400]],"type":"Polygon","properties":{"name":"Penamacor","shapeGroup":"PRT","gid":"PRT-2-130"},"id":"PRT-2-130"},{"arcs":[[-397,401,402,403]],"type":"Polygon","properties":{"name":"Belmonte","shapeGroup":"PRT","gid":"PRT-2-131"},"id":"PRT-2-131"},{"arcs":[[-396,404,405,406,407,408,-402]],"type":"Polygon","properties":{"name":"Covilha","shapeGroup":"PRT","gid":"PRT-2-132"},"id":"PRT-2-132"},{"arcs":[[-374,409,410,-405,-395,-386]],"type":"Polygon","properties":{"name":"Pampilhosa da Serra","shapeGroup":"PRT","gid":"PRT-2-133"},"id":"PRT-2-133"},{"arcs":[[-373,-378,411,412,413,-410]],"type":"Polygon","properties":{"name":"Gois","shapeGroup":"PRT","gid":"PRT-2-134"},"id":"PRT-2-134"},{"arcs":[[-368,414,415,-412,-377]],"type":"Polygon","properties":{"name":"Lousa","shapeGroup":"PRT","gid":"PRT-2-135"},"id":"PRT-2-135"},{"arcs":[[-364,416,417,-366]],"type":"Polygon","properties":{"name":"Penela","shapeGroup":"PRT","gid":"PRT-2-136"},"id":"PRT-2-136"},{"arcs":[[-367,-418,418,419,420,-415]],"type":"Polygon","properties":{"name":"Miranda do Corvo","shapeGroup":"PRT","gid":"PRT-2-137"},"id":"PRT-2-137"},{"arcs":[[-361,421,422,423,-363]],"type":"Polygon","properties":{"name":"Soure","shapeGroup":"PRT","gid":"PRT-2-138"},"id":"PRT-2-138"},{"arcs":[[-417,-424,424,425,-419]],"type":"Polygon","properties":{"name":"Condeixa-a-Nova","shapeGroup":"PRT","gid":"PRT-2-139"},"id":"PRT-2-139"},{"arcs":[[-360,426,427,428,-422]],"type":"Polygon","properties":{"name":"Figueira da Foz","shapeGroup":"PRT","gid":"PRT-2-140"},"id":"PRT-2-140"},{"arcs":[[-423,-429,429,430,-425]],"type":"Polygon","properties":{"name":"Montemor-o-Velho","shapeGroup":"PRT","gid":"PRT-2-141"},"id":"PRT-2-141"},{"arcs":[[-420,-426,-431,431,432,433,434]],"type":"Polygon","properties":{"name":"Coimbra","shapeGroup":"PRT","gid":"PRT-2-142"},"id":"PRT-2-142"},{"arcs":[[-413,-416,-421,-435,435,436]],"type":"Polygon","properties":{"name":"Vila Nova de Poiares","shapeGroup":"PRT","gid":"PRT-2-143"},"id":"PRT-2-143"},{"arcs":[[-406,-411,-414,-437,437,438,439,440]],"type":"Polygon","properties":{"name":"Arganil","shapeGroup":"PRT","gid":"PRT-2-144"},"id":"PRT-2-144"},{"arcs":[[-440,441,442,443,444]],"type":"Polygon","properties":{"name":"Oliveira do Hospital","shapeGroup":"PRT","gid":"PRT-2-145"},"id":"PRT-2-145"},{"arcs":[[-439,445,446,447,-442]],"type":"Polygon","properties":{"name":"Tabua","shapeGroup":"PRT","gid":"PRT-2-146"},"id":"PRT-2-146"},{"arcs":[[-434,448,449,450,-446,-438,-436]],"type":"Polygon","properties":{"name":"Penacova","shapeGroup":"PRT","gid":"PRT-2-147"},"id":"PRT-2-147"},{"arcs":[[-428,451,452,453,454,455,456,-432,-430]],"type":"Polygon","properties":{"name":"Cantanhede","shapeGroup":"PRT","gid":"PRT-2-148"},"id":"PRT-2-148"},{"arcs":[[-453,457,458]],"type":"Polygon","properties":{"name":"Mira","shapeGroup":"PRT","gid":"PRT-2-149"},"id":"PRT-2-149"},{"arcs":[[-398,-404,459,460,461,-400]],"type":"Polygon","properties":{"name":"Sabugal","shapeGroup":"PRT","gid":"PRT-2-150"},"id":"PRT-2-150"},{"arcs":[[-461,462,463,464,465]],"type":"Polygon","properties":{"name":"Almeida","shapeGroup":"PRT","gid":"PRT-2-151"},"id":"PRT-2-151"},{"arcs":[[-403,-409,466,467,468,469,-463,-460]],"type":"Polygon","properties":{"name":"Guarda","shapeGroup":"PRT","gid":"PRT-2-152"},"id":"PRT-2-152"},{"arcs":[[-407,-441,-445,470,471,472,473]],"type":"Polygon","properties":{"name":"Seia","shapeGroup":"PRT","gid":"PRT-2-153"},"id":"PRT-2-153"},{"arcs":[[-408,-474,474,-467]],"type":"Polygon","properties":{"name":"Manteigas","shapeGroup":"PRT","gid":"PRT-2-154"},"id":"PRT-2-154"},{"arcs":[[-468,-475,-473,475,476,477]],"type":"Polygon","properties":{"name":"Gouveia","shapeGroup":"PRT","gid":"PRT-2-155"},"id":"PRT-2-155"},{"arcs":[[-469,-478,478,479,480]],"type":"Polygon","properties":{"name":"Celorico da Beira","shapeGroup":"PRT","gid":"PRT-2-156"},"id":"PRT-2-156"},{"arcs":[[-477,481,482,483,484,-479]],"type":"Polygon","properties":{"name":"Fornos de Algodres","shapeGroup":"PRT","gid":"PRT-2-157"},"id":"PRT-2-157"},{"arcs":[[-464,-470,-481,485,486,487,488]],"type":"Polygon","properties":{"name":"Pinhel","shapeGroup":"PRT","gid":"PRT-2-158"},"id":"PRT-2-158"},{"arcs":[[-480,-485,489,490,491,492,-486]],"type":"Polygon","properties":{"name":"Trancoso","shapeGroup":"PRT","gid":"PRT-2-159"},"id":"PRT-2-159"},{"arcs":[[-484,493,494,495,-490]],"type":"Polygon","properties":{"name":"Aguiar da Beira","shapeGroup":"PRT","gid":"PRT-2-160"},"id":"PRT-2-160"},{"arcs":[[-465,-489,496,497,498]],"type":"Polygon","properties":{"name":"Figueira de Castelo Rodrigo","shapeGroup":"PRT","gid":"PRT-2-161"},"id":"PRT-2-161"},{"arcs":[[-487,-493,499,500]],"type":"Polygon","properties":{"name":"Meda","shapeGroup":"PRT","gid":"PRT-2-162"},"id":"PRT-2-162"},{"arcs":[[-488,-501,501,502,503,504,505,-497]],"type":"Polygon","properties":{"name":"Vila Nova de Foz Coa","shapeGroup":"PRT","gid":"PRT-2-163"},"id":"PRT-2-163"},{"arcs":[[-433,-457,506,507,-449]],"type":"Polygon","properties":{"name":"Mealhada","shapeGroup":"PRT","gid":"PRT-2-164"},"id":"PRT-2-164"},{"arcs":[[-456,508,509,510,-507]],"type":"Polygon","properties":{"name":"Anadia","shapeGroup":"PRT","gid":"PRT-2-165"},"id":"PRT-2-165"},{"arcs":[[-455,511,512,513,-509]],"type":"Polygon","properties":{"name":"Oliveira do Bairro","shapeGroup":"PRT","gid":"PRT-2-166"},"id":"PRT-2-166"},{"arcs":[[-454,-459,514,515,516,517,-512]],"type":"Polygon","properties":{"name":"Vagos","shapeGroup":"PRT","gid":"PRT-2-167"},"id":"PRT-2-167"},{"arcs":[[518]],"type":"Polygon","properties":{"name":"Ilhavo","shapeGroup":"PRT","gid":"PRT-2-168"},"id":"PRT-2-168"},{"arcs":[[-517,519,520]],"type":"Polygon","properties":{"name":"Ilhavo","shapeGroup":"PRT","gid":"PRT-2-169"},"id":"PRT-2-169"},{"arcs":[[-510,-514,521,522,523,524,525,526]],"type":"Polygon","properties":{"name":"Agueda","shapeGroup":"PRT","gid":"PRT-2-170"},"id":"PRT-2-170"},{"arcs":[[-513,-518,-521,527,528,529,-522]],"type":"Polygon","properties":{"name":"Aveiro","shapeGroup":"PRT","gid":"PRT-2-171"},"id":"PRT-2-171"},{"arcs":[[-523,-530,530,531,532,533]],"type":"Polygon","properties":{"name":"Albergaria-a-Velha","shapeGroup":"PRT","gid":"PRT-2-172"},"id":"PRT-2-172"},{"arcs":[[-532,534,535,536]],"type":"Polygon","properties":{"name":"Estarreja","shapeGroup":"PRT","gid":"PRT-2-173"},"id":"PRT-2-173"},{"arcs":[[-529,537,538,-535,-531]],"type":"Polygon","properties":{"name":"Murtosa","shapeGroup":"PRT","gid":"PRT-2-174"},"id":"PRT-2-174"},{"arcs":[[-536,-539,539,540,541]],"type":"Polygon","properties":{"name":"Ovar","shapeGroup":"PRT","gid":"PRT-2-175"},"id":"PRT-2-175"},{"arcs":[[-533,-537,-542,542,543,544,545,546]],"type":"Polygon","properties":{"name":"Oliveira de Azemeis","shapeGroup":"PRT","gid":"PRT-2-176"},"id":"PRT-2-176"},{"arcs":[[-543,547]],"type":"Polygon","properties":{"name":"Sao Joao da Madeira","shapeGroup":"PRT","gid":"PRT-2-177"},"id":"PRT-2-177"},{"arcs":[[-524,-534,-547,548,549]],"type":"Polygon","properties":{"name":"Server do Vouga","shapeGroup":"PRT","gid":"PRT-2-178"},"id":"PRT-2-178"},{"arcs":[[-546,550,551,-549]],"type":"Polygon","properties":{"name":"Vale de Cambra","shapeGroup":"PRT","gid":"PRT-2-179"},"id":"PRT-2-179"},{"arcs":[[-545,552,553,554,555,556,-551]],"type":"Polygon","properties":{"name":"Arouca","shapeGroup":"PRT","gid":"PRT-2-180"},"id":"PRT-2-180"},{"arcs":[[-554,557,558,559,560,561]],"type":"Polygon","properties":{"name":"Castelo de Paiva","shapeGroup":"PRT","gid":"PRT-2-181"},"id":"PRT-2-181"},{"arcs":[[-541,562,563,564,-558,-553,-544,-548]],"type":"Polygon","properties":{"name":"Santa Maria da Feira","shapeGroup":"PRT","gid":"PRT-2-182"},"id":"PRT-2-182"},{"arcs":[[-563,565,566]],"type":"Polygon","properties":{"name":"Espinho","shapeGroup":"PRT","gid":"PRT-2-183"},"id":"PRT-2-183"},{"arcs":[[-450,-508,-511,-527,567,568]],"type":"Polygon","properties":{"name":"Mortagua","shapeGroup":"PRT","gid":"PRT-2-184"},"id":"PRT-2-184"},{"arcs":[[-447,-451,-569,569,570]],"type":"Polygon","properties":{"name":"Santa Comba Dao","shapeGroup":"PRT","gid":"PRT-2-185"},"id":"PRT-2-185"},{"arcs":[[-443,-448,-571,571,572,573]],"type":"Polygon","properties":{"name":"Carregal do Sal","shapeGroup":"PRT","gid":"PRT-2-186"},"id":"PRT-2-186"},{"arcs":[[-444,-574,574,575,-471]],"type":"Polygon","properties":{"name":"Nelas","shapeGroup":"PRT","gid":"PRT-2-187"},"id":"PRT-2-187"},{"arcs":[[-472,-576,576,577,-482,-476]],"type":"Polygon","properties":{"name":"Mangualde","shapeGroup":"PRT","gid":"PRT-2-188"},"id":"PRT-2-188"},{"arcs":[[-526,578,579,580,-572,-570,-568]],"type":"Polygon","properties":{"name":"Tondela","shapeGroup":"PRT","gid":"PRT-2-189"},"id":"PRT-2-189"},{"arcs":[[-579,581]],"type":"Polygon","properties":{"name":"Oliveira de Frades","shapeGroup":"PRT","gid":"PRT-2-190"},"id":"PRT-2-190"},{"arcs":[[-525,-550,-552,582,583]],"type":"Polygon","properties":{"name":"Oliveira de Frades","shapeGroup":"PRT","gid":"PRT-2-191"},"id":"PRT-2-191"},{"arcs":[[-580,-582,-584,584,585]],"type":"Polygon","properties":{"name":"Vouzela","shapeGroup":"PRT","gid":"PRT-2-192"},"id":"PRT-2-192"},{"arcs":[[-573,-581,-586,586,587,588,589,590,-577,-575]],"type":"Polygon","properties":{"name":"Viseu","shapeGroup":"PRT","gid":"PRT-2-193"},"id":"PRT-2-193"},{"arcs":[[-483,-578,-591,591,-494]],"type":"Polygon","properties":{"name":"Penalva do Castelo","shapeGroup":"PRT","gid":"PRT-2-194"},"id":"PRT-2-194"},{"arcs":[[-495,-592,-590,592,593,594]],"type":"Polygon","properties":{"name":"Satao","shapeGroup":"PRT","gid":"PRT-2-195"},"id":"PRT-2-195"},{"arcs":[[-589,595,596,-593]],"type":"Polygon","properties":{"name":"Vila Nova de Paiva","shapeGroup":"PRT","gid":"PRT-2-196"},"id":"PRT-2-196"},{"arcs":[[-557,597,-587,-585,-583]],"type":"Polygon","properties":{"name":"Sao Pedro do Sul","shapeGroup":"PRT","gid":"PRT-2-197"},"id":"PRT-2-197"},{"arcs":[[-556,598,599,600,601,-596,-588,-598]],"type":"Polygon","properties":{"name":"Castro Daire","shapeGroup":"PRT","gid":"PRT-2-198"},"id":"PRT-2-198"},{"arcs":[[-594,-597,602,603,604,605,606]],"type":"Polygon","properties":{"name":"Moimenta da Beira","shapeGroup":"PRT","gid":"PRT-2-199"},"id":"PRT-2-199"},{"arcs":[[-491,-496,-595,-607,607,608]],"type":"Polygon","properties":{"name":"Sernancelhe","shapeGroup":"PRT","gid":"PRT-2-200"},"id":"PRT-2-200"},{"arcs":[[-492,-609,609,-502,-500]],"type":"Polygon","properties":{"name":"Penedono","shapeGroup":"PRT","gid":"PRT-2-201"},"id":"PRT-2-201"},{"arcs":[[-503,-610,-608,-606,610,611,612,613]],"type":"Polygon","properties":{"name":"Sao Joao da Pesqueira","shapeGroup":"PRT","gid":"PRT-2-202"},"id":"PRT-2-202"},{"arcs":[[-605,614,615,-611]],"type":"Polygon","properties":{"name":"Tabuaco","shapeGroup":"PRT","gid":"PRT-2-203"},"id":"PRT-2-203"},{"arcs":[[-602,616,617,-603]],"type":"Polygon","properties":{"name":"Tarouca","shapeGroup":"PRT","gid":"PRT-2-204"},"id":"PRT-2-204"},{"arcs":[[-604,-618,618,619,620,-615]],"type":"Polygon","properties":{"name":"Armamar","shapeGroup":"PRT","gid":"PRT-2-205"},"id":"PRT-2-205"},{"arcs":[[-601,621,622,623,-619,-617]],"type":"Polygon","properties":{"name":"Lamego","shapeGroup":"PRT","gid":"PRT-2-206"},"id":"PRT-2-206"},{"arcs":[[-555,-562,624,625,626,-599]],"type":"Polygon","properties":{"name":"Cinfaes","shapeGroup":"PRT","gid":"PRT-2-207"},"id":"PRT-2-207"},{"arcs":[[-600,-627,627,628,-622]],"type":"Polygon","properties":{"name":"Resende","shapeGroup":"PRT","gid":"PRT-2-208"},"id":"PRT-2-208"},{"arcs":[[-504,-614,629,630,631,632,633]],"type":"Polygon","properties":{"name":"Carrazeda de Ansiaes","shapeGroup":"PRT","gid":"PRT-2-209"},"id":"PRT-2-209"},{"arcs":[[-505,-634,634,635,636,637]],"type":"Polygon","properties":{"name":"Torre de Moncorvo","shapeGroup":"PRT","gid":"PRT-2-210"},"id":"PRT-2-210"},{"arcs":[[-498,-506,-638,638,639]],"type":"Polygon","properties":{"name":"Freixo de Espada a Cinta","shapeGroup":"PRT","gid":"PRT-2-211"},"id":"PRT-2-211"},{"arcs":[[-637,640,641,642,643,644,-639]],"type":"Polygon","properties":{"name":"Mogadouro","shapeGroup":"PRT","gid":"PRT-2-212"},"id":"PRT-2-212"},{"arcs":[[-644,645,646]],"type":"Polygon","properties":{"name":"Miranda do Douro","shapeGroup":"PRT","gid":"PRT-2-213"},"id":"PRT-2-213"},{"arcs":[[-643,647,648,649,-646]],"type":"Polygon","properties":{"name":"Vimioso","shapeGroup":"PRT","gid":"PRT-2-214"},"id":"PRT-2-214"},{"arcs":[[-633,650,651,-635]],"type":"Polygon","properties":{"name":"Vila Flor","shapeGroup":"PRT","gid":"PRT-2-215"},"id":"PRT-2-215"},{"arcs":[[-636,-652,652,653,-641]],"type":"Polygon","properties":{"name":"Alfandega da Fe","shapeGroup":"PRT","gid":"PRT-2-216"},"id":"PRT-2-216"},{"arcs":[[-649,654,655,656]],"type":"Polygon","properties":{"name":"Braganca","shapeGroup":"PRT","gid":"PRT-2-217"},"id":"PRT-2-217"},{"arcs":[[-642,-654,657,658,-655,-648]],"type":"Polygon","properties":{"name":"Macedo de Cavaleiros","shapeGroup":"PRT","gid":"PRT-2-218"},"id":"PRT-2-218"},{"arcs":[[-656,-659,659,660,661,662]],"type":"Polygon","properties":{"name":"Vinhais","shapeGroup":"PRT","gid":"PRT-2-219"},"id":"PRT-2-219"},{"arcs":[[-564,-567,663,664,665]],"type":"Polygon","properties":{"name":"Vila Nova de Gaia","shapeGroup":"PRT","gid":"PRT-2-220"},"id":"PRT-2-220"},{"arcs":[[-559,-565,-666,666,667,668,669]],"type":"Polygon","properties":{"name":"Gondomar","shapeGroup":"PRT","gid":"PRT-2-221"},"id":"PRT-2-221"},{"arcs":[[-665,670,671,-667]],"type":"Polygon","properties":{"name":"Porto","shapeGroup":"PRT","gid":"PRT-2-222"},"id":"PRT-2-222"},{"arcs":[[-560,-670,672,673,674]],"type":"Polygon","properties":{"name":"Penafiel","shapeGroup":"PRT","gid":"PRT-2-223"},"id":"PRT-2-223"},{"arcs":[[-561,-675,675,676,677,-625]],"type":"Polygon","properties":{"name":"Marco de Canaveses","shapeGroup":"PRT","gid":"PRT-2-224"},"id":"PRT-2-224"},{"arcs":[[-626,-678,678,679,680,681,-628]],"type":"Polygon","properties":{"name":"Baiao","shapeGroup":"PRT","gid":"PRT-2-225"},"id":"PRT-2-225"},{"arcs":[[-677,682,683,684,685,686,-679]],"type":"Polygon","properties":{"name":"Amarante","shapeGroup":"PRT","gid":"PRT-2-226"},"id":"PRT-2-226"},{"arcs":[[-669,687,688,689,690,-673]],"type":"Polygon","properties":{"name":"Paredes","shapeGroup":"PRT","gid":"PRT-2-227"},"id":"PRT-2-227"},{"arcs":[[-684,691,692,693,694,695]],"type":"Polygon","properties":{"name":"Felgueiras","shapeGroup":"PRT","gid":"PRT-2-228"},"id":"PRT-2-228"},{"arcs":[[-674,-691,696,697,-692,-683,-676]],"type":"Polygon","properties":{"name":"Lousada","shapeGroup":"PRT","gid":"PRT-2-229"},"id":"PRT-2-229"},{"arcs":[[-672,698,699,700,701]],"type":"Polygon","properties":{"name":"Matosinhos","shapeGroup":"PRT","gid":"PRT-2-230"},"id":"PRT-2-230"},{"arcs":[[-700,702,703,704,705,706]],"type":"Polygon","properties":{"name":"Vila do Conde","shapeGroup":"PRT","gid":"PRT-2-231"},"id":"PRT-2-231"},{"arcs":[[-704,707,708,709,710]],"type":"Polygon","properties":{"name":"Povoa de Varzim","shapeGroup":"PRT","gid":"PRT-2-232"},"id":"PRT-2-232"},{"arcs":[[-690,711,712,-697]],"type":"Polygon","properties":{"name":"Pacos de Ferreira","shapeGroup":"PRT","gid":"PRT-2-233"},"id":"PRT-2-233"},{"arcs":[[-706,713,714,715]],"type":"Polygon","properties":{"name":"Trofa","shapeGroup":"PRT","gid":"PRT-2-234"},"id":"PRT-2-234"},{"arcs":[[-689,716,717,-715,718,719,720,-712]],"type":"Polygon","properties":{"name":"Santo Tirso","shapeGroup":"PRT","gid":"PRT-2-235"},"id":"PRT-2-235"},{"arcs":[[-623,-629,-682,721]],"type":"Polygon","properties":{"name":"Mesao Frio","shapeGroup":"PRT","gid":"PRT-2-236"},"id":"PRT-2-236"},{"arcs":[[-620,-624,-722,-681,722,723,724]],"type":"Polygon","properties":{"name":"Peso da Regua","shapeGroup":"PRT","gid":"PRT-2-237"},"id":"PRT-2-237"},{"arcs":[[-723,725]],"type":"Polygon","properties":{"name":"Santa Marta de Penaguiao","shapeGroup":"PRT","gid":"PRT-2-238"},"id":"PRT-2-238"},{"arcs":[[-613,726,727,-630]],"type":"Polygon","properties":{"name":"Alijo","shapeGroup":"PRT","gid":"PRT-2-239"},"id":"PRT-2-239"},{"arcs":[[-612,-616,-621,-725,728,729,730,-727]],"type":"Polygon","properties":{"name":"Sabrosa","shapeGroup":"PRT","gid":"PRT-2-240"},"id":"PRT-2-240"},{"arcs":[[-680,-687,731,732,733,-729,-724,-726]],"type":"Polygon","properties":{"name":"Vila Real","shapeGroup":"PRT","gid":"PRT-2-241"},"id":"PRT-2-241"},{"arcs":[[-631,-728,-731,734,735,736]],"type":"Polygon","properties":{"name":"Murca","shapeGroup":"PRT","gid":"PRT-2-242"},"id":"PRT-2-242"},{"arcs":[[-632,-737,737,-660,-658,-653,-651]],"type":"Polygon","properties":{"name":"Mirandela","shapeGroup":"PRT","gid":"PRT-2-243"},"id":"PRT-2-243"},{"arcs":[[-661,-738,-736,738,739]],"type":"Polygon","properties":{"name":"Valpacos","shapeGroup":"PRT","gid":"PRT-2-244"},"id":"PRT-2-244"},{"arcs":[[-662,-740,740,741,742,743]],"type":"Polygon","properties":{"name":"Chaves","shapeGroup":"PRT","gid":"PRT-2-245"},"id":"PRT-2-245"},{"arcs":[[-730,-734,744,745,-741,-739,-735]],"type":"Polygon","properties":{"name":"Vila Pouca de Aguiar","shapeGroup":"PRT","gid":"PRT-2-246"},"id":"PRT-2-246"},{"arcs":[[-686,746,747,748,-732]],"type":"Polygon","properties":{"name":"Mondim de Basto","shapeGroup":"PRT","gid":"PRT-2-247"},"id":"PRT-2-247"},{"arcs":[[-733,-749,749,750,-745]],"type":"Polygon","properties":{"name":"Ribeira de Pena","shapeGroup":"PRT","gid":"PRT-2-248"},"id":"PRT-2-248"},{"arcs":[[-742,-746,-751,751,752]],"type":"Polygon","properties":{"name":"Boticas","shapeGroup":"PRT","gid":"PRT-2-249"},"id":"PRT-2-249"},{"arcs":[[-743,-753,753,754,755,756]],"type":"Polygon","properties":{"name":"Montalegre","shapeGroup":"PRT","gid":"PRT-2-250"},"id":"PRT-2-250"},{"arcs":[[-709,757,758,759]],"type":"Polygon","properties":{"name":"Esposende","shapeGroup":"PRT","gid":"PRT-2-251"},"id":"PRT-2-251"},{"arcs":[[-705,-711,760,761,762,-719,-714]],"type":"Polygon","properties":{"name":"Vila Nova de Famalicao","shapeGroup":"PRT","gid":"PRT-2-252"},"id":"PRT-2-252"},{"arcs":[[-693,-698,-713,-721,763]],"type":"Polygon","properties":{"name":"Vizela","shapeGroup":"PRT","gid":"PRT-2-253"},"id":"PRT-2-253"},{"arcs":[[-685,-696,764,765,-747]],"type":"Polygon","properties":{"name":"Celorico de Basto","shapeGroup":"PRT","gid":"PRT-2-254"},"id":"PRT-2-254"},{"arcs":[[-748,-766,766,767,-754,-752,-750]],"type":"Polygon","properties":{"name":"Cabeceiras de Basto","shapeGroup":"PRT","gid":"PRT-2-255"},"id":"PRT-2-255"},{"arcs":[[-695,768,769,770,-767,-765]],"type":"Polygon","properties":{"name":"Fafe","shapeGroup":"PRT","gid":"PRT-2-256"},"id":"PRT-2-256"},{"arcs":[[-694,-764,-720,-763,771,772,-769]],"type":"Polygon","properties":{"name":"Guimaraes","shapeGroup":"PRT","gid":"PRT-2-257"},"id":"PRT-2-257"},{"arcs":[[-755,-768,-771,773,774,775]],"type":"Polygon","properties":{"name":"Vieira do Minho","shapeGroup":"PRT","gid":"PRT-2-258"},"id":"PRT-2-258"},{"arcs":[[-770,-773,776,777,-774]],"type":"Polygon","properties":{"name":"Povoa de Lanhosa","shapeGroup":"PRT","gid":"PRT-2-259"},"id":"PRT-2-259"},{"arcs":[[-710,-760,778,779,780,781,-761]],"type":"Polygon","properties":{"name":"Barcelos","shapeGroup":"PRT","gid":"PRT-2-260"},"id":"PRT-2-260"},{"arcs":[[-762,-782,782,783,-777,-772]],"type":"Polygon","properties":{"name":"Braga","shapeGroup":"PRT","gid":"PRT-2-261"},"id":"PRT-2-261"},{"arcs":[[-775,-778,-784,784,785]],"type":"Polygon","properties":{"name":"Amares","shapeGroup":"PRT","gid":"PRT-2-262"},"id":"PRT-2-262"},{"arcs":[[-756,-776,-786,786,787,788]],"type":"Polygon","properties":{"name":"Terras de Bouro","shapeGroup":"PRT","gid":"PRT-2-263"},"id":"PRT-2-263"},{"arcs":[[-781,789,790,-787,-785,-783]],"type":"Polygon","properties":{"name":"Vila Verde","shapeGroup":"PRT","gid":"PRT-2-264"},"id":"PRT-2-264"},{"arcs":[[-780,791,792,793,794,795,796,-790]],"type":"Polygon","properties":{"name":"Ponte de Lima","shapeGroup":"PRT","gid":"PRT-2-265"},"id":"PRT-2-265"},{"arcs":[[-759,797,798,-792,-779]],"type":"Polygon","properties":{"name":"Viana do Castelo","shapeGroup":"PRT","gid":"PRT-2-266"},"id":"PRT-2-266"},{"arcs":[[-788,-791,-797,799,800]],"type":"Polygon","properties":{"name":"Ponte da Barca","shapeGroup":"PRT","gid":"PRT-2-267"},"id":"PRT-2-267"},{"arcs":[[-793,-799,801,802]],"type":"Polygon","properties":{"name":"Caminha","shapeGroup":"PRT","gid":"PRT-2-268"},"id":"PRT-2-268"},{"arcs":[[-794,-803,803,804,805]],"type":"Polygon","properties":{"name":"Vila Nova de Cerveira","shapeGroup":"PRT","gid":"PRT-2-269"},"id":"PRT-2-269"},{"arcs":[[-795,-806,806,807,808]],"type":"Polygon","properties":{"name":"Paredes de Coura","shapeGroup":"PRT","gid":"PRT-2-270"},"id":"PRT-2-270"},{"arcs":[[-796,-809,809,810,811,-800]],"type":"Polygon","properties":{"name":"Arcos de Valdevez","shapeGroup":"PRT","gid":"PRT-2-271"},"id":"PRT-2-271"},{"arcs":[[-805,812,813,-807]],"type":"Polygon","properties":{"name":"Valenca","shapeGroup":"PRT","gid":"PRT-2-272"},"id":"PRT-2-272"},{"arcs":[[-808,-814,814,815,-810]],"type":"Polygon","properties":{"name":"Moncao","shapeGroup":"PRT","gid":"PRT-2-273"},"id":"PRT-2-273"},{"arcs":[[-811,-816,816]],"type":"Polygon","properties":{"name":"Melgaco","shapeGroup":"PRT","gid":"PRT-2-274"},"id":"PRT-2-274"},{"arcs":[[817,818]],"type":"Polygon","properties":{"name":"Lajes das Flores","shapeGroup":"PRT","gid":"PRT-2-275"},"id":"PRT-2-275"},{"arcs":[[-818,819]],"type":"Polygon","properties":{"name":"Santa Cruz das Flores","shapeGroup":"PRT","gid":"PRT-2-276"},"id":"PRT-2-276"},{"arcs":[[820]],"type":"Polygon","properties":{"name":"Corvo","shapeGroup":"PRT","gid":"PRT-2-277"},"id":"PRT-2-277"},{"arcs":[[821]],"type":"Polygon","properties":{"name":"Horta","shapeGroup":"PRT","gid":"PRT-2-278"},"id":"PRT-2-278"},{"arcs":[[822,823,824]],"type":"Polygon","properties":{"name":"Lajes do Pico","shapeGroup":"PRT","gid":"PRT-2-279"},"id":"PRT-2-279"},{"arcs":[[-824,825,826]],"type":"Polygon","properties":{"name":"Sao Roque do Pico","shapeGroup":"PRT","gid":"PRT-2-280"},"id":"PRT-2-280"},{"arcs":[[-823,827,-826]],"type":"Polygon","properties":{"name":"Madalena","shapeGroup":"PRT","gid":"PRT-2-281"},"id":"PRT-2-281"},{"arcs":[[828,829]],"type":"Polygon","properties":{"name":"Calheta","shapeGroup":"PRT","gid":"PRT-2-282"},"id":"PRT-2-282"},{"arcs":[[-830,830]],"type":"Polygon","properties":{"name":"Velas","shapeGroup":"PRT","gid":"PRT-2-283"},"id":"PRT-2-283"},{"arcs":[[831]],"type":"Polygon","properties":{"name":"Santa Cruz da Graciosa","shapeGroup":"PRT","gid":"PRT-2-284"},"id":"PRT-2-284"},{"arcs":[[832,833]],"type":"Polygon","properties":{"name":"Praia da Vitoria","shapeGroup":"PRT","gid":"PRT-2-285"},"id":"PRT-2-285"},{"arcs":[[-834,834]],"type":"Polygon","properties":{"name":"Angra do Heroismo","shapeGroup":"PRT","gid":"PRT-2-286"},"id":"PRT-2-286"},{"arcs":[[835,836,837]],"type":"Polygon","properties":{"name":"Nordeste","shapeGroup":"PRT","gid":"PRT-2-287"},"id":"PRT-2-287"},{"arcs":[[-837,838,839,840]],"type":"Polygon","properties":{"name":"Povoacao","shapeGroup":"PRT","gid":"PRT-2-288"},"id":"PRT-2-288"},{"arcs":[[-840,841,842,843]],"type":"Polygon","properties":{"name":"Vila Franca do Campo","shapeGroup":"PRT","gid":"PRT-2-289"},"id":"PRT-2-289"},{"arcs":[[-838,-841,-844,844,845,846]],"type":"Polygon","properties":{"name":"Ribeira Grande","shapeGroup":"PRT","gid":"PRT-2-290"},"id":"PRT-2-290"},{"arcs":[[-843,847,848,-845]],"type":"Polygon","properties":{"name":"Lagoa","shapeGroup":"PRT","gid":"PRT-2-291"},"id":"PRT-2-291"},{"arcs":[[-846,-849,849]],"type":"Polygon","properties":{"name":"Ponta Delgada","shapeGroup":"PRT","gid":"PRT-2-292"},"id":"PRT-2-292"},{"arcs":[[850]],"type":"Polygon","properties":{"name":"Vila do Porto","shapeGroup":"PRT","gid":"PRT-2-293"},"id":"PRT-2-293"},{"arcs":[[851,852,853]],"type":"Polygon","properties":{"name":"Santa Cruz","shapeGroup":"PRT","gid":"PRT-2-294"},"id":"PRT-2-294"},{"arcs":[[-853,854,855]],"type":"Polygon","properties":{"name":"Machico","shapeGroup":"PRT","gid":"PRT-2-295"},"id":"PRT-2-295"},{"arcs":[[-852,856,857,858]],"type":"Polygon","properties":{"name":"Funchal","shapeGroup":"PRT","gid":"PRT-2-296"},"id":"PRT-2-296"},{"arcs":[[-855,-859,859,860,861]],"type":"Polygon","properties":{"name":"Santana","shapeGroup":"PRT","gid":"PRT-2-297"},"id":"PRT-2-297"},{"arcs":[[-858,862,863,864,-860]],"type":"Polygon","properties":{"name":"Camara de Lobos","shapeGroup":"PRT","gid":"PRT-2-298"},"id":"PRT-2-298"},{"arcs":[[-864,865,866,867]],"type":"Polygon","properties":{"name":"Ribeira Brava","shapeGroup":"PRT","gid":"PRT-2-299"},"id":"PRT-2-299"},{"arcs":[[-861,-865,-868,868,869,870]],"type":"Polygon","properties":{"name":"Sao Vicente","shapeGroup":"PRT","gid":"PRT-2-300"},"id":"PRT-2-300"},{"arcs":[[-867,871,872,-869]],"type":"Polygon","properties":{"name":"Ponta do Sol","shapeGroup":"PRT","gid":"PRT-2-301"},"id":"PRT-2-301"},{"arcs":[[-873,873,874]],"type":"Polygon","properties":{"name":"Calheta","shapeGroup":"PRT","gid":"PRT-2-302"},"id":"PRT-2-302"},{"arcs":[[-870,-875,875]],"type":"Polygon","properties":{"name":"Porto Moniz","shapeGroup":"PRT","gid":"PRT-2-303"},"id":"PRT-2-303"},{"arcs":[[876]],"type":"Polygon","properties":{"name":"Porto Santo","shapeGroup":"PRT","gid":"PRT-2-304"},"id":"PRT-2-304"},{"arcs":[[-107,-133,-115,-109,877]],"type":"Polygon","properties":{"name":"Viana do Alentejo","shapeGroup":"PRT","gid":"PRT-2-305"},"id":"PRT-2-305"},{"arcs":[[-84,-108,-878,-98]],"type":"Polygon","properties":{"name":"Alvito","shapeGroup":"PRT","gid":"PRT-2-306"},"id":"PRT-2-306"},{"arcs":[[-213,-229,878,-243,-245,-234,-223,-217,-215]],"type":"Polygon","properties":{"name":"Monforte","shapeGroup":"PRT","gid":"PRT-2-307"},"id":"PRT-2-307"},{"arcs":[[-228,-233,-244,-879]],"type":"Polygon","properties":{"name":"Fronteira","shapeGroup":"PRT","gid":"PRT-2-308"},"id":"PRT-2-308"},{"arcs":[[-668,-702,879,-717,-688]],"type":"Polygon","properties":{"name":"Valongo","shapeGroup":"PRT","gid":"PRT-2-309"},"id":"PRT-2-309"},{"arcs":[[-701,-707,-716,-718,-880]],"type":"Polygon","properties":{"name":"Maia","shapeGroup":"PRT","gid":"PRT-2-310"},"id":"PRT-2-310"}]}}}