{"type":"Topology","arcs":[[[1789,4941],[0,-292],[-94,-128],[-1,-21],[-135,-188]],[[1559,4312],[-457,0],[0,208],[-140,0],[0,8],[-266,0]],[[696,4528],[-9,45],[34,33],[-12,69],[-22,25],[-42,-5],[-23,22],[9,61]],[[631,4778],[426,0],[44,-11],[0,368],[52,0],[0,53],[91,0],[0,-63],[151,0]],[[1395,5125],[164,3],[0,-187],[230,0]],[[1395,5125],[0,322]],[[1395,5447],[453,0]],[[1848,5447],[43,-51],[-5,-19],[56,-34],[5,-140],[58,-52],[62,-25],[59,4]],[[2126,5130],[-337,-189]],[[1100,860],[-865,0]],[[235,860],[-51,89],[77,32],[65,39],[34,106],[-2,35],[-36,56],[-10,44],[25,76],[-11,36],[15,42],[-18,87],[-19,53],[-77,72],[-11,64],[-24,17],[-51,71],[-4,27]],[[137,1806],[168,0],[0,-6],[348,0],[201,2],[19,10],[41,-33],[26,25],[163,-3]],[[1103,1801],[0,-249],[-60,0],[0,-121],[-33,0],[0,-122],[27,0],[0,-81],[63,0],[0,-368]],[[2244,3146],[-14,-20],[12,-62]],[[2242,3064],[-49,1]],[[2193,3065],[-39,85]],[[2154,3150],[83,44]],[[2237,3194],[7,-48]],[[2091,3078],[-41,29],[-49,-1],[11,-73],[-31,18],[-57,5],[3,39],[-104,10],[6,65],[-136,13]],[[1693,3183],[-134,12],[-16,21],[0,279]],[[1543,3495],[0,284],[-33,34],[34,16],[0,31]],[[1544,3860],[0,15]],[[1544,3875],[7,-11],[143,-82],[64,12],[232,0]],[[1990,3794],[-21,-240],[7,-208],[114,-230]],[[2090,3116],[1,-38]],[[2154,3150],[-64,-34]],[[1990,3794],[-35,173],[28,32],[113,96],[25,8],[114,-52],[164,2]],[[2399,4053],[-12,-53],[-24,-24],[-62,-6],[-19,-27],[-51,-11],[-17,-47],[0,-83],[29,3],[-33,-102],[-43,-85],[7,-28],[44,-44],[-5,-43],[57,-50]],[[2270,3453],[-100,0],[31,-158],[36,-101]],[[631,4778],[-7,29],[22,26],[34,8],[-17,52],[23,46],[38,25],[12,84],[-9,33],[2,66],[-21,73],[29,17],[19,-64],[48,36],[40,61],[17,105],[16,49],[-27,33],[130,57],[11,46],[45,-18],[59,39],[37,-26],[76,61],[3,54],[18,38],[61,39],[15,52]],[[1305,5799],[27,-46],[0,-44],[63,-128],[0,-134]],[[2126,5130],[61,14],[73,-2],[32,-12],[66,-59],[99,-47],[54,26],[27,-43],[-35,-71],[-35,-12],[3,-43],[23,-55],[152,84],[44,46],[26,-8],[-222,-125],[16,-90],[-1,-47],[26,-69],[-6,-37],[-69,-63],[-28,-38],[-3,-65],[-33,-31],[50,-18],[24,20]],[[2470,4385],[2,-76],[-80,0],[-50,39],[-26,0],[-30,-28],[-52,10],[-14,-19],[-266,-2],[-395,2]],[[1559,4311],[0,1]],[[1559,4311],[-21,-50],[-26,-164],[-37,-102],[7,-28],[62,-92]],[[1544,3860],[-532,0],[0,15],[-488,0]],[[524,3875],[-17,33],[44,39],[26,-6],[54,-41],[26,24],[-4,32],[56,92],[-35,33],[-16,-38],[-35,-1],[-65,-44],[-26,2],[-38,32],[-38,57],[-20,75],[13,33],[-18,120],[26,50],[37,24],[-28,113],[10,52],[31,15],[34,68],[29,0],[42,-49],[18,-47],[-16,-28],[37,-25],[45,38]],[[508,3458],[0,-35],[-38,7],[-52,-88],[0,-35],[78,-39],[9,-70],[3,-450]],[[508,2748],[-398,-3],[-74,13]],[[36,2758],[6,90],[17,33],[-14,117],[5,24],[-17,57],[-4,77],[10,45],[-19,30],[6,45],[-26,30],[21,34],[-5,33],[28,123],[15,35],[-33,55],[74,82],[46,7],[31,-47],[9,-58],[30,-34],[6,-82],[46,-16]],[[268,3438],[1,-35],[91,-4],[94,58],[54,1]],[[508,3458],[127,-39],[212,-107],[140,5],[65,15],[70,0]],[[1122,3332],[0,-446]],[[1122,2886],[0,-149],[-317,0]],[[805,2737],[-183,0],[0,11],[-114,0]],[[1122,2886],[443,0]],[[1565,2886],[3,-36],[93,-164],[10,-55]],[[1671,2631],[3,-21],[50,-112],[0,-71]],[[1724,2427],[-358,-140],[-59,-43]],[[1307,2244],[-48,-36],[-62,93],[-155,77],[-237,54]],[[805,2432],[0,305]],[[1693,3183],[3,-161]],[[1696,3022],[3,-137],[-134,1]],[[1122,3332],[56,0],[48,-19],[65,83],[26,-27],[31,19],[0,56],[23,51],[172,0]],[[805,2432],[3,-284],[-69,-31],[-590,3]],[[149,2120],[-21,41],[-57,46],[-9,42],[11,50],[4,89],[-28,87],[5,84],[-13,29],[9,69],[-14,101]],[[137,1806],[6,86],[11,36],[36,49],[-9,68],[-32,75]],[[1307,2244],[88,-35]],[[1395,2209],[0,-407],[-292,-1]],[[1100,860],[0,-1]],[[1100,859],[0,-847]],[[1100,12],[-57,-12],[-221,75],[-90,40],[-181,130],[-17,19],[-165,344],[-134,252]],[[2272,2121],[67,-69],[2,-22],[-50,-49],[-1,-252]],[[2290,1729],[-1,-383]],[[2289,1346],[-43,-80],[-36,-15],[19,-37],[-16,-84],[-21,-30],[-2,-56]],[[2190,1044],[-75,-10],[-428,0]],[[1687,1034],[0,469],[453,503]],[[2140,2006],[12,3],[120,112]],[[1395,2209],[293,-74],[64,-45],[66,105],[157,-13]],[[1975,2182],[8,-4],[157,-172]],[[1687,1034],[-58,-9],[-114,-155],[-313,0],[0,-11],[-102,0]],[[2418,2135],[75,224],[12,169],[17,15]],[[2522,2543],[28,-21],[52,0]],[[2602,2522],[3,-28],[-30,-69],[2,-34],[28,-47],[-8,-30],[6,-75],[-6,-42],[10,-40],[-34,-67],[7,-58]],[[2580,2032],[-141,62],[21,40],[-42,1]],[[2290,1729],[52,10],[159,0]],[[2501,1739],[49,-14],[-92,-160],[-119,-181],[-50,-38]],[[2272,2121],[37,35],[45,-30],[64,9]],[[2580,2032],[1,-124],[43,6],[-21,61],[74,-2],[29,-22],[-117,-64],[-25,1],[-18,73],[-25,-7],[21,-94],[33,-3],[139,72],[1,-15],[-96,-45],[-14,-54],[-34,-14],[-14,-31],[-37,-8],[-19,-23]],[[1975,2182],[-83,96],[160,89]],[[2052,2367],[114,58]],[[2166,2425],[6,-10],[137,100],[62,32]],[[2371,2547],[121,54]],[[2492,2601],[30,-58]],[[1724,2427],[118,50],[2,12],[91,52]],[[1935,2541],[117,-174]],[[1696,3022],[116,-86],[151,-32]],[[1963,2904],[117,-49]],[[2080,2855],[-31,-31],[-8,-51]],[[2041,2773],[-76,-50],[-75,0],[-83,-29],[27,-22],[21,-58],[-37,-21],[-45,36],[-2,22],[-73,-2],[-27,-18]],[[2166,2425],[-130,193],[-5,-3]],[[2031,2615],[0,1],[119,73]],[[2150,2689],[48,-54],[23,23],[-42,48]],[[2179,2706],[33,20]],[[2212,2726],[1,0]],[[2213,2726],[95,-55]],[[2308,2671],[25,-25]],[[2333,2646],[26,-43]],[[2359,2603],[12,-56]],[[1963,2904],[75,35],[127,-1]],[[2165,2938],[1,-28]],[[2166,2910],[1,-53]],[[2167,2857],[1,-2]],[[2168,2855],[-88,0]],[[2150,2689],[29,17]],[[2168,2855],[36,-41]],[[2204,2814],[7,-8]],[[2211,2806],[-171,-105],[1,72]],[[2211,2806],[26,-51],[-25,-29]],[[2031,2615],[-96,-74]],[[2091,3078],[27,-52]],[[2118,3026],[17,-31]],[[2135,2995],[30,-57]],[[2193,3065],[-17,-10]],[[2176,3055],[-58,-29]],[[2251,2979],[4,72]],[[2255,3051],[48,-50]],[[2303,3001],[-4,-37],[-20,-22]],[[2279,2942],[-27,36]],[[2252,2978],[-1,1]],[[2286,2828],[-29,-6]],[[2257,2822],[3,35]],[[2260,2857],[1,0]],[[2261,2857],[20,0]],[[2281,2857],[5,-29]],[[2418,2625],[-34,47]],[[2384,2672],[58,31]],[[2442,2703],[30,-59]],[[2472,2644],[-54,-19]],[[2359,2603],[59,22]],[[2472,2644],[1,0]],[[2473,2644],[19,-43]],[[2333,2646],[50,26]],[[2383,2672],[1,0]],[[2354,2753],[4,22]],[[2358,2775],[44,18]],[[2402,2793],[3,4]],[[2405,2797],[-4,-30]],[[2401,2767],[-47,-14]],[[2442,2703],[-23,50]],[[2419,2753],[-18,14]],[[2401,2767],[14,62]],[[2415,2829],[21,15]],[[2436,2844],[65,-27]],[[2501,2817],[6,4]],[[2507,2821],[38,-140],[-72,-37]],[[2301,2882],[-56,1]],[[2245,2883],[-19,35]],[[2226,2918],[0,9]],[[2226,2927],[73,-34]],[[2299,2893],[2,-11]],[[2303,3001],[25,-69]],[[2328,2932],[-25,-28]],[[2303,2904],[-24,38]],[[2242,3064],[13,-13]],[[2251,2979],[-26,21],[-39,4]],[[2186,3004],[-10,51]],[[2186,3004],[-51,-9]],[[2303,2904],[-4,-11]],[[2226,2927],[26,51]],[[2186,3004],[13,-65]],[[2199,2939],[-34,-1]],[[2226,2927],[-26,12]],[[2200,2939],[-1,0]],[[2507,2821],[63,63],[65,-171],[-91,-35],[16,-64],[43,-44],[-1,-48]],[[2261,2857],[-16,26]],[[2301,2882],[21,-25]],[[2322,2857],[-41,0]],[[2260,2857],[-53,0]],[[2207,2857],[-1,49]],[[2206,2906],[20,12]],[[2200,2939],[3,-33]],[[2203,2906],[-37,4]],[[2203,2906],[3,0]],[[2207,2857],[-40,0]],[[2257,2822],[0,-3]],[[2257,2819],[-53,-5]],[[2257,2819],[25,-48]],[[2282,2771],[-45,-30]],[[2237,2741],[-24,-15]],[[2349,2723],[-40,0]],[[2309,2723],[2,32]],[[2311,2755],[43,-2]],[[2354,2753],[-5,-30]],[[2419,2753],[-23,-20],[-47,-10]],[[2282,2771],[29,-16]],[[2309,2723],[-45,0],[-27,18]],[[2383,2672],[-34,51]],[[2308,2671],[1,52]],[[2322,2857],[71,-14]],[[2393,2843],[-17,-11]],[[2376,2832],[-15,-10]],[[2361,2822],[-16,-11]],[[2345,2811],[-36,-23]],[[2309,2788],[-23,40]],[[2309,2788],[-27,-17]],[[2309,2788],[13,-7]],[[2322,2781],[-11,-26]],[[2322,2781],[36,-6]],[[2361,2822],[1,-22]],[[2362,2800],[-12,6]],[[2350,2806],[-5,5]],[[2350,2806],[-28,-25]],[[2362,2800],[24,13]],[[2386,2813],[16,-20]],[[2393,2843],[10,-12]],[[2403,2831],[-11,-11]],[[2392,2820],[-16,12]],[[2392,2820],[-6,-7]],[[268,3438],[28,17],[-3,28],[-39,42],[26,20],[-20,60],[-28,49],[-25,5],[14,61],[35,39],[-2,76],[-24,77],[-35,1],[-25,-18],[-39,23],[21,50],[66,29],[36,-4],[30,54],[61,5],[43,-24],[0,-35],[-29,-95],[-25,-23],[-3,-49],[34,-34],[-13,-72],[86,-48],[4,-40],[44,34],[0,117],[22,83],[16,9]],[[2403,2831],[5,0]],[[2408,2831],[-3,-34]],[[2436,2844],[50,4],[15,-31]],[[2408,2831],[7,-2]],[[2270,3453],[33,-74],[38,-21],[18,-47],[-46,0],[48,-99],[-40,-57]],[[2321,3155],[-77,-9]],[[2190,1044],[-12,-72],[-56,-87],[-26,-56],[-29,-103],[-18,-84],[-35,-18],[-76,12],[-6,-35],[-35,-34],[-21,-75],[2,-36],[-26,-78],[-48,-29],[-44,-51],[1,60],[-23,30],[1,55],[25,-9],[58,82],[-5,68],[-27,11],[-16,40],[-42,-5],[-22,-32],[-32,8],[-22,-18],[-37,119],[-19,-14],[-4,-76],[-47,22],[-31,-28],[-50,8],[-22,-27],[-27,4],[-30,-45],[-2,-33],[85,-28],[53,8],[61,-24],[14,-25],[40,-26],[30,35],[18,-31],[-28,-32],[-15,-48],[9,-78],[-6,-75],[-15,-24],[17,-50],[-106,1],[-136,-43],[-149,-26],[-45,-24],[-114,-16]],[[1305,5799],[42,-8],[20,23],[50,-23],[30,18],[18,38],[37,10],[76,-60],[97,-29],[153,-113],[-10,-58],[8,-31],[-11,-55],[33,-64]],[[2470,4385],[35,3],[24,-54],[-24,-65],[-15,-13],[-5,-63],[-101,5],[42,49],[-71,32],[-92,-37],[10,-22],[93,-9],[-26,-48],[15,-33],[54,-8],[-10,-69]],[[2365,3140],[62,3],[16,-45],[-30,-10],[-55,11],[7,41]],[[2321,3155],[-22,-41],[41,-15],[-16,-25]],[[2324,3074],[-20,-15],[-1,-58]],[[2324,3074],[18,-29],[-29,-47],[42,-9],[5,-53],[-32,-4]]],"transform":{"scale":[0.00033417271723121673,0.0002882493597404846],"translate":[50.75001199999999,24.470753399999957]},"objects":{"QAT":{"type":"GeometryCollection","geometries":[{"arcs":[[0,1,2,3,4]],"type":"Polygon","properties":{"name":"76","shapeGroup":"QAT","gid":"QAT-2-0"},"id":"QAT-2-0"},{"arcs":[[-5,5,6,7,8]],"type":"Polygon","properties":{"name":"77","shapeGroup":"QAT","gid":"QAT-2-1"},"id":"QAT-2-1"},{"arcs":[[9,10,11,12]],"type":"Polygon","properties":{"name":"96","shapeGroup":"QAT","gid":"QAT-2-2"},"id":"QAT-2-2"},{"arcs":[[13,14,15,16,17]],"type":"Polygon","properties":{"name":"68","shapeGroup":"QAT","gid":"QAT-2-3"},"id":"QAT-2-3"},{"arcs":[[18,19,20,21,22,23,24]],"type":"Polygon","properties":{"name":"71","shapeGroup":"QAT","gid":"QAT-2-4"},"id":"QAT-2-4"},{"arcs":[[-17,25,-24,26,27,28]],"type":"Polygon","properties":{"name":"70","shapeGroup":"QAT","gid":"QAT-2-5"},"id":"QAT-2-5"},{"arcs":[[-4,29,30,-6]],"type":"Polygon","properties":{"name":"78","shapeGroup":"QAT","gid":"QAT-2-6"},"id":"QAT-2-6"},{"arcs":[[-1,-9,31,32,33]],"type":"Polygon","properties":{"name":"75","shapeGroup":"QAT","gid":"QAT-2-7"},"id":"QAT-2-7"},{"arcs":[[-2,-34,34,-22,35,36]],"type":"Polygon","properties":{"name":"73","shapeGroup":"QAT","gid":"QAT-2-8"},"id":"QAT-2-8"},{"arcs":[[37,38,39,40]],"type":"Polygon","properties":{"name":"86","shapeGroup":"QAT","gid":"QAT-2-9"},"id":"QAT-2-9"},{"arcs":[[-38,41,42,43,44]],"type":"Polygon","properties":{"name":"85","shapeGroup":"QAT","gid":"QAT-2-10"},"id":"QAT-2-10"},{"arcs":[[-44,45,46,47,48,49,50]],"type":"Polygon","properties":{"name":"82","shapeGroup":"QAT","gid":"QAT-2-11"},"id":"QAT-2-11"},{"arcs":[[-20,51,52,-46,-43,53]],"type":"Polygon","properties":{"name":"80","shapeGroup":"QAT","gid":"QAT-2-12"},"id":"QAT-2-12"},{"arcs":[[-39,-45,-51,54,55]],"type":"Polygon","properties":{"name":"84","shapeGroup":"QAT","gid":"QAT-2-13"},"id":"QAT-2-13"},{"arcs":[[-12,56,-55,-50,57,58]],"type":"Polygon","properties":{"name":"83","shapeGroup":"QAT","gid":"QAT-2-14"},"id":"QAT-2-14"},{"arcs":[[-10,59,60,61]],"type":"Polygon","properties":{"name":"97","shapeGroup":"QAT","gid":"QAT-2-15"},"id":"QAT-2-15"},{"arcs":[[62,63,64,65,66,67]],"type":"Polygon","properties":{"name":"94","shapeGroup":"QAT","gid":"QAT-2-16"},"id":"QAT-2-16"},{"arcs":[[-13,-59,68,69,-67,70,-60]],"type":"Polygon","properties":{"name":"95","shapeGroup":"QAT","gid":"QAT-2-17"},"id":"QAT-2-17"},{"arcs":[[71,72,73,74]],"type":"Polygon","properties":{"name":"90","shapeGroup":"QAT","gid":"QAT-2-18"},"id":"QAT-2-18"},{"arcs":[[-64,75,76]],"type":"Polygon","properties":{"name":"93","shapeGroup":"QAT","gid":"QAT-2-19"},"id":"QAT-2-19"},{"arcs":[[-63,77,-75,78,-76]],"type":"Polygon","properties":{"name":"92","shapeGroup":"QAT","gid":"QAT-2-20"},"id":"QAT-2-20"},{"arcs":[[-68,-70,79,80,81,82,83,-72,-78]],"type":"Polygon","properties":{"name":"91","shapeGroup":"QAT","gid":"QAT-2-21"},"id":"QAT-2-21"},{"arcs":[[-49,84,85,-80,-69,-58]],"type":"Polygon","properties":{"name":"81","shapeGroup":"QAT","gid":"QAT-2-22"},"id":"QAT-2-22"},{"arcs":[[-47,-53,86,87,88,89]],"type":"Polygon","properties":{"name":"53","shapeGroup":"QAT","gid":"QAT-2-23"},"id":"QAT-2-23"},{"arcs":[[-82,90,91,92,93,94,95,96,97,98]],"type":"Polygon","properties":{"name":"56","shapeGroup":"QAT","gid":"QAT-2-24"},"id":"QAT-2-24"},{"arcs":[[-88,99,100,101,102,103]],"type":"Polygon","properties":{"name":"52","shapeGroup":"QAT","gid":"QAT-2-25"},"id":"QAT-2-25"},{"arcs":[[-93,104]],"type":"Polygon","properties":{"name":"58","shapeGroup":"QAT","gid":"QAT-2-26"},"id":"QAT-2-26"},{"arcs":[[-89,-104,105,106,107]],"type":"Polygon","properties":{"name":"54","shapeGroup":"QAT","gid":"QAT-2-27"},"id":"QAT-2-27"},{"arcs":[[-48,-90,-108,108,-94,-105,-92,109,-85]],"type":"Polygon","properties":{"name":"55","shapeGroup":"QAT","gid":"QAT-2-28"},"id":"QAT-2-28"},{"arcs":[[-81,-86,-110,-91]],"type":"Polygon","properties":{"name":"57","shapeGroup":"QAT","gid":"QAT-2-29"},"id":"QAT-2-29"},{"arcs":[[-19,110,111,112,-100,-87,-52]],"type":"Polygon","properties":{"name":"51","shapeGroup":"QAT","gid":"QAT-2-30"},"id":"QAT-2-30"},{"arcs":[[-16,113,114,-111,-25,-26]],"type":"Polygon","properties":{"name":"30","shapeGroup":"QAT","gid":"QAT-2-31"},"id":"QAT-2-31"},{"arcs":[[115,116,117,118,119]],"type":"Polygon","properties":{"name":"65","shapeGroup":"QAT","gid":"QAT-2-32"},"id":"QAT-2-32"},{"arcs":[[120,121,122,123,124]],"type":"Polygon","properties":{"name":"22","shapeGroup":"QAT","gid":"QAT-2-33"},"id":"QAT-2-33"},{"arcs":[[125,126,127,128]],"type":"Polygon","properties":{"name":"47","shapeGroup":"QAT","gid":"QAT-2-34"},"id":"QAT-2-34"},{"arcs":[[-83,-99,129,-129,130,131]],"type":"Polygon","properties":{"name":"50","shapeGroup":"QAT","gid":"QAT-2-35"},"id":"QAT-2-35"},{"arcs":[[-98,132,133,-126,-130]],"type":"Polygon","properties":{"name":"46","shapeGroup":"QAT","gid":"QAT-2-36"},"id":"QAT-2-36"},{"arcs":[[134,135,136,137,138]],"type":"Polygon","properties":{"name":"26","shapeGroup":"QAT","gid":"QAT-2-37"},"id":"QAT-2-37"},{"arcs":[[-128,139,140,141,142,143,144,145,-131]],"type":"Polygon","properties":{"name":"48","shapeGroup":"QAT","gid":"QAT-2-38"},"id":"QAT-2-38"},{"arcs":[[146,147,148,149,150]],"type":"Polygon","properties":{"name":"20","shapeGroup":"QAT","gid":"QAT-2-39"},"id":"QAT-2-39"},{"arcs":[[-118,151,152,153]],"type":"Polygon","properties":{"name":"63","shapeGroup":"QAT","gid":"QAT-2-40"},"id":"QAT-2-40"},{"arcs":[[-15,154,-116,155,156,-114]],"type":"Polygon","properties":{"name":"67","shapeGroup":"QAT","gid":"QAT-2-41"},"id":"QAT-2-41"},{"arcs":[[-112,-115,-157,157]],"type":"Polygon","properties":{"name":"31","shapeGroup":"QAT","gid":"QAT-2-42"},"id":"QAT-2-42"},{"arcs":[[-119,-154,158,-150,159]],"type":"Polygon","properties":{"name":"64","shapeGroup":"QAT","gid":"QAT-2-43"},"id":"QAT-2-43"},{"arcs":[[-113,-158,160,161]],"type":"Polygon","properties":{"name":"32","shapeGroup":"QAT","gid":"QAT-2-44"},"id":"QAT-2-44"},{"arcs":[[-120,-160,162,163,-161,-156]],"type":"Polygon","properties":{"name":"33","shapeGroup":"QAT","gid":"QAT-2-45"},"id":"QAT-2-45"},{"arcs":[[-73,-84,-132,-146,164]],"type":"Polygon","properties":{"name":"49","shapeGroup":"QAT","gid":"QAT-2-46"},"id":"QAT-2-46"},{"arcs":[[-124,165,-147,166,167]],"type":"Polygon","properties":{"name":"21","shapeGroup":"QAT","gid":"QAT-2-47"},"id":"QAT-2-47"},{"arcs":[[-123,168,169,170,-148,-166]],"type":"Polygon","properties":{"name":"37","shapeGroup":"QAT","gid":"QAT-2-48"},"id":"QAT-2-48"},{"arcs":[[-101,-162,-164,171,172]],"type":"Polygon","properties":{"name":"34","shapeGroup":"QAT","gid":"QAT-2-49"},"id":"QAT-2-49"},{"arcs":[[-102,-173,173,-170,174]],"type":"Polygon","properties":{"name":"36","shapeGroup":"QAT","gid":"QAT-2-50"},"id":"QAT-2-50"},{"arcs":[[-149,-171,-174,-172,-163]],"type":"Polygon","properties":{"name":"35","shapeGroup":"QAT","gid":"QAT-2-51"},"id":"QAT-2-51"},{"arcs":[[-103,-175,-169,-122,175,176,-106]],"type":"Polygon","properties":{"name":"38","shapeGroup":"QAT","gid":"QAT-2-52"},"id":"QAT-2-52"},{"arcs":[[-95,-109,-107,-177,177,178,179]],"type":"Polygon","properties":{"name":"39","shapeGroup":"QAT","gid":"QAT-2-53"},"id":"QAT-2-53"},{"arcs":[[180,181,182,183]],"type":"Polygon","properties":{"name":"41","shapeGroup":"QAT","gid":"QAT-2-54"},"id":"QAT-2-54"},{"arcs":[[-139,-141,184,-184]],"type":"Polygon","properties":{"name":"42","shapeGroup":"QAT","gid":"QAT-2-55"},"id":"QAT-2-55"},{"arcs":[[-179,185,-182,186]],"type":"Polygon","properties":{"name":"40","shapeGroup":"QAT","gid":"QAT-2-56"},"id":"QAT-2-56"},{"arcs":[[-127,-134,187,-185,-140]],"type":"Polygon","properties":{"name":"45","shapeGroup":"QAT","gid":"QAT-2-57"},"id":"QAT-2-57"},{"arcs":[[-97,188,-181,-188,-133]],"type":"Polygon","properties":{"name":"44","shapeGroup":"QAT","gid":"QAT-2-58"},"id":"QAT-2-58"},{"arcs":[[-96,-180,-187,-189]],"type":"Polygon","properties":{"name":"43","shapeGroup":"QAT","gid":"QAT-2-59"},"id":"QAT-2-59"},{"arcs":[[-125,-168,189,190,191,192,193,194]],"type":"Polygon","properties":{"name":"13","shapeGroup":"QAT","gid":"QAT-2-60"},"id":"QAT-2-60"},{"arcs":[[-121,-195,195,-178,-176]],"type":"Polygon","properties":{"name":"23","shapeGroup":"QAT","gid":"QAT-2-61"},"id":"QAT-2-61"},{"arcs":[[-196,196,197,-186]],"type":"Polygon","properties":{"name":"24","shapeGroup":"QAT","gid":"QAT-2-62"},"id":"QAT-2-62"},{"arcs":[[-135,-183,-198,198]],"type":"Polygon","properties":{"name":"25","shapeGroup":"QAT","gid":"QAT-2-63"},"id":"QAT-2-63"},{"arcs":[[-193,199,200,201]],"type":"Polygon","properties":{"name":"4","shapeGroup":"QAT","gid":"QAT-2-64"},"id":"QAT-2-64"},{"arcs":[[-194,-202,202,-197]],"type":"Polygon","properties":{"name":"14","shapeGroup":"QAT","gid":"QAT-2-65"},"id":"QAT-2-65"},{"arcs":[[-136,-199,-203,-201,203,204]],"type":"Polygon","properties":{"name":"15","shapeGroup":"QAT","gid":"QAT-2-66"},"id":"QAT-2-66"},{"arcs":[[-191,205,206,207]],"type":"Polygon","properties":{"name":"7","shapeGroup":"QAT","gid":"QAT-2-67"},"id":"QAT-2-67"},{"arcs":[[-192,-208,208,-204,-200]],"type":"Polygon","properties":{"name":"6","shapeGroup":"QAT","gid":"QAT-2-68"},"id":"QAT-2-68"},{"arcs":[[-21,-54,-42,-41,209,-36]],"type":"Polygon","properties":{"name":"72","shapeGroup":"QAT","gid":"QAT-2-69"},"id":"QAT-2-69"},{"arcs":[[-137,-205,-209,-207,210,211]],"type":"Polygon","properties":{"name":"18-19","shapeGroup":"QAT","gid":"QAT-2-70"},"id":"QAT-2-70"},{"arcs":[[-144,212]],"type":"Polygon","properties":{"name":"28","shapeGroup":"QAT","gid":"QAT-2-71"},"id":"QAT-2-71"},{"arcs":[[-138,-212,213,-142]],"type":"Polygon","properties":{"name":"27","shapeGroup":"QAT","gid":"QAT-2-72"},"id":"QAT-2-72"},{"arcs":[[-18,-29,214,215]],"type":"Polygon","properties":{"name":"69","shapeGroup":"QAT","gid":"QAT-2-73"},"id":"QAT-2-73"},{"arcs":[[-61,-71,-66,216]],"type":"Polygon","properties":{"name":"98","shapeGroup":"QAT","gid":"QAT-2-74"},"id":"QAT-2-74"},{"arcs":[[-7,-31,217]],"type":"Polygon","properties":{"name":"79","shapeGroup":"QAT","gid":"QAT-2-75"},"id":"QAT-2-75"},{"arcs":[[-23,-35,-33,218,-27]],"type":"Polygon","properties":{"name":"74","shapeGroup":"QAT","gid":"QAT-2-76"},"id":"QAT-2-76"},{"arcs":[[[219]],[[-14,-216,220,221,-117,-155]]],"type":"MultiPolygon","properties":{"name":"66","shapeGroup":"QAT","gid":"QAT-2-77"},"id":"QAT-2-77"},{"arcs":[[-222,222,-152]],"type":"Polygon","properties":{"name":"61","shapeGroup":"QAT","gid":"QAT-2-78"},"id":"QAT-2-78"}]}}}