{"type":"Topology","arcs":[[[22148,15638],[1,-131],[-33,-45],[-43,18],[-7,-122],[-31,-69],[-31,9],[-6,53],[-55,84],[47,9],[19,41],[-2,67],[75,-9],[33,45],[-24,70],[13,115],[40,9],[19,-71],[-15,-73]],[[20597,15223],[105,72],[11,32],[-29,68],[-36,-20],[-28,28],[59,54],[3,208],[-7,108],[-74,87],[-51,281],[0,103]],[[20550,16244],[232,-201],[95,-63],[144,-111],[70,2],[58,12],[82,-4],[29,39]],[[21260,15918],[107,-60],[134,-141],[117,-167],[155,-31],[-58,-81],[71,24],[28,-83],[35,-26],[-9,-24],[-1,-141],[24,-6],[31,38],[39,-32],[49,-2],[24,-33],[8,-56],[-31,-52],[44,-96]],[[22027,14949],[-23,-50],[-53,48],[-39,60],[-60,-39],[-83,-96],[-102,-71],[-20,-28],[-151,-11],[-123,-15],[-129,-32],[-56,12],[-26,36],[-44,-83],[-188,-82],[-41,50],[-63,34],[-37,33],[-6,114],[12,56],[-21,119],[-115,159],[-62,60]],[[22027,14949],[69,-119],[43,-26],[37,-93],[-34,-12],[-73,82],[-27,-10],[16,-48],[56,-50],[50,-93],[34,-21],[30,-57]],[[22228,14502],[3,-133],[38,-268],[98,-92],[-174,-153],[-161,-58],[-175,-85],[23,-132],[276,-330],[54,-1140],[683,-572],[-18,-881],[359,-1292],[755,29],[360,-1966],[-17,-686],[320,-2074]],[[24652,4669],[-1776,0],[-693,0],[-648,0],[-416,0],[-2599,-1],[-170,0]],[[18350,4668],[103,242],[826,1931],[-400,516],[-28,33]],[[18851,7390],[16,270],[11,213],[-10,18],[-66,16],[-39,28],[38,101],[21,135],[28,63],[43,68],[49,116],[78,15],[37,40],[98,87],[47,29],[65,27],[36,36],[81,55],[-158,-2],[-91,-12],[-84,29],[-69,-3],[-41,-13],[-70,60],[-93,68],[-31,50],[31,136],[59,122],[17,102],[41,87],[55,95],[23,24],[31,69],[6,52],[41,81],[-11,64],[27,75],[-4,54],[36,130],[11,71],[-3,35],[14,108],[26,111],[-9,30],[8,51],[-18,48],[19,126],[-7,46]],[[19140,10601],[15,163],[18,79],[2,59],[-10,173],[-15,59],[17,135],[28,99],[22,173],[-11,83],[-16,51],[2,58],[20,28],[-5,104],[-17,31],[-11,101],[32,56],[26,88],[-13,119],[-15,39],[-41,65],[4,28],[-16,68],[14,30],[-13,68],[-32,43],[-39,78],[-30,38],[-28,59],[-44,190],[-56,-35],[-77,-34],[-61,-3],[-153,-34]],[[18637,12860],[7,26],[-15,85],[16,15],[13,55],[-6,123],[-13,89],[15,55],[4,80],[-46,80],[-12,55],[-36,51],[-46,18],[-52,62]],[[18466,13654],[35,63],[11,68],[-23,83],[66,48],[149,131],[-48,84],[-22,15],[10,37],[-20,49],[31,41],[-54,103],[-81,133],[26,160],[15,59],[63,42],[-4,19],[-49,37],[26,51],[3,49],[-82,65],[-29,38],[6,74],[-7,82],[-71,126],[11,36],[35,15],[9,57],[-24,90],[-32,67],[-27,100]],[[18389,15676],[37,49],[85,21],[63,-9],[107,-49]],[[18681,15688],[59,-26],[37,63],[22,61],[51,-30],[29,-31],[13,62],[57,17],[16,34],[59,17],[187,16],[55,-43],[11,70],[27,56],[-23,88],[23,7],[76,-23],[44,14],[59,-10],[88,48],[28,28],[26,-26],[119,-5],[6,66],[66,14],[59,-58],[-34,-15],[-22,-49],[-14,-65],[107,-81],[31,-31],[49,-16],[14,-21],[-93,-81],[-46,-59],[53,-59],[8,-28],[-16,-45],[51,-55],[1,-86],[39,-19],[112,-10],[88,-18],[34,14],[60,-15],[4,57],[27,36],[11,-98],[-24,-77],[50,-37],[90,-16],[142,0]],[[22228,14502],[46,-17],[3,-45],[30,-22],[20,-42],[48,2],[-28,42],[31,9],[7,-42],[55,-57],[30,-5],[63,-62],[23,-93],[31,-71],[2,-43],[-18,-39],[15,-50],[40,-54],[-2,-53],[-18,-21],[20,-82],[36,-26],[34,-43],[31,-64],[27,-28],[33,-59],[-1,-53],[78,-62],[1,-46],[28,-49],[-5,-32],[38,-115],[25,40],[30,2],[87,-156],[78,-157],[93,-67],[146,-53],[304,23],[72,57],[69,120],[-3,27],[41,13],[25,-52],[38,1],[24,-31],[-46,-21],[-77,-51],[0,-30],[-56,-66],[-19,1],[-59,-64],[-21,-102],[-36,-29],[8,-25],[-12,-51],[26,-15],[27,16],[57,-9],[37,44],[33,18],[114,-32],[36,-38],[32,-51],[77,5],[2,-201],[237,-311],[228,-305],[343,-466],[588,-796],[1057,-135],[671,-90],[525,-71],[503,-70],[845,-120],[101,122],[384,-666],[46,-86],[74,-123],[141,-245],[-164,-546],[-100,-342],[-116,-379],[-71,-239],[-16,-64],[-161,-541],[-101,-334],[-210,-716],[-501,-187],[-540,-202],[-533,-199],[-564,-211],[-797,-298],[-696,-261],[-593,-222]],[[24658,4143],[-6,526]],[[18681,15688],[23,70],[95,331],[66,54],[27,43],[47,32],[-29,106],[14,51],[-16,74],[-58,52],[-19,89],[-20,38],[16,77],[-23,82],[67,95],[23,82],[-10,38],[17,141],[6,96],[-25,78],[-12,103],[9,11],[124,-60],[101,27],[141,-2],[12,21],[3,87],[-5,197],[8,43],[-1,93],[-48,91],[-3,74]],[[19211,18002],[-1,114],[5,144],[108,0],[71,-70],[63,2],[3,-64],[151,-2],[37,-30],[44,-5],[78,-49],[51,-19],[101,-113],[28,-17],[36,-64],[41,-11],[28,-25],[59,27],[105,-166],[93,-122]],[[20312,17532],[84,-245],[26,-151],[-1,-207],[-7,-101],[-11,-41],[-41,-54],[-38,-73],[91,-150],[90,-162],[45,-104]],[[21494,16308],[16,9],[11,56],[-9,44],[126,8]],[[21638,16425],[84,-2],[89,-25],[6,-43],[-28,-66],[32,-35]],[[21821,16254],[29,-10],[19,-105],[73,9],[20,-22],[-21,-65],[-48,6],[7,-65],[24,-21],[14,-41],[-77,-25],[-67,58],[-56,32],[-18,29],[-64,58],[-50,34],[-25,58],[-96,88],[9,36]],[[21638,16425],[-82,88],[47,32],[80,15]],[[21683,16560],[89,-5],[61,-50],[19,-34],[67,-82],[24,-38],[43,-27],[-5,-35],[-51,8],[-37,-29],[-25,47],[1,27],[-27,44],[-23,-44],[2,-88]],[[20312,17532],[25,44],[135,75],[61,21]],[[20533,17672],[30,-26],[52,-9],[94,17],[80,-37],[30,-61],[34,-15],[-24,-59],[-36,11],[-17,-22],[-35,23],[-56,0],[-27,-33],[-25,13],[-27,-30],[49,-9],[38,-39],[35,-18],[32,18],[52,5],[-44,-70],[-33,-25],[33,-24],[63,45],[33,-11],[12,-50],[2,-193],[36,-34],[31,13],[-6,33],[35,11],[29,-33],[-9,-19],[-48,-20],[-5,-36],[25,-23],[53,15],[20,36],[29,-41],[70,28],[-11,40],[54,53],[-47,52],[-40,15],[17,43],[-9,29],[-33,-2],[20,63],[25,36],[87,15],[46,-40],[144,-33],[-53,-13],[-4,24],[-73,-20],[-22,-17],[-26,54],[-33,15],[-47,-21],[-16,-51],[29,-68],[44,-16],[13,-64],[-31,-12],[39,-40],[32,-93],[22,-38],[49,-28],[26,-62],[30,12],[0,-73],[45,-47],[116,-89],[91,-35],[61,-32]],[[21494,16308],[-40,-80],[-44,-65],[-150,-245]],[[19211,18002],[-111,-10],[-56,11],[-24,-11],[-80,76],[-30,-41],[-47,-6],[-49,10],[-40,29],[-14,64],[-65,6],[-89,-6],[-66,-32],[-55,3]],[[18485,18095],[-3,65],[25,91],[4,45],[28,72],[-23,47],[-20,84],[0,62],[-96,12],[9,85],[25,68],[33,63],[49,62],[69,53],[32,49],[12,61],[-33,20],[2,58],[-19,59],[-49,105],[-90,73],[-13,83],[3,55],[15,11]],[[18445,19478],[19,-75],[44,-41],[25,-53],[77,-83],[-6,-30],[1023,16],[52,-46],[48,-17],[-2,-88],[61,-58],[-18,-21],[-25,-72],[39,-98],[47,-37],[79,-95],[-22,-25],[-8,-93],[19,-60],[59,-62],[2,-23],[41,-24],[125,-26],[-8,-22],[-41,-8],[-1,-45],[22,-14],[43,-62],[41,-4],[0,-50],[85,-57],[6,-23],[-20,-62],[23,-21],[-21,-33],[-26,39],[19,33],[-25,39],[-34,24],[-31,-44],[4,-49],[-35,-95],[37,22],[7,-44],[52,-37],[9,-22],[-13,-93],[69,-8],[-5,-44],[37,4],[23,54],[43,26],[39,-23],[45,-56],[35,-22],[30,2]],[[18485,18095],[-497,-191],[-346,185],[-55,-30],[-212,-255],[-343,-180],[-752,-140],[-62,4],[-114,-22],[-129,-56],[8,-67],[-21,-91],[-2,-93],[30,-39],[-40,-70],[29,-99],[-16,-20],[-22,-106],[-52,-28]],[[15889,16797],[-38,34],[-22,44],[-50,27],[-43,8],[-171,95],[-2,14],[51,82],[-45,57],[-51,5],[-44,-26],[-66,-6],[-42,15],[-86,1],[-91,28],[-39,-2],[-85,84],[-36,22],[-28,48],[-29,83],[4,114],[-49,53],[1,74],[16,71],[-50,119],[-47,30],[-17,26],[-47,-5],[-45,-58],[-39,-34],[-46,1],[-38,-25]],[[14615,17776],[-118,71],[-113,87],[-55,172],[-27,28],[-1,248],[-6,5]],[[14295,18387],[79,15],[70,-87],[38,-57],[73,79],[15,37],[314,1069],[-4,62],[9,41],[-44,108],[20,42],[5,44],[-19,34],[-18,97],[19,58],[-14,43],[24,74],[49,30],[74,83],[51,41]],[[15036,20200],[285,-27],[204,-12],[290,-24],[134,-18],[235,-15],[617,-63],[75,20],[63,32],[57,13],[521,-63],[471,-60],[279,-35],[43,-52],[19,-51],[43,-55],[21,-44],[42,-58],[17,-95],[-7,-115]],[[18389,15676],[-29,54],[-12,64],[-38,66],[-22,8],[-35,-27],[-74,-18],[-97,29],[-52,-45],[-59,56],[-19,34],[-49,34],[-114,124],[-23,71],[-62,-18],[-35,37],[-61,-17],[-85,77],[-37,55],[-28,24],[-52,-66],[-76,19],[-73,-8],[-43,7],[-92,40],[-32,-46]],[[17090,16230],[-65,26],[-153,76],[-138,75],[-127,86],[-20,-40],[-61,34],[-43,60],[-5,45],[-22,3],[-43,-29],[-73,-67],[-57,-22],[-30,11],[-8,40],[-50,44],[-101,73],[-40,22],[-108,92],[-57,38]],[[11606,16380],[42,92],[24,-1],[70,27],[118,131],[45,21]],[[11905,16650],[53,-13],[50,6],[33,-31],[44,16],[67,48],[2,35],[66,-21],[176,30],[78,-52],[11,-54],[-42,-74],[-26,-65],[-32,-34],[-32,-62],[72,-81],[75,70],[91,13],[64,-28],[58,12],[54,-11],[132,-8],[50,-39],[18,-29],[3,-46],[-19,-60],[20,-26],[71,-20],[20,-26],[-7,-40],[9,-45],[-57,-35],[-26,-33],[14,-66],[-58,-25],[10,-33]],[[12947,15823],[-35,0],[-25,-29],[-54,-2],[-111,30],[-54,-4],[-49,15],[-76,46],[-11,29],[-101,6],[-39,18],[-50,3],[3,37],[-37,96],[-73,24],[-126,87],[-47,-53],[-87,-67],[-34,3],[-4,34],[-42,42],[-75,128],[-25,-2],[-43,-38],[-13,70],[-33,75],[-56,34],[-44,-25]],[[13298,14613],[22,24],[40,-34],[76,-1],[53,-12],[43,37],[49,14],[17,85],[-40,85],[-13,43],[-8,93],[-51,41],[-13,80],[14,37],[46,10]],[[13533,15115],[64,-39],[30,17],[76,3],[62,35],[128,-14]],[[13893,15117],[17,-38],[61,-9],[34,-30],[-6,-35],[33,-20],[-16,-37],[26,-57],[-38,-54],[34,-25],[-5,-27],[28,-71],[-64,-116]],[[13997,14598],[-31,40],[-25,-1],[-22,40],[-41,12],[-25,26],[-29,-23],[-141,3],[-36,-29],[-22,-77],[22,5],[3,-75],[26,-54],[47,-57],[-18,-40]],[[13705,14368],[-61,22],[-164,-78],[-94,-159],[-301,1]],[[13085,14154],[-23,42],[32,31],[-25,27],[80,69],[8,32],[-21,22]],[[13136,14377],[54,13],[49,52],[23,53],[38,54],[21,51],[-23,13]],[[14615,17776],[93,-37],[71,-52],[-125,-372],[-70,-659],[-41,31]],[[14543,16687],[-171,127],[-399,-53],[-47,-552],[13,-110]],[[13939,16099],[-57,-10],[-66,2],[-84,49],[-21,-11]],[[13711,16129],[-29,-5],[-75,96],[-60,-40],[-48,39],[-14,40],[-62,114],[-34,-3],[-60,-34],[-16,5],[-47,87],[54,20],[38,40],[5,27],[-24,41],[-27,14],[36,60],[11,39],[-29,18],[-45,-29],[-41,122],[-73,121],[-30,108],[10,55],[27,52],[-22,56],[-70,47],[-30,50],[44,23],[28,36],[-5,67],[-14,38],[-105,74],[-56,19],[-77,72],[-129,87],[23,31],[19,52],[-17,30],[-28,108]],[[12739,17906],[165,125],[301,74],[42,-26],[44,26],[71,10],[52,45],[44,24],[72,66],[46,28],[162,170],[-89,116],[5,19],[60,34],[119,128],[70,19]],[[13903,18764],[241,-255],[151,-122]],[[11069,15589],[-30,-26],[-67,-31],[-6,-22],[-91,-68],[-64,-86],[-29,-7],[-17,96],[-4,90]],[[10761,15535],[66,49],[47,76],[-43,9],[-27,45],[25,20],[10,39],[62,71],[5,22],[48,53],[3,36],[128,-37],[215,80],[114,64],[5,62]],[[11419,16124],[43,4],[34,-73],[36,-57],[0,-31],[-73,-15],[-1,-27]],[[11458,15925],[-25,-32],[-8,-44],[-24,-10],[-42,19],[-20,-11],[-26,-62],[-23,-21],[-70,-18],[-69,-61],[-78,-40],[-4,-56]],[[12189,15078],[-46,11],[-60,-79],[-34,4],[-104,83],[0,46],[-43,20]],[[11902,15163],[15,100],[20,25],[-16,28],[5,44],[-13,53],[30,112],[80,-56],[50,-83],[-30,-30],[23,-30],[17,-65],[69,-18],[49,-36],[71,5],[45,-7],[-15,-48],[-51,-32],[-62,-28],[0,-19]],[[12633,15430],[28,41],[35,-3],[51,-24],[52,11],[8,-34]],[[12807,15421],[2,-50],[-17,-39],[16,-67],[-21,-103]],[[12787,15162],[-46,-46],[-76,29]],[[12665,15145],[-18,45],[12,17],[6,88],[-14,15],[-18,120]],[[13298,14613],[12,53],[-49,35],[-18,55],[-87,112],[55,66],[-26,58],[19,32],[-24,21],[-4,119],[-15,32],[-33,3],[-20,65],[-36,40],[12,62],[109,66]],[[13193,15432],[236,112],[58,4],[120,-33]],[[13607,15515],[110,-16],[-3,-100],[33,-51],[15,-62]],[[13762,15286],[-15,-45],[-70,29],[-4,-43],[-19,-38],[-30,4],[-78,-45],[-13,-33]],[[11069,15589],[61,-26],[9,-20],[-37,-53],[-2,-21],[53,-76],[36,-30],[52,-18],[-15,-98],[143,-98],[66,-28],[56,-64],[88,-57]],[[11579,15000],[3,-58],[22,-48],[-44,-67],[-21,-52],[-97,-31],[38,-70],[-129,-44],[-43,-3],[-52,19],[-45,-51],[-65,-54],[-55,19],[-9,40],[4,79],[-15,43],[-29,8],[-82,-48],[-16,-26],[-17,-66],[47,-41],[2,-48],[-37,-50],[-24,-10],[-72,14],[-31,15],[-9,27],[-55,2],[-75,-13],[-56,-1],[-105,-35],[-38,12],[-170,-79],[129,-67],[102,-84],[45,-52],[75,-28],[30,53],[40,40],[183,-44],[35,-3],[65,-53],[-7,-71],[-74,-63],[-46,-12],[-92,-83],[-78,-50],[-9,-38],[32,-59]],[[10734,13769],[-24,-76],[-85,-54],[-9,-43]],[[10616,13596],[-118,268],[-140,105],[-48,0],[-47,-26],[-71,-1],[1,-26],[-164,27],[-166,158],[-22,52],[-48,80],[-93,131],[-47,52],[-71,54]],[[9582,14470],[28,130],[190,189],[161,-17],[23,68],[161,33],[-40,153],[112,-45],[52,-1],[101,54],[58,98],[0,28],[25,50],[95,51],[36,107]],[[10584,15368],[17,49],[160,118]],[[12189,15078],[26,-63],[26,-36],[47,-24],[15,-26],[-64,-69],[41,-42],[-13,-69],[32,-32],[12,-49],[-47,-116],[-22,-126],[-33,-67],[-27,-84],[-13,-75],[-43,-60],[1,-29],[-32,-31],[-24,-53],[-53,-74],[-8,-70],[-25,-27]],[[11985,13856],[-20,31],[-73,-29],[-99,50],[-98,-34],[-55,57],[-59,-12],[-29,41],[-51,-31],[-27,13],[-61,-41],[-83,10],[-7,98],[31,53],[-9,78],[-54,34],[-19,43],[-69,6],[-59,-29],[21,-98],[-4,-45],[-18,-32],[15,-78],[-64,-26],[36,-76],[-7,-25],[-69,-5],[-80,12],[-56,-51],[-31,-5],[-65,18],[-36,-31],[-52,17]],[[11579,15000],[-27,77],[17,48],[68,35],[37,-10],[64,38],[72,-35],[92,10]],[[13136,14377],[-34,23],[22,30],[-15,25],[-66,58],[-61,44],[-57,70],[-17,33],[79,-2],[26,10],[-41,62],[-73,95],[-42,8],[6,52],[29,17],[-22,101],[30,41],[-24,101],[-12,17]],[[12864,15162],[58,34],[19,57],[-14,47],[68,4]],[[12995,15304],[6,53],[32,-8],[32,70],[3,43]],[[13068,15462],[72,-3],[53,-27]],[[12947,15823],[27,-10],[38,-45],[9,-70],[26,-31],[-11,-51],[15,-25],[-28,-30],[22,-66],[23,-33]],[[12995,15304],[-38,57],[-68,21],[-52,33],[-30,6]],[[12633,15430],[-29,3],[-58,96],[-34,29],[9,38],[32,2],[8,88],[88,78],[-20,23],[-53,2],[-81,-22],[-104,7],[-17,-65],[-49,-24],[-54,19],[-83,44],[-85,-27],[-65,-28],[-83,-58],[-29,11],[-24,36],[-57,-7],[-37,11],[-51,-7],[-37,15],[-18,-14],[-39,14],[-106,115],[14,70],[-68,10],[-45,36]],[[11419,16124],[24,62],[36,38]],[[11479,16224],[61,65],[66,91]],[[11985,13856],[5,-21],[66,-36],[35,30],[52,-18],[58,-47],[28,37],[29,-27],[69,-31],[85,61],[53,46],[47,-4],[-2,50],[64,24],[39,-8]],[[12613,13912],[-72,-101],[-165,-132],[-164,-26],[-94,-131],[47,-32],[53,30],[38,2],[13,-48],[-96,-57],[-10,-29],[50,-77],[-71,-26],[-1,-28],[141,1],[-93,-264]],[[12189,12994],[-95,-80],[-188,54],[-187,-79],[0,-80],[-352,1],[-188,394],[-423,-25]],[[10756,13179],[-70,263],[-70,154]],[[11905,16650],[1,6],[164,53],[48,53],[24,51],[70,54],[95,184],[92,-52],[1,78],[23,27],[-23,26],[70,26],[118,106],[22,53],[-22,52],[-1,53],[-22,0],[-3,97]],[[12562,17517],[-21,140],[-11,110],[137,85],[72,54]],[[13711,16129],[25,-152],[13,-109],[-13,-82],[-63,-61],[-31,-61],[-63,-30],[26,-78],[2,-41]],[[12665,15145],[-61,28],[-82,-4],[13,-23],[1,-88],[45,-77],[-44,-17],[-61,-84],[-18,-46],[30,-56],[-33,-55],[-2,-88],[82,-42],[45,-53],[62,-110],[19,-98],[-21,-28],[-71,35],[-27,23],[-40,-7],[-33,-23],[-6,-71],[50,-88],[43,8],[38,-12],[26,37],[20,-59],[21,-6],[-8,-110],[5,-75]],[[12658,13956],[-45,-44]],[[13997,14598],[-8,-66]],[[13989,14532],[-63,-88],[-212,-79],[-9,3]],[[13762,15286],[100,-5],[14,-25],[36,0],[34,23],[21,-9],[47,-72],[1,-38],[-82,-15],[-40,-28]],[[12864,15162],[-77,0]],[[13085,14154],[-28,0],[-70,-79],[0,-106],[-23,-53],[-119,-26],[-69,26],[-48,79],[-70,-39]],[[13939,16099],[33,-286],[118,-421],[155,-233]],[[14245,15159],[267,-399],[-17,-54]],[[14495,14706],[-100,-315],[-133,66]],[[14262,14457],[-242,118],[-31,-43]],[[8977,16781],[-26,33],[5,50],[-27,35],[-90,19],[-21,29],[23,75],[-16,91],[4,34],[-43,86],[-123,81],[-269,73],[7,85],[24,24],[14,78],[-36,23],[-72,66],[-49,0],[-14,-23],[-61,30],[1,83],[-187,3],[17,-43],[-43,-31],[-24,-50],[-1,-74],[58,-158],[-48,-19],[-83,32],[-232,37]],[[7665,17450],[-34,69],[-4,63],[14,135],[-11,54],[-26,26],[-28,83],[-50,45],[-51,105],[-50,40]],[[7425,18070],[1859,1],[118,-46],[118,-32],[110,21],[86,-119],[18,-47],[31,17],[48,-1],[11,-61],[-19,-37],[-42,-122],[2,-46],[44,-83],[-85,-62],[-20,-26],[-51,-29],[-62,-48],[-12,-23],[43,-52],[-18,-36],[18,-39],[24,-7],[-19,-44],[44,-28],[24,-61],[21,-92],[-10,-41]],[[9706,16927],[-60,18],[-16,-36],[-69,-13],[-58,-2],[-56,24],[-61,-13],[-47,10],[-53,-11],[-73,-29],[-92,-25],[-23,-46],[-96,-8],[-25,-15]],[[12562,17517],[-36,-51],[-124,4],[-128,-29],[-112,-38],[-99,-6],[-187,-73],[-48,6],[-86,54],[-51,18],[-110,8],[-52,-20],[-52,-39],[-31,9],[-72,-13],[-61,51],[-59,75],[2,42],[-21,66],[-64,28],[-23,31],[-47,9],[-43,42],[-72,27]],[[10986,17718],[-129,35],[-19,12],[-15,67],[-36,40],[-84,-18],[-47,-3],[-55,-46],[-45,-11],[-33,-32],[-77,-19],[-44,-44],[-75,-28],[-5,53],[-24,63],[-35,62],[2,56],[23,42],[59,54],[89,108],[11,20],[51,31],[62,-5],[49,25],[9,79],[98,12],[-4,80],[12,103],[2,78],[-46,1],[-124,-42],[-39,97],[22,134],[-3,62],[2,199],[-33,31],[-68,27],[-36,32],[4,68],[-51,72],[39,45],[14,58],[62,22],[57,73],[-47,88],[-75,104],[-96,91],[-86,52],[-47,18],[-31,-6],[-207,26],[-21,25],[-62,15],[-92,-4]],[[9762,19820],[-7,49],[-25,81],[56,151],[8,82],[73,52],[96,31],[61,11],[60,-46]],[[10084,20231],[18,-18],[98,-29],[96,-16],[99,-7]],[[10395,20161],[156,-61],[156,1],[114,-52],[28,-64],[44,-70],[35,-29],[109,-117],[56,-105],[125,-10],[55,-18],[22,6],[74,-14],[42,-46],[-14,-59],[58,-46],[56,-72],[89,34],[43,-59],[91,-21],[32,-23],[7,-58],[-15,-27],[-15,-81],[20,-32],[35,-11],[41,-42],[76,-4],[27,-31],[49,-4],[61,-41],[73,-3],[41,-19],[30,-43],[33,41],[58,31],[27,32],[25,67],[66,76],[50,13],[59,-4],[45,-62],[76,-11],[47,-27],[111,-29],[95,-19],[76,-58],[45,3],[85,-36],[58,10],[52,43],[92,4],[29,27],[480,19],[98,-296]],[[7425,18070],[-246,162],[-65,68],[-98,41],[-95,5],[-123,-10],[-108,-1],[-154,23],[6,20],[87,15],[108,11],[112,34],[39,26],[25,50],[2,35],[-25,27],[-88,46],[-102,61],[-89,46],[-30,5],[-78,50],[28,52],[43,35],[69,78]],[[6643,18949],[115,50],[49,8],[90,-6],[63,17],[42,33],[113,35],[104,3],[136,59],[92,93],[122,77],[35,46],[55,33],[84,29],[99,23],[164,84],[92,51],[230,107],[126,47],[68,58],[47,20],[107,8],[45,-4]],[[8721,19820],[239,7],[177,-6],[235,-3],[60,4],[58,-10],[108,5],[52,8],[112,-5]],[[10986,17718],[-73,-21],[-30,14],[-50,-19],[-96,-95],[-87,-93],[-42,-7],[-43,-37],[-118,-15],[-71,-62],[44,-9],[56,-53],[6,-32],[-34,-70],[-52,-50],[20,-65],[7,-97],[16,-87],[-19,-15],[-9,-67],[-40,-17],[-84,-63],[95,-57],[35,-39],[14,-82]],[[10431,16580],[-64,-4],[-32,-37],[-20,-66],[-48,-32],[-125,-63],[-27,27],[-29,2],[-15,-33],[-69,4],[-12,69],[-45,45],[-87,17],[-31,126],[-27,37],[-34,14],[-59,-3],[-9,81],[19,24],[-34,21],[67,48],[-41,16],[-3,54]],[[11479,16224],[-1,50],[-50,39],[-53,26],[-93,11],[-28,-46],[-51,111],[-123,-16],[-19,-23],[-59,-6],[-80,10],[-81,55],[-14,87],[-22,38],[-42,39],[-29,73],[-32,-9],[-40,-31],[-6,-50],[-22,-13],[-65,-3],[-44,-31],[-23,-33],[-59,10]],[[10443,16512],[-12,68]],[[9582,14470],[-62,-62],[-44,10]],[[9476,14418],[-18,87],[-30,81],[6,82],[22,77],[-13,62],[-98,61],[2,131],[-11,37],[-149,194],[-30,69],[-61,57],[-83,64],[-52,21],[34,86],[-22,87],[-29,50],[-46,51],[7,39],[-16,72],[52,80],[8,29],[31,16]],[[8980,15951],[40,3],[79,27],[32,32],[50,1],[33,68],[14,59],[84,25],[1,19],[47,10],[44,34],[90,15],[49,-14],[75,-37],[80,-89],[47,-15],[129,-25],[68,-19],[21,22],[37,-14],[80,-9],[45,28],[66,-3],[82,-54]],[[10273,16015],[47,-76],[14,-46],[-10,-94],[2,-47],[-18,-62],[15,-21],[78,19],[18,-17],[-11,-45],[30,-49],[25,-16],[-21,-38],[-9,-83],[29,-31],[122,-41]],[[9476,14418],[-148,49],[-67,2],[-25,-11],[-173,110],[-38,3],[-66,-45],[-28,-5],[-55,-67],[-37,-27],[4,-46],[-33,-75],[-48,-22],[-95,3],[-83,-19],[-76,49],[-63,9],[-22,-73],[-39,-21],[51,-78],[-14,-74],[-137,58],[-29,23],[-50,7],[-21,-25],[-2,-38],[33,-49],[-31,-15],[-33,40],[-62,-1],[-25,44],[-11,74],[-112,4],[-16,-23],[-45,-4],[-35,-25]],[[7845,14150],[-56,56],[-89,10],[-38,-23]],[[7662,14193],[-24,40],[49,39],[9,35],[-22,33],[18,32],[3,79],[13,57],[-12,40],[7,87],[15,46],[5,84],[-7,31],[-45,51],[34,113],[-20,30],[-5,49],[29,71],[-25,19],[-7,71],[12,53],[5,88],[17,48],[-21,18],[-44,72],[-5,42],[-23,28]],[[7618,15549],[51,-6],[62,47],[37,-17],[90,-5],[38,-13],[58,13],[30,32],[-23,17],[32,49],[49,52],[8,31],[-3,89],[-12,95],[11,61],[165,85],[87,-9],[90,-39],[81,-1],[87,-66],[17,13],[-44,91],[-44,113],[-17,59],[-49,52],[9,66],[16,10],[84,-2],[25,-10],[49,27],[68,-26],[44,-59],[90,10],[64,68],[13,71]],[[8881,16447],[53,2],[41,-19],[46,-57],[19,-90],[-55,-41],[74,-44],[16,-52],[-61,-90],[-135,-2],[-26,-14],[2,-48],[16,-19],[109,-22]],[[10273,16015],[-9,35],[54,76],[52,33],[51,13],[40,-2],[32,33],[-3,62],[-50,96],[43,78],[-40,73]],[[8977,16781],[-31,-55],[13,-62],[-17,-90],[-18,-18],[-34,-68],[-9,-41]],[[7618,15549],[-39,48],[-19,55],[21,183],[-57,45],[-23,56],[-53,64],[-19,128],[-35,38],[-79,-12],[-24,18],[-7,56],[-7,158],[-7,49],[-45,0],[-22,21],[-84,-42],[-30,7]],[[7089,16421],[-8,16],[30,60],[31,34],[-1,94],[58,42],[-2,30],[34,86],[72,76],[-26,41],[-4,114],[-19,94],[-3,151],[58,94],[356,97]],[[10395,20161],[34,38],[65,17],[59,34],[31,32],[37,2],[63,46],[49,5],[40,38],[61,11],[31,38],[45,36],[57,21],[61,70],[41,29],[61,72],[64,111],[19,186],[13,65],[3,77],[-15,44],[-50,53],[9,64],[-16,112],[13,54],[-32,10],[6,34],[-26,29],[22,36],[-27,28],[74,37],[115,23],[34,15],[138,34],[27,29],[63,193],[28,27],[3,89],[57,39],[76,83],[68,35],[9,59],[48,40],[89,32]],[[11942,22288],[635,-515],[665,-544],[438,-363],[428,-357],[30,-32],[202,-173],[69,-53],[252,-15],[102,-12],[273,-24]],[[10872,23141],[-12,-104],[-36,-24],[-39,8],[-140,1],[-47,-18],[-58,21],[-27,-20],[-43,-75],[-18,-60],[22,-34],[13,-61],[-8,-32],[-70,-24],[-20,-55],[9,-44],[-35,-75],[11,-39],[-46,-14],[-146,-11],[-36,-53],[-31,-26],[-38,-6]],[[10077,22396],[-39,20],[-73,19],[-49,33],[-120,0],[-1,51],[-49,-3],[-40,-20],[-88,13],[-37,-16],[-58,6],[-71,-28],[-37,-71],[-44,-6],[-30,44],[-12,90],[22,76],[-32,82],[0,50],[-98,45],[-58,12],[-71,0],[-182,-19],[-131,-18],[-82,-21],[-81,14],[-80,28],[-24,0],[-94,53],[-158,37],[-57,18],[-49,-3],[-32,-68],[-40,-19],[-24,-41],[-38,-17],[-57,13],[-43,-11],[-37,11],[-42,38],[-5,24],[-59,6],[-30,18],[-34,47],[-104,50],[-17,33],[-85,-34]],[[7507,22932],[-48,29],[-4,76],[11,45],[-43,57],[4,30],[-32,28],[-28,62],[-59,87],[-77,61],[-8,22],[-99,162],[25,51],[51,48],[65,76],[25,17],[91,30],[94,54],[53,121],[7,28],[44,3],[20,30],[7,61],[62,61],[45,29],[74,28],[94,-22],[11,12],[21,148],[2,68],[-46,69],[63,33],[11,43],[-14,27],[11,51],[21,24]],[[7961,24681],[371,-73],[719,-448],[729,-461],[908,-413],[184,-145]],[[7507,22932],[-52,-34],[-32,-5],[-44,18],[-49,41],[-57,81],[-69,18],[-41,0],[-56,-21],[-13,12],[-73,-50]],[[7021,22992],[-43,-29],[-32,-1],[-58,25],[-21,42],[-26,16],[-73,4],[-131,31],[-139,-1],[-86,-12],[-72,0],[-44,-30],[-33,13],[-53,-24],[-58,-55],[-88,-9],[-35,-15],[-23,47],[-24,6]],[[5982,23000],[-32,17],[-77,-2],[-122,5],[-108,-39],[-117,-18],[-142,-13],[-73,-21],[-33,-38],[-42,7]],[[5236,22898],[-36,17],[-5,91],[-17,16],[-7,54],[30,67],[-12,48],[1,55],[51,105],[61,7],[45,53],[6,29],[-10,55],[-66,15],[-24,63],[-10,158],[3,28],[-29,97],[-149,63],[-178,123],[-13,39],[6,69],[34,47],[-31,43],[25,47]],[[4911,24287],[78,29],[618,172],[129,37],[614,166],[244,213],[30,30],[602,-113],[735,-140]],[[10084,20231],[31,47],[-41,42],[-8,129],[9,63],[-42,25],[-40,68],[-6,45],[-51,77],[10,99],[-8,59],[-41,-26],[-29,8],[-29,-36],[-38,95],[6,88],[-21,61],[10,126],[-28,8],[0,50],[97,33],[62,13],[9,31],[51,22],[0,35],[28,45],[66,23],[52,-18],[74,16],[15,28],[6,57],[14,29],[70,73],[28,16],[59,2],[115,31],[49,52],[-33,50],[-61,40],[-76,75],[-38,48],[-9,36],[-56,43],[-65,91],[-67,-4],[-55,-17],[-16,20],[-64,27],[-43,51],[-4,72],[67,53],[34,64]],[[10872,23141],[546,-433],[524,-420]],[[8721,19820],[2,39],[39,104],[28,40],[94,70],[25,57],[23,115],[30,286],[34,140],[21,44],[53,73],[-25,61],[-66,53],[-115,51],[-114,76],[-94,-9],[-154,-58],[-45,-13],[-71,31],[-105,0],[-109,12],[-168,-64],[-42,-2],[-74,48],[-65,64],[-62,85],[-17,40],[0,94],[-62,81],[-61,46],[-63,67],[-99,62],[-54,42],[-129,34],[-124,65],[-48,92],[-34,48],[-3,41],[-21,61],[-26,226],[32,119],[28,144],[35,84],[0,161],[15,34],[2,147],[38,59],[0,25],[-60,57],[-89,40]],[[5236,22898],[58,-83],[176,-140],[30,-29],[-77,-39],[-101,-35],[-108,20],[-113,6],[-58,13],[-65,-20],[-17,-23],[-11,-63],[11,-83],[25,-57],[39,-51],[-18,-79],[-26,-48],[-60,-52],[-75,-36],[-151,-92],[-116,-98],[-57,-71],[-62,-125],[-25,-87],[-27,-51],[-53,-52],[-82,-13],[-66,-85],[-39,-21]],[[4168,21404],[-57,-25],[-72,111]],[[4039,21490],[197,40],[22,66],[162,370],[41,89],[468,265],[-51,59],[-40,61],[-422,477],[-245,271],[-96,114],[-86,89],[-89,105],[-38,54],[-67,61],[-262,290],[245,71],[284,77],[30,12],[333,97],[55,14],[396,113],[35,2]],[[5982,23000],[2,-85],[-17,-291],[-12,-94],[118,33],[75,1],[54,-50],[11,-48],[34,-25],[51,13],[154,-12],[-2,-28],[61,1],[33,16],[5,-42],[25,-32],[30,-6],[11,-43],[54,-19],[-9,-49],[-24,-62],[-29,-122],[-13,-234],[-23,-217],[-18,-78],[-39,-34],[38,-78],[7,-65],[-97,28],[-53,-19],[-4,-41],[-65,-170],[-6,-58],[-54,-51],[45,-66],[33,-79],[-4,-31],[-43,-10],[-8,-20],[16,-68],[-8,-30],[23,-34],[-71,-47],[-7,-50],[5,-62],[-55,-21],[-21,-48],[-68,-14],[-49,-21],[-51,-83]],[[6017,20355],[-161,36],[-102,70],[-32,9],[-49,-89],[-38,-39],[-31,-50],[-49,-34],[-70,28],[-17,-54],[59,-78],[0,-24],[-60,-40],[-22,-67],[1,-67],[-49,12],[-29,-10],[-37,16],[-114,6],[3,127],[-9,44],[29,50],[9,39],[-31,47],[35,5],[54,87],[77,96],[4,27],[-46,57],[-78,52],[5,65],[-68,83],[-2,39],[-83,6],[-49,41],[-24,-2],[-35,28],[-41,-1],[-31,20],[-42,-16],[-13,-24],[-47,-20],[-74,-6],[-87,13],[-135,3],[3,58],[15,57],[-11,66],[17,63],[-34,42],[20,97],[-103,66],[-48,10],[-50,43],[-66,71],[-48,3],[-65,-12]],[[6643,18949],[-5,93],[17,129],[-17,113],[-20,54],[-24,23],[-76,-4],[-62,-19],[-36,-26],[-7,68],[-32,73],[-45,175],[-14,87],[-20,-2],[-35,41],[-22,3],[-29,38],[-23,-8],[-54,59],[-112,-8]],[[6027,19838],[2,70],[-10,39],[32,22],[-22,46],[-10,69],[4,255],[-6,16]],[[4358,14927],[27,-27],[69,-19],[53,4],[16,-26],[44,-14],[18,21],[68,-40],[31,-54]],[[4684,14772],[32,-52],[-2,-30],[-48,-70],[-59,-26],[-33,7],[-48,-96],[15,-40],[59,-69],[-13,-51],[30,-30],[43,-20],[1,-41],[-28,-19],[9,-34],[-21,-34],[8,-49],[-3,-62],[20,-41],[54,-79],[51,-13],[-4,-44],[-51,-91],[-2,-37],[28,-47],[88,-67],[-28,-32],[15,-64],[51,-80],[52,-1],[25,25],[60,-82]],[[4985,13403],[-11,-98],[-17,-18],[-55,18],[-34,26],[-33,-8],[-63,14],[-79,-58],[-63,-10],[-13,-25],[72,-54],[-12,-31],[-60,-41],[0,-46],[-53,37],[-154,19],[-8,-22],[-84,-4],[-39,35],[-45,3],[-63,-44],[-51,-100],[-79,-63]],[[4041,12933],[-28,71],[-40,27],[-26,66],[-54,41],[-48,17],[0,34],[-26,54],[33,14],[-4,42],[-24,16],[-56,-15],[-26,47],[13,24],[82,-23],[46,48],[14,31],[-22,33],[12,58],[36,44],[4,49],[-45,71],[-15,57],[28,28],[1,64],[-35,95],[-47,33],[-46,47],[-59,88],[-29,27],[-3,37],[-28,25],[3,45],[-23,31],[3,66],[-53,42],[-9,21],[-47,27],[1,74],[-36,11],[-10,81],[-29,28],[-31,56],[-39,7],[-73,96],[-52,25],[-1,-42],[-32,11],[-28,34],[-27,-3],[-36,45],[-4,34],[-29,17],[-35,70],[-23,7]],[[3039,14966],[53,45],[74,-3],[48,16],[107,-11],[57,42],[26,-13],[56,16],[66,-13],[18,-28],[38,-9],[42,-38],[48,-10],[88,-50],[64,0],[61,12],[28,-33],[47,2],[-6,37],[41,13],[31,-18],[47,17],[29,-79],[54,-16],[22,-23],[97,14],[47,29],[36,62]],[[2868,14600],[-38,-5],[-36,49],[43,20],[31,-64]],[[3299,14470],[-18,19],[33,41],[23,-26],[-38,-34]],[[3671,13574],[-2,-29],[-52,26],[9,34],[45,-31]],[[7089,16421],[-42,12],[-56,-2],[-37,38],[-52,-30],[-62,-51],[-112,20],[-146,42],[-37,2],[-64,25],[-94,-12],[-47,-16],[-72,18]],[[6268,16467],[-44,25],[-37,46],[-28,6],[-25,-34],[-103,-34],[-35,-40],[-34,-2],[-68,38],[-28,42],[-31,2],[-27,28],[-19,-64],[-36,28],[-26,43],[-61,-5],[-32,-41],[-44,75],[11,54],[-35,19],[1,78],[-32,28],[-58,8],[-65,31],[-37,51],[-38,27],[-33,67],[-35,35],[-100,39],[-24,45],[-28,23],[-33,-5],[-156,-99],[-34,24],[-2,29],[-25,43],[22,86],[-33,79],[3,51],[-15,55],[11,37],[-16,66],[-75,72],[-41,-30],[-52,1],[-46,-53],[-29,10],[-58,62],[-63,22]],[[4475,17535],[-2,0]],[[4473,17535],[-26,40],[29,112],[-11,45],[22,99],[48,63],[32,24],[11,52],[38,60],[88,51],[89,-3],[29,96],[62,130],[43,33],[120,63],[193,-6],[102,21],[113,-6],[107,-42],[81,-15],[77,-51],[30,-43],[145,-33],[40,0],[35,103],[0,51],[-169,216],[-3,37],[-61,147],[-54,72],[-51,154],[13,120],[131,16],[167,46],[6,54],[21,77],[30,78],[3,123],[14,131],[3,154],[7,34]],[[3039,14966],[-5,30],[48,57],[35,119],[-8,83],[-38,30],[-79,20],[-68,0],[-75,52],[-35,33],[-17,42],[-2,50],[-26,63],[-43,78],[-33,38],[-16,42],[-36,57],[-41,87],[-4,49],[-82,175],[-50,65],[-35,77],[-28,33],[-41,19],[-28,64],[-31,26],[-34,7],[-22,34],[-38,99]],[[2207,16495],[26,-2],[24,28],[35,7],[20,23],[58,16],[70,-26],[46,11],[18,28],[58,-5],[44,75],[37,93],[44,58],[-4,57],[18,26],[84,-30],[11,-28],[75,-32],[23,29],[25,64],[27,22],[39,7],[75,-34],[-20,-52],[62,3],[-2,92],[9,46],[30,76],[7,57],[-24,54],[-9,48],[-52,20],[-46,1],[35,58],[58,23],[23,-5]],[[3131,17303],[97,-13],[14,32],[-10,47],[90,43],[66,6],[26,43],[67,28],[-26,28],[51,29],[33,-43],[30,-4],[118,39],[82,-24],[54,23],[50,-20],[58,55],[-18,-66],[8,-36],[30,-11],[0,-57],[29,-6],[23,33],[36,-18],[52,4],[31,55],[82,25],[64,-14],[64,62],[24,-14],[49,-1],[42,-20],[26,27]],[[4475,17535],[25,-46],[3,-52],[-22,-38],[-8,-77],[-13,-41],[-43,-26],[-6,-29],[-34,-50],[-58,-31],[-20,-25],[-22,-77],[71,-83],[16,-31],[-4,-44],[19,-63],[-14,-127],[-16,-33],[-48,-21],[-26,-51],[-42,-13],[-53,-46],[-3,-36],[-25,-63],[-31,-38],[-91,64],[-23,35],[-76,29],[-20,-11],[-6,-43],[-29,-41],[-173,-13],[-9,-99],[-30,-82],[-8,-88],[-10,-20],[28,-38],[-28,-33],[56,-37],[85,-33],[33,-59],[-24,-21],[27,-75],[-25,-16],[-2,-85],[61,-43],[26,25],[46,4],[45,20],[19,-8],[18,-51],[-65,-33],[-9,-46],[31,-28],[32,-3],[50,-38],[19,-48],[-8,-25],[50,-83],[22,-24],[61,-9],[37,-29],[28,-47],[20,-76],[40,-48],[-69,-125],[108,-86]],[[2207,16495],[-29,65],[0,53],[-36,32],[-25,47],[-26,8],[-47,60],[-48,21],[-95,122],[-68,63],[-16,43],[2,47],[39,42],[-14,45],[-74,99],[-13,43],[-29,25],[-90,47],[-98,116],[-8,55],[-61,72],[-21,73],[-3,67],[-56,75],[-36,117],[-28,33],[-16,45],[-97,36],[-16,87],[-23,15],[-38,57],[-34,30],[-20,54],[-46,20],[-36,34],[-63,27],[4,18],[77,53],[-77,13],[-30,24],[-54,-2],[-68,66],[-30,-7]],[[760,18535],[51,79],[59,73],[53,-3]],[[923,18684],[128,-17],[3,-28],[80,20],[30,36],[49,97],[31,42],[50,28],[52,-22],[62,-76],[18,-44],[77,-92],[126,-20],[9,-74],[-14,-55],[42,-7],[51,-38],[53,-65],[46,-38],[-5,-54],[17,-39],[86,-74],[105,-64],[64,-33],[108,-11],[32,27],[84,-38],[11,-36],[126,-55],[80,2],[13,55],[53,40],[96,18],[51,-55],[58,-112],[8,-32],[92,-63],[55,13],[20,-32],[77,-39],[45,-34],[-23,-21],[-41,-2],[-39,-73],[47,-18],[22,-24],[3,-58],[35,20],[29,-17],[19,-71],[-13,-148]],[[760,18535],[-44,6],[-72,-23],[-40,-31],[-60,9],[-51,-17],[-20,63],[-30,2],[-73,-29],[-3,-51],[-63,104],[-51,-12],[-41,-42],[-15,-100],[-20,-8],[-28,59],[2,43],[-45,-2],[1,33],[83,106],[43,40],[17,105],[28,41],[57,151],[26,56],[1,27],[26,65],[26,22],[18,43],[-18,85],[7,57],[-26,100],[37,82]],[[432,19519],[59,20],[27,-27],[39,42],[41,16],[0,42],[42,90],[-30,67],[22,20],[44,-21],[115,50],[83,14],[60,-29],[27,32],[28,-35],[90,-52],[138,2],[-7,-72],[22,-29],[45,-28]],[[1277,19621],[-57,-3],[-25,-34],[17,-36],[-90,-20],[-26,-81],[33,-36],[-18,-66],[-28,-18],[21,-38],[5,-43],[-36,-61],[-22,-72],[2,-41],[-22,-55],[-34,-23],[-2,-25],[43,-73],[-4,-50],[-50,-21],[-47,-71],[-26,-61],[12,-9]],[[1277,19621],[30,-9],[56,-42],[144,-49],[66,32],[125,-10],[31,-12],[55,64],[61,0],[37,17],[18,-16],[-47,-47],[-38,-16],[15,-25],[90,22],[26,29],[32,-15],[51,50],[-38,22],[45,51],[-1,27],[-43,9],[42,69],[50,38],[-44,56],[-12,66],[-39,18],[-33,33],[-60,83],[-75,6],[-82,-4],[-106,34],[-57,81],[-115,105],[-47,94]],[[1414,20382],[331,-58],[116,-28],[125,-16],[86,-18],[146,-24],[111,77],[86,86],[137,104],[30,33],[56,39],[54,12],[56,39],[15,35],[95,98],[32,78],[105,116],[27,91],[52,87],[78,62],[34,50],[35,75],[113,28],[232,48],[28,1],[222,49],[223,44]],[[105,18230],[-29,-1],[-36,40],[-35,12],[-5,72],[24,37],[50,-19],[-52,-30],[5,-23],[44,-10],[29,13],[28,-38],[42,-21],[1,-22],[-66,-10]],[[329,18231],[-35,-13],[-15,40],[-31,32],[54,9],[32,-35],[-5,-33]],[[432,19519],[14,76],[23,55],[-4,32],[14,65],[-24,18],[31,83],[2,56],[23,36],[-19,48],[35,72],[12,113],[40,124],[45,33],[-18,77],[32,19],[-10,33],[23,54],[192,-31],[571,-100]],[[14817,13538],[18,20],[39,-4],[41,-58],[23,3],[56,65],[-14,33],[17,102],[28,52],[46,23],[73,-12],[43,21],[42,64],[25,61],[57,39],[72,37],[51,-24],[54,-7],[29,-20],[131,-21],[62,7],[28,16]],[[15738,13935],[-1,-61],[24,-75],[-53,-110],[22,-58],[72,2],[34,-46],[-29,-48],[24,-28]],[[15831,13511],[-45,-62],[30,-52],[67,-18],[52,-27],[23,-48]],[[15958,13304],[-20,-61],[-68,-3],[-42,-56],[-20,-105],[-13,-20]],[[15795,13059],[-103,-35],[-23,1],[-40,62],[-21,5],[-49,-42],[-60,-9],[-52,31],[-31,33],[-54,-11],[-6,-17],[54,-50],[40,-73],[-6,-82],[43,-43],[4,-62],[-68,-38],[-62,-8],[-51,45],[-103,136],[-65,22],[-89,54]],[[15053,12978],[-32,52],[-8,34],[31,47],[-55,87],[5,37],[-61,110],[-10,35],[-47,90],[-59,68]],[[13128,6721],[18,93],[0,53],[-38,117],[-17,106],[-39,68],[-67,99],[-33,33],[-39,72],[-34,40],[-78,55],[-25,53],[-1,42],[16,67],[28,66],[27,89],[45,82],[23,57],[-16,63],[-70,42],[-104,43],[-43,31],[-22,42],[8,110],[-11,90],[-19,102],[-46,82],[69,14],[15,32],[-13,57],[17,92],[-21,61]],[[12658,8774],[59,32],[115,-36],[82,1],[68,10],[82,30],[52,-2],[101,19],[39,-7],[139,12],[35,-5],[54,23],[84,-1],[122,-42],[68,39],[43,-43],[47,-16],[159,3],[26,21],[-1,52],[20,47],[-1,101],[-11,63],[6,71],[-2,80],[30,31]],[[14074,9257],[40,-39],[41,-3],[118,36],[59,3],[110,29],[42,139],[64,32],[59,16],[168,21],[45,-67],[33,59],[-6,27],[97,33],[65,-28],[25,-32],[-6,-56],[70,11],[42,32],[104,1],[42,15],[35,47],[72,37],[46,133]],[[15439,9703],[71,-12],[62,17],[214,88],[55,-102],[25,-59],[53,-55],[17,-48],[-37,-56],[-18,-48],[0,-101],[-16,-15],[-91,-169],[-69,-179],[-24,-116],[-28,-38],[-27,-69],[-70,-251],[-1,-41],[-19,-104],[-37,-7],[-38,26],[-45,-112],[-53,-145],[-24,-36]],[[15339,8071],[-38,-98],[-71,-9],[-36,-20],[-60,-11],[-29,-32],[-40,-16],[-123,-82],[-75,-79],[-10,-39],[-36,-59],[0,-38],[29,-3],[49,-37],[4,-57],[34,-26],[-19,-44],[-42,-4],[6,-97],[-45,-7],[1,-60],[47,-95],[41,-59],[23,-11],[99,-124],[-26,-59],[-7,-83],[45,-74],[27,-145],[19,-185],[-22,-26],[-1,-43],[19,-29],[-58,-77],[-29,-21],[-47,-60],[-13,-119],[-16,-31],[-22,-81],[-4,-118],[44,-218],[52,-43],[75,-5],[27,-15],[40,-126],[-40,-37],[8,-52],[18,-47],[-37,-57],[-48,-22],[-33,-90],[-5,-45],[11,-84],[-10,-90],[-15,-53],[-33,-33],[13,-34],[-22,-115],[-7,-80]],[[14951,4567],[-32,284],[-755,-46],[-229,-4]],[[13935,4801],[-17,2],[-27,55],[-22,67],[-87,-55],[-133,-2],[-76,71],[21,66],[22,26],[75,15],[41,34],[8,38],[-49,41],[15,51],[13,97],[-19,32],[-48,23],[-2,42],[28,10],[13,31],[-45,65],[-21,62],[11,26],[-15,47],[-27,10],[-29,46],[-6,31],[-43,57],[-19,63],[8,33],[-3,92],[-36,118],[-4,59],[-17,91],[4,46],[-15,122],[2,33],[49,48],[-6,29],[-79,23],[-57,-5],[-108,145],[-94,14],[-13,21]],[[15738,13935],[-51,55],[7,42],[41,81],[78,42],[44,79]],[[15857,14234],[15,74],[-11,18],[-73,51],[5,37],[-28,29],[53,23],[102,-24],[67,-9],[61,6],[36,38],[36,7],[50,-18],[51,57],[38,8],[80,48],[29,4],[25,-27],[81,-55],[27,12],[18,151],[-37,84],[-41,2],[-98,35],[-11,32],[-50,5],[-26,41],[-50,45],[51,72],[55,36],[50,10],[35,74],[-2,36],[-41,45],[4,35],[26,42],[54,35],[51,5],[76,-16],[36,-20],[33,9],[73,-10],[38,-22],[73,39],[46,13]],[[16864,15291],[-31,-61],[-60,-181],[-42,-86],[46,-43],[16,-154],[-53,-81],[-38,-28]],[[16702,14657],[-31,-58],[-81,-69],[17,-98],[-5,-46],[-55,-66],[-34,-23],[0,-25],[-29,-59],[-21,-19],[-61,92],[-22,-14],[-22,-97],[-2,-44],[-16,-30],[-7,-98],[-25,-31],[-142,-4],[-9,-15],[28,-111],[-45,1],[8,-73],[-32,-2],[-28,-38],[-33,-16],[-32,-47],[-52,-22],[-48,-2],[-25,-15],[-6,-132],[-61,15]],[[16315,13548],[13,100],[49,29],[90,4],[130,-25],[85,28],[92,-3],[83,-28]],[[16857,13653],[12,-45],[41,-10],[47,5],[24,-50],[-51,-14],[-91,25],[-19,-20],[11,-46],[85,-28],[91,14],[37,-21],[21,-32],[3,-81],[17,-29],[3,-93],[-26,-18],[-85,-29],[-54,-37],[-86,12]],[[16837,13156],[-19,54],[-125,-2],[-78,-23],[-37,17],[0,56],[-26,52],[-28,82],[-29,47],[-60,46],[-120,63]],[[17049,11516],[35,28],[28,75],[-5,97],[29,185],[-49,177],[-50,62],[-40,78],[4,133],[-21,27],[-2,46],[-24,34],[0,102],[43,43],[91,-27],[39,-3]],[[17127,12573],[85,-50],[17,-26],[109,-61],[64,-19],[112,-14]],[[17514,12403],[62,-46],[24,-34],[141,1],[16,29],[83,12],[21,13],[17,-88],[-5,-67],[20,-18],[47,-138],[6,-66],[-16,-123],[9,-67],[-6,-88],[-42,-111],[-20,-170],[0,-47],[-15,-73],[-3,-112]],[[17853,11210],[-25,29],[-51,30],[-11,-65],[-34,-23],[-98,6],[0,19],[58,58],[-12,52],[4,35],[70,92],[7,53],[-21,21],[-44,13],[-53,-2],[-25,33],[-4,40],[-28,1],[-33,-39],[-39,3],[-11,25],[4,63],[-103,5],[-34,8],[-65,-104],[-12,-30],[-8,-106]],[[17285,11427],[-61,21],[-16,39],[-82,-15],[-77,44]],[[15958,13304],[122,35],[87,12],[46,30],[0,64],[38,30],[10,52],[54,21]],[[16837,13156],[-33,-34],[-59,-3],[-56,-52],[-40,-17],[44,-62],[-1,-23],[41,-50],[50,-38],[100,-59],[55,-15],[48,-1],[88,-41],[7,-29],[48,-44],[-23,-21]],[[17106,12667],[-103,-1],[-48,19],[-50,41],[-980,202]],[[15925,12928],[-22,16],[-47,73],[-61,42]],[[14245,15159],[26,11],[81,8],[17,11],[-116,170],[3,37],[29,58],[52,-52],[76,-3],[109,22],[35,23],[73,19],[52,42],[42,-26],[72,-8],[37,6],[97,46]],[[14930,15523],[9,-86],[33,-51],[5,-95],[26,-11],[-19,-37],[3,-55],[51,-48],[-2,-34],[-130,-73],[-46,-74],[-19,-11],[-74,61],[-48,3],[-15,-41],[0,-86]],[[14704,14885],[-30,21],[-85,-80],[-23,-50],[-46,-63],[-25,-7]],[[18350,4668],[-1390,-27]],[[16960,4641],[-1593,-31],[-63,12],[-342,-151],[-11,96]],[[15339,8071],[78,-21],[130,-46],[28,-34],[37,9],[45,79],[47,4],[49,-24],[-16,-64],[25,-45],[13,-76],[-11,-59],[46,-47],[5,-33],[59,-68],[28,-60],[16,-60],[39,-51],[67,-11],[102,26],[15,59],[-26,48],[2,39],[-27,4],[-13,45],[-53,112],[18,46],[60,-8],[69,25],[33,65],[50,-43],[66,8],[121,-33],[28,-22],[-1,-53],[-22,-61],[-37,-39],[25,-31],[5,-51],[64,6],[66,-9],[46,-33],[125,-48],[164,-23],[59,-45],[49,-21],[71,-47],[25,5],[93,62],[66,32],[43,-24],[110,-24],[56,-20],[150,25],[218,59],[20,-34],[118,-151],[11,-30],[46,-31],[31,-41],[46,7],[10,-26],[50,42],[113,82],[123,13],[52,31],[83,7],[84,-9],[94,2],[39,10],[45,-13],[44,13],[-2,23]],[[17853,11210],[140,-102],[66,-40],[8,-46],[-27,-42],[-19,-100],[19,-72]],[[18040,10808],[-19,-54],[3,-43],[-82,-39],[-53,-103],[-58,-70],[-37,-18],[-106,-113],[-118,1],[-25,22],[-25,-26],[-7,-80],[-57,-13],[-111,-1],[-50,27],[-36,42],[-19,-39],[-38,9],[-46,54],[-40,-47],[-45,-12],[-40,75],[-133,60],[-77,-32],[-52,19],[-33,-15],[-68,-4],[-43,26],[-66,-3],[-41,-25],[-7,-54],[-30,-54],[-33,-7],[-73,12],[-116,-121],[-23,-4],[-65,-56],[-35,-6],[-32,24],[2,71],[-7,103]],[[16099,10314],[124,100],[41,41],[54,29],[59,54],[94,112],[26,57],[-53,17],[-129,-30],[-76,-25],[-10,20],[1,106],[18,79],[18,38],[103,70],[71,40],[16,82],[66,48],[32,3],[50,-54],[43,-77],[29,-13],[90,11],[58,92],[50,16],[17,-19],[13,-95],[27,-11],[69,12],[35,26],[89,48],[38,33],[65,98],[44,114],[14,91]],[[17049,11516],[-7,-29],[-32,-2],[-17,24],[-44,11],[-41,135],[-17,4],[-22,63],[-88,81],[-32,56],[4,38],[-91,1],[-110,-49],[-59,-37],[-49,1],[-46,-15],[-64,1],[0,-45],[17,-61],[31,-35],[36,-19],[-14,-68],[17,-54],[-36,-16],[-37,14],[-23,46],[-25,12],[-41,-12],[-23,38],[-17,126],[-40,11]],[[16179,11736],[-37,95],[-32,33],[-29,62],[-47,52]],[[16034,11978],[18,56],[37,64],[-2,55],[22,48],[7,59],[-13,98],[7,41],[-16,85],[22,-7],[43,127],[3,42],[-26,43],[-26,-14],[-31,47],[-71,-15],[-16,27],[-40,1],[-27,31],[19,49],[-41,58],[22,55]],[[17106,12667],[-25,-49],[46,-45]],[[16702,14657],[98,14],[56,-35],[52,10],[65,-47],[32,-51],[-19,-50],[31,-14],[37,38],[11,-29],[44,0],[-3,-28],[27,-55],[-31,-36],[-32,7],[-48,-28],[-10,-83],[40,-13],[50,-54],[-17,-38],[-48,0],[-46,-117]],[[16991,14048],[-18,-29],[25,-47],[-46,-40],[16,-43],[9,-109],[-54,-28],[-8,-37],[-42,-27],[-16,-35]],[[16034,11978],[-182,-211],[-30,-49],[-50,-26],[-56,-112],[-26,-80],[-32,-50],[-53,-20],[-25,7],[-40,47],[-35,98],[-61,131],[-34,26],[-100,33],[-92,6],[-26,-22],[-49,-97],[-78,-65],[-40,-1],[-18,29],[9,52],[-51,-11],[-1,-97],[-22,-54],[-72,2],[-29,-28],[46,-185],[10,-76],[-4,-73],[-44,-147],[-25,-101],[-104,-130],[-77,-77],[41,-102],[112,-54],[17,-17],[-10,-39],[-95,-39],[-189,32],[-52,29],[-70,82],[-205,119],[27,54],[-45,92],[-97,-163],[-52,-95],[0,-27],[37,-93],[27,-91],[26,-141],[13,-30],[-43,-66],[-184,-52],[-68,-53],[-65,-142],[-35,-122],[65,-72],[71,-27],[82,-16],[117,-61],[3,-104],[42,-28],[29,-44],[-28,-46],[-13,-73],[-27,-51]],[[12658,8774],[9,49],[-24,46],[-27,23],[-102,22],[-11,27],[-19,116]],[[12484,9057],[-32,124],[-34,78],[-27,14],[-34,56],[60,69],[90,34],[-9,28],[-48,27],[-30,80]],[[12420,9567],[37,67],[10,35],[-18,89],[-2,47],[13,45],[35,35],[70,18],[59,38],[57,-41],[11,-23],[43,27],[84,10],[24,-56],[26,-33],[56,-12],[12,24],[-46,79],[5,42],[38,35],[-17,65],[-41,36],[-20,40],[-33,22],[-64,88],[97,-4],[-31,43],[-39,31],[-8,25],[147,25],[-103,89],[-68,85],[9,31],[64,-2],[10,72],[26,66],[-50,13],[-38,48],[-72,59],[-39,0],[-32,-31],[-5,55],[-22,111],[-47,61],[-23,97],[-39,42],[-53,83],[-27,99],[6,35],[95,26],[21,23],[20,58],[5,84],[21,58],[18,119],[50,40]],[[12652,11785],[33,8],[26,36],[43,-7],[21,51],[46,27],[43,10],[48,37],[42,16],[100,15],[27,28],[54,20],[18,-27],[35,16],[77,-7],[21,-14],[14,-89],[38,-86],[3,-44],[20,-56],[11,-88],[22,-22],[70,-38],[95,-42],[32,4],[49,36],[60,4],[13,91],[27,87],[75,30],[-7,58],[11,40],[86,55],[36,6],[55,-38],[15,-77],[44,-92],[27,-2],[48,41],[154,43],[60,6],[40,47],[-5,35],[-28,15],[-1,76],[-20,46],[-25,102],[9,78],[52,66],[28,-10],[87,58],[-24,22],[7,31],[46,51],[13,59],[-8,40],[31,11],[190,21],[77,46],[37,-59],[11,70],[25,49],[105,77],[32,42],[39,-2],[19,18],[10,51],[-38,117]],[[15439,9703],[-69,37],[-18,112],[-51,91],[69,38],[54,50],[36,-78],[31,-9],[22,58],[46,55],[90,-52],[35,4],[30,23],[52,64],[14,62],[45,45],[-26,107],[-21,50],[-2,86],[-21,57],[-3,44]],[[15752,10547],[27,13],[84,4],[116,46],[64,-1],[26,-16],[11,-45],[-21,-52],[-4,-41],[44,-141]],[[18040,10808],[42,16],[75,13],[106,-45],[89,8],[86,-14],[65,-35],[58,1],[104,29],[68,-24],[111,23],[66,-7],[43,-22],[65,-51],[59,-98],[33,-22],[30,21]],[[14543,16687],[54,-100],[33,-82],[23,-80],[76,-241],[43,-112],[23,-119],[68,-44],[14,-96],[39,-160],[14,-130]],[[17090,16230],[-9,-15],[7,-76],[-98,-96],[-68,-55],[6,-15],[77,-46],[44,-37],[-35,-95],[16,-111],[-29,-79],[29,-23],[-12,-64],[-6,-90],[-11,-73],[72,-49],[-22,-46],[-24,18],[-80,31],[-83,-18]],[[15857,14234],[-13,-6],[-67,27],[-33,24],[-110,-7],[-46,29],[4,64],[-30,13],[3,48],[-14,18],[-85,-16],[-73,-34],[-70,8],[-46,78],[-11,64],[-26,78],[-30,38],[-57,26],[-36,4],[-67,-43],[-96,-42],[-41,32],[-74,7],[-32,41],[-17,50],[-86,150]],[[17514,12403],[69,-2],[-41,73],[3,21],[42,47],[130,-1],[36,26],[36,46],[14,61],[83,50],[4,40],[-19,68],[55,48],[133,-16],[226,14],[65,-84],[37,-23],[27,-39],[40,-19],[81,23],[-6,60],[22,66],[53,8],[33,-10]],[[14817,13538],[-43,71],[9,18],[-4,65],[-27,1],[-21,57],[2,41],[-70,104],[-78,71],[-74,42],[-88,61],[-7,25],[8,84],[-30,107],[-51,70],[-12,46],[-69,56]],[[15752,10547],[-32,49],[-17,45],[-30,39],[7,42],[51,14],[11,127],[12,45],[21,16],[55,-5],[17,28],[-25,64],[24,16],[50,-36],[50,10],[33,46],[28,60],[38,49],[81,59],[9,34],[-12,133],[-12,32],[-11,88],[23,23],[5,50],[24,72],[1,54],[26,35]],[[16991,14048],[52,-102],[82,-84],[42,-64],[582,-267],[122,2],[80,16],[28,-3],[128,23],[-1,-35],[27,-26],[50,4],[99,93],[-32,62],[8,29],[46,3],[27,-19],[135,-26]],[[12652,11785],[-70,98],[-30,71],[-9,55],[-71,81],[18,48],[41,34],[13,29],[-13,63],[62,-36],[-8,82],[-16,33],[-34,18],[-85,25],[72,76],[74,40],[-52,106],[1,52],[13,37],[-37,32],[-92,21],[-78,48],[-87,-10],[-17,27],[4,45],[53,56],[-115,78]],[[12420,9567],[-94,-22],[-23,45],[-6,80],[-43,45],[-60,83],[-12,43],[42,34],[50,3],[36,23],[11,52],[-34,36],[-37,12],[-110,13],[-138,2],[-49,7],[-83,40],[-12,19],[-18,94],[-43,109]],[[11797,10285],[-13,21],[-66,18],[-37,-41],[-46,5],[-22,41],[9,45],[-32,21],[13,73],[-18,98],[-46,33],[-132,8],[-73,17],[-72,9],[-37,19],[-13,35],[-18,116],[-22,36],[-26,72],[9,93],[-24,61],[0,89],[-62,6],[-42,14],[-73,66],[-32,110],[-9,56],[-18,26],[-75,-27],[-46,10],[-41,-12],[-58,4],[-118,-11],[-354,104],[-3,46],[-61,-4]],[[10139,11542],[14,41],[-34,31],[9,38],[35,26],[59,3],[50,43],[6,-51],[19,-14],[76,1],[45,-16],[41,24],[16,55],[-20,48],[19,13],[146,25],[77,87],[32,47],[-18,40],[8,44],[44,98],[28,47],[-97,34],[16,69],[66,96],[12,124],[-11,112],[-45,12],[15,49],[-26,30],[39,42],[-55,100]],[[10705,12840],[-2,78],[-11,40],[-34,26],[24,26],[-4,52],[48,50],[30,67]],[[15542,3363],[15,9]],[[15557,3372],[28,-70],[55,-221],[306,-344],[125,-248],[50,-38],[111,-107],[81,-95],[45,-70],[33,-103],[42,-46],[113,-181],[112,-85],[50,-70],[20,-56],[14,-285]],[[16742,1353],[-23,-3],[-375,26],[-496,66],[-490,66],[-259,158],[-798,0],[-117,-44],[-141,44],[-142,0],[-44,-6]],[[13857,1660],[117,115],[12,32],[-44,60],[76,-9],[49,-49],[122,-4],[34,80],[-24,107],[-19,105],[-27,34],[3,109],[11,56]],[[14167,2296],[25,103],[-7,63],[12,63],[18,0],[84,-34],[64,14],[74,-19],[54,-36],[49,-15],[44,55],[156,66],[115,71],[134,24],[287,64],[18,66],[0,34],[29,43],[43,100],[15,111],[39,36],[7,28],[115,230]],[[14167,2296],[-65,54],[-35,19],[-85,16],[-48,43],[-39,-57],[-67,-34]],[[13828,2337],[-30,6],[-105,-3],[-71,42],[-67,-4],[-39,18],[-82,-22],[-60,40],[-50,-11],[-55,14],[-50,27]],[[13219,2444],[60,78],[-1,40],[-24,30],[-105,85],[-100,51],[-29,51],[47,64]],[[13067,2843],[0,30],[-45,76],[31,19],[30,-10],[58,9]],[[13141,2967],[39,51],[-15,36],[21,60],[29,23],[20,62],[36,65],[26,-26],[-2,-36]],[[13295,3202],[-6,-40],[29,-24],[64,-5],[89,-50],[6,-83],[-4,-50],[19,-26],[104,4],[56,-14],[73,-34],[37,61],[38,9],[40,32],[66,77],[37,58],[11,74],[33,128],[30,21],[71,1],[11,-45],[33,-17],[40,70],[25,23],[23,99],[31,18],[44,-4],[73,65],[143,-101],[93,-85],[-32,-81],[29,-32],[92,-45],[40,-36],[56,-30],[50,4],[196,41],[70,90],[30,12],[58,-46],[50,17],[69,6],[10,13],[162,53],[58,33]],[[13857,1660],[-277,-33],[-10,-40],[-43,-28],[-48,63],[-61,-23],[-17,18],[-63,-114],[-86,18],[-103,-5],[-61,57],[-97,-7]],[[12991,1566],[-38,50],[-10,39],[45,25],[-13,67],[-23,32],[-57,34],[-26,53]],[[12869,1866],[26,46],[-7,62],[23,-7],[17,-66],[44,-82],[42,-22],[70,5],[6,22],[48,28],[38,50]],[[13176,1902],[92,61],[28,36],[81,48],[27,46],[53,50],[107,21],[77,-67],[58,-18],[44,134],[24,39],[58,42],[3,43]],[[16960,4641],[3,-375],[-271,-259],[-339,-175],[-353,-205],[-443,-255]],[[13295,3202],[68,34],[24,25],[-6,25],[-112,20],[38,53],[25,56],[56,33],[-41,68],[26,38],[-3,36],[52,44],[86,111],[67,21],[-57,66],[-8,39],[17,41],[35,12],[26,60],[52,-17],[49,26],[20,28],[114,47],[21,-23],[61,-8],[10,147],[-14,93],[54,49],[23,69],[3,38],[23,28],[30,-15],[37,34],[-43,19],[-14,60],[41,53],[-1,27],[-54,8],[-68,-4],[11,27],[-18,90],[10,41]],[[24658,4143],[-813,-159],[-904,-176],[-556,-64],[-781,-91],[-1011,-117],[-744,-403],[-570,-308],[-471,-649],[-351,-484],[-188,-527],[-399,-263],[-258,0],[-353,527],[-517,-76]],[[13219,2444],[-34,-138],[29,-93],[-47,-32],[10,-59],[-6,-70],[22,-60],[-17,-90]],[[12869,1866],[-26,140],[-17,45],[12,117],[-21,45],[11,53],[29,28],[-21,51]],[[12836,2345],[16,74],[65,46],[-12,21],[46,67],[21,46],[-31,50],[7,31],[31,39],[12,69],[51,55],[25,0]],[[7845,14150],[55,-157],[88,-17],[-15,-63],[10,-54],[25,-23],[13,-66],[-11,-46],[-34,-45],[-5,-26],[-212,14],[-41,8],[-53,-19],[-21,-39],[5,-32],[62,-18],[42,15],[33,-23],[53,25],[46,-16],[44,16],[36,31],[49,-19],[11,-61],[-20,-17],[32,-109],[43,-39],[38,-150],[36,-61],[63,-79],[34,12],[35,43],[62,4],[92,-18],[29,-24],[18,-56],[9,-67],[6,-125],[0,-125],[55,-49],[34,-17],[61,-171],[44,-48],[-5,-66],[28,-101],[8,-60]],[[8727,12212],[-89,-148],[-58,-42],[-107,7],[-78,-110],[-88,-17],[-53,-24],[44,-50],[-49,-107],[16,-80],[-50,-21],[-55,10],[0,-78],[-15,-19],[-80,-31],[-20,-26],[-57,-30],[70,-23],[7,-18],[-130,-42],[-47,-48]],[[7888,11315],[-50,-37],[-73,-13],[-8,41],[-54,71],[-77,10],[-13,46],[40,49],[53,-8],[53,80],[30,73],[-18,34],[-30,-16],[-49,10],[-20,37],[-3,53],[14,43],[-17,52],[-60,37],[12,52],[-24,56],[-88,8],[-56,-9],[-30,-26],[-112,9],[-35,-22],[-51,-68],[-44,0],[-69,-72],[-79,37],[-25,1],[-46,-89],[-49,30],[-22,35],[-47,7]],[[6841,11826],[-51,-6],[-20,-44],[-37,-1],[-31,30],[-32,-21],[-75,-1],[13,50],[-6,27],[39,16],[21,-25],[36,0],[2,52],[-25,16],[-1,125],[26,26],[-29,59],[-28,24],[-7,58],[22,60],[-20,50],[-61,-17],[-12,-48],[-20,-13],[-49,22],[-33,91],[-1,32],[-60,48],[-4,29],[-67,61],[-5,45],[-63,14],[-5,17],[51,27],[20,45],[34,31],[-44,58],[-6,43],[-78,-8],[-73,46]],[[6162,12844],[-78,15],[-10,37],[50,55],[15,43],[23,129],[-26,17],[-22,40]],[[6114,13180],[-18,19],[-2,47],[39,120],[-54,5],[-28,33],[-20,84],[-20,27],[14,42],[-23,11],[-7,114],[-30,45],[21,12],[9,67],[56,34],[-12,71],[-27,8],[2,47],[-17,118],[-17,18],[-60,13],[-31,79],[-15,109],[31,11],[113,8],[-13,28],[58,33]],[[6063,14383],[15,-18],[47,8],[140,-7],[56,44],[97,-16],[-53,-25],[-13,-43],[7,-38],[-7,-62],[4,-112],[-6,-66],[14,-83],[1,-85],[166,4],[205,-104],[35,-58],[179,-77],[323,-160],[125,299],[228,186],[-8,140],[44,83]],[[10139,11542],[-63,2],[-28,19],[-41,-9],[-80,-43],[-41,18],[-118,-57],[-25,-51],[-36,-23],[-39,-121],[4,-65],[-24,-51],[3,-38],[27,-42],[-16,-32],[-9,-62],[5,-76],[18,-37],[3,-118],[30,-12],[50,-43],[30,-66],[-46,-48],[-38,3],[-52,-23],[-24,17],[-60,-26],[-21,-41],[-55,-22],[-50,14],[-33,25],[-51,-18],[-47,-52],[-31,-52],[13,-39],[-23,-35],[-14,-60],[-43,-30],[-28,1],[-88,36],[-78,0],[-26,-16],[-71,-17],[-37,-107],[-4,-105],[-26,-66],[-14,-75],[-60,-56],[-113,-39],[-66,-6],[-27,20],[1,32],[-22,29],[-75,27],[-123,-78],[-28,-27],[-73,-15],[-21,-58],[-58,-16],[-51,16],[-37,-4]],[[8089,9724],[-43,6]],[[8046,9730],[-46,-9],[-48,65],[28,69],[1,35],[-47,7],[23,46],[-12,46],[-36,39],[-46,0],[3,47],[-48,40],[-108,-23],[-44,34]],[[7666,10126],[-2,0]],[[7664,10126],[109,43],[-26,48],[31,17],[40,2],[-8,30],[-53,31],[26,35],[-17,30],[64,29],[-30,46],[27,83],[35,27],[6,43],[62,39],[18,54],[-5,46],[-56,83],[4,41],[-28,42],[17,21],[-32,23],[-25,39],[4,79],[29,-4],[50,23],[8,45],[26,-13],[57,40],[66,7],[20,32],[-39,35],[-33,-3],[-51,19],[-72,77]],[[8727,12212],[67,39],[87,6],[74,-17],[26,26],[55,28],[122,89],[96,-81],[62,-19],[82,-8],[77,-51],[55,35],[26,45],[0,67],[46,35],[33,54],[81,64],[20,36],[56,36],[76,21],[42,55],[11,36],[50,31],[51,-15],[77,80],[23,1],[25,-53],[79,-5],[59,21],[29,31],[33,-27],[93,-4],[38,-10],[15,-33],[59,38],[5,-46],[61,42],[51,69],[36,12]],[[4985,13403],[31,-17],[7,-51],[47,-15],[70,21],[62,-50],[35,22],[35,-2],[31,-25],[39,-59],[43,1],[20,-19],[49,6],[41,-25],[77,48],[13,30],[70,-16],[13,26],[87,-10],[25,8],[138,-33],[51,-5],[115,-70],[30,12]],[[6162,12844],[24,-46],[13,-76],[-78,-33],[16,-36],[-14,-58],[-48,-17],[3,-89],[-43,-39],[-47,-6],[-27,-32],[-21,-103],[-55,-12],[-20,-32],[-52,81],[-38,18],[-35,-24],[-48,-12],[-30,-42],[-55,-4],[-46,-93],[4,-17],[-71,-90],[-25,-15],[-1,-45],[151,-50],[204,-41],[-24,-34],[23,-70],[113,-55],[-44,-40],[-11,-34],[-53,-20],[-52,-59],[-3,-20],[-39,-29],[8,-27],[-47,-24],[-6,-37],[-45,8]],[[5643,11490],[-18,20],[-40,118],[-5,73],[-38,47],[-40,5],[-40,72],[-28,28],[-56,29],[-43,66],[-43,19],[-55,4],[-137,131],[-17,28],[-41,22],[-17,-14],[-66,38],[-46,47],[-74,51],[-56,16],[-65,4],[-50,55],[-42,24],[-27,64],[-20,21],[-41,-5],[-32,32],[-7,36],[-65,-23],[-32,-64],[-59,0],[-42,43],[-42,-5],[-28,25],[-46,87],[-60,45],[-3,39],[52,67],[-37,49],[-29,69],[-59,59],[-8,21]],[[6063,14383],[0,50],[37,46],[1,127],[47,24],[-8,69],[-35,78],[1,94],[-25,42],[55,45],[85,23],[45,33],[31,51],[3,40],[-23,36],[-67,38],[-116,5],[-44,9],[-71,-26],[-207,27],[-29,28]],[[5743,15222],[-40,36],[-118,64],[-21,29],[4,31],[82,29],[-16,24],[-60,4],[-36,25],[-1,28],[49,29],[70,-6],[62,58],[96,40],[70,-10],[62,15],[53,52],[67,37],[72,15],[61,64],[22,72],[33,45],[-41,28],[4,31],[-41,78],[-38,39],[12,37],[-19,61],[3,65],[50,48],[10,52],[74,125]],[[5743,15222],[-36,-56],[-24,-76],[-45,-13],[-57,-82],[-1,-25],[-42,-18],[-19,-30],[-44,-32],[-1,-54],[-30,-51],[-32,30],[-29,-17],[-32,45],[-104,87],[-36,-27],[-78,-30],[-60,2],[-26,34],[-101,-5],[-13,-28],[-34,18],[-88,-40],[10,-53],[-81,6],[-51,-14],[-5,-21]],[[7664,10126],[-80,22],[-14,24],[-74,-23]],[[7496,10149],[-1,45],[23,16],[17,65],[40,26],[13,43],[-30,48],[-5,42],[-37,44],[49,42],[-18,37],[-90,23],[-70,38],[-31,-26],[-66,-26],[-59,78],[-99,-5],[-34,6],[7,-66],[34,-72],[-75,13],[-38,-52],[-16,60],[-77,7],[-41,-44],[-41,19],[-44,-16],[-53,12],[-50,39],[40,61],[-58,27],[-41,-1],[-34,19],[-23,59],[-56,32],[-19,44],[27,58],[-43,106],[-45,49],[-72,-17]],[[6380,10982],[34,98],[48,34],[17,176],[8,15],[90,-21],[53,-30],[20,-38],[51,-48],[73,26],[44,25],[52,-10],[57,18],[11,42],[64,63],[-13,32],[-33,3],[-69,55],[11,57],[-37,88],[-15,69],[7,54],[-38,31],[26,105]],[[6380,10982],[-51,79],[-26,16],[-35,-11],[-42,30],[-42,49],[-9,41],[22,47],[-16,16],[-68,-23],[-55,-4],[-92,-61],[-78,-27],[-17,-18]],[[5871,11116],[-31,66],[-9,84],[-55,57],[9,44],[-45,-20],[-38,36],[-26,75],[-33,32]],[[8046,9730],[36,-84],[-63,-25],[-53,6],[-43,-72],[5,-40],[-56,-56],[57,-108],[-24,-25],[-4,-99],[-81,-68],[-96,-14],[-52,-46],[-41,-9]],[[7631,9090],[-33,-22],[-28,59],[-95,-14],[-60,-16],[-60,11],[-40,-35],[-7,-31],[-43,6],[-18,50],[-41,62],[-6,44],[62,39],[-19,15],[-112,-15],[-47,-25],[-15,28],[128,50],[35,42],[25,6],[54,100],[6,76],[-39,17],[14,53],[69,15],[39,26],[61,78],[-9,19],[10,115],[87,57],[12,90],[43,74],[34,15],[28,47]],[[8019,7590],[-85,25],[-25,-7],[-50,36],[-56,-6],[-24,69],[-34,69],[-34,10],[-37,-52],[-35,-27],[-3,-27],[49,-10],[-42,-52],[-76,-57],[-161,-48],[-32,38],[-65,-40],[-66,-15],[-52,10],[-102,98],[-35,71],[27,75],[45,43],[71,17],[21,30],[5,116],[25,79]],[[7248,8035],[113,126],[3,36],[50,15],[39,-73],[29,-17],[41,10],[32,61],[-60,45],[10,27],[38,-18],[83,-7],[32,10],[62,44],[-27,28],[-14,63],[50,44],[50,11],[32,29],[58,4],[72,-14],[79,31],[28,42],[49,18],[35,51],[39,33],[49,6],[57,-42],[133,-29]],[[8410,8569],[10,-32],[-12,-29],[-70,3],[-21,-15],[1,-51],[-20,-37],[7,-55],[-17,-61],[-31,2],[-22,-75],[34,-101],[-40,-10],[-48,3],[-24,23],[-63,10],[-38,-15],[-38,-62],[55,-43],[-12,-30],[14,-93],[37,-12],[-20,-61],[35,-61],[-42,-13],[-18,-35],[1,-33],[24,-62],[-24,-37],[-49,3]],[[9882,4962],[-2,-59],[36,-35],[-12,-53],[14,-52],[-18,-36],[6,-75],[-10,-57],[28,-43],[44,-107],[30,-38]],[[9998,4407],[-23,-99],[-1,-87]],[[9974,4221],[-39,16],[-68,-2],[-33,-41],[-41,-22],[-15,-30],[33,-22],[44,-5],[-15,-36],[37,-19],[36,-64],[48,-41],[15,-85],[51,-41],[8,-25]],[[10035,3804],[-42,-12],[44,-107],[1,-20],[-175,-49],[-152,-22],[-13,-23],[-24,-117]],[[9674,3454],[-15,28],[-74,1],[-64,45],[-26,99],[-42,52],[-4,23],[41,130],[12,68],[-76,21],[-41,36],[-15,80],[-25,50],[49,119],[-10,78],[-87,22],[-28,22],[-46,95],[-5,74],[13,20],[-27,72],[-21,13],[-7,45],[-43,20],[-46,92],[-2,51],[20,68],[3,45],[-24,13],[-35,52],[-86,20],[-45,42],[-41,17],[-17,37],[27,17],[-11,31],[13,52],[-7,32]],[[8882,5236],[94,26],[19,-3],[90,45],[61,76],[6,51]],[[9152,5431],[66,34]],[[9218,5465],[1,-56],[-49,-68],[-4,-34],[37,-37],[46,-15],[20,-22],[53,-26],[52,-44],[48,-7],[17,-49],[-36,-38],[-2,-24],[-78,-37],[-30,-36],[27,-24],[46,26],[40,-6],[25,13],[45,-17],[67,15]],[[9543,4979],[-25,-63],[4,-76],[62,27],[35,48],[79,-2],[35,13],[51,-6],[34,47],[64,-5]],[[9256,3450],[-32,33],[34,28],[-2,-61]],[[6481,9376],[158,18],[29,-3]],[[6668,9391],[16,-62],[-6,-60],[10,-39],[52,-43],[-27,-19],[21,-51]],[[6734,9117],[-69,-61],[-35,-17],[47,-55],[9,-33],[-29,-78],[1,-79],[-20,-86],[36,-63],[7,-35],[6,-175],[-6,-72],[10,-17],[55,10],[52,36],[29,34],[50,-4],[-13,-88],[7,-66]],[[6871,8268],[-21,-43],[49,-49],[82,-58],[-11,-54],[-75,-77],[-23,-54],[45,-54],[-58,-23],[-2,53],[-27,27],[-29,-35],[4,-60],[-26,-10],[12,-43],[60,-56],[-9,-15],[21,-97],[-23,-64],[0,-41],[31,-157],[25,-52],[6,-88],[-7,-40],[-29,-46]],[[6866,7132],[-35,50],[-35,-9],[-54,63],[-19,36],[8,51],[-37,53],[-16,46],[-60,33],[-31,72],[-9,53],[9,22],[-18,50],[-31,31],[-51,111],[11,61],[30,-7],[52,31],[20,44],[-30,143],[1,27],[-28,54],[-30,-7],[-15,24],[-6,112],[-29,146],[-50,89],[-11,47],[-42,38],[-16,37],[-28,18],[-49,107],[33,48],[-32,36],[-20,70],[65,5],[-4,-37],[38,-20],[18,25],[-9,53],[22,57],[29,-19],[5,80],[17,58],[-28,0],[-3,91],[59,79],[24,92]],[[7631,9090],[36,-45],[-17,-25],[-56,-36],[-14,-43],[24,-38],[35,-22],[-10,-39],[25,-51],[0,-30],[-25,-49],[-51,-31],[-56,2],[-93,53],[-41,-13],[-121,15],[-44,-8],[-34,-23],[-44,-3],[-50,29],[-45,4],[-94,38],[-64,12],[-98,32],[-7,20],[46,47],[-28,100],[-23,32],[-16,84],[-32,15]],[[6668,9391],[-11,48],[32,-1],[-2,39],[26,11],[85,92],[22,43],[33,24],[60,21],[35,58],[20,99],[31,16],[-9,44],[56,65],[27,63],[5,34],[38,-5],[33,20],[67,-35],[9,-70],[71,38],[69,19],[69,83],[15,42],[47,10]],[[10146,8609],[22,-71],[6,-54],[-15,-119],[43,-74],[-46,-81],[-70,-48],[-28,-32],[-30,9],[-37,-41],[98,-8],[86,-27],[41,-29],[115,-4],[-19,-71],[109,4]],[[10421,7963],[-7,-47],[8,-128],[-24,-79],[3,-53],[19,-37],[92,-69],[-61,-120],[-6,-39],[11,-135],[59,-169],[11,-58],[42,-121],[55,-65],[-5,-41],[-37,-42],[-3,-115]],[[10578,6645],[-39,-15],[-48,55],[18,75],[-42,46],[-42,-50],[-94,-41],[-30,13],[-106,16],[10,-65],[-32,9],[-35,45],[-10,40],[-65,51],[-24,45],[-44,38],[-38,14],[-41,-6],[-82,32],[-41,63]],[[9793,7010],[-36,20]],[[9757,7030],[11,18],[-7,75],[-31,-17],[-48,7],[-37,50],[71,31],[3,18],[67,17],[5,73],[-66,-21],[-34,21],[-22,84],[48,34],[4,30],[-62,28],[-50,-1],[-6,24],[51,74],[-54,32],[-49,62],[-40,104],[46,34],[-46,59]],[[9511,7866],[-12,60],[20,82],[-3,58],[-37,83],[-28,41],[-28,77],[-46,13],[-5,56],[33,2],[-13,57],[60,-23],[35,71],[-57,68],[33,18],[120,10],[22,16],[54,-26],[9,-35],[37,-57],[70,34],[19,24],[63,20],[20,27],[0,41],[40,48],[12,33],[94,-46],[98,2],[25,-11]],[[8089,9724],[68,-155],[-38,-82],[7,-24],[-9,-59],[41,-13],[3,-73],[62,-2],[16,12],[69,-9],[41,28],[66,-46],[-25,-73],[8,-46],[-12,-21],[-71,0],[-6,-69],[13,-60],[37,-9],[-11,-65],[164,-109],[-15,-19],[-20,-85],[39,-73],[50,-8],[11,-54],[46,-71],[-122,54],[-47,15],[-16,-35],[-28,-4]],[[7248,8035],[-56,23],[-11,19],[-60,24],[-35,74],[-39,22],[-107,31],[-21,27],[-48,13]],[[6481,9376],[34,106],[-53,13],[-14,27],[19,93],[-17,55],[11,101],[-9,30],[-66,99],[-19,81],[-43,56],[-4,34],[-44,58],[-16,39],[-33,32],[-44,72],[-7,25],[-47,70],[54,-25],[61,-109],[37,-12],[23,24],[-52,64],[-25,88],[-147,49],[-37,78],[29,38],[1,83],[-18,31],[-19,97],[-21,-21],[-32,23],[-42,73],[-10,40],[-35,48],[10,54],[-33,40],[10,39],[-12,47]],[[8882,5236],[-21,66],[-72,102],[-86,-24],[-24,18],[-39,-24],[-10,51],[-53,27],[-2,60],[-17,35],[-52,23],[13,25],[2,54],[-12,22],[-45,23],[-107,74],[-29,38],[-53,36],[-61,13],[-25,23],[-40,8],[-30,53],[-39,29],[3,58],[-56,6],[-39,-8],[-34,54],[-26,12],[-13,57],[-73,31],[-27,-15],[-50,6],[-34,-27],[-17,25],[-51,33],[-29,-5],[-1,-43],[-66,37],[-75,70],[-29,10],[-90,71],[-33,46],[-56,50],[1,32],[-24,15],[-18,49],[-56,47],[-23,37],[-34,89],[-13,4]],[[7117,6709],[18,39],[61,-34],[66,-4],[28,8],[48,35],[20,75],[39,9],[20,64],[34,-1],[78,75],[78,82],[13,-21],[105,24],[8,49],[44,0],[14,17],[121,83],[49,-7],[53,6]],[[8014,7208],[40,-21],[36,33],[36,11],[51,-29],[2,79],[39,17],[19,-23],[-29,-33],[24,-22],[-3,-88],[41,7],[27,51],[107,19],[37,-18]],[[8441,7191],[37,-4],[56,-80],[-39,-91],[-8,-54],[47,-1],[19,49],[52,7],[65,-17],[52,-30],[114,-16],[34,-39],[4,-29],[-27,-56]],[[8847,6830],[-89,-7],[-43,-40],[-14,-47],[-26,-13],[-28,-48],[-13,-44],[-41,-32],[-11,-25],[61,-124],[-3,-32],[31,-45],[56,-63],[66,-105],[23,-62],[107,-123],[16,-80]],[[8939,5940],[-9,-31],[19,-32],[-4,-70],[12,-55],[58,-88],[-13,-60],[47,-14],[41,-46]],[[9090,5544],[51,-77],[11,-36]],[[13128,6721],[-39,77],[-139,14],[-55,24],[-100,63],[-21,21],[-99,3],[-88,29],[-62,-3],[-174,42],[-94,-1],[-46,-65],[-28,-25],[-10,-43],[-39,-52],[-23,-49],[-74,-109],[-57,17],[-17,-29]],[[11963,6635],[-39,22],[-97,-132],[-83,13],[-77,-24],[-28,22],[-69,-34],[-7,-54],[28,-66],[-10,-52],[-94,-1],[-34,-16],[-57,-94],[-52,-55],[-55,-40],[-56,13],[-93,85],[-40,14],[-78,-3],[-29,-10],[-71,-46],[-55,0],[-32,21],[-42,8],[-31,113],[-22,46]],[[10740,6365],[9,63],[-34,143],[35,63],[-66,22],[-61,-15],[-45,4]],[[10421,7963],[155,57],[29,-2],[73,-62],[63,11],[28,-28],[106,-5],[29,20],[58,3],[23,29],[32,-14],[19,24],[125,60],[65,21],[152,4],[24,28],[-53,97],[-1,48],[-27,91],[12,22],[53,13],[138,125],[87,42],[54,12],[114,-79],[100,-79],[100,-39],[32,32],[96,19],[74,54],[43,102],[18,22],[59,103],[29,24],[69,125],[38,29],[-5,34],[25,40],[-3,36],[30,75]],[[10146,8609],[33,21],[76,22],[101,0],[62,35],[17,96],[16,38],[-44,34],[-4,30],[99,-5],[33,-11],[53,5],[6,50],[54,58],[82,69],[125,95],[51,46],[34,17],[77,15],[68,5],[35,-15],[54,-5],[68,15],[75,-43],[19,-32],[88,39],[114,42],[100,72],[-9,82],[3,151],[13,35],[0,83],[26,21],[-1,99],[33,60],[16,91],[31,63],[48,51],[-1,50],[-42,78],[9,56],[33,63]],[[8019,7590],[29,-67],[-18,-61],[60,-18],[12,-76],[-25,-6],[-15,-55],[-40,-45],[-8,-54]],[[7117,6709],[-25,53],[-48,69],[-17,40],[24,34],[-29,40],[-35,-14],[-38,40],[-32,81],[-70,64],[19,16]],[[9757,7030],[-18,4],[-65,-26],[-43,-46],[-10,-34],[15,-142],[-26,-32],[-43,-79],[-3,-114],[-27,-39],[-80,-89]],[[9457,6433],[-3,-62],[-23,-40],[-3,-69],[-32,-25]],[[9396,6237],[-32,-1],[-11,31],[6,49],[-53,-20],[-30,19]],[[9276,6315],[-36,46],[-35,68],[-29,37],[15,46],[-21,57],[-49,30],[-13,32],[-134,7],[-61,-37],[-38,34],[3,72],[40,65],[-3,43],[-68,15]],[[8441,7191],[0,111],[14,25],[37,-3],[56,58],[35,-4],[50,30],[29,-8],[7,56],[63,91],[26,-3],[27,-43],[65,5],[62,-18],[-14,-80],[65,-56],[44,-18],[-10,-79],[16,-44],[27,-33],[22,-55],[45,39],[23,-3],[24,-44],[23,-6],[45,79],[28,9],[102,2],[26,35],[-7,123],[35,70],[-8,32],[5,64],[-18,101],[17,56],[-11,40],[55,118],[65,28]],[[9882,4962],[51,26],[2,98],[34,30],[-25,48],[-3,43],[86,54],[78,27]],[[10105,5288],[44,-43]],[[10149,5245],[47,-24],[88,80],[15,46],[21,5],[12,-44],[2,-90],[-24,-59],[-11,-67],[32,-41],[-16,-59],[31,-69],[30,-41],[-6,-34],[29,-24],[39,15],[14,-42],[49,-71]],[[10501,4726],[-55,-4],[13,-67],[-30,-21],[19,-31],[3,-61],[-18,-25],[10,-54],[-49,0],[-19,-79],[-29,-38],[-41,-7],[-34,-27],[-14,52],[-33,64],[-53,48],[-95,7],[-40,11],[-19,-62],[-19,-25]],[[9276,6315],[-74,-18],[-12,-81],[-36,-41],[-26,-12],[1,-59],[-135,-104],[-55,-60]],[[10105,5288],[-49,73]],[[10056,5361],[-32,55],[-30,19],[-34,1],[-58,-29],[-33,23],[-1,120]],[[9868,5550],[23,32],[21,76],[45,39],[8,27],[32,16]],[[9997,5740],[105,44],[31,75],[22,12],[17,54],[-1,57],[16,76],[33,65],[96,48],[78,24],[53,-2],[35,-19],[56,-4]],[[10538,6170],[-13,-15],[-17,-68],[-33,-16],[-16,-32],[-40,-37],[-18,-34],[-9,-111]],[[10392,5857],[-41,22],[12,-112],[-21,-88],[6,-83],[-52,-48],[1,-25],[-35,-30],[13,-67],[-28,-45],[-3,-42],[-82,-71],[-13,-23]],[[9396,6237],[-36,-55],[64,-32],[40,-9],[-4,-44],[-45,-40],[69,-45]],[[9484,6012],[-91,-70],[-90,-21],[-26,-20],[-49,-68],[-19,7],[-51,-65],[10,-59],[-15,-35],[-30,-26],[-9,-68],[-24,-43]],[[9218,5465],[42,20],[17,-21],[22,-80],[-24,-42],[69,-15],[41,-41],[54,-81],[74,20],[16,77],[4,78],[-15,34],[9,106],[72,47],[21,32],[66,22],[21,33],[35,3],[33,28]],[[9775,5685],[70,-36],[-49,-55],[47,-39],[25,-5]],[[10056,5361],[-33,-33],[-12,-31],[-136,-36],[-9,44],[35,14],[-22,31],[-83,-34],[-25,-30],[-71,-52],[-17,-39],[-24,-110],[-15,-25],[-53,-49],[-48,-32]],[[9484,6012],[46,-13],[2,-38],[32,-112],[66,-63]],[[9630,5786],[39,-1],[10,-56],[81,-1]],[[9760,5728],[15,-43]],[[10740,6365],[-51,1],[-109,-75],[-42,-121]],[[9997,5740],[-81,5],[-21,27],[16,42],[-29,56],[-49,-8],[-19,36],[-46,25],[-28,41]],[[9740,5964],[21,34],[-10,29],[-5,99],[7,26],[8,249],[-6,82],[-22,65],[17,94],[-21,42],[19,45],[-2,34],[34,66],[-1,91],[22,39],[-8,51]],[[9740,5964],[-47,-33]],[[9693,5931],[-20,51],[-50,27]],[[9623,6009],[-67,42],[-25,37],[13,31],[-9,46],[-40,69],[-28,77],[-1,86],[-9,36]],[[9630,5786],[-24,174],[17,49]],[[9693,5931],[38,-50],[25,-61],[4,-92]],[[12035,701],[23,19],[23,67],[14,73],[78,-34]],[[12173,826],[17,-35],[34,-21],[6,-28],[58,-17],[16,-49],[48,-19],[-21,-25],[6,-66],[-36,-11],[-4,-45],[13,-56],[-3,-38],[-50,13]],[[12257,429],[-21,41],[-3,42],[-40,76],[-86,-46],[-22,2],[-17,59],[-20,5]],[[12048,608],[-13,93]],[[11879,1230],[-70,-76],[-27,-67],[-112,-26],[4,-33],[-34,-33],[-14,45],[-42,1],[-67,47]],[[11517,1088],[61,33],[21,26],[44,102],[94,45],[63,59],[43,6]],[[11843,1359],[38,-31],[21,-42],[-23,-56]],[[12079,1441],[75,26],[34,-37],[10,-48],[-16,-60]],[[12182,1322],[-8,-19],[10,-57],[-46,8],[-52,-9]],[[12086,1245],[-48,61],[-9,39],[22,72],[28,24]],[[12257,429],[-99,33],[25,-56],[-10,-63],[-21,-59]],[[12152,284],[-58,-15],[-93,16],[47,52],[-83,9],[-59,-37],[-38,-7],[-41,-49],[-39,-31],[-3,-65],[-55,2],[-97,25]],[[11633,184],[-25,7],[-36,131],[23,92]],[[11595,414],[26,26],[37,-8],[44,20],[24,-34],[25,-74],[104,48],[19,68],[48,29],[9,23],[41,-25],[39,5],[29,25],[17,52],[-9,39]],[[9850,800],[9,-20],[41,-5],[-12,-38],[-49,8],[-16,38],[27,17]],[[10534,676],[12,-38],[-63,8],[-74,48],[-8,27],[-49,65],[-14,35],[9,26],[62,6],[41,52],[43,-31],[-20,-33],[28,-49],[33,-9],[13,-29],[-52,0],[-34,-14],[23,-43],[50,-21]],[[10120,809],[-44,44],[37,64],[34,-10],[33,-40],[-60,-58]],[[10054,686],[-35,-1],[-39,28],[-20,38],[12,44],[53,-88],[29,-21]],[[10229,503],[-50,40],[26,24],[72,-16],[17,-55],[-65,7]],[[10832,525],[7,-42],[-26,-29],[9,-74],[19,-22],[-12,-34],[-35,-1],[-28,41],[-29,21],[-16,38],[-2,56],[-69,20],[-102,-18],[-14,-26],[-60,29],[-36,47],[-27,1],[-70,61],[-15,57],[-19,23],[-60,3],[23,52],[-39,41],[22,36],[21,-30],[47,-12],[59,-70],[-2,-37],[22,-44],[39,-29],[40,3],[48,-22],[42,20],[27,-19],[39,46],[0,41],[30,32],[34,-4],[4,-32],[39,-70],[20,0],[31,-44],[39,-9]],[[10570,390],[13,40],[32,6],[14,-26],[-33,-31],[-26,11]],[[10658,246],[-27,-16],[-13,36],[10,25],[38,1],[-8,-46]],[[11073,2287],[14,-42],[-15,-52],[2,-72],[-26,-13],[3,-77],[41,-36],[9,-27],[107,-38],[32,-36],[-9,-26]],[[11231,1868],[-20,-19],[-37,4],[-95,-11],[-92,-87],[-19,-45]],[[10968,1710],[-23,11],[-54,78],[-31,19],[-33,41],[-68,27],[1,46],[-38,45],[-51,44],[-30,6],[-12,34],[-59,25],[-49,36],[-55,60]],[[10466,2182],[20,37],[75,8],[47,59],[61,115],[13,133],[-17,84],[36,20],[163,-14],[35,-14],[-3,-40],[11,-81],[21,-43],[0,-44],[75,-68],[70,-47]],[[11517,1088],[-49,16],[-16,-62],[-22,-32]],[[11430,1010],[-59,-14],[-20,-18]],[[11351,978],[-42,54],[-96,30],[-15,35],[-45,49],[8,64]],[[11161,1210],[33,11],[38,39],[-50,103],[-14,56],[9,55],[53,-12],[90,41],[13,39],[29,15],[31,38],[87,49],[25,4],[100,59]],[[11605,1707],[77,-21],[-10,-46],[53,17],[19,-24],[-9,-46],[50,-16],[31,-46],[36,-25]],[[11852,1500],[-26,-55],[-30,-14],[-21,-36],[55,-12],[13,-24]],[[11595,414],[1,40],[-32,43],[-4,41],[-25,31],[-25,80],[-29,27]],[[11481,676],[17,38],[-7,84]],[[11491,798],[67,35],[12,-37],[52,-20],[16,-53],[42,-5],[14,-18],[61,34],[86,-1],[105,6],[25,24],[56,-3],[20,-15]],[[12047,745],[-12,-44]],[[11852,1500],[71,-13],[13,40],[-4,64],[25,39],[34,2],[41,27]],[[12032,1659],[13,-34],[45,-11],[25,-54],[-1,-61],[-35,-58]],[[12086,1245],[-67,-14],[6,-35],[-63,41],[-26,-3]],[[11936,1234],[-57,-4]],[[11662,1825],[-62,-25],[1,24],[-31,49],[-38,2]],[[11532,1875],[-22,48],[4,27],[-43,41],[31,71],[8,48],[42,56],[14,33]],[[11566,2199],[89,-11],[77,23],[34,31],[21,-20]],[[11787,2222],[16,-65],[-5,-33],[39,-17],[52,23],[31,-49],[7,-37],[52,-13],[1,-54],[73,-79]],[[12053,1898],[-5,-31],[-58,-28]],[[11990,1839],[-6,19],[-79,6],[-45,32],[-15,-16],[12,-57],[-86,5],[-20,28],[-42,-29],[-47,-2]],[[12152,284],[-5,-48],[-182,-11],[-66,-51],[-11,-76],[18,-66],[-168,-32],[-38,34],[-50,7],[-11,35],[23,40],[-29,68]],[[11073,2287],[17,8]],[[11090,2295],[13,-81],[71,-90],[35,26],[-16,110],[60,-17],[32,20],[62,-18],[70,10],[36,-34],[113,-22]],[[11532,1875],[-33,-32],[-23,-43],[-96,2],[-44,16],[-37,-2],[-27,37],[-41,15]],[[11430,1010],[-9,-43],[11,-42],[29,-38],[3,-68],[27,-21]],[[11481,676],[-72,48],[-35,8],[-17,46],[-37,20],[18,67],[-12,38],[4,57],[21,18]],[[11605,1707],[5,46],[53,38],[-1,34]],[[11990,1839],[-25,-30],[-15,-54],[5,-34],[38,-17],[39,-45]],[[12053,1898],[47,20],[38,-8],[58,5],[15,12]],[[12211,1927],[28,-44],[-3,-35],[-42,-56],[15,-31],[53,0],[34,-13],[27,15],[-28,32],[1,24],[33,13],[17,-35],[58,19]],[[12404,1816],[-61,-61],[-27,-15],[22,-36],[-44,-50],[31,-39],[-27,-25],[43,-37],[25,-6],[70,-47],[15,-39],[-48,-17],[-50,-1],[-16,-22],[-76,-31],[-3,-26],[22,-47]],[[12280,1317],[-30,0],[-34,-37],[-34,42]],[[12047,745],[-19,44],[-25,17],[-42,78],[2,74],[-44,45],[3,53],[-16,58],[28,8],[2,112]],[[12280,1317],[-63,-63],[10,-67],[-28,-26],[3,-43],[35,19],[33,-32],[27,-5],[17,-44],[0,-38],[-68,-12],[-19,-83],[24,-30],[-80,-43],[2,-24]],[[11161,1210],[-5,22],[-72,38],[-10,-12],[42,-83],[-28,-33],[15,-122],[-16,10],[-6,153],[-37,127],[-2,115],[-15,8],[2,80],[-23,-1],[19,94],[-9,65],[-48,39]],[[12991,1566],[-52,-6],[-92,94],[-72,91],[-56,49],[-44,20],[-16,28],[-55,8],[-36,25],[-29,-14],[-63,-1]],[[12476,1860],[-18,61],[-28,32],[-36,-1]],[[12394,1952],[-16,38],[6,52],[-38,57],[-32,79],[47,15],[30,-22]],[[12391,2171],[12,-54],[67,-7],[41,17],[42,0],[20,33],[20,92],[21,32],[28,78],[27,11],[63,-96],[29,60],[34,30],[41,-22]],[[11870,2518],[-38,-77],[-78,15],[-47,35],[12,90],[-44,-3],[-40,36],[-6,91],[-23,14],[-47,-11],[-11,49],[15,69]],[[11563,2826],[48,13],[39,-50],[16,56],[50,15],[-2,36],[63,41],[11,30],[171,54],[28,-19],[24,-46],[13,-64]],[[12024,2892],[-19,-10],[11,-71],[-6,-148],[-47,-31],[-8,-56],[-43,-1],[-60,42],[18,-99]],[[13141,2967],[-39,22],[0,51],[-28,29],[-38,3],[-49,41]],[[12987,3113],[-13,47],[-39,60],[-6,57],[-48,28],[-38,-8],[-65,-29],[-18,-39],[-35,-15]],[[12725,3214],[-45,37],[-26,2],[8,51],[-32,74],[26,83],[-37,16],[-35,68],[-1,29],[-26,52],[-26,108]],[[12531,3734],[4,50],[28,50],[22,113],[-22,65],[10,30],[55,78],[-19,56],[-28,-3],[-20,55],[18,84],[-13,84],[-13,11],[-11,90],[-32,110],[-22,-29],[-71,98],[-43,6],[-73,27],[-2,59],[-75,32],[-57,8],[-10,21],[-52,-46]],[[12105,4783],[-44,12],[-55,-5],[-66,12],[-34,33],[-9,35],[8,75],[-41,25],[23,33],[-24,95],[35,60],[7,107],[47,14],[-13,26],[60,33],[51,70],[-37,67],[-2,54],[23,65],[-13,42],[7,66],[20,81],[-20,48],[13,40],[26,30],[38,104],[23,20],[-2,47],[-67,88],[-22,45],[-10,50],[3,47],[-31,69],[3,23],[-70,18],[-26,18],[-6,37],[35,40],[-8,40],[36,88]],[[11090,2295],[-24,10],[-21,51],[-35,119],[70,-2],[0,66],[-22,20],[-14,62],[-3,84],[46,29],[-16,54],[-2,123],[-8,79],[-49,30],[9,48],[-15,61]],[[11006,3129],[12,23],[1,60],[13,33],[58,11],[62,-17],[22,-35],[61,58],[-8,111],[-43,-11],[-36,8],[-74,49],[-8,39],[-66,4],[-100,26],[-77,0],[-8,35],[33,46],[10,36],[-14,60],[-37,12],[24,115],[-25,10],[-14,46]],[[10792,3848],[8,14]],[[10800,3862],[19,1],[41,52],[8,47],[43,56],[9,29],[51,47],[24,55],[33,49],[39,6],[39,-11],[36,54],[34,28],[33,2],[33,-32],[80,-17],[22,-23]],[[11344,4205],[36,-41]],[[11380,4164],[-72,-69],[18,-32],[-16,-46],[9,-38],[30,-26],[8,-52],[20,-44],[-23,-19],[-1,-34],[19,-35],[-30,-33],[-5,-55],[-43,-45],[4,-99],[28,-11],[-60,-63],[-11,-51],[22,-51],[72,-87],[43,-7],[25,49],[8,43],[44,-12],[35,-30],[51,6],[-5,-43],[34,-71],[-16,-18],[-48,80],[-42,-20],[-20,10],[-24,-84],[1,-44],[-26,-59],[-2,-37],[47,-9],[4,-42],[55,-56],[40,-2],[-37,-44],[47,-58]],[[11870,2518],[36,-148],[-85,-6],[23,-69],[-6,-40],[-51,-33]],[[12725,3214],[-2,-64],[-23,-30],[-33,-11],[1,-41],[-46,-27],[4,-37],[-21,-18],[-50,-5]],[[12555,2981],[-13,38],[6,36],[-51,133],[-36,-8],[-58,-48],[-24,32],[-46,-8]],[[12333,3156],[24,59],[9,50],[-9,130],[16,75],[-31,31],[95,42],[-46,51],[32,29],[27,66],[22,25],[59,20]],[[10271,2380],[-11,-15],[-50,53],[-24,-8]],[[10186,2410],[-46,57],[-9,27],[-74,66],[4,86],[-21,7]],[[10040,2653],[36,31],[10,32],[-17,33],[14,43],[36,13],[-7,62],[26,25],[-10,96],[11,32],[38,40],[11,39],[36,5]],[[10224,3104],[23,-65],[28,-48],[1,-36],[23,-66],[32,-35],[28,-145],[-16,-52],[-61,-61],[-10,-32],[23,-67],[0,-43],[-24,-74]],[[12211,1927],[0,12],[91,23],[14,-20],[78,10]],[[12476,1860],[-26,-26],[-46,-18]],[[12333,3156],[-12,-30],[-48,-33],[-43,-78],[-39,-31],[-27,-2]],[[12164,2982],[-33,106],[-1,71],[37,33],[1,82],[-42,73],[19,31],[-5,76],[32,47],[-61,115],[-15,14],[12,108],[43,57],[45,39],[26,76],[17,26],[-12,68],[11,153],[-51,65],[-91,-49],[-52,47],[-31,-13],[-24,44],[38,20],[-3,56],[-22,9],[-62,-42],[-25,23]],[[11915,4317],[-15,88],[-71,102],[37,37],[-1,34],[-27,30],[8,62],[67,-16],[37,16],[37,-12],[19,29],[56,29],[57,44],[-14,23]],[[12987,3113],[-39,5],[-30,-26],[15,-104],[-29,-31],[-23,-89],[-36,-28],[-30,15],[-46,-4],[-25,-17],[-11,-50],[-31,-23],[-22,9],[-74,-35],[-8,124]],[[12598,2859],[35,21],[-11,37],[-28,18],[-39,46]],[[11915,4317],[-62,-20],[-45,25],[-14,-24],[-47,-3],[-6,-66],[-37,-15],[-41,-82],[-60,19],[-89,-8],[-15,52],[-64,15],[7,-65],[-41,-5],[-21,24]],[[11344,4205],[-18,46],[40,41],[2,34],[-29,105],[-20,37]],[[11319,4468],[12,36],[-38,223],[2,36],[21,24],[-17,47],[10,63],[-5,64],[-48,-3],[-13,24],[-95,-112],[-112,-8],[7,-81],[-18,-17],[-18,-53],[-26,18],[-41,-17],[-50,5],[-50,39],[-40,55],[-26,84],[-35,7]],[[10739,4902],[-9,59],[-28,37],[10,18],[42,-3],[41,66],[-40,31],[-59,11],[-23,37],[-6,60],[19,52],[31,1],[60,-27],[49,9],[22,21],[18,75],[-102,-27],[-37,55],[-72,8],[-37,68],[-2,53],[23,33],[3,37],[25,18],[-50,54],[-38,61],[-50,54],[-44,96],[-25,9],[-68,-11]],[[10035,3804],[20,2],[86,46],[37,37],[47,1],[38,-38],[49,29],[35,-32],[56,41],[17,-17],[24,-66],[49,1],[44,-54],[43,-11],[41,-40],[-67,6],[0,-44],[40,-9],[2,-22],[58,8],[30,44],[-10,63],[15,23],[103,76]],[[11006,3129],[-52,-10],[-102,4],[-82,42],[-66,26],[-37,63],[-63,4],[12,-96],[48,-100],[-24,-95],[2,-86],[15,-37],[-8,-122],[-39,-104],[-35,-14],[-49,-61],[-34,-107],[-42,4],[-83,-34],[-96,-26]],[[10224,3104],[45,32],[18,106],[24,37],[-31,46],[-22,67],[-34,17],[-17,52],[-55,1],[-59,-23],[-16,71],[-95,36],[-64,-26],[-46,-62],[-28,-22],[-57,-15],[-39,-46]],[[9748,3375],[-49,37],[-25,42]],[[10040,2653],[-33,6],[-1,28],[-28,35],[-14,100],[-58,76],[6,17],[-27,48],[-10,48],[-52,30],[11,20],[-28,32],[-24,90],[18,28],[-52,164]],[[12391,2171],[21,12],[-2,50],[-40,37],[-1,71],[32,47],[-31,58],[-53,18],[-31,41],[55,21],[41,68],[55,57],[28,46],[34,117],[46,51],[53,-6]],[[10739,4902],[-28,-25],[-35,1],[-55,-52],[-22,-42],[-43,-20],[-23,-76],[-29,-17]],[[10504,4671],[-21,7],[18,48]],[[9974,4221],[-3,-29],[94,-34],[46,21],[59,-41],[22,14],[26,-32],[45,45],[18,61],[54,-7],[23,44],[-40,37],[19,18],[38,-5],[82,37],[31,-83],[-49,-27],[42,-85],[-15,-36],[13,-37],[61,-48],[87,54],[18,31]],[[10645,4119],[41,-28],[114,-229]],[[10504,4671],[84,-46],[8,-66],[-17,-36],[3,-50],[60,-34],[3,-55],[-12,-111],[-15,-31],[1,-43],[25,-22],[-1,-40]],[[10643,4137],[2,-18]],[[11319,4468],[-17,-22],[-82,2],[-52,-10],[-75,-56],[-80,-25],[-52,-6],[-20,-25],[-9,-49],[-20,-28],[-35,-16],[-20,-32],[-70,-34],[-63,31],[-34,-34],[-47,-27]],[[12024,2892],[67,-18],[33,31],[7,44],[33,33]],[[10466,2182],[-42,26],[-28,40],[-60,14],[-55,46],[-95,102]]],"transform":{"scale":[0.0007098360350088865,0.0006326626253308734],"translate":[34.4986647,16.3795278]},"objects":{"SAU":{"type":"GeometryCollection","geometries":[{"arcs":[[0]],"type":"Polygon","properties":{"name":"Al Khubar Governorate","shapeGroup":"SAU","gid":"SAU-2-0"},"id":"SAU-2-0"},{"arcs":[[1,2,3,4]],"type":"Polygon","properties":{"name":"Abqaiq Governorate","shapeGroup":"SAU","gid":"SAU-2-1"},"id":"SAU-2-1"},{"arcs":[[-5,5,6,7,8,9,10,11,12,13,14]],"type":"Polygon","properties":{"name":"Al Ahsa Governorate","shapeGroup":"SAU","gid":"SAU-2-2"},"id":"SAU-2-2"},{"arcs":[[-7,15,16]],"type":"Polygon","properties":{"name":"Al Udayd Governorate","shapeGroup":"SAU","gid":"SAU-2-3"},"id":"SAU-2-3"},{"arcs":[[-2,-15,17,18,19]],"type":"Polygon","properties":{"name":"Al Nuayriyah Governorate","shapeGroup":"SAU","gid":"SAU-2-4"},"id":"SAU-2-4"},{"arcs":[[20,21,22]],"type":"Polygon","properties":{"name":"Al Qatif Governorate","shapeGroup":"SAU","gid":"SAU-2-5"},"id":"SAU-2-5"},{"arcs":[[-22,23,24]],"type":"Polygon","properties":{"name":"Ras Tannurah Governorate","shapeGroup":"SAU","gid":"SAU-2-6"},"id":"SAU-2-6"},{"arcs":[[-3,-20,25,26,-24,-21,27]],"type":"Polygon","properties":{"name":"Al Jubayl Governorate","shapeGroup":"SAU","gid":"SAU-2-7"},"id":"SAU-2-7"},{"arcs":[[-19,28,29,30,-26]],"type":"Polygon","properties":{"name":"Al Khafji Governorate","shapeGroup":"SAU","gid":"SAU-2-8"},"id":"SAU-2-8"},{"arcs":[[-30,31,32,33,34,35]],"type":"Polygon","properties":{"name":"Hafar Al Batin Governorate","shapeGroup":"SAU","gid":"SAU-2-9"},"id":"SAU-2-9"},{"arcs":[[-14,36,37,-32,-29,-18]],"type":"Polygon","properties":{"name":"Qaryah Al Ulya Governorate","shapeGroup":"SAU","gid":"SAU-2-10"},"id":"SAU-2-10"},{"arcs":[[38,39,40]],"type":"Polygon","properties":{"name":"Uyun Al Jiwa","shapeGroup":"SAU","gid":"SAU-2-11"},"id":"SAU-2-11"},{"arcs":[[41,42,43,44,45,46,47]],"type":"Polygon","properties":{"name":"Al Midhnab","shapeGroup":"SAU","gid":"SAU-2-12"},"id":"SAU-2-12"},{"arcs":[[-34,48,49,50,51,52,53]],"type":"Polygon","properties":{"name":"Al Asyah","shapeGroup":"SAU","gid":"SAU-2-13"},"id":"SAU-2-13"},{"arcs":[[[54,55,56,57]],[[58,59]],[[60,61,62,63]]],"type":"MultiPolygon","properties":{"name":"Riyadh Al Khabra","shapeGroup":"SAU","gid":"SAU-2-14"},"id":"SAU-2-14"},{"arcs":[[-42,64,65,66,67]],"type":"Polygon","properties":{"name":"Unayzah","shapeGroup":"SAU","gid":"SAU-2-15"},"id":"SAU-2-15"},{"arcs":[[-55,68,69,70,71,72,73]],"type":"Polygon","properties":{"name":"Uqlat As Suqur","shapeGroup":"SAU","gid":"SAU-2-16"},"id":"SAU-2-16"},{"arcs":[[-59,74,75,-70,76]],"type":"Polygon","properties":{"name":"An Nabhaniyah","shapeGroup":"SAU","gid":"SAU-2-17"},"id":"SAU-2-17"},{"arcs":[[-48,77,78,79,80,-65]],"type":"Polygon","properties":{"name":"Al Badai","shapeGroup":"SAU","gid":"SAU-2-18"},"id":"SAU-2-18"},{"arcs":[[-41,81,-80,82,-61,83,-57,84,85]],"type":"Polygon","properties":{"name":"Al Bukayriyah","shapeGroup":"SAU","gid":"SAU-2-19"},"id":"SAU-2-19"},{"arcs":[[-71,-76,86,87,88,89]],"type":"Polygon","properties":{"name":"Dariyah","shapeGroup":"SAU","gid":"SAU-2-20"},"id":"SAU-2-20"},{"arcs":[[[-40,90,91,-52,92,-66,-81,-82]],[[-58,-84,-64,93,94,-87,-75,-60,-77,-69]],[[-45,95,96]],[[-43,-68,97]],[[-62,-83,-79,98]]],"type":"MultiPolygon","properties":{"name":"Buraydah","shapeGroup":"SAU","gid":"SAU-2-21"},"id":"SAU-2-21"},{"arcs":[[-47,99,-94,-63,-99,-78]],"type":"Polygon","properties":{"name":"Ar Rass","shapeGroup":"SAU","gid":"SAU-2-22"},"id":"SAU-2-22"},{"arcs":[[-44,-98,-67,-93,-51,100,101,102,103,-96]],"type":"Polygon","properties":{"name":"Ash Shimasiyah","shapeGroup":"SAU","gid":"SAU-2-23"},"id":"SAU-2-23"},{"arcs":[[104,105,106,107]],"type":"Polygon","properties":{"name":"Mawqaq","shapeGroup":"SAU","gid":"SAU-2-24"},"id":"SAU-2-24"},{"arcs":[[-53,-92,108,109,110,111,112]],"type":"Polygon","properties":{"name":"Baqa","shapeGroup":"SAU","gid":"SAU-2-25"},"id":"SAU-2-25"},{"arcs":[[-107,113,114,115,-110,116,117]],"type":"Polygon","properties":{"name":"Hail","shapeGroup":"SAU","gid":"SAU-2-26"},"id":"SAU-2-26"},{"arcs":[[-39,-86,118,119,-117,-109,-91]],"type":"Polygon","properties":{"name":"Ash Shinan","shapeGroup":"SAU","gid":"SAU-2-27"},"id":"SAU-2-27"},{"arcs":[[-73,120,121,122,123]],"type":"Polygon","properties":{"name":"As Sulaymi","shapeGroup":"SAU","gid":"SAU-2-28"},"id":"SAU-2-28"},{"arcs":[[-122,124,125,126,127,128]],"type":"Polygon","properties":{"name":"Al Hait","shapeGroup":"SAU","gid":"SAU-2-29"},"id":"SAU-2-29"},{"arcs":[[-56,-74,-124,129,-119,-85]],"type":"Polygon","properties":{"name":"Simira","shapeGroup":"SAU","gid":"SAU-2-30"},"id":"SAU-2-30"},{"arcs":[[-105,130,-128,131,132]],"type":"Polygon","properties":{"name":"Ash Shamli","shapeGroup":"SAU","gid":"SAU-2-31"},"id":"SAU-2-31"},{"arcs":[[-108,-118,-120,-130,-123,-129,-131]],"type":"Polygon","properties":{"name":"Al Ghazalah","shapeGroup":"SAU","gid":"SAU-2-32"},"id":"SAU-2-32"},{"arcs":[[-35,-54,-113,133,134]],"type":"Polygon","properties":{"name":"Rafha","shapeGroup":"SAU","gid":"SAU-2-33"},"id":"SAU-2-33"},{"arcs":[[135,136,137,138]],"type":"Polygon","properties":{"name":"Arar","shapeGroup":"SAU","gid":"SAU-2-34"},"id":"SAU-2-34"},{"arcs":[[-138,139,140,141,142,143]],"type":"Polygon","properties":{"name":"Turayf","shapeGroup":"SAU","gid":"SAU-2-35"},"id":"SAU-2-35"},{"arcs":[[-112,144,-136,145,-134]],"type":"Polygon","properties":{"name":"Al Uwayqilah","shapeGroup":"SAU","gid":"SAU-2-36"},"id":"SAU-2-36"},{"arcs":[[-111,-116,146,-140,-137,-145]],"type":"Polygon","properties":{"name":"Sakaka","shapeGroup":"SAU","gid":"SAU-2-37"},"id":"SAU-2-37"},{"arcs":[[-143,147,148,149]],"type":"Polygon","properties":{"name":"Al Qurayyat","shapeGroup":"SAU","gid":"SAU-2-38"},"id":"SAU-2-38"},{"arcs":[[-142,150,151,-148]],"type":"Polygon","properties":{"name":"Tubarjal","shapeGroup":"SAU","gid":"SAU-2-39"},"id":"SAU-2-39"},{"arcs":[[-115,152,153,-151,-141,-147]],"type":"Polygon","properties":{"name":"Dawamat Al Jandal","shapeGroup":"SAU","gid":"SAU-2-40"},"id":"SAU-2-40"},{"arcs":[[[154,155,156,157,158]],[[159]],[[160]],[[161]]],"type":"MultiPolygon","properties":{"name":"Umluj","shapeGroup":"SAU","gid":"SAU-2-41"},"id":"SAU-2-41"},{"arcs":[[-106,-133,162,163,164,165,-153,-114]],"type":"Polygon","properties":{"name":"Tayma","shapeGroup":"SAU","gid":"SAU-2-42"},"id":"SAU-2-42"},{"arcs":[[-159,166,167,168,-165,169]],"type":"Polygon","properties":{"name":"Al Wajh","shapeGroup":"SAU","gid":"SAU-2-43"},"id":"SAU-2-43"},{"arcs":[[-168,170,171,172]],"type":"Polygon","properties":{"name":"Duba","shapeGroup":"SAU","gid":"SAU-2-44"},"id":"SAU-2-44"},{"arcs":[[-172,173,174,175]],"type":"Polygon","properties":{"name":"Al Bad","shapeGroup":"SAU","gid":"SAU-2-45"},"id":"SAU-2-45"},{"arcs":[[[-149,-152,-154,-166,-169,-173,-176,176,177]],[[178]],[[179]]],"type":"MultiPolygon","properties":{"name":"Tabuk","shapeGroup":"SAU","gid":"SAU-2-46"},"id":"SAU-2-46"},{"arcs":[[-175,180,-177]],"type":"Polygon","properties":{"name":"Haqil","shapeGroup":"SAU","gid":"SAU-2-47"},"id":"SAU-2-47"},{"arcs":[[181,182,183,184,185,186]],"type":"Polygon","properties":{"name":"Marat","shapeGroup":"SAU","gid":"SAU-2-48"},"id":"SAU-2-48"},{"arcs":[[187,188,189,190,191,192,193]],"type":"Polygon","properties":{"name":"Wadi Ad Dawasir","shapeGroup":"SAU","gid":"SAU-2-49"},"id":"SAU-2-49"},{"arcs":[[-183,194,195,196,197]],"type":"Polygon","properties":{"name":"Thadiq","shapeGroup":"SAU","gid":"SAU-2-50"},"id":"SAU-2-50"},{"arcs":[[198,199,200]],"type":"Polygon","properties":{"name":"Ad Diriyah","shapeGroup":"SAU","gid":"SAU-2-51"},"id":"SAU-2-51"},{"arcs":[[201,202,203,204,205]],"type":"Polygon","properties":{"name":"Ad Dilam","shapeGroup":"SAU","gid":"SAU-2-52"},"id":"SAU-2-52"},{"arcs":[[-185,206,-201,207,208,209]],"type":"Polygon","properties":{"name":"Duruma","shapeGroup":"SAU","gid":"SAU-2-53"},"id":"SAU-2-53"},{"arcs":[[-102,210,211,212]],"type":"Polygon","properties":{"name":"Al Ghat","shapeGroup":"SAU","gid":"SAU-2-54"},"id":"SAU-2-54"},{"arcs":[[-9,213,214,-192,215]],"type":"Polygon","properties":{"name":"As Sulayyil","shapeGroup":"SAU","gid":"SAU-2-55"},"id":"SAU-2-55"},{"arcs":[[-205,216,217,218]],"type":"Polygon","properties":{"name":"Hawtat Bani Tamim","shapeGroup":"SAU","gid":"SAU-2-56"},"id":"SAU-2-56"},{"arcs":[[-202,219,220,221,-209,222]],"type":"Polygon","properties":{"name":"Al Muzahimiyah","shapeGroup":"SAU","gid":"SAU-2-57"},"id":"SAU-2-57"},{"arcs":[[-184,-198,223,224,-199,-207]],"type":"Polygon","properties":{"name":"Huraymila","shapeGroup":"SAU","gid":"SAU-2-58"},"id":"SAU-2-58"},{"arcs":[[-186,-210,-222,225,-189,226,227,228,229]],"type":"Polygon","properties":{"name":"Al Quwayiyah","shapeGroup":"SAU","gid":"SAU-2-59"},"id":"SAU-2-59"},{"arcs":[[-10,-216,-191,230,231,-218,232]],"type":"Polygon","properties":{"name":"Al Aflaj","shapeGroup":"SAU","gid":"SAU-2-60"},"id":"SAU-2-60"},{"arcs":[[-50,233,-211,-101]],"type":"Polygon","properties":{"name":"Az Zulfi","shapeGroup":"SAU","gid":"SAU-2-61"},"id":"SAU-2-61"},{"arcs":[[-33,-38,234,-196,235,-212,-234,-49]],"type":"Polygon","properties":{"name":"Al Majmaah","shapeGroup":"SAU","gid":"SAU-2-62"},"id":"SAU-2-62"},{"arcs":[[-11,-233,-217,-204,236]],"type":"Polygon","properties":{"name":"Al Kharj","shapeGroup":"SAU","gid":"SAU-2-63"},"id":"SAU-2-63"},{"arcs":[[-103,-213,-236,-195,-182,237]],"type":"Polygon","properties":{"name":"Shaqra","shapeGroup":"SAU","gid":"SAU-2-64"},"id":"SAU-2-64"},{"arcs":[[-206,-219,-232,238,-220]],"type":"Polygon","properties":{"name":"Al Hariq","shapeGroup":"SAU","gid":"SAU-2-65"},"id":"SAU-2-65"},{"arcs":[[-12,-237,-203,-223,-208,-200,-225,239]],"type":"Polygon","properties":{"name":"Riyadh","shapeGroup":"SAU","gid":"SAU-2-66"},"id":"SAU-2-66"},{"arcs":[[-46,-97,-104,-238,-187,-230,240,-88,-95,-100]],"type":"Polygon","properties":{"name":"Ad Duwadimi","shapeGroup":"SAU","gid":"SAU-2-67"},"id":"SAU-2-67"},{"arcs":[[-190,-226,-221,-239,-231]],"type":"Polygon","properties":{"name":"Ar Rayn","shapeGroup":"SAU","gid":"SAU-2-68"},"id":"SAU-2-68"},{"arcs":[[-13,-240,-224,-197,-235,-37]],"type":"Polygon","properties":{"name":"Rumah","shapeGroup":"SAU","gid":"SAU-2-69"},"id":"SAU-2-69"},{"arcs":[[-89,-241,-229,241,242,243,244]],"type":"Polygon","properties":{"name":"Afif","shapeGroup":"SAU","gid":"SAU-2-70"},"id":"SAU-2-70"},{"arcs":[[245,246,247,248,249]],"type":"Polygon","properties":{"name":"Khubash","shapeGroup":"SAU","gid":"SAU-2-71"},"id":"SAU-2-71"},{"arcs":[[-250,250,251,252,253,254,255]],"type":"Polygon","properties":{"name":"Thar","shapeGroup":"SAU","gid":"SAU-2-72"},"id":"SAU-2-72"},{"arcs":[[-249,256,257,258,259,-251]],"type":"Polygon","properties":{"name":"Najran","shapeGroup":"SAU","gid":"SAU-2-73"},"id":"SAU-2-73"},{"arcs":[[-193,-215,260,-246,-256,261]],"type":"Polygon","properties":{"name":"Yadamah","shapeGroup":"SAU","gid":"SAU-2-74"},"id":"SAU-2-74"},{"arcs":[[-8,-17,262,-247,-261,-214]],"type":"Polygon","properties":{"name":"Sharurah","shapeGroup":"SAU","gid":"SAU-2-75"},"id":"SAU-2-75"},{"arcs":[[-253,263,-259,264,265]],"type":"Polygon","properties":{"name":"Badr Al Janub","shapeGroup":"SAU","gid":"SAU-2-76"},"id":"SAU-2-76"},{"arcs":[[-252,-260,-264]],"type":"Polygon","properties":{"name":"Hubuna","shapeGroup":"SAU","gid":"SAU-2-77"},"id":"SAU-2-77"},{"arcs":[[-126,266,267,268,269,270,271,272]],"type":"Polygon","properties":{"name":"Al Madinah Al Munawwarah","shapeGroup":"SAU","gid":"SAU-2-78"},"id":"SAU-2-78"},{"arcs":[[-244,273,274,275,276,277,-268,278]],"type":"Polygon","properties":{"name":"Al Mahd","shapeGroup":"SAU","gid":"SAU-2-79"},"id":"SAU-2-79"},{"arcs":[[-157,279,-271,280,281]],"type":"Polygon","properties":{"name":"Yanbu","shapeGroup":"SAU","gid":"SAU-2-80"},"id":"SAU-2-80"},{"arcs":[[-72,-90,-245,-279,-267,-125,-121]],"type":"Polygon","properties":{"name":"Al Hinakiyah","shapeGroup":"SAU","gid":"SAU-2-81"},"id":"SAU-2-81"},{"arcs":[[-127,-273,282,283,-163,-132]],"type":"Polygon","properties":{"name":"Khaybar","shapeGroup":"SAU","gid":"SAU-2-82"},"id":"SAU-2-82"},{"arcs":[[-155,-170,-164,-284,284]],"type":"Polygon","properties":{"name":"Al Ula","shapeGroup":"SAU","gid":"SAU-2-83"},"id":"SAU-2-83"},{"arcs":[[-156,-285,-283,-272,-280]],"type":"Polygon","properties":{"name":"Al Is","shapeGroup":"SAU","gid":"SAU-2-84"},"id":"SAU-2-84"},{"arcs":[[-269,-278,285,286,287]],"type":"Polygon","properties":{"name":"Wadi Al Fara","shapeGroup":"SAU","gid":"SAU-2-85"},"id":"SAU-2-85"},{"arcs":[[-270,-288,288,289,-281]],"type":"Polygon","properties":{"name":"Badr","shapeGroup":"SAU","gid":"SAU-2-86"},"id":"SAU-2-86"},{"arcs":[[-276,290,291]],"type":"Polygon","properties":{"name":"Al Kamil","shapeGroup":"SAU","gid":"SAU-2-87"},"id":"SAU-2-87"},{"arcs":[[292,293,294]],"type":"Polygon","properties":{"name":"Makkah Al Mukarramah","shapeGroup":"SAU","gid":"SAU-2-88"},"id":"SAU-2-88"},{"arcs":[[[295,296,297,298,299,300,301,302,303]],[[304]]],"type":"MultiPolygon","properties":{"name":"Al Qunfudhah","shapeGroup":"SAU","gid":"SAU-2-89"},"id":"SAU-2-89"},{"arcs":[[305,306,307,308,309]],"type":"Polygon","properties":{"name":"Jiddah","shapeGroup":"SAU","gid":"SAU-2-90"},"id":"SAU-2-90"},{"arcs":[[-277,-292,310,-307,311,-286]],"type":"Polygon","properties":{"name":"Khulays","shapeGroup":"SAU","gid":"SAU-2-91"},"id":"SAU-2-91"},{"arcs":[[312,313,314,315,316,317]],"type":"Polygon","properties":{"name":"Turubah","shapeGroup":"SAU","gid":"SAU-2-92"},"id":"SAU-2-92"},{"arcs":[[-275,318,-294,319,-308,-311,-291]],"type":"Polygon","properties":{"name":"Al Jumum","shapeGroup":"SAU","gid":"SAU-2-93"},"id":"SAU-2-93"},{"arcs":[[-287,-312,-306,320,-289]],"type":"Polygon","properties":{"name":"Rabigh","shapeGroup":"SAU","gid":"SAU-2-94"},"id":"SAU-2-94"},{"arcs":[[-301,321,322,323,324,325,326,327]],"type":"Polygon","properties":{"name":"Al Lith","shapeGroup":"SAU","gid":"SAU-2-95"},"id":"SAU-2-95"},{"arcs":[[-188,328,329,330,-314,331,-227]],"type":"Polygon","properties":{"name":"Ranyah","shapeGroup":"SAU","gid":"SAU-2-96"},"id":"SAU-2-96"},{"arcs":[[-228,-332,-313,332,-242]],"type":"Polygon","properties":{"name":"Al Khurmah","shapeGroup":"SAU","gid":"SAU-2-97"},"id":"SAU-2-97"},{"arcs":[[-293,333,-323,334,-309,-320]],"type":"Polygon","properties":{"name":"Bahrah","shapeGroup":"SAU","gid":"SAU-2-98"},"id":"SAU-2-98"},{"arcs":[[-317,335,336,337,338,-325,339]],"type":"Polygon","properties":{"name":"Maysan","shapeGroup":"SAU","gid":"SAU-2-99"},"id":"SAU-2-99"},{"arcs":[[-296,340,341,342,343]],"type":"Polygon","properties":{"name":"Al Ardiyat","shapeGroup":"SAU","gid":"SAU-2-100"},"id":"SAU-2-100"},{"arcs":[[-326,-339,344]],"type":"Polygon","properties":{"name":"Adam","shapeGroup":"SAU","gid":"SAU-2-101"},"id":"SAU-2-101"},{"arcs":[[-342,345,346,347,348,349,350]],"type":"Polygon","properties":{"name":"Biljurashi","shapeGroup":"SAU","gid":"SAU-2-102"},"id":"SAU-2-102"},{"arcs":[[-327,-345,-338,351,352]],"type":"Polygon","properties":{"name":"Al Hajrah","shapeGroup":"SAU","gid":"SAU-2-103"},"id":"SAU-2-103"},{"arcs":[[-303,353,354,-347,355]],"type":"Polygon","properties":{"name":"Al Mukhwah","shapeGroup":"SAU","gid":"SAU-2-104"},"id":"SAU-2-104"},{"arcs":[[-302,-328,-353,356,357,358,-354]],"type":"Polygon","properties":{"name":"Qilwah","shapeGroup":"SAU","gid":"SAU-2-105"},"id":"SAU-2-105"},{"arcs":[[-315,-331,359,-349,360,361]],"type":"Polygon","properties":{"name":"Al Aqiq","shapeGroup":"SAU","gid":"SAU-2-106"},"id":"SAU-2-106"},{"arcs":[[-316,-362,362,363,364,-336]],"type":"Polygon","properties":{"name":"Al Qara","shapeGroup":"SAU","gid":"SAU-2-107"},"id":"SAU-2-107"},{"arcs":[[-358,365,-364,366]],"type":"Polygon","properties":{"name":"Bani Hasan","shapeGroup":"SAU","gid":"SAU-2-108"},"id":"SAU-2-108"},{"arcs":[[-337,-365,-366,-357,-352]],"type":"Polygon","properties":{"name":"Al Mandaq","shapeGroup":"SAU","gid":"SAU-2-109"},"id":"SAU-2-109"},{"arcs":[[-348,-355,-359,-367,-363,-361]],"type":"Polygon","properties":{"name":"Al Bahah","shapeGroup":"SAU","gid":"SAU-2-110"},"id":"SAU-2-110"},{"arcs":[[-304,-356,-346,-341]],"type":"Polygon","properties":{"name":"Farat Ghamid Az Zinad","shapeGroup":"SAU","gid":"SAU-2-111"},"id":"SAU-2-111"},{"arcs":[[367,368,369,370]],"type":"Polygon","properties":{"name":"Al Harth","shapeGroup":"SAU","gid":"SAU-2-112"},"id":"SAU-2-112"},{"arcs":[[371,372,373]],"type":"Polygon","properties":{"name":"Damad","shapeGroup":"SAU","gid":"SAU-2-113"},"id":"SAU-2-113"},{"arcs":[[374,375,376]],"type":"Polygon","properties":{"name":"Fayfa","shapeGroup":"SAU","gid":"SAU-2-114"},"id":"SAU-2-114"},{"arcs":[[-370,377,378,379,380]],"type":"Polygon","properties":{"name":"Samtah","shapeGroup":"SAU","gid":"SAU-2-115"},"id":"SAU-2-115"},{"arcs":[[[381]],[[382]],[[383]],[[384]],[[385]],[[386]],[[387]],[[388]]],"type":"MultiPolygon","properties":{"name":"Farasan","shapeGroup":"SAU","gid":"SAU-2-116"},"id":"SAU-2-116"},{"arcs":[[389,390,391,392]],"type":"Polygon","properties":{"name":"Ad Darb","shapeGroup":"SAU","gid":"SAU-2-117"},"id":"SAU-2-117"},{"arcs":[[-373,393,394,395,396,397,398]],"type":"Polygon","properties":{"name":"Sabya","shapeGroup":"SAU","gid":"SAU-2-118"},"id":"SAU-2-118"},{"arcs":[[-371,-381,399,400,401,402]],"type":"Polygon","properties":{"name":"Ahad Al Masarihah","shapeGroup":"SAU","gid":"SAU-2-119"},"id":"SAU-2-119"},{"arcs":[[-374,-399,403,404,-377,405,406]],"type":"Polygon","properties":{"name":"Al Aydabi","shapeGroup":"SAU","gid":"SAU-2-120"},"id":"SAU-2-120"},{"arcs":[[407,408,409,410,411,412]],"type":"Polygon","properties":{"name":"Ar Rayth","shapeGroup":"SAU","gid":"SAU-2-121"},"id":"SAU-2-121"},{"arcs":[[-379,413]],"type":"Polygon","properties":{"name":"At Tuwal","shapeGroup":"SAU","gid":"SAU-2-122"},"id":"SAU-2-122"},{"arcs":[[[-390,414,415,-409,416]],[[-395,417,-401,418]]],"type":"MultiPolygon","properties":{"name":"Jazan","shapeGroup":"SAU","gid":"SAU-2-123"},"id":"SAU-2-123"},{"arcs":[[-398,419,-413,420,-404]],"type":"Polygon","properties":{"name":"Harub","shapeGroup":"SAU","gid":"SAU-2-124"},"id":"SAU-2-124"},{"arcs":[[-375,-405,-421,-412,421,422,423,424]],"type":"Polygon","properties":{"name":"Ad Dair","shapeGroup":"SAU","gid":"SAU-2-125"},"id":"SAU-2-125"},{"arcs":[[-368,-403,425,-406,-376,-425,426]],"type":"Polygon","properties":{"name":"Al Aridah","shapeGroup":"SAU","gid":"SAU-2-126"},"id":"SAU-2-126"},{"arcs":[[-372,-407,-426,-402,-418,-394]],"type":"Polygon","properties":{"name":"Abu Arish","shapeGroup":"SAU","gid":"SAU-2-127"},"id":"SAU-2-127"},{"arcs":[[-391,-417,-408,-420,-397,427]],"type":"Polygon","properties":{"name":"Baysh","shapeGroup":"SAU","gid":"SAU-2-128"},"id":"SAU-2-128"},{"arcs":[[-258,428,429,430,431,-265]],"type":"Polygon","properties":{"name":"Zahran Al Janub","shapeGroup":"SAU","gid":"SAU-2-129"},"id":"SAU-2-129"},{"arcs":[[432,433,434]],"type":"Polygon","properties":{"name":"Ahad Rufaydah","shapeGroup":"SAU","gid":"SAU-2-130"},"id":"SAU-2-130"},{"arcs":[[-194,-262,-255,435,436,437,438,439,-329]],"type":"Polygon","properties":{"name":"Tathlith","shapeGroup":"SAU","gid":"SAU-2-131"},"id":"SAU-2-131"},{"arcs":[[[-410,-416,440,441,442,443,444,445,-433,446]],[[-438,447,448,449]],[[450,451,452,453]],[[-423,454,-430,455]]],"type":"MultiPolygon","properties":{"name":"Abha","shapeGroup":"SAU","gid":"SAU-2-132"},"id":"SAU-2-132"},{"arcs":[[[-439,-450,456,457,458]],[[-437,459,460,-448]]],"type":"MultiPolygon","properties":{"name":"Tarib","shapeGroup":"SAU","gid":"SAU-2-133"},"id":"SAU-2-133"},{"arcs":[[-330,-440,-459,461,-445,462,463,464,-350,-360]],"type":"Polygon","properties":{"name":"Bishah","shapeGroup":"SAU","gid":"SAU-2-134"},"id":"SAU-2-134"},{"arcs":[[-299,465,-442,466,-454,467,468]],"type":"Polygon","properties":{"name":"Muhayil","shapeGroup":"SAU","gid":"SAU-2-135"},"id":"SAU-2-135"},{"arcs":[[-453,469,-468]],"type":"Polygon","properties":{"name":"Al Birk","shapeGroup":"SAU","gid":"SAU-2-136"},"id":"SAU-2-136"},{"arcs":[[-254,-266,-432,470,-460,-436]],"type":"Polygon","properties":{"name":"Al Harjah","shapeGroup":"SAU","gid":"SAU-2-137"},"id":"SAU-2-137"},{"arcs":[[-343,-351,-465,471,472]],"type":"Polygon","properties":{"name":"Balqarn","shapeGroup":"SAU","gid":"SAU-2-138"},"id":"SAU-2-138"},{"arcs":[[-298,473,474,-443,-466]],"type":"Polygon","properties":{"name":"Bariq","shapeGroup":"SAU","gid":"SAU-2-139"},"id":"SAU-2-139"},{"arcs":[[-297,-344,-473,475,476,-474]],"type":"Polygon","properties":{"name":"Al Majardah","shapeGroup":"SAU","gid":"SAU-2-140"},"id":"SAU-2-140"},{"arcs":[[-464,477,-476,-472]],"type":"Polygon","properties":{"name":"An Namas","shapeGroup":"SAU","gid":"SAU-2-141"},"id":"SAU-2-141"},{"arcs":[[-411,-447,-435,478,-457,-449,-461,-471,-431,-455,-422]],"type":"Polygon","properties":{"name":"Sarat Abidah","shapeGroup":"SAU","gid":"SAU-2-142"},"id":"SAU-2-142"},{"arcs":[[-393,479,-451,-467,-441,-415]],"type":"Polygon","properties":{"name":"Rijal Al Ma","shapeGroup":"SAU","gid":"SAU-2-143"},"id":"SAU-2-143"},{"arcs":[[-444,-475,-477,-478,-463]],"type":"Polygon","properties":{"name":"Tanumah","shapeGroup":"SAU","gid":"SAU-2-144"},"id":"SAU-2-144"},{"arcs":[[-434,-446,-462,-458,-479]],"type":"Polygon","properties":{"name":"Khamis Mushayt","shapeGroup":"SAU","gid":"SAU-2-145"},"id":"SAU-2-145"},{"arcs":[[-243,-333,-318,-340,-324,-334,-295,-319,-274]],"type":"Polygon","properties":{"name":"Al Taif","shapeGroup":"SAU","gid":"SAU-2-146"},"id":"SAU-2-146"}]}}}