{"type":"Topology","arcs":[[[7275,1628],[-66,-31],[-22,2],[-39,-53],[-36,-27],[-28,23],[6,67],[-33,-21],[-66,28],[-54,60],[-67,41],[-57,22]],[[6813,1739],[-115,98],[1,725],[13,30],[-25,56],[-2,88],[10,86],[-208,5],[-8,103],[5,132],[-10,511],[-186,57]],[[6288,3630],[84,297],[-19,39],[-32,105],[-79,131]],[[6242,4202],[38,35],[80,-48],[59,-66],[75,-25],[44,-46],[13,-144],[70,-68],[95,-32],[55,-71],[52,-19],[29,-45],[20,-60],[54,-25],[17,-43],[-10,-53],[-42,-92],[-39,-14],[-1,-89],[35,-68],[-13,-58],[38,-8],[19,-25],[31,3],[18,-29],[31,-6],[-17,-43],[19,-45],[86,-29],[46,-139],[18,-13],[-18,-91],[8,-54],[-42,-91],[6,-61],[29,-36],[71,-60],[-26,-157],[-67,-97],[-89,-55],[32,-55],[17,-95],[47,-48],[2,-32],[36,-49],[49,-28],[79,-78],[8,-46],[-29,-76]],[[1466,4105],[32,-55],[-15,-119],[26,-187],[8,-17],[82,-80],[-15,-33],[-44,-22],[-18,-30],[-8,-71],[-16,-19]],[[1498,3472],[-162,-17],[-50,22]],[[1286,3477],[-51,-3],[-31,12],[-41,41]],[[1163,3527],[18,63],[-2,136],[-53,60],[30,42],[-2,35],[-77,101]],[[1077,3964],[44,44],[201,64],[48,31],[39,9],[57,-7]],[[1994,874],[4,-42],[-34,-43],[13,-60],[-10,-35],[-33,-27],[17,-41],[-12,-41],[5,-55]],[[1944,530],[-44,-52],[-66,-8],[-32,-26],[-73,-18],[-33,30],[-56,-23],[-40,-2],[-51,22],[-23,-19],[-31,-60],[-79,33],[-35,35],[-50,9],[-38,25]],[[1293,476],[-48,36],[-45,1],[-59,-56],[-79,-53],[-70,-26]],[[992,378],[-16,22],[-5,75],[-16,51],[16,65],[-18,13],[-4,104],[11,82],[36,170],[12,105],[-10,84],[24,21],[-10,50],[34,17],[-1,42],[28,24],[104,-5],[328,1],[181,-4],[160,4],[118,-4],[63,9],[73,-3]],[[2100,1301],[-11,-33],[-42,-47],[10,-29],[32,-2],[4,-35],[-31,-48],[-25,-81],[-24,-13],[-32,-58],[13,-81]],[[2494,2300],[-43,-75],[-15,-5],[-93,100],[-5,37]],[[2338,2357],[35,70],[-20,29],[-75,55],[-32,39],[-9,87],[-71,41],[-15,56]],[[2151,2734],[5,89],[55,137],[10,42],[144,5]],[[2365,3007],[39,-116],[34,-82],[50,-58],[21,-65],[-21,-73],[17,-57],[97,-5],[38,-74],[-18,-38],[-67,-74],[-42,-19],[-19,-46]],[[2100,1301],[118,-2],[-2,276],[93,1],[65,32],[69,-26],[60,-5],[33,13],[55,52],[26,2],[58,-29],[91,-30],[52,6]],[[2818,1591],[1,-98],[-19,-34],[1,-71],[25,-32],[101,-40],[3,-59],[17,-25],[18,-70],[-5,-44]],[[2960,1118],[-48,-12],[-133,-18],[-65,-41],[-215,-106],[-64,-40],[-154,-28],[-16,75],[-80,0],[-29,36],[-57,-42],[-37,23],[-13,-32],[22,-30],[-25,-32],[-52,3]],[[2826,6431],[-1,-90],[-132,-98],[30,-130],[16,-211],[-35,-76],[-15,-243]],[[2689,5583],[-182,0],[-1,-111]],[[2506,5472],[-316,394],[-61,-43],[-71,-85],[-217,-115]],[[1841,5623],[-303,-2],[-1,174],[-24,-59],[-55,-7],[-27,-25],[-48,-20],[-32,2]],[[1351,5686],[43,53],[-14,16],[-1,106],[34,46],[51,-2],[42,80],[-15,43],[15,53],[31,28],[-2,51],[32,50],[5,72],[22,18],[4,48],[51,33],[72,-14],[40,40],[55,18],[21,-52],[61,-65],[59,37],[59,-31],[57,43],[70,-2],[4,-30],[64,24],[28,-18],[72,-10],[31,-24],[78,17],[27,23],[0,38],[37,6],[52,-25],[53,15],[1,66],[74,40],[26,-26],[9,-38],[46,-20],[45,37],[36,1]],[[126,3685],[14,-16]],[[140,3669],[-23,-103],[-52,13],[-5,34],[-60,66],[41,25],[91,30]],[[132,3734],[-6,-49]],[[1466,4105],[147,-51],[34,-19],[23,-34],[66,15]],[[1736,4016],[106,-8]],[[1842,4008],[-3,-85],[-18,-36],[-6,-55],[18,-70],[14,-93],[25,-77],[10,-74],[25,-48],[-8,-46],[14,-47]],[[1913,3377],[-141,10]],[[1772,3387],[-68,37],[-89,11],[-81,-12],[-36,49]],[[1772,3387],[-50,-53],[-20,-46],[-16,-97],[66,-21],[42,-2],[39,-21],[15,-36]],[[1848,3111],[-50,7],[-104,-42],[-59,-14],[-83,-96],[-42,-19],[-38,-154]],[[1472,2793],[-21,-11],[-55,31],[-13,-45],[-55,-11],[-25,-47],[-45,-52],[-43,-24],[-42,-75],[-39,-20],[-79,36],[-62,-82],[-1,-184]],[[992,2309],[-17,52],[-3,163],[-11,116]],[[961,2640],[30,40],[-18,40],[-30,24],[35,64],[51,50],[-32,50],[5,34],[45,74],[7,145],[36,42],[54,6],[108,94],[25,60],[18,72],[-9,42]],[[1472,2793],[66,15],[33,-5],[90,-71],[8,-76],[-47,-49],[30,-49],[47,-23],[13,-168]],[[1712,2367],[-72,-39],[7,-76],[57,-54],[47,-15],[16,-132],[81,-107]],[[1848,1944],[-592,0],[-39,59],[-50,38],[-27,76],[8,44],[-73,60],[-57,88],[-26,0]],[[1913,3377],[122,-16],[74,15],[59,31],[42,41],[19,67],[-11,95],[11,63],[39,23],[59,-77],[40,-15],[47,32],[69,-55],[58,-31],[95,-26],[23,-14]],[[2659,3510],[-8,-71]],[[2651,3439],[-244,-107],[8,-49],[-52,-2]],[[2363,3281],[-41,29],[-84,-105],[-19,-77],[-131,4],[-33,25],[-37,-18],[-51,8],[-70,-38],[-49,2]],[[6813,1739],[-21,-93],[51,-87],[-45,-42],[-65,11],[-6,-38],[-35,-52],[-50,51],[-78,-37],[-37,-48]],[[6527,1404],[-3,88],[-14,66],[-61,51],[-31,67],[-40,62],[-71,15],[-66,89],[-88,57],[-54,-30],[-15,-29],[-49,-1],[-15,-44],[-58,-39],[-6,-31],[-88,-37],[-15,-51],[-96,-61],[1,36],[-41,79],[22,32],[-56,36],[-85,9],[-64,-70],[-63,12],[-28,20],[-28,-36],[-32,102],[13,77],[-60,19],[-22,-6],[-43,62],[-29,4],[-34,42],[65,94],[73,13],[50,61],[-62,132],[-78,37],[-31,60],[-49,16],[-2,-44],[-51,-13],[-50,8],[-7,48],[-41,-20],[-41,9],[-31,37],[-25,52],[15,76],[-4,35],[22,47],[7,81],[69,84],[37,26],[28,84],[51,47],[19,53],[-13,126],[9,30]],[[5168,3173],[354,313],[268,-47],[113,-34],[198,33],[96,47],[91,145]],[[3091,741],[-37,-90],[21,-62],[23,-17]],[[3098,572],[-73,-2],[-79,-38],[-40,-29],[-86,-40],[-41,-52],[-77,-64],[-140,-68],[-186,-101],[-268,37]],[[2108,215],[-4,27],[-37,28],[-5,49],[-29,18],[-24,75],[10,22],[-12,47]],[[2007,481],[79,-66],[60,22],[54,-41],[47,43],[39,9],[85,-14],[21,-55],[54,-28],[27,34],[48,32],[54,80],[-26,163],[13,64],[24,26],[27,-18],[54,21],[19,34],[48,-29],[27,1],[12,49],[46,21],[39,-4],[36,15],[43,-38],[13,-45],[62,14],[79,-30]],[[132,3734],[68,32]],[[200,3766],[-16,-47],[-33,3],[-25,-37]],[[2151,2734],[-131,-12],[-54,25],[-75,23],[13,56],[-12,21],[-65,5],[-32,60],[8,49],[-10,60],[49,66],[6,24]],[[2363,3281],[-10,-76],[14,-110],[-2,-88]],[[2651,3439],[92,-203],[45,-80],[-12,-83],[-63,-36],[-32,-31],[20,-86],[-18,-33],[10,-47],[44,-32],[-16,-82],[-4,-91],[105,-31],[96,-48],[117,0],[55,-7]],[[3090,2549],[-21,-55],[1,-33],[52,-137],[-3,-49]],[[3119,2275],[-23,-7],[-119,-85],[-32,-1],[-42,41],[-34,11],[-55,-2],[-60,-30],[-33,-32]],[[2721,2170],[-36,88],[-107,1],[-84,41]],[[5168,3173],[-17,1]],[[5151,3174],[-7,127],[-19,78],[1,53],[-13,91],[9,56],[-16,43],[42,78],[20,105],[-1,52],[34,74],[5,57],[-49,36],[-53,72],[-60,30],[-36,49],[-31,10],[2,31],[63,11],[30,27],[29,101],[56,42],[78,78],[25,35]],[[5260,4510],[41,63],[29,78],[63,65],[176,70],[-13,24],[36,60],[44,128]],[[5636,4998],[88,-42],[5,-55],[-18,-33],[2,-45],[49,-22],[56,1],[20,21],[54,2],[1,-75],[22,-42],[-4,-80],[23,-30],[61,-19],[47,-36],[15,-41],[-21,-47],[-36,21],[-16,-37],[30,-19],[18,-40],[60,19],[27,-44],[-5,-53],[46,-22],[82,-78]],[[2338,2357],[-92,35],[-29,33],[-26,-19],[-56,10],[-65,-11],[-30,-16],[-67,3],[-96,-35],[-83,-7],[-44,-13],[-38,30]],[[1736,4016],[-4,66],[-22,70],[1,58],[-49,43],[-5,49],[-35,63],[-4,65],[-18,44],[-31,7],[-22,-32],[-29,33],[14,34],[-33,50],[-73,-2],[-46,51],[-65,-76],[-34,-58],[-53,-117],[-58,-74],[0,74],[-26,47],[-43,32],[-61,68],[-121,57]],[[919,4568],[78,152],[115,194],[88,164]],[[1200,5078],[143,-35],[9,33],[33,-7],[35,-42],[71,-25],[27,-31],[6,-46],[21,-25],[1,-70],[56,-34],[1,-27],[90,-56],[76,-14],[45,-27],[105,-9],[46,-18],[234,-23]],[[2199,4622],[0,-118],[8,-132],[9,-305]],[[2216,4067],[-113,0],[-42,-32],[-83,-7],[-13,-23],[-98,9],[-25,-6]],[[6492,1342],[27,-19],[26,-85],[-5,-18],[60,-25],[16,-38],[13,-74],[24,-32],[50,35],[11,-22],[55,-18],[16,-40],[109,-61],[7,-69],[49,-3],[48,-30],[55,-88],[46,-48],[-1,-43],[69,-44],[50,1],[75,15],[106,-34],[91,-98],[-18,-37],[-171,-298]],[[7300,169],[-30,12],[-10,34],[-82,-59],[-63,-17],[-35,38],[-63,-3],[-35,-18],[-20,-37],[-99,-49],[-23,6],[-90,-32],[-82,-44],[-45,104]],[[6623,104],[2,48],[-20,47],[-52,-10],[-30,18],[-9,38],[-54,34],[-31,63],[7,97],[-14,38],[-53,25],[-13,39],[23,45],[-8,25],[-39,11],[-9,50],[-91,-31],[-22,-50],[-75,13],[-47,26],[-64,58],[2,35],[-38,16],[-55,-50],[-16,34],[-46,31],[-143,-36],[-25,17]],[[5703,735],[0,50],[-56,10],[7,34],[-36,25],[4,25],[35,33],[-30,67],[-90,91],[35,28],[5,27],[98,1],[53,-36],[47,53],[127,25],[19,-22],[88,-56],[55,-49],[20,55],[39,9],[38,62],[26,-13],[39,33],[42,122],[80,26],[15,29],[58,-41],[71,19]],[[3091,741],[16,34],[4,114],[-59,76],[-13,44],[14,30],[-18,39]],[[3035,1078],[58,32],[104,28],[109,-5],[20,-27],[20,-72],[-12,-78],[19,-38],[40,-22],[61,26],[30,-23],[27,-51],[129,87],[49,40],[14,53],[86,20],[56,72],[40,8],[44,-39],[64,24],[27,-36],[44,34],[76,17]],[[4140,1128],[54,-24],[35,7],[98,-49],[50,10],[9,-57],[20,-25],[-49,-45],[-36,0],[8,-85],[20,-9],[1,-54],[-31,-41],[-50,13],[-69,-34],[0,-32],[-33,-5],[13,-59],[-65,-46],[11,-29]],[[4126,564],[-270,1],[-391,-4],[-198,5],[-12,6],[-157,0]],[[4832,3182],[-89,-122],[-19,-55],[-47,-56],[-47,-82],[-37,-39],[-5,-82],[22,-44],[-286,-273],[-11,-74],[17,-41],[-36,-68],[-132,-157],[-47,-13],[-49,25],[-75,-284]],[[3991,1817],[-48,48],[-8,57],[-43,74],[-56,36],[-95,10],[-119,-60],[-87,57],[-16,99],[-48,72]],[[3471,2210],[37,65],[108,10],[37,103],[116,81],[25,83],[-15,144],[12,76],[-15,178],[-57,64],[16,343]],[[3735,3357],[95,21],[94,38],[89,107],[28,-3],[59,34],[24,-53],[71,-72],[350,-133],[200,-112],[87,-2]],[[3090,2549],[-8,45],[20,43],[9,146],[59,106],[14,47],[-13,315],[54,234]],[[3225,3485],[9,36],[138,101],[79,-109]],[[3451,3513],[287,-97],[-3,-59]],[[3471,2210],[-89,44],[-58,6],[-31,-9],[-116,48],[-58,-24]],[[2689,5583],[741,0],[141,-89],[208,-12],[101,-194]],[[3880,5288],[-168,-136],[-120,-38],[-13,-256],[0,-77],[-18,-64],[15,-24],[109,-43],[78,-47],[31,-4],[94,21],[18,21],[-98,-397],[63,-53],[-232,-48],[-61,-6],[-39,-35],[51,-177],[39,-83],[3,-26],[-69,-99],[-30,-19],[-15,-93],[-30,-58],[-37,-34]],[[3225,3485],[-80,14],[-289,63],[-47,32],[-134,58]],[[2675,3652],[17,143],[-41,27],[-43,4],[-55,-22],[-86,60],[-71,8],[-136,90],[-41,62],[-3,43]],[[2199,4622],[305,590],[2,260]],[[1200,5078],[54,122],[32,130]],[[1286,5330],[100,11],[34,-9],[81,0],[45,28],[68,14],[19,64],[42,27],[71,65],[31,55],[64,38]],[[2659,3510],[16,142]],[[5260,4510],[-318,208],[-108,103],[-105,65],[-443,46],[-60,5]],[[4226,4937],[26,53],[295,343],[51,67],[140,166],[9,28],[133,58],[30,136]],[[4910,5788],[41,-59],[39,21],[32,-4],[75,40],[76,-12],[35,32],[16,-25],[-45,-23],[-1,-41],[30,-12],[16,35],[39,-29],[88,-42],[2,-65],[13,-52],[33,-61],[35,-19],[-27,-45],[44,-38],[0,-64],[18,-31],[-6,-55],[108,-114],[-11,-30],[-48,-23],[30,-65],[68,12],[26,-21]],[[961,2640],[-35,119],[-86,79],[0,49],[-17,46],[-65,98],[-5,73],[-34,61],[-58,52],[-64,26],[-42,66],[-25,84],[-43,53]],[[487,3446],[12,156]],[[499,3602],[45,-1],[83,-16],[3,-28],[84,-41],[66,-101],[0,-61],[42,2],[47,-30],[140,218],[81,22],[21,-37],[52,-2]],[[2818,1591],[51,8],[92,81],[25,86],[15,81],[68,64],[4,17],[67,27],[18,-54],[32,-45],[67,-66],[129,-67],[60,-2],[50,-42],[69,-1],[37,-64],[77,-47],[76,-3],[46,25],[30,-45],[48,-35],[75,-8],[27,-45],[62,-46],[53,-17]],[[4096,1393],[40,-73],[14,-60],[-16,-107],[6,-25]],[[3035,1078],[-75,40]],[[2721,2170],[-35,-48],[-20,-58],[-23,-123],[-469,1],[-326,2]],[[1293,476],[-21,-68],[20,-39],[24,9],[23,-66],[38,-17],[-20,-36],[19,-58],[19,-11],[-15,-47],[1,-61]],[[1381,82],[-80,-17],[-43,15],[-76,-21],[-41,19],[-67,0],[-37,-31],[-32,66],[-40,35],[-26,122],[15,47],[38,61]],[[200,3766],[79,39]],[[279,3805],[14,-34],[1,-66],[-25,-54]],[[269,3651],[-44,21],[-85,-3]],[[2826,6431],[23,21],[76,-9],[34,-27],[77,59],[68,-19],[43,45],[-43,71],[27,35],[30,-17],[26,-59],[62,21],[15,74],[55,-17],[-4,-39],[21,-29],[31,26],[27,-23],[90,5],[21,21],[44,-1],[28,-33],[83,24],[58,4],[17,-32],[97,-9],[6,29],[63,-41],[29,18],[37,-3],[38,43],[19,-30],[100,-3],[-8,-81],[86,-6],[-6,-49],[66,4],[27,-20],[0,-33],[43,-24],[37,-59],[86,-74],[56,-89],[36,5],[37,-20],[17,-32],[-43,-17],[28,-79],[63,-35],[8,-47],[40,0],[21,-103],[27,-32],[19,28],[48,31],[49,2],[48,47],[23,-13],[-22,-52]],[[4226,4937],[4,-58],[-21,-28],[-49,14],[-44,-44],[-114,-4],[2,84],[18,56],[1,52],[-143,279]],[[5151,3174],[-319,8]],[[487,3446],[-26,59],[-42,55],[-63,56],[-87,35]],[[279,3805],[166,94]],[[445,3899],[65,-154],[-11,-143]],[[1286,5330],[9,85],[17,270],[39,1]],[[6623,104],[-74,36],[-57,13],[-30,-5],[-41,-47],[-24,-9],[-79,103],[-61,7],[-116,-9],[14,50],[-49,26],[-31,-9],[-39,26],[1,33],[-43,23],[-24,32],[-61,-21],[-4,-92],[-35,-15],[-33,18],[-66,1],[-18,14],[-3,66],[33,66],[-7,69],[-38,17],[-29,-12],[-30,19]],[[5679,504],[9,58],[34,35],[-20,28],[-16,88],[17,22]],[[7275,1628],[21,-8],[56,-83],[79,23],[9,41],[39,75],[35,-5],[14,-36],[83,7],[-13,-45],[54,-3],[-1,-36],[36,-68],[32,-8],[21,-59],[-18,-22],[8,-55],[46,-21],[-24,-37],[29,-60],[33,-35],[55,-17],[-11,-42],[33,-36],[-8,-52],[30,-51],[45,21],[10,-68],[-51,-13],[2,-30],[-23,-42],[-7,-46],[37,-65],[-8,-56],[5,-59],[-52,1],[0,-45],[-29,-31],[42,-39],[14,-95],[-17,-33],[-30,0],[17,-60],[51,12],[43,-65],[3,-44],[-27,-16],[8,-51],[-40,-3],[-27,28],[-71,19],[-202,-22],[-49,-15],[-27,-28],[-49,-24],[-51,-8],[-45,30],[-55,-14],[-30,35]],[[6492,1342],[35,62]],[[2007,481],[-40,49],[-23,0]],[[5679,504],[-45,5],[-25,-22],[-39,38],[-77,-4],[-71,-16],[-33,26],[-177,23]],[[5212,554],[34,76],[0,67],[-25,84],[14,32],[5,79],[-47,20],[-13,53],[11,79],[-43,22],[-2,35],[-41,41],[-5,34],[-59,71],[1,61],[18,53],[-16,58],[-36,-3],[3,38],[-44,9],[-19,23],[31,65],[-50,15],[38,60],[-88,-19],[-19,97],[51,48],[-65,28],[-31,-28],[-21,17],[10,64],[-22,41],[-18,-66],[-37,11]],[[4727,1819],[-35,67],[-94,37],[-45,-7],[-42,-32],[-60,7],[-121,-38],[-53,-39],[-39,-47],[-71,-12],[-34,-17],[-62,21],[-80,58]],[[445,3899],[60,36],[28,64]],[[533,3999],[32,-30],[29,-57],[1,-87],[20,-40],[23,5],[87,71],[54,-10],[65,32],[21,-18],[76,33],[47,-9],[66,47],[23,28]],[[533,3999],[216,288],[72,108],[98,173]],[[4096,1393],[106,21],[32,-35],[77,15],[55,-11],[28,30],[4,56],[64,18],[79,0],[68,46],[73,-9],[72,27],[48,70],[13,88],[-32,32],[-26,58],[-30,20]],[[5212,554],[-33,4],[-633,-2],[-140,1],[-280,7]],[[2108,215],[-83,-11],[-110,45],[-39,-1],[-121,-33],[-52,17],[-87,-43],[-136,-86],[-7,-20],[-92,-1]]],"transform":{"scale":[0.0007744419814257036,0.0006613750894959272],"translate":[-17.521524385999953,12.307766467000022]},"objects":{"SEN":{"type":"GeometryCollection","geometries":[{"arcs":[[0,1,2,3]],"type":"Polygon","properties":{"name":"Bakel","shapeGroup":"SEN","gid":"SEN-2-0"},"id":"SEN-2-0"},{"arcs":[[4,5,6,7,8]],"type":"Polygon","properties":{"name":"Bambey","shapeGroup":"SEN","gid":"SEN-2-1"},"id":"SEN-2-1"},{"arcs":[[9,10,11,12,13]],"type":"Polygon","properties":{"name":"Bignona","shapeGroup":"SEN","gid":"SEN-2-2"},"id":"SEN-2-2"},{"arcs":[[14,15,16,17]],"type":"Polygon","properties":{"name":"Birkelane","shapeGroup":"SEN","gid":"SEN-2-3"},"id":"SEN-2-3"},{"arcs":[[-14,18,19,20]],"type":"Polygon","properties":{"name":"Bounkiling","shapeGroup":"SEN","gid":"SEN-2-4"},"id":"SEN-2-4"},{"arcs":[[21,22,23,24,25]],"type":"Polygon","properties":{"name":"Dagana","shapeGroup":"SEN","gid":"SEN-2-5"},"id":"SEN-2-5"},{"arcs":[[26,27,28]],"type":"Polygon","properties":{"name":"Dakar","shapeGroup":"SEN","gid":"SEN-2-6"},"id":"SEN-2-6"},{"arcs":[[-5,29,30,31,32,33]],"type":"Polygon","properties":{"name":"Diourbel","shapeGroup":"SEN","gid":"SEN-2-7"},"id":"SEN-2-7"},{"arcs":[[-6,-34,34,35,36,37,38]],"type":"Polygon","properties":{"name":"Fatick","shapeGroup":"SEN","gid":"SEN-2-8"},"id":"SEN-2-8"},{"arcs":[[-37,39,40,41]],"type":"Polygon","properties":{"name":"Foundiougne","shapeGroup":"SEN","gid":"SEN-2-9"},"id":"SEN-2-9"},{"arcs":[[-33,42,43,44,45,-35]],"type":"Polygon","properties":{"name":"Gossas","shapeGroup":"SEN","gid":"SEN-2-10"},"id":"SEN-2-10"},{"arcs":[[-2,46,47,48]],"type":"Polygon","properties":{"name":"Goudiry","shapeGroup":"SEN","gid":"SEN-2-11"},"id":"SEN-2-11"},{"arcs":[[49,50,51,52]],"type":"Polygon","properties":{"name":"Goudomp","shapeGroup":"SEN","gid":"SEN-2-12"},"id":"SEN-2-12"},{"arcs":[[-29,53,54]],"type":"Polygon","properties":{"name":"Guediawaye","shapeGroup":"SEN","gid":"SEN-2-13"},"id":"SEN-2-13"},{"arcs":[[-17,55,-46,56]],"type":"Polygon","properties":{"name":"Guinguineo","shapeGroup":"SEN","gid":"SEN-2-14"},"id":"SEN-2-14"},{"arcs":[[-18,-57,-45,57,58,59,60]],"type":"Polygon","properties":{"name":"Kaffrine","shapeGroup":"SEN","gid":"SEN-2-15"},"id":"SEN-2-15"},{"arcs":[[-3,-49,61,62,63,64]],"type":"Polygon","properties":{"name":"Kanel","shapeGroup":"SEN","gid":"SEN-2-16"},"id":"SEN-2-16"},{"arcs":[[-16,65,-40,-36,-56]],"type":"Polygon","properties":{"name":"Kaolack","shapeGroup":"SEN","gid":"SEN-2-17"},"id":"SEN-2-17"},{"arcs":[[-31,66,67,68,69,70]],"type":"Polygon","properties":{"name":"Kebemer","shapeGroup":"SEN","gid":"SEN-2-18"},"id":"SEN-2-18"},{"arcs":[[71,72,73,74]],"type":"Polygon","properties":{"name":"Kedougou","shapeGroup":"SEN","gid":"SEN-2-19"},"id":"SEN-2-19"},{"arcs":[[-50,75,76,77,78]],"type":"Polygon","properties":{"name":"Kolda","shapeGroup":"SEN","gid":"SEN-2-20"},"id":"SEN-2-20"},{"arcs":[[79,80,81,82]],"type":"Polygon","properties":{"name":"Koumpentoum","shapeGroup":"SEN","gid":"SEN-2-21"},"id":"SEN-2-21"},{"arcs":[[-59,83,84,85,-82,86]],"type":"Polygon","properties":{"name":"Koungheul","shapeGroup":"SEN","gid":"SEN-2-22"},"id":"SEN-2-22"},{"arcs":[[-23,87,88,-85,89,90,-70,91]],"type":"Polygon","properties":{"name":"Linguere","shapeGroup":"SEN","gid":"SEN-2-23"},"id":"SEN-2-23"},{"arcs":[[-24,-92,-69,92,93]],"type":"Polygon","properties":{"name":"Louga","shapeGroup":"SEN","gid":"SEN-2-24"},"id":"SEN-2-24"},{"arcs":[[-44,94,-90,-84,-58]],"type":"Polygon","properties":{"name":"Malem Hodar","shapeGroup":"SEN","gid":"SEN-2-25"},"id":"SEN-2-25"},{"arcs":[[-64,95,96,97]],"type":"Polygon","properties":{"name":"Matam","shapeGroup":"SEN","gid":"SEN-2-26"},"id":"SEN-2-26"},{"arcs":[[-32,-71,-91,-95,-43]],"type":"Polygon","properties":{"name":"Mbacke","shapeGroup":"SEN","gid":"SEN-2-27"},"id":"SEN-2-27"},{"arcs":[[-7,-39,98,99,100]],"type":"Polygon","properties":{"name":"Mbour","shapeGroup":"SEN","gid":"SEN-2-28"},"id":"SEN-2-28"},{"arcs":[[-20,101,102,-77,103]],"type":"Polygon","properties":{"name":"Medina Yoroufoula","shapeGroup":"SEN","gid":"SEN-2-29"},"id":"SEN-2-29"},{"arcs":[[-15,-61,104,-41,-66]],"type":"Polygon","properties":{"name":"Nioro Du Rip","shapeGroup":"SEN","gid":"SEN-2-30"},"id":"SEN-2-30"},{"arcs":[[-12,105,106]],"type":"Polygon","properties":{"name":"Oussouye","shapeGroup":"SEN","gid":"SEN-2-31"},"id":"SEN-2-31"},{"arcs":[[-27,-55,107,108,109]],"type":"Polygon","properties":{"name":"Pikine","shapeGroup":"SEN","gid":"SEN-2-32"},"id":"SEN-2-32"},{"arcs":[[-22,110,-97,111,-88]],"type":"Polygon","properties":{"name":"Podor","shapeGroup":"SEN","gid":"SEN-2-33"},"id":"SEN-2-33"},{"arcs":[[-63,112,-83,-86,-89,-112,-96]],"type":"Polygon","properties":{"name":"Ranerou","shapeGroup":"SEN","gid":"SEN-2-34"},"id":"SEN-2-34"},{"arcs":[[-100,113,-109,114,115]],"type":"Polygon","properties":{"name":"Rufisque","shapeGroup":"SEN","gid":"SEN-2-35"},"id":"SEN-2-35"},{"arcs":[[-25,-94,116]],"type":"Polygon","properties":{"name":"Saint Louis","shapeGroup":"SEN","gid":"SEN-2-36"},"id":"SEN-2-36"},{"arcs":[[-74,117,118]],"type":"Polygon","properties":{"name":"Salemata","shapeGroup":"SEN","gid":"SEN-2-37"},"id":"SEN-2-37"},{"arcs":[[-1,119,-72,120,-47]],"type":"Polygon","properties":{"name":"Saraya","shapeGroup":"SEN","gid":"SEN-2-38"},"id":"SEN-2-38"},{"arcs":[[-10,-21,-104,-76,-53,121]],"type":"Polygon","properties":{"name":"Sedhiou","shapeGroup":"SEN","gid":"SEN-2-39"},"id":"SEN-2-39"},{"arcs":[[-48,-121,-75,-119,122,123,124,-80,-113,-62]],"type":"Polygon","properties":{"name":"Tambacounda","shapeGroup":"SEN","gid":"SEN-2-40"},"id":"SEN-2-40"},{"arcs":[[-8,-101,-116,125,126]],"type":"Polygon","properties":{"name":"Thies","shapeGroup":"SEN","gid":"SEN-2-41"},"id":"SEN-2-41"},{"arcs":[[-9,-127,127,-67,-30]],"type":"Polygon","properties":{"name":"Tivaoune","shapeGroup":"SEN","gid":"SEN-2-42"},"id":"SEN-2-42"},{"arcs":[[-78,-103,128,-124,129]],"type":"Polygon","properties":{"name":"Velingara","shapeGroup":"SEN","gid":"SEN-2-43"},"id":"SEN-2-43"},{"arcs":[[-11,-122,-52,130,-106]],"type":"Polygon","properties":{"name":"Ziguinchor","shapeGroup":"SEN","gid":"SEN-2-44"},"id":"SEN-2-44"}]}}}