{"type":"Topology","arcs":[[[5675,28642],[404,339]],[[6079,28981],[548,-562],[866,-929],[802,-575],[1071,-450],[428,216]],[[9794,26681],[38,-49],[-7,-37],[25,-59],[-17,-70],[23,-78],[-29,-54],[-96,45],[-86,56],[-105,-85],[-29,-57],[-17,-63],[-38,8],[-67,-43],[-47,29],[-39,-6],[-4,-69],[-28,-16],[-16,63],[-53,-12],[-40,-27],[-83,32],[14,79],[-62,9],[-27,19],[-38,-35],[-27,23],[-100,-9],[-10,-27],[-74,44],[-6,23],[-76,5],[-17,32],[28,35],[-35,62],[18,67],[49,60],[-28,38],[-82,-56],[-20,-29],[-47,38],[-36,-22],[-45,-65],[35,-19],[-5,-54],[-79,99],[47,8],[-12,44],[-26,7],[-56,-50],[-29,7],[-40,-29],[-49,2],[-16,49],[-39,17],[-9,31],[-76,-14],[-18,19],[-56,-19],[-37,25],[-117,30],[-42,-25],[-31,7],[-68,-39],[-28,-32],[-55,2],[-35,34],[-15,50],[21,43],[-12,108],[-52,79],[-184,118],[-62,-26],[-19,-90],[-68,-43],[-33,57],[28,13],[9,70],[-56,-48],[-51,42],[41,68],[34,5],[4,46],[-32,47],[-71,16],[-21,25],[-67,19],[-22,36],[-56,-2],[-40,32],[-73,9],[-68,66],[-28,41],[-28,-2],[-28,95],[-31,26],[-52,3],[-45,37],[-35,-5],[16,65],[-53,84],[-54,54],[-10,34],[-54,16],[-84,103],[-31,19],[-38,122],[-59,64],[-43,-11],[5,45],[-43,-6],[-44,54],[6,62],[-32,68],[-44,29],[-13,35],[-59,17],[6,44],[-146,172],[-56,57]],[[11090,25988],[-26,-20],[20,-38],[-9,-68],[-116,2],[-39,11],[-145,-4],[-58,30],[-51,45],[-50,62],[-27,58],[24,38],[-15,89],[81,41],[103,107],[51,-58],[22,49],[36,-20],[36,8],[50,-105],[34,-45],[39,-22],[40,-160]],[[10262,26144],[-21,-34],[-78,7],[-41,-107],[-114,-19],[-1,25],[-84,-7],[-29,45],[-38,-33],[-2,62],[67,-13],[6,59],[-52,12],[-51,-13],[-100,78],[-123,-1],[-72,37],[38,42],[16,81],[30,5],[30,59],[88,-68],[36,-12],[125,-90],[100,61],[36,8],[95,-23],[19,6],[45,-60],[11,-35],[51,-19],[13,-53]],[[10253,26002],[-17,-11],[-84,39],[4,59],[31,19],[64,-15],[2,-91]],[[9470,26217],[-33,-56],[-68,-60],[-45,17],[146,99]],[[7740,26479],[-11,-32],[-41,9],[-20,39],[35,20],[37,-36]],[[9963,26401],[-56,-41],[-47,-2],[25,50],[65,22],[13,-29]],[[10080,26788],[-47,-79],[-32,5],[8,66],[71,8]],[[8029,26514],[-26,-55],[-30,17],[37,51],[19,-13]],[[8604,26343],[-5,-46],[-47,30],[26,40],[26,-24]],[[5675,28642],[-30,44],[-58,136],[-59,64],[-38,71],[-61,27],[-104,84],[-141,22],[-30,15],[-26,50],[-84,52],[-30,64],[-81,-1],[-71,48],[-18,49],[-2,65],[-48,44],[-17,43],[-64,5],[5,30],[-54,12],[-19,37],[-86,32],[-62,36],[-45,76],[-47,30],[-34,44],[-60,22],[-7,96],[19,73],[-15,106],[-40,70],[-61,48],[-12,39],[36,73],[115,87],[8,26],[56,50],[48,70],[74,-3],[36,48],[36,-2],[46,-38],[-33,-41],[23,-31],[33,0],[4,81],[54,19],[31,-17],[50,-55],[45,-29],[55,-87],[81,-65],[-16,-46],[60,14],[28,-29],[50,-4],[53,37],[68,-69],[85,10],[42,-17],[74,-96],[41,-39],[1,-58],[44,-73],[73,-49],[-12,-59],[30,-63],[72,-4],[36,-33],[77,-13],[81,-76],[38,-2],[52,25],[16,-63],[45,-14],[42,16],[81,-35],[25,-50],[92,-17],[22,-25],[45,11],[60,-116],[23,1],[87,-80],[-17,-21]],[[6491,29324],[-412,-343]],[[6491,29324],[46,14],[54,-29],[56,-58],[39,29],[41,-36],[59,5],[72,-17],[86,-79],[87,-8],[17,-29],[-17,-79],[72,-66],[47,7],[8,35],[37,-4],[33,-50],[88,-45],[48,-52],[15,-46],[86,-32],[17,-33],[48,-38],[6,-33],[85,-23],[5,-51],[53,-74],[-19,-63],[6,-64],[26,-39],[-6,-37],[20,-74],[-20,-46],[57,-176],[48,-48],[9,-65],[-28,-56],[42,-101],[65,-17],[109,-73],[22,-38],[-30,-63],[44,-31],[69,24],[32,-28],[-8,-71],[70,-41],[18,37],[50,-24],[46,-70],[47,10],[61,-4],[24,-26],[44,34],[26,-30],[-15,-53],[90,-69],[-35,-14],[-6,-67],[123,-86],[-3,-47],[96,-56],[83,29],[-6,-109],[47,-12],[26,14],[16,60],[45,-28],[52,-63],[-10,-28],[51,-74],[6,-44],[42,19],[35,-20],[12,40],[-15,45],[-26,-2],[-8,51],[28,33],[30,-56],[38,-5],[37,-44],[30,-7],[5,-49],[36,-19],[42,39],[46,12],[29,52],[56,-8],[63,25],[46,34],[40,56],[53,-11],[54,-28],[75,-108],[-17,-73]],[[21458,15261],[17,94],[-24,38]],[[21451,15393],[111,23],[78,72]],[[21640,15488],[39,-35],[-15,-54],[-79,-7],[0,-72],[-127,-59]],[[21458,15261],[-96,11],[8,64],[-50,9]],[[21320,15345],[17,73]],[[21337,15418],[72,-30],[42,5]],[[21320,15345],[-118,10],[-24,37],[-2,54]],[[21176,15446],[26,4],[83,-28],[52,-4]],[[1698,28185],[-30,-64],[9,-47],[-23,-39],[41,-28],[-44,-64],[-62,-21],[1,-28],[-74,11],[-24,40],[-30,0],[-52,-29],[-26,23],[-30,-68],[-96,-1],[-10,-37],[-41,-5],[-32,43],[-44,19],[-111,-20],[-43,3],[-98,116],[-75,-1],[-39,-21],[-40,31],[-10,41],[28,56],[50,12],[46,154],[-41,75],[14,22],[131,-76],[-20,62],[24,26],[-23,47],[2,45],[-35,59],[50,-6],[74,12],[-41,83],[52,41],[67,-11],[21,-119],[26,53],[35,-77],[44,3],[-1,-39],[68,2],[98,-125],[85,-15],[47,-25],[69,-7],[30,-38],[71,-33],[12,-35]],[[3041,28808],[-45,11],[-40,-12],[-35,28],[-64,-23],[-3,71],[-41,-37],[29,-62],[-62,-101],[-37,-29],[21,-57],[-66,-73],[-45,55],[18,65],[-62,6],[9,-73],[-25,-65],[-25,-30],[-40,32],[-29,-22],[-29,48],[-2,42],[48,39],[5,30],[77,46],[29,38],[4,65],[-40,21],[8,70],[-12,53],[29,37],[93,20],[-26,40],[2,39],[-43,37],[-76,-6],[-48,147],[-3,64],[70,75],[-1,26],[97,71],[16,-35],[-49,-38],[4,-27],[-60,-33],[-22,-46],[-3,-96],[58,-53],[33,23],[43,0],[61,-26],[21,-90],[-33,-16],[33,-100],[38,17],[31,-31],[10,-47],[111,-37],[68,-51]],[[542,26464],[-79,-69],[-48,-26],[-21,-31],[-50,-31],[-175,-8],[-98,40],[-42,1],[-29,121],[38,98],[93,80],[53,19],[109,4],[118,-23],[24,-33],[-14,-36],[53,-46],[21,-54],[47,-6]],[[2564,29595],[-44,-60],[-36,-27],[-9,-59],[-72,-12],[-63,-47],[-17,11],[-27,162],[31,30],[75,7],[41,39],[44,-27],[41,18],[36,-35]],[[1626,27815],[-12,-33],[-53,-9],[-45,29],[-56,-20],[-92,26],[-11,21],[39,60],[91,49],[31,-57],[51,0],[44,-27],[13,-39]],[[375,26273],[-8,-56],[-36,-23],[-58,12],[-53,-69],[-65,25],[2,46],[38,16],[11,-47],[90,71],[79,25]],[[1780,27933],[-13,-52],[-42,17],[-54,-62],[-36,10],[11,41],[50,73],[52,24],[32,-51]],[[1823,27868],[-16,-73],[-49,-31],[-21,78],[47,35],[39,-9]],[[3056,29385],[-35,16],[-40,-26],[-21,34],[15,57],[38,1],[32,-27],[11,-55]],[[2503,29079],[-20,1],[-33,-58],[-19,95],[56,43],[-4,-57],[20,-24]],[[2902,30060],[-49,-18],[-61,76],[-37,-3],[-1,71],[34,-23],[28,-48],[86,-55]],[[3094,29229],[-64,-113],[-18,73],[82,40]],[[713,28094],[-56,-23],[-31,-41],[-20,50],[33,24],[74,-10]],[[2366,28335],[-60,-25],[-16,37],[45,25],[31,-37]],[[1499,28344],[-63,14],[18,39],[45,-53]],[[5742,24659],[-491,-468]],[[5251,24191],[-51,72],[-53,-2],[-36,26],[8,59],[21,57],[-48,11],[-75,-5],[-21,36],[-39,24],[-59,75],[29,57],[-9,74],[-21,20],[-77,-62],[-38,60],[-24,106],[34,23],[-25,50],[-18,70],[19,76],[-8,39],[33,78],[70,82],[17,38],[57,-5],[50,62],[53,39],[77,29],[128,14],[7,-82],[88,-22],[31,-31],[-1,-52],[27,-82],[60,-1],[47,-16],[-25,-55],[19,-41],[81,22],[-21,-61],[48,-57],[-24,-30],[2,-83],[98,-23],[-13,-46],[62,-16],[11,-59]],[[5063,24013],[-33,-77],[-49,-38],[-71,5],[-52,17],[-63,90],[41,52],[54,94],[52,29],[27,-37],[58,-31],[0,-60],[36,-44]],[[5097,24227],[-50,-38],[1,63],[49,-25]],[[5260,24191],[131,-145],[197,-248],[30,-15],[40,-62],[73,-57]],[[5731,23664],[-35,-46],[37,-59],[47,-114],[-51,-160],[-30,8],[-37,114],[-36,34],[-32,2],[-119,-62],[-21,13],[-17,113],[46,82],[15,52],[-28,41],[-55,24],[1,25],[-67,22],[-105,-25],[-49,53],[1,74],[60,67],[-22,80],[28,115],[-13,35],[11,39]],[[5306,22329],[-13,-65],[-47,-92],[-37,-14],[-32,-37],[-67,-20],[15,65],[-32,45],[-23,144],[-29,31],[-17,65],[-37,24],[-21,47],[-68,66],[15,58],[-4,112],[14,68],[-6,171],[-26,45],[23,45],[-7,72],[-85,146],[-35,44],[43,11],[14,41],[35,23],[52,-11],[48,9],[41,-55],[28,-81],[41,-84],[28,-96],[16,-3],[3,-154],[71,-154],[10,-62],[35,-49],[-22,-51],[11,-64],[28,-30],[-25,-50],[14,-58],[37,-29],[11,-73]],[[4988,21636],[-26,-62],[-42,-22],[-34,-47],[4,-93],[-68,13],[-2,76],[37,30],[18,59],[20,14],[-24,89],[53,71],[42,-49],[-4,-41],[26,-38]],[[8101,22764],[-36,-23],[17,-36],[-80,-95],[29,-7],[-14,-52],[9,-40],[-126,-76],[14,-68],[-12,-18],[-68,-22],[-23,22],[-57,-14],[-63,84],[-53,29],[-15,38],[-148,-61],[-90,34],[-32,-3],[-62,32],[-87,31],[-143,130],[-71,98],[3,50],[-46,17],[-33,96],[-30,29],[25,59],[-3,101],[-23,13],[-30,71],[20,131],[21,17],[1,92],[59,158],[77,53],[29,70],[38,11],[26,40],[64,36],[50,10],[24,44],[156,45],[41,1],[49,31],[75,-23],[74,-10],[42,-18],[68,-74],[5,-30],[59,-25],[51,-74],[44,-32],[25,-69],[57,-75],[18,-80],[-12,-25],[31,-37],[28,-160],[8,-76],[-37,-99],[6,-84],[51,-167]],[[6415,22504],[-42,-31],[-59,32],[-52,-16],[-22,49],[-67,38],[-50,-20],[-85,115],[7,133],[58,50],[23,-24],[45,-4],[39,-80],[10,-108],[22,15],[-22,131],[59,3],[40,-100],[-45,-36],[57,-17],[49,-53],[-5,-30],[40,-47]],[[9502,22388],[-695,-666],[-282,-258],[94,-92]],[[8619,21372],[-82,-113],[-114,56],[-44,-23],[-47,64],[-1,45],[-29,6],[-29,82],[-22,-1],[-13,-66],[-62,-7],[-9,128],[4,57],[-14,42],[-38,-13],[-29,137],[23,62],[-7,54],[57,70],[23,1],[-12,76],[16,24],[65,23],[34,-17],[86,2],[60,-33],[34,41],[67,15],[14,62],[26,-19],[70,72],[14,81],[29,47],[4,43]],[[8693,22370],[809,18]],[[8121,21577],[-89,25],[-50,61],[-51,-39],[-38,32],[-64,16],[-67,60],[30,87],[-6,29],[-31,10],[-97,107],[-1,47],[-63,25],[-6,39],[28,27],[-76,67],[17,28],[75,8],[73,23],[7,21],[91,12],[64,-25],[44,-42],[24,10],[61,-54],[9,-84],[32,-41],[22,-67],[-28,-70],[11,-146],[69,-128],[10,-38]],[[7852,21236],[-40,-10],[-33,56],[-36,24],[-33,-22],[-28,62],[-37,12],[19,44],[-47,133],[5,32],[-54,17],[-50,93],[-31,15],[-47,67],[-62,20],[-24,32],[31,49],[-81,9],[-39,67],[-59,45],[-24,36],[11,31],[46,41],[126,-35],[56,18],[55,0],[40,-67],[31,-31],[67,-23],[22,-70],[-13,-28],[33,-90],[-45,-92],[18,-23],[11,-72],[26,-46],[53,-45],[-12,-62],[110,-65],[6,-73],[-11,-34],[40,-15]],[[8747,21250],[-10,-35],[34,-34],[9,-66],[-95,29],[1,33],[61,73]],[[7790,21822],[-27,-24],[-38,10],[-39,44],[29,45],[75,-75]],[[7854,21418],[-49,-15],[13,57],[36,-42]],[[7895,21548],[-48,-30],[-24,30],[23,28],[49,-28]],[[8693,22370],[60,90],[66,265],[44,25],[13,86],[42,55],[13,42],[106,33],[4,56],[27,28],[2,46],[34,40],[51,-15],[63,26],[59,-16],[58,33],[22,69],[110,68],[47,-6],[82,-32],[29,-50],[2,-53],[60,-40],[53,57],[40,-54],[95,-83],[50,-1],[69,-72],[2,-35],[-34,-51],[19,-25],[111,-65],[-49,-66],[22,-34],[-15,-55],[14,-28],[-14,-61],[-29,-65],[51,-25],[17,-65],[-66,-83],[69,15],[24,34],[47,20],[23,-13],[-21,-91],[-38,-27],[-62,11],[-22,-58],[38,-48],[38,-25],[29,-61],[36,24],[15,-52],[-36,-29],[54,-24],[-48,-139],[38,24],[49,-6],[48,-34],[55,22],[13,-26],[43,24],[17,49],[38,30],[31,-5],[1,39],[50,8],[37,0],[32,-58],[39,-1],[27,-50],[53,-11]],[[10740,21851],[-682,-377]],[[10058,21474],[-210,626],[-107,298],[-239,-10]],[[10653,21993],[-63,53],[26,16],[37,-69]],[[10483,22029],[-23,-25],[-36,11],[5,47],[41,-3],[13,-30]],[[10126,22854],[-67,35],[27,30],[40,-65]],[[10537,22001],[-27,-28],[-14,-1],[-9,-29],[-20,49],[22,22],[48,-13]],[[10058,21474],[287,-858],[93,-260],[1,-45]],[[10439,20311],[-47,21],[-80,75],[-39,11],[-46,44],[-152,88],[-52,91],[5,82],[-88,45],[-58,19],[-20,94],[-39,63],[-25,64],[9,76],[28,67],[24,-40],[5,-60],[87,-31],[26,-20],[72,2],[17,-62],[86,66],[5,62],[-37,38],[-78,15],[-99,55],[39,49],[-4,33],[-47,26],[-50,117],[10,29],[-11,119],[-62,15],[-1,47],[-46,27],[19,59],[-18,15],[-65,1],[-68,45],[-11,-58],[-28,-44],[-40,-29],[-68,-10],[-37,31],[4,28],[69,19],[-54,80],[-33,-79],[-77,-34],[-21,40],[-38,-12],[-7,-36],[-56,9],[-91,-59],[-96,2],[-73,-30],[-16,-33],[-71,-11],[-30,123],[-32,22],[-57,-25],[-38,-93],[-30,6],[32,-85],[-14,-54],[-107,-54]],[[9121,20488],[-2,-63],[-26,-78],[-57,-97],[-18,-13],[-25,-65],[-29,-39],[23,-75],[-8,-52],[-54,-46],[-49,12],[18,77],[-71,1],[-56,-42],[-12,-41],[28,-162],[-55,-98],[40,-77],[-4,-78],[36,-97],[-5,-66],[37,-39],[43,0],[79,-49],[152,-84],[-52,-53],[-48,-4],[-50,38],[-36,0],[-44,45],[-105,15],[-74,70],[-47,18],[-59,89],[2,125],[-51,55],[-28,-14],[-14,51],[-48,16],[-69,55],[-47,10],[-87,107],[-38,1],[-4,42],[-53,13],[-61,81],[-12,54],[68,62],[54,116],[24,23],[89,128],[44,26],[93,24],[7,85],[-8,35],[52,5],[25,24],[1,49],[24,50],[27,1],[35,37],[8,62],[29,19],[49,80],[25,-6],[37,59],[34,17],[16,-37],[108,-5],[67,-32],[50,-79],[-1,-61],[44,-88],[39,-137]],[[5742,24659],[124,33],[3,-45],[83,20],[30,-32],[29,36],[33,-28],[66,-104],[37,-28],[-24,-94],[18,-59],[-51,-63],[-34,-88],[-31,-45],[-155,-119],[-74,-121],[-5,-62],[-24,-120],[-36,-76]],[[5260,24191],[-9,0]],[[10315,18928],[-39,-64],[17,-90],[-128,8],[-101,45],[-20,28],[-41,2],[-117,69],[-24,38],[-44,30],[-58,-1],[-222,82],[-61,-17],[-71,65],[-27,6],[-47,62],[-50,9],[-27,48],[53,36],[1,32],[105,-4],[24,-42],[61,7],[31,-24],[48,14],[99,-6],[36,10],[21,50],[51,42],[46,-19],[68,-82],[144,-55],[91,-101],[15,-28],[112,-129],[54,-21]],[[9771,21439],[-68,44],[-87,-7],[-22,-70],[8,-41],[-39,-52],[-38,14],[-3,63],[-84,-47],[-44,21],[-10,54],[11,71],[-18,41],[117,-29],[73,-79],[24,55],[122,27],[58,-65]],[[9806,20879],[-8,-23],[-119,72],[-11,36],[4,112],[26,-13],[35,-97],[73,-87]],[[9178,21453],[-42,-19],[-53,0],[-30,-25],[-78,8],[-33,-28],[-35,14],[102,50],[154,20],[15,-20]],[[10740,21851],[66,-37],[40,-2],[9,-75],[30,-25],[-20,-79],[26,-35],[-34,-32],[30,-43],[62,1],[1,-61],[63,-48],[27,1],[86,-84],[16,-35],[-3,-91],[-16,-74],[111,-103],[66,-83],[52,-103],[-12,-54],[48,-29],[-18,-46],[2,-126],[27,-18],[45,9],[34,-43],[14,-56],[-44,-36],[1,-71],[-25,-55],[-53,-31],[-63,-117],[66,-110],[-39,-74],[-40,15],[14,37],[-67,13],[-9,75],[-63,-41],[2,-32],[-76,-24],[-24,25],[-40,2],[-66,99],[-45,2],[-11,-31],[-64,-8],[-39,25],[-17,77],[-98,79],[-39,21],[-2,54],[-66,-45],[-80,6],[-66,-24]],[[12567,20082],[-34,-16],[20,-72],[-20,-49],[-57,-61],[-20,2],[-56,-60],[-34,25],[-24,-42],[-50,-2],[-78,-31],[-26,-69],[57,-32],[50,9],[86,-31],[9,37],[75,14],[-5,-62],[-69,-3],[9,-74],[40,-37],[3,-73],[-18,-40],[8,-46],[-34,-32],[-78,22],[5,-73],[-32,-60],[-6,-54],[-42,-25],[-65,-1],[-32,-30],[13,-41],[-14,-35],[-65,-37],[12,-28],[-51,-39],[-49,11],[-61,-4],[2,39],[-33,27],[-25,-24],[-158,20],[-66,49],[-43,64],[-61,30],[-15,65],[7,35],[-78,17],[-57,112],[-29,-6],[-49,135],[42,23],[-8,43],[51,77],[-39,65],[15,40],[-41,72],[34,32],[45,-3],[14,31],[-1,78],[-40,60],[-12,54],[81,-45],[10,-54],[93,42],[24,-60],[-32,-26],[13,-33],[57,7],[25,106],[-38,59],[91,20],[23,-28],[-12,-43],[16,-59],[41,25],[8,93],[-12,83],[-48,16],[-40,35],[84,45],[-3,36],[39,27],[77,-66],[61,-23],[57,-136],[29,26],[-20,43],[30,12],[23,-50],[-9,-38],[47,-1],[8,59],[34,31],[10,48],[54,53],[34,7],[44,-37],[99,-15],[115,-53],[31,-30],[-12,-54],[46,-18]],[[13114,18814],[-50,-84],[-48,-3],[-23,32],[-65,2],[-58,-137],[-26,-10],[-111,4],[-40,28],[-32,64],[-27,12],[-35,55],[-13,150],[23,23],[-14,45],[40,56],[104,69],[35,35],[69,27],[24,-8],[57,194],[21,-36],[-27,-37],[-6,-46],[14,-99],[70,-72],[6,-82],[-13,-93],[36,-13],[89,-76]],[[11101,21693],[-52,-136],[-46,-5],[-8,46],[41,31],[30,63],[-73,62],[-44,78],[47,-8],[28,-81],[61,-13],[16,-37]],[[12038,20379],[-77,-118],[-44,-10],[-44,115],[56,-8],[44,37],[44,5],[21,-21]],[[11268,21245],[-38,38],[-59,30],[-65,92],[-66,66],[-32,16],[1,39],[45,9],[57,-103],[157,-187]],[[13028,19244],[-36,-13],[0,80],[-13,77],[7,37],[-15,60],[-50,-26],[-12,45],[56,25],[40,-47],[1,-144],[18,-38],[4,-56]],[[11133,19883],[-56,3],[-51,42],[18,31],[41,-17],[48,-59]],[[11618,20765],[-23,8],[-24,81],[-95,95],[19,16],[86,-109],[37,-91]],[[11003,21655],[-34,-31],[-32,11],[16,63],[50,-43]],[[11266,21209],[-52,11],[9,57],[43,-68]],[[19937,21157],[-33,-59],[20,-65],[-32,-20]],[[19892,21013],[-68,50],[-73,29],[-57,11],[-126,-14],[-94,-62],[-100,112],[-85,-23],[-1,62],[-56,36],[-42,-6],[-44,59],[-5,42],[-84,4],[-47,74],[-81,24],[-3,61],[-111,1],[-38,27],[-3,34],[-39,23],[-58,-30],[-64,25],[-21,51],[-47,10],[-133,70],[-34,-53],[-41,31],[19,55],[-78,61],[-31,66],[-63,37],[0,36],[-107,-35],[-31,-23],[-56,7],[-15,24],[24,74],[34,43],[-43,11],[-20,-37],[-88,-12],[12,67],[-43,-22],[-41,7],[-97,58],[-47,77],[-48,48],[-1,69],[-57,32],[-56,-30],[-65,74],[-33,13],[-128,104],[-46,-28],[-32,17],[-56,77],[25,53],[-22,36],[-42,-74],[-90,46],[-37,1],[-47,85],[-34,-46],[-64,41],[-68,76],[-46,30],[-23,89],[-30,57],[-72,1],[-18,-39],[-34,45],[7,44],[-51,64],[-87,-19],[-31,46],[-60,41],[-40,92],[-50,-23],[-88,86],[-65,-22],[-30,37],[22,22],[-39,86],[-44,35],[-5,-53],[-42,-20],[-30,14],[-24,76],[1,39],[-45,2],[-26,30],[19,35],[-27,39],[-41,-15],[-70,7],[-15,46],[25,69],[-31,37],[-52,-4],[-50,47],[-73,-15],[-79,56],[33,63],[-5,76],[-31,-3],[-54,40],[-77,91],[-24,67],[-49,56],[-46,-26],[-35,16],[-34,76],[-89,32],[-89,-4],[-25,27],[23,49],[-23,24],[-38,-10],[-39,24],[-39,0],[-32,71],[38,95],[-20,71],[-34,21],[-24,40],[-31,-50],[-23,41],[48,62],[-12,68],[-53,62],[-9,61],[-67,40],[-8,44],[-40,27],[-15,34],[-41,-22],[-34,74],[-34,8],[-53,62],[-51,-3],[-29,20],[-9,44],[-54,-6],[-48,60],[-50,16],[-65,72],[11,43],[-36,29],[-3,68],[31,120],[78,-20],[53,-29],[36,-40],[10,-37],[-10,-50],[58,8],[26,-30],[32,50],[35,-17],[9,-63],[32,33],[42,-23],[35,14],[61,-55],[91,-39],[47,-43],[67,-31],[55,3],[-23,56],[21,65],[56,23],[18,26],[44,-11],[10,-54],[32,-13],[35,31],[21,-51],[22,1],[93,-90],[75,-54],[44,-15],[42,5],[50,32],[103,15],[43,42],[31,-44],[-27,-36],[31,-55],[86,-84],[56,-69],[52,-25],[2,-35],[83,-50],[35,-98],[45,-10],[33,-89],[50,-27],[27,-46],[76,-79],[6,-57],[46,-36],[69,-9],[53,9],[9,-32],[108,20],[76,-23],[29,-63],[41,14],[58,-65],[50,-69],[-7,-22],[89,-46],[13,-45],[-39,-52],[-56,-25],[45,-54],[47,19],[32,-30],[-14,-30],[37,-27],[10,-50],[41,-9],[42,14],[62,-34],[55,7],[38,-34]],[[16996,23844],[-92,-100],[-2,-76],[-29,-26],[4,-136],[-33,-29],[704,-563],[1289,-771],[728,-326],[278,-193],[50,-39],[-148,-257],[192,-171]],[[14463,24965],[-57,4],[6,-40],[-88,43],[-41,4],[-35,39],[-57,-5],[-4,25],[56,36],[-39,40],[-48,-28],[-12,-43],[-44,-13],[-31,16],[-77,73],[-30,6],[-103,73],[-11,-48],[79,-132],[-145,10],[-5,57],[-30,45],[-28,-55],[-28,22],[2,86],[-125,44],[-59,51],[-34,6],[-30,73],[98,-19],[30,18],[37,-18],[27,-43],[39,7],[22,46],[-41,31],[-32,48],[45,8],[42,28],[76,-55],[2,-28],[58,-27],[17,-31],[46,-7],[19,-30],[73,-41],[67,2],[7,60],[42,-17],[85,-15],[39,-43],[13,-46],[28,-3],[53,-70],[67,-51],[19,-46],[40,-47]],[[13995,25642],[-75,-129],[36,-19],[2,-35],[-22,-45],[-42,-8],[-50,18],[-84,47],[-34,1],[-36,53],[-40,27],[-82,78],[-49,7],[-37,39],[-63,37],[-74,20],[-28,42],[-22,-15],[-52,15],[-25,27],[2,62],[-43,4],[-21,41],[16,30],[-12,72],[39,2],[70,-36],[45,-58],[51,-22],[78,-64],[27,-44],[61,13],[84,-111],[40,-19],[-29,96],[68,21],[24,-61],[49,-30],[89,51],[45,-64],[32,18],[62,-61]],[[19820,20975],[-545,-283]],[[19275,20692],[-23,57],[16,69],[41,79],[31,6],[89,85],[-11,30],[81,-11],[112,54],[209,-86]],[[13317,26153],[-18,-87],[-71,-24],[-79,-3],[1,-129],[-29,-29],[-31,7],[-55,82],[-14,41],[-46,19],[-63,58],[19,55],[-60,59],[20,29],[130,-81],[34,18],[-20,87],[74,32],[28,-22],[49,13],[9,-29],[50,-21],[-26,-74],[-47,-21],[-4,-32],[-90,-1],[53,-38],[40,-1],[25,64],[58,52],[55,15],[8,-39]],[[14674,24794],[-38,-28],[-11,-41],[-70,19],[-44,63],[-45,-6],[-7,44],[35,29],[2,38],[27,48],[30,-28],[56,18],[14,-77],[51,-79]],[[13101,26318],[-76,-47],[-36,-73],[-60,26],[-28,75],[-51,39],[41,39],[36,-31],[28,22],[91,-47],[55,-3]],[[15594,25296],[-80,51],[-67,11],[-37,80],[2,60],[21,20],[70,-56],[61,-71],[30,-95]],[[14296,24773],[-36,-12],[-32,24],[-50,7],[-48,88],[24,50],[71,-40],[58,-56],[13,-61]],[[12696,26458],[-49,-34],[18,-72],[-26,-63],[-29,-33],[-47,58],[27,47],[-34,42],[9,32],[75,-7],[22,41],[34,-11]],[[15338,25561],[-19,-31],[-70,60],[-35,52],[5,34],[55,23],[26,-25],[38,-113]],[[14774,24574],[-35,-62],[-66,17],[-4,48],[94,45],[11,-48]],[[15738,25232],[-63,23],[-35,70],[44,18],[44,-60],[10,-51]],[[13266,26262],[-20,-9],[-75,38],[-40,-1],[7,61],[96,-51],[32,-38]],[[13401,26082],[-17,-37],[-47,9],[-8,55],[27,28],[37,-22],[8,-33]],[[13514,25949],[-87,1],[-21,58],[56,23],[52,-82]],[[14586,24603],[-60,-4],[-31,55],[38,34],[51,-41],[2,-44]],[[14513,24712],[-55,-22],[-30,33],[30,49],[55,-60]],[[16885,23959],[-45,-38],[-13,56],[58,-18]],[[16996,23844],[43,-33],[65,-27],[9,-47],[-9,-49],[-30,-59],[21,-37],[49,-18],[60,31],[33,-23],[-21,-38],[29,-43],[51,14],[55,-40],[49,11],[8,-33],[70,-12],[23,42],[-45,32],[33,25],[48,3],[35,28],[55,-36],[89,-30],[-29,-22],[-60,-9],[27,-58],[-8,-33],[27,-43],[115,9],[10,12],[101,-90],[46,25],[66,-11],[18,-64],[39,1],[3,-56],[21,-40],[45,21],[24,-48],[35,-10],[88,58],[45,-37],[16,31],[59,21],[51,-91],[31,31],[63,0],[-32,74],[52,-6],[54,-41],[28,-60],[99,-46],[57,-70],[29,3],[0,-70],[31,-44],[36,-4],[52,-38],[62,-23],[56,-66],[75,-10],[82,-61],[31,11],[-9,-68],[53,-41],[55,-19],[26,-35],[6,-51],[44,-61],[87,-23],[96,-52],[44,-41],[114,-39],[91,-149],[78,-71],[10,-34],[79,-19],[39,-46],[60,-43],[78,-26],[56,-53],[41,-88],[47,-18],[10,-46],[61,-48],[-6,-20]],[[20421,21560],[-24,-73],[-460,-330]],[[20421,21560],[61,4],[34,-60],[60,-65],[81,-47],[36,-7],[58,-77],[111,-67],[-15,-53],[-43,-9],[-11,-51],[-48,-6],[-66,-41],[-23,-74],[-28,-49],[-84,-57],[-39,49],[-75,-3],[-22,19],[-84,-52],[135,-67],[3,-80],[30,-64],[52,6],[-3,34],[26,44],[45,-20],[29,50],[51,-20],[-16,-35],[47,-40],[17,-62],[-64,-25],[-36,-34],[115,8],[16,21],[61,0],[38,-18],[-30,-94],[73,-11],[35,-74],[-7,-32],[-40,-21],[-25,-69],[10,-58],[82,-18],[14,-71],[25,-37],[28,-2],[34,-64],[-33,-25],[-83,-11],[-81,47],[-93,41],[-32,-8],[-31,24],[-31,57],[-53,30],[-5,25],[-61,77],[-14,75],[-43,39],[-19,-47],[-42,28],[-58,15],[-20,57],[-47,51],[-25,57],[-71,12],[-63,22],[5,55],[-30,6],[-8,66],[-44,12],[44,50],[-26,50],[-48,2],[-23,-25],[-57,40],[-85,130]],[[19820,20975],[22,-61],[-18,-139],[23,-49],[-15,-86],[-45,-25],[9,-48],[45,-57],[64,9],[-6,-60],[63,-55],[43,-4],[25,21],[43,-30],[-15,-51],[40,4],[47,-38],[-36,-51],[-57,-15],[29,-37],[-29,-31],[5,-36],[-50,-22],[-49,-2],[-61,24],[-9,21],[-103,-9],[-54,50],[-20,42],[-44,51],[-6,75],[-33,7],[-66,54],[-57,-31],[-38,3],[-68,69],[-59,24],[-55,96],[5,36],[-28,18],[13,50]],[[21201,20253],[-55,30],[-22,45],[9,38],[60,-47],[-11,-41],[19,-25]],[[19885,20619],[-47,-40],[-14,47],[61,-7]],[[23049,17281],[-13,-24],[6,-41],[-21,-4],[-46,-70],[-20,3],[-31,-49],[23,-38],[-78,-53],[-36,-12],[-97,-76],[-32,12],[17,50],[35,21],[2,33],[-28,54],[-44,-9],[-41,24],[14,38],[-9,46],[-61,-24],[-26,-36],[-55,10],[-17,85],[-55,20],[-40,-5],[-23,24],[-40,-24],[-44,37],[-72,-18],[-20,-46],[-48,-30],[-74,14],[-39,33],[-19,81],[-24,9],[-20,70],[-22,29],[-44,11],[12,67],[62,-13],[41,39],[50,-61],[49,71],[46,-10],[-11,55],[74,-6],[10,46],[-13,51],[-52,56],[52,45],[46,-30],[30,-110],[55,-15],[89,87],[96,-35],[47,-49],[22,-64],[39,-1],[-7,72],[40,45],[45,8],[39,-69],[36,-37],[41,-17],[14,-37],[50,-16],[65,-60],[35,-80],[28,-27],[-3,-28],[15,-22]],[[23552,16979],[-42,-59],[-38,9],[-45,-55],[-8,-47],[-59,-67],[-55,25],[-20,-67],[-57,26],[-27,-21],[-42,10],[-109,124],[-52,-3],[-22,23],[-34,-40],[4,-59],[-51,-25],[-17,-49],[-79,39],[-40,-26],[-22,-39],[-80,5],[-36,53],[25,62],[-48,-6],[-19,60],[49,-9],[8,54],[63,-81],[95,15],[25,27],[0,42],[35,5],[23,44],[42,33],[52,64],[-28,62],[48,31],[33,61],[29,23],[-9,38],[11,24],[-15,23],[22,84],[56,21],[19,-23],[44,-119],[44,-42],[17,-99],[31,-53],[67,29],[96,-13],[6,-35],[48,-18],[29,13],[2,-70],[31,-4]],[[22122,17840],[-6,-70],[-54,-32],[-30,25],[27,37],[-35,22],[-31,-70],[-54,-31],[-6,-151],[-44,-25],[-51,72],[-11,44],[54,52],[13,49],[52,102],[-48,49],[-11,70],[44,13],[60,-13],[46,-63],[54,-28],[31,-52]],[[21773,18185],[-53,-16],[-40,65],[-73,35],[-13,-76],[-44,17],[-26,-51],[-37,18],[25,43],[4,62],[48,43],[17,33],[48,-16],[64,25],[52,-55],[28,-127]],[[21853,18004],[-45,-81],[-53,11],[0,50],[98,20]],[[21521,18305],[-55,-59],[-12,34],[20,68],[47,-43]],[[22332,17127],[-40,-9],[-31,49],[-45,24],[2,40],[114,-104]],[[17368,17137],[-118,-13],[-35,-60],[-44,-17],[-16,50],[-3,71],[-55,33],[-64,-77],[-44,65],[-8,70],[-48,42],[-30,0],[7,101],[71,-27],[16,43],[43,-6],[12,95],[93,39],[22,-96],[23,7],[-25,132],[52,5],[33,-45],[13,-74],[38,59],[-31,76],[-142,112],[143,9],[35,-81],[36,-5],[47,77],[32,-35],[-11,-48],[-2,-93],[18,-53],[36,45],[48,-81],[3,69],[36,-23],[103,26],[39,-8],[-56,-78],[-15,-58],[-57,-109],[-95,-145],[-9,-43],[-41,32],[-50,17]],[[17874,17209],[-36,-38],[-22,-68],[-36,-58],[-44,-45],[-76,0],[-49,-21],[-28,22],[-63,2],[-19,37],[47,37],[12,113],[37,53],[21,62],[40,67],[46,9],[60,66],[43,62],[40,-11],[-39,-69],[31,-83],[-46,-13],[-60,-51],[37,-19],[39,42],[43,-10],[22,-86]],[[20799,17047],[-9,-88],[-24,-51],[-39,-20],[-37,-44],[-34,-9],[-79,77],[-45,86],[13,85],[27,42],[86,54],[39,0],[102,-132]],[[17438,16862],[-25,-29],[-45,22],[-103,94],[32,49],[82,-10],[49,-78],[10,-48]],[[17998,17085],[-71,-61],[-25,-1],[-11,87],[38,46],[63,-20],[6,-51]],[[15583,17612],[-28,-69],[-38,29],[-41,-14],[-15,39],[24,35],[51,26],[47,-46]],[[17279,17758],[-58,1],[-39,21],[-77,-20],[16,50],[106,-34],[10,57],[41,-6],[1,-69]],[[16975,17588],[-17,-86],[-44,32],[-18,78],[79,-24]],[[17048,17762],[-11,-94],[-65,65],[44,44],[32,-15]],[[18033,17377],[-32,-23],[-31,36],[7,61],[31,18],[25,-92]],[[18067,17161],[-37,-36],[-24,28],[17,53],[44,-45]],[[17741,17492],[-44,-58],[-11,47],[55,11]],[[17539,17121],[-48,-59],[-3,66],[51,-7]],[[18177,17093],[-22,-78],[-27,54],[49,24]],[[17994,17341],[-28,-36],[-32,18],[6,65],[54,-47]],[[24729,2546],[-23,-56],[-64,-1],[-108,76],[-90,23],[-51,-6],[-32,-41],[-15,-76],[-47,-79],[-11,-87],[-58,2],[-83,72],[-25,87],[-69,52],[-28,-7],[-85,-55],[-37,-7],[-41,46],[-116,43],[-56,38],[-34,84],[-13,110],[-44,82],[-50,41],[-3,101],[-41,42],[-29,-2],[-42,51],[-42,13],[-34,33],[-91,25],[-97,-19],[-46,5],[-55,-45],[-61,74],[56,23],[37,50],[3,76],[-17,49],[-62,81],[-100,38],[-92,-16],[-32,-23],[-51,-114],[-53,17],[-115,10],[-76,-7],[-33,-14],[-54,5],[-12,33],[-49,35],[-29,-2],[-36,54],[-47,6],[-46,-30],[-8,44],[-50,75],[-44,20],[-62,-11],[-49,21],[21,89],[-26,46],[-79,47],[-110,8],[-39,-37],[-18,-47],[-89,84],[-52,29],[-42,66],[-46,30],[-44,90],[-52,33],[13,42],[-6,53],[-28,74],[-32,35],[-17,76],[42,57],[39,83],[65,67],[53,19],[69,-2],[83,-55],[101,-51],[109,-23],[114,-10],[127,-85],[51,-47],[47,-67],[52,-113],[119,-61],[95,-2],[89,-49],[63,-51],[133,-127],[83,-47],[101,-76],[51,-55],[83,-67],[202,-116],[78,-16],[85,17],[60,-22],[75,-61],[71,-40],[98,-21],[165,-51],[30,-26],[55,-84],[230,-235],[71,-44],[45,-11],[72,-51],[102,-38],[80,-54],[69,-78],[31,-64]],[[20780,5338],[-21,-14],[-70,-4],[-89,20],[-53,21],[-102,65],[-39,40],[-27,73],[45,-3],[52,-41],[91,-17],[86,-52],[66,-30],[61,-58]],[[21640,15488],[45,49]],[[21685,15537],[-2,-35],[26,-39],[-1,-42],[62,-86],[-35,-134],[-49,14],[-2,-45],[-50,23],[-31,-27],[44,-65],[-51,-63],[-75,-21],[-11,39],[-47,8],[-39,-13],[-37,-124],[-72,6],[-82,61],[-14,-50],[-27,-14],[-17,-46],[-69,-68],[-148,-16],[-55,24],[-26,-39],[-3,-59],[-81,-4],[-5,44],[-30,28],[-49,12],[-28,-61],[-37,-14]],[[20644,14731],[-528,562],[75,253],[-482,609]],[[19709,16155],[22,28],[47,17],[25,-10],[47,28],[28,43],[30,2],[24,42],[29,-17],[37,21],[12,35],[67,31],[115,-9],[62,-48],[58,-87],[56,-24],[47,-1],[39,-42],[89,-50],[86,-122],[34,-9],[15,-42],[61,-28],[79,-89],[26,-14],[51,-64],[25,-4],[78,-157],[39,-18],[76,-125],[63,4]],[[20644,14731],[348,-304],[471,-205]],[[21463,14222],[-472,-103],[-62,-119],[3,-91],[-44,-20],[-7,-58],[-55,-42],[5,-131],[-15,-132],[4,-87]],[[20820,13439],[-38,-14],[-85,13],[-19,52],[-128,85],[9,49],[-36,47],[-34,3],[-23,66],[-61,35],[-24,38],[-42,3],[-37,39],[-51,-4],[-87,24],[-12,39],[21,68],[34,19],[-30,56],[-51,-10],[10,43],[-47,46],[15,59],[-43,19],[-41,-15],[-31,40],[-47,-5],[-39,55],[66,61],[12,50],[-27,88],[-55,76],[-39,11],[-24,117],[-26,36],[-45,-3],[-19,70],[-37,40],[-45,15],[17,55],[-24,12],[-47,-28],[-33,81],[18,25],[-25,56],[80,10],[39,-14],[42,98],[-18,43],[-31,11],[-17,56],[-37,60],[-15,65],[48,87],[-39,12],[-5,39],[64,7],[-30,73],[-21,99],[-50,58],[7,62],[52,32],[-6,79],[-20,31],[0,58],[32,79],[44,7],[20,52]],[[21463,14222],[432,-291],[301,-5],[587,-127]],[[22783,13799],[306,-289],[42,-140]],[[23131,13370],[-116,3],[-96,-17],[-50,34],[-223,-14],[-257,-45],[-163,17],[-143,-7],[-96,-14],[-99,-37],[-70,26],[-86,0],[-22,26],[-80,21],[-88,-23],[-66,52],[-56,15],[-34,-9],[-41,25],[-130,8],[-55,24],[-22,35],[-128,45],[-57,-19],[-133,-77]],[[22783,13799],[189,175],[26,-34],[289,-46],[430,-110],[-23,-122],[-52,-44],[10,-30],[59,8],[88,-30],[38,-59],[139,9],[214,144],[67,57],[89,-3],[103,170],[252,-34],[237,8],[193,-34]],[[25131,13824],[70,-12],[24,-38],[63,-18],[-14,-57],[33,-29],[38,12],[24,-46],[63,-14],[46,-43],[-88,-91],[31,-52],[18,-137],[23,-63],[64,-15],[39,-35],[14,-38],[-20,-51],[-160,-119],[-33,16],[-21,-33],[-103,-39],[-20,15],[-80,-64],[-54,14],[-125,-38],[-46,20],[-180,-75],[-123,-74],[-16,-72],[-36,5],[-96,58],[-62,66],[-106,22],[-70,-22],[-24,45],[-103,41],[-38,41],[-66,8],[-139,53],[-130,-2],[-114,-43],[-36,78],[-62,89],[-60,57],[-83,44],[-55,88],[-109,71],[-78,23]],[[25802,13345],[-21,-40],[-5,-59],[-69,-6],[-41,29],[33,28],[34,-16],[-7,90],[-55,70],[18,25],[48,-11],[29,-74],[36,-36]],[[25583,13526],[-19,-35],[-6,-57],[-30,-53],[-63,-10],[-16,25],[16,81],[41,30],[77,19]],[[25524,13269],[-51,-22],[-27,62],[-6,69],[57,-21],[27,-88]],[[25654,13228],[-51,-14],[7,53],[44,-39]],[[22783,13799],[-36,212],[144,137]],[[22891,14148],[599,562],[-113,409],[32,107],[62,99]],[[23471,15325],[56,-52],[145,-62],[76,-51],[69,-86],[51,-109],[27,-87],[50,-30],[175,-8],[184,-67],[47,-2],[25,-20],[93,-122],[40,-12],[15,-47],[74,-33],[23,-26],[16,-76],[106,-149],[-17,-233],[21,-92],[36,-23],[67,-13],[139,10],[111,-78],[31,-33]],[[22891,14148],[-43,67],[-13,55],[34,100],[-30,325],[-61,129]],[[22778,14824],[-6,44],[-48,74],[-8,36],[-50,60],[-33,0],[-39,70],[60,36],[15,39],[34,1],[-14,55],[33,11],[5,39],[34,46],[43,7],[42,59],[7,52],[-20,42]],[[22833,15495],[139,-5],[18,-41],[46,-11],[67,14],[95,56],[66,10],[62,-38],[97,-30],[48,-125]],[[22778,14824],[-557,233],[-119,58],[8,59],[-28,25],[-34,102],[-9,104]],[[22039,15405],[37,-5],[61,22],[185,130],[32,-22],[71,-4],[87,-26],[51,-52],[69,-14],[145,39],[56,22]],[[21685,15537],[65,-5],[37,-27],[112,-43],[47,-31],[93,-26]],[[24718,20600],[-35,21],[-12,65],[-81,91],[-46,28],[-37,-4],[-45,38],[-44,12],[21,38],[-67,58],[-34,43],[-15,106],[-39,51],[-28,70],[15,68],[28,22],[142,0],[64,-51],[82,-51],[40,4],[107,-53],[190,-105]],[[24924,21051],[284,-272],[-359,22],[-131,-201]],[[24407,21379],[-46,-10],[-37,41],[33,40],[40,-29],[10,-42]],[[24924,21051],[31,24],[31,-13],[35,19],[24,68],[-27,38],[22,36],[-84,45],[-22,30],[-89,29],[16,50],[36,10],[124,-36],[24,25],[72,-7],[76,-95],[-4,-22],[34,-57],[118,-35],[36,-54],[60,-51],[49,-87],[-9,-49],[32,-96],[47,-28],[23,-102]],[[25579,20693],[-25,-38],[-38,-1],[-57,-100],[18,-82],[-64,-16],[-12,-31],[-147,-1]],[[25254,20424],[-195,3],[-51,-68],[-53,7],[-33,-31]],[[24922,20335],[-102,91],[15,47],[-43,24],[-74,103]],[[25485,21264],[-84,51],[-43,65],[-38,23],[-72,19],[-24,39],[4,39],[93,30],[104,-39],[57,-113],[-8,-48],[11,-66]],[[25579,20693],[56,-40],[-16,-67],[47,-26],[36,-45],[35,-8],[77,-54],[13,-26],[47,-11],[49,-84],[-14,-82],[31,-12],[21,-67]],[[25961,20171],[-83,-11],[-63,-19],[-42,16],[-288,-61],[-231,328]],[[25961,20171],[0,-54],[29,-5],[47,-39],[44,-7],[109,-123],[63,-116],[-9,-18],[75,-76],[47,-70],[26,-100],[-4,-64],[-34,-51],[-74,-67],[-88,-43],[-73,-6],[-10,-64]],[[26109,19268],[-17,50],[-93,16],[-55,-11],[-92,77]],[[25852,19400],[-679,594],[-35,26],[-56,11],[-13,38]],[[25069,20069],[-59,87],[-21,45],[-8,76],[-36,7],[-23,51]],[[25852,19400],[-101,-14],[-231,-71],[-3,-327]],[[25517,18988],[-563,232],[-85,40]],[[24869,19260],[-33,23],[25,61],[-10,75],[-49,70],[-35,30],[-19,91],[5,61],[-49,43],[-2,106],[76,12],[40,73],[51,61],[21,57],[72,11],[58,-27],[49,62]],[[25517,18988],[3,-183],[210,-398]],[[25730,18407],[-495,-91],[37,-138],[-18,-1]],[[25254,18177],[-40,55],[-52,24],[0,37],[32,111],[-2,58],[-45,26],[-15,77],[-67,73],[-18,42]],[[25047,18680],[7,8],[-94,250],[-6,115],[-104,-86]],[[24850,18967],[-39,52],[-20,73],[11,58],[52,60],[15,50]],[[26109,19268],[39,-38],[9,-52],[-36,-107],[-32,-11],[-9,-35],[-45,-20],[23,-39],[-9,-58],[13,-51],[-10,-55],[35,-133],[23,-6],[21,-49]],[[26131,18614],[-54,-31],[-347,-176]],[[25047,18680],[-20,56],[-31,27],[-45,96],[-101,108]],[[26131,18614],[54,4],[32,-25],[-15,-52],[30,-41],[58,-27],[122,-39],[25,16],[-43,46],[-53,19],[91,33],[1,-27],[60,-32],[68,-59],[22,8],[79,-92],[-65,-44],[31,-57],[70,-52],[46,36],[-17,51],[19,17],[120,-110],[67,-114],[10,-45],[94,-53],[97,-139],[-96,63],[-28,-20],[52,-53],[-2,-24],[-66,-46]],[[26994,17756],[-623,-345]],[[26371,17411],[-361,652],[-280,344]],[[26371,17411],[181,-323]],[[26552,17088],[-414,-415]],[[26138,16673],[-85,63],[-18,60],[-46,1],[-11,-32],[-48,-23],[-32,15],[-135,96],[-69,110],[-33,1],[-35,42],[-2,39],[-45,76],[-29,91],[-43,13],[-43,40],[0,56],[-40,30],[-17,44],[24,58],[-41,113],[-88,48],[5,49],[-47,103],[-45,62],[-2,49],[-30,25],[47,34],[28,48],[-45,77],[9,51],[32,65]],[[26994,17756],[60,-1],[32,-73],[88,-12],[6,-50],[25,-41],[57,-53],[-56,-37],[-9,-49],[78,-21],[25,-33],[-31,-25],[13,-110],[-37,-28],[-25,38],[-39,-7],[20,-52],[212,-14],[5,-71],[28,-34],[-66,-42],[-31,-44],[-1,-56],[67,-22],[60,-77],[41,18],[72,-45],[-35,-32],[-30,1],[4,-79],[25,-12],[35,34],[61,-46],[-32,-73],[-55,27],[-49,-34],[-8,-57],[4,-76],[40,-16],[37,-46],[7,-42],[-29,-34],[44,-75],[12,-91],[47,-47],[-5,-24],[-73,25],[-28,50],[-40,21],[-56,62],[-59,-32],[52,-84],[39,-22],[49,-101],[29,3],[73,-52],[90,-149],[65,-75],[5,-61],[45,-24],[31,-79],[49,-91],[14,-68],[36,7],[29,-87],[37,-49],[64,0],[-12,-77],[7,-28],[21,-38],[19,-16],[19,-6],[19,-60],[61,-34],[46,-50],[-13,-65],[3,-88]],[[28282,14825],[-462,493],[-571,628],[-27,46],[-31,107],[-229,328],[-410,661]],[[27674,16804],[-57,-9],[9,69],[26,-6],[22,-54]],[[28282,14825],[27,-50],[30,-14],[9,-42],[-42,-50],[-21,-56],[29,-63],[-81,-37],[-37,24],[-45,57],[-134,120],[-166,86],[-83,101],[39,72],[-55,-16],[-23,35],[-108,92],[-44,85],[-6,45],[-41,112],[-35,34],[-33,60],[-47,49],[6,41],[-58,47],[16,42],[-50,49],[-34,-36],[-27,43],[-65,51],[-14,36],[-41,-11],[-18,53],[-80,32],[-15,63],[-79,-11],[-64,81],[-48,-43],[-40,39],[-24,47],[28,70],[-51,36],[-28,-9],[11,-60],[-14,-20],[-49,28],[13,58],[-41,21],[-48,-42],[-41,22],[-91,96],[-39,66],[3,38],[-47,96],[-140,46],[-46,67],[9,83],[-71,85]],[[27300,15575],[-57,40],[-83,37],[7,25],[133,-102]],[[29167,14026],[-2,-42],[-32,-101],[-10,-60],[-34,-8],[-52,33],[-31,90],[-57,-9],[-53,64],[-11,55],[-68,84],[-50,90],[-69,88],[-45,40],[-14,-100],[18,-50],[-25,-110],[-27,-44],[-37,3],[-69,76],[-13,50],[-82,95],[-17,47],[-79,94],[-21,38],[19,35],[-13,35],[30,31],[22,48],[-18,48],[34,65],[-3,45],[-52,64],[-15,45],[7,59],[20,43],[-17,44],[-41,18],[-37,82],[-24,18],[78,129],[-18,31],[18,44],[43,38],[-12,44],[-74,35],[-38,-6],[-1,91],[17,41],[39,-27],[34,26],[-96,60],[-48,-45],[-41,58],[31,20],[22,50],[-27,31],[-26,-31],[-66,66],[-2,64],[-63,82],[39,43],[37,-12],[30,-47],[-2,-65],[58,-58],[94,-11],[35,8],[39,-71],[100,-129],[43,-30],[101,-153],[10,-43],[28,-28],[7,-77],[37,-4],[67,-49],[19,-46],[-7,-46],[52,-52],[106,-159],[53,-28],[13,-45],[41,-56],[32,-116],[43,20],[14,-49],[11,-197],[-13,-23],[-57,4],[10,-60],[47,5],[60,-88],[11,-93],[21,-27],[19,-122]],[[28199,15178],[-40,-52],[-30,18],[-19,36],[0,57],[55,46],[-2,-80],[36,-25]],[[28271,15405],[-37,-63],[-45,22],[9,36],[36,37],[37,-32]],[[35751,20894],[-51,-57],[-10,49],[61,8]],[[18634,36625],[-23,-7],[-88,149],[63,-77],[30,-63],[18,-2]],[[29790,9407],[-48,-542]],[[29742,8865],[-52,-2],[-14,-67],[-36,68],[-67,-35],[3,67],[26,35],[-53,42],[6,18],[-40,71],[-40,-14],[-5,-45],[-32,-11],[-8,-50],[-32,-1],[-24,-37],[-26,92],[13,42],[-94,63],[53,21],[-72,77],[-43,-24],[-10,40],[23,45],[-111,34],[-6,71],[-38,-39],[-29,1],[-34,-41],[-21,23],[-46,-6],[-47,-25],[-44,44],[30,54],[-32,30],[36,130],[24,41],[-39,29],[44,99],[-34,30],[-19,113],[-74,21],[-49,-61],[-53,45],[42,43],[38,17],[-22,59],[-28,37],[26,30],[32,-35],[32,29],[-37,35],[-82,-15],[-15,28],[42,35],[-16,113],[31,48],[31,16],[-20,52],[-99,55],[-86,16],[-49,58],[-53,-14],[-9,52],[-54,-73],[-37,26],[-62,-3],[11,64],[-54,25],[-100,4],[-69,12],[-14,-51],[-36,-18],[-84,-9],[-114,33],[-48,28],[-56,10],[-28,-14],[-20,82],[24,30],[-30,35],[8,99],[23,135],[30,45],[-32,51],[18,112],[-4,67],[45,51],[160,-24],[47,50],[39,71],[213,-37],[86,-46],[121,-41],[46,-43],[92,-28],[64,-47],[10,-38],[56,-36],[24,10],[59,-26],[13,-29],[41,-21],[47,1],[23,-31],[42,-10],[53,-56],[54,-15],[42,-82],[45,-7],[36,-32],[47,-78]],[[29211,10658],[-320,-115],[899,-1136]],[[28864,9532],[-35,-10],[-38,-39],[-59,37],[-9,37],[83,-2],[33,53],[25,-76]],[[29211,10658],[34,-20],[104,-36],[24,-47],[104,-43],[-3,-49],[53,-70],[44,-14],[60,41],[63,-15],[-11,-34],[61,-83],[6,-48],[75,-66],[123,-26],[70,38],[36,-50],[54,-2],[47,34],[37,-15],[35,-112],[54,-62],[152,-71],[41,14],[41,-15],[72,12],[11,37],[34,20],[79,-17],[23,-43],[53,0],[10,44],[29,17],[56,-69],[50,18],[41,-11],[21,-76],[60,-67],[36,10],[24,-27],[77,-52],[-8,-16],[117,-31]],[[31300,9656],[-38,-49],[47,-52],[-44,-22],[25,-59],[-12,-34],[68,-12],[-16,-49],[26,-34],[19,-112],[-33,-161],[-675,-141],[-133,97],[-744,379]],[[31105,10956],[-28,-86],[-28,30],[31,31],[-11,64],[-41,18],[-59,95],[15,43],[46,-1],[12,-76],[56,-86],[7,-32]],[[30973,11347],[-51,-55],[-44,84],[42,54],[53,-83]],[[30861,11651],[-21,-72],[-33,-25],[-26,23],[32,84],[48,-10]],[[31300,9656],[72,1],[45,91],[7,81],[19,36],[96,-71],[49,25],[25,-66],[28,-31],[68,-37],[36,-93],[17,-13],[57,-93],[28,-20],[90,-153],[16,-90],[-10,-37],[37,-68],[49,-33],[65,-24],[26,-118],[-16,-75],[33,-78],[62,-71],[78,-26],[51,-43],[49,-5],[58,24],[26,-101],[29,-21],[18,-126],[-10,-87],[34,-48],[-1,-59],[-45,-45],[-60,-24],[-68,-97],[47,-23],[23,-51],[43,-35],[79,33],[23,21],[104,-36],[13,-39],[94,7],[53,35],[107,-11],[48,-33],[12,-52],[-13,-34],[-66,-20],[-47,19],[-25,-13],[-76,43],[-87,-19],[-23,-28],[-38,34],[-102,-24],[-43,1],[-85,46],[-67,3],[-33,44],[-122,39],[-32,32],[-21,-35],[-43,-8],[-62,-33],[-31,-36],[-81,27],[-26,-43],[-43,11],[-87,-34],[-63,26],[-35,31],[-72,20],[-102,-22],[-42,15],[-115,140],[-36,9],[-53,72],[-30,1],[-99,-25],[-28,27],[-47,-32],[-75,-27],[-51,34],[-13,-28],[-49,35],[-60,62],[-55,-12],[-28,21],[-76,-35],[-36,62],[-35,-36],[-70,25],[-6,49],[-45,85],[-54,-36],[-35,9],[-22,40],[-46,-13],[-21,37],[-52,-20],[-16,41],[-55,6],[-38,-21],[15,81],[-11,34],[-83,34],[28,24],[-22,35],[-29,-11],[-41,34],[-66,-39],[-42,75],[-48,-32],[-15,24],[-44,-14],[-19,20],[66,142],[-59,-1],[21,70]],[[33523,7902],[-42,-68],[-57,-43],[-63,4],[-29,23],[9,45],[29,24],[-28,76],[44,57],[73,0],[64,-118]],[[33398,7589],[-12,-38],[-30,-15],[-80,11],[-10,53],[81,36],[36,-9],[15,-38]],[[31215,13871],[-31,-105],[-60,-8],[-11,-75],[28,-36],[-29,-89],[17,-52],[-16,-23],[15,-61],[33,-63],[-29,-62],[32,-64],[2,-72],[-76,-87],[-35,54],[-49,112],[-21,101],[10,41],[-43,47],[13,43],[-41,98],[8,58],[-7,60],[34,128],[23,56],[53,20],[107,-49],[54,49],[19,-21]],[[30061,10959],[-21,-43],[-10,-76],[-90,-95],[-30,-12],[-72,22],[-3,44],[43,42],[-23,66],[-5,81],[-44,22],[-45,-4],[10,86],[-8,52],[20,66],[105,22],[71,-49],[33,-57],[24,-117],[45,-50]],[[29707,11388],[-47,-39],[-43,91],[6,38],[48,-14],[36,-76]],[[52148,10909],[-35,-43],[-28,-3],[-89,-79],[-60,3],[-42,-18],[32,83],[-30,29],[10,30],[83,31],[109,15],[50,-48]],[[52012,10785],[-23,-78],[-48,-15],[-68,-45],[8,52],[-34,40],[18,27],[55,-2],[8,15],[84,6]],[[51921,11154],[-29,-111],[-28,-5],[22,86],[-20,143],[55,-113]],[[51117,8737],[-31,-118],[-125,-123],[-21,-73],[-104,-30],[-16,-96],[17,-9],[81,44],[18,30],[45,-17],[-139,-88],[-85,-33],[-56,-48],[-26,35],[18,29],[70,27],[-7,35],[-51,-18],[-48,-60],[20,-53],[-49,-20],[-100,23],[-49,20],[-50,-19],[-23,39],[24,36],[59,52],[-16,51],[-47,23],[-51,-80],[11,-80],[-56,-21],[-107,79],[-27,44],[-39,5],[11,-54],[-33,-14],[-44,-69],[-37,13],[10,-87],[-58,-43],[-27,-53],[-70,-32],[9,-63],[-86,-30],[-17,18],[-32,-139],[-41,-52],[-23,10],[-27,58],[11,79],[-5,58],[-43,119],[-27,20],[-12,-67],[-39,-28],[-37,-64],[-27,-19],[-105,-18],[-85,11],[-20,15],[-26,90],[-26,28],[-37,86],[-8,101],[54,87],[-35,54],[57,39],[74,87],[59,36],[-1,39],[44,-2],[-14,-118],[11,-67],[52,-52],[57,-15],[17,35],[27,240],[44,55],[55,96],[68,36],[13,57],[70,44],[91,-5],[15,-28],[106,54],[92,-45],[55,9],[95,-15],[97,15],[50,-12],[31,32],[81,29],[129,-17],[96,-44],[24,-33],[57,26],[43,-67],[67,12],[26,33],[79,-22],[25,-33]],[[50831,8124],[-41,-108],[-83,-72],[-92,-23],[-43,61],[-43,2],[6,45],[111,45],[40,38],[101,54],[44,-42]],[[49567,8733],[-36,-83],[-30,-38],[-132,-13],[48,102],[14,121],[28,46],[67,-33],[41,-102]],[[51059,8507],[-21,-47],[-29,43],[50,4]],[[55172,3259],[-70,-45],[-81,-17],[-41,77],[-31,7],[-17,-72],[-85,-19],[-60,-34],[-87,-20],[-58,25],[30,81],[51,51],[-62,9],[-39,-78],[-77,-22],[-35,57],[-53,16],[-20,45],[-44,22],[-58,90],[-14,69],[22,33],[-63,72],[-28,14],[-31,75],[55,77],[62,15],[16,55],[118,-35],[65,29],[99,-5],[65,8],[52,-53],[60,-33],[73,-18],[38,-30],[-27,-60],[-37,-31],[6,-72],[-41,-111],[38,-5],[26,-32],[26,30],[53,24],[50,-64],[64,31],[37,-46],[53,-110]],[[53179,5642],[-53,-79],[-35,-15],[-57,3],[11,-59],[28,12],[73,-3],[-47,-95],[-76,-28],[-82,-65],[-39,26],[-80,28],[-40,62],[50,54],[20,55],[41,18],[54,-19],[-2,37],[-68,54],[-7,-35],[-50,-19],[-61,-50],[-44,35],[10,95],[-32,13],[30,68],[42,10],[38,56],[0,42],[87,-31],[30,73],[55,-57],[20,38],[51,-42],[19,-56],[77,-29],[-42,-44],[-65,-29],[19,-22],[53,19],[58,3],[14,-24]],[[55216,3633],[-66,-96],[-47,-12],[-112,-57],[-35,80],[3,45],[45,22],[12,54],[35,48],[61,21],[38,-12],[44,-89],[22,-4]],[[56143,12949],[-11,-38],[-65,17],[-55,88],[6,40],[-31,38],[3,45],[63,-14],[61,-65],[29,-111]],[[64091,59],[-134,-59],[-29,45],[41,27],[26,49],[36,14],[32,-15],[28,-61]],[[55740,13418],[-26,-35],[-69,29],[14,30],[46,9],[35,-33]]],"transform":{"scale":[0.0002080574139868976,0.00018672212136237876],"translate":[155.51227512026202,-12.30788298640053]},"objects":{"SLB":{"type":"GeometryCollection","geometries":[{"arcs":[[[0,1,2]],[[3]],[[4]],[[5]],[[6]],[[7]],[[8]],[[9]],[[10]],[[11]]],"type":"MultiPolygon","properties":{"name":"South Choiseul","shapeGroup":"SLB","gid":"SLB-2-0"},"id":"SLB-2-0"},{"arcs":[[-1,12,13]],"type":"Polygon","properties":{"name":"North West Choiseul","shapeGroup":"SLB","gid":"SLB-2-1"},"id":"SLB-2-1"},{"arcs":[[-2,-14,14]],"type":"Polygon","properties":{"name":"East Choiseul","shapeGroup":"SLB","gid":"SLB-2-2"},"id":"SLB-2-2"},{"arcs":[[15,16,17]],"type":"Polygon","properties":{"name":"East Honiara","shapeGroup":"SLB","gid":"SLB-2-3"},"id":"SLB-2-3"},{"arcs":[[-16,18,19,20]],"type":"Polygon","properties":{"name":"Central Honiara","shapeGroup":"SLB","gid":"SLB-2-4"},"id":"SLB-2-4"},{"arcs":[[-20,21,22]],"type":"Polygon","properties":{"name":"West Honiara","shapeGroup":"SLB","gid":"SLB-2-5"},"id":"SLB-2-5"},{"arcs":[[[23]],[[24]],[[25]],[[26]],[[27]],[[28]],[[29]],[[30]],[[31]],[[32]],[[33]],[[34]],[[35]],[[36]],[[37]]],"type":"MultiPolygon","properties":{"name":"Shortland Islands","shapeGroup":"SLB","gid":"SLB-2-6"},"id":"SLB-2-6"},{"arcs":[[[38,39]],[[40]],[[41]]],"type":"MultiPolygon","properties":{"name":"North Vella la Vella","shapeGroup":"SLB","gid":"SLB-2-7"},"id":"SLB-2-7"},{"arcs":[[42,43]],"type":"Polygon","properties":{"name":"South Vella la Vella","shapeGroup":"SLB","gid":"SLB-2-8"},"id":"SLB-2-8"},{"arcs":[[[44]],[[45]]],"type":"MultiPolygon","properties":{"name":"Ranongga-Simbo","shapeGroup":"SLB","gid":"SLB-2-9"},"id":"SLB-2-9"},{"arcs":[[[46]],[[47]]],"type":"MultiPolygon","properties":{"name":"Gizo-Kolombangara","shapeGroup":"SLB","gid":"SLB-2-10"},"id":"SLB-2-10"},{"arcs":[[[48,49,50]],[[51]],[[52]],[[53]],[[54]],[[55]],[[56]]],"type":"MultiPolygon","properties":{"name":"West New Georgia-Vonavona","shapeGroup":"SLB","gid":"SLB-2-11"},"id":"SLB-2-11"},{"arcs":[[[-51,57,58,59]],[[60]],[[61]],[[62]],[[63]]],"type":"MultiPolygon","properties":{"name":"North New Georgia","shapeGroup":"SLB","gid":"SLB-2-12"},"id":"SLB-2-12"},{"arcs":[[[-49,-60,64,65]],[[66]],[[-39,67,-43,68]],[[69]],[[70]],[[71]],[[72]]],"type":"MultiPolygon","properties":{"name":"South New Georgia-Rendova","shapeGroup":"SLB","gid":"SLB-2-13"},"id":"SLB-2-13"},{"arcs":[[[-59,73,-65]],[[74]],[[75]],[[76]],[[77]],[[78]],[[79]],[[80]],[[81]],[[82]],[[83]]],"type":"MultiPolygon","properties":{"name":"Marovo","shapeGroup":"SLB","gid":"SLB-2-14"},"id":"SLB-2-14"},{"arcs":[[[84,85,86]],[[87]],[[88]],[[89,90]],[[91]],[[92]],[[93]],[[94]],[[95]],[[96]],[[97]],[[98]],[[99]],[[100]],[[101]],[[102]],[[103]],[[104]],[[105]]],"type":"MultiPolygon","properties":{"name":"Hograno-Kia-Havulei","shapeGroup":"SLB","gid":"SLB-2-15"},"id":"SLB-2-15"},{"arcs":[[-87,106,107]],"type":"Polygon","properties":{"name":"Marigne-Kokota","shapeGroup":"SLB","gid":"SLB-2-16"},"id":"SLB-2-16"},{"arcs":[[[-85,-108,108]],[[-90,109]],[[110]],[[111]]],"type":"MultiPolygon","properties":{"name":"Gao-Bugotu","shapeGroup":"SLB","gid":"SLB-2-17"},"id":"SLB-2-17"},{"arcs":[[[112]],[[113]],[[114]],[[115]],[[116]],[[117]],[[118]]],"type":"MultiPolygon","properties":{"name":"Nggela","shapeGroup":"SLB","gid":"SLB-2-18"},"id":"SLB-2-18"},{"arcs":[[[119]],[[120]],[[121]],[[122]],[[123]],[[124]],[[125]],[[126]],[[127]],[[128]],[[129]],[[130]],[[131]],[[132]],[[133]]],"type":"MultiPolygon","properties":{"name":"Savo-Russull Islands","shapeGroup":"SLB","gid":"SLB-2-19"},"id":"SLB-2-19"},{"arcs":[[[134]],[[135]]],"type":"MultiPolygon","properties":{"name":"Rennell-Bellona","shapeGroup":"SLB","gid":"SLB-2-20"},"id":"SLB-2-20"},{"arcs":[[-18,136,137,138,139,-22,-19]],"type":"Polygon","properties":{"name":"North West Guadalcanl","shapeGroup":"SLB","gid":"SLB-2-21"},"id":"SLB-2-21"},{"arcs":[[-139,140,141,142]],"type":"Polygon","properties":{"name":"West Guadalcanal","shapeGroup":"SLB","gid":"SLB-2-22"},"id":"SLB-2-22"},{"arcs":[[-142,143,144,145]],"type":"Polygon","properties":{"name":"South Guadalcanal","shapeGroup":"SLB","gid":"SLB-2-23"},"id":"SLB-2-23"},{"arcs":[[[-145,146,147]],[[148]],[[149]],[[150]],[[151]]],"type":"MultiPolygon","properties":{"name":"East Guadalcanal","shapeGroup":"SLB","gid":"SLB-2-24"},"id":"SLB-2-24"},{"arcs":[[-147,152,153,154]],"type":"Polygon","properties":{"name":"East-Central","shapeGroup":"SLB","gid":"SLB-2-25"},"id":"SLB-2-25"},{"arcs":[[-154,155,156,157]],"type":"Polygon","properties":{"name":"North-East","shapeGroup":"SLB","gid":"SLB-2-26"},"id":"SLB-2-26"},{"arcs":[[-157,158,159]],"type":"Polygon","properties":{"name":"North Guadalcanal","shapeGroup":"SLB","gid":"SLB-2-27"},"id":"SLB-2-27"},{"arcs":[[-138,160,-159,-156,-153,-144,-141]],"type":"Polygon","properties":{"name":"Central Guadalcanal","shapeGroup":"SLB","gid":"SLB-2-28"},"id":"SLB-2-28"},{"arcs":[[[161,162]],[[163]]],"type":"MultiPolygon","properties":{"name":"North Malaita","shapeGroup":"SLB","gid":"SLB-2-29"},"id":"SLB-2-29"},{"arcs":[[[-163,164,165,166,167]],[[168]]],"type":"MultiPolygon","properties":{"name":"Lau-Mbaelela","shapeGroup":"SLB","gid":"SLB-2-30"},"id":"SLB-2-30"},{"arcs":[[-166,169,170]],"type":"Polygon","properties":{"name":"Baegu-Asifola","shapeGroup":"SLB","gid":"SLB-2-31"},"id":"SLB-2-31"},{"arcs":[[-167,-171,171,172,173,174]],"type":"Polygon","properties":{"name":"Fataleka","shapeGroup":"SLB","gid":"SLB-2-32"},"id":"SLB-2-32"},{"arcs":[[-174,175,176,177]],"type":"Polygon","properties":{"name":"West Kwara'ae","shapeGroup":"SLB","gid":"SLB-2-33"},"id":"SLB-2-33"},{"arcs":[[-177,178,179,180,181,182]],"type":"Polygon","properties":{"name":"Central Kwara'ae","shapeGroup":"SLB","gid":"SLB-2-34"},"id":"SLB-2-34"},{"arcs":[[-173,183,184,-179,-176]],"type":"Polygon","properties":{"name":"East Malaita","shapeGroup":"SLB","gid":"SLB-2-35"},"id":"SLB-2-35"},{"arcs":[[-182,185]],"type":"Polygon","properties":{"name":"Auki-Langalanga","shapeGroup":"SLB","gid":"SLB-2-36"},"id":"SLB-2-36"},{"arcs":[[-185,186,187,188]],"type":"Polygon","properties":{"name":"East Kwaio","shapeGroup":"SLB","gid":"SLB-2-37"},"id":"SLB-2-37"},{"arcs":[[-180,-189,189,190,191]],"type":"Polygon","properties":{"name":"West Kwaio","shapeGroup":"SLB","gid":"SLB-2-38"},"id":"SLB-2-38"},{"arcs":[[[-188,192,193,-190]],[[194]]],"type":"MultiPolygon","properties":{"name":"East AreAre","shapeGroup":"SLB","gid":"SLB-2-39"},"id":"SLB-2-39"},{"arcs":[[[-191,-194,195]],[[196]]],"type":"MultiPolygon","properties":{"name":"West Areare","shapeGroup":"SLB","gid":"SLB-2-40"},"id":"SLB-2-40"},{"arcs":[[[197]],[[198]],[[199]]],"type":"MultiPolygon","properties":{"name":"Small Malaita","shapeGroup":"SLB","gid":"SLB-2-41"},"id":"SLB-2-41"},{"arcs":[[[200]],[[201]]],"type":"MultiPolygon","properties":{"name":"Malaita Outer Island","shapeGroup":"SLB","gid":"SLB-2-42"},"id":"SLB-2-42"},{"arcs":[[[202,203,204]],[[205]]],"type":"MultiPolygon","properties":{"name":"West Makira","shapeGroup":"SLB","gid":"SLB-2-43"},"id":"SLB-2-43"},{"arcs":[[[-205,206,207]],[[208]],[[209]],[[210]]],"type":"MultiPolygon","properties":{"name":"Central Makira","shapeGroup":"SLB","gid":"SLB-2-44"},"id":"SLB-2-44"},{"arcs":[[[-203,-208,211]],[[212]],[[213]]],"type":"MultiPolygon","properties":{"name":"East Makira","shapeGroup":"SLB","gid":"SLB-2-45"},"id":"SLB-2-45"},{"arcs":[[[214]],[[215]],[[216]]],"type":"MultiPolygon","properties":{"name":"Ulawa-Ugi","shapeGroup":"SLB","gid":"SLB-2-46"},"id":"SLB-2-46"},{"arcs":[[[217]],[[218]],[[219]]],"type":"MultiPolygon","properties":{"name":"Temotu Pele","shapeGroup":"SLB","gid":"SLB-2-47"},"id":"SLB-2-47"},{"arcs":[[[220]],[[221]],[[222]],[[223]]],"type":"MultiPolygon","properties":{"name":"Temotu-Nende","shapeGroup":"SLB","gid":"SLB-2-48"},"id":"SLB-2-48"},{"arcs":[[[224]],[[225]],[[226]],[[227]],[[228]],[[229]]],"type":"MultiPolygon","properties":{"name":"Temotu Vatu","shapeGroup":"SLB","gid":"SLB-2-49"},"id":"SLB-2-49"}]}}}