{"type":"Topology","arcs":[[[5079,1053],[2,-42],[-69,-49],[-36,-110],[-66,-25],[-43,1],[-45,-52],[-46,3],[-49,-66],[-37,-5],[-26,-87],[-76,-76],[44,-68],[5,-82],[-78,2],[-24,-42],[23,-21],[-8,-91],[-101,-76],[-7,-45],[-39,-9],[31,-72],[-46,5],[-69,-36],[-71,-10],[-201,108],[-28,8],[-75,96],[-83,80],[-168,109],[-128,75],[-307,158],[-93,45]],[[3165,679],[49,90],[92,-45],[38,182],[-35,22],[-3,104],[25,40],[-2,40],[26,74],[-5,62],[-36,58],[19,58],[-17,51]],[[3316,1415],[76,6],[12,51],[-34,55],[34,27],[26,-25],[52,21],[-56,58],[50,59],[81,2],[54,42],[67,127],[43,-13],[16,-33],[-62,-121],[47,-92],[65,84],[0,38],[60,88],[125,10],[30,-27],[49,4],[56,103],[61,21],[48,-20]],[[4216,1880],[-13,-45],[66,-78],[-30,-105],[-7,-95],[129,8],[30,39],[89,172],[60,69],[21,-109],[37,-41],[40,-19],[-62,-60],[-21,-96],[7,-58],[28,-53],[-5,-67],[31,-62],[56,-30],[69,-55],[87,-53],[251,-89]],[[873,4114],[8,-47],[-40,-12],[-23,59],[55,0]],[[545,4139],[35,-1],[0,-48],[-51,-20],[-15,71],[31,-2]],[[2041,5888],[37,26],[49,-45],[6,-51],[-26,-34],[-15,-72],[18,-18],[-72,-70],[-58,-84],[-29,39],[-53,-48],[26,-55],[-34,-52],[-28,36],[-61,-51],[-41,28],[-78,-144],[24,-11],[83,17],[-3,-47],[81,46],[16,-41],[20,-140],[63,-42],[25,-50],[28,-6],[29,57],[84,-24],[13,-53],[92,-5],[24,-39],[7,-58],[22,-24],[35,-80],[-22,-60],[-26,-19],[-49,13],[-28,-19],[7,-67],[72,-73],[38,-13]],[[2317,4555],[15,-36],[-48,-14],[-40,-34],[-60,10],[-56,-83],[26,-52],[100,-44],[48,3],[4,-62],[82,-82],[-23,-42],[-84,-36],[-91,-94],[-102,-40],[-65,-1],[-127,-71],[-83,-21],[-16,-49],[-55,29],[-56,111],[-36,9],[-33,-172],[-30,-54],[-5,-70],[-31,-19]],[[1551,3641],[-53,20],[-116,-55],[-57,-11],[-42,23],[-10,37],[-59,47],[-45,-9],[-47,15],[8,-51],[-27,-38],[-43,-26],[-31,-71],[17,-28],[-54,-30],[4,-45],[-69,-42],[-52,-2]],[[875,3375],[50,92],[-29,79],[18,85],[-106,19],[-57,-18],[-126,29]],[[625,3661],[-59,17],[-31,79],[-123,59],[1,46],[55,33],[4,43],[54,3],[49,35],[30,68],[51,50],[14,44],[44,-29],[27,16],[56,-15],[1,-43],[37,-22],[59,22],[-14,54],[-63,50],[-18,36],[-64,24],[-66,2],[-56,-30],[-18,-41],[-38,23],[-46,2],[-36,57],[-55,-95],[-19,-100],[-28,-31],[-44,26],[-78,128],[-26,96],[-70,104],[-10,125],[18,54],[-15,72],[-11,119],[14,52],[84,86],[125,-40],[15,28]],[[375,4868],[72,-20],[143,-4],[137,20],[82,-40],[117,27],[-2,114],[-40,54],[83,76],[78,20],[-9,38],[38,124],[26,-5],[64,44],[95,-95],[84,71],[-4,58],[98,156],[67,2],[35,147],[-16,81],[56,13],[73,75],[15,-45],[97,37],[55,-7],[13,52],[32,56],[30,-62],[45,52],[40,6],[62,-25]],[[1650,1801],[43,-6],[46,-56],[85,-26],[59,-42],[26,-42],[-23,-57],[19,-126],[-81,-72],[-12,-107],[11,-87],[-88,4],[15,75],[-37,67],[-94,60],[-116,51],[-262,90],[-282,80],[-100,24],[78,31],[-34,23],[34,35],[84,32],[67,-6],[54,22],[74,10],[68,-9],[127,13],[33,22],[79,-8],[77,12],[50,-7]],[[3165,679],[-219,84],[-384,156],[-125,56],[-289,113],[-146,47],[-80,17],[-30,25],[57,42],[133,14],[-43,40],[-63,-7],[-56,60],[63,103],[13,39],[64,61],[24,-7],[87,40],[-100,35],[-90,-5],[-32,149],[-26,29],[-115,63],[-34,50],[15,32],[63,22],[30,82],[36,52],[40,-50],[33,-10],[32,40],[-3,39]],[[2020,2090],[56,27],[56,1],[67,39],[38,73],[60,-19],[72,2],[9,-102],[40,-68],[56,-58],[12,-41],[67,-16],[79,-61],[156,0],[27,38]],[[2815,1905],[67,30],[69,1],[67,-85],[30,27],[88,-45],[-23,-38],[-60,-14],[22,-88],[78,20],[4,-20],[-58,-89],[13,-51],[35,-22],[98,1],[20,11],[87,-64],[-36,-64]],[[2815,1905],[-21,20],[22,57],[-37,105],[-31,35],[17,61],[-23,67],[10,58],[-28,42],[26,53],[-5,39],[12,79],[-20,82],[36,52],[83,9],[83,-16],[44,28],[44,62],[84,7],[54,-15],[111,-13],[43,-31],[4,67],[23,35],[-74,73],[36,119],[55,89],[68,35],[70,8],[24,47],[9,62],[-5,108],[-78,63],[-6,28],[69,15],[68,-3],[4,41],[-19,96],[-70,-20],[-13,67]],[[3484,3616],[47,60],[108,55],[71,123],[-6,79],[101,-31],[146,11],[75,33]],[[4026,3946],[5,-53],[66,-54],[19,-40],[-1,-82],[18,-69],[49,-39],[59,-12],[75,-91],[0,-70],[17,-46],[55,-81],[89,-19],[-3,-32],[45,-54],[-12,-40],[-39,-39],[1,-65],[136,-22],[26,-86],[-8,-183],[-93,11],[-24,-43],[49,-40],[17,-96],[-21,-30],[-51,-18],[13,-53],[-76,-12],[-18,18],[-52,-36],[3,-52],[-18,-36],[-40,-17],[-33,-74],[10,-27],[-27,-78],[44,-27],[52,74],[59,34],[57,-136],[-35,-62],[-22,-106],[-69,-23],[-43,53],[-33,-20],[-1,-37],[-55,-56]],[[216,5023],[41,-48],[-53,-21],[-44,26],[9,38],[47,5]],[[375,4868],[-88,73],[15,32],[50,-12],[43,15],[79,86],[-72,-9],[-58,-51],[-84,13],[-80,89],[-54,17],[-41,-17],[-55,14],[-3,53],[19,55],[-46,129],[41,36],[74,26],[138,64],[51,1],[26,-52],[57,-64],[80,-5],[35,12],[23,57],[75,20],[125,96],[65,126],[35,27],[2,92],[-16,35],[29,58],[-10,55],[28,24],[49,-18],[31,-58],[68,84],[70,-23],[61,28],[33,-24],[89,119],[55,33],[-19,112],[16,28],[99,-16],[17,57],[28,-17],[30,70],[-5,61],[74,125],[-22,64],[36,34],[28,52],[25,86],[69,-10]],[[1690,6750],[34,-38],[56,-13],[26,-42],[83,-49],[83,-78],[104,-54],[16,-83],[38,-49],[-12,-54],[55,-16],[28,-34],[-15,-59],[24,-52],[-68,11],[-43,-69],[22,-58],[30,-18],[-28,-41],[-69,58],[4,-56],[-17,-68]],[[5874,1746],[-52,25],[-15,32],[-78,27],[-108,5],[-13,60],[-31,28],[17,103],[37,50],[-1,34],[-85,5],[-45,97],[-41,-5],[-32,49],[-63,143],[-43,-9],[55,143],[0,47],[86,156],[-3,14],[63,136],[-13,45],[36,11],[37,67],[53,43],[45,86],[3,94],[67,133],[1,58],[-27,30],[-71,-11],[-3,33],[63,67],[-2,97],[45,64]],[[5756,3703],[39,47],[79,-7],[145,17],[44,70],[60,-2],[113,60],[17,-29]],[[6253,3859],[-7,-70],[16,-73],[-20,-32],[-38,-1],[-35,-33],[0,-54],[-45,-89],[-9,-85],[40,16],[5,70],[49,88],[92,-33],[82,4],[29,-28],[12,-47],[33,-9],[111,70],[110,131],[76,73],[40,69],[32,16],[13,54],[34,62],[51,-26],[86,57],[72,-33],[36,-44],[10,-75],[-18,-124],[-38,-101],[13,-52],[-28,-97],[-44,-32],[25,-107],[28,-43],[-13,-68],[-41,-23],[-76,-98],[-48,42],[-55,-37],[-70,-6],[-53,24],[-119,-34],[-65,-49],[-11,-44],[-54,-67],[-48,-84],[-70,-20],[-3,-68],[1,-494],[-2,-108],[-53,-21],[-33,8],[-42,-41],[-41,-8],[-68,-55],[-22,-63],[-106,-120],[-32,-49],[-19,-19],[-22,-35],[-27,2]],[[6384,5345],[-81,-4],[-46,-44],[-86,-23],[-37,-125],[35,-7],[13,-72],[-69,3],[-60,-13],[-28,20],[-35,-15],[-61,29],[-43,-26],[-86,10],[-35,38],[-36,-13],[-71,67],[-37,-42],[-45,76],[42,53],[-55,39],[-278,135],[-42,-5],[-20,-33],[-53,13],[-40,-58],[-31,-74],[26,-94],[-48,-35],[-2,-41],[-44,-66],[-28,39],[-59,-19],[-52,20],[-35,-16],[-42,-55],[7,-49],[-38,-70],[-57,-5],[-29,-149],[-79,-63],[-16,-71],[-9,-118],[41,-96],[-42,-9]],[[4593,4377],[-25,10],[-36,67],[-13,94],[-32,62],[-6,51],[-37,60],[-66,165],[-33,19],[-38,-19],[-52,-50],[-138,19],[5,50],[55,106],[86,-3],[36,30],[24,92],[52,70],[9,99],[-24,25],[19,97],[-8,208],[-44,66],[-72,8],[-39,-50],[-73,-36],[-51,-4],[-30,-75],[-28,-15],[-57,-71],[-63,-56],[-69,77],[-112,48],[22,87],[-3,206],[-11,133],[-43,-8],[-45,-86],[-106,-3],[-1,-33]],[[3546,5817],[-93,7],[-2,82],[-26,108],[9,20],[85,75],[-39,35],[20,75],[-6,33],[-51,71],[-1,37],[-75,51],[-16,54],[30,51],[-35,32],[-7,45],[-115,-6],[-63,-38],[-20,-67],[-70,57],[-80,85],[-57,-11],[-21,72],[-162,37],[58,47],[7,46],[45,44],[106,51],[86,9],[69,53],[67,15],[155,16],[14,66],[2,109],[-20,58],[-15,102],[13,122],[-38,14],[-10,36],[32,32],[-40,73],[27,134]],[[3309,7749],[592,5],[997,0],[55,-60],[82,-56],[0,-77],[16,-52],[-3,-70],[43,-45],[82,-19],[36,-22],[75,-93],[28,-48],[89,-92],[-45,-85],[-9,-54],[95,11],[82,-98],[73,-73],[22,-63],[77,-58],[-12,-38],[30,-51],[59,-63],[-25,-51],[22,-37],[11,-92],[87,-77],[87,-58],[83,-27],[31,-35],[-22,-68],[74,-7],[88,-56],[24,-26],[-10,-40],[48,-41],[-20,-76],[-33,-65],[8,-47],[-40,-54],[-77,-79],[-45,-92],[-9,-88],[-41,-57],[71,-7],[38,63],[41,20],[86,-7],[130,-60],[4,-39]],[[1690,6750],[14,86],[-15,48],[38,41],[16,75],[88,50],[9,63],[46,3],[-16,43],[9,47],[42,75],[-12,87],[41,36],[130,89],[133,-3],[40,-39],[73,20],[82,63],[147,47],[7,-53],[29,-23],[139,-74],[45,-6],[49,43],[69,38],[63,19],[82,54],[83,23],[49,45],[94,37],[45,65]],[[3546,5817],[-1,-52],[-57,-62],[8,-39],[-38,-34],[-19,-89],[53,-39],[15,-58],[116,-55],[-59,-98],[-39,-24],[-34,18],[-42,-53],[-61,-11],[-15,-54],[-40,-3],[42,-69],[-9,-64],[15,-101],[-32,-59],[-13,-71],[17,-100],[-56,-88],[-37,-7],[-81,-58],[-101,-53],[-21,-62],[-69,-4],[-23,31],[-67,30],[-19,-53],[-79,-48],[-49,102],[-43,12],[-49,72],[-50,-32],[-33,10],[-37,-37],[-48,31],[-16,34],[-81,11],[-48,25],[-29,-61]],[[1551,3641],[99,-68],[29,-78],[179,-57],[123,11],[65,56],[90,8],[15,38],[44,39],[48,18],[60,-58],[81,-29],[38,63],[59,18],[48,-20],[137,43],[32,-79],[57,-25],[4,-38],[77,-56],[40,-15],[16,-35],[57,-38],[36,13],[7,39],[-23,61],[-27,3],[-27,70],[50,75],[47,48],[66,14],[46,-31],[107,-38],[76,29],[77,-25],[33,24],[67,-5]],[[2020,2090],[-33,-69],[-26,16],[-34,92],[-26,-49],[-103,-71],[-110,-90],[-181,33],[-38,21],[-74,-13],[-68,62],[-30,42],[-43,22],[-72,107],[-36,4],[-106,70],[-81,111],[-51,5],[-58,96],[-1,23],[58,24],[43,47],[41,6],[18,34],[-24,98],[-31,45],[-12,60],[18,105],[-61,67],[-49,116],[-113,137],[9,60],[35,75]],[[781,3376],[59,-27],[35,26]],[[4026,3946],[5,76],[24,21],[48,-9],[63,38],[94,-11],[78,37],[121,10],[46,-13],[19,-41],[52,52]],[[4576,4106],[57,-86],[58,34],[55,-7],[59,-35],[21,-58],[-21,-29],[66,-77],[-43,-47],[-2,-66],[27,-77],[-5,-51],[34,-50],[70,79],[106,-22],[45,-40],[56,13],[54,-16],[33,21],[29,-35],[45,12],[49,45],[57,34],[69,10],[67,40],[32,-27],[70,-10],[28,27],[64,15]],[[5874,1746],[27,-3],[9,1],[-16,-54],[-33,-3],[-79,-110],[-182,-130],[-32,39],[-78,-65],[-107,-110],[-47,-18],[-59,-82],[-52,-30],[-48,-4],[-60,-95],[-38,-29]],[[4593,4377],[-5,-70],[34,-122],[-2,-47],[-44,-32]],[[6384,5345],[17,-72],[-26,-66],[24,-140],[19,-63],[5,-83],[28,-77],[0,-90],[93,-67],[51,-180],[52,-39],[24,-42],[-26,-56],[12,-20],[-52,-59],[-113,-27],[-42,-39],[-34,-67],[-26,-6],[-20,-51],[-37,-20],[-42,-94],[8,-46],[-43,-36],[-3,-46]],[[274,3065],[-54,-68],[-14,20],[68,48]],[[781,3376],[-35,-65],[-136,9],[-66,-18],[-14,-32],[-60,-45],[-52,-14],[-71,-64],[-11,54],[17,48],[-25,107],[0,44],[-38,30],[-43,127],[-74,29],[-57,84],[-76,131],[25,25]],[[65,3826],[89,-6],[44,55],[36,-1],[68,-84],[0,-33],[76,-39],[30,51]],[[408,3769],[94,-12],[35,-78],[26,-20],[62,2]],[[65,3826],[5,33],[-36,95],[59,13],[30,-32],[54,22],[53,2],[15,-28],[42,-3],[62,-70],[59,-89]]],"transform":{"scale":[0.000426071197811451,0.000396682242842399],"translate":[-13.307594850999976,6.923379193000073]},"objects":{"SLE":{"type":"GeometryCollection","geometries":[{"arcs":[[0,1,2,3]],"type":"Polygon","properties":{"name":"Pujehun","shapeGroup":"SLE","gid":"SLE-2-0"},"id":"SLE-2-0"},{"arcs":[[[4]],[[5]],[[6,7,8,9,10,11]]],"type":"MultiPolygon","properties":{"name":"Port Loko","shapeGroup":"SLE","gid":"SLE-2-1"},"id":"SLE-2-1"},{"arcs":[[[12]],[[-2,13,14,15]]],"type":"MultiPolygon","properties":{"name":"Bonthe","shapeGroup":"SLE","gid":"SLE-2-2"},"id":"SLE-2-2"},{"arcs":[[-3,-16,16,17,18]],"type":"Polygon","properties":{"name":"Bo","shapeGroup":"SLE","gid":"SLE-2-3"},"id":"SLE-2-3"},{"arcs":[[[19]],[[-12,20,21]]],"type":"MultiPolygon","properties":{"name":"Kambia","shapeGroup":"SLE","gid":"SLE-2-4"},"id":"SLE-2-4"},{"arcs":[[22,23,24]],"type":"Polygon","properties":{"name":"Kailahun","shapeGroup":"SLE","gid":"SLE-2-5"},"id":"SLE-2-5"},{"arcs":[[25,26,27,28]],"type":"Polygon","properties":{"name":"Koinadugu","shapeGroup":"SLE","gid":"SLE-2-6"},"id":"SLE-2-6"},{"arcs":[[-7,-22,29,-28,30]],"type":"Polygon","properties":{"name":"Bombali","shapeGroup":"SLE","gid":"SLE-2-7"},"id":"SLE-2-7"},{"arcs":[[-9,31,-17,-15,32,33]],"type":"Polygon","properties":{"name":"Moyamba","shapeGroup":"SLE","gid":"SLE-2-8"},"id":"SLE-2-8"},{"arcs":[[-4,-19,34,35,-23,36]],"type":"Polygon","properties":{"name":"Kenema","shapeGroup":"SLE","gid":"SLE-2-9"},"id":"SLE-2-9"},{"arcs":[[-8,-31,-27,37,-35,-18,-32]],"type":"Polygon","properties":{"name":"Tonkolili","shapeGroup":"SLE","gid":"SLE-2-10"},"id":"SLE-2-10"},{"arcs":[[-24,-36,-38,-26,38]],"type":"Polygon","properties":{"name":"Kono","shapeGroup":"SLE","gid":"SLE-2-11"},"id":"SLE-2-11"},{"arcs":[[[39]],[[-10,-34,40,41,42]]],"type":"MultiPolygon","properties":{"name":"Western Area Rural","shapeGroup":"SLE","gid":"SLE-2-12"},"id":"SLE-2-12"},{"arcs":[[-42,43]],"type":"Polygon","properties":{"name":"Western Area Urban","shapeGroup":"SLE","gid":"SLE-2-13"},"id":"SLE-2-13"}]}}}