{"type":"Topology","arcs":[[[2195,3524],[101,-78],[40,-92],[153,-107]],[[2489,3247],[-49,-111],[-14,-77]],[[2426,3059],[-46,-27]],[[2380,3032],[-84,-31]],[[2296,3001],[-46,-75],[-94,-7],[-10,53],[-77,-7],[-46,-27]],[[2023,2938],[-89,-55],[-44,-73]],[[1890,2810],[-141,27]],[[1749,2837],[0,82],[44,73],[-64,11]],[[1729,3003],[-80,116],[11,60],[-46,52],[-55,8],[-17,82],[67,25],[-49,60],[21,108],[88,-2],[36,-101],[107,111],[58,27],[89,-48],[89,54],[38,53],[60,-62],[49,-22]],[[2296,3001],[-11,-49],[12,-92],[-19,-19],[-97,-13]],[[2181,2828],[-99,98],[-59,12]],[[2181,2828],[-123,-110],[-37,-1]],[[2021,2717],[-131,93]],[[2195,3524],[47,45],[54,-50],[60,-3],[59,-45],[87,-28],[30,12],[61,-34],[14,-58]],[[2607,3363],[-39,-46]],[[2568,3317],[-79,-70]],[[1749,2837],[-70,-50],[-49,0],[-43,-33],[-49,4]],[[1538,2758],[22,44],[-51,64],[0,55]],[[1509,2921],[115,22],[27,35],[66,-8],[12,33]],[[2021,2717],[37,-86],[-80,-73]],[[1978,2558],[-49,-21],[-53,17],[-94,-15],[-37,-29],[-56,17],[-35,50],[-10,108],[-31,1]],[[1613,2686],[-94,28],[18,42]],[[1537,2756],[1,2]],[[2380,3032],[34,-35],[7,-66],[88,-121],[39,-127],[72,-31]],[[2620,2652],[92,-82]],[[2712,2570],[63,-27]],[[2775,2543],[18,-14]],[[2793,2529],[-42,-30]],[[2751,2499],[-72,-8],[-23,38],[-82,-40],[-65,27],[-88,-50]],[[2421,2466],[-88,17],[-3,50],[-75,-4],[-35,-36],[-51,0],[-8,-54],[-48,-15]],[[2113,2424],[-6,-2],[-94,32],[-25,8],[-10,96]],[[2426,3059],[70,-5],[35,41],[78,-8],[51,19],[31,-61]],[[2691,3045],[-14,-141],[12,-40],[-39,-98],[-30,-114]],[[2958,3308],[-71,49]],[[2887,3357],[-88,74]],[[2799,3431],[85,60],[72,-75],[2,-108]],[[2607,3363],[110,11],[82,57]],[[2887,3357],[-96,-114],[-61,19],[-135,-34],[-27,89]],[[2958,3308],[41,-18]],[[2999,3290],[-27,-76],[-39,-45]],[[2933,3169],[-66,-41]],[[2867,3128],[-117,-25],[-59,-58]],[[2867,3128],[35,-43],[33,-100]],[[2935,2985],[-47,-19],[-78,-73],[-60,-23],[-4,-98],[29,-12],[-61,-111],[-2,-79]],[[2999,3290],[89,-9],[42,-121],[-10,-48]],[[3120,3112],[-23,-27]],[[3097,3085],[-43,87],[-54,-41],[-67,38]],[[1537,2756],[-61,-2],[-53,-27],[-59,62],[-38,89]],[[1326,2878],[97,49],[86,-6]],[[1613,2686],[-53,-101],[-100,-59]],[[1460,2526],[-62,26],[-24,-27],[-90,-9]],[[1284,2516],[-39,96],[41,44],[-13,83],[-45,39]],[[1228,2778],[98,100]],[[1284,2516],[-11,-87],[37,-32]],[[1310,2397],[-8,-52],[78,-54],[-43,-73],[29,-75]],[[1366,2143],[43,-162],[-6,-18]],[[1403,1963],[-32,22]],[[1371,1985],[-48,69],[-69,44],[-100,2]],[[1154,2100],[40,120]],[[1194,2220],[41,74],[3,69],[-42,24]],[[1196,2387],[-33,25]],[[1163,2412],[-34,46]],[[1129,2458],[-30,82],[57,152],[72,86]],[[1460,2526],[0,-93],[-43,-56],[0,-44]],[[1417,2333],[-107,64]],[[1417,2333],[70,-52],[-19,-58],[-55,-27],[-47,-53]],[[2113,2424],[-42,-104]],[[2071,2320],[-89,7],[-35,31],[-135,-10],[-55,-50],[-39,-82],[-57,-79],[20,-64]],[[1681,2073],[-57,0],[-35,-67],[0,-100]],[[1589,1906],[-72,-13],[-42,-49],[-114,30]],[[1361,1874],[44,55],[-2,34]],[[2071,2320],[20,-77]],[[2091,2243],[-169,-109],[-19,-66],[25,-79]],[[1928,1989],[0,-92],[-37,-56]],[[1891,1841],[-56,48],[-2,100],[-33,50],[20,73],[-41,11],[-45,-52]],[[1734,2071],[-53,2]],[[1891,1841],[-5,-65]],[[1886,1776],[-94,-12],[-101,55]],[[1691,1819],[-57,73]],[[1634,1892],[12,31],[84,87],[4,61]],[[1194,2220],[-31,52],[6,80],[27,35]],[[1154,2100],[-91,-17]],[[1063,2083],[-48,81],[25,52]],[[1040,2216],[-2,79],[-57,1]],[[981,2296],[-44,49]],[[937,2345],[132,-20],[14,54],[80,33]],[[1040,2216],[-66,38],[7,42]],[[937,2345],[-6,84],[-51,41],[-107,7]],[[773,2477],[16,47],[112,7],[76,-38],[41,-40],[111,5]],[[1063,2083],[-81,-17]],[[982,2066],[-49,-27],[-70,7]],[[863,2046],[-75,-1],[-74,24]],[[714,2069],[-88,95],[-115,57],[-47,45]],[[464,2266],[95,62],[86,72],[42,82],[86,-5]],[[1371,1985],[-77,-23],[-102,-104],[-15,35],[-69,-27]],[[1108,1866],[-72,119]],[[1036,1985],[-55,11],[1,70]],[[1036,1985],[-32,-86]],[[1004,1899],[-23,-65]],[[981,1834],[-84,15]],[[897,1849],[-27,1]],[[870,1850],[10,135],[-17,61]],[[870,1850],[-55,-36]],[[815,1814],[-52,63],[-80,21]],[[683,1898],[-22,104],[53,67]],[[683,1898],[-45,-90],[-77,-48],[-31,34],[16,74]],[[546,1868],[-35,71],[-12,94],[-102,46],[-25,-25],[-86,36]],[[286,2090],[35,105],[143,71]],[[546,1868],[-98,-99],[-70,-15],[-30,-65],[-54,-37],[-23,-122]],[[271,1530],[-271,118],[103,4],[12,67],[-59,62],[38,73],[-22,52],[48,37],[38,81],[128,66]],[[815,1814],[-80,-100],[-70,-41],[37,-54],[-34,-50]],[[668,1569],[-48,-4],[-130,-131]],[[490,1434],[-219,96]],[[897,1849],[-3,-70],[-32,-102],[-6,-96],[42,-33]],[[898,1548],[-7,-49]],[[891,1499],[-81,-23],[-106,49],[-36,44]],[[981,1834],[-11,-144]],[[970,1690],[-67,-89],[-5,-53]],[[891,1499],[25,7]],[[916,1506],[19,-121],[48,4],[-25,-99],[-31,-46],[-20,-81],[19,-129]],[[926,1034],[-61,47],[-38,153],[-126,87],[-211,113]],[[3097,3085],[18,-44],[49,-27],[-6,-88],[25,-14],[-45,-98]],[[3138,2814],[-43,-6],[-115,-59]],[[2980,2749],[10,80],[-14,112],[-41,44]],[[3120,3112],[85,-34],[69,-93],[9,-36]],[[3283,2949],[9,-48]],[[3292,2901],[-35,-63]],[[3257,2838],[-56,-34],[-4,-40],[-55,-35]],[[3142,2729],[-4,85]],[[2980,2749],[-13,-11]],[[2967,2738],[-75,-26],[-47,-63],[4,-41]],[[2849,2608],[-27,-53],[-47,-12]],[[2967,2738],[50,-22],[24,-66],[-36,-49]],[[3005,2601],[-21,-29],[-88,-23],[-47,59]],[[3142,2729],[8,-21],[-94,-84],[-4,-53]],[[3052,2571],[-6,1],[-41,29]],[[1108,1866],[-38,-13]],[[1070,1853],[-66,46]],[[1070,1853],[-16,-142]],[[1054,1711],[-51,-21]],[[1003,1690],[-33,0]],[[1003,1690],[-4,-92],[-21,-28]],[[978,1570],[-62,-64]],[[1361,1874],[-51,34],[-69,-98],[-49,-36]],[[1192,1774],[-33,-58],[-56,-30]],[[1103,1686],[-49,25]],[[1103,1686],[-6,-40],[33,-66]],[[1130,1580],[-35,-32]],[[1095,1548],[-28,-46],[-41,-4],[2,69],[-50,3]],[[1095,1548],[10,-238],[82,82],[11,84]],[[1198,1476],[61,28]],[[1259,1504],[98,-16]],[[1357,1488],[27,-28],[-41,-68],[-102,-34],[0,-71],[75,-50],[61,-20]],[[1377,1217],[1,-25],[-80,-48],[10,-73]],[[1308,1071],[-60,3],[-82,-25],[-145,8],[-95,-23]],[[1130,1580],[45,35]],[[1175,1615],[51,-38],[-67,-46],[39,-55]],[[1192,1774],[12,-103],[-29,-56]],[[1589,1906],[45,-14]],[[1691,1819],[-77,6],[40,-61],[7,-95]],[[1661,1669],[-56,33],[-69,8],[-2,-39],[-70,-27]],[[1464,1644],[-162,2],[-12,-86],[-31,-56]],[[1464,1644],[-4,-34],[55,-93],[-18,-20]],[[1497,1497],[-140,-9]],[[1497,1497],[0,-41],[55,-20]],[[1552,1436],[-130,-125],[-45,-94]],[[1661,1669],[27,-77]],[[1688,1592],[11,-105],[-18,-52]],[[1681,1435],[-129,1]],[[1681,1435],[5,-14]],[[1686,1421],[-81,-87],[-24,-92],[-91,-91],[-78,-52],[-13,-60]],[[1399,1039],[-91,32]],[[1886,1776],[47,-46]],[[1933,1730],[-33,-42],[-54,-9],[-43,-63]],[[1803,1616],[-115,-24]],[[1933,1730],[55,-33]],[[1988,1697],[8,-69]],[[1996,1628],[-49,-3]],[[1947,1625],[-144,-9]],[[1947,1625],[-33,-79],[-77,-56],[-25,-42]],[[1812,1448],[-81,-35],[-45,8]],[[1812,1448],[20,-26]],[[1832,1422],[-16,-70],[-41,-48],[-6,-45]],[[1769,1259],[-69,-58],[-31,23],[-37,-74],[-26,-96],[1,-65]],[[1607,989],[-131,16],[-77,34]],[[2421,2466],[-62,-91],[10,-44],[74,-54],[-9,-43]],[[2434,2234],[-5,-1]],[[2429,2233],[-94,-27],[-55,46]],[[2280,2252],[-124,6],[-65,-15]],[[2751,2499],[8,-141],[-22,-17]],[[2737,2341],[-95,-43],[-62,4],[-55,-54],[2,-36]],[[2527,2212],[-93,22]],[[2737,2341],[-32,-71]],[[2705,2270],[-37,-10],[-71,-140]],[[2597,2120],[-58,22]],[[2539,2142],[-12,70]],[[1928,1989],[32,31],[59,-45],[60,25],[34,-142],[-36,-109]],[[2077,1749],[-89,-52]],[[1769,1259],[23,-59],[-23,-148],[31,-81]],[[1800,971],[-81,-11],[-112,29]],[[1832,1422],[57,-73]],[[1889,1349],[19,-41],[9,-108],[28,-77],[-14,-44],[2,-118]],[[1933,961],[-133,10]],[[1996,1628],[46,-28]],[[2042,1600],[-37,-125],[-25,-27]],[[1980,1448],[-53,-25],[-38,-74]],[[1980,1448],[45,-27]],[[2025,1421],[-14,-52],[57,-94],[4,-50],[38,-83]],[[2110,1142],[16,-40],[-37,-142]],[[2089,960],[-156,1]],[[2280,2252],[10,-111],[-70,-43],[26,-134],[26,-5]],[[2272,1959],[7,-126],[72,-139],[-2,-35]],[[2349,1659],[-8,-2]],[[2341,1657],[-158,39],[-80,4],[-26,49]],[[2429,2233],[-14,-115],[-52,-37],[-18,-73],[-73,-49]],[[2539,2142],[-25,-151],[-38,-121],[-27,-26],[11,-56],[-8,-95],[-27,-17]],[[2425,1676],[-76,-17]],[[2341,1657],[-57,-40],[-15,-69],[-180,-6]],[[2089,1542],[-47,58]],[[2089,1542],[17,-20],[114,-25]],[[2220,1497],[-69,-10],[-126,-66]],[[2220,1497],[19,2],[10,-148],[-23,-70],[-24,-147]],[[2202,1134],[-36,-22],[-56,30]],[[2425,1676],[3,-9]],[[2428,1667],[-35,-36],[26,-55]],[[2419,1576],[0,-113]],[[2419,1463],[-27,-64]],[[2392,1399],[-10,-34]],[[2382,1365],[-46,-11],[-47,-95],[6,-135]],[[2295,1124],[-54,-20],[-39,30]],[[2382,1365],[-3,-5]],[[2379,1360],[-19,-28],[-5,-207]],[[2355,1125],[-60,-1]],[[2419,1463],[40,-55]],[[2459,1408],[-67,-9]],[[3376,2924],[87,7],[6,-41],[56,-11]],[[3525,2879],[-39,-48]],[[3486,2831],[-52,-18]],[[3434,2813],[-61,34],[3,77]],[[3283,2949],[93,-25]],[[3434,2813],[-26,-53]],[[3408,2760],[-50,-9]],[[3358,2751],[-26,89],[-40,61]],[[3358,2751],[-88,-27]],[[3270,2724],[-13,114]],[[3270,2724],[-56,-93]],[[3214,2631],[-72,-53],[-14,-37]],[[3128,2541],[-76,30]],[[3525,2879],[39,-23],[49,-81],[51,-114]],[[3664,2661],[-7,-27]],[[3657,2634],[-55,-13]],[[3602,2621],[-65,41],[-8,45],[-44,32],[1,92]],[[3602,2621],[-14,-129]],[[3588,2492],[-34,74],[-29,0],[-100,107]],[[3425,2673],[-17,87]],[[3425,2673],[-17,-79],[-103,-12],[-91,49]],[[3588,2492],[-16,-42]],[[3572,2450],[-70,-7]],[[3502,2443],[-92,-2]],[[3410,2441],[-72,5],[-47,-74]],[[3291,2372],[-56,37],[-18,48],[-62,14]],[[3155,2471],[-27,70]],[[2379,1360],[34,-107],[63,-95],[4,-125]],[[2480,1033],[-125,92]],[[2459,1408],[43,-19]],[[2502,1389],[50,-3]],[[2552,1386],[-24,-52],[11,-63]],[[2539,1271],[-23,-151],[53,-42],[-9,-44]],[[2560,1034],[-80,-1]],[[2419,1576],[86,-31],[29,-82]],[[2534,1463],[-41,-31],[9,-43]],[[2597,2120],[60,-149]],[[2657,1971],[-33,-11],[15,-79],[-160,-103],[12,-85]],[[2491,1693],[-32,-24]],[[2459,1669],[-31,-2]],[[2459,1669],[81,-55],[125,3]],[[2665,1617],[10,3]],[[2675,1620],[31,-54]],[[2706,1566],[-16,-72]],[[2690,1494],[-57,-13],[-64,-56],[-35,38]],[[2690,1494],[18,-12]],[[2708,1482],[-25,-70]],[[2683,1412],[-77,-36],[-54,10]],[[2491,1693],[57,-25],[27,25]],[[2575,1693],[62,-34]],[[2637,1659],[20,2]],[[2657,1661],[8,-44]],[[2657,1971],[87,-35]],[[2744,1936],[-16,-116]],[[2728,1820],[-39,-31]],[[2689,1789],[-34,-3],[-41,-75],[-39,-18]],[[2689,1789],[10,-64],[-68,-25],[6,-41]],[[2657,1661],[18,-41]],[[2728,1820],[42,-3],[5,-127]],[[2775,1690],[-17,-60],[-52,-64]],[[2705,2270],[5,-39],[60,-103],[59,-38]],[[2829,2090],[-84,-67],[20,-62]],[[2765,1961],[-21,-25]],[[4004,2496],[-96,-4],[-32,-20]],[[3876,2472],[-60,47]],[[3816,2519],[28,23],[-66,148],[-37,31]],[[3741,2721],[13,96],[172,-92],[78,-229]],[[3664,2661],[46,10],[31,50]],[[3816,2519],[-84,-32]],[[3732,2487],[-15,93],[-60,54]],[[4004,2496],[48,-12],[19,-57]],[[4071,2427],[-79,-47]],[[3992,2380],[-107,-4]],[[3885,2376],[-9,96]],[[3885,2376],[-39,-30]],[[3846,2346],[-111,65]],[[3735,2411],[-4,74]],[[3731,2485],[1,2]],[[3731,2485],[-31,9],[-91,-63],[-37,19]],[[3735,2411],[-73,-45],[-73,25],[-44,-38]],[[3545,2353],[-7,11]],[[3538,2364],[-36,79]],[[3538,2364],[-103,2]],[[3435,2366],[-25,75]],[[3435,2366],[-107,-59]],[[3328,2307],[-36,49]],[[3292,2356],[-1,16]],[[3846,2346],[-34,-35],[-94,-37]],[[3718,2274],[-108,-42]],[[3610,2232],[-11,28],[-75,46],[21,47]],[[3610,2232],[-97,-43]],[[3513,2189],[-40,-6],[0,76],[-59,2],[-42,-39],[-50,-2]],[[3322,2220],[6,87]],[[3322,2220],[-73,4],[-49,60]],[[3200,2284],[11,25]],[[3211,2309],[81,47]],[[3211,2309],[-44,19],[-12,143]],[[3200,2284],[-30,-8],[-3,52],[44,-19]],[[2560,1034],[37,-62]],[[2597,972],[63,-5],[43,52]],[[2703,1019],[6,-46],[60,-2]],[[2769,971],[6,-76],[-70,-119]],[[2705,776],[-215,109],[-130,53],[-92,-13],[-179,35]],[[2539,1271],[60,-6],[37,-84],[-39,-209]],[[2683,1412],[40,-72]],[[2723,1340],[34,-76],[32,-25],[7,-70],[-43,-46],[-50,-104]],[[2775,1690],[71,-62]],[[2846,1628],[-57,-78],[7,-36],[-38,-46]],[[2758,1468],[-50,14]],[[2758,1468],[81,13]],[[2839,1481],[-37,-127]],[[2802,1354],[-79,-14]],[[2846,1628],[77,-7]],[[2923,1621],[41,-50]],[[2964,1571],[-60,-34],[-10,-50],[-55,-6]],[[2765,1961],[65,3],[50,-114],[21,-6]],[[2901,1844],[20,-36],[2,-187]],[[2839,1481],[96,-17],[-12,-79]],[[2923,1385],[-48,-37]],[[2875,1348],[-73,6]],[[2875,1348],[9,-81]],[[2884,1267],[-29,-40],[11,-98]],[[2866,1129],[3,-133]],[[2869,996],[-100,-25]],[[2869,996],[95,25],[0,27]],[[2964,1048],[27,-2]],[[2991,1046],[50,-50],[11,-73],[-27,-29],[-27,-109],[-26,-16],[-23,-117]],[[2949,652],[-244,124]],[[2866,1129],[52,-6],[38,-65]],[[2956,1058],[8,-10]],[[2884,1267],[40,-59]],[[2924,1208],[37,-102],[-5,-48]],[[2923,1385],[100,-6],[47,-29]],[[3070,1350],[4,-35]],[[3074,1315],[-105,-12]],[[2969,1303],[-44,-13],[-1,-82]],[[2969,1303],[47,-77]],[[3016,1226],[-25,-180]],[[3074,1315],[37,4]],[[3111,1319],[72,-88],[28,-2]],[[3211,1229],[9,-1]],[[3220,1228],[-15,-72]],[[3205,1156],[-67,48],[-52,-19],[-70,41]],[[2829,2090],[87,-22],[39,-52],[65,-33]],[[3020,1983],[-71,-23],[29,-114]],[[2978,1846],[-77,-2]],[[2978,1846],[0,-1]],[[2978,1845],[43,-116],[31,-28]],[[3052,1701],[43,-103]],[[3095,1598],[-19,-25],[-112,-2]],[[3070,1350],[45,53],[51,-8]],[[3166,1395],[-1,-8]],[[3165,1387],[-54,-68]],[[3192,1111],[-34,-94],[66,-34],[-13,-104],[19,-116],[-62,39]],[[3168,802],[-16,40],[-64,29],[2,73],[-26,75],[0,75],[39,25],[89,-8]],[[3165,1387],[65,-31]],[[3230,1356],[17,-29]],[[3247,1327],[-29,-13],[-7,-85]],[[3020,1983],[7,-10]],[[3027,1973],[59,-52],[-26,-45]],[[3060,1876],[-82,-31]],[[3060,1876],[-21,-49],[25,-44],[-12,-82]],[[3027,1973],[6,25],[105,6]],[[3138,2004],[14,-77],[92,-123]],[[3244,1804],[-3,-3]],[[3241,1801],[-3,-76],[-35,-40],[-2,-85]],[[3201,1600],[-72,-33],[-34,31]],[[2793,2529],[92,-76],[83,15],[25,-39],[59,-25],[-19,-70],[80,-52],[6,-71],[113,-86]],[[3232,2125],[-25,-75]],[[3207,2050],[-69,-46]],[[3207,2050],[61,-74],[63,-2]],[[3331,1974],[43,-50],[9,-50]],[[3383,1874],[1,-12]],[[3384,1862],[-89,-23],[-51,-35]],[[3232,2125],[60,64],[36,-21]],[[3328,2168],[8,-60]],[[3336,2108],[-5,-134]],[[3336,2108],[82,1],[21,-52],[104,-5]],[[3543,2052],[-90,-105],[-14,-40],[-56,-33]],[[3718,2274],[-1,-41],[43,-45]],[[3760,2188],[-107,-4],[-58,-40],[0,-38],[-52,-54]],[[3328,2168],[54,23],[52,-16],[79,14]],[[4071,2427],[64,3],[64,-21],[35,17],[56,-48],[59,5],[40,-73]],[[4389,2310],[4,-135],[-67,-3],[-95,-36],[-74,44],[-138,6],[-62,42],[36,42],[-1,110]],[[4389,2310],[121,13],[82,-51],[-32,-153],[24,-30]],[[4584,2089],[-87,-43],[-123,-148],[-91,-44],[-57,9],[-63,-31]],[[4163,1832],[-36,34],[-28,75]],[[4099,1941],[29,51],[45,-51],[40,41],[-6,127],[-29,7],[-66,-90],[-60,-32]],[[4052,1994],[-54,2],[-63,58]],[[3935,2054],[-44,119],[-65,-9],[-66,24]],[[4099,1941],[-47,53]],[[3935,2054],[-42,-23],[8,-84],[-37,-51],[10,-64]],[[3874,1832],[-127,-47],[-149,6],[-51,-41]],[[3547,1750],[-51,49]],[[3496,1799],[-93,29]],[[3403,1828],[-19,34]],[[4163,1832],[0,-30]],[[4163,1802],[-97,-8]],[[4066,1794],[-134,35],[-53,3]],[[3879,1832],[-5,0]],[[3496,1799],[-37,-76]],[[3459,1723],[-66,74]],[[3393,1797],[10,31]],[[3547,1750],[14,-73]],[[3561,1677],[-21,-36]],[[3540,1641],[-46,0],[-35,82]],[[3393,1797],[-9,-27]],[[3384,1770],[-27,-6],[-9,-107],[-38,2]],[[3310,1659],[-3,119],[-66,23]],[[3310,1659],[-61,-55]],[[3249,1604],[-44,-3]],[[3205,1601],[-4,-1]],[[3540,1641],[-1,-25]],[[3539,1616],[-100,-16]],[[3439,1600],[-39,30],[10,90],[-26,50]],[[3439,1600],[-29,-13]],[[3410,1587],[-77,-26]],[[3333,1561],[-84,43]],[[3333,1561],[0,-60]],[[3333,1501],[-94,-5],[-16,-23]],[[3223,1473],[-3,-3]],[[3220,1470],[-15,131]],[[3410,1587],[5,-91]],[[3415,1496],[-51,-20]],[[3364,1476],[-31,25]],[[3539,1616],[8,-59]],[[3547,1557],[-84,-62]],[[3463,1495],[-48,1]],[[3364,1476],[-13,-38]],[[3351,1438],[-42,-21]],[[3309,1417],[-43,25]],[[3266,1442],[-43,31]],[[3463,1495],[6,-78]],[[3469,1417],[8,-49]],[[3477,1368],[-45,27]],[[3432,1395],[-53,36]],[[3379,1431],[-28,7]],[[3547,1557],[32,-43]],[[3579,1514],[29,-54],[-5,-52]],[[3603,1408],[-96,-11],[-38,20]],[[3166,1395],[2,67],[52,8]],[[3266,1442],[-36,-86]],[[3309,1417],[-58,-84]],[[3251,1333],[-4,-6]],[[3432,1395],[-55,2],[2,34]],[[3477,1368],[-8,-21]],[[3469,1347],[-76,5],[-39,-23],[-103,4]],[[3469,1347],[17,-50]],[[3486,1297],[-52,-66]],[[3434,1231],[-49,30],[-66,-31],[-66,24],[-33,-26]],[[3879,1832],[-85,-159],[-50,-41]],[[3744,1632],[-98,-36]],[[3646,1596],[-63,84],[-22,-3]],[[3646,1596],[-14,-70]],[[3632,1526],[-53,-12]],[[3744,1632],[-32,-127]],[[3712,1505],[-55,-19]],[[3657,1486],[-25,40]],[[3657,1486],[-8,-109]],[[3649,1377],[-6,0]],[[3643,1377],[-40,31]],[[3712,1505],[32,-10]],[[3744,1495],[-2,-46]],[[3742,1449],[-93,-72]],[[4066,1794],[-59,-146],[-57,-1],[-63,-70]],[[3887,1577],[-66,-21],[-77,-61]],[[3434,1231],[-50,-42],[12,-67]],[[3396,1122],[-51,-88],[-1,-89]],[[3344,945],[-31,-50],[9,-69],[53,-69],[4,-86]],[[3379,671],[-67,8],[-25,48],[-69,-117]],[[3218,610],[-56,39]],[[3162,649],[-39,49]],[[3123,698],[23,106],[22,-2]],[[3192,1111],[13,1],[0,44]],[[3162,649],[-20,-29],[152,-70],[38,1],[93,-76],[35,-60],[-145,74],[-256,104]],[[3059,593],[11,51],[53,54]],[[3643,1377],[-22,-65]],[[3621,1312],[-76,-13]],[[3545,1299],[-59,-2]],[[3396,1122],[16,-51],[-17,-87],[-51,-39]],[[3545,1299],[-79,-113],[2,-104],[-19,-43],[-4,-98],[-33,-55],[8,-103]],[[3420,783],[-41,-112]],[[4584,2089],[26,-104]],[[4610,1985],[-19,-95],[-44,-36],[4,-59],[-62,-128]],[[4489,1667],[-43,12],[-114,-12]],[[4332,1667],[-33,71],[-123,45],[-13,19]],[[4332,1667],[-60,-102]],[[4272,1565],[-70,11],[-21,-25],[-99,-34],[-146,-11],[-64,-34],[15,105]],[[4272,1565],[-30,-72],[11,-98]],[[4253,1395],[-64,-38],[-25,-41],[-93,37],[-144,10],[-39,38],[-146,48]],[[4253,1395],[54,2],[75,-82]],[[4382,1315],[2,-34]],[[4384,1281],[-58,-43]],[[4326,1238],[-103,8],[-39,-48],[3,-42],[-68,-19],[-13,-65]],[[4106,1072],[-33,-130]],[[4073,942],[-54,-11],[-58,55],[-24,87],[-86,39],[-51,59],[-72,-44],[-36,51],[-10,69],[-59,64]],[[3623,1311],[-2,1]],[[3420,783],[126,-23],[1,-87],[-36,-71],[13,-29],[-24,-71]],[[3500,502],[-108,52],[-174,56]],[[3623,1311],[-3,-63],[70,-157],[-30,-71],[-5,-91],[20,-60],[87,-76],[0,-66],[-54,-46],[16,-143],[-80,-38],[-13,-90]],[[3631,410],[-62,15],[11,50],[-80,27]],[[4073,942],[24,1]],[[4097,943],[-3,-70],[-35,-23],[-21,-72],[-58,-52],[-35,-103],[23,-88],[-83,-71],[-136,-92],[-32,-74]],[[3717,298],[-66,20],[24,63],[-44,29]],[[4489,1667],[73,-59]],[[4562,1608],[51,-110]],[[4613,1498],[-26,-42]],[[4587,1456],[-62,4],[-56,-39],[-43,-84],[-44,-22]],[[4587,1456],[44,-13],[38,-90],[-32,-72]],[[4637,1281],[-92,-13],[-34,-43],[-72,13],[-55,43]],[[4610,1985],[60,-24],[97,26]],[[4767,1987],[-5,-201],[24,-56]],[[4786,1730],[-23,-61],[-98,-50],[-103,-11]],[[4637,1281],[31,-14],[4,-78],[43,-23]],[[4715,1166],[-20,-61]],[[4695,1105],[-56,21],[-138,-10]],[[4501,1116],[-8,25],[-138,58],[-29,39]],[[4501,1116],[12,-147],[-40,-53]],[[4473,916],[-13,-38]],[[4460,878],[-54,38]],[[4406,916],[-33,38],[-57,-2],[-128,65],[-30,40],[-52,15]],[[4406,916],[-48,-56],[-12,-51],[-106,-80],[-5,-40]],[[4235,689],[-75,8],[-29,115],[-24,32],[143,23],[7,40],[-64,34],[-96,2]],[[4235,689],[130,-35],[29,31]],[[4394,685],[100,-68],[-4,-58]],[[4490,559],[74,-31],[4,-33]],[[4568,495],[-28,-39]],[[4540,456],[-27,24],[-94,3],[-54,-28],[-22,-45]],[[4343,410],[-89,11],[-59,37],[-39,-70],[-36,-19],[-104,33],[-71,-37],[47,-54],[71,16],[41,-42]],[[4104,285],[-36,-75]],[[4068,210],[-179,30],[-172,58]],[[4183,323],[85,30],[51,-10],[71,-83],[-25,-19],[-100,29],[-82,53]],[[4104,285],[83,23],[67,-51],[98,-44],[77,5],[52,-43],[79,-6],[10,-65],[-306,71],[-196,35]],[[4540,456],[-42,-124],[0,-38]],[[4498,294],[-71,70],[-84,46]],[[4568,495],[2,-4]],[[4570,491],[11,-71],[28,-41]],[[4609,379],[-44,-73],[-67,-12]],[[4477,246],[64,7],[13,23],[82,-21],[-4,-30],[-50,9],[-86,-12],[-19,24]],[[4460,878],[-43,-28],[22,-74]],[[4439,776],[-45,-91]],[[4695,1105],[15,-13]],[[4710,1092],[7,-33]],[[4717,1059],[-127,-113]],[[4590,946],[-35,-40],[-82,10]],[[4590,946],[45,-43]],[[4635,903],[24,-132]],[[4659,771],[-61,-7],[-55,-50],[-104,62]],[[4659,771],[-1,-2]],[[4658,769],[-64,-91],[10,-111],[-114,-8]],[[4717,1059],[57,7],[10,-91],[-38,-70]],[[4746,905],[-3,0]],[[4743,905],[-108,-2]],[[4743,905],[-54,-61],[12,-43],[-43,-31]],[[4658,770],[0,-1]],[[4767,1987],[18,42],[155,15]],[[4940,2044],[-53,-46],[-6,-44],[40,-120],[2,-64]],[[4923,1770],[-20,-24],[-69,16],[-48,-32]],[[4613,1498],[109,27],[86,-63]],[[4808,1462],[-10,-71],[23,-48],[-101,-138],[-5,-39]],[[4923,1770],[37,4]],[[4960,1774],[2,-56],[71,-21],[47,16],[32,-60],[18,-143]],[[5130,1510],[-40,-26],[-42,-91]],[[5048,1393],[-50,27],[-59,-2]],[[4939,1418],[-42,36],[-89,8]],[[4939,1418],[-18,-58]],[[4921,1360],[-141,-137],[-1,-54],[31,-39]],[[4810,1130],[-100,-38]],[[4810,1130],[53,-31],[72,13]],[[4935,1112],[2,-53]],[[4937,1059],[1,-63],[-38,-69],[-46,-11],[4,-51],[41,-35]],[[4899,830],[-69,0],[-28,69],[-56,6]],[[4921,1360],[34,-53],[-3,-52],[-55,-2],[3,-57],[35,-84]],[[5048,1393],[65,-114],[-3,-25]],[[5110,1254],[23,-72],[-24,-42]],[[5109,1140],[-74,-42],[-100,14]],[[5109,1140],[5,-50]],[[5114,1090],[-29,5],[-60,-53],[-88,17]],[[5114,1090],[50,-152],[26,-7]],[[5190,931],[41,-75],[-28,-44]],[[5203,812],[-57,49],[-145,0],[-80,-56]],[[4921,805],[-5,6]],[[4916,811],[-17,19]],[[4916,811],[-18,-69],[7,-85]],[[4905,657],[-64,-32]],[[4841,625],[-73,8]],[[4768,633],[-70,63],[-40,74]],[[4570,491],[49,4],[107,-34],[10,-181]],[[4736,280],[-127,99]],[[4768,633],[-11,-56],[70,-50]],[[4827,527],[62,-33]],[[4889,494],[-84,-85],[112,-108],[15,-48]],[[4932,253],[-44,-25],[-149,33],[-3,19]],[[4841,625],[-14,-98]],[[4905,657],[47,-30]],[[4952,627],[24,-50]],[[4976,577],[-54,26],[-33,-109]],[[4940,2044],[53,-39]],[[4993,2005],[53,-26],[14,-72],[42,-58]],[[5102,1849],[-20,-31],[-122,-44]],[[5203,812],[-97,-60],[-23,-33]],[[5083,719],[-64,-4],[-57,23],[-41,67]],[[5083,719],[20,-15]],[[5103,704],[-142,-50],[-9,-27]],[[4976,577],[13,-18],[128,-17],[32,-62],[-81,-71],[5,-77]],[[5073,332],[-47,-97]],[[5026,235],[-94,18]],[[5103,704],[85,-1],[13,-45],[50,-34],[-6,-81],[-50,-58]],[[5195,485],[-25,-13],[3,-125],[-100,-15]],[[4993,2005],[34,72],[77,4],[78,46],[22,-47]],[[5204,2080],[-38,-80],[21,-74],[41,-24]],[[5228,1902],[-1,-38]],[[5227,1864],[-125,-15]],[[5227,1864],[12,-35],[117,-97]],[[5356,1732],[-5,-53]],[[5351,1679],[-109,-69],[-13,-99]],[[5229,1511],[-99,-1]],[[5229,1511],[114,-114],[55,-77]],[[5398,1320],[-25,-51]],[[5373,1269],[5,-31]],[[5378,1238],[-268,16]],[[5378,1238],[-8,-57]],[[5370,1181],[-42,-69],[-103,-93],[9,-60]],[[5234,959],[-44,-28]],[[5370,1181],[21,-148],[-91,-14],[-66,-60]],[[5204,2080],[34,42]],[[5238,2122],[56,-102]],[[5294,2020],[-50,-84]],[[5244,1936],[-16,-34]],[[5238,2122],[12,68],[102,2]],[[5352,2192],[93,-74]],[[5445,2118],[23,-79]],[[5468,2039],[-119,3],[-23,-21]],[[5326,2021],[-32,-1]],[[5326,2021],[53,-69]],[[5379,1952],[-12,-20]],[[5367,1932],[-75,-27],[-48,31]],[[5367,1932],[-8,-72],[33,-105]],[[5392,1755],[-36,-23]],[[5351,1679],[28,-38],[43,-120],[45,-42],[-31,-73],[9,-71],[-47,-15]],[[5468,2039],[18,-15]],[[5486,2024],[11,-85]],[[5497,1939],[-37,-8]],[[5460,1931],[-81,21]],[[5460,1931],[31,-71],[-7,-41],[-51,-61]],[[5433,1758],[-17,0]],[[5416,1758],[-24,-3]],[[5352,2192],[26,43],[-46,69]],[[5332,2304],[78,-46],[56,-54],[-13,-70]],[[5453,2134],[-8,-16]],[[5416,1758],[21,-103]],[[5437,1655],[5,-88],[37,-19],[23,-96],[48,-15],[73,32]],[[5623,1469],[3,-32]],[[5626,1437],[-12,-77],[-40,-46]],[[5574,1314],[-109,-14],[-92,-31]],[[5437,1655],[59,-24],[39,-101],[70,-1]],[[5605,1529],[18,-60]],[[5332,2304],[-7,44],[114,6],[107,-36],[149,47],[94,-23],[17,-72]],[[5806,2270],[-51,-47]],[[5755,2223],[-69,23],[-68,-61],[-70,-10],[6,-38]],[[5554,2137],[-101,-3]],[[5554,2137],[64,-67]],[[5618,2070],[-132,-46]],[[5755,2223],[-46,-59],[32,-55],[-27,-36]],[[5714,2073],[-96,-3]],[[5714,2073],[19,-70],[-21,-55]],[[5712,1948],[-34,-52],[-50,-13]],[[5628,1883],[-61,55],[-70,1]],[[5625,1846],[50,-25],[4,-44]],[[5679,1777],[-133,-81],[-61,-23]],[[5485,1673],[-53,51],[2,33]],[[5434,1757],[67,30],[67,2],[57,57]],[[5679,1777],[22,-65]],[[5701,1712],[-49,-23],[28,-67]],[[5680,1622],[-108,37],[-87,14]],[[5806,2270],[9,-61],[135,-150],[2,-52]],[[5952,2007],[-12,-23]],[[5940,1984],[-74,-12],[-47,-41],[-107,17]],[[5195,485],[69,-22],[51,25]],[[5315,488],[6,-67],[57,-43],[-49,-69],[70,-21],[98,-3],[156,-221]],[[5653,64],[-186,3],[-59,-21],[-286,33],[-160,-8],[16,76],[71,19],[-23,69]],[[5940,1984],[89,-141],[-31,-64],[-94,-33],[-24,-36],[35,-39]],[[5915,1671],[-48,-24]],[[5867,1647],[-40,38],[-61,-11],[-65,38]],[[5625,1846],[3,37]],[[5867,1647],[-1,-49],[-58,-29]],[[5808,1569],[-52,-17],[-58,30]],[[5698,1582],[-18,40]],[[5952,2007],[160,74]],[[6112,2081],[-16,-92],[24,-104],[-17,-147]],[[6103,1738],[-34,0],[-154,-67]],[[5605,1529],[93,53]],[[5808,1569],[45,-100]],[[5853,1469],[-7,-77],[-26,-37]],[[5820,1355],[-44,-14]],[[5776,1341],[-21,61],[-64,0],[-65,35]],[[5776,1341],[-43,-50],[-86,-18],[-49,-34]],[[5598,1239],[-24,75]],[[4888,162],[-74,-22],[-41,-39],[-53,18],[39,63],[129,-20]],[[6112,2081],[128,-12]],[[6240,2069],[41,-42]],[[6281,2027],[-16,-125],[101,-137],[-15,-24]],[[6351,1741],[-86,-41],[-117,9]],[[6148,1709],[-45,29]],[[6148,1709],[19,-98],[-14,-33]],[[6153,1578],[-85,-159]],[[6068,1419],[-47,-23],[-94,28],[-14,46],[-60,-1]],[[6068,1419],[-45,-110]],[[6023,1309],[-22,-63]],[[6001,1246],[-26,-51],[-72,-23]],[[5903,1172],[-61,4]],[[5842,1176],[2,156],[-24,23]],[[5842,1176],[-52,-38],[-89,-26]],[[5701,1112],[-103,127]],[[5903,1172],[-15,-31],[11,-112]],[[5899,1029],[-65,-22],[-105,36]],[[5729,1043],[-28,69]],[[5899,1029],[17,-22]],[[5916,1007],[-11,-49],[-62,-49]],[[5843,909],[-46,11],[-58,-35],[-45,122],[35,36]],[[5916,1007],[62,-20]],[[5978,987],[17,-88],[-6,-116],[-37,-55]],[[5952,728],[-61,-34]],[[5891,694],[-58,94],[10,121]],[[5891,694],[-42,-58],[21,-72],[-29,-44]],[[5841,520],[-68,13],[-75,-54]],[[5698,479],[-87,42],[-125,17],[-73,-28],[-23,-37],[-75,15]],[[5698,479],[111,-79],[39,35]],[[5848,435],[29,-64],[-7,-51]],[[5870,320],[-120,-2],[-32,-54],[-33,-135],[6,-50]],[[5691,79],[-38,-15]],[[6240,2069],[37,27],[153,-15]],[[6430,2081],[-1,-4]],[[6429,2077],[-148,-50]],[[6429,2077],[67,-53],[-1,-43],[-86,-64],[-7,-57],[61,-19],[34,-44],[89,-53],[-50,-41],[-31,-57]],[[6505,1646],[-23,11]],[[6482,1657],[-34,52],[-76,6],[-21,26]],[[6482,1657],[-25,-48],[-6,-77],[-80,-20]],[[6371,1512],[-49,19],[-80,-15],[-89,62]],[[6430,2081],[37,57],[72,10],[25,-25],[2,-68],[121,-73],[20,-43]],[[6707,1939],[-87,-24],[-4,-96],[52,-71],[-44,-39],[18,-80]],[[6642,1629],[-13,-48],[-97,23],[-27,42]],[[6707,1939],[-2,-34],[95,-52],[9,-72],[-73,-133],[7,-71],[-37,-41]],[[6706,1536],[-22,73],[-42,20]],[[6706,1536],[-27,-31],[11,-122],[-13,-95]],[[6677,1288],[-45,22],[-55,-19],[-96,2],[-53,69]],[[6428,1362],[-57,150]],[[6677,1288],[-82,-154],[23,-98],[41,-30],[36,24],[81,-32],[13,-105],[-13,-50],[-106,-23],[-72,-32],[-25,-49],[-75,-6],[-42,72]],[[6456,805],[28,62],[-60,59],[-55,-19],[-37,59],[-15,93]],[[6317,1059],[25,29],[-9,135]],[[6333,1223],[95,139]],[[6333,1223],[-139,5]],[[6194,1228],[-51,42],[-70,4],[-50,35]],[[6317,1059],[-140,-30],[-24,9]],[[6153,1038],[-3,42],[41,79],[3,69]],[[6153,1038],[-61,-26]],[[6092,1012],[-35,67],[-44,41],[11,93],[-23,33]],[[6092,1012],[-114,-25]],[[6456,805],[-60,1],[-38,-47],[-37,-101]],[[6321,658],[-1,0]],[[6320,658],[-193,-31],[-24,-22]],[[6103,605],[-151,123]],[[5870,320],[57,-13]],[[5927,307],[63,-43],[12,-96]],[[6002,168],[0,-114]],[[6002,54],[-311,25]],[[6103,605],[-46,-59],[-30,-82],[29,-69],[-60,-43],[-36,16],[-33,-61]],[[5848,435],[29,42],[-36,43]],[[6321,658],[76,-93]],[[6397,565],[-32,-23],[-3,-56],[67,-21],[97,-85],[28,-47]],[[6554,333],[-90,-89],[-66,-13],[-145,-113],[62,-80],[-58,-38],[-105,28],[-61,-2],[-89,28]],[[6002,168],[113,15],[12,66],[-37,102],[9,117],[29,44],[66,-4],[126,150]],[[6397,565],[111,-33],[56,-66],[61,-10],[46,46],[56,-14],[2,-74],[-108,-20],[-67,-61]],[[3059,593],[-110,59]],[[5433,1758],[1,-1]],[[5434,1757],[-1,1]],[[6834,198],[58,-29],[27,-63],[-76,-43],[-76,50],[67,85]]],"transform":{"scale":[0.0003566777252493149,0.0003622498059867058],"translate":[-90.13771319999995,13.143988200000022]},"objects":{"SLV":{"type":"GeometryCollection","geometries":[{"arcs":[[0,1,2,3,4,5,6,7,8]],"type":"Polygon","properties":{"name":"Metapan","shapeGroup":"SLV","gid":"SLV-2-0"},"id":"SLV-2-0"},{"arcs":[[-5,9,10]],"type":"Polygon","properties":{"name":"Santa Rosa Guachipilin","shapeGroup":"SLV","gid":"SLV-2-1"},"id":"SLV-2-1"},{"arcs":[[-6,-11,11,12]],"type":"Polygon","properties":{"name":"Masahuat","shapeGroup":"SLV","gid":"SLV-2-2"},"id":"SLV-2-2"},{"arcs":[[-1,13,14,15]],"type":"Polygon","properties":{"name":"Citala","shapeGroup":"SLV","gid":"SLV-2-3"},"id":"SLV-2-3"},{"arcs":[[-8,16,17,18]],"type":"Polygon","properties":{"name":"San Antonio Pajonal","shapeGroup":"SLV","gid":"SLV-2-4"},"id":"SLV-2-4"},{"arcs":[[-7,-13,19,20,21,22,-17]],"type":"Polygon","properties":{"name":"Texistepeque","shapeGroup":"SLV","gid":"SLV-2-5"},"id":"SLV-2-5"},{"arcs":[[-4,23,24,25,26,27,28,29,30,-20,-12,-10]],"type":"Polygon","properties":{"name":"Nueva Concepcion","shapeGroup":"SLV","gid":"SLV-2-6"},"id":"SLV-2-6"},{"arcs":[[-3,31,32,-24]],"type":"Polygon","properties":{"name":"Agua Caliente","shapeGroup":"SLV","gid":"SLV-2-7"},"id":"SLV-2-7"},{"arcs":[[33,34,35]],"type":"Polygon","properties":{"name":"Null","shapeGroup":"SLV","gid":"SLV-2-8"},"id":"SLV-2-8"},{"arcs":[[-15,36,-35,37]],"type":"Polygon","properties":{"name":"San Ingnacio","shapeGroup":"SLV","gid":"SLV-2-9"},"id":"SLV-2-9"},{"arcs":[[-2,-16,-38,-34,38,39,40,41,-32]],"type":"Polygon","properties":{"name":"La Palma","shapeGroup":"SLV","gid":"SLV-2-10"},"id":"SLV-2-10"},{"arcs":[[-25,-33,-42,42,43]],"type":"Polygon","properties":{"name":"La Reina","shapeGroup":"SLV","gid":"SLV-2-11"},"id":"SLV-2-11"},{"arcs":[[-40,44,45,46]],"type":"Polygon","properties":{"name":"San Fernando","shapeGroup":"SLV","gid":"SLV-2-12"},"id":"SLV-2-12"},{"arcs":[[-18,-23,47,48]],"type":"Polygon","properties":{"name":"Santiago de la Frontera","shapeGroup":"SLV","gid":"SLV-2-13"},"id":"SLV-2-13"},{"arcs":[[-22,49,50,51,52,-48]],"type":"Polygon","properties":{"name":"Candelaria de la Frontera","shapeGroup":"SLV","gid":"SLV-2-14"},"id":"SLV-2-14"},{"arcs":[[-52,53,54,55,56,57,58,59,60,61,62]],"type":"Polygon","properties":{"name":"Chalchuapa","shapeGroup":"SLV","gid":"SLV-2-15"},"id":"SLV-2-15"},{"arcs":[[-51,63,64,-54]],"type":"Polygon","properties":{"name":"El Porvenir","shapeGroup":"SLV","gid":"SLV-2-16"},"id":"SLV-2-16"},{"arcs":[[-55,-65,65]],"type":"Polygon","properties":{"name":"San Sebastian Salitrillo","shapeGroup":"SLV","gid":"SLV-2-17"},"id":"SLV-2-17"},{"arcs":[[-21,-31,66,67,68,69,70,-56,-66,-64,-50]],"type":"Polygon","properties":{"name":"Santa Ana","shapeGroup":"SLV","gid":"SLV-2-18"},"id":"SLV-2-18"},{"arcs":[[-68,71,72,73,74,75]],"type":"Polygon","properties":{"name":"Coatepeque","shapeGroup":"SLV","gid":"SLV-2-19"},"id":"SLV-2-19"},{"arcs":[[-75,76,77,78,79]],"type":"Polygon","properties":{"name":"El Congo","shapeGroup":"SLV","gid":"SLV-2-20"},"id":"SLV-2-20"},{"arcs":[[-60,80]],"type":"Polygon","properties":{"name":"El Refugio","shapeGroup":"SLV","gid":"SLV-2-21"},"id":"SLV-2-21"},{"arcs":[[-59,81,82,83,84,85,-61,-81]],"type":"Polygon","properties":{"name":"Atiquizaya","shapeGroup":"SLV","gid":"SLV-2-22"},"id":"SLV-2-22"},{"arcs":[[-84,86]],"type":"Polygon","properties":{"name":"Turin","shapeGroup":"SLV","gid":"SLV-2-23"},"id":"SLV-2-23"},{"arcs":[[-62,-86,87,88]],"type":"Polygon","properties":{"name":"San Lorenzo","shapeGroup":"SLV","gid":"SLV-2-24"},"id":"SLV-2-24"},{"arcs":[[-83,89,90,91,92,93,-88,-85,-87]],"type":"Polygon","properties":{"name":"Ahuachpan","shapeGroup":"SLV","gid":"SLV-2-25"},"id":"SLV-2-25"},{"arcs":[[-58,94,95,96,-90,-82]],"type":"Polygon","properties":{"name":"Juayua","shapeGroup":"SLV","gid":"SLV-2-26"},"id":"SLV-2-26"},{"arcs":[[-91,-97,97,98,99,100,101]],"type":"Polygon","properties":{"name":"Apaneca","shapeGroup":"SLV","gid":"SLV-2-27"},"id":"SLV-2-27"},{"arcs":[[-92,-102,102,103,104]],"type":"Polygon","properties":{"name":"Concepcion de Ataco","shapeGroup":"SLV","gid":"SLV-2-28"},"id":"SLV-2-28"},{"arcs":[[-93,-105,105,106,107]],"type":"Polygon","properties":{"name":"Tacuba","shapeGroup":"SLV","gid":"SLV-2-29"},"id":"SLV-2-29"},{"arcs":[[-107,108,109]],"type":"Polygon","properties":{"name":"San Francisco Menendez","shapeGroup":"SLV","gid":"SLV-2-30"},"id":"SLV-2-30"},{"arcs":[[-104,110,111,112,-109,-106]],"type":"Polygon","properties":{"name":"Jujutla","shapeGroup":"SLV","gid":"SLV-2-31"},"id":"SLV-2-31"},{"arcs":[[-101,113,114,115,-111,-103]],"type":"Polygon","properties":{"name":"Guaymango","shapeGroup":"SLV","gid":"SLV-2-32"},"id":"SLV-2-32"},{"arcs":[[-100,116,117,-114]],"type":"Polygon","properties":{"name":"San Pedro Puxtla","shapeGroup":"SLV","gid":"SLV-2-33"},"id":"SLV-2-33"},{"arcs":[[-112,-116,118,119,120]],"type":"Polygon","properties":{"name":"Acajutla","shapeGroup":"SLV","gid":"SLV-2-34"},"id":"SLV-2-34"},{"arcs":[[-41,-47,121,122,123,-43]],"type":"Polygon","properties":{"name":"San Francisco Morazan","shapeGroup":"SLV","gid":"SLV-2-35"},"id":"SLV-2-35"},{"arcs":[[-46,124,125,126,127,128,-122]],"type":"Polygon","properties":{"name":"Dulce Nombre de Maria","shapeGroup":"SLV","gid":"SLV-2-36"},"id":"SLV-2-36"},{"arcs":[[-26,-44,-124,129,130,131]],"type":"Polygon","properties":{"name":"Tejutla","shapeGroup":"SLV","gid":"SLV-2-37"},"id":"SLV-2-37"},{"arcs":[[-131,132,133]],"type":"Polygon","properties":{"name":"El Paraiso","shapeGroup":"SLV","gid":"SLV-2-38"},"id":"SLV-2-38"},{"arcs":[[-123,-129,134,135,-133,-130]],"type":"Polygon","properties":{"name":"San Rafael","shapeGroup":"SLV","gid":"SLV-2-39"},"id":"SLV-2-39"},{"arcs":[[-96,136,137,-98]],"type":"Polygon","properties":{"name":"Salcoatitan","shapeGroup":"SLV","gid":"SLV-2-40"},"id":"SLV-2-40"},{"arcs":[[-99,-138,138,139,140,-117]],"type":"Polygon","properties":{"name":"Santa Catarina Masahuat","shapeGroup":"SLV","gid":"SLV-2-41"},"id":"SLV-2-41"},{"arcs":[[-115,-118,-141,141,142,-119]],"type":"Polygon","properties":{"name":"Santo Domingo","shapeGroup":"SLV","gid":"SLV-2-42"},"id":"SLV-2-42"},{"arcs":[[-57,-71,143,144,145,-139,-137,-95]],"type":"Polygon","properties":{"name":"Nahuizalco","shapeGroup":"SLV","gid":"SLV-2-43"},"id":"SLV-2-43"},{"arcs":[[-140,-146,146,147,148,-142]],"type":"Polygon","properties":{"name":"San Antonio del Monte","shapeGroup":"SLV","gid":"SLV-2-44"},"id":"SLV-2-44"},{"arcs":[[-120,-143,-149,149,150,151,152,153,154]],"type":"Polygon","properties":{"name":"Null","shapeGroup":"SLV","gid":"SLV-2-45"},"id":"SLV-2-45"},{"arcs":[[-148,155,156,-150]],"type":"Polygon","properties":{"name":"Nahulingo","shapeGroup":"SLV","gid":"SLV-2-46"},"id":"SLV-2-46"},{"arcs":[[-145,157,-156,-147]],"type":"Polygon","properties":{"name":"Sonsonate","shapeGroup":"SLV","gid":"SLV-2-47"},"id":"SLV-2-47"},{"arcs":[[-70,158,-79,159,160,161,-151,-157,-158,-144]],"type":"Polygon","properties":{"name":"Izalco","shapeGroup":"SLV","gid":"SLV-2-48"},"id":"SLV-2-48"},{"arcs":[[-152,-162,162,163]],"type":"Polygon","properties":{"name":"Caluco","shapeGroup":"SLV","gid":"SLV-2-49"},"id":"SLV-2-49"},{"arcs":[[-153,-164,164,165]],"type":"Polygon","properties":{"name":"Cuisnahuat","shapeGroup":"SLV","gid":"SLV-2-50"},"id":"SLV-2-50"},{"arcs":[[-161,166,167,168,-165,-163]],"type":"Polygon","properties":{"name":"San Julian","shapeGroup":"SLV","gid":"SLV-2-51"},"id":"SLV-2-51"},{"arcs":[[-154,-166,-169,169,170,171]],"type":"Polygon","properties":{"name":"Santa Isabel Ishuatan","shapeGroup":"SLV","gid":"SLV-2-52"},"id":"SLV-2-52"},{"arcs":[[-78,172,173,174,-167,-160]],"type":"Polygon","properties":{"name":"Armenia","shapeGroup":"SLV","gid":"SLV-2-53"},"id":"SLV-2-53"},{"arcs":[[-174,175,176,177,178]],"type":"Polygon","properties":{"name":"Sacacoyo","shapeGroup":"SLV","gid":"SLV-2-54"},"id":"SLV-2-54"},{"arcs":[[-168,-175,-179,179,180,-170]],"type":"Polygon","properties":{"name":"Tepecoyo","shapeGroup":"SLV","gid":"SLV-2-55"},"id":"SLV-2-55"},{"arcs":[[-171,-181,181,182,183,184]],"type":"Polygon","properties":{"name":"Teotepeque","shapeGroup":"SLV","gid":"SLV-2-56"},"id":"SLV-2-56"},{"arcs":[[-30,185,186,187,188,-72,-67]],"type":"Polygon","properties":{"name":"San Pablo Tacachico","shapeGroup":"SLV","gid":"SLV-2-57"},"id":"SLV-2-57"},{"arcs":[[-29,189,190,191,-186]],"type":"Polygon","properties":{"name":"El Paisnal","shapeGroup":"SLV","gid":"SLV-2-58"},"id":"SLV-2-58"},{"arcs":[[-191,192,193,194,195]],"type":"Polygon","properties":{"name":"Aguilares","shapeGroup":"SLV","gid":"SLV-2-59"},"id":"SLV-2-59"},{"arcs":[[-74,196,197,-176,-173,-77]],"type":"Polygon","properties":{"name":"Ciudad Arce","shapeGroup":"SLV","gid":"SLV-2-60"},"id":"SLV-2-60"},{"arcs":[[-184,198,199]],"type":"Polygon","properties":{"name":"Jicalapa","shapeGroup":"SLV","gid":"SLV-2-61"},"id":"SLV-2-61"},{"arcs":[[-183,200,201,202,-199]],"type":"Polygon","properties":{"name":"Chiltiupán","shapeGroup":"SLV","gid":"SLV-2-62"},"id":"SLV-2-62"},{"arcs":[[-178,203,204,205,-201,-182,-180]],"type":"Polygon","properties":{"name":"Jayaque","shapeGroup":"SLV","gid":"SLV-2-63"},"id":"SLV-2-63"},{"arcs":[[-202,-206,206,207,208,209]],"type":"Polygon","properties":{"name":"Tamanique","shapeGroup":"SLV","gid":"SLV-2-64"},"id":"SLV-2-64"},{"arcs":[[-73,-189,210,211,212,213,-197]],"type":"Polygon","properties":{"name":"Opico","shapeGroup":"SLV","gid":"SLV-2-65"},"id":"SLV-2-65"},{"arcs":[[-188,214,-211]],"type":"Polygon","properties":{"name":"San Matias","shapeGroup":"SLV","gid":"SLV-2-66"},"id":"SLV-2-66"},{"arcs":[[-187,-192,-196,215,216,-212,-215]],"type":"Polygon","properties":{"name":"Quezaltepeque","shapeGroup":"SLV","gid":"SLV-2-67"},"id":"SLV-2-67"},{"arcs":[[-177,-198,-214,217,218,-204]],"type":"Polygon","properties":{"name":"Colón","shapeGroup":"SLV","gid":"SLV-2-68"},"id":"SLV-2-68"},{"arcs":[[-205,-219,219,220,-207]],"type":"Polygon","properties":{"name":"Talnique","shapeGroup":"SLV","gid":"SLV-2-69"},"id":"SLV-2-69"},{"arcs":[[-208,-221,221,222]],"type":"Polygon","properties":{"name":"Comasagua","shapeGroup":"SLV","gid":"SLV-2-70"},"id":"SLV-2-70"},{"arcs":[[-213,-217,223,224,225,226,227,228,229,-222,-220,-218]],"type":"Polygon","properties":{"name":"Santa Tecla","shapeGroup":"SLV","gid":"SLV-2-71"},"id":"SLV-2-71"},{"arcs":[[-229,230,231,232]],"type":"Polygon","properties":{"name":"Zaragoza","shapeGroup":"SLV","gid":"SLV-2-72"},"id":"SLV-2-72"},{"arcs":[[-227,233,234]],"type":"Polygon","properties":{"name":"Nuevo Cuscatlán","shapeGroup":"SLV","gid":"SLV-2-73"},"id":"SLV-2-73"},{"arcs":[[235,236,237,238]],"type":"Polygon","properties":{"name":"El Carrizal","shapeGroup":"SLV","gid":"SLV-2-74"},"id":"SLV-2-74"},{"arcs":[[-126,239,-239,240,241,242]],"type":"Polygon","properties":{"name":"La Laguna","shapeGroup":"SLV","gid":"SLV-2-75"},"id":"SLV-2-75"},{"arcs":[[-127,-243,243,244]],"type":"Polygon","properties":{"name":"Comalapa","shapeGroup":"SLV","gid":"SLV-2-76"},"id":"SLV-2-76"},{"arcs":[[-128,-245,245,246,247,-135]],"type":"Polygon","properties":{"name":"Santa Rita","shapeGroup":"SLV","gid":"SLV-2-77"},"id":"SLV-2-77"},{"arcs":[[-237,248,249,250,251]],"type":"Polygon","properties":{"name":"Ojos de Agua","shapeGroup":"SLV","gid":"SLV-2-78"},"id":"SLV-2-78"},{"arcs":[[-238,-252,252,253,254,-241]],"type":"Polygon","properties":{"name":"Las Vueltas","shapeGroup":"SLV","gid":"SLV-2-79"},"id":"SLV-2-79"},{"arcs":[[-242,-255,255,-246,-244]],"type":"Polygon","properties":{"name":"Concepcion Quezaltepeque","shapeGroup":"SLV","gid":"SLV-2-80"},"id":"SLV-2-80"},{"arcs":[[-247,-256,-254,256,257,258,259,260,261]],"type":"Polygon","properties":{"name":"Chalatenago","shapeGroup":"SLV","gid":"SLV-2-81"},"id":"SLV-2-81"},{"arcs":[[-232,262,263]],"type":"Polygon","properties":{"name":"San Jose Villanueva","shapeGroup":"SLV","gid":"SLV-2-82"},"id":"SLV-2-82"},{"arcs":[[-228,-235,264,265,266,267,268,-263,-231]],"type":"Polygon","properties":{"name":"Huizucar","shapeGroup":"SLV","gid":"SLV-2-83"},"id":"SLV-2-83"},{"arcs":[[-226,269,270,-265,-234]],"type":"Polygon","properties":{"name":"Antiguo Cuscatlan","shapeGroup":"SLV","gid":"SLV-2-84"},"id":"SLV-2-84"},{"arcs":[[-195,271,272,273,274,-224,-216]],"type":"Polygon","properties":{"name":"Nejapa","shapeGroup":"SLV","gid":"SLV-2-85"},"id":"SLV-2-85"},{"arcs":[[-225,-275,275,276,277,278,279,-270]],"type":"Polygon","properties":{"name":"San Salvador","shapeGroup":"SLV","gid":"SLV-2-86"},"id":"SLV-2-86"},{"arcs":[[-266,-271,-280,280,281,282]],"type":"Polygon","properties":{"name":"San Marcos","shapeGroup":"SLV","gid":"SLV-2-87"},"id":"SLV-2-87"},{"arcs":[[-274,283,284,285,286,-276]],"type":"Polygon","properties":{"name":"Mejicanos","shapeGroup":"SLV","gid":"SLV-2-88"},"id":"SLV-2-88"},{"arcs":[[-273,287,288,289,290,-284]],"type":"Polygon","properties":{"name":"Apopa","shapeGroup":"SLV","gid":"SLV-2-89"},"id":"SLV-2-89"},{"arcs":[[-285,-291,291]],"type":"Polygon","properties":{"name":"Ayutuxtepeque","shapeGroup":"SLV","gid":"SLV-2-90"},"id":"SLV-2-90"},{"arcs":[[-277,-287,292]],"type":"Polygon","properties":{"name":"Cuscatancingo","shapeGroup":"SLV","gid":"SLV-2-91"},"id":"SLV-2-91"},{"arcs":[[-278,-293,-286,-292,-290,293,294]],"type":"Polygon","properties":{"name":"Delgado","shapeGroup":"SLV","gid":"SLV-2-92"},"id":"SLV-2-92"},{"arcs":[[-194,295,296,297,-288,-272]],"type":"Polygon","properties":{"name":"Guazapa","shapeGroup":"SLV","gid":"SLV-2-93"},"id":"SLV-2-93"},{"arcs":[[298,299,300,301]],"type":"Polygon","properties":{"name":"Arcatao","shapeGroup":"SLV","gid":"SLV-2-94"},"id":"SLV-2-94"},{"arcs":[[-250,302,-301,303,304]],"type":"Polygon","properties":{"name":"Nueva Trinidad","shapeGroup":"SLV","gid":"SLV-2-95"},"id":"SLV-2-95"},{"arcs":[[-299,305,306,307,308]],"type":"Polygon","properties":{"name":"Nombre de Jesus","shapeGroup":"SLV","gid":"SLV-2-96"},"id":"SLV-2-96"},{"arcs":[[-300,-309,309,310,311,312,-304]],"type":"Polygon","properties":{"name":"San Antonio de la Cruz","shapeGroup":"SLV","gid":"SLV-2-97"},"id":"SLV-2-97"},{"arcs":[[-251,-305,-313,313,-257,-253]],"type":"Polygon","properties":{"name":"San Jose Las Flores","shapeGroup":"SLV","gid":"SLV-2-98"},"id":"SLV-2-98"},{"arcs":[[-258,-314,-312,314,315,316]],"type":"Polygon","properties":{"name":"San Isidro Labrador","shapeGroup":"SLV","gid":"SLV-2-99"},"id":"SLV-2-99"},{"arcs":[[-259,-317,317,318]],"type":"Polygon","properties":{"name":"San Antonia Los Ranchos","shapeGroup":"SLV","gid":"SLV-2-100"},"id":"SLV-2-100"},{"arcs":[[-260,-319,319,320,321]],"type":"Polygon","properties":{"name":"San Miguel de Mercedes","shapeGroup":"SLV","gid":"SLV-2-101"},"id":"SLV-2-101"},{"arcs":[[-311,322,323,324,-315]],"type":"Polygon","properties":{"name":"San Jose Cancasque","shapeGroup":"SLV","gid":"SLV-2-102"},"id":"SLV-2-102"},{"arcs":[[-316,-325,325,326,327,-320,-318]],"type":"Polygon","properties":{"name":"Potonico","shapeGroup":"SLV","gid":"SLV-2-103"},"id":"SLV-2-103"},{"arcs":[[-321,-328,328,329,330]],"type":"Polygon","properties":{"name":"San Luis del Carmen","shapeGroup":"SLV","gid":"SLV-2-104"},"id":"SLV-2-104"},{"arcs":[[-261,-322,-331,331]],"type":"Polygon","properties":{"name":"Azacualpa","shapeGroup":"SLV","gid":"SLV-2-105"},"id":"SLV-2-105"},{"arcs":[[-330,332]],"type":"Polygon","properties":{"name":"San Francisco Lempa","shapeGroup":"SLV","gid":"SLV-2-106"},"id":"SLV-2-106"},{"arcs":[[-209,-223,-230,-233,-264,-269,333,334,335,336,337]],"type":"Polygon","properties":{"name":"La Libertad","shapeGroup":"SLV","gid":"SLV-2-107"},"id":"SLV-2-107"},{"arcs":[[-268,338,-334]],"type":"Polygon","properties":{"name":"Rosario de Mora","shapeGroup":"SLV","gid":"SLV-2-108"},"id":"SLV-2-108"},{"arcs":[[-267,-283,339,340,-335,-339]],"type":"Polygon","properties":{"name":"Panchimalco","shapeGroup":"SLV","gid":"SLV-2-109"},"id":"SLV-2-109"},{"arcs":[[-279,-295,341,342,343,-281]],"type":"Polygon","properties":{"name":"Soyapango","shapeGroup":"SLV","gid":"SLV-2-110"},"id":"SLV-2-110"},{"arcs":[[-282,-344,344,345,346,-340]],"type":"Polygon","properties":{"name":"Santo Tomas","shapeGroup":"SLV","gid":"SLV-2-111"},"id":"SLV-2-111"},{"arcs":[[-343,347,348,349,-345]],"type":"Polygon","properties":{"name":"Ilopango","shapeGroup":"SLV","gid":"SLV-2-112"},"id":"SLV-2-112"},{"arcs":[[-289,-298,350,351,-348,-342,-294]],"type":"Polygon","properties":{"name":"Tonacatepeque","shapeGroup":"SLV","gid":"SLV-2-113"},"id":"SLV-2-113"},{"arcs":[[-346,352,353,354]],"type":"Polygon","properties":{"name":"Santiago Texacuangos","shapeGroup":"SLV","gid":"SLV-2-114"},"id":"SLV-2-114"},{"arcs":[[-336,-341,-347,-355,355,356,357,358]],"type":"Polygon","properties":{"name":"Olocuilta","shapeGroup":"SLV","gid":"SLV-2-115"},"id":"SLV-2-115"},{"arcs":[[-337,-359,359,360,361,362]],"type":"Polygon","properties":{"name":"San Luis Talpa","shapeGroup":"SLV","gid":"SLV-2-116"},"id":"SLV-2-116"},{"arcs":[[-358,363,364,-360]],"type":"Polygon","properties":{"name":"San Juan Talpa","shapeGroup":"SLV","gid":"SLV-2-117"},"id":"SLV-2-117"},{"arcs":[[-357,365,366,-364]],"type":"Polygon","properties":{"name":"Cuyultitán","shapeGroup":"SLV","gid":"SLV-2-118"},"id":"SLV-2-118"},{"arcs":[[-354,367,368,369,370,-366,-356]],"type":"Polygon","properties":{"name":"San Francsico Chinameca","shapeGroup":"SLV","gid":"SLV-2-119"},"id":"SLV-2-119"},{"arcs":[[-361,-365,-367,-371,371,372]],"type":"Polygon","properties":{"name":"Tapalhuaca","shapeGroup":"SLV","gid":"SLV-2-120"},"id":"SLV-2-120"},{"arcs":[[-370,373,374,375,376,377,-372]],"type":"Polygon","properties":{"name":"San Antonio Masahuat","shapeGroup":"SLV","gid":"SLV-2-121"},"id":"SLV-2-121"},{"arcs":[[-297,378,379,380,-351]],"type":"Polygon","properties":{"name":"San Jose Guayabal","shapeGroup":"SLV","gid":"SLV-2-122"},"id":"SLV-2-122"},{"arcs":[[-349,-352,-381,381,382,383,384]],"type":"Polygon","properties":{"name":"San Martin","shapeGroup":"SLV","gid":"SLV-2-123"},"id":"SLV-2-123"},{"arcs":[[-369,385,386,387,-374]],"type":"Polygon","properties":{"name":"San Miguel Tepezontes","shapeGroup":"SLV","gid":"SLV-2-124"},"id":"SLV-2-124"},{"arcs":[[388,389]],"type":"Polygon","properties":{"name":"El Rosario","shapeGroup":"SLV","gid":"SLV-2-125"},"id":"SLV-2-125"},{"arcs":[[-375,-388,390,391,392]],"type":"Polygon","properties":{"name":"San Juan Tepezontes","shapeGroup":"SLV","gid":"SLV-2-126"},"id":"SLV-2-126"},{"arcs":[[-380,393,394,395,-382]],"type":"Polygon","properties":{"name":"Oratorio de Concepcion","shapeGroup":"SLV","gid":"SLV-2-127"},"id":"SLV-2-127"},{"arcs":[[-383,-396,396]],"type":"Polygon","properties":{"name":"San Bartolome Perulapia","shapeGroup":"SLV","gid":"SLV-2-128"},"id":"SLV-2-128"},{"arcs":[[-384,-397,-395,397,398,399,400,401]],"type":"Polygon","properties":{"name":"San Pedro Perulapan","shapeGroup":"SLV","gid":"SLV-2-129"},"id":"SLV-2-129"},{"arcs":[[-28,402,403,404,-398,-394,-379,-296,-193,-190]],"type":"Polygon","properties":{"name":"Suchitoto","shapeGroup":"SLV","gid":"SLV-2-130"},"id":"SLV-2-130"},{"arcs":[[-399,-405,405,406,407,408]],"type":"Polygon","properties":{"name":"Tenancingo","shapeGroup":"SLV","gid":"SLV-2-131"},"id":"SLV-2-131"},{"arcs":[[-404,409,410,411,-406]],"type":"Polygon","properties":{"name":"Cinquera","shapeGroup":"SLV","gid":"SLV-2-132"},"id":"SLV-2-132"},{"arcs":[[-407,-412,412,413]],"type":"Polygon","properties":{"name":"Teujutepeque","shapeGroup":"SLV","gid":"SLV-2-133"},"id":"SLV-2-133"},{"arcs":[[-324,414,415,-413,-411,416,-326]],"type":"Polygon","properties":{"name":"Jutiapa","shapeGroup":"SLV","gid":"SLV-2-134"},"id":"SLV-2-134"},{"arcs":[[-307,417,418]],"type":"Polygon","properties":{"name":"Victoria","shapeGroup":"SLV","gid":"SLV-2-135"},"id":"SLV-2-135"},{"arcs":[[-308,-419,419,420,421,422,423,424,-415,-323,-310]],"type":"Polygon","properties":{"name":"Sensuntepeque","shapeGroup":"SLV","gid":"SLV-2-136"},"id":"SLV-2-136"},{"arcs":[[-423,425]],"type":"Polygon","properties":{"name":"Guacoteci","shapeGroup":"SLV","gid":"SLV-2-137"},"id":"SLV-2-137"},{"arcs":[[-408,-414,-416,-425,426,427,428,429,430]],"type":"Polygon","properties":{"name":"Ciudad Ilobasco","shapeGroup":"SLV","gid":"SLV-2-138"},"id":"SLV-2-138"},{"arcs":[[-422,431,432,433,434,-427,-424,-426]],"type":"Polygon","properties":{"name":"San Isidro","shapeGroup":"SLV","gid":"SLV-2-139"},"id":"SLV-2-139"},{"arcs":[[-430,435,436,437]],"type":"Polygon","properties":{"name":"El Rosario","shapeGroup":"SLV","gid":"SLV-2-140"},"id":"SLV-2-140"},{"arcs":[[-429,438,439,440,-436]],"type":"Polygon","properties":{"name":"San Rafael Cedros","shapeGroup":"SLV","gid":"SLV-2-141"},"id":"SLV-2-141"},{"arcs":[[-400,-409,-431,-438,441,442,443]],"type":"Polygon","properties":{"name":"Monte San Juan","shapeGroup":"SLV","gid":"SLV-2-142"},"id":"SLV-2-142"},{"arcs":[[-401,-444,444,445,446]],"type":"Polygon","properties":{"name":"Santa Cruz Michapa","shapeGroup":"SLV","gid":"SLV-2-143"},"id":"SLV-2-143"},{"arcs":[[-437,-441,447,448,449,-442]],"type":"Polygon","properties":{"name":"El Carmen","shapeGroup":"SLV","gid":"SLV-2-144"},"id":"SLV-2-144"},{"arcs":[[-443,-450,450,451,452,-445]],"type":"Polygon","properties":{"name":"Cojutepeque","shapeGroup":"SLV","gid":"SLV-2-145"},"id":"SLV-2-145"},{"arcs":[[-446,-453,453,454,455,456]],"type":"Polygon","properties":{"name":"Candelaria","shapeGroup":"SLV","gid":"SLV-2-146"},"id":"SLV-2-146"},{"arcs":[[-452,457,458,459,-454]],"type":"Polygon","properties":{"name":"San Ramon","shapeGroup":"SLV","gid":"SLV-2-147"},"id":"SLV-2-147"},{"arcs":[[-449,460,461,462,-458,-451]],"type":"Polygon","properties":{"name":"San Cristobal","shapeGroup":"SLV","gid":"SLV-2-148"},"id":"SLV-2-148"},{"arcs":[[-455,-460,463,464,465,466]],"type":"Polygon","properties":{"name":"Santa Cruz Analquito","shapeGroup":"SLV","gid":"SLV-2-149"},"id":"SLV-2-149"},{"arcs":[[-459,-463,467,468,469,470,471,-464]],"type":"Polygon","properties":{"name":"Jerusalen","shapeGroup":"SLV","gid":"SLV-2-150"},"id":"SLV-2-150"},{"arcs":[[-462,472,473,474,-468]],"type":"Polygon","properties":{"name":"Verapaz","shapeGroup":"SLV","gid":"SLV-2-151"},"id":"SLV-2-151"},{"arcs":[[-387,475,-456,-467,476,-391]],"type":"Polygon","properties":{"name":"San Emigdo","shapeGroup":"SLV","gid":"SLV-2-152"},"id":"SLV-2-152"},{"arcs":[[-392,-477,-466,477,478]],"type":"Polygon","properties":{"name":"Paraíso de Osorio","shapeGroup":"SLV","gid":"SLV-2-153"},"id":"SLV-2-153"},{"arcs":[[-471,479]],"type":"Polygon","properties":{"name":"Mercedes La Ceiba","shapeGroup":"SLV","gid":"SLV-2-154"},"id":"SLV-2-154"},{"arcs":[[-465,-472,-480,-470,480,481,-478]],"type":"Polygon","properties":{"name":"Santa María Ostuma","shapeGroup":"SLV","gid":"SLV-2-155"},"id":"SLV-2-155"},{"arcs":[[-376,-393,-479,-482,482,483,484]],"type":"Polygon","properties":{"name":"San Pedro Nonualco","shapeGroup":"SLV","gid":"SLV-2-156"},"id":"SLV-2-156"},{"arcs":[[-428,-435,485,486,487,-439]],"type":"Polygon","properties":{"name":"San Sebastian","shapeGroup":"SLV","gid":"SLV-2-157"},"id":"SLV-2-157"},{"arcs":[[-440,-488,488,489,-473,-461,-448]],"type":"Polygon","properties":{"name":"Santo Domingo","shapeGroup":"SLV","gid":"SLV-2-158"},"id":"SLV-2-158"},{"arcs":[[-487,490,491,492,-489]],"type":"Polygon","properties":{"name":"San Lorenzo","shapeGroup":"SLV","gid":"SLV-2-159"},"id":"SLV-2-159"},{"arcs":[[-474,-490,-493,493,494,495]],"type":"Polygon","properties":{"name":"Tepetitan","shapeGroup":"SLV","gid":"SLV-2-160"},"id":"SLV-2-160"},{"arcs":[[-492,496,497,498,-494]],"type":"Polygon","properties":{"name":"San Cayetano Istepeque","shapeGroup":"SLV","gid":"SLV-2-161"},"id":"SLV-2-161"},{"arcs":[[-434,499,500,-497,-491,-486]],"type":"Polygon","properties":{"name":"San Esteban Catarina","shapeGroup":"SLV","gid":"SLV-2-162"},"id":"SLV-2-162"},{"arcs":[[-377,-485,501,502,503,504,505,506,507,-389,508]],"type":"Polygon","properties":{"name":"Santiago Nonualco","shapeGroup":"SLV","gid":"SLV-2-163"},"id":"SLV-2-163"},{"arcs":[[-507,509,510]],"type":"Polygon","properties":{"name":"Null","shapeGroup":"SLV","gid":"SLV-2-164"},"id":"SLV-2-164"},{"arcs":[[-469,-475,-496,511,512,513,-483,-481]],"type":"Polygon","properties":{"name":"Guadalupe","shapeGroup":"SLV","gid":"SLV-2-165"},"id":"SLV-2-165"},{"arcs":[[-503,514]],"type":"Polygon","properties":{"name":"San Rafael Obrajuelo","shapeGroup":"SLV","gid":"SLV-2-166"},"id":"SLV-2-166"},{"arcs":[[-484,-514,515,516,-504,-515,-502]],"type":"Polygon","properties":{"name":"San Juan Nonualco","shapeGroup":"SLV","gid":"SLV-2-167"},"id":"SLV-2-167"},{"arcs":[[-421,517,518,519,520,-432]],"type":"Polygon","properties":{"name":"Dolores","shapeGroup":"SLV","gid":"SLV-2-168"},"id":"SLV-2-168"},{"arcs":[[-433,-521,521,522,-500]],"type":"Polygon","properties":{"name":"Santa Clara","shapeGroup":"SLV","gid":"SLV-2-169"},"id":"SLV-2-169"},{"arcs":[[-498,-501,-523,523,524]],"type":"Polygon","properties":{"name":"Apastepeque","shapeGroup":"SLV","gid":"SLV-2-170"},"id":"SLV-2-170"},{"arcs":[[-495,-499,-525,525,526,527,528,529,530,531,-512]],"type":"Polygon","properties":{"name":"San Vicente","shapeGroup":"SLV","gid":"SLV-2-171"},"id":"SLV-2-171"},{"arcs":[[-505,-517,532,533]],"type":"Polygon","properties":{"name":"San Luis La Herradura","shapeGroup":"SLV","gid":"SLV-2-172"},"id":"SLV-2-172"},{"arcs":[[-513,-532,534,535,-533,-516]],"type":"Polygon","properties":{"name":"Zacatecoluca","shapeGroup":"SLV","gid":"SLV-2-173"},"id":"SLV-2-173"},{"arcs":[[-531,536,537,538,-535]],"type":"Polygon","properties":{"name":"Tecoluca","shapeGroup":"SLV","gid":"SLV-2-174"},"id":"SLV-2-174"},{"arcs":[[-520,539,540,541,542,-526,-524,-522]],"type":"Polygon","properties":{"name":"San Ildefonso","shapeGroup":"SLV","gid":"SLV-2-175"},"id":"SLV-2-175"},{"arcs":[[-527,-543,543,544]],"type":"Polygon","properties":{"name":"Estanzuelas","shapeGroup":"SLV","gid":"SLV-2-176"},"id":"SLV-2-176"},{"arcs":[[-519,545,546,547,-540]],"type":"Polygon","properties":{"name":"Nuevo Eden de San Juan","shapeGroup":"SLV","gid":"SLV-2-177"},"id":"SLV-2-177"},{"arcs":[[-528,-545,548,549,550,551]],"type":"Polygon","properties":{"name":"Mercedes Umaña","shapeGroup":"SLV","gid":"SLV-2-178"},"id":"SLV-2-178"},{"arcs":[[-529,-552,552,553,554,555]],"type":"Polygon","properties":{"name":"Berlin","shapeGroup":"SLV","gid":"SLV-2-179"},"id":"SLV-2-179"},{"arcs":[[-530,-556,556,557,-537]],"type":"Polygon","properties":{"name":"San Agustin","shapeGroup":"SLV","gid":"SLV-2-180"},"id":"SLV-2-180"},{"arcs":[[-538,-558,558,559,560,561,562,563,564,565]],"type":"Polygon","properties":{"name":"Jiquilisco","shapeGroup":"SLV","gid":"SLV-2-181"},"id":"SLV-2-181"},{"arcs":[[566]],"type":"Polygon","properties":{"name":"Null","shapeGroup":"SLV","gid":"SLV-2-182"},"id":"SLV-2-182"},{"arcs":[[-565,567]],"type":"Polygon","properties":{"name":"Null","shapeGroup":"SLV","gid":"SLV-2-183"},"id":"SLV-2-183"},{"arcs":[[-563,568,569]],"type":"Polygon","properties":{"name":"Puerto El Triunfo","shapeGroup":"SLV","gid":"SLV-2-184"},"id":"SLV-2-184"},{"arcs":[[-562,570,571,572,-569]],"type":"Polygon","properties":{"name":"Null","shapeGroup":"SLV","gid":"SLV-2-185"},"id":"SLV-2-185"},{"arcs":[[573]],"type":"Polygon","properties":{"name":"Null","shapeGroup":"SLV","gid":"SLV-2-186"},"id":"SLV-2-186"},{"arcs":[[-555,574,575,-559,-557]],"type":"Polygon","properties":{"name":"San Francisco Javier","shapeGroup":"SLV","gid":"SLV-2-187"},"id":"SLV-2-187"},{"arcs":[[-551,576,577,578,579,-553]],"type":"Polygon","properties":{"name":"Alegría","shapeGroup":"SLV","gid":"SLV-2-188"},"id":"SLV-2-188"},{"arcs":[[-554,-580,580,581,582,-575]],"type":"Polygon","properties":{"name":"Tecapán","shapeGroup":"SLV","gid":"SLV-2-189"},"id":"SLV-2-189"},{"arcs":[[-560,-576,-583,583,584]],"type":"Polygon","properties":{"name":"Ozatlan","shapeGroup":"SLV","gid":"SLV-2-190"},"id":"SLV-2-190"},{"arcs":[[-579,585,586,587,-581]],"type":"Polygon","properties":{"name":"Santiago de Maria","shapeGroup":"SLV","gid":"SLV-2-191"},"id":"SLV-2-191"},{"arcs":[[-582,-588,588,589,-584]],"type":"Polygon","properties":{"name":"California","shapeGroup":"SLV","gid":"SLV-2-192"},"id":"SLV-2-192"},{"arcs":[[-547,590,591,592]],"type":"Polygon","properties":{"name":"San Gerardo","shapeGroup":"SLV","gid":"SLV-2-193"},"id":"SLV-2-193"},{"arcs":[[-542,593,594,-549,-544]],"type":"Polygon","properties":{"name":"Nueva Granada","shapeGroup":"SLV","gid":"SLV-2-194"},"id":"SLV-2-194"},{"arcs":[[-541,-548,-593,595,596,597,598,599,-594]],"type":"Polygon","properties":{"name":"Sesori","shapeGroup":"SLV","gid":"SLV-2-195"},"id":"SLV-2-195"},{"arcs":[[-550,-595,-600,600,601,602,-577]],"type":"Polygon","properties":{"name":"El Triunfo","shapeGroup":"SLV","gid":"SLV-2-196"},"id":"SLV-2-196"},{"arcs":[[-578,-603,603,604,605,606,-586]],"type":"Polygon","properties":{"name":"Jucuapa","shapeGroup":"SLV","gid":"SLV-2-197"},"id":"SLV-2-197"},{"arcs":[[-602,607,-604]],"type":"Polygon","properties":{"name":"San Buenaventura","shapeGroup":"SLV","gid":"SLV-2-198"},"id":"SLV-2-198"},{"arcs":[[-599,608,609,610,-608,-601]],"type":"Polygon","properties":{"name":"Lolotique","shapeGroup":"SLV","gid":"SLV-2-199"},"id":"SLV-2-199"},{"arcs":[[-605,-611,611,612]],"type":"Polygon","properties":{"name":"Nueva Guadalupe","shapeGroup":"SLV","gid":"SLV-2-200"},"id":"SLV-2-200"},{"arcs":[[-606,-613,613,614,615,616,617]],"type":"Polygon","properties":{"name":"Chinameca","shapeGroup":"SLV","gid":"SLV-2-201"},"id":"SLV-2-201"},{"arcs":[[-587,-607,-618,618,619,620,621,-589]],"type":"Polygon","properties":{"name":"Santa Elena","shapeGroup":"SLV","gid":"SLV-2-202"},"id":"SLV-2-202"},{"arcs":[[-572,622,623]],"type":"Polygon","properties":{"name":"San Dionisio","shapeGroup":"SLV","gid":"SLV-2-203"},"id":"SLV-2-203"},{"arcs":[[-561,-585,-590,-622,624,625,626,627,-623,-571]],"type":"Polygon","properties":{"name":"Usulutan","shapeGroup":"SLV","gid":"SLV-2-204"},"id":"SLV-2-204"},{"arcs":[[-621,628,-625]],"type":"Polygon","properties":{"name":"Santa María","shapeGroup":"SLV","gid":"SLV-2-205"},"id":"SLV-2-205"},{"arcs":[[-620,629,630,631,-626,-629]],"type":"Polygon","properties":{"name":"Ereguayquín","shapeGroup":"SLV","gid":"SLV-2-206"},"id":"SLV-2-206"},{"arcs":[[-592,632,633,634,-596]],"type":"Polygon","properties":{"name":"San Luis de la Reina","shapeGroup":"SLV","gid":"SLV-2-207"},"id":"SLV-2-207"},{"arcs":[[-616,635,636]],"type":"Polygon","properties":{"name":"San Jorge","shapeGroup":"SLV","gid":"SLV-2-208"},"id":"SLV-2-208"},{"arcs":[[-617,-637,637,638,-630,-619]],"type":"Polygon","properties":{"name":"San Rafael","shapeGroup":"SLV","gid":"SLV-2-209"},"id":"SLV-2-209"},{"arcs":[[-627,-632,639,640,641]],"type":"Polygon","properties":{"name":"Concepción Batres","shapeGroup":"SLV","gid":"SLV-2-210"},"id":"SLV-2-210"},{"arcs":[[-631,-639,642,643,-640]],"type":"Polygon","properties":{"name":"El Transito","shapeGroup":"SLV","gid":"SLV-2-211"},"id":"SLV-2-211"},{"arcs":[[-634,644,645,646,647]],"type":"Polygon","properties":{"name":"Carolina","shapeGroup":"SLV","gid":"SLV-2-212"},"id":"SLV-2-212"},{"arcs":[[-597,-635,-648,648,649,650,651]],"type":"Polygon","properties":{"name":"Ciudad Barrios","shapeGroup":"SLV","gid":"SLV-2-213"},"id":"SLV-2-213"},{"arcs":[[-598,-652,652,653,654,655,-609]],"type":"Polygon","properties":{"name":"Chapeltique","shapeGroup":"SLV","gid":"SLV-2-214"},"id":"SLV-2-214"},{"arcs":[[-610,-656,656,657,658,-614,-612]],"type":"Polygon","properties":{"name":"Moncagua","shapeGroup":"SLV","gid":"SLV-2-215"},"id":"SLV-2-215"},{"arcs":[[-658,659]],"type":"Polygon","properties":{"name":"Quelepa","shapeGroup":"SLV","gid":"SLV-2-216"},"id":"SLV-2-216"},{"arcs":[[-646,660,661,662,663]],"type":"Polygon","properties":{"name":"San Antonio","shapeGroup":"SLV","gid":"SLV-2-217"},"id":"SLV-2-217"},{"arcs":[[-662,664,665,666,667,668]],"type":"Polygon","properties":{"name":"Torola","shapeGroup":"SLV","gid":"SLV-2-218"},"id":"SLV-2-218"},{"arcs":[[-663,-669,669,670,671]],"type":"Polygon","properties":{"name":"San Isidro","shapeGroup":"SLV","gid":"SLV-2-219"},"id":"SLV-2-219"},{"arcs":[[-647,-664,-672,672,673,-649]],"type":"Polygon","properties":{"name":"San Simon","shapeGroup":"SLV","gid":"SLV-2-220"},"id":"SLV-2-220"},{"arcs":[[-651,674,-653]],"type":"Polygon","properties":{"name":"Guatajiagua","shapeGroup":"SLV","gid":"SLV-2-221"},"id":"SLV-2-221"},{"arcs":[[-668,675,676,677,678,-670]],"type":"Polygon","properties":{"name":"El Rosario","shapeGroup":"SLV","gid":"SLV-2-222"},"id":"SLV-2-222"},{"arcs":[[-671,-679,679,680,681,-673]],"type":"Polygon","properties":{"name":"Gualococti","shapeGroup":"SLV","gid":"SLV-2-223"},"id":"SLV-2-223"},{"arcs":[[-666,682,683,684]],"type":"Polygon","properties":{"name":"San Fernando","shapeGroup":"SLV","gid":"SLV-2-224"},"id":"SLV-2-224"},{"arcs":[[-650,-674,-682,685,686,687,688,689,-654,-675]],"type":"Polygon","properties":{"name":"Yamabal","shapeGroup":"SLV","gid":"SLV-2-225"},"id":"SLV-2-225"},{"arcs":[[-687,690,691]],"type":"Polygon","properties":{"name":"Sensembra","shapeGroup":"SLV","gid":"SLV-2-226"},"id":"SLV-2-226"},{"arcs":[[-684,692,693,694,695]],"type":"Polygon","properties":{"name":"Perquin","shapeGroup":"SLV","gid":"SLV-2-227"},"id":"SLV-2-227"},{"arcs":[[-667,-685,-696,696,697,-676]],"type":"Polygon","properties":{"name":"Jocoaitique","shapeGroup":"SLV","gid":"SLV-2-228"},"id":"SLV-2-228"},{"arcs":[[-695,698,699,-697]],"type":"Polygon","properties":{"name":"Arambala","shapeGroup":"SLV","gid":"SLV-2-229"},"id":"SLV-2-229"},{"arcs":[[-677,-698,-700,700,701,702]],"type":"Polygon","properties":{"name":"Meanguera","shapeGroup":"SLV","gid":"SLV-2-230"},"id":"SLV-2-230"},{"arcs":[[703,704,705,706]],"type":"Polygon","properties":{"name":"Delicias de Concepcion","shapeGroup":"SLV","gid":"SLV-2-231"},"id":"SLV-2-231"},{"arcs":[[-705,707,708,709]],"type":"Polygon","properties":{"name":"Yoloaiquin","shapeGroup":"SLV","gid":"SLV-2-232"},"id":"SLV-2-232"},{"arcs":[[-694,710,711,712,-701,-699]],"type":"Polygon","properties":{"name":"Joateca","shapeGroup":"SLV","gid":"SLV-2-233"},"id":"SLV-2-233"},{"arcs":[[-641,-644,713,714,715]],"type":"Polygon","properties":{"name":"Jucuarán","shapeGroup":"SLV","gid":"SLV-2-234"},"id":"SLV-2-234"},{"arcs":[[-702,-713,716,717,718,-708,-704,719]],"type":"Polygon","properties":{"name":"Cacaopera","shapeGroup":"SLV","gid":"SLV-2-235"},"id":"SLV-2-235"},{"arcs":[[-709,-719,720,721,722]],"type":"Polygon","properties":{"name":"Lolotiquillo","shapeGroup":"SLV","gid":"SLV-2-236"},"id":"SLV-2-236"},{"arcs":[[-712,723,724,725,-717]],"type":"Polygon","properties":{"name":"Corinto","shapeGroup":"SLV","gid":"SLV-2-237"},"id":"SLV-2-237"},{"arcs":[[-688,-692,726,-722,727,728,729,730]],"type":"Polygon","properties":{"name":"San Francisco","shapeGroup":"SLV","gid":"SLV-2-238"},"id":"SLV-2-238"},{"arcs":[[-689,-731,731,732]],"type":"Polygon","properties":{"name":"San Carlos","shapeGroup":"SLV","gid":"SLV-2-239"},"id":"SLV-2-239"},{"arcs":[[733]],"type":"Polygon","properties":{"name":"Null","shapeGroup":"SLV","gid":"SLV-2-240"},"id":"SLV-2-240"},{"arcs":[[-725,734,735,736,737,738]],"type":"Polygon","properties":{"name":"Lislique","shapeGroup":"SLV","gid":"SLV-2-241"},"id":"SLV-2-241"},{"arcs":[[-718,-726,-739,739,740,741,-728,-721]],"type":"Polygon","properties":{"name":"Sociedad","shapeGroup":"SLV","gid":"SLV-2-242"},"id":"SLV-2-242"},{"arcs":[[-729,-742,742,743,744,745,746]],"type":"Polygon","properties":{"name":"Jocoro","shapeGroup":"SLV","gid":"SLV-2-243"},"id":"SLV-2-243"},{"arcs":[[-730,-747,747,748,-732]],"type":"Polygon","properties":{"name":"El Divisadero","shapeGroup":"SLV","gid":"SLV-2-244"},"id":"SLV-2-244"},{"arcs":[[-746,749,750,751,-748]],"type":"Polygon","properties":{"name":"Comacarán","shapeGroup":"SLV","gid":"SLV-2-245"},"id":"SLV-2-245"},{"arcs":[[-751,752,753,754]],"type":"Polygon","properties":{"name":"Uluazapa","shapeGroup":"SLV","gid":"SLV-2-246"},"id":"SLV-2-246"},{"arcs":[[-754,755,756,757,758]],"type":"Polygon","properties":{"name":"Yayantique","shapeGroup":"SLV","gid":"SLV-2-247"},"id":"SLV-2-247"},{"arcs":[[-615,-659,-660,-657,-655,-690,-733,-749,-752,-755,-759,759,760,761,-714,-643,-638,-636]],"type":"Polygon","properties":{"name":"San Miguel","shapeGroup":"SLV","gid":"SLV-2-248"},"id":"SLV-2-248"},{"arcs":[[-715,-762,762,763,764,765]],"type":"Polygon","properties":{"name":"Chirilagua","shapeGroup":"SLV","gid":"SLV-2-249"},"id":"SLV-2-249"},{"arcs":[[-736,766,767,768]],"type":"Polygon","properties":{"name":"Null","shapeGroup":"SLV","gid":"SLV-2-250"},"id":"SLV-2-250"},{"arcs":[[-737,-769,769,770,771]],"type":"Polygon","properties":{"name":"Nueva Esparta","shapeGroup":"SLV","gid":"SLV-2-251"},"id":"SLV-2-251"},{"arcs":[[-738,-772,772,773,-740]],"type":"Polygon","properties":{"name":"Anamoros","shapeGroup":"SLV","gid":"SLV-2-252"},"id":"SLV-2-252"},{"arcs":[[-768,774,775,776,-770]],"type":"Polygon","properties":{"name":"Poloros","shapeGroup":"SLV","gid":"SLV-2-253"},"id":"SLV-2-253"},{"arcs":[[-776,777,778]],"type":"Polygon","properties":{"name":"Concepcion de Oriente","shapeGroup":"SLV","gid":"SLV-2-254"},"id":"SLV-2-254"},{"arcs":[[-771,-777,-779,779,780,781,-773]],"type":"Polygon","properties":{"name":"El Sauce","shapeGroup":"SLV","gid":"SLV-2-255"},"id":"SLV-2-255"},{"arcs":[[-781,782,783,784,785]],"type":"Polygon","properties":{"name":"Pasaquina","shapeGroup":"SLV","gid":"SLV-2-256"},"id":"SLV-2-256"},{"arcs":[[-741,-774,-782,-786,786,787,-743]],"type":"Polygon","properties":{"name":"Santa Rosa de Lima","shapeGroup":"SLV","gid":"SLV-2-257"},"id":"SLV-2-257"},{"arcs":[[-785,788,789,-787]],"type":"Polygon","properties":{"name":"San Jose","shapeGroup":"SLV","gid":"SLV-2-258"},"id":"SLV-2-258"},{"arcs":[[-744,-788,-790,790,791]],"type":"Polygon","properties":{"name":"Bolivar","shapeGroup":"SLV","gid":"SLV-2-259"},"id":"SLV-2-259"},{"arcs":[[-745,-792,792,-756,-753,-750]],"type":"Polygon","properties":{"name":"Yucuaiquin","shapeGroup":"SLV","gid":"SLV-2-260"},"id":"SLV-2-260"},{"arcs":[[-757,-793,-791,-789,-784,793,794,795,796]],"type":"Polygon","properties":{"name":"San Alejo","shapeGroup":"SLV","gid":"SLV-2-261"},"id":"SLV-2-261"},{"arcs":[[-765,797,798,799,800]],"type":"Polygon","properties":{"name":"Intipuca","shapeGroup":"SLV","gid":"SLV-2-262"},"id":"SLV-2-262"},{"arcs":[[-758,-797,801,-798,-764,802,-760]],"type":"Polygon","properties":{"name":"El Carmen","shapeGroup":"SLV","gid":"SLV-2-263"},"id":"SLV-2-263"},{"arcs":[[-795,803,804,805,-800,806]],"type":"Polygon","properties":{"name":"Conchagua","shapeGroup":"SLV","gid":"SLV-2-264"},"id":"SLV-2-264"},{"arcs":[[-796,-807,-799,-802]],"type":"Polygon","properties":{"name":"Null","shapeGroup":"SLV","gid":"SLV-2-265"},"id":"SLV-2-265"},{"arcs":[[-805,807]],"type":"Polygon","properties":{"name":"La Union","shapeGroup":"SLV","gid":"SLV-2-266"},"id":"SLV-2-266"},{"arcs":[[-362,-373,-378,-509,-390,-508,-511,808]],"type":"Polygon","properties":{"name":"San Pedro Masahuat","shapeGroup":"SLV","gid":"SLV-2-267"},"id":"SLV-2-267"},{"arcs":[[809,810]],"type":"Polygon","properties":{"name":"Chilanga","shapeGroup":"SLV","gid":"SLV-2-268"},"id":"SLV-2-268"},{"arcs":[[-678,-703,-720,-707,-810,-680]],"type":"Polygon","properties":{"name":"Osicala","shapeGroup":"SLV","gid":"SLV-2-269"},"id":"SLV-2-269"},{"arcs":[[-681,-811,-706,-710,-723,-727,-691,-686]],"type":"Polygon","properties":{"name":"Chilanga","shapeGroup":"SLV","gid":"SLV-2-270"},"id":"SLV-2-270"},{"arcs":[[811]],"type":"Polygon","properties":{"name":"Meanguera del Golfo","shapeGroup":"SLV","gid":"SLV-2-271"},"id":"SLV-2-271"}]}}}