{"type":"Topology","arcs":[[[10510,4851],[-132,49],[-52,-11],[-9,70],[-56,28],[-36,-13],[-99,45],[-22,41],[-56,32]],[[10048,5092],[-16,38],[-62,19],[-53,71],[-94,-33],[-50,35],[-81,-28],[-62,56]],[[9630,5250],[20,37],[-30,126],[50,6],[-59,98]],[[9611,5517],[4,72],[129,134],[117,-1],[23,39],[-115,98],[-17,45],[114,43],[40,-19],[24,44],[66,-33],[92,-91],[82,56],[-9,30],[125,124],[69,-46],[69,12],[73,-43],[75,-19],[77,-75],[25,0]],[[10674,5887],[-16,-49],[-52,-47],[-9,-46],[-99,-30],[127,-65],[-30,-50],[29,-54],[59,-64],[23,-51],[38,-1],[57,-58],[-22,-56],[47,-49],[9,-95],[-63,-19],[-26,-32],[8,-63],[46,-60],[61,-24],[-21,-56],[-61,12],[-70,60],[-82,-90],[-89,-5],[-28,-44]],[[5994,5042],[-123,21],[-36,-22],[-30,-80],[-120,18],[-100,38],[-98,-90],[-17,61],[-45,36],[-72,22],[-35,-15],[17,-110]],[[5335,4921],[-91,9],[-52,95],[12,53],[-19,96],[14,33]],[[5199,5207],[45,7],[13,134],[-15,105],[49,68]],[[5291,5521],[79,76]],[[5370,5597],[20,-35],[74,-8],[40,24],[62,-27],[-5,-61],[19,-32],[87,53],[76,-4],[50,14],[122,-38],[65,78]],[[5980,5561],[83,-89],[83,-8],[25,-53],[85,-20],[13,-90],[30,-9]],[[6299,5292],[-67,-22],[-44,-102],[-72,-52],[-2,-54],[-63,-28],[-57,8]],[[10842,2846],[-11,69],[64,89],[-28,47],[55,42],[63,4],[-112,136],[25,93],[-11,45],[26,53],[-15,25],[24,64],[-33,115],[9,94]],[[10898,3722],[51,0],[121,-72],[102,22],[59,-60],[64,5],[41,42],[61,-5]],[[11397,3654],[23,-36],[-19,-69],[-34,-28],[-53,-6],[26,-115],[64,-34],[43,-121],[31,-54],[23,-127],[1,-144],[18,-93],[57,-12],[-10,-51],[-46,-43],[63,-115],[29,43],[40,3],[24,37],[238,29],[127,29],[58,-73],[76,-69],[73,-15],[38,-81]],[[12287,2509],[-5,-116],[28,-69],[-33,-40],[-81,-26],[-92,23],[-77,33],[-79,-52],[-53,11],[-75,-20],[-25,-46],[-38,18],[-108,-23],[-70,3],[-3,-94],[-38,-5],[-44,34],[-79,-12],[-45,34],[-50,5],[-42,56],[-8,51],[-86,40],[3,69],[-32,85],[-49,46],[-23,150],[-62,74],[-38,-31],[-85,32],[-38,32],[-18,75]],[[2409,893],[-11,-90]],[[2398,803],[-88,68],[-22,45],[-53,45],[-23,42],[-78,63],[-9,63],[-96,27],[-36,-6],[-46,53],[-95,62],[-61,3],[-24,55],[-45,-8],[-34,25],[-60,-30],[-120,69],[-58,66],[2,29]],[[1452,1474],[44,70],[65,9],[16,69],[-48,38],[46,71],[-109,33],[21,62],[72,92]],[[1559,1918],[111,-138],[50,39],[55,69],[107,-4],[6,35],[79,15],[36,114],[86,14],[37,72]],[[2126,2134],[71,-65],[58,23],[-25,66],[60,21],[65,-22]],[[2355,2157],[-17,-53],[-6,-89],[-21,-60],[64,-31]],[[2375,1924],[-45,-121],[17,-53],[66,-57],[-11,-47],[-77,-42],[-54,41],[-47,-54],[66,-65],[-66,-65],[-52,34],[-54,-35],[53,-31],[99,-118],[-41,-104],[28,-37],[55,-7],[77,-36],[30,-66],[-37,-42],[3,-59],[24,-67]],[[5083,3339],[-45,-31],[-54,-68],[16,-56],[-27,-101],[32,-60],[-5,-84],[-57,-39]],[[4943,2900],[-68,22],[-95,-101],[-37,-93],[-56,6],[-12,-48],[-99,-30],[2,-28]],[[4578,2628],[-44,-16],[-93,47],[-56,-2],[11,86],[-37,47],[-59,21],[17,131],[-33,33],[-31,106],[-49,75],[-21,2]],[[4183,3158],[173,1],[-14,51],[49,29],[28,44],[7,63],[29,37],[42,-12],[61,64],[45,112]],[[4603,3547],[109,88],[95,-91],[71,17],[92,-9],[32,12]],[[5002,3564],[-5,-32],[31,-125],[55,-68]],[[2329,2767],[-65,-20],[10,-42],[-44,-26],[-27,51],[-49,31],[-10,-112],[-46,-54],[-84,18],[-70,58]],[[1944,2671],[-30,40],[-67,47],[-4,34],[-87,96],[-25,48],[-69,19],[11,59],[32,10],[-11,56],[14,94]],[[1708,3174],[111,24],[-18,79],[64,-17],[72,26],[58,45],[28,-17]],[[2023,3314],[69,-90],[88,-40],[91,-4],[12,48],[71,-73],[20,23],[100,-47],[113,-12],[51,-33]],[[2638,3086],[15,-39],[-75,-64],[-78,-3],[-42,37],[-35,-74],[-34,-36],[-15,-100],[-45,-40]],[[5291,5521],[-59,14],[-59,-35],[-55,0],[-23,28],[-58,10],[-57,-19],[-60,30],[-54,-24],[-20,-38],[-44,17],[-19,44]],[[4783,5548],[-27,20],[5,57],[-58,50],[-97,26],[-47,-17],[-131,120],[-44,-42],[-137,-78],[13,-49]],[[4260,5635],[-21,42],[-88,38],[-24,-48],[-40,9]],[[4087,5676],[-36,28],[-32,-22],[-72,23],[-42,-44],[-28,24],[-69,-59],[-147,-27],[-21,25],[-87,-64]],[[3553,5560],[-118,-13]],[[3435,5547],[130,54],[45,92],[40,37],[-15,79],[95,12],[60,53],[14,54],[54,66],[99,88],[-31,58],[26,56],[120,34],[47,-53],[139,44],[24,-24],[56,5],[53,-41],[45,-7],[57,58],[77,40],[65,-5],[62,15],[70,-17],[78,19],[87,-47],[12,-34],[-29,-147],[30,-11],[35,-71],[-47,-63],[6,-40],[127,-28],[43,23],[21,51],[88,3],[69,-46]],[[5287,5854],[3,-81],[16,-38],[51,-38],[-14,-80],[27,-20]],[[12406,4195],[-73,-85],[-9,-40]],[[12324,4070],[-70,-19],[12,-152],[-139,8],[-94,-28],[-92,3],[0,27],[-104,15],[-1,60],[-141,72],[-83,16],[-54,-18],[-12,36],[-78,-12]],[[11468,4078],[-19,27],[8,131],[43,94],[-62,69],[9,43],[-31,24],[21,51],[-50,19],[-2,44],[39,75],[2,61],[-51,79],[-10,112]],[[11365,4907],[25,55],[34,5],[-13,107],[62,64]],[[11473,5138],[37,-81],[-5,-70],[29,-56],[61,-56],[69,-24],[67,-55],[31,40],[41,4],[36,-51],[34,8],[24,105],[101,-8],[103,48],[46,53],[23,85],[39,78]],[[12209,5158],[86,-13],[23,-41]],[[12318,5104],[-60,-109],[-1,-60],[-58,-35],[2,-103],[55,-27],[16,-69],[-90,-61],[17,-124],[-53,-51],[-54,6],[-16,-102],[-77,-58],[20,-49],[42,10],[51,-36],[64,6],[56,-38],[63,80],[111,-89]],[[8561,3722],[-163,91],[-1,33],[-46,32],[-113,17],[-19,36],[16,127],[-7,48],[-64,52],[-46,18]],[[8118,4176],[-97,75],[71,75],[226,129],[33,-15]],[[8351,4440],[56,-17],[34,-42],[64,45],[-8,42],[38,45],[27,-30],[-18,-42],[89,-54],[27,-46],[94,9],[36,-74],[97,19],[10,54],[76,31],[53,-52],[45,36],[41,-6],[7,77],[22,6],[73,-44],[5,-28],[57,-32],[82,20]],[[9358,4357],[51,-43]],[[9409,4314],[-34,-34],[40,-101],[44,-70],[-82,-91],[-22,-67],[-151,-53],[-139,-39],[-94,80],[-96,21],[-28,101],[-82,16],[-85,-55],[-10,-84],[-68,-88],[0,-41],[-49,-19],[8,-68]],[[2126,2134],[-59,35],[-71,19],[52,74],[-12,101],[28,44],[-21,31],[-57,-2],[-33,59],[16,36],[-17,55],[19,40],[-27,45]],[[2329,2767],[35,-42],[66,-15],[61,-42],[108,-117]],[[2599,2551],[-12,6],[-86,-135],[-43,-95],[-103,-170]],[[4087,5676],[-37,-23],[3,-51],[46,-180],[71,-126],[-81,-42],[17,-84],[-27,-57],[22,-21],[-3,-140],[34,-66],[-76,-44]],[[4056,4842],[-37,37],[1,66],[-46,40],[-88,41],[-115,81],[-8,53],[-86,152],[8,24],[-47,56],[-43,89],[-34,25],[-8,54]],[[12406,4195],[88,-8],[11,-70],[48,-98],[6,-46],[103,9],[57,24],[32,-23],[82,5],[16,-28]],[[12849,3960],[-7,-81],[18,-136],[-33,-62],[-64,-57],[-7,-54],[44,-72],[-37,-85],[-14,-77],[-86,-26],[-110,-99],[-34,-72],[-119,-62],[-54,-115]],[[12346,2962],[-29,-11],[-15,72],[-52,42],[4,90],[-65,91],[-40,34],[-14,56],[32,24],[-73,206],[49,20],[-4,74],[35,44],[-6,34],[81,50],[48,-9],[49,199],[-22,92]],[[5335,4921],[-2,-50],[-50,-50],[7,-91],[-19,-100],[-7,-170],[-19,-18],[-7,-87],[45,-64],[42,-17],[-24,-68],[-80,-39],[-32,-63],[-1,-92]],[[5188,4012],[-73,24],[-42,-20]],[[5073,4016],[-127,4],[-55,57],[-40,85],[-53,16],[-42,41],[-64,7],[-82,49],[-27,-9],[-92,51],[-85,-48],[-49,-45]],[[4357,4224],[-60,76],[-67,-11],[-75,31]],[[4155,4320],[26,62],[49,52],[51,-23],[53,11],[29,89],[48,41],[-15,76],[33,1],[100,57],[49,53],[27,139],[43,36],[7,42],[83,13],[28,41],[92,24],[46,-2],[29,45],[57,4],[26,36],[132,-1],[4,66],[47,25]],[[5083,3339],[80,-53],[70,-79],[75,4],[37,-28],[68,3],[68,66],[59,-44],[-20,-68],[79,0],[63,58],[43,-30],[56,45],[117,35],[70,-25],[54,1],[17,28],[72,4],[26,30]],[[6117,3286],[34,-54]],[[6151,3232],[-22,2],[-83,-67],[-53,-97],[-45,34],[-57,10],[-64,-54],[-59,5],[-24,-54],[103,-55],[-7,-41],[-66,-13],[-12,52],[-72,12],[-35,-84],[-11,-72],[34,-47],[-8,-37],[-58,-28],[-46,1],[-9,-57],[41,-52],[54,-11],[-7,-83],[105,-20],[49,-63],[26,-106]],[[5825,2307],[3,-37],[55,-49],[-11,-44],[-44,-16],[-42,-80],[1,-62],[22,-62],[-48,-27],[-94,29],[-44,47],[-1,65],[-36,99],[-41,30]],[[5545,2200],[-26,36],[-46,10],[-12,35],[-62,27],[-101,-11],[-20,101],[-39,13],[-30,-30],[-93,42],[-25,61],[-47,-16],[-49,-46]],[[4995,2422],[37,43],[-23,92],[27,55],[-35,24],[40,193],[-66,-23],[-32,94]],[[6299,5292],[61,-23],[46,-67],[90,-19],[46,49],[32,3],[27,-50],[51,-49],[67,-5],[56,39]],[[6775,5170],[74,-32],[29,25],[86,-37],[91,32]],[[7055,5158],[38,-14],[-6,-51],[41,-13],[18,-76],[-54,-75],[34,-34],[29,45],[72,7],[-22,-57],[35,-52],[95,-32],[77,17],[-21,-74],[-5,-91],[-32,-89],[6,-70],[-78,-13],[-25,-26],[52,-42],[39,-72],[30,-20],[6,-82],[44,-84],[-42,-27],[-80,-14]],[[7306,4119],[-36,30],[-52,-31],[-170,9],[-99,-19],[-79,39],[-138,-65],[-26,38],[-100,56],[-35,-19],[-46,20],[-59,54],[-91,15],[-30,-14],[-104,24],[-36,-27],[-48,7],[-73,-16],[-56,-31],[-131,-4]],[[5897,4185],[-2,73],[-64,37],[17,48],[-2,81],[54,69],[56,106],[27,22],[-23,89],[42,9],[73,105],[-3,75],[-31,5],[-47,55],[0,83]],[[1191,2715],[-66,28],[-38,62],[-70,39],[89,64],[89,117],[44,43],[-14,87],[-42,53],[-55,23],[-73,-163],[-32,4],[-39,-67],[-72,-30],[-2,-40],[-72,-17],[-106,-46],[-73,-16],[-45,56],[-35,-15],[-89,18],[-33,-28],[-128,-15],[-28,-48],[-49,-7]],[[252,2817],[-33,123],[-5,106],[16,54],[37,24],[31,80],[-5,74],[25,40]],[[318,3318],[125,-11],[31,36],[44,-4],[88,39],[36,-15],[71,23],[38,-38],[86,76],[92,-15],[37,7],[5,75],[146,37],[48,70],[22,66]],[[1187,3664],[89,-20],[45,56],[39,-66],[105,-29],[12,-52],[34,-41],[-38,-32],[-16,-99],[74,-110],[17,-64],[56,-72]],[[1604,3135],[-23,-7],[-120,-186],[-108,-47],[-81,17],[-82,-104],[1,-93]],[[8561,3722],[3,-33],[45,-33],[-1,-49],[25,-50],[86,2],[37,26],[79,-54],[-5,-142],[21,-45],[93,-18],[40,-33],[48,-1]],[[9032,3292],[50,-23],[94,-11],[56,-132],[-62,1],[37,-69],[-44,-5],[7,-98]],[[9170,2955],[-192,-17],[-73,-31],[-65,0],[-23,-33],[-133,-57],[-93,30],[-21,-57],[-72,22],[-4,-154],[-37,-51],[-57,-42]],[[8400,2565],[-20,34],[-142,-59],[-122,16],[0,41],[-81,24],[-17,75],[8,62],[67,65],[-1,46],[57,169],[-51,35],[-29,-13],[-58,21],[17,43],[-24,73],[13,39],[-50,68],[-14,46],[-70,50],[-73,70],[-63,21],[-1,101],[59,58],[-30,60]],[[7775,3710],[6,98],[102,91],[17,91],[44,12]],[[7944,4002],[50,6],[15,82],[67,15],[42,71]],[[1559,1918],[-125,94]],[[1434,2012],[-24,48],[55,76],[10,40],[-58,76],[-35,-15],[-51,111],[-73,95],[-51,34],[-35,46],[-75,15]],[[1097,2538],[-28,35],[28,53],[34,-3],[60,92]],[[1604,3135],[66,64],[38,-25]],[[4578,2628],[39,0],[79,-38],[19,-45],[-27,-45],[-83,-72],[-79,0],[-67,43],[-32,-90]],[[4427,2381],[-47,17],[-74,-80],[-53,-134],[-94,-4],[-52,-35],[-74,3],[-52,-54],[-76,13]],[[3905,2107],[45,60],[51,30],[22,60],[-36,148],[-65,119],[-4,77],[16,103],[-63,22],[-51,119],[-23,17]],[[3797,2862],[44,70]],[[3841,2932],[77,-25],[108,56],[47,-7],[3,47],[107,155]],[[4783,5548],[-14,-48],[75,-50],[-8,-84],[-70,-48],[-63,-8],[-45,53],[-86,19],[-15,-52],[-48,4],[-60,83],[-22,-43],[-48,13],[-47,93],[-44,127],[-28,28]],[[11397,3654],[80,61],[37,49],[-34,55],[13,51],[-26,74],[16,24],[-24,59],[9,51]],[[12346,2962],[-12,-35],[-6,-140],[-41,-278]],[[318,3318],[45,47],[0,58],[97,154],[10,42],[105,75],[38,74],[10,81],[103,51],[76,91],[35,25],[37,-26],[64,-10],[156,-86],[79,-59],[33,-45],[40,20],[41,-21]],[[1287,3789],[-13,-68],[-87,-57]],[[7067,1515],[14,71],[71,88],[21,141],[-60,28],[3,59],[-69,77],[0,51],[-61,106],[25,52],[-8,49],[-40,17],[-26,55]],[[6937,2309],[20,37],[99,-28],[72,34],[-10,123],[-48,61],[28,47],[-51,89],[-48,36],[-41,59],[-43,14],[26,78],[51,-8],[51,51],[6,69],[-48,51],[-43,5],[-43,70],[-86,71],[-88,45]],[[6741,3213],[-48,41],[12,33],[73,26],[22,51],[73,14],[14,57],[38,-1],[18,78],[59,56],[31,-12],[32,80]],[[7065,3636],[60,-47],[64,-3],[55,-33],[31,-149],[62,-50],[-17,-90],[35,-21],[-2,-57],[34,-19],[37,-104],[30,-2],[21,-67],[83,-43],[23,-49],[-14,-34],[-52,13],[5,-103],[51,-14],[32,68],[32,14],[55,-37],[-30,-47],[3,-81],[148,-68],[7,-67],[34,-45],[44,-13],[0,-47],[41,-30],[50,-1],[5,-49],[73,-28],[92,12],[28,54],[64,30],[44,-17]],[[8293,2412],[6,-56],[-42,-75],[12,-70],[-90,-115],[-25,-70],[-47,-29],[-28,-101],[-81,-39],[-95,61],[-126,-107],[-96,6],[-33,-26],[-13,-62],[-50,-32],[-50,-66],[-49,-19],[-36,-77],[-59,28],[-126,-41],[-25,-49],[-80,-77],[-73,-2],[39,61],[-37,68],[-22,-8]],[[3875,83],[-16,131],[49,26],[4,54],[-60,6],[-59,73],[-55,24],[-92,73],[-107,25],[-52,93],[32,71],[-69,65],[-45,-53],[-106,70],[-64,55],[-40,7],[-121,-59],[-40,73],[-36,29],[-52,2],[-38,-62],[-58,-29],[-133,-18],[28,64],[-30,70],[-97,-62]],[[2618,811],[-4,41],[49,96],[68,60],[-96,185],[62,147],[-100,61],[93,121]],[[2690,1522],[87,-86],[79,71],[180,128],[90,29],[-8,-121],[35,-11],[104,54],[37,47],[75,-15],[6,-38],[115,-19]],[[3490,1561],[7,-50],[73,-36],[7,-35],[125,-35],[24,-24],[32,-89],[-17,-44],[-78,-2],[20,-64],[36,-39],[-11,-76],[64,-65],[-33,-43],[27,-30],[-36,-68],[13,-64],[67,-59],[40,-2],[84,-33],[41,51],[100,-35],[62,51],[99,-44],[45,44],[198,-23]],[[4479,747],[3,-43],[-35,-38],[10,-174],[68,-23],[67,-52],[15,-57],[64,-24],[-17,-37],[-131,22],[-118,-32],[-35,-87],[-101,-75],[-84,-30],[-83,-3],[-83,23],[-83,-2],[-61,-32]],[[10842,2846],[-22,40],[-45,10],[-113,95],[-39,-23],[-2,-54],[-98,-18],[-140,10],[-8,-98],[-44,-40],[-104,36],[-82,-2],[-86,-46],[-43,11],[-63,-91],[-38,-15],[-52,30],[-11,62],[-56,30],[-144,5],[-111,-20],[-1,43],[-49,15],[-42,77],[-91,-33],[-51,56],[-11,52],[-33,4],[-93,-27]],[[9032,3292],[32,101],[-1,61],[39,31],[131,42],[47,63],[-3,41],[40,40],[31,-30],[106,-26],[115,53],[80,-29],[65,29],[-17,33],[34,67],[60,51],[22,54],[-29,74],[-42,12],[-2,47],[53,49],[-15,58]],[[9778,4113],[44,-32],[135,17],[48,-22],[59,-86],[35,49],[62,-48],[68,-11],[32,-28],[-57,-41],[9,-67],[80,-64],[57,20],[27,73],[117,3],[38,70],[-22,79],[47,16],[83,-43],[48,-5],[77,38]],[[10765,4031],[28,-50],[-4,-72],[54,-41],[19,-81],[36,-65]],[[10383,3435],[11,86],[-51,90],[-6,82]],[[10337,3693],[-67,32],[-69,-54],[-131,74],[-74,84],[-51,-56],[32,-67],[-51,-31],[9,-50],[116,-123]],[[10051,3502],[-1,-25],[51,-85],[-36,-36],[-2,-100],[-132,-24],[12,-57],[-19,-63],[102,0],[15,-90],[25,-46],[88,-39],[46,26],[-26,96],[4,51],[-47,58],[44,43],[44,-11]],[[10219,3200],[84,22],[105,1],[53,-24],[-7,103],[-49,53],[3,61],[-25,19]],[[929,1019],[-35,-21],[-62,12],[-91,-46],[-39,47],[-40,3],[-39,36],[-46,-40],[-52,41],[47,50],[-45,34],[14,107],[42,48],[-35,22],[-47,125]],[[501,1437],[39,2]],[[540,1439],[100,-14]],[[640,1425],[59,-21],[-7,-113],[40,-94],[71,-68]],[[803,1129],[82,-49],[44,-61]],[[1434,2012],[-81,-68],[-44,31],[-41,-15],[-41,-60],[-50,16],[-5,-87],[-67,-52],[-131,-2],[-95,-56],[16,-64]],[[895,1655],[-83,88],[-54,35],[-79,13]],[[679,1791],[7,16]],[[686,1807],[38,46],[26,65],[-31,65],[51,46],[56,108],[-20,36],[18,67],[31,28],[63,9],[36,52],[16,113],[40,-7],[43,72],[44,31]],[[2599,2551],[97,-14],[32,31],[96,-51],[-10,-51],[119,-51],[80,84],[119,-24]],[[3132,2475],[5,-23],[73,-89],[44,-18],[-1,-38],[49,-59],[-13,-74],[-37,-52],[77,-52],[70,-85],[98,-8],[6,-63],[124,-41]],[[3627,1873],[58,-49],[-5,-51],[-38,-57],[-56,-23],[-93,18],[24,-72],[-34,-43],[7,-35]],[[2690,1522],[-67,82],[45,70],[-3,96],[-22,55],[-85,9],[-88,64],[-95,26]],[[5825,2307],[43,-25],[52,54]],[[5920,2336],[35,-83],[70,-24],[-22,-45],[59,-22],[29,-81],[72,-72],[17,-97],[43,-5],[42,28],[33,-47],[-36,-22],[17,-131],[-18,-61]],[[6261,1674],[-36,-22],[7,-45],[-45,-53],[8,-70],[-38,-70],[-22,-125],[-73,-41],[-17,44],[-54,-40],[-59,-17],[-30,28],[-49,-11],[-145,-1],[-61,-51],[-48,-9],[-34,-62],[-66,37],[-52,-14],[-146,47],[-47,-29],[-53,26],[-44,-29],[-74,-1],[-44,47]],[[5039,1213],[-3,55],[40,55],[40,21],[37,66],[0,40],[-33,53],[53,118],[-51,36]],[[5122,1657],[53,79],[97,-48],[35,66],[87,-33],[4,46],[104,32],[43,70],[-39,30],[-33,81],[24,90],[-5,59],[51,28],[2,43]],[[10219,3200],[-15,54],[-71,36],[11,41],[46,50],[27,63]],[[10217,3444],[66,34]],[[10283,3478],[64,-44],[36,1]],[[10283,3478],[-10,55],[47,91],[17,69]],[[10051,3502],[93,-33],[53,16],[20,-41]],[[3905,2107],[-75,7],[-54,-70],[23,-33],[-44,-46],[10,-66],[-102,65],[-56,-34],[20,-57]],[[3132,2475],[108,95],[54,74],[115,37]],[[3409,2681],[69,-25],[106,38],[65,72],[61,26],[87,70]],[[6937,2309],[-77,6],[-46,-43],[-73,3],[-17,-56],[-114,3],[-18,-20],[-95,79],[24,86],[41,35],[-127,95],[5,31],[-43,115],[18,73],[-31,28],[-33,78]],[[6351,2822],[125,8],[56,84],[54,33],[70,21],[22,63],[-73,61],[-41,17]],[[6564,3109],[69,59],[108,45]],[[686,1807],[-87,7],[-75,-25],[-62,30],[-51,-10],[-72,15],[-70,40]],[[269,1864],[-70,26],[-46,64],[-29,73],[33,55],[-86,42],[8,28],[-72,16],[-7,75],[34,86],[-12,48],[30,32],[-27,53],[-4,53],[148,180],[17,67],[66,55]],[[9409,4314],[47,2],[71,-57],[52,45],[29,-3],[12,-82],[54,-43],[28,-69],[76,6]],[[2618,811],[-115,61],[-45,-7],[-49,28]],[[1452,1474],[-82,-27],[-51,69],[-69,20],[-3,-138],[-28,11],[-61,-53],[-63,-11],[-15,-56],[67,-65],[-68,-109],[-58,-24],[-79,-108]],[[942,983],[-13,36]],[[803,1129],[57,90],[12,84],[66,31],[71,-43],[19,58],[-45,25],[-15,42],[-39,11],[-28,108],[-27,43],[15,34]],[[889,1612],[6,43]],[[2638,3086],[39,17],[56,75],[-4,55],[-27,18],[-36,161],[34,28]],[[2700,3440],[37,3],[86,-60],[88,-21],[20,20],[86,-99],[9,-44],[43,-47],[46,13],[58,-56]],[[3173,3149],[41,-4],[67,-70],[-97,-114],[29,-77],[65,4],[69,-50],[53,-97],[9,-60]],[[2398,803],[25,-63],[-34,-52],[37,-59],[-95,-67],[-32,-59],[-58,-16],[-28,-61],[11,-68],[-13,-41],[-56,-27],[-30,-38],[-46,19],[-18,-116],[-57,-58]],[[2004,97],[-33,50],[-134,100],[-58,70],[-97,-22],[-39,58],[-16,71],[-41,49],[-64,4],[-101,62],[-50,124],[-49,50],[-29,55],[-52,28],[-97,121],[-133,4],[-61,25],[-8,37]],[[10674,5887],[79,12],[23,47],[52,-33],[44,54],[166,1],[68,42],[64,-107],[52,-21],[42,27],[52,-22],[12,-49],[85,-52],[18,-71]],[[11431,5715],[-47,-57],[-2,-78],[36,-80],[-58,-6],[-58,115],[-28,24],[-51,-40],[22,-39],[-63,-64],[-77,-5],[14,-56],[-45,-65],[8,-48],[-57,-48],[3,-150],[-65,-114],[58,-80],[-6,-54],[-34,-30]],[[10981,4840],[-22,-100],[-81,-60],[-87,38],[-69,-3]],[[10722,4715],[-48,14],[-77,89],[-87,33]],[[10765,4031],[-31,154],[-51,123],[-95,121],[40,23],[-28,45],[10,74],[90,71],[22,73]],[[10981,4840],[72,-70],[-11,-18],[68,-117],[45,-41],[61,37],[-28,41],[85,44],[45,42],[6,54],[-18,63],[59,32]],[[8400,2565],[-28,-53],[-79,-100]],[[7065,3636],[15,50],[54,-25],[163,32],[105,73],[43,-32],[91,18],[2,-44],[57,-20],[37,21],[42,-27],[40,47],[61,-19]],[[4056,4842],[-68,-89],[41,-8],[47,-47],[9,-65],[-8,-105],[-69,-92],[-94,-27],[-46,-28],[-28,-66],[-75,-25]],[[3765,4290],[-10,69],[-54,22]],[[3701,4381],[-39,56],[-45,28],[8,51],[-49,93],[36,62],[-21,55],[-6,97],[-26,108],[-42,110],[-72,38],[-9,120],[-77,-10],[-43,71],[-21,106],[-32,35],[-1,74]],[[3262,5475],[128,40],[45,32]],[[7067,1515],[-71,39],[-46,-45],[-40,24],[-35,-52],[-55,38],[53,65],[-104,105],[-60,5],[-32,-48],[-62,12],[-33,29],[-23,92],[-36,-4],[-55,42],[-52,-39],[-72,-81],[-83,-23]],[[5920,2336],[-9,77],[-58,101],[4,25],[95,90],[71,27],[7,37],[69,-23],[66,53],[2,42],[155,84],[29,-27]],[[6151,3232],[58,23],[191,-35],[17,-19],[82,-8],[-15,-64],[80,-20]],[[5122,1657],[-66,-51],[-82,-9],[-88,-50],[-39,-50],[-141,9],[-53,45],[-106,-4],[-3,51],[71,65],[-45,77],[-15,60],[19,44],[62,36],[-2,61],[29,71]],[[4663,2012],[142,54],[37,42],[56,23],[-38,55],[43,70],[11,95],[57,30],[24,41]],[[3875,83],[-56,-6],[-79,41],[-60,-35],[-79,-11],[-56,-28],[-184,-44],[-54,21],[-107,17],[-104,-5],[-73,27],[-134,28],[-114,4],[-62,-34],[-94,35],[-55,-47],[-109,-19],[-79,23],[-89,-20],[-57,15],[-47,-18],[-46,36],[-103,17],[-30,17]],[[540,1439],[-1,113]],[[539,1552],[27,-33],[92,-32]],[[658,1487],[-18,-62]],[[3841,2932],[-59,70],[-16,66],[20,32],[-82,71],[45,25],[-1,112],[-15,27],[-79,-20],[-33,64],[-60,27]],[[3561,3406],[-33,75],[11,31],[65,26],[33,-8],[51,44],[4,76],[-26,98],[-35,55],[29,81],[-25,51],[-47,30],[-54,3],[-33,96],[-43,12]],[[3458,4076],[-19,44],[6,54]],[[3445,4174],[20,30],[47,-22],[33,43],[76,-32],[6,-37],[67,-19],[33,-58],[34,37],[52,14],[43,103]],[[3856,4233],[44,-10],[36,34],[49,9],[33,60],[137,-6]],[[4357,4224],[-60,-33],[-3,-57],[34,-50],[-29,-59],[6,-115],[126,-73],[-4,-24],[69,-56],[-8,-47],[39,-28],[67,-93],[9,-42]],[[11431,5715],[42,-27]],[[11473,5688],[20,-64],[38,7],[33,-67],[97,-102],[-100,-105],[13,-46],[-37,-135],[-73,-6],[9,-32]],[[4663,2012],[-16,52],[-47,37],[-34,137],[-62,23],[-77,120]],[[9630,5250],[-104,-76],[-54,18],[-25,-28],[-69,18],[-96,59],[-44,14],[-48,-17],[-77,11],[4,-40],[-110,-135],[-62,-53],[-44,24],[-65,-59]],[[8836,4986],[-23,-10]],[[8813,4976],[-53,35],[0,70],[-55,100],[-59,12],[-21,40],[-143,133],[10,83],[-29,122],[-43,-19],[-103,-80],[-62,38],[0,52],[45,78],[31,196]],[[8331,5836],[-8,68],[95,-6],[77,-42],[11,-35],[152,-61],[58,43],[25,85],[83,-42],[104,67],[105,-10],[41,-51],[-13,-47],[140,-103],[5,-41],[60,-48],[65,47],[97,-98],[9,-46],[61,-28],[74,41],[39,-12]],[[658,1487],[70,41],[52,72],[109,12]],[[5002,3564],[32,66],[10,79],[-56,42],[23,53],[15,114],[47,98]],[[5188,4012],[250,28],[134,36],[49,-40],[10,-89],[75,9],[35,33],[32,84],[45,11]],[[5818,4084],[22,-38],[58,-16],[41,-113],[-48,-62],[25,-74],[-6,-51],[103,-88],[56,-2],[72,-132],[33,-19],[-33,-103],[-61,-42],[37,-58]],[[5818,4084],[79,101]],[[7306,4119],[53,-22],[130,-9],[202,-33],[40,66],[26,-28],[139,-53],[48,-38]],[[539,1552],[-22,81],[14,80],[45,-9],[48,34],[-6,35],[61,18]],[[5039,1213],[-76,-85],[-50,18],[-74,-5],[-45,-21],[-36,13],[-42,-27],[-69,19],[-28,-15],[-41,-94],[13,-53],[-47,-74],[-75,0],[-29,-49],[47,-53],[-8,-40]],[[12318,5104],[86,-52],[44,31],[48,-7],[12,-43],[-23,-56],[52,2],[78,-38],[89,-23],[33,38],[64,-7],[65,-60],[52,-85],[37,-16],[64,19],[69,-53],[124,21],[32,-53],[-5,-173],[-30,-31],[17,-51],[-57,-35],[-36,11],[-65,-31],[-26,-64],[-96,-152],[-8,-157],[-62,-26],[-27,-53]],[[501,1437],[-73,-2],[-31,43],[-84,66],[0,61],[-33,109],[-37,53],[26,97]],[[10048,5092],[-25,-68],[59,-73],[61,-125],[24,-78],[-58,-16],[-70,-50],[-47,-11],[-64,-69],[-54,-21],[-40,16],[-65,-10],[-67,58],[-56,79],[-56,30],[-20,-39],[-75,0],[-37,39],[-41,-46]],[[9417,4708],[-88,43],[-82,-37],[-64,94],[-46,35],[-38,-18],[-45,44],[-85,-7],[-133,124]],[[3458,4076],[-46,-49],[-54,18],[-142,-50],[-40,-124],[2,-104],[27,-49],[-1,-51],[-48,-35],[-83,28],[-31,-53],[-45,-6],[-17,-54],[-86,-11],[-29,40],[-69,24],[-101,-40]],[[2695,3560],[-46,9],[-41,94],[1,64],[-61,-6],[-26,61],[-145,9],[25,58],[-34,72],[-48,58],[-25,75],[34,50],[-3,81]],[[2326,4185],[59,-13],[38,21],[6,54],[33,71],[0,64],[49,131],[63,18],[57,-9],[35,21],[78,-25],[107,57],[60,104]],[[2911,4679],[13,-54],[-19,-54],[18,-83],[28,-34],[23,-84],[29,-26],[19,-75],[-42,-48],[133,-87],[55,33],[98,-30],[67,43],[112,-6]],[[3701,4381],[-35,-37],[-59,1],[-79,115],[-63,35],[-118,132],[-62,-41],[-36,53],[-55,20],[-8,44],[-109,157],[-35,10],[-1,55],[-80,21]],[[2961,4946],[27,87],[2,72],[25,25],[34,117],[-21,66],[86,75],[0,60],[46,23],[102,4]],[[11473,5688],[-4,43],[35,51],[82,33],[48,-81],[39,18],[57,-69],[78,-28],[63,11],[51,-136],[64,-73],[54,-38],[18,-75],[-26,-112],[47,-31],[130,-43]],[[7055,5158],[43,32],[3,61],[36,18],[120,-20],[24,6],[63,-41],[28,-65],[130,-80],[26,3],[-2,98],[35,64],[1,96],[60,82],[3,68],[36,75],[32,-37],[39,25],[19,48]],[[7751,5591],[-4,-48],[42,-81],[53,-33],[44,35],[99,-19],[70,0],[3,-81],[49,-129],[72,-27],[-3,-61],[-27,-53],[10,-43],[-29,-45],[-36,22],[-41,-63],[-59,26],[-15,-29],[27,-79],[109,-104],[76,-27],[-40,-45],[27,-51],[92,-81],[113,-21]],[[8383,4554],[-32,-114]],[[2700,3440],[-20,52],[15,68]],[[3561,3406],[-31,0],[-57,-60],[8,-76],[-29,-68],[-46,73],[-66,1],[-20,-42],[-42,-20],[-68,26],[-37,-91]],[[8383,4554],[43,20],[21,55],[42,-30],[83,25],[19,128],[119,91],[91,101],[12,32]],[[9417,4708],[-17,-90],[-29,-33],[1,-61],[-30,-57],[26,-29],[-10,-81]],[[3765,4290],[20,-53],[71,-4]],[[2911,4679],[44,80],[-12,82],[18,105]],[[5980,5561],[58,96],[45,18],[79,62],[4,37],[66,44],[157,156],[-35,64]],[[6354,6038],[37,12],[32,-42],[69,38],[-8,-60],[25,-18],[-29,-87],[56,-7],[161,-59],[39,57],[49,18],[54,-8],[4,-113],[22,-30],[-12,-70],[19,-95],[-27,-65],[38,-31],[30,-65],[-70,-31],[-17,-75],[-43,-35],[-8,-102]],[[1287,3789],[92,96],[40,21],[56,-19],[99,-100],[174,56],[16,43],[44,4]],[[1808,3890],[-14,-31],[19,-81],[3,-104],[44,-75],[83,19],[60,-49],[22,-42],[-31,-76],[44,-92],[-15,-45]],[[1808,3890],[28,45],[81,-3],[82,21],[77,73],[32,62],[75,63],[-3,30],[146,4]],[[5287,5854],[37,25],[37,-22],[52,35],[50,0],[-27,74],[30,47],[47,1],[3,73],[30,144],[112,87],[87,-15],[101,18],[21,110],[66,23],[23,63],[74,22],[3,38],[56,16],[4,-62],[26,-32],[114,-49],[2,-130],[49,-99],[5,-62],[65,-121]],[[7751,5591],[26,51],[109,30],[61,-18],[56,20],[36,-26],[35,27],[6,50],[-20,80],[18,50],[86,-17],[47,-25],[54,5],[26,46],[40,-28]]],"transform":{"scale":[0.00043129532618544237,0.00028551125436068514],"translate":[16.8411617,47.7314286]},"objects":{"SVK":{"type":"GeometryCollection","geometries":[{"arcs":[[0,1,2,3,4]],"type":"Polygon","properties":{"name":"District of Bardejov","shapeGroup":"SVK","gid":"SVK-2-0"},"id":"SVK-2-0"},{"arcs":[[5,6,7,8,9,10,11]],"type":"Polygon","properties":{"name":"District of Dolne Kub","shapeGroup":"SVK","gid":"SVK-2-1"},"id":"SVK-2-1"},{"arcs":[[12,13,14,15]],"type":"Polygon","properties":{"name":"District of Trebi ov","shapeGroup":"SVK","gid":"SVK-2-2"},"id":"SVK-2-2"},{"arcs":[[16,17,18,19,20,21,22]],"type":"Polygon","properties":{"name":"District of Galanta","shapeGroup":"SVK","gid":"SVK-2-3"},"id":"SVK-2-3"},{"arcs":[[23,24,25,26,27,28]],"type":"Polygon","properties":{"name":"District of Giar nad Hronom","shapeGroup":"SVK","gid":"SVK-2-4"},"id":"SVK-2-4"},{"arcs":[[29,30,31,32,33]],"type":"Polygon","properties":{"name":"District of Piertany","shapeGroup":"SVK","gid":"SVK-2-5"},"id":"SVK-2-5"},{"arcs":[[-9,34,35,36,37,38,39,40]],"type":"Polygon","properties":{"name":"District of Cadca","shapeGroup":"SVK","gid":"SVK-2-6"},"id":"SVK-2-6"},{"arcs":[[41,42,43,44,45,46,47]],"type":"Polygon","properties":{"name":"District of Humennn","shapeGroup":"SVK","gid":"SVK-2-7"},"id":"SVK-2-7"},{"arcs":[[48,49,50,51,52]],"type":"Polygon","properties":{"name":"District of Spieskn Novo Ves","shapeGroup":"SVK","gid":"SVK-2-8"},"id":"SVK-2-8"},{"arcs":[[-21,53,-30,54,55]],"type":"Polygon","properties":{"name":"District of Hlohovec","shapeGroup":"SVK","gid":"SVK-2-9"},"id":"SVK-2-9"},{"arcs":[[-38,56,57]],"type":"Polygon","properties":{"name":"District of Bytca","shapeGroup":"SVK","gid":"SVK-2-10"},"id":"SVK-2-10"},{"arcs":[[-42,58,59,60]],"type":"Polygon","properties":{"name":"District of Sobrance","shapeGroup":"SVK","gid":"SVK-2-11"},"id":"SVK-2-11"},{"arcs":[[-7,61,62,63,64,65]],"type":"Polygon","properties":{"name":"District of Martin","shapeGroup":"SVK","gid":"SVK-2-12"},"id":"SVK-2-12"},{"arcs":[[-24,66,67,68,69,70,71]],"type":"Polygon","properties":{"name":"District of Zvolen","shapeGroup":"SVK","gid":"SVK-2-13"},"id":"SVK-2-13"},{"arcs":[[-12,72,73,74,75,76]],"type":"Polygon","properties":{"name":"District of Liptovsk","shapeGroup":"SVK","gid":"SVK-2-14"},"id":"SVK-2-14"},{"arcs":[[77,78,79,80,81]],"type":"Polygon","properties":{"name":"District of Senica","shapeGroup":"SVK","gid":"SVK-2-15"},"id":"SVK-2-15"},{"arcs":[[-49,82,83,84,85,86,87]],"type":"Polygon","properties":{"name":"District of Ronnava","shapeGroup":"SVK","gid":"SVK-2-16"},"id":"SVK-2-16"},{"arcs":[[-20,88,89,90,-82,91,-31,-54]],"type":"Polygon","properties":{"name":"District of Trnava","shapeGroup":"SVK","gid":"SVK-2-17"},"id":"SVK-2-17"},{"arcs":[[-26,92,93,94,95,96]],"type":"Polygon","properties":{"name":"District of Tarnovica","shapeGroup":"SVK","gid":"SVK-2-18"},"id":"SVK-2-18"},{"arcs":[[-36,97]],"type":"Polygon","properties":{"name":"District of Kysucki Novi Mesto","shapeGroup":"SVK","gid":"SVK-2-19"},"id":"SVK-2-19"},{"arcs":[[-15,98,-43,-61,99]],"type":"Polygon","properties":{"name":"District of Michalovce","shapeGroup":"SVK","gid":"SVK-2-20"},"id":"SVK-2-20"},{"arcs":[[-80,100,101]],"type":"Polygon","properties":{"name":"District of Skalica","shapeGroup":"SVK","gid":"SVK-2-21"},"id":"SVK-2-21"},{"arcs":[[102,103,104,105,106]],"type":"Polygon","properties":{"name":"District of Rimavsk","shapeGroup":"SVK","gid":"SVK-2-22"},"id":"SVK-2-22"},{"arcs":[[107,108,109,110,111]],"type":"Polygon","properties":{"name":"District of Nova Zkmky","shapeGroup":"SVK","gid":"SVK-2-23"},"id":"SVK-2-23"},{"arcs":[[-13,112,-84,113,114,115],[116,117,118,119]],"type":"Polygon","properties":{"name":"District of Kovice - okolie","shapeGroup":"SVK","gid":"SVK-2-24"},"id":"SVK-2-24"},{"arcs":[[120,121,122,123,124]],"type":"Polygon","properties":{"name":"District of Bratislava V","shapeGroup":"SVK","gid":"SVK-2-25"},"id":"SVK-2-25"},{"arcs":[[-90,125,126,127,128]],"type":"Polygon","properties":{"name":"District of Pezinok","shapeGroup":"SVK","gid":"SVK-2-26"},"id":"SVK-2-26"},{"arcs":[[-22,-56,129,130,131,-110,132]],"type":"Polygon","properties":{"name":"District of Nitra","shapeGroup":"SVK","gid":"SVK-2-27"},"id":"SVK-2-27"},{"arcs":[[-70,133,134,135,136,137]],"type":"Polygon","properties":{"name":"District of Velka Krta","shapeGroup":"SVK","gid":"SVK-2-28"},"id":"SVK-2-28"},{"arcs":[[-120,138,139,140]],"type":"Polygon","properties":{"name":"District of Kolice IV","shapeGroup":"SVK","gid":"SVK-2-29"},"id":"SVK-2-29"},{"arcs":[[-117,-141,141]],"type":"Polygon","properties":{"name":"District of Kolice III","shapeGroup":"SVK","gid":"SVK-2-30"},"id":"SVK-2-30"},{"arcs":[[-119,142,-139]],"type":"Polygon","properties":{"name":"District of Kolice II","shapeGroup":"SVK","gid":"SVK-2-31"},"id":"SVK-2-31"},{"arcs":[[-95,143,-131,144,145]],"type":"Polygon","properties":{"name":"District of Zlatc Moravce","shapeGroup":"SVK","gid":"SVK-2-32"},"id":"SVK-2-32"},{"arcs":[[-104,146,147,148]],"type":"Polygon","properties":{"name":"District of Poltcr","shapeGroup":"SVK","gid":"SVK-2-33"},"id":"SVK-2-33"},{"arcs":[[-78,-91,-129,149,150]],"type":"Polygon","properties":{"name":"District of Malacky","shapeGroup":"SVK","gid":"SVK-2-34"},"id":"SVK-2-34"},{"arcs":[[-118,-142,-140,-143]],"type":"Polygon","properties":{"name":"District of Kolice I","shapeGroup":"SVK","gid":"SVK-2-35"},"id":"SVK-2-35"},{"arcs":[[-53,151,-114,-83]],"type":"Polygon","properties":{"name":"District of Gelnica","shapeGroup":"SVK","gid":"SVK-2-36"},"id":"SVK-2-36"},{"arcs":[[-23,-133,-109,152]],"type":"Polygon","properties":{"name":"District of Gala","shapeGroup":"SVK","gid":"SVK-2-37"},"id":"SVK-2-37"},{"arcs":[[-19,153,154,-125,155,156,-126,-89]],"type":"Polygon","properties":{"name":"District of Senec","shapeGroup":"SVK","gid":"SVK-2-38"},"id":"SVK-2-38"},{"arcs":[[-34,157,158,159,-145,-130,-55]],"type":"Polygon","properties":{"name":"District of Topolcany","shapeGroup":"SVK","gid":"SVK-2-39"},"id":"SVK-2-39"},{"arcs":[[-18,160,161,-154]],"type":"Polygon","properties":{"name":"District of Dunajskn Streda","shapeGroup":"SVK","gid":"SVK-2-40"},"id":"SVK-2-40"},{"arcs":[[-5,162,163,164,165]],"type":"Polygon","properties":{"name":"District of Svidnsk","shapeGroup":"SVK","gid":"SVK-2-41"},"id":"SVK-2-41"},{"arcs":[[-14,-116,166,-165,167,-44,-99]],"type":"Polygon","properties":{"name":"District of Vranov nad Toplou","shapeGroup":"SVK","gid":"SVK-2-42"},"id":"SVK-2-42"},{"arcs":[[-86,168,-106,169]],"type":"Polygon","properties":{"name":"District of Revnca","shapeGroup":"SVK","gid":"SVK-2-43"},"id":"SVK-2-43"},{"arcs":[[-39,-58,170,171,172,173]],"type":"Polygon","properties":{"name":"District of Povacskn Bystrica","shapeGroup":"SVK","gid":"SVK-2-44"},"id":"SVK-2-44"},{"arcs":[[-103,174,-135,175,-147]],"type":"Polygon","properties":{"name":"District of Lucenec","shapeGroup":"SVK","gid":"SVK-2-45"},"id":"SVK-2-45"},{"arcs":[[-69,176,-148,-176,-134]],"type":"Polygon","properties":{"name":"District of Detva","shapeGroup":"SVK","gid":"SVK-2-46"},"id":"SVK-2-46"},{"arcs":[[-71,-138,177,178]],"type":"Polygon","properties":{"name":"District of Krupina","shapeGroup":"SVK","gid":"SVK-2-47"},"id":"SVK-2-47"},{"arcs":[[-17,-153,-108,179,-161]],"type":"Polygon","properties":{"name":"District of Komprno","shapeGroup":"SVK","gid":"SVK-2-48"},"id":"SVK-2-48"},{"arcs":[[-123,180,181,182]],"type":"Polygon","properties":{"name":"District of Bratislava I","shapeGroup":"SVK","gid":"SVK-2-49"},"id":"SVK-2-49"},{"arcs":[[-27,-97,183,184,185,186,187,-65,188]],"type":"Polygon","properties":{"name":"District of Prievidza","shapeGroup":"SVK","gid":"SVK-2-50"},"id":"SVK-2-50"},{"arcs":[[-45,-168,-164,189,190]],"type":"Polygon","properties":{"name":"District of Stropkov","shapeGroup":"SVK","gid":"SVK-2-51"},"id":"SVK-2-51"},{"arcs":[[-25,-72,-179,191,-93]],"type":"Polygon","properties":{"name":"District of Banskk vtiavnica","shapeGroup":"SVK","gid":"SVK-2-52"},"id":"SVK-2-52"},{"arcs":[[-3,192,193,194,195]],"type":"Polygon","properties":{"name":"District of Stark Lubovna","shapeGroup":"SVK","gid":"SVK-2-53"},"id":"SVK-2-53"},{"arcs":[[-124,-183,196,-156]],"type":"Polygon","properties":{"name":"District of Bratislava II","shapeGroup":"SVK","gid":"SVK-2-54"},"id":"SVK-2-54"},{"arcs":[[-29,197,-63,198,199,-67]],"type":"Polygon","properties":{"name":"District of Bansks Bystrica","shapeGroup":"SVK","gid":"SVK-2-55"},"id":"SVK-2-55"},{"arcs":[[-68,-200,200,-76,201,-87,-170,-105,-149,-177]],"type":"Polygon","properties":{"name":"District of Brezno","shapeGroup":"SVK","gid":"SVK-2-56"},"id":"SVK-2-56"},{"arcs":[[-127,-157,-197,-182,202]],"type":"Polygon","properties":{"name":"District of Bratislava III","shapeGroup":"SVK","gid":"SVK-2-57"},"id":"SVK-2-57"},{"arcs":[[-94,-192,-178,-137,203,-111,-132,-144]],"type":"Polygon","properties":{"name":"District of Levice","shapeGroup":"SVK","gid":"SVK-2-58"},"id":"SVK-2-58"},{"arcs":[[-48,204,-59]],"type":"Polygon","properties":{"name":"District of Snina","shapeGroup":"SVK","gid":"SVK-2-59"},"id":"SVK-2-59"},{"arcs":[[-122,205,-150,-128,-203,-181]],"type":"Polygon","properties":{"name":"District of Bratislava IV","shapeGroup":"SVK","gid":"SVK-2-60"},"id":"SVK-2-60"},{"arcs":[[-2,206,207,-193]],"type":"Polygon","properties":{"name":"District of Sabinov","shapeGroup":"SVK","gid":"SVK-2-61"},"id":"SVK-2-61"},{"arcs":[[-186,208,209,210,211]],"type":"Polygon","properties":{"name":"District of Trencon","shapeGroup":"SVK","gid":"SVK-2-62"},"id":"SVK-2-62"},{"arcs":[[-173,212,213]],"type":"Polygon","properties":{"name":"District of Prchov","shapeGroup":"SVK","gid":"SVK-2-63"},"id":"SVK-2-63"},{"arcs":[[-46,-191,214]],"type":"Polygon","properties":{"name":"District of Medzilaborce","shapeGroup":"SVK","gid":"SVK-2-64"},"id":"SVK-2-64"},{"arcs":[[-50,-88,-202,-75,215,216,217]],"type":"Polygon","properties":{"name":"District of Poprad","shapeGroup":"SVK","gid":"SVK-2-65"},"id":"SVK-2-65"},{"arcs":[[-159,218,-209,-185,219]],"type":"Polygon","properties":{"name":"District of Bonovce nad Bebra*","shapeGroup":"SVK","gid":"SVK-2-66"},"id":"SVK-2-66"},{"arcs":[[-51,-218,220,-194,-208,221]],"type":"Polygon","properties":{"name":"District of Levoca","shapeGroup":"SVK","gid":"SVK-2-67"},"id":"SVK-2-67"},{"arcs":[[-172,222,-187,-212,223,-213]],"type":"Polygon","properties":{"name":"District of Ilava","shapeGroup":"SVK","gid":"SVK-2-68"},"id":"SVK-2-68"},{"arcs":[[-11,224,225,-73]],"type":"Polygon","properties":{"name":"District of Tvrdo","shapeGroup":"SVK","gid":"SVK-2-69"},"id":"SVK-2-69"},{"arcs":[[-1,-166,-167,-115,-152,-52,-222,-207]],"type":"Polygon","properties":{"name":"District of Predov","shapeGroup":"SVK","gid":"SVK-2-70"},"id":"SVK-2-70"},{"arcs":[[-8,-66,-188,-223,-171,-57,-37,-98,-35]],"type":"Polygon","properties":{"name":"District of Pilina","shapeGroup":"SVK","gid":"SVK-2-71"},"id":"SVK-2-71"},{"arcs":[[-32,-92,-81,-102,226,227]],"type":"Polygon","properties":{"name":"District of Myjava","shapeGroup":"SVK","gid":"SVK-2-72"},"id":"SVK-2-72"},{"arcs":[[-33,-228,228,-210,-219,-158]],"type":"Polygon","properties":{"name":"District of Nova Mesto nad Va*","shapeGroup":"SVK","gid":"SVK-2-73"},"id":"SVK-2-73"},{"arcs":[[-28,-189,-64,-198]],"type":"Polygon","properties":{"name":"District of Turcianske Teplice","shapeGroup":"SVK","gid":"SVK-2-74"},"id":"SVK-2-74"},{"arcs":[[-10,-41,229,-225]],"type":"Polygon","properties":{"name":"District of Numestovo","shapeGroup":"SVK","gid":"SVK-2-75"},"id":"SVK-2-75"},{"arcs":[[-96,-146,-160,-220,-184]],"type":"Polygon","properties":{"name":"District of Partizonske","shapeGroup":"SVK","gid":"SVK-2-76"},"id":"SVK-2-76"},{"arcs":[[-6,-77,-201,-199,-62]],"type":"Polygon","properties":{"name":"District of Ruromberok","shapeGroup":"SVK","gid":"SVK-2-77"},"id":"SVK-2-77"},{"arcs":[[-195,-221,-217,230]],"type":"Polygon","properties":{"name":"District of Kermarok","shapeGroup":"SVK","gid":"SVK-2-78"},"id":"SVK-2-78"}]}}}