{"type":"Topology","arcs":[[[5039,429],[-95,86],[-60,-52],[11,-69],[-16,-108],[-30,-30],[-86,-15],[-21,-30],[-159,-32],[-8,59],[-34,35],[-5,82],[-53,24]],[[4483,379],[27,98]],[[4510,477],[36,-34],[13,-54],[68,14],[32,91],[-9,48],[57,25],[67,-55],[60,-18],[59,31],[64,12],[81,-79],[1,-29]],[[4303,1094],[-12,-57],[-95,-11],[53,-57],[29,-109]],[[4278,860],[-96,-56],[-11,-38]],[[4171,766],[-35,40],[-84,11],[-76,107],[-46,13],[-55,49],[39,147],[-34,58],[-44,-24],[-42,40]],[[3794,1207],[-29,9],[-4,88],[-55,154],[-16,69]],[[3690,1527],[58,-21],[73,12]],[[3821,1518],[62,-34],[70,19],[74,-95]],[[4027,1408],[52,-144],[196,-33],[31,-45],[-3,-92]],[[3794,1207],[-22,-124],[-89,-160],[-66,-33],[-41,4],[18,-73],[-14,-63]],[[3580,758],[-41,25],[-128,-16],[4,82],[-26,55],[-77,37],[42,109],[-8,27]],[[3346,1077],[21,76],[-80,31],[-35,42],[-64,112],[29,44]],[[3217,1382],[39,-33],[106,114],[32,52],[110,58]],[[3504,1573],[55,-34],[31,-56],[66,9],[34,35]],[[3580,758],[-17,-93],[10,-54],[-34,-57],[-45,-17],[-57,-61],[-51,-22],[-45,-46],[-38,14],[-67,-76],[-107,-48],[-33,7],[-70,-64],[-37,52],[-34,-14],[-95,44],[-36,-31],[-63,108],[-68,-19],[-54,-93],[4,-61],[-110,49],[-61,7],[-55,-29],[-57,30]],[[2360,284],[41,42],[-27,81],[-39,7],[-55,48],[60,168],[3,58],[-47,19],[-20,53],[75,128],[-59,45]],[[2292,933],[0,44]],[[2292,977],[59,1],[11,41],[80,-14],[65,-43],[172,23],[70,80],[87,37],[44,39],[57,-19],[85,32],[30,39],[-33,36],[73,37],[90,-128],[6,-68],[50,11],[48,-18],[60,14]],[[2360,284],[-151,20],[-68,64],[-23,1],[-100,101],[-28,1]],[[1990,471],[-67,48],[-59,116],[-123,-30],[-39,75],[-62,30],[-27,79],[-21,119]],[[1592,908],[132,98],[-63,59]],[[1661,1065],[101,-9],[53,11]],[[1815,1067],[0,-35],[114,0],[88,-96],[132,-11],[50,-68],[46,56],[47,20]],[[1990,471],[-46,-50],[-38,26],[-43,-44],[11,-47],[51,-23],[48,-92],[-32,-27],[-6,-51],[-45,-41],[-43,39],[-135,-10],[-55,-56],[-32,-77],[-101,13],[-91,33],[-76,43],[15,60],[-68,46],[-64,3],[-22,-24],[-61,-3],[-100,-44],[-35,8],[-49,-47],[-37,6]],[[936,112],[45,27],[0,50],[89,118],[-14,30],[-102,11]],[[954,348],[52,104],[6,82],[-29,81],[-329,398]],[[654,1013],[44,39]],[[698,1052],[429,-395],[87,-7],[41,32],[-8,51],[-70,32],[-34,73]],[[1143,838],[37,8],[108,-67],[92,-15],[131,19],[81,125]],[[936,112],[-64,56],[-130,37],[-74,65],[-7,38],[-54,73],[-94,79],[-218,338],[165,133],[25,11]],[[485,942],[257,-370],[38,-45],[-4,-44],[36,-59],[-11,-34],[93,-147],[47,15],[13,90]],[[485,942],[169,71]],[[1942,4903],[-49,-1],[-6,-55],[-94,-13],[-44,-97],[-61,-12],[-203,-129]],[[1485,4596],[-21,7]],[[1464,4603],[-68,45],[-11,107],[-106,62],[-88,23],[-36,55],[-72,-48],[-110,-45],[7,86]],[[980,4888],[31,30],[16,62],[-16,54],[30,81],[2,81],[40,25],[-8,78],[74,-28],[54,5],[82,-29],[47,-33],[55,5],[61,60],[76,-24],[85,43],[61,-19],[34,11],[98,-46],[85,-71],[61,-19],[56,-55]],[[2004,5099],[15,-149],[-62,1],[-15,-48]],[[2004,5099],[46,1],[43,45],[54,11],[60,-29],[77,-11],[85,-40],[43,-86],[0,-37],[59,-69]],[[2471,4884],[-25,11],[-80,-96],[13,-83]],[[2379,4716],[-23,19],[-75,-34]],[[2281,4701],[-31,41],[-81,61],[-143,53],[-84,47]],[[3388,4821],[-37,-58],[1,-47],[-43,-44],[6,-50],[-53,-34],[17,-85],[-10,-36]],[[3269,4467],[-62,-14],[-102,11],[-24,-48],[-58,-55],[-5,-51]],[[3018,4310],[-65,27],[-40,-10],[-87,12]],[[2826,4339],[-41,30],[-39,90],[29,77],[-4,79],[10,169],[-57,30]],[[2724,4814],[13,48]],[[2737,4862],[61,33],[85,22],[58,-25],[21,-37],[76,6],[38,26],[121,9],[87,34],[80,-17],[-15,-32],[39,-60]],[[2471,4884],[51,-17],[84,38],[74,10],[57,-53]],[[2724,4814],[-79,-28],[-45,-77],[-7,-78],[-52,-43],[-62,36],[-66,-66]],[[2413,4558],[-32,87],[-2,71]],[[3388,4821],[78,-8],[81,-44],[42,55],[53,-2],[56,-59],[7,-38],[73,-150]],[[3778,4575],[0,-23]],[[3778,4552],[-80,-25],[-14,-25]],[[3684,4502],[-53,-6],[-42,29],[-40,-16],[-53,23],[-127,13],[-24,-92],[-76,14]],[[4838,5190],[-67,-49],[-26,37],[-89,-9],[-73,65]],[[4583,5234],[29,185]],[[4612,5419],[82,-7],[69,-55],[-6,-41],[61,-55],[20,-71]],[[3778,4575],[42,22],[25,73],[8,107],[-7,73],[85,49],[58,-2],[89,24],[48,30]],[[4126,4951],[47,-13],[102,9],[74,-80],[26,-66]],[[4375,4801],[-70,-68],[32,-69],[-65,-26],[-62,-51],[-25,22],[-85,-91],[-91,17]],[[4009,4535],[-73,-32],[-71,9],[-15,-21],[-72,61]],[[4838,5190],[71,-1]],[[4909,5189],[54,-3],[8,-74],[79,4]],[[5050,5116],[-36,-141]],[[5014,4975],[26,-54],[-55,-18],[-5,-33],[-101,-5],[-52,-61],[-44,-1]],[[4783,4803],[-125,-2],[-47,23],[-86,-6]],[[4525,4818],[-88,43],[-62,-60]],[[4126,4951],[27,83],[83,63],[4,56],[86,51],[34,-27],[37,33],[81,-24],[105,48]],[[2413,4558],[52,-89],[-30,-66],[-42,-6],[5,-59],[-60,-35],[-9,-60]],[[2329,4243],[-71,-19],[2,62],[-160,-14],[-32,66],[-65,51],[-23,-26],[-47,93]],[[1933,4456],[70,66],[162,-10],[55,28],[65,110],[-4,51]],[[1933,4456],[-92,-4],[-36,49],[-130,55],[-112,-52],[-78,92]],[[2826,4339],[5,-36],[-22,-104],[41,-104]],[[2850,4095],[-133,-6],[-52,25],[-100,5],[-22,18]],[[2543,4137],[17,71],[-47,12],[-92,-9],[-92,32]],[[3743,3949],[-88,-122],[-39,-5],[-43,-75]],[[3573,3747],[-113,20]],[[3460,3767],[-27,3],[-37,107],[-16,128],[8,67],[74,100]],[[3462,4172],[66,27],[37,-17],[64,25],[8,33],[70,31]],[[3707,4271],[-18,-47],[48,-66],[-11,-51],[66,-67],[-14,-75],[-35,-16]],[[4009,4535],[-1,-160],[66,-81],[51,-18],[10,-62],[-12,-66],[98,5]],[[4221,4153],[-28,-86],[28,-44],[81,-1],[84,-34],[62,-3],[90,26],[158,-24]],[[4696,3987],[95,-62]],[[4791,3925],[65,-30],[26,-47],[-12,-67]],[[4870,3781],[-34,-11]],[[4836,3770],[-129,-9],[-32,-28],[-125,28],[-28,-27],[-73,-11],[-37,-26],[-66,20],[-21,41],[-91,9],[-10,-39],[-73,4]],[[4151,3732],[-45,35],[-99,-15],[-42,-58],[-63,-35],[-46,25]],[[3856,3684],[-22,40]],[[3834,3724],[-50,61],[3,65],[-44,99]],[[3707,4271],[39,46],[-56,63],[32,43],[-4,54],[-34,25]],[[3462,4172],[-46,8],[-60,-27],[-54,7]],[[3302,4160],[-80,22],[-47,-44],[-24,46],[8,42],[54,3],[10,106],[46,132]],[[3302,4160],[-43,-96],[16,-71],[-24,-31],[-28,-126],[48,-140]],[[3271,3696],[28,-81],[26,-27],[-86,-47]],[[3239,3541],[-51,126],[-39,-8],[-41,30],[-47,-2],[-43,58],[-33,-13],[-134,67],[-5,45],[32,48],[-41,38],[-67,13]],[[2770,3943],[-39,25],[-95,5],[-26,26],[-35,88],[-71,38]],[[2504,4125],[39,12]],[[2850,4095],[118,-42],[33,-56],[36,6],[19,114],[-26,-3],[-73,96],[57,36],[4,64]],[[2504,4125],[-44,-21],[-63,31],[-71,9],[-38,-34],[-10,-184],[-41,-4],[-158,73],[-108,-44],[-8,-29]],[[1963,3922],[-316,-54],[-109,12],[-88,53],[-62,-4],[-95,65],[-43,45],[-47,3],[-61,95]],[[1142,4137],[-33,73]],[[1109,4210],[67,72],[-15,101],[45,46],[70,25],[46,44],[112,37],[30,68]],[[1109,4210],[-84,0],[-111,-60],[-130,79],[-95,-55],[-157,62],[-71,-45],[29,-29],[-1,-57],[-31,-43],[-77,36],[-79,3],[-127,55],[-54,11],[-34,60]],[[87,4227],[49,27],[-9,43],[32,37],[41,-2],[35,62],[-40,93],[49,43],[55,-10],[53,45],[38,2],[93,83],[121,47],[39,52],[5,87],[39,47],[60,25],[76,1],[157,-21]],[[1142,4137],[-56,2],[-56,-47],[-41,-62],[-14,-64],[39,-94],[-109,16],[-56,-52],[-43,10],[-32,-121],[46,-20]],[[820,3705],[-217,-25],[-11,85],[-52,38],[-135,17],[-19,30],[-60,15],[-108,2],[7,-61],[-77,-19],[-41,30],[7,59],[37,35],[-55,45],[-42,125],[0,60],[-54,74],[87,12]],[[1963,3922],[42,-35],[-7,-86],[-32,-22],[-20,-68]],[[1946,3711],[-45,-77],[-79,3],[-14,-26],[-81,-1],[-43,-32],[-50,-75],[11,-54],[-31,-14],[13,-57],[50,-59],[-7,-109],[31,-61],[-45,-51]],[[1656,3098],[-38,-40],[-39,21],[13,-113],[-26,-64],[-1,-96]],[[1565,2806],[-54,49],[-62,31],[-21,66],[-56,72],[0,98],[37,31],[-44,48],[15,29],[-21,66],[-75,-2],[-28,-38]],[[1256,3256],[-35,48],[-58,5],[-94,81],[-30,-5],[-49,63],[1,51],[-44,107],[-31,-4]],[[916,3602],[-14,64],[-82,39]],[[779,2707],[-95,27],[-42,-33],[-29,-70],[-60,8],[-68,-17],[-46,63],[-38,2],[-81,124],[66,50],[37,89],[-1,53],[-38,11],[0,48],[107,44]],[[491,3106],[102,-45],[20,-42],[-7,-63],[42,-18],[30,-64],[30,10],[32,-60]],[[740,2824],[62,-71],[-23,-46]],[[1256,3256],[4,-68],[-55,-120],[-55,-33],[-108,96],[-57,15],[-37,-72],[-67,-60],[-32,-66],[-23,-94],[59,-72],[-52,-15],[-93,57]],[[491,3106],[43,73],[82,32],[101,113],[136,118],[34,69],[-4,47],[33,44]],[[1565,2806],[-42,-22]],[[1523,2784],[-36,-14],[66,-91],[-113,-37],[-89,25],[20,-114],[-40,-91],[-74,-87],[-57,-14],[9,-118],[73,-22],[88,-131],[65,-48],[41,5],[0,-58]],[[1476,1989],[-65,47],[-29,-50],[-66,-4],[-58,34],[-73,75],[-104,34]],[[1081,2125],[-4,0]],[[1077,2125],[-3,62],[-55,39],[61,99],[12,108],[-107,-13]],[[985,2420],[-49,25],[-38,-15],[-67,54]],[[831,2484],[-14,53],[25,100],[-22,92],[-41,-22]],[[985,2420],[-105,-138]],[[880,2282],[-99,6],[-32,30]],[[749,2318],[82,166]],[[1523,2784],[45,-34],[1,-55],[133,-87],[44,-67],[67,-45],[28,-44],[58,-8],[136,-97],[58,-31],[53,-92],[74,29],[35,-28],[122,-28]],[[2377,2197],[18,-44]],[[2395,2153],[-60,-35],[-25,-63],[-169,-56]],[[2141,1999],[-48,-2],[-61,40],[24,92],[-73,66],[-83,9],[-155,-91],[16,-29],[-115,-68],[-5,-58]],[[1641,1958],[-90,-22],[-54,18],[-21,35]],[[1641,1958],[18,-57],[32,-27]],[[1691,1874],[-39,-35],[-52,4],[-148,-53],[-103,0],[-116,-42],[-62,10],[-5,-44],[-63,12],[-46,-27]],[[1057,1699],[-124,118],[-144,-17],[0,20],[-89,38],[4,55]],[[704,1913],[145,1],[45,-19],[81,1],[22,90],[42,2],[42,39],[0,98]],[[704,1913],[-27,76],[-38,38],[34,135],[-3,51],[31,63],[48,42]],[[880,2282],[-53,-67],[-6,-50],[141,-49],[56,16],[59,-7]],[[1661,1065],[-86,61],[-44,47],[-39,72],[-37,30],[1,97],[-74,77],[-35,83],[-49,38],[-122,34],[-50,53],[-69,42]],[[1691,1874],[97,-91],[60,-16],[40,-38],[47,-13],[36,-60]],[[1971,1656],[1,-51],[-34,-38],[-82,-45],[46,-36],[-30,-59],[57,-56],[-35,-19],[-67,-117],[27,-40],[-3,-51],[-36,-77]],[[1656,3098],[35,-28],[64,-10],[20,69],[51,10],[50,62],[59,-72],[82,-52],[63,51]],[[2080,3128],[77,-49]],[[2157,3079],[71,-55],[4,-59],[67,-10],[11,-70],[65,-78],[53,-3]],[[2428,2804],[-30,-115],[-49,-62],[17,-76],[-27,-21],[-3,-57],[-42,-26],[11,-97],[62,-68],[10,-85]],[[2141,1999],[66,-119],[-45,-65],[-9,-81],[-35,-101]],[[2118,1633],[-77,55],[-70,-32]],[[1946,3711],[-8,-68],[54,-47],[41,18],[76,-3],[87,-36],[21,-40]],[[2217,3535],[-105,-211],[-34,-27],[-38,-86],[37,-81]],[[2077,3130],[3,-2]],[[2080,3128],[50,16],[27,-65]],[[2217,3535],[35,-2],[18,48],[158,59],[69,-6]],[[2497,3634],[132,19],[78,-49],[-44,-78],[-32,-5],[6,-78],[-27,-96],[85,-70],[4,-31]],[[2699,3246],[-57,-93],[5,-97],[-60,-93]],[[2587,2963],[-13,-3]],[[2574,2960],[-52,26],[-67,81],[-14,43],[-75,41],[-34,-22],[-196,62],[-56,-20],[-3,-41]],[[2770,3943],[-11,-44],[-56,-20],[16,-117],[-101,-20],[-36,9],[-86,-66],[1,-51]],[[2118,1633],[41,-44],[66,-17],[36,-38],[38,-118]],[[2299,1416],[-13,-35],[-62,-17],[-30,-101],[38,-11],[11,-75],[-23,-37],[40,-54],[32,-109]],[[2428,2804],[56,80],[51,-4],[39,80]],[[2587,2963],[4,-63]],[[2591,2900],[-9,-83],[50,12],[104,-73],[-76,-53],[2,-49],[30,-36],[-55,-40],[137,-65],[33,-61],[109,-130],[22,-85]],[[2938,2237],[5,-22],[-75,-170]],[[2868,2045],[-20,28],[-68,-18],[-22,53],[-40,-9],[-129,101],[-105,-34],[-22,25],[-67,-38]],[[2299,1416],[77,-26],[81,-46],[157,42],[-3,22],[62,57],[21,-43],[107,36],[44,60],[174,92]],[[3019,1610],[14,-68],[45,-18],[87,-97],[52,-45]],[[2868,2045],[-17,-131],[-21,-69],[-47,-36],[56,-97],[81,-95],[99,-7]],[[2591,2900],[76,-16],[87,8]],[[2754,2892],[-25,-63],[31,-43],[51,-19],[60,37],[65,-8],[82,44],[35,-4]],[[3053,2836],[63,-67],[42,-9]],[[3158,2760],[42,-104],[-49,-41]],[[3151,2615],[-76,-16],[-32,-82],[5,-53],[37,-112],[61,-144],[21,-17]],[[3167,2191],[-50,-21],[-49,30],[-53,66],[-43,1],[-34,-30]],[[3158,2760],[20,47],[77,49],[1,40],[-44,34]],[[3212,2930],[74,29],[66,-44]],[[3352,2915],[22,-69],[66,-14],[10,-47],[-98,-66],[12,-53],[37,-9]],[[3401,2657],[58,-132],[-17,-44],[25,-103],[-2,-70],[22,-51],[55,-42]],[[3542,2215],[-55,-51],[-52,4],[-35,-51],[-47,-12],[-39,58]],[[3314,2163],[-26,90],[24,46],[-3,130],[-82,24],[-59,67],[-30,59],[13,36]],[[2699,3246],[72,3],[21,45],[68,3],[33,-22],[80,-2],[47,-28]],[[3020,3245],[22,-59],[46,-4],[104,44],[56,-63],[33,11]],[[3281,3174],[50,-6],[-6,-44],[59,-87],[-25,-50],[30,-42],[-37,-30]],[[3212,2930],[-60,-4],[-34,-30],[6,-40],[-71,-20]],[[3053,2836],[9,101],[-45,48],[-55,-7],[-95,33],[-86,-42],[-46,-44],[19,-33]],[[3271,3696],[86,-8],[82,17]],[[3439,3705],[-9,-65],[39,-40],[-12,-57],[18,-80]],[[3475,3463],[-64,-63],[-75,1],[14,-127],[20,-44],[-80,-23],[-9,-33]],[[3020,3245],[32,42],[-30,61],[4,58],[60,29],[27,53],[88,20],[38,33]],[[3834,3724],[-143,-113]],[[3691,3611],[-44,12],[-1,44],[-73,80]],[[3691,3611],[12,-56],[-88,-79]],[[3615,3476],[-140,-13]],[[3439,3705],[21,62]],[[4151,3732],[-42,-36],[-28,-83],[-44,-38],[55,-71],[72,-34]],[[4164,3470],[17,-93],[-16,-33]],[[4165,3344],[-50,17],[-44,-16],[-15,-60],[-85,-27],[-16,-26],[-87,11]],[[3868,3243],[-5,40],[-71,26]],[[3792,3309],[-9,65],[52,108]],[[3835,3482],[30,42],[-30,98],[21,62]],[[3835,3482],[-69,-5],[-34,-47],[-96,-18]],[[3636,3412],[-21,64]],[[3792,3309],[-48,34],[-47,-3],[-61,72]],[[4165,3344],[34,-35],[85,4],[34,-68],[53,7]],[[4371,3252],[-14,-45],[-99,-20],[-14,-30]],[[4244,3157],[-196,5],[-75,-20],[-87,49],[-18,52]],[[4836,3770],[15,-83],[-50,-67],[-51,17],[-84,-39],[-104,5],[47,-57]],[[4609,3546],[-123,21],[-30,27],[-81,-44],[-63,37],[-73,-48],[-17,-61],[-58,-8]],[[4609,3546],[52,-61],[-29,-49]],[[4632,3436],[-48,-44],[-68,-19],[-13,-59],[-108,-29],[-24,-33]],[[4221,4153],[21,65],[42,45],[84,43],[92,90]],[[4460,4396],[23,20],[74,-70],[53,1],[28,-59],[40,-18],[55,14]],[[4733,4284],[34,-71]],[[4767,4213],[-2,-44],[-39,-43],[-33,-84],[3,-55]],[[4783,4803],[59,-28],[-14,-64],[18,-46]],[[4846,4665],[-41,-106]],[[4805,4559],[-7,-61],[-27,-25],[-12,-86],[18,-37],[-44,-66]],[[4460,4396],[1,67],[42,56],[-9,37],[54,73],[17,49],[-36,67],[-4,73]],[[4805,4559],[99,-64],[20,-59],[55,-45]],[[4979,4391],[-34,-66],[26,-34],[-113,-89],[-91,11]],[[4846,4665],[71,53],[53,4],[68,-72],[109,15],[4,-79]],[[5151,4586],[-6,-98],[10,-56],[31,-43]],[[5186,4389],[-52,-30],[-8,-72],[-64,-65]],[[5062,4222],[-5,79],[-78,90]],[[5062,4222],[10,-38],[-22,-59]],[[5050,4125],[-89,-33],[-57,-36],[1,-32],[-82,18],[15,-47],[-47,-70]],[[5050,4125],[31,-9],[37,-58],[74,-26]],[[5192,4032],[-20,-57],[-47,-17],[-36,-81],[-43,-53],[14,-108]],[[5060,3716],[-75,-37],[-45,-3],[-68,60],[-2,45]],[[5014,4975],[69,-18],[100,-65],[67,6],[122,-30],[70,-49]],[[5442,4819],[3,-112],[-31,-75],[6,-47],[-59,-22],[12,-98]],[[5373,4465],[-9,-5]],[[5364,4460],[-42,23],[-140,37],[-31,66]],[[5186,4389],[91,-61],[35,-79]],[[5312,4249],[37,-84],[61,-101],[38,-37]],[[5448,4027],[-71,-61],[-27,-79],[-46,-13]],[[5304,3874],[-5,37],[-53,73],[-54,48]],[[5448,4027],[25,-10]],[[5473,4017],[41,-54],[97,-45],[-44,-29],[0,-156],[-66,-49]],[[5501,3684],[-28,16],[-75,-35],[-82,26],[-17,41]],[[5299,3732],[15,63],[-10,79]],[[5299,3732],[-88,-40],[-36,32]],[[5175,3724],[-72,8],[-43,-16]],[[4244,3157],[38,-59],[71,11]],[[4353,3109],[2,-41],[-43,-25],[-10,-40],[42,-33],[16,-178]],[[4360,2792],[-24,-23]],[[4336,2769],[-66,17],[-49,69],[-33,-34],[-63,-17],[-27,-83],[-50,11],[-82,-11],[-31,43]],[[3935,2764],[-76,60],[-22,50],[-134,-64],[-26,-74]],[[3677,2736],[-76,60],[-118,-39],[20,-79],[-62,4],[-40,-25]],[[5373,4465],[95,-93],[45,-67],[28,-9]],[[5541,4296],[-2,-90],[-15,-59],[-56,-55],[38,-30],[-33,-45]],[[5312,4249],[32,67],[-4,102],[24,42]],[[5050,5116],[74,28],[44,41],[20,99],[-20,67],[22,52]],[[5190,5403],[61,-67],[44,40],[22,58],[173,67]],[[5490,5501],[6,-22],[98,-59],[-9,-87],[86,-55],[25,16],[62,-40]],[[5758,5254],[22,-29]],[[5780,5225],[-7,-59],[-81,-137],[-73,-20],[35,-50],[-16,-49],[-56,20],[9,-73],[-42,-59]],[[5549,4798],[-13,40],[-88,36],[-6,-55]],[[5549,4798],[4,-24],[75,-55],[58,40],[45,-36],[-25,-61],[49,-19]],[[5755,4643],[17,-119],[41,-89],[-40,-86]],[[5773,4349],[-38,-34],[-57,73],[-79,0],[-58,-92]],[[5190,5403],[17,37],[-58,94],[-65,14],[-41,57],[-61,22],[-70,81]],[[4912,5708],[106,120],[48,-41],[28,-110],[49,60],[-1,35],[69,95],[87,54],[68,0],[55,-34]],[[5421,5887],[69,-190],[35,-4],[40,-48]],[[5565,5645],[-49,6],[-25,-82],[-1,-68]],[[4612,5419],[51,141],[26,17],[49,116],[54,34]],[[4792,5727],[45,-122],[50,-8],[57,-127],[36,-152],[29,-11],[-57,-94],[-43,-24]],[[4792,5727],[64,-33],[56,14]],[[5421,5887],[82,71],[73,-44],[38,42],[54,-11]],[[5668,5945],[71,-197]],[[5739,5748],[-101,-113],[-73,10]],[[5668,5945],[70,-5],[48,-50],[122,-30],[85,25],[47,-5],[55,44],[79,-24],[51,26]],[[6225,5926],[-17,-56],[12,-50],[-18,-42],[22,-50],[-116,-28],[-44,-25],[-44,-157]],[[6020,5518],[-91,-42],[-117,-96],[-20,-65]],[[5792,5315],[-66,-1],[-4,111],[72,101],[57,105],[-29,54],[-37,7],[-46,56]],[[5792,5315],[-34,-61]],[[6610,5486],[-38,-75],[18,-47],[-55,-68],[7,-34],[-80,-44],[-3,-55],[-37,-54],[29,-33]],[[6451,5076],[-50,-3],[-50,-57],[-35,63],[-97,-8]],[[6219,5071],[-62,20]],[[6157,5091],[-10,52]],[[6147,5143],[45,101]],[[6192,5244],[33,48],[26,149],[84,51],[-21,83],[33,23],[72,-11],[76,-82],[60,9],[12,71]],[[6567,5585],[38,-42],[5,-57]],[[6225,5926],[27,-11],[184,13]],[[6436,5928],[91,-89],[11,-79],[24,-34],[-32,-67],[9,-64],[28,-10]],[[6192,5244],[-37,-1],[-7,112],[22,24],[-22,58],[-59,20],[-69,61]],[[6147,5143],[-57,20],[-55,-21],[-62,29],[-71,-46],[-64,71],[-58,29]],[[6610,5486],[-20,-92],[25,-41],[78,-1],[21,36],[69,28],[37,43],[96,26]],[[6916,5485],[24,-32],[-32,-103],[-8,-83],[43,-34]],[[6943,5233],[-57,-19],[-21,-39]],[[6865,5175],[-98,-12],[-30,14],[-169,-85],[-117,-16]],[[6436,5928],[68,-4],[51,-62],[55,-4],[-6,-43],[23,-71],[51,-11],[32,37],[52,-23],[49,27]],[[6811,5774],[2,-101],[26,-29],[66,-20],[-29,-47],[9,-57],[31,-35]],[[6217,3884],[-125,-42],[-4,-69],[29,-44],[-23,-36]],[[6094,3693],[-127,14],[-22,42],[-81,-58],[-35,42]],[[5829,3733],[5,118],[28,103],[-35,82],[5,64],[26,24],[-15,60],[22,117]],[[5865,4301],[43,18]],[[5908,4319],[101,-56],[31,-124],[100,-48],[30,29],[108,-83]],[[6278,4037],[-4,-53],[-65,-39],[8,-61]],[[5755,4643],[127,16]],[[5882,4659],[55,-38],[29,-74],[36,-13]],[[6002,4534],[-37,-55],[1,-47],[-58,-113]],[[5865,4301],[-92,48]],[[6157,5091],[-7,-52],[52,-65],[-24,-29]],[[6178,4945],[-86,-2],[-71,-19],[-50,-86],[-5,-71],[-71,-73],[-13,-35]],[[6178,4945],[-8,-83],[33,-53],[-12,-75],[94,-3],[6,-90],[-49,-25],[-3,-38],[-45,-43]],[[6194,4535],[-80,15],[-112,-16]],[[6194,4535],[24,-7],[12,-90],[88,-48]],[[6318,4390],[-27,-57],[47,-50]],[[6338,4283],[-22,-41],[46,-34],[-45,-61],[-33,2],[-6,-112]],[[5829,3733],[-38,-59],[-100,-9],[-40,26],[-137,-34]],[[5514,3657],[-15,9]],[[5499,3666],[2,18]],[[6735,4513],[-29,-29],[-104,4],[-21,44],[-84,31]],[[6497,4563],[-40,29],[13,100],[-3,108],[24,24]],[[6491,4824],[49,-14],[40,-52],[8,-53],[88,10],[45,-24],[-17,-77],[31,-101]],[[6865,5175],[14,-66]],[[6879,5109],[37,-17],[-14,-67],[59,-16],[57,-64],[126,-56],[43,-37],[65,-18],[69,-85]],[[7321,4749],[-50,-28],[63,-61],[-37,-100]],[[7297,4560],[-21,-43],[10,-63]],[[7286,4454],[-97,14],[-14,-111],[11,-21]],[[7186,4336],[-71,-27],[-35,42],[-206,36]],[[6874,4387],[-15,83],[-105,-10],[-19,53]],[[6491,4824],[-50,33],[-48,5],[-65,73],[-83,8],[5,46],[-31,82]],[[6318,4390],[38,86],[49,50],[38,-60],[43,48],[11,49]],[[6874,4387],[39,-152],[-24,-111]],[[6889,4124],[-69,-3]],[[6820,4121],[-62,39],[-92,-18],[-14,30],[-70,31],[-98,16],[-54,25],[-37,-10],[-55,49]],[[7286,4454],[42,-17],[80,27],[10,-58],[-17,-180],[-56,-96],[-46,-25]],[[7299,4105],[-98,3],[-20,27]],[[7181,4135],[35,9],[33,75],[-26,88],[-37,29]],[[7181,4135],[-33,32],[-62,-19],[-27,29],[-51,-30],[-42,19],[-30,-69]],[[6936,4097],[-47,27]],[[7321,4749],[114,64],[35,34]],[[7470,4847],[29,27],[98,-33],[38,53],[45,-31]],[[7680,4863],[41,-65],[7,-43],[46,-66]],[[7774,4689],[-30,-42],[-5,-143]],[[7739,4504],[-61,-3],[-25,24],[-89,25],[-41,-11],[-73,14],[-37,-10],[-116,17]],[[7739,4504],[6,-30],[-43,-54],[-31,-88]],[[7671,4332],[-21,-16],[-26,-99],[-63,-16],[-20,-39],[10,-99]],[[7551,4063],[-67,8]],[[7484,4071],[-134,5],[-51,29]],[[6943,5233],[108,36],[144,-39],[135,43],[13,-15]],[[7343,5258],[31,-92],[-53,-19],[48,-57],[47,-94]],[[7416,4996],[0,-2]],[[7416,4994],[-76,32],[-45,-32],[-81,-4],[-41,47],[-60,11],[-9,40],[-56,-1],[-12,-35],[-87,61],[-70,-4]],[[7343,5258],[130,-72]],[[7473,5186],[-14,-42],[28,-78],[-71,-70]],[[7416,4994],[14,-74],[40,-73]],[[7473,5186],[3,17]],[[7476,5203],[23,-65],[39,-4],[53,-44],[30,-51]],[[7621,5039],[79,22],[4,-52],[46,-29]],[[7750,4980],[-61,-24],[-9,-93]],[[7211,5633],[-60,27],[15,52],[-145,106],[-62,-26],[-77,22]],[[6882,5814],[5,78],[30,25],[-20,87],[38,8],[29,45],[45,8],[45,40],[84,-52]],[[7138,6053],[-4,-75],[73,-109]],[[7207,5869],[18,-91],[38,-97],[-48,-4],[-4,-44]],[[6811,5774],[71,40]],[[7211,5633],[115,1],[18,-76],[71,-29],[48,-53],[43,42],[44,12]],[[7550,5530],[26,-84],[-33,-32]],[[7543,5414],[-42,-51],[-79,-60],[18,-72],[36,-28]],[[7207,5869],[92,15],[-3,86],[51,11],[7,52],[60,-48],[65,33],[18,-59],[47,-30],[3,-36],[61,-65]],[[7608,5828],[-62,-141],[-1,-55],[29,-53]],[[7574,5579],[-24,-49]],[[7138,6053],[51,58],[46,2],[-11,66],[83,5],[62,-38],[87,-15],[51,20],[95,-4],[55,40]],[[7657,6187],[62,-46]],[[7719,6141],[-19,-35],[17,-47],[-53,-75],[36,-91]],[[7700,5893],[-93,-18],[1,-47]],[[7657,6187],[45,37],[91,31],[115,1],[150,-58],[96,-92],[54,-17]],[[8208,6089],[-65,-41],[-13,-58],[-44,-20],[-97,10]],[[7989,5980],[-162,37],[-46,34],[1,46],[-32,56],[-31,-12]],[[8208,6089],[75,-12],[64,-38],[21,-55],[73,-35]],[[8441,5949],[-109,-104],[-10,-95],[54,-13],[10,-44],[-21,-55]],[[8365,5638],[-35,-27],[-77,-11]],[[8253,5600],[-94,16]],[[8159,5616],[-68,35]],[[8091,5651],[-37,56],[31,105],[-113,75]],[[7972,5887],[17,93]],[[8441,5949],[15,-9]],[[8456,5940],[-6,-28],[130,-94],[74,-75]],[[8654,5743],[27,-36]],[[8681,5707],[-57,-4],[-53,-68]],[[8571,5635],[-49,-4],[-21,78],[-63,-39],[-26,-46],[-47,14]],[[7972,5887],[-41,10],[-15,-79],[-49,-48],[0,-43]],[[7867,5727],[-48,10]],[[7819,5737],[-62,29],[-15,130],[-42,-3]],[[8091,5651],[-48,-46],[-50,12],[-73,57]],[[7920,5674],[-13,49],[-40,4]],[[8159,5616],[-55,-28],[-51,-52],[-18,-67],[50,-92]],[[8085,5377],[-2,-20]],[[8083,5357],[-119,85],[-3,-26],[-62,-51]],[[7899,5365],[-49,69],[52,34],[-1,71],[-36,24],[9,84],[46,27]],[[8085,5377],[37,20],[42,-60],[78,35],[33,40]],[[8275,5412],[66,-109]],[[8341,5303],[-77,-10],[-54,-52],[-53,-16],[-14,-84]],[[8143,5141],[-41,24],[-19,55]],[[8083,5220],[26,38],[-26,99]],[[7819,5737],[-100,-108],[-97,-65],[-48,15]],[[8143,5141],[-5,-47]],[[8138,5094],[-84,-39],[-37,-72],[-53,-29],[-72,30],[-34,44],[-26,80],[-62,22],[-16,34]],[[7754,5164],[95,59]],[[7849,5223],[48,-37],[77,44],[57,-30],[52,20]],[[7543,5414],[77,1],[27,-56],[67,-42],[42,-73],[-44,-15],[24,-56]],[[7736,5173],[-106,-105],[-9,-29]],[[7736,5173],[18,-9]],[[8138,5094],[-10,-47],[29,-89]],[[8157,4958],[-27,-143],[16,-7]],[[8146,4808],[-21,-47],[-100,-32],[-24,-41]],[[8001,4688],[-62,-9],[-39,-41]],[[7900,4638],[-51,73],[-14,148],[-85,121]],[[7849,5223],[50,142]],[[7900,4638],[-67,-14],[-59,65]],[[8157,4958],[77,-52],[46,81],[46,39],[7,43],[45,77]],[[8378,5146],[65,-79],[-3,-78]],[[8440,4989],[-9,-60],[-43,-63]],[[8388,4866],[-41,24],[-66,-39],[-30,-59]],[[8251,4792],[-105,16]],[[8251,4792],[61,-230]],[[8312,4562],[-34,-25],[-77,-16]],[[8201,4521],[-46,36],[-54,-5],[3,81],[-63,9],[-40,46]],[[8341,5303],[40,-52]],[[8381,5251],[-9,-13]],[[8372,5238],[6,-92]],[[8372,5238],[97,-5],[69,-49],[143,10],[28,-52]],[[8709,5142],[-16,-43],[24,-46],[-77,-103],[-74,28],[-12,-65],[-36,16],[-40,59],[-38,1]],[[8253,5600],[-4,-55],[-29,-43],[8,-40],[47,-50]],[[8571,5635],[26,-43],[12,-100],[-47,3],[-4,-111]],[[8558,5384],[-110,30],[-33,-55],[-34,-108]],[[8681,5707],[61,-21]],[[8742,5686],[3,-55],[41,-38],[39,-2],[14,-78],[33,-20]],[[8872,5493],[-10,-126],[-17,-30],[-113,6],[-50,-15],[-64,65],[-60,-9]],[[8742,5686],[53,-8]],[[8795,5678],[153,-85],[24,-28]],[[8972,5565],[-43,-50],[-57,-22]],[[8795,5678],[30,-9],[96,122],[43,-6],[26,64],[46,7],[54,65]],[[9090,5921],[91,-38],[40,53],[48,-39]],[[9269,5897],[-41,-55],[-58,-26],[24,-52],[102,-24],[-23,-73]],[[9273,5667],[-9,-21]],[[9264,5646],[-81,32],[-52,-101],[25,-56]],[[9156,5521],[-64,-72]],[[9092,5449],[-120,116]],[[8654,5743],[81,133],[-61,62],[-9,73],[11,87]],[[8676,6098],[116,5],[52,31],[53,-2]],[[8897,6132],[47,-81],[-20,-61],[123,-68],[43,-1]],[[9264,5646],[-38,-98],[-33,13],[-37,-40]],[[9269,5897],[47,-19]],[[9316,5878],[74,-80],[8,-41],[57,-28]],[[9455,5729],[56,-57]],[[9511,5672],[-48,-12],[-64,25],[-35,-84]],[[9364,5601],[-91,66]],[[9511,5672],[23,-40],[73,-68],[-88,-37],[-44,-51],[-55,-30],[-63,16]],[[9357,5462],[7,139]],[[8778,6758],[-21,-88],[14,-39],[-79,-183],[-27,-15],[-111,46],[-13,-33]],[[8541,6446],[-46,18],[25,231]],[[8520,6695],[63,23],[64,43],[53,-9],[48,18]],[[8748,6770],[30,-12]],[[8676,6098],[-45,9],[-38,48],[-67,1]],[[8526,6156],[-50,98],[45,28],[15,70],[-19,60]],[[8517,6412],[24,34]],[[8778,6758],[40,-3],[51,-60],[63,-112],[50,4],[30,-77],[-47,-29],[-42,-65],[71,-30],[9,-27]],[[9003,6359],[-51,-118],[-41,35],[-37,-60],[23,-84]],[[8526,6156],[-32,-46],[-33,-2]],[[8461,6108],[-58,96],[-89,98],[-27,100],[16,28],[-3,82]],[[8300,6512],[59,-30],[42,-63],[48,15],[68,-22]],[[8300,6512],[29,167],[-40,85],[34,39],[36,-23],[63,51],[99,-12]],[[8521,6819],[-13,-98],[12,-26]],[[8456,5940],[14,143],[-9,25]],[[8748,6770],[19,62],[-4,71]],[[8763,6903],[68,-12],[61,17]],[[8892,6908],[160,-109],[25,-35],[73,-21],[47,-112],[-43,-112]],[[9154,6519],[-43,-37],[-9,-47],[-65,-91],[-34,15]],[[9329,6622],[-52,11],[47,120],[-47,76],[24,14],[-42,71],[21,39]],[[9280,6953],[13,-34],[54,-15],[35,-56],[34,11],[33,-83],[-33,-38],[-1,-86],[-86,-30]],[[8521,6819],[41,69],[65,56],[62,22],[74,-63]],[[8892,6908],[32,41],[96,14],[56,39],[102,-23],[83,5],[19,-31]],[[9329,6622],[-2,-95]],[[9327,6527],[-56,-27],[-73,-3],[-44,22]],[[9316,5878],[31,159],[62,52],[47,-22]],[[9456,6067],[14,-34],[81,-68],[34,3]],[[9585,5968],[-26,-38],[16,-76]],[[9575,5854],[-48,-30],[-72,-95]],[[9456,6067],[50,105]],[[9506,6172],[41,-30],[135,-10],[-9,-75],[13,-48],[-17,-57],[-84,16]],[[9327,6527],[56,0],[-36,-115],[44,-27],[45,-60],[2,-55],[37,-37],[39,26],[26,-55],[-34,-32]],[[9575,5854],[70,-51],[39,-70],[66,-10],[120,-156],[-1,-60],[81,-4],[33,-60],[4,-86],[40,-17],[-26,-57],[-3,-68],[94,-63],[51,-21],[37,-47],[-135,-12],[-13,27],[-81,67],[-50,11],[-72,96],[-62,2],[-83,70],[-54,-28],[-66,46],[-21,78],[-43,-24],[-94,-23]],[[9406,5394],[-56,29],[7,39]],[[6820,4121],[-84,-113],[-95,-44],[-78,-87],[-4,-71],[64,-119],[29,-23],[2,-77],[86,-64],[35,44],[86,-23]],[[6861,3544],[-33,-119]],[[6828,3425],[-50,-11],[-25,-97],[-44,-19],[-47,49],[-43,-94],[15,-39],[60,-43],[-13,-51]],[[6681,3120],[-86,-16],[-51,14],[-88,-19]],[[6456,3099],[-120,16],[-38,24]],[[6298,3139],[51,62],[2,123]],[[6351,3324],[63,-16],[5,36],[49,26],[71,-2],[8,83],[-71,18],[-33,60],[-131,-90]],[[6312,3439],[-38,64],[57,43],[-6,81],[-38,34]],[[6287,3661],[-19,51],[18,31],[15,117],[-84,24]],[[6936,4097],[28,-66],[20,-106],[89,-150]],[[7073,3775],[-81,-58],[-45,-87],[-3,-55],[-83,-31]],[[6351,3324],[-39,115]],[[6094,3693],[8,-126],[74,17],[22,44],[89,33]],[[6298,3139],[-55,-10],[-88,13],[-49,-33],[-94,27],[-19,52],[-44,-34],[-58,5],[-40,42],[-67,-5],[-44,-37]],[[5740,3159],[-89,72]],[[5651,3231],[-67,55],[57,14],[59,-37],[35,76],[-5,49],[-34,57],[-41,24],[5,38],[-88,76],[-58,74]],[[6828,3425],[89,-44],[27,-58],[87,-14],[29,-67],[-70,-59],[46,-85],[22,15]],[[7058,3113],[24,-139],[54,-26],[93,-19]],[[7229,2929],[-120,-85],[-32,-41],[-76,-30],[49,136],[-157,-31]],[[6893,2878],[-16,135],[-33,3],[-23,63],[-55,-9],[-85,50]],[[5886,2427],[-51,-43],[32,-89],[-75,-106]],[[5792,2189],[-71,-47],[-101,44],[-25,-7]],[[5595,2179],[-59,26],[-72,84]],[[5464,2289],[25,12],[0,82]],[[5489,2383],[25,51],[-39,48],[2,46]],[[5477,2528],[61,16],[-12,34],[69,11],[35,87]],[[5630,2676],[53,-105],[115,-113],[77,-20]],[[5875,2438],[11,-11]],[[6456,3099],[-18,-15],[3,-132],[18,-72],[28,-22],[11,-63],[-23,-59],[-124,-62],[1,-53],[-77,-140]],[[6275,2481],[-58,38],[-37,55],[-54,19],[2,-58],[-82,54],[-38,-85],[-42,44],[-19,-49],[-81,-30],[9,-31]],[[5630,2676],[50,70],[-91,-8],[-22,42],[-67,39],[-25,54]],[[5475,2873],[-37,67],[2,38]],[[5440,2978],[39,-11],[113,36],[62,-27],[135,-29],[22,-43],[99,55],[-36,44],[-63,2],[-1,61],[-26,62],[-44,31]],[[5477,2528],[-81,28],[-65,89],[-36,-15],[-36,50]],[[5259,2680],[-17,124],[91,-1],[9,44],[107,38],[26,-12]],[[5886,2427],[87,-95],[65,2],[-21,-57],[24,-71],[49,21],[-10,-76]],[[6080,2151],[-79,-46],[-35,-52]],[[5966,2053],[-35,50],[-53,-35],[-32,13],[-54,108]],[[5651,3231],[-45,-34],[-56,-1],[-67,37]],[[5483,3233],[-52,96],[-31,-2],[-57,136],[39,59],[39,10],[-20,65],[98,69]],[[5483,3233],[-4,-68],[-57,-12]],[[5422,3153],[-14,40],[-54,26],[-49,-6],[-153,96]],[[5152,3309],[2,6]],[[5154,3315],[53,15],[54,53],[-22,89],[-106,143],[49,12],[28,36],[-35,61]],[[5422,3153],[-49,-56]],[[5373,3097],[-91,-24],[-72,-52],[-64,11],[-10,166],[36,55],[-20,56]],[[5154,3315],[-28,30],[-85,-58],[-22,-42],[-56,-24],[-142,21],[0,88],[-23,69],[-109,3],[-57,34]],[[5373,3097],[14,-92],[53,-27]],[[5259,2680],[-54,-28],[-4,-43],[-47,-5]],[[5154,2604],[-39,33],[-52,-3],[-67,45]],[[4996,2679],[-12,33],[-61,-2],[10,87],[-23,18],[18,66],[-6,108],[-34,16],[-67,80],[-66,-9],[-65,-42],[-81,-23],[-56,34],[-36,-34],[-73,16],[-61,70],[-30,12]],[[4996,2679],[-26,-57],[-49,-18]],[[4921,2604],[-43,6],[-86,136],[-14,58],[-58,8],[-11,-59],[-131,51],[-123,14],[-27,-39],[-68,13]],[[5595,2179],[-19,-37],[7,-59],[-20,-32],[-55,-8],[15,-54],[-22,-66],[-47,-16]],[[5454,1907],[-30,-41]],[[5424,1866],[-66,75],[-55,5],[-49,82]],[[5254,2028],[-7,106],[23,30],[55,1],[12,55],[56,-15],[24,61],[47,23]],[[5489,2383],[-48,-20],[-44,65],[-71,-11],[-76,33],[-37,52],[2,50],[-61,52]],[[5254,2028],[-72,-14],[-31,42],[-55,-52],[-64,13],[-57,145],[-75,-45],[-19,22],[-115,17]],[[4766,2156],[-50,77],[71,105],[-17,45],[22,71],[-2,68],[86,35],[45,47]],[[5479,1282],[-72,23],[-69,-31],[-16,-85],[-44,-22],[-27,-46],[32,-36],[-38,-58]],[[5245,1027],[-30,27],[-20,82],[3,98],[-30,10],[-119,132],[8,133],[48,66],[-12,83]],[[5093,1658],[73,132],[79,-9],[30,-50],[51,14]],[[5326,1745],[5,-51],[76,-92],[-17,-27],[116,-88]],[[5506,1487],[35,-78],[-22,-65],[-41,-12],[1,-50]],[[5479,1282],[80,23],[89,7],[57,-49],[21,28],[78,35],[40,46]],[[5844,1372],[68,-103],[49,-30],[2,-65],[73,-74],[-33,-37],[-61,-17],[-59,-125],[-55,3]],[[5828,924],[-124,47],[-22,24],[-81,-41],[-36,-91],[-103,-22],[-102,46]],[[5360,887],[-55,27],[-60,113]],[[5454,1907],[73,-36],[14,-65],[-32,-76],[17,-85],[-41,-48],[48,-68],[-27,-42]],[[5326,1745],[60,47],[38,74]],[[5093,1658],[-85,10],[-61,32],[-63,-20],[-31,-42],[11,-44],[-41,-49],[-71,18],[-37,59],[-107,-14]],[[4608,1608],[-55,22],[-33,127],[19,54]],[[4539,1811],[44,14],[52,-27],[54,1],[22,34],[-2,154],[-38,49],[-10,50],[118,-2],[-13,72]],[[4608,1608],[37,-73],[-60,-56]],[[4585,1479],[-167,146],[-60,77],[-16,44],[-88,63],[-35,59],[-50,42]],[[4169,1910],[-56,98],[-114,82],[25,32],[-7,58]],[[4017,2180],[42,2],[29,63],[33,21],[51,-50],[110,-45],[87,54]],[[4369,2225],[57,-63],[-53,-81],[6,-113],[45,3],[51,-74],[-12,-44],[76,-42]],[[4336,2769],[-43,-54],[-4,-47],[-44,-40],[-23,-50],[43,-20],[50,-80],[26,-101],[37,-41],[-33,-53],[24,-58]],[[4017,2180],[-50,66],[10,21],[-80,75]],[[3897,2342],[-42,106],[23,132],[-38,125],[94,31],[1,28]],[[3677,2736],[50,-33],[30,-84],[16,-133],[-43,-55],[7,-51],[45,9],[-2,-71],[63,-31]],[[3843,2287],[20,-59],[-18,-61],[-55,-41],[-105,77],[-103,42],[-40,-30]],[[3897,2342],[-54,-55]],[[4027,1408],[35,13],[59,154],[20,20],[-19,99],[-115,12],[-21,20],[-108,30],[-36,34]],[[3842,1790],[30,30],[171,5],[87,75],[39,10]],[[4585,1479],[-22,-67],[-126,-146],[45,-107],[-50,-128],[-73,12],[-56,51]],[[3821,1518],[-41,73],[18,68],[-21,119]],[[3777,1778],[65,12]],[[3777,1778],[-43,41],[-15,67],[-52,3],[-19,61],[-59,72]],[[3589,2022],[-32,74],[18,86],[-33,33]],[[3504,1573],[62,38],[-37,52],[-74,20],[-32,31],[-12,169],[49,51],[129,88]],[[3314,2163],[-31,6],[-30,-75],[-25,10],[-61,87]],[[7058,3113],[47,18],[46,64]],[[7151,3195],[68,6],[57,-66],[170,-89]],[[7446,3046],[-54,-16],[-42,-37],[-79,7],[-42,-71]],[[7446,3046],[40,-51],[-52,-44],[-4,-66],[-29,-34],[23,-35],[-40,-58],[30,-159],[-13,-203],[-84,-74],[31,-118],[-37,-54],[65,-49],[4,-47],[-29,-32],[-79,-4],[-73,-101],[-27,47],[-79,50],[-85,33],[-30,30],[-31,-47],[-80,-8]],[[6867,2022],[-25,33],[-75,32],[-47,103],[12,137],[56,-8],[64,33],[64,66],[25,78],[-17,102],[18,56],[-25,43],[37,91],[-54,10],[-7,80]],[[8312,4562],[38,40],[55,14]],[[8405,4616],[-21,-108],[47,-47],[16,-61]],[[8447,4400],[-47,-72],[-19,-59],[-41,-8],[-78,24],[-16,-25]],[[8246,4260],[-10,78],[-35,45],[22,55],[-31,35],[9,48]],[[8388,4866],[82,-16],[-16,-90],[66,-84]],[[8520,4676],[-7,-17]],[[8513,4659],[-49,-1],[-59,-42]],[[6445,1783],[-15,67],[-64,35],[-18,55],[25,65],[-50,66],[50,28],[-10,126]],[[6363,2225],[68,34],[94,0],[-6,-123],[38,-48],[47,-20],[44,-101],[32,-16]],[[6680,1951],[-24,-49],[15,-92],[-42,-22],[-129,13],[-55,-18]],[[4510,477],[-126,131],[-97,55],[33,60],[-27,16],[-15,121]],[[5360,887],[5,-75],[33,-39],[-21,-33],[1,-62],[61,-13],[5,-62],[-90,-8],[-23,-63],[34,-72],[78,50],[40,9],[33,-35],[-16,-45],[-42,4],[-98,-61],[-19,-45]],[[5341,337],[-96,-32],[-42,55],[-85,-1],[-79,70]],[[6867,2022],[-5,-62],[-50,-39],[-61,4],[-27,48],[-44,-22]],[[6363,2225],[-45,28],[-51,-15]],[[6267,2238],[-46,26],[33,39],[-10,132],[31,46]],[[9092,5449],[93,-73]],[[9185,5376],[-76,-101],[36,-19],[-9,-65]],[[9136,5191],[-32,-50]],[[9104,5141],[-91,-37],[-14,-51],[-83,1],[-51,75],[-24,63],[-66,-79],[-66,29]],[[5844,1372],[77,79],[63,12]],[[5984,1463],[31,-91],[37,17],[88,-99],[34,-77],[23,7],[-27,92],[46,35],[22,60],[55,-2],[18,-129],[92,-96],[12,-66],[34,-17],[-51,-61],[-125,45],[6,-40],[-41,-27],[-45,9],[-67,-16],[12,-83],[-50,-8],[-49,-39],[65,-90]],[[6104,787],[-58,-69],[-32,60],[-41,-15],[-44,28],[-36,54],[-81,33],[16,46]],[[5966,2053],[38,-139],[39,-5],[31,-95],[70,-56],[20,-133]],[[6164,1625],[-180,-162]],[[9104,5141],[57,-106],[34,-172]],[[9195,4863],[-30,-44],[-55,-12],[-14,57],[-104,-33],[46,-84],[-11,-88],[-28,-29]],[[8999,4630],[-111,32],[-58,56],[-63,10],[-151,-76],[-96,24]],[[4483,379],[-64,35],[-147,125],[-113,3],[12,86],[36,48],[-36,90]],[[8058,4176],[-147,-68]],[[7911,4108],[-23,41],[-66,10],[-12,53],[-53,59]],[[7757,4271],[16,117],[25,79],[31,-20],[59,43],[61,-34],[46,-3],[52,-93],[-25,-58],[29,-53],[7,-73]],[[7073,3775],[35,-32],[55,-7],[16,-60]],[[7179,3676],[-9,-44],[-60,-25],[-35,-47],[36,-41],[-54,-47],[52,-49],[-30,-101],[72,-127]],[[9185,5376],[106,-72],[40,3]],[[9331,5307],[-38,-60],[-57,20],[-56,-4],[3,-51],[-47,-21]],[[7551,4063],[22,-53],[100,20]],[[7673,4030],[32,-80],[-50,-127],[-93,-44],[-6,57],[-168,16],[-85,23]],[[7303,3875],[2,56],[43,21],[30,75],[106,44]],[[7303,3875],[-90,-50],[8,-122],[-42,-27]],[[9195,4863],[15,-64],[102,-104],[-19,-92],[-170,8],[-43,29],[-81,-10]],[[8246,4260],[-24,-47],[-151,-58],[-13,21]],[[7757,4271],[-86,61]],[[8513,4659],[-18,-38],[70,-82],[16,-92],[-77,-52],[-57,5]],[[9406,5394],[14,-63],[-89,-24]],[[6104,787],[15,-241],[37,-19],[57,-101],[97,-76],[74,-31],[-82,-55],[-44,-100],[-59,-18],[-170,65],[-98,-64],[-46,-78],[-9,-49],[-117,8],[-70,-28],[-60,40],[-30,66],[-46,13],[-62,73],[-60,25],[-5,45],[-41,53],[-44,22]],[[6080,2151],[77,-9],[110,96]],[[6445,1783],[-73,-65],[-96,-30],[-63,-47],[-49,-16]],[[7911,4108],[-10,-38],[-107,-26],[-121,-14]],[[698,1052],[36,33],[356,-254],[53,7]]],"transform":{"scale":[0.0003148755500982317,0.00020772226506712388],"translate":[13.3754696,45.422199]},"objects":{"SVN":{"type":"GeometryCollection","geometries":[{"arcs":[[0,1,2]],"type":"Polygon","properties":{"name":"Kostel","shapeGroup":"SVN","gid":"SVN-2-0"},"id":"SVN-2-0"},{"arcs":[[3,4,5,6,7,8,9]],"type":"Polygon","properties":{"name":"Loski Potok","shapeGroup":"SVN","gid":"SVN-2-1"},"id":"SVN-2-1"},{"arcs":[[-7,10,11,12,13,14]],"type":"Polygon","properties":{"name":"Loska Dolina","shapeGroup":"SVN","gid":"SVN-2-2"},"id":"SVN-2-2"},{"arcs":[[-12,15,16,17,18]],"type":"Polygon","properties":{"name":"Ilirska Bistrica","shapeGroup":"SVN","gid":"SVN-2-3"},"id":"SVN-2-3"},{"arcs":[[-17,19,20,21,22,23]],"type":"Polygon","properties":{"name":"Hrpelje - Kozina","shapeGroup":"SVN","gid":"SVN-2-4"},"id":"SVN-2-4"},{"arcs":[[-21,24,25,26,27,28,29]],"type":"Polygon","properties":{"name":"Koper / Capodistria","shapeGroup":"SVN","gid":"SVN-2-5"},"id":"SVN-2-5"},{"arcs":[[-26,30,31]],"type":"Polygon","properties":{"name":"Piran / Pirano","shapeGroup":"SVN","gid":"SVN-2-6"},"id":"SVN-2-6"},{"arcs":[[-27,-32,32]],"type":"Polygon","properties":{"name":"Izola / Isola","shapeGroup":"SVN","gid":"SVN-2-7"},"id":"SVN-2-7"},{"arcs":[[33,34,35,36,37]],"type":"Polygon","properties":{"name":"Kranjska Gora","shapeGroup":"SVN","gid":"SVN-2-8"},"id":"SVN-2-8"},{"arcs":[[-38,38,39,40,41]],"type":"Polygon","properties":{"name":"Jesenice","shapeGroup":"SVN","gid":"SVN-2-9"},"id":"SVN-2-9"},{"arcs":[[42,43,44,45,46,47]],"type":"Polygon","properties":{"name":"Trsic","shapeGroup":"SVN","gid":"SVN-2-10"},"id":"SVN-2-10"},{"arcs":[[-40,48,-47,49,50]],"type":"Polygon","properties":{"name":"Tirovnica","shapeGroup":"SVN","gid":"SVN-2-11"},"id":"SVN-2-11"},{"arcs":[[-43,51,52,53,54]],"type":"Polygon","properties":{"name":"Jezersko","shapeGroup":"SVN","gid":"SVN-2-12"},"id":"SVN-2-12"},{"arcs":[[55,56,57]],"type":"Polygon","properties":{"name":"Mezica","shapeGroup":"SVN","gid":"SVN-2-13"},"id":"SVN-2-13"},{"arcs":[[-53,58,59,60,61]],"type":"Polygon","properties":{"name":"Solcava","shapeGroup":"SVN","gid":"SVN-2-14"},"id":"SVN-2-14"},{"arcs":[[-56,62,63,64,65,66,67,-60,68]],"type":"Polygon","properties":{"name":"Crna na Koroakem","shapeGroup":"SVN","gid":"SVN-2-15"},"id":"SVN-2-15"},{"arcs":[[-41,-51,69,70,71]],"type":"Polygon","properties":{"name":"Bled","shapeGroup":"SVN","gid":"SVN-2-16"},"id":"SVN-2-16"},{"arcs":[[-34,-42,-72,72]],"type":"Polygon","properties":{"name":"Gorje","shapeGroup":"SVN","gid":"SVN-2-17"},"id":"SVN-2-17"},{"arcs":[[-46,73,74,75,-70,-50]],"type":"Polygon","properties":{"name":"Radovljica","shapeGroup":"SVN","gid":"SVN-2-18"},"id":"SVN-2-18"},{"arcs":[[76,77,78,79,80]],"type":"Polygon","properties":{"name":"Cerklje na Gorenjskem","shapeGroup":"SVN","gid":"SVN-2-19"},"id":"SVN-2-19"},{"arcs":[[-54,-62,81,82,83,84,85,86,87,88,89,-81,90]],"type":"Polygon","properties":{"name":"Kamnik","shapeGroup":"SVN","gid":"SVN-2-20"},"id":"SVN-2-20"},{"arcs":[[-55,-91,-80,91,92]],"type":"Polygon","properties":{"name":"Preddvor","shapeGroup":"SVN","gid":"SVN-2-21"},"id":"SVN-2-21"},{"arcs":[[-44,-93,93,94,95,96,97,-75,98]],"type":"Polygon","properties":{"name":"Kranj","shapeGroup":"SVN","gid":"SVN-2-22"},"id":"SVN-2-22"},{"arcs":[[-45,-99,-74]],"type":"Polygon","properties":{"name":"Naklo","shapeGroup":"SVN","gid":"SVN-2-23"},"id":"SVN-2-23"},{"arcs":[[-35,-73,-71,-76,-98,99,100,101,102]],"type":"Polygon","properties":{"name":"Bohinj","shapeGroup":"SVN","gid":"SVN-2-24"},"id":"SVN-2-24"},{"arcs":[[-36,-103,103,104]],"type":"Polygon","properties":{"name":"Bovec","shapeGroup":"SVN","gid":"SVN-2-25"},"id":"SVN-2-25"},{"arcs":[[-102,105,106,-104]],"type":"Polygon","properties":{"name":"Kobarid","shapeGroup":"SVN","gid":"SVN-2-26"},"id":"SVN-2-26"},{"arcs":[[-101,107,108,109,110,111,112,-106]],"type":"Polygon","properties":{"name":"Tolmin","shapeGroup":"SVN","gid":"SVN-2-27"},"id":"SVN-2-27"},{"arcs":[[113,114,115]],"type":"Polygon","properties":{"name":"Brda","shapeGroup":"SVN","gid":"SVN-2-28"},"id":"SVN-2-28"},{"arcs":[[-112,116,-115,117]],"type":"Polygon","properties":{"name":"Kanal","shapeGroup":"SVN","gid":"SVN-2-29"},"id":"SVN-2-29"},{"arcs":[[-111,118,119,120,121,122,123,124,-116,-117]],"type":"Polygon","properties":{"name":"Nova Gorica","shapeGroup":"SVN","gid":"SVN-2-30"},"id":"SVN-2-30"},{"arcs":[[-124,125,126,127]],"type":"Polygon","properties":{"name":"Nempeter-Vrtojba","shapeGroup":"SVN","gid":"SVN-2-31"},"id":"SVN-2-31"},{"arcs":[[-120,128,129,130,131,132]],"type":"Polygon","properties":{"name":"Ajdovtcina","shapeGroup":"SVN","gid":"SVN-2-32"},"id":"SVN-2-32"},{"arcs":[[-121,-133,133,134,135,136]],"type":"Polygon","properties":{"name":"Komen","shapeGroup":"SVN","gid":"SVN-2-33"},"id":"SVN-2-33"},{"arcs":[[-122,-137,137,-127,138]],"type":"Polygon","properties":{"name":"Miren-Kostanjevica","shapeGroup":"SVN","gid":"SVN-2-34"},"id":"SVN-2-34"},{"arcs":[[-123,-139,-126]],"type":"Polygon","properties":{"name":"Rence-Vogrsko","shapeGroup":"SVN","gid":"SVN-2-35"},"id":"SVN-2-35"},{"arcs":[[-23,139,-135,140,141]],"type":"Polygon","properties":{"name":"Senana","shapeGroup":"SVN","gid":"SVN-2-36"},"id":"SVN-2-36"},{"arcs":[[-110,142,143,144,145,-129,-119]],"type":"Polygon","properties":{"name":"Idrija","shapeGroup":"SVN","gid":"SVN-2-37"},"id":"SVN-2-37"},{"arcs":[[-132,146,147,-141,-134]],"type":"Polygon","properties":{"name":"Vipava","shapeGroup":"SVN","gid":"SVN-2-38"},"id":"SVN-2-38"},{"arcs":[[-109,148,149,150,-143]],"type":"Polygon","properties":{"name":"Cerkno","shapeGroup":"SVN","gid":"SVN-2-39"},"id":"SVN-2-39"},{"arcs":[[[-144,151]],[[-150,152,153,154,155,156]]],"type":"MultiPolygon","properties":{"name":"Gorenja vas-Poljane","shapeGroup":"SVN","gid":"SVN-2-40"},"id":"SVN-2-40"},{"arcs":[[-97,157,-153,-149,-108,-100]],"type":"Polygon","properties":{"name":"Gelezniki","shapeGroup":"SVN","gid":"SVN-2-41"},"id":"SVN-2-41"},{"arcs":[[-18,-24,-142,-148,158,159]],"type":"Polygon","properties":{"name":"Divaca","shapeGroup":"SVN","gid":"SVN-2-42"},"id":"SVN-2-42"},{"arcs":[[-130,-146,160,-156,161,162,163,164]],"type":"Polygon","properties":{"name":"Logatec","shapeGroup":"SVN","gid":"SVN-2-43"},"id":"SVN-2-43"},{"arcs":[[-13,-19,-160,165,166]],"type":"Polygon","properties":{"name":"Pivka","shapeGroup":"SVN","gid":"SVN-2-44"},"id":"SVN-2-44"},{"arcs":[[-131,-165,167,-166,-159,-147]],"type":"Polygon","properties":{"name":"Postojna","shapeGroup":"SVN","gid":"SVN-2-45"},"id":"SVN-2-45"},{"arcs":[[-163,168,169,170,171,172,173]],"type":"Polygon","properties":{"name":"Vrhnika","shapeGroup":"SVN","gid":"SVN-2-46"},"id":"SVN-2-46"},{"arcs":[[-172,174,175,176,177,178,179]],"type":"Polygon","properties":{"name":"Brezovica","shapeGroup":"SVN","gid":"SVN-2-47"},"id":"SVN-2-47"},{"arcs":[[-155,180,181,182,-176,183,184,-169,-162]],"type":"Polygon","properties":{"name":"Dobrova-Polhov Gradec","shapeGroup":"SVN","gid":"SVN-2-48"},"id":"SVN-2-48"},{"arcs":[[-170,-185]],"type":"Polygon","properties":{"name":"Horjul","shapeGroup":"SVN","gid":"SVN-2-49"},"id":"SVN-2-49"},{"arcs":[[-171,-184,-175]],"type":"Polygon","properties":{"name":"Log-Dragomer","shapeGroup":"SVN","gid":"SVN-2-50"},"id":"SVN-2-50"},{"arcs":[[-95,185,186,187,-182,188]],"type":"Polygon","properties":{"name":"Medvode","shapeGroup":"SVN","gid":"SVN-2-51"},"id":"SVN-2-51"},{"arcs":[[-96,-189,-181,-154,-158]],"type":"Polygon","properties":{"name":"Mkofja Loka","shapeGroup":"SVN","gid":"SVN-2-52"},"id":"SVN-2-52"},{"arcs":[[-77,-90,189,190]],"type":"Polygon","properties":{"name":"Komenda","shapeGroup":"SVN","gid":"SVN-2-53"},"id":"SVN-2-53"},{"arcs":[[-78,-191,191,192,-187,193]],"type":"Polygon","properties":{"name":"Vodice","shapeGroup":"SVN","gid":"SVN-2-54"},"id":"SVN-2-54"},{"arcs":[[-79,-194,-186,-94,-92]],"type":"Polygon","properties":{"name":"Vencur","shapeGroup":"SVN","gid":"SVN-2-55"},"id":"SVN-2-55"},{"arcs":[[-88,194,195,196,197,198,199]],"type":"Polygon","properties":{"name":"Domcale","shapeGroup":"SVN","gid":"SVN-2-56"},"id":"SVN-2-56"},{"arcs":[[-89,-200,200,201,-192,-190]],"type":"Polygon","properties":{"name":"Mengel","shapeGroup":"SVN","gid":"SVN-2-57"},"id":"SVN-2-57"},{"arcs":[[-199,202,-201]],"type":"Polygon","properties":{"name":"Trzin","shapeGroup":"SVN","gid":"SVN-2-58"},"id":"SVN-2-58"},{"arcs":[[-197,203,204,205]],"type":"Polygon","properties":{"name":"Dol pri Ljubljani","shapeGroup":"SVN","gid":"SVN-2-59"},"id":"SVN-2-59"},{"arcs":[[-87,206,207,-195]],"type":"Polygon","properties":{"name":"Lukovica","shapeGroup":"SVN","gid":"SVN-2-60"},"id":"SVN-2-60"},{"arcs":[[-196,-208,208,209,-204]],"type":"Polygon","properties":{"name":"Moravce","shapeGroup":"SVN","gid":"SVN-2-61"},"id":"SVN-2-61"},{"arcs":[[-83,210,211,212,213]],"type":"Polygon","properties":{"name":"Gornji Grad","shapeGroup":"SVN","gid":"SVN-2-62"},"id":"SVN-2-62"},{"arcs":[[-67,214,215,216,-212,217]],"type":"Polygon","properties":{"name":"Ljubno","shapeGroup":"SVN","gid":"SVN-2-63"},"id":"SVN-2-63"},{"arcs":[[-61,-68,-218,-211,-82]],"type":"Polygon","properties":{"name":"Luce","shapeGroup":"SVN","gid":"SVN-2-64"},"id":"SVN-2-64"},{"arcs":[[-213,-217,218,219]],"type":"Polygon","properties":{"name":"Recica ob Savinji","shapeGroup":"SVN","gid":"SVN-2-65"},"id":"SVN-2-65"},{"arcs":[[-216,220,221,222,223,-219]],"type":"Polygon","properties":{"name":"Mozirje","shapeGroup":"SVN","gid":"SVN-2-66"},"id":"SVN-2-66"},{"arcs":[[-84,-214,-220,-224,224,225]],"type":"Polygon","properties":{"name":"Nazarje","shapeGroup":"SVN","gid":"SVN-2-67"},"id":"SVN-2-67"},{"arcs":[[-85,-226,226,227,228]],"type":"Polygon","properties":{"name":"Vransko","shapeGroup":"SVN","gid":"SVN-2-68"},"id":"SVN-2-68"},{"arcs":[[-66,229,230,231,232,-221,-215]],"type":"Polygon","properties":{"name":"Voatanj","shapeGroup":"SVN","gid":"SVN-2-69"},"id":"SVN-2-69"},{"arcs":[[-223,233,234,235,236,-227,-225]],"type":"Polygon","properties":{"name":"Braslovce","shapeGroup":"SVN","gid":"SVN-2-70"},"id":"SVN-2-70"},{"arcs":[[-236,237,238,239,240]],"type":"Polygon","properties":{"name":"Prebold","shapeGroup":"SVN","gid":"SVN-2-71"},"id":"SVN-2-71"},{"arcs":[[-228,-237,-241,241,242]],"type":"Polygon","properties":{"name":"Tabor","shapeGroup":"SVN","gid":"SVN-2-72"},"id":"SVN-2-72"},{"arcs":[[-177,-183,-188,-193,-202,-203,-198,-206,243,244,245,246,247,248]],"type":"Polygon","properties":{"name":"Ljubljana","shapeGroup":"SVN","gid":"SVN-2-73"},"id":"SVN-2-73"},{"arcs":[[-232,249,250,-238,-235,251]],"type":"Polygon","properties":{"name":"Polzela","shapeGroup":"SVN","gid":"SVN-2-74"},"id":"SVN-2-74"},{"arcs":[[-65,252,253,254,255,256,257,-230]],"type":"Polygon","properties":{"name":"Slovenj Gradec","shapeGroup":"SVN","gid":"SVN-2-75"},"id":"SVN-2-75"},{"arcs":[[-231,-258,258,259,260,-250]],"type":"Polygon","properties":{"name":"Velenje","shapeGroup":"SVN","gid":"SVN-2-76"},"id":"SVN-2-76"},{"arcs":[[-222,-233,-252,-234]],"type":"Polygon","properties":{"name":"Vmartno ob Paki","shapeGroup":"SVN","gid":"SVN-2-77"},"id":"SVN-2-77"},{"arcs":[[-254,261,262,263,264]],"type":"Polygon","properties":{"name":"Dravograd","shapeGroup":"SVN","gid":"SVN-2-78"},"id":"SVN-2-78"},{"arcs":[[-58,265,266,-63]],"type":"Polygon","properties":{"name":"Prevalje","shapeGroup":"SVN","gid":"SVN-2-79"},"id":"SVN-2-79"},{"arcs":[[-64,-267,267,-262,-253]],"type":"Polygon","properties":{"name":"Ravne na Korokkem","shapeGroup":"SVN","gid":"SVN-2-80"},"id":"SVN-2-80"},{"arcs":[[-264,268,269,270]],"type":"Polygon","properties":{"name":"Muta","shapeGroup":"SVN","gid":"SVN-2-81"},"id":"SVN-2-81"},{"arcs":[[-270,271,272,273,274]],"type":"Polygon","properties":{"name":"Radlje ob Dravi","shapeGroup":"SVN","gid":"SVN-2-82"},"id":"SVN-2-82"},{"arcs":[[-255,-265,-271,-275,275]],"type":"Polygon","properties":{"name":"Vuzenica","shapeGroup":"SVN","gid":"SVN-2-83"},"id":"SVN-2-83"},{"arcs":[[276,277,278,279,280,281,282]],"type":"Polygon","properties":{"name":"Lovrenc na Pohorju","shapeGroup":"SVN","gid":"SVN-2-84"},"id":"SVN-2-84"},{"arcs":[[-273,283,284,-282,285]],"type":"Polygon","properties":{"name":"Podvelka","shapeGroup":"SVN","gid":"SVN-2-85"},"id":"SVN-2-85"},{"arcs":[[-256,-276,-274,-286,-281,286]],"type":"Polygon","properties":{"name":"Ribnica na Pohorju","shapeGroup":"SVN","gid":"SVN-2-86"},"id":"SVN-2-86"},{"arcs":[[-277,287,288,289,290]],"type":"Polygon","properties":{"name":"Rube","shapeGroup":"SVN","gid":"SVN-2-87"},"id":"SVN-2-87"},{"arcs":[[-283,-285,291,292,-288]],"type":"Polygon","properties":{"name":"Selnica ob Dravi","shapeGroup":"SVN","gid":"SVN-2-88"},"id":"SVN-2-88"},{"arcs":[[293,294,295,296,297,298]],"type":"Polygon","properties":{"name":"Celje","shapeGroup":"SVN","gid":"SVN-2-89"},"id":"SVN-2-89"},{"arcs":[[-260,299,300,301,-297,302]],"type":"Polygon","properties":{"name":"Dobrna","shapeGroup":"SVN","gid":"SVN-2-90"},"id":"SVN-2-90"},{"arcs":[[-257,-287,-280,303,304,-300,-259]],"type":"Polygon","properties":{"name":"Mislinja","shapeGroup":"SVN","gid":"SVN-2-91"},"id":"SVN-2-91"},{"arcs":[[-301,-305,305,306]],"type":"Polygon","properties":{"name":"Vitanje","shapeGroup":"SVN","gid":"SVN-2-92"},"id":"SVN-2-92"},{"arcs":[[-298,-302,-307,307,308,309]],"type":"Polygon","properties":{"name":"Vojnik","shapeGroup":"SVN","gid":"SVN-2-93"},"id":"SVN-2-93"},{"arcs":[[-239,-251,-261,-303,-296,310,311,312]],"type":"Polygon","properties":{"name":"Valec","shapeGroup":"SVN","gid":"SVN-2-94"},"id":"SVN-2-94"},{"arcs":[[313,314,315]],"type":"Polygon","properties":{"name":"Oplotnica","shapeGroup":"SVN","gid":"SVN-2-95"},"id":"SVN-2-95"},{"arcs":[[-278,-291,316,317,318,319,320,321,322,-316,323]],"type":"Polygon","properties":{"name":"Slovenska Bistrica","shapeGroup":"SVN","gid":"SVN-2-96"},"id":"SVN-2-96"},{"arcs":[[-309,324,-314,-323,325,326,327]],"type":"Polygon","properties":{"name":"Slovenske Konjice","shapeGroup":"SVN","gid":"SVN-2-97"},"id":"SVN-2-97"},{"arcs":[[-279,-324,-315,-325,-308,-306,-304]],"type":"Polygon","properties":{"name":"Zrece","shapeGroup":"SVN","gid":"SVN-2-98"},"id":"SVN-2-98"},{"arcs":[[-321,328,329,330]],"type":"Polygon","properties":{"name":"Makole","shapeGroup":"SVN","gid":"SVN-2-99"},"id":"SVN-2-99"},{"arcs":[[-322,-331,331,332,-326]],"type":"Polygon","properties":{"name":"Poljcane","shapeGroup":"SVN","gid":"SVN-2-100"},"id":"SVN-2-100"},{"arcs":[[-319,333,334,335,336,337]],"type":"Polygon","properties":{"name":"Kidricevo","shapeGroup":"SVN","gid":"SVN-2-101"},"id":"SVN-2-101"},{"arcs":[[-320,-338,338,339,340,341,-329]],"type":"Polygon","properties":{"name":"Majrperk","shapeGroup":"SVN","gid":"SVN-2-102"},"id":"SVN-2-102"},{"arcs":[[-290,342,343,344,345,-317]],"type":"Polygon","properties":{"name":"Hoce-Slivnica","shapeGroup":"SVN","gid":"SVN-2-103"},"id":"SVN-2-103"},{"arcs":[[-344,346,347]],"type":"Polygon","properties":{"name":"Miklavl na Dravskem polju","shapeGroup":"SVN","gid":"SVN-2-104"},"id":"SVN-2-104"},{"arcs":[[-318,-346,348,-334]],"type":"Polygon","properties":{"name":"Race-Fram","shapeGroup":"SVN","gid":"SVN-2-105"},"id":"SVN-2-105"},{"arcs":[[-335,-349,-345,-348,349,350,351,352]],"type":"Polygon","properties":{"name":"Star-e","shapeGroup":"SVN","gid":"SVN-2-106"},"id":"SVN-2-106"},{"arcs":[[353,354,355,356]],"type":"Polygon","properties":{"name":"Kungota","shapeGroup":"SVN","gid":"SVN-2-107"},"id":"SVN-2-107"},{"arcs":[[-289,-293,357,-354,358,359,360,-350,-347,-343]],"type":"Polygon","properties":{"name":"Maribor","shapeGroup":"SVN","gid":"SVN-2-108"},"id":"SVN-2-108"},{"arcs":[[-357,361,362,363,-359]],"type":"Polygon","properties":{"name":"Pesnica","shapeGroup":"SVN","gid":"SVN-2-109"},"id":"SVN-2-109"},{"arcs":[[-356,364,365,366,367,-362]],"type":"Polygon","properties":{"name":"Pentilj","shapeGroup":"SVN","gid":"SVN-2-110"},"id":"SVN-2-110"},{"arcs":[[-366,368,369,370]],"type":"Polygon","properties":{"name":"Apace","shapeGroup":"SVN","gid":"SVN-2-111"},"id":"SVN-2-111"},{"arcs":[[-370,371,372,373,374,375,376,377]],"type":"Polygon","properties":{"name":"Gornja Radgona","shapeGroup":"SVN","gid":"SVN-2-112"},"id":"SVN-2-112"},{"arcs":[[-373,378,379,380,381,382]],"type":"Polygon","properties":{"name":"Radenci","shapeGroup":"SVN","gid":"SVN-2-113"},"id":"SVN-2-113"},{"arcs":[[-367,-371,-378,383,384,385]],"type":"Polygon","properties":{"name":"Sveta Ana","shapeGroup":"SVN","gid":"SVN-2-114"},"id":"SVN-2-114"},{"arcs":[[-377,386,387,-384]],"type":"Polygon","properties":{"name":"Benedikt","shapeGroup":"SVN","gid":"SVN-2-115"},"id":"SVN-2-115"},{"arcs":[[-376,388,389,390,391,-387]],"type":"Polygon","properties":{"name":"Sveta Trojica v Slovenskih goricah","shapeGroup":"SVN","gid":"SVN-2-116"},"id":"SVN-2-116"},{"arcs":[[-390,392,393,394,395,396]],"type":"Polygon","properties":{"name":"Sveti Andrac v Slov. goricah","shapeGroup":"SVN","gid":"SVN-2-117"},"id":"SVN-2-117"},{"arcs":[[-363,-368,-386,397]],"type":"Polygon","properties":{"name":"Sveti Jurij v Slovenskih goricah","shapeGroup":"SVN","gid":"SVN-2-118"},"id":"SVN-2-118"},{"arcs":[[-396,398,399,400,401]],"type":"Polygon","properties":{"name":"Destrnik","shapeGroup":"SVN","gid":"SVN-2-119"},"id":"SVN-2-119"},{"arcs":[[-351,-361,402,403]],"type":"Polygon","properties":{"name":"Duplek","shapeGroup":"SVN","gid":"SVN-2-120"},"id":"SVN-2-120"},{"arcs":[[-352,-404,404,-400,405,406,407,408,409]],"type":"Polygon","properties":{"name":"Ptuj","shapeGroup":"SVN","gid":"SVN-2-121"},"id":"SVN-2-121"},{"arcs":[[-391,-397,-402,410]],"type":"Polygon","properties":{"name":"Trnovska vas","shapeGroup":"SVN","gid":"SVN-2-122"},"id":"SVN-2-122"},{"arcs":[[-336,-353,-410,411]],"type":"Polygon","properties":{"name":"Hajdina","shapeGroup":"SVN","gid":"SVN-2-123"},"id":"SVN-2-123"},{"arcs":[[-407,412,413,414,415,416]],"type":"Polygon","properties":{"name":"Dornava","shapeGroup":"SVN","gid":"SVN-2-124"},"id":"SVN-2-124"},{"arcs":[[-408,-417,417,418,419]],"type":"Polygon","properties":{"name":"Markovci","shapeGroup":"SVN","gid":"SVN-2-125"},"id":"SVN-2-125"},{"arcs":[[-395,420,421,422,-413,-406,-399]],"type":"Polygon","properties":{"name":"Jurkinci","shapeGroup":"SVN","gid":"SVN-2-126"},"id":"SVN-2-126"},{"arcs":[[-414,-423,423,424]],"type":"Polygon","properties":{"name":"Sveti Tomaa","shapeGroup":"SVN","gid":"SVN-2-127"},"id":"SVN-2-127"},{"arcs":[[-375,425,-393,-389]],"type":"Polygon","properties":{"name":"Cerkvenjak","shapeGroup":"SVN","gid":"SVN-2-128"},"id":"SVN-2-128"},{"arcs":[[-374,-383,426,427,-421,-394,-426]],"type":"Polygon","properties":{"name":"Sveti Jurij ob lcavnici","shapeGroup":"SVN","gid":"SVN-2-129"},"id":"SVN-2-129"},{"arcs":[[-382,428,429,430,-427]],"type":"Polygon","properties":{"name":"Kritevci","shapeGroup":"SVN","gid":"SVN-2-130"},"id":"SVN-2-130"},{"arcs":[[-430,431,432,433]],"type":"Polygon","properties":{"name":"Vertej","shapeGroup":"SVN","gid":"SVN-2-131"},"id":"SVN-2-131"},{"arcs":[[-433,434,435,436,437,438,439,440]],"type":"Polygon","properties":{"name":"Beltinci","shapeGroup":"SVN","gid":"SVN-2-132"},"id":"SVN-2-132"},{"arcs":[[-381,441,442,443,-435,-432,-429]],"type":"Polygon","properties":{"name":"Murska Sobota","shapeGroup":"SVN","gid":"SVN-2-133"},"id":"SVN-2-133"},{"arcs":[[-439,444]],"type":"Polygon","properties":{"name":"Odranci","shapeGroup":"SVN","gid":"SVN-2-134"},"id":"SVN-2-134"},{"arcs":[[-437,445,446,447,448,449]],"type":"Polygon","properties":{"name":"Turnicce","shapeGroup":"SVN","gid":"SVN-2-135"},"id":"SVN-2-135"},{"arcs":[[-449,450,451]],"type":"Polygon","properties":{"name":"Velika Polana","shapeGroup":"SVN","gid":"SVN-2-136"},"id":"SVN-2-136"},{"arcs":[[452,453,454,455]],"type":"Polygon","properties":{"name":"Grad","shapeGroup":"SVN","gid":"SVN-2-137"},"id":"SVN-2-137"},{"arcs":[[-443,456,457,458,-453,459,460]],"type":"Polygon","properties":{"name":"Puconci","shapeGroup":"SVN","gid":"SVN-2-138"},"id":"SVN-2-138"},{"arcs":[[-458,461,462,463]],"type":"Polygon","properties":{"name":"Cankova","shapeGroup":"SVN","gid":"SVN-2-139"},"id":"SVN-2-139"},{"arcs":[[-454,-459,-464,464,465]],"type":"Polygon","properties":{"name":"Rogaoovci","shapeGroup":"SVN","gid":"SVN-2-140"},"id":"SVN-2-140"},{"arcs":[[-380,466,-462,-457,-442]],"type":"Polygon","properties":{"name":"Tigina","shapeGroup":"SVN","gid":"SVN-2-141"},"id":"SVN-2-141"},{"arcs":[[-456,467,468,469,470,-460]],"type":"Polygon","properties":{"name":"Gornji Petrovci","shapeGroup":"SVN","gid":"SVN-2-142"},"id":"SVN-2-142"},{"arcs":[[471,472]],"type":"Polygon","properties":{"name":"Hodoj","shapeGroup":"SVN","gid":"SVN-2-143"},"id":"SVN-2-143"},{"arcs":[[-455,-466,473,-468]],"type":"Polygon","properties":{"name":"Kuzma","shapeGroup":"SVN","gid":"SVN-2-144"},"id":"SVN-2-144"},{"arcs":[[-470,474,-472,475,476]],"type":"Polygon","properties":{"name":"Kalovci","shapeGroup":"SVN","gid":"SVN-2-145"},"id":"SVN-2-145"},{"arcs":[[-447,477,478,479,480]],"type":"Polygon","properties":{"name":"Dobrovnik","shapeGroup":"SVN","gid":"SVN-2-146"},"id":"SVN-2-146"},{"arcs":[[-479,481,482]],"type":"Polygon","properties":{"name":"Kobilje","shapeGroup":"SVN","gid":"SVN-2-147"},"id":"SVN-2-147"},{"arcs":[[-436,-444,-461,-471,-477,483,-482,-478,-446]],"type":"Polygon","properties":{"name":"Moravske Toplice","shapeGroup":"SVN","gid":"SVN-2-148"},"id":"SVN-2-148"},{"arcs":[[-448,-481,484,485,-451]],"type":"Polygon","properties":{"name":"Lendava","shapeGroup":"SVN","gid":"SVN-2-149"},"id":"SVN-2-149"},{"arcs":[[-299,-310,-328,486,487,488,489,490,491,492,493,494]],"type":"Polygon","properties":{"name":"Lentjur","shapeGroup":"SVN","gid":"SVN-2-150"},"id":"SVN-2-150"},{"arcs":[[-327,-333,495,496,-487]],"type":"Polygon","properties":{"name":"Lmarje pri Jelcah","shapeGroup":"SVN","gid":"SVN-2-151"},"id":"SVN-2-151"},{"arcs":[[-493,497]],"type":"Polygon","properties":{"name":"Dobje","shapeGroup":"SVN","gid":"SVN-2-152"},"id":"SVN-2-152"},{"arcs":[[-295,498,-494,-498,-492,499,500,501,-311]],"type":"Polygon","properties":{"name":"Labko","shapeGroup":"SVN","gid":"SVN-2-153"},"id":"SVN-2-153"},{"arcs":[[-294,-495,-499]],"type":"Polygon","properties":{"name":"Ltore","shapeGroup":"SVN","gid":"SVN-2-154"},"id":"SVN-2-154"},{"arcs":[[-489,502,503,504,505]],"type":"Polygon","properties":{"name":"Kozje","shapeGroup":"SVN","gid":"SVN-2-155"},"id":"SVN-2-155"},{"arcs":[[506,507,508,509,510,511,512,513]],"type":"Polygon","properties":{"name":"Mokronog-Trebelno","shapeGroup":"SVN","gid":"SVN-2-156"},"id":"SVN-2-156"},{"arcs":[[-491,514,515,-513,516,517,518,-500]],"type":"Polygon","properties":{"name":"Sevnica","shapeGroup":"SVN","gid":"SVN-2-157"},"id":"SVN-2-157"},{"arcs":[[-512,519,520,-517]],"type":"Polygon","properties":{"name":"Sentrupert","shapeGroup":"SVN","gid":"SVN-2-158"},"id":"SVN-2-158"},{"arcs":[[-507,521,522,523]],"type":"Polygon","properties":{"name":"Smarjepke Toplice","shapeGroup":"SVN","gid":"SVN-2-159"},"id":"SVN-2-159"},{"arcs":[[-312,-502,524,525]],"type":"Polygon","properties":{"name":"Hrastnik","shapeGroup":"SVN","gid":"SVN-2-160"},"id":"SVN-2-160"},{"arcs":[[-240,-313,-526,526,527,528,529,-242]],"type":"Polygon","properties":{"name":"Trbovlje","shapeGroup":"SVN","gid":"SVN-2-161"},"id":"SVN-2-161"},{"arcs":[[[-528,530,531]],[[-86,-229,-243,-530,532,-209,-207]]],"type":"MultiPolygon","properties":{"name":"Zagorje ob Savi","shapeGroup":"SVN","gid":"SVN-2-162"},"id":"SVN-2-162"},{"arcs":[[-205,-210,-533,-529,-532,533,-518,-521,534,535,536,-244]],"type":"Polygon","properties":{"name":"Litija","shapeGroup":"SVN","gid":"SVN-2-163"},"id":"SVN-2-163"},{"arcs":[[-501,-519,-534,-531,-527,-525]],"type":"Polygon","properties":{"name":"Radece","shapeGroup":"SVN","gid":"SVN-2-164"},"id":"SVN-2-164"},{"arcs":[[-245,-537,537,538]],"type":"Polygon","properties":{"name":"Rmartno pri Litiji","shapeGroup":"SVN","gid":"SVN-2-165"},"id":"SVN-2-165"},{"arcs":[[-509,539,540,541,542]],"type":"Polygon","properties":{"name":"Mirna Pec","shapeGroup":"SVN","gid":"SVN-2-166"},"id":"SVN-2-166"},{"arcs":[[-511,543,-535,-520]],"type":"Polygon","properties":{"name":"Mirna","shapeGroup":"SVN","gid":"SVN-2-167"},"id":"SVN-2-167"},{"arcs":[[-510,-543,544,545,-538,-536,-544]],"type":"Polygon","properties":{"name":"Trebnje","shapeGroup":"SVN","gid":"SVN-2-168"},"id":"SVN-2-168"},{"arcs":[[546,547,548,549,550]],"type":"Polygon","properties":{"name":"Dolenjske Toplice","shapeGroup":"SVN","gid":"SVN-2-169"},"id":"SVN-2-169"},{"arcs":[[-547,551,552,553,554]],"type":"Polygon","properties":{"name":"Semic","shapeGroup":"SVN","gid":"SVN-2-170"},"id":"SVN-2-170"},{"arcs":[[-541,555,-550,556]],"type":"Polygon","properties":{"name":"Straca","shapeGroup":"SVN","gid":"SVN-2-171"},"id":"SVN-2-171"},{"arcs":[[-542,-557,-549,557,558,559,-545]],"type":"Polygon","properties":{"name":"Suremberk","shapeGroup":"SVN","gid":"SVN-2-172"},"id":"SVN-2-172"},{"arcs":[[-145,-152,-151,-157,-161]],"type":"Polygon","properties":{"name":"Siri","shapeGroup":"SVN","gid":"SVN-2-173"},"id":"SVN-2-173"},{"arcs":[[-559,560,561,562,563,564]],"type":"Polygon","properties":{"name":"Dobrepolje","shapeGroup":"SVN","gid":"SVN-2-174"},"id":"SVN-2-174"},{"arcs":[[-247,565,-564,566,567]],"type":"Polygon","properties":{"name":"Grosuplje","shapeGroup":"SVN","gid":"SVN-2-175"},"id":"SVN-2-175"},{"arcs":[[-178,-249,568,569]],"type":"Polygon","properties":{"name":"Ig","shapeGroup":"SVN","gid":"SVN-2-176"},"id":"SVN-2-176"},{"arcs":[[-248,-568,570,-569]],"type":"Polygon","properties":{"name":"Ikofljica","shapeGroup":"SVN","gid":"SVN-2-177"},"id":"SVN-2-177"},{"arcs":[[-10,571,572,-562,573]],"type":"Polygon","properties":{"name":"Ribnica","shapeGroup":"SVN","gid":"SVN-2-178"},"id":"SVN-2-178"},{"arcs":[[-9,574,575,-572]],"type":"Polygon","properties":{"name":"Sodracica","shapeGroup":"SVN","gid":"SVN-2-179"},"id":"SVN-2-179"},{"arcs":[[-563,-573,-576,576,577,-570,-571,-567]],"type":"Polygon","properties":{"name":"Velike La","shapeGroup":"SVN","gid":"SVN-2-180"},"id":"SVN-2-180"},{"arcs":[[-8,-15,578,-577,-575]],"type":"Polygon","properties":{"name":"Bloke","shapeGroup":"SVN","gid":"SVN-2-181"},"id":"SVN-2-181"},{"arcs":[[-173,-180,579]],"type":"Polygon","properties":{"name":"Borovnica","shapeGroup":"SVN","gid":"SVN-2-182"},"id":"SVN-2-182"},{"arcs":[[-14,-167,-168,-164,-174,-580,-179,-578,-579]],"type":"Polygon","properties":{"name":"Cerknica","shapeGroup":"SVN","gid":"SVN-2-183"},"id":"SVN-2-183"},{"arcs":[[-360,-364,-398,-385,-388,-392,-411,-401,-405,-403]],"type":"Polygon","properties":{"name":"Lenart","shapeGroup":"SVN","gid":"SVN-2-184"},"id":"SVN-2-184"},{"arcs":[[-246,-539,-546,-560,-565,-566]],"type":"Polygon","properties":{"name":"Ivancna Gorica","shapeGroup":"SVN","gid":"SVN-2-185"},"id":"SVN-2-185"},{"arcs":[[-504,580,581,582]],"type":"Polygon","properties":{"name":"Bistrica ob Sotli","shapeGroup":"SVN","gid":"SVN-2-186"},"id":"SVN-2-186"},{"arcs":[[-505,-583,583,584]],"type":"Polygon","properties":{"name":"Bretice","shapeGroup":"SVN","gid":"SVN-2-187"},"id":"SVN-2-187"},{"arcs":[[-419,585,586,587,588]],"type":"Polygon","properties":{"name":"Cirkulane","shapeGroup":"SVN","gid":"SVN-2-188"},"id":"SVN-2-188"},{"arcs":[[-416,589,590,591,-586,-418]],"type":"Polygon","properties":{"name":"Goriunica","shapeGroup":"SVN","gid":"SVN-2-189"},"id":"SVN-2-189"},{"arcs":[[592,593,594]],"type":"Polygon","properties":{"name":"Kostanjevica na Krki","shapeGroup":"SVN","gid":"SVN-2-190"},"id":"SVN-2-190"},{"arcs":[[-3,595,-4,-574,-561,-558,-548,-555,596,597]],"type":"Polygon","properties":{"name":"Kocevje","shapeGroup":"SVN","gid":"SVN-2-191"},"id":"SVN-2-191"},{"arcs":[[-490,-506,-585,598,-594,599,600,-515]],"type":"Polygon","properties":{"name":"Krcko","shapeGroup":"SVN","gid":"SVN-2-192"},"id":"SVN-2-192"},{"arcs":[[-422,-428,-431,-434,-441,601,602,603,604,-424]],"type":"Polygon","properties":{"name":"Ljutomer","shapeGroup":"SVN","gid":"SVN-2-193"},"id":"SVN-2-193"},{"arcs":[[-553,605,606,607]],"type":"Polygon","properties":{"name":"Metlika","shapeGroup":"SVN","gid":"SVN-2-194"},"id":"SVN-2-194"},{"arcs":[[-508,-524,608,609,-606,-552,-551,-556,-540]],"type":"Polygon","properties":{"name":"Novo mesto","shapeGroup":"SVN","gid":"SVN-2-195"},"id":"SVN-2-195"},{"arcs":[[-415,-425,-605,610,611,612,-590]],"type":"Polygon","properties":{"name":"Ormo","shapeGroup":"SVN","gid":"SVN-2-196"},"id":"SVN-2-196"},{"arcs":[[-2,613,-5,-596]],"type":"Polygon","properties":{"name":"Osilnica","shapeGroup":"SVN","gid":"SVN-2-197"},"id":"SVN-2-197"},{"arcs":[[614,615,616]],"type":"Polygon","properties":{"name":"Podlehnik","shapeGroup":"SVN","gid":"SVN-2-198"},"id":"SVN-2-198"},{"arcs":[[-488,-497,617,618,-581,-503]],"type":"Polygon","properties":{"name":"Podcetrtek","shapeGroup":"SVN","gid":"SVN-2-199"},"id":"SVN-2-199"},{"arcs":[[-603,619,620]],"type":"Polygon","properties":{"name":"Razkrirje","shapeGroup":"SVN","gid":"SVN-2-200"},"id":"SVN-2-200"},{"arcs":[[-341,621,622,623]],"type":"Polygon","properties":{"name":"Rogatec","shapeGroup":"SVN","gid":"SVN-2-201"},"id":"SVN-2-201"},{"arcs":[[-330,-342,-624,624,-618,-496,-332]],"type":"Polygon","properties":{"name":"Rogatka Slatina","shapeGroup":"SVN","gid":"SVN-2-202"},"id":"SVN-2-202"},{"arcs":[[-612,625]],"type":"Polygon","properties":{"name":"Sredikce ob Dravi","shapeGroup":"SVN","gid":"SVN-2-203"},"id":"SVN-2-203"},{"arcs":[[-337,-412,-409,-420,-589,626,-617,627,-339]],"type":"Polygon","properties":{"name":"Videm","shapeGroup":"SVN","gid":"SVN-2-204"},"id":"SVN-2-204"},{"arcs":[[-587,-592,628]],"type":"Polygon","properties":{"name":"Zavrc","shapeGroup":"SVN","gid":"SVN-2-205"},"id":"SVN-2-205"},{"arcs":[[-438,-450,-452,-486,629,-620,-602,-440,-445]],"type":"Polygon","properties":{"name":"Crencovci","shapeGroup":"SVN","gid":"SVN-2-206"},"id":"SVN-2-206"},{"arcs":[[-554,-608,630,-597]],"type":"Polygon","properties":{"name":"Crnomelj","shapeGroup":"SVN","gid":"SVN-2-207"},"id":"SVN-2-207"},{"arcs":[[-523,631,-600,-593,632,-609]],"type":"Polygon","properties":{"name":"Centjernej","shapeGroup":"SVN","gid":"SVN-2-208"},"id":"SVN-2-208"},{"arcs":[[-514,-516,-601,-632,-522]],"type":"Polygon","properties":{"name":"Ckocjan","shapeGroup":"SVN","gid":"SVN-2-209"},"id":"SVN-2-209"},{"arcs":[[-340,-628,-616,633,-622]],"type":"Polygon","properties":{"name":"Cetale","shapeGroup":"SVN","gid":"SVN-2-210"},"id":"SVN-2-210"},{"arcs":[[-29,634]],"type":"Polygon","properties":{"name":"Ankaran / Ancarano","shapeGroup":"SVN","gid":"SVN-2-211"},"id":"SVN-2-211"}]}}}