{"type":"Topology","arcs":[[[6738,13240],[-89,-129],[-82,-79],[-58,-91],[-184,-85],[-71,-73],[-152,-218],[-4,-27],[-58,-86],[-24,-9]],[[6016,12443],[-80,92],[-150,13],[-41,17],[-211,20],[-243,171],[-110,36],[-53,43],[-47,-15],[-143,31],[-113,57],[-161,28],[-51,21],[-224,7],[-36,-9],[-347,11],[-100,54],[-124,49]],[[3782,13069],[14,47],[127,183],[-23,175],[-3,155],[10,37],[140,35],[107,-62],[66,-12],[106,16],[80,-16],[190,-60],[221,-78],[83,-17],[142,109],[13,25],[-131,63],[6,27],[111,80],[76,140],[13,88],[-13,56],[-67,57],[-50,64],[110,12],[226,-7],[54,-23],[64,-66],[-29,-36],[27,-28],[108,-41],[110,-95],[45,-7],[35,-74],[67,-14],[55,-37],[16,-41],[81,-14],[78,-53],[24,-50],[162,-16],[185,-55],[227,-124],[54,-104],[-10,-53],[49,-15]],[[6738,13240],[47,9],[44,-90],[98,-75],[49,-21],[-9,-69],[-71,-19],[-21,-62],[20,-175],[31,-29],[-4,-54],[-46,-14],[-41,-86],[38,-27],[84,-4],[73,-22],[-13,-60],[23,-34],[-17,-45],[-82,-26],[-20,-31],[29,-49],[-16,-35],[40,-38],[34,-69],[105,-135]],[[7113,11980],[-78,2],[-114,32],[-62,-1],[-89,25],[-27,-8],[99,-271],[-19,-22],[-98,4],[-89,-23]],[[6636,11718],[-25,-7],[-263,114],[-199,71]],[[6149,11896],[-28,23],[27,81],[-191,344],[56,72],[3,27]],[[4402,11210],[-68,-83],[-43,-74],[-109,24],[-66,-43],[-46,-108],[51,-125],[-42,-58],[-19,-84],[-74,3],[-5,-64],[-57,1]],[[3924,10599],[-58,5],[-215,75],[-54,33],[-175,149],[-225,169],[-66,39],[-93,8],[-147,73],[-306,186],[-158,46]],[[2427,11382],[-17,24],[-28,107],[46,58],[70,55],[78,121],[39,41],[89,131],[89,93],[123,82],[27,31],[10,131]],[[2953,12256],[184,-110],[74,-28],[191,-115],[141,-122],[104,-103],[137,-30],[159,-49],[92,-51],[96,-36],[82,-47],[24,-41],[28,-97],[-31,-62],[42,-51],[126,-104]],[[7113,11980],[58,-99],[-66,-65],[17,-39],[-13,-56],[2,-87],[-51,-70],[-78,-71],[17,-58],[-23,-83],[38,-93],[45,-47],[52,-11]],[[7111,11201],[-53,-19],[-41,-47],[-59,8],[-151,-58]],[[6807,11085],[-65,46],[3,71]],[[6745,11202],[4,68],[-61,99],[30,19],[-38,60],[-32,145],[-12,125]],[[7111,11201],[25,-14],[13,-68],[96,-158],[25,-119],[-134,-54],[-198,18]],[[6938,10806],[6,96],[-137,183]],[[6938,10806],[-54,-3],[-26,-29],[-62,16],[-52,-6],[-64,-62],[-145,100],[-63,69],[-35,-15],[18,-51],[-46,-24]],[[6409,10801],[-48,146],[-3,38],[-111,160],[-6,32]],[[6241,11177],[83,98],[48,-2],[134,-63],[81,-23],[27,25],[131,-10]],[[6241,11177],[-115,152]],[[6126,11329],[-94,149]],[[6032,11478],[60,23],[23,138],[-21,36],[-65,49],[48,75],[10,45],[62,52]],[[5689,10684],[-119,-68],[13,-34],[-80,-43],[-54,2],[-93,33],[-117,72],[-99,-27],[-88,4]],[[5052,10623],[-38,126],[2,55],[-20,81],[52,61]],[[5048,10946],[84,106]],[[5132,11052],[199,-99],[132,-77],[225,-192]],[[5688,10684],[1,0]],[[5689,10684],[11,-39],[117,-72],[165,-125],[28,-36]],[[6010,10412],[-115,13],[-100,-32],[-6,-36],[86,-49],[44,-96],[-74,24],[-47,-10],[32,-45],[-36,-104]],[[5794,10077],[-101,54],[-56,44],[-236,43],[-230,78],[-258,96],[-43,6]],[[4870,10398],[-140,78],[56,81],[134,-32],[114,52],[18,46]],[[6409,10801],[-54,15],[-39,50],[-50,-3],[-4,-107],[9,-209],[-125,15],[-14,-39],[-110,12],[5,-39],[37,-41],[-54,-43]],[[5688,10684],[72,21],[10,44],[82,-49],[55,14],[20,30],[63,31],[-7,55],[100,60],[-45,84],[-72,40],[63,80],[46,37],[-36,71],[51,116],[36,11]],[[5132,11052],[19,42],[129,188],[69,118],[133,46],[150,-113]],[[5632,11333],[78,26],[141,82],[129,35],[52,2]],[[5632,11333],[-35,95],[-49,75],[-66,163],[-91,66],[-123,74],[-301,164],[-118,72],[-22,25],[-13,79],[-94,84],[-135,31],[-150,118],[-162,112],[-41,15],[-122,6],[-125,85],[-83,73],[-132,60],[-316,117],[-79,57],[-93,22],[-127,89]],[[3155,13015],[234,156],[37,45],[41,-6],[208,-84],[107,-57]],[[2953,12256],[-18,48],[-162,195],[29,93],[152,37],[70,100],[44,111],[45,144],[42,31]],[[5048,10946],[-73,28],[-87,73],[-157,39],[-129,1],[-49,40],[-104,28],[-47,55]],[[4870,10398],[-58,-83],[-103,-106]],[[4709,10209],[-116,-52]],[[4593,10157],[-29,45],[-45,28],[12,36],[-236,127],[-81,65],[-91,8],[-43,46],[-88,23]],[[3992,10535],[-68,64]],[[3992,10535],[7,-65],[-72,-218]],[[3927,10252],[-69,-102],[-48,-109]],[[3810,10041],[-77,89],[-113,67],[-123,58],[-235,87],[-116,84],[-151,157],[-265,129],[-267,135],[-47,38],[-72,83],[-102,99],[-101,112]],[[2141,11179],[57,6],[240,135],[-11,62]],[[3810,10041],[-24,-23],[-11,-114],[-79,-66],[-52,-75],[-60,-31]],[[3584,9732],[-110,19],[-43,50],[-379,225],[-206,244],[-60,55],[-207,78],[-182,16],[-239,-7],[-51,20],[-110,-15],[-110,29]],[[1887,10446],[0,176],[21,87],[39,105],[-54,344],[248,21]],[[3219,8916],[-85,71]],[[3134,8987],[-128,118],[-167,135],[-74,-15],[-25,14],[-24,78],[-127,63],[-18,108],[-43,-10],[-58,18],[-91,65],[-56,55],[39,13],[-70,71],[-45,28],[-47,2],[-25,71],[-98,67],[-73,94]],[[2004,9962],[89,-9],[215,-52],[145,-46],[147,-90],[109,-90],[92,-137],[145,-91],[92,-21],[53,-31],[29,-65]],[[3120,9330],[-15,-88],[30,-49],[68,-167],[50,-53],[-34,-57]],[[3120,9330],[104,-2],[58,60],[364,83],[31,32]],[[3677,9503],[70,-5],[-24,-36],[73,-54],[83,-43],[49,17],[43,-13],[-29,-50],[282,-226],[40,-53]],[[4264,9040],[-203,-72]],[[4061,8968],[-219,-64],[-136,-54],[-153,5],[-116,23]],[[3437,8878],[-192,26],[-26,12]],[[3584,9732],[-20,-31],[29,-37],[48,-9],[15,-43],[-28,-33],[49,-76]],[[2004,9962],[-220,145]],[[1784,10107],[23,104],[30,51],[46,39],[4,145]],[[3927,10252],[91,-52],[46,-48],[190,-163]],[[4254,9989],[174,-103],[131,-89],[-11,-29]],[[4548,9768],[-38,-52],[-27,-71],[-64,-123],[-46,-109],[28,-192],[74,-58],[-12,-55]],[[4463,9108],[-59,-28],[-140,-40]],[[5794,10077],[-31,-51],[-74,-84],[-55,-41],[-45,-84],[12,-43],[52,-54],[-9,-110],[34,-30],[80,-6],[87,-111],[3,-49],[-139,-141],[-52,-29]],[[5657,9244],[-44,16],[-20,67],[-68,4],[-70,86],[-40,13],[-52,-20],[-48,-46],[0,-33],[-95,-33],[-80,14],[-43,-10]],[[5097,9302],[-93,74]],[[5004,9376],[-35,59],[-52,14],[-40,48],[-35,9],[-38,72],[-43,32],[-93,21],[-45,35],[-39,72]],[[4584,9738],[57,36],[98,-24],[98,5],[72,-84],[82,-2],[-33,60],[51,98],[36,39],[-58,48],[-31,69],[-119,65],[-128,161]],[[4593,10157],[-216,-120],[-123,-48]],[[4584,9738],[-36,30]],[[5657,9244],[-124,-99],[-66,-120],[-13,-57],[-91,-134]],[[5363,8834],[-69,26],[24,87],[-57,96],[-57,62],[-107,197]],[[4463,9108],[146,-101]],[[4609,9007],[45,-66],[11,-96]],[[4665,8845],[-35,-56],[-43,8],[-60,-37],[-30,26],[-57,-1],[-121,38],[-54,-59]],[[4265,8764],[-53,26],[-104,17],[-45,69],[39,51],[-41,41]],[[4609,9007],[49,10],[44,-19],[43,40],[61,-7],[24,39]],[[4830,9070],[81,-23],[0,-56],[-23,-30],[27,-29],[-46,-31],[9,-41],[39,-24],[-77,-39],[-35,-32]],[[4805,8765],[-87,18],[-53,62]],[[4805,8765],[6,-71],[-23,-89],[2,-89],[19,-25]],[[4809,8491],[2,-75],[-61,-24],[-41,76],[-66,-4],[42,-81],[-37,-37],[-44,45],[-56,27]],[[4548,8418],[-38,63],[-48,114],[-108,144],[-55,2],[-34,23]],[[5424,8759],[26,-6],[21,-58],[-30,-45],[-30,87],[13,22]],[[5363,8834],[-40,-72],[-37,-23],[-81,3],[-29,-104],[-50,-29],[-88,9],[-103,-35],[-69,-64],[-57,-28]],[[4830,9070],[9,37],[95,-6],[55,141],[-36,27],[6,44],[42,17],[3,46]],[[1885,9249],[45,-6],[-26,-49],[-44,-3],[-56,46],[39,29],[42,-17]],[[3134,8987],[-24,-25],[-62,-125],[-11,-53],[29,-111],[-39,-14],[-93,-2],[-85,-39],[-60,38],[-51,-38],[-69,13],[-40,-41],[97,-80],[4,-46]],[[2730,8464],[-122,-5],[-77,-79],[-46,-12],[-41,-70]],[[2444,8298],[-38,-1],[-58,62],[-93,60],[-111,125]],[[2144,8544],[-31,25],[31,34],[-19,73],[21,58],[77,61],[11,33],[-73,65],[-35,89],[32,30],[-65,95],[-27,90],[-27,46],[-127,36],[-128,19],[-65,55],[-34,7]],[[1685,9360],[-23,89],[-92,18],[-154,80],[56,110],[36,45],[102,160],[150,204],[24,41]],[[1820,8113],[17,-29],[-10,-57],[29,-52]],[[1856,7975],[-47,10],[-74,-24],[-46,19],[-139,-5],[-17,44],[-48,-28],[-32,29],[-78,-4],[-144,-76],[-29,16],[-98,-66],[-172,-6],[-72,4],[-145,-32],[-108,-33],[-68,-2]],[[539,7821],[66,81],[-32,86],[-97,164],[0,52],[50,53],[42,99],[33,47],[-34,104],[86,95],[25,59],[105,128],[101,137],[137,88],[156,38],[53,-9]],[[1230,9043],[3,-197],[28,-38],[1,-61],[59,-62],[-8,-64],[29,-55],[-52,-16],[47,-47],[4,-81],[-14,-41],[79,-39],[79,-61],[100,-7],[52,-21],[158,-130],[25,-10]],[[2072,7317],[36,-10],[11,-44],[64,-59],[87,-49],[72,40],[23,-12]],[[2365,7183],[9,-55],[45,-75],[-13,-42],[-158,-100],[7,-68],[-24,-58],[-97,-24],[-58,6],[-30,-22],[-56,40],[-74,-120],[2,-135],[-38,-46]],[[1880,6484],[-36,-32]],[[1844,6452],[-49,45],[-173,7]],[[1622,6504],[-160,29],[-110,13],[0,53],[-29,61],[-112,166],[61,46],[-64,72],[-64,-27],[-65,32],[-29,52],[-91,97],[-26,12],[-101,-8],[-47,22],[-127,31]],[[658,7155],[-14,63],[-31,58],[-36,113],[-59,102],[50,156]],[[568,7647],[204,21],[67,-52],[100,-3],[60,-26],[35,57],[92,-25],[82,-51],[42,-53],[63,15],[-41,48],[-11,44],[49,35],[30,-38],[73,-42],[111,42],[37,-81],[50,-12],[19,-101],[49,-87],[55,-61],[81,-64],[138,-17],[119,121]],[[1856,7975],[61,-40],[4,-35],[37,-57],[98,-19]],[[2056,7824],[21,-77],[-21,-70],[54,-55],[20,-106]],[[2130,7516],[-61,-7],[-3,-63],[30,-59],[-37,-27],[13,-43]],[[568,7647],[-38,134],[9,40]],[[2444,8298],[36,-54],[-41,-43],[-44,35],[-44,-13],[-20,-48],[15,-93]],[[2346,8082],[-29,-40],[-83,33],[17,-79],[-63,-19],[7,-71],[-49,-70],[-78,11],[-12,-23]],[[1820,8113],[128,37],[77,0],[0,85],[-48,17],[8,33],[-87,102],[35,27],[20,94],[101,-12],[6,35],[66,-7],[18,20]],[[2730,8464],[-4,-82],[42,10],[40,-22],[-15,-59],[96,-59],[31,-33],[184,-137],[149,-155],[25,-40]],[[3278,7887],[-171,-38],[-89,-88]],[[3018,7761],[-57,103],[18,40],[-9,47],[-68,47],[-92,21],[-38,-10],[-81,12],[-158,-20],[-88,15],[-31,41],[-68,25]],[[3018,7761],[-88,-131]],[[2930,7630],[-132,-15],[-99,18],[-179,-85],[-62,-15],[-152,-18],[-45,-32],[-83,36],[-48,-3]],[[1230,9043],[219,-41],[148,-39],[100,181],[-12,216]],[[4548,8418],[-16,-42],[17,-36],[-7,-60],[-72,-71],[-36,-69],[-41,-20],[-62,31],[-165,-88],[-33,-33]],[[4133,8030],[-217,89],[-67,19]],[[3849,8138],[-107,84],[-53,-9],[-76,16],[-59,72],[-34,76],[-18,80],[-46,-17],[-21,81],[0,90],[27,71],[-63,-1],[24,91],[-33,13],[-11,53],[67,8],[-9,32]],[[4133,8030],[-48,-62],[3,-28],[48,-29],[-5,-37],[-51,-82],[-75,-18],[-79,-77],[-147,61]],[[3779,7758],[-83,54],[-120,-11],[-99,44]],[[3477,7845],[-65,50],[-11,65],[54,41],[111,47],[63,17],[77,-7],[54,40],[43,-8],[46,48]],[[3477,7845],[-91,-23],[-7,-27]],[[3379,7795],[-101,92]],[[3779,7758],[2,-64],[31,-62],[5,-63],[44,-31],[-23,-42],[-43,-28],[-41,-56],[-43,-2]],[[3711,7410],[-57,93],[-49,32],[-54,69],[-86,82],[-60,90],[-26,19]],[[3711,7410],[-71,-59],[-43,8],[-32,56],[-32,12],[-68,-43]],[[3465,7384],[-41,-14],[-23,32],[25,69],[0,47],[-84,61],[-73,67],[-2,38],[112,111]],[[2930,7630],[112,-109],[-30,-77],[-39,-58],[22,-63],[-46,-103],[-57,-49],[-9,-29]],[[2883,7142],[-94,12]],[[2789,7154],[-268,95],[-86,-14],[-70,-52]],[[3510,7359],[29,8],[32,-70],[-42,-12],[-19,74]],[[3465,7384],[25,-83],[2,-64],[51,-43],[89,-40],[5,-45],[-63,-59]],[[3574,7050],[-178,24],[-47,-13],[-119,21],[-81,42],[-162,18],[-104,0]],[[3574,7050],[-28,-65],[2,-39],[-57,-109],[-27,-75]],[[3464,6762],[-59,13],[-85,-43],[-45,18],[-7,36],[-43,42],[-120,146],[-307,167],[-9,13]],[[3464,6762],[33,-59],[10,-70],[45,-13],[29,-34],[-22,-72],[-21,-9],[-68,47],[-62,-9],[-5,-75],[-32,-71],[34,-65],[-9,-37],[-44,-20]],[[3352,6275],[-45,63],[-69,11],[-116,69]],[[3122,6418],[-48,-16],[-16,134]],[[3058,6536],[-163,152],[19,71],[-19,24],[-44,111],[-32,141],[-30,51],[0,68]],[[2685,5887],[-73,44]],[[2612,5931],[-38,51],[-37,130],[-101,99],[-98,112],[-24,53]],[[2314,6376],[24,65],[79,23],[2,38],[51,-4],[70,18],[48,-37],[173,-56]],[[2761,6423],[93,-52],[14,-71],[-64,-158],[-23,-29],[-18,-73],[-47,-118],[-31,-35]],[[3058,6536],[-160,1],[-128,-90],[-9,-24]],[[2314,6376],[-43,96],[-32,-73]],[[2239,6399],[-10,-29],[-92,13],[-88,-2],[-42,-13],[-8,104],[-119,12]],[[3122,6418],[-1,-87],[16,-88],[-48,-42],[61,-74],[-27,-71],[-40,-59],[-50,-35]],[[3033,5962],[-12,-28],[-98,-4],[-63,-26],[-51,-39]],[[2809,5865],[-124,22]],[[3352,6275],[71,-90],[-10,-76],[-23,-30],[-5,-137]],[[3385,5942],[-162,-25]],[[3223,5917],[-39,5],[-53,40],[-98,0]],[[3223,5917],[-4,-74],[14,-90],[33,-65],[-12,-27],[-56,-20]],[[3198,5641],[-66,-13],[-42,26],[-69,9],[-69,-11]],[[2952,5652],[-95,114],[-48,99]],[[3385,5942],[19,-89],[-15,-16],[19,-71],[65,-140],[-44,-90],[57,-25]],[[3486,5511],[-3,-60],[-29,-86],[6,-37]],[[3460,5328],[-64,-55],[-1,-119]],[[3395,5154],[-85,-32],[-51,21],[-24,-13]],[[3235,5130],[-6,74],[-60,39],[8,47],[58,20],[24,66],[-56,66],[23,61],[-30,94],[2,44]],[[3021,5219],[-66,21]],[[2955,5240],[-69,109],[-31,29],[-36,94]],[[2819,5472],[38,8]],[[2857,5480],[61,-11],[81,-38],[106,-99],[4,-23],[-37,-62],[-51,-28]],[[3235,5130],[-9,-48],[-91,-37]],[[3135,5045],[-46,59],[-68,115]],[[2857,5480],[24,22],[71,150]],[[1611,5084],[8,-70]],[[1619,5014],[-36,26],[-59,71],[-57,117],[-48,28]],[[1419,5256],[-66,34],[-29,60],[-96,148],[-36,43],[-56,105],[-55,41],[-186,170],[-12,50]],[[883,5907],[13,101],[31,27],[36,71],[23,117]],[[986,6223],[132,164],[26,-33],[115,-188],[61,-151],[44,-70],[15,-56]],[[1379,5889],[44,-170],[155,1],[60,-53],[-38,-80],[40,-63]],[[1640,5524],[0,-58],[-48,-39],[-22,-62],[2,-61],[33,-116],[-12,-70],[18,-34]],[[1622,6504],[48,-117],[2,-37],[40,-80],[25,-112],[-12,-52],[82,-103],[-2,-30],[-68,18],[-25,24],[-50,-20],[-55,-76],[-89,7],[-139,-37]],[[986,6223],[-156,209],[-75,2],[-93,72],[-56,54],[-25,46],[70,464],[7,85]],[[2239,6399],[-33,-287],[-15,-36],[33,-39],[-12,-79],[-35,-34]],[[2177,5924],[-203,-2],[-10,43],[-42,44],[-12,66],[-65,117],[-13,73],[-33,83],[3,49],[42,55]],[[2177,5924],[-63,-83],[27,-69]],[[2141,5772],[-151,-94],[-66,-65],[-85,-64]],[[1839,5549],[-112,-8],[-87,-17]],[[2141,5772],[71,-61],[48,-24],[56,0],[71,36],[106,40],[38,-19]],[[2531,5744],[-20,-46],[-48,-29],[-67,-19],[-6,-71],[27,-49],[-53,-39]],[[2364,5491],[-29,-5]],[[2335,5486],[-58,-10],[-45,12],[-96,-85],[-85,11],[-107,0]],[[1944,5414],[-80,66],[-25,69]],[[1944,5414],[33,-111],[4,-184]],[[1981,5119],[-60,-45],[-78,27],[-110,-12],[-16,-14]],[[1717,5075],[-51,-9],[-55,18]],[[2335,5486],[-18,-55],[8,-37],[-79,-91],[-18,-50]],[[2228,5253],[-22,-24],[-129,-11],[-25,-64],[-71,-35]],[[2228,5253],[39,-68],[49,-41]],[[2316,5144],[-3,-191],[-72,-79]],[[2241,4874],[-29,23],[-74,1],[-42,49],[-51,-31],[0,-75]],[[2045,4841],[-156,21]],[[1889,4862],[-127,73],[-45,140]],[[2316,5144],[1,0]],[[2317,5144],[132,-25],[100,-50]],[[2549,5069],[75,-42]],[[2624,5027],[-32,-47],[10,-39],[-28,-73]],[[2574,4868],[18,-53],[-25,-28]],[[2567,4787],[-85,2],[-57,-86]],[[2425,4703],[-75,66],[-32,41]],[[2318,4810],[-77,64]],[[2364,5491],[24,-53],[83,-58],[32,20],[48,-17],[10,-68]],[[2561,5315],[-61,-17],[-14,-55],[-92,-48],[-35,-37],[-42,-14]],[[2819,5472],[-5,-1]],[[2814,5471],[-97,-36],[-86,-107],[-70,-13]],[[2531,5744],[6,70],[29,51],[6,60],[40,6]],[[2814,5471],[-102,-120],[-23,-74],[14,-42],[-50,-30],[-36,-48],[-23,-63],[-45,-25]],[[2955,5240],[-52,-60],[10,-39],[-65,-54],[-57,11],[-50,-69]],[[2741,5029],[-47,-16],[-70,14]],[[3135,5045],[-1,-1]],[[3134,5044],[-55,-2],[-101,-68],[-49,-50],[-83,-1]],[[2846,4923],[-20,57],[-51,16],[-34,33]],[[1419,5256],[-53,-35],[-5,-30],[-81,-99],[-106,-69],[30,-68]],[[1204,4955],[-29,-12],[-41,-60],[-28,22],[-52,-39],[-40,15],[-49,53],[-125,-25]],[[840,4909],[-13,56],[-36,-2]],[[791,4963],[16,60],[-18,74],[1,52],[57,95],[-3,115],[-39,54],[-17,75],[-70,98],[-20,122],[-68,159],[115,35],[138,5]],[[760,3972],[-97,25],[-16,55],[-77,-9],[-19,-61],[-51,50],[-69,-2]],[[431,4030],[-15,6]],[[416,4036],[-15,141],[-65,218],[18,35],[74,23],[48,75]],[[476,4528],[50,-86],[54,-28],[29,14],[67,-14]],[[676,4414],[26,-73],[-26,-86],[116,-9],[7,-33]],[[799,4213],[-27,-74],[-12,-167]],[[476,4528],[-4,67],[-46,58],[63,67],[38,-15],[81,1],[81,71],[72,96]],[[761,4873],[18,-67],[-16,-132],[24,-42],[-51,-28],[-31,-54],[-29,-136]],[[840,4909],[14,-44],[76,-62],[-33,-65],[5,-27],[59,-33],[42,-45],[39,-70],[73,-64],[1,-19]],[[1116,4480],[-80,-101]],[[1036,4379],[-27,-2],[-31,-98],[23,-26]],[[1001,4253],[-52,-43],[-117,-22],[-33,25]],[[761,4873],[30,90]],[[1001,4253],[35,-36],[-6,-63],[15,-102],[90,7],[33,-32]],[[1168,4027],[101,-98]],[[1269,3929],[124,-121]],[[1393,3808],[-89,-116],[-30,-135],[16,-40]],[[1290,3517],[1,-4]],[[1291,3513],[-76,-10],[-53,34],[-115,47]],[[1047,3584],[-45,195],[-54,57],[-14,98],[-46,42],[-40,-58],[-72,13]],[[776,3931],[-16,41]],[[1036,4379],[-2,-29],[60,1],[68,-62]],[[1162,4289],[-5,-82],[13,-41],[-2,-139]],[[1204,4955],[44,-98],[16,-90],[33,-36],[-15,-33]],[[1282,4698],[2,-118]],[[1284,4580],[2,-68],[-14,-26]],[[1272,4486],[-119,-17],[-37,11]],[[1272,4486],[13,-72],[38,-55],[-21,-46]],[[1302,4313],[-85,-5],[-55,-19]],[[1284,4580],[40,-2],[63,47],[39,11]],[[1426,4636],[22,-35]],[[1448,4601],[-41,-105],[22,-117],[-47,-33],[-11,-45],[-69,12]],[[1282,4698],[80,2],[64,-64]],[[1269,3929],[24,145],[-17,18],[35,50],[39,26],[52,-6],[78,-71],[12,-26]],[[1492,4065],[4,-41],[-103,-215]],[[1393,3809],[0,-1]],[[1448,4601],[85,-7]],[[1533,4594],[75,-163],[39,-41]],[[1647,4390],[-9,-70]],[[1638,4320],[-7,-62],[-46,-32],[-25,-87],[-68,-74]],[[1619,5014],[25,-74],[-13,-150],[-35,-19],[-7,-54],[-33,-33],[20,-56],[-43,-34]],[[1889,4862],[-1,-51],[-57,-24],[5,-38],[31,-33],[8,-76],[-16,-95],[34,-142]],[[1893,4403],[-52,13],[-177,-9],[-17,-17]],[[1893,4403],[-11,-40]],[[1882,4363],[-29,-36],[31,-77],[-47,-62],[-14,-41]],[[1823,4147],[-39,3],[-34,38],[28,42],[-140,90]],[[1823,4147],[-11,-27]],[[1812,4120],[-20,-92],[3,-59],[22,-60],[-23,-92]],[[1794,3817],[-42,27],[-72,18],[-53,-39],[-233,-14]],[[1394,3809],[-1,0]],[[3486,5511],[47,-13],[87,2],[20,-40]],[[3640,5460],[-90,-55],[-25,-82],[-65,5]],[[3395,5154],[103,-78],[-20,-73]],[[3478,5003],[-30,-53],[-12,-55],[-36,-8],[-70,-67],[29,-30],[-9,-76]],[[3350,4714],[-53,-44],[-50,37],[-62,0]],[[3185,4707],[-14,92],[-36,52],[-3,99],[17,36],[-15,58]],[[3640,5460],[6,-56],[47,-37],[32,55],[77,34],[46,-9],[9,-61],[51,-84]],[[3908,5302],[-42,-42],[-41,-16],[3,-44],[-81,-54],[-73,-154]],[[3674,4992],[-68,-52],[-43,63],[-31,23],[-54,-23]],[[3908,5302],[22,-32],[133,-79],[81,-75],[45,-24],[-6,-39],[-92,-9],[48,-50]],[[4139,4994],[-26,-12],[-29,-76],[-31,-13]],[[4053,4893],[-60,-22],[-83,21],[-68,-10],[-50,34],[-35,70],[-83,6]],[[4166,5156],[-24,-4],[-80,73],[-16,122],[31,-2],[28,-88],[51,-61],[10,-40]],[[3908,4649],[-28,-69]],[[3880,4580],[-84,-23],[-77,-52],[-65,24]],[[3654,4529],[3,65],[33,13],[39,53],[95,-15],[33,17],[51,-13]],[[4053,4893],[44,-51],[-51,-64],[19,-39],[-36,-41],[-121,-49]],[[3654,4529],[-18,-16]],[[3636,4513],[-58,27]],[[3578,4540],[-68,37],[-10,42],[-69,14],[-81,81]],[[3578,4540],[-64,-42],[-17,-86]],[[3497,4412],[22,-71],[-19,-77]],[[3500,4264],[-100,80],[-60,19],[-67,1]],[[3273,4364],[-26,15],[-30,105],[-46,73],[-15,61]],[[3156,4618],[26,36],[3,53]],[[4340,4465],[3,-17],[-61,-56],[-11,27],[69,46]],[[4139,4994],[78,-26],[28,-28],[56,6],[34,-111],[43,-78],[57,-38],[7,-47],[-82,-57],[-57,7],[-15,-39],[149,-6],[-4,-41],[-33,-15],[-92,7],[-53,-48],[-10,-56],[-29,-30]],[[4216,4394],[-82,18],[-38,-29]],[[4096,4383],[-25,69],[13,36],[-27,40],[-54,-26],[-43,18]],[[3960,4520],[-27,48],[-53,12]],[[3431,3994],[3,63]],[[3434,4057],[88,-12]],[[3522,4045],[47,-5],[20,-45],[-33,-48],[-8,-42],[-80,10]],[[3468,3915],[-37,79]],[[3522,4045],[-28,27],[-8,49],[137,-72]],[[3623,4049],[22,3],[45,-83]],[[3690,3969],[-21,-38]],[[3669,3931],[-40,-66],[-6,-116]],[[3623,3749],[-57,47],[-57,-8]],[[3509,3788],[-46,77],[5,50]],[[4031,4125],[9,28]],[[4040,4153],[46,-22],[-12,-49],[63,-11],[90,16],[-39,-45],[-60,-38],[-98,73],[1,48]],[[4109,4214],[62,-70],[7,-54],[-54,-13],[-32,18],[17,119]],[[932,925],[-53,-69],[-48,-20]],[[831,836],[-51,134],[40,25],[112,-70]],[[932,925],[25,4]],[[957,929],[23,-82]],[[980,847],[21,-35]],[[1001,812],[30,-47],[-4,-57],[30,-27]],[[1057,681],[-19,-34]],[[1038,647],[-117,17]],[[921,664],[-90,172]],[[1059,1090],[-54,-30],[-82,-27]],[[923,1033],[-71,85],[34,41],[46,9],[44,-20],[38,22]],[[1014,1170],[43,-12],[2,-68]],[[957,929],[6,27],[-40,77]],[[1059,1090],[24,-16],[72,3],[40,-39]],[[1195,1038],[-49,-92]],[[1146,946],[-62,-23],[-7,-21]],[[1077,902],[-49,-52],[-48,-3]],[[1077,902],[64,-65],[-16,-32]],[[1125,805],[-9,-3]],[[1116,802],[-62,33],[-53,-23]],[[1116,802],[-31,-88],[-28,-33]],[[1038,647],[34,-34],[-7,-56],[54,-14]],[[1119,543],[-118,-16]],[[1001,527],[-26,15],[-54,122]],[[1119,543],[42,-3]],[[1161,540],[31,-42]],[[1192,498],[-37,-5],[-8,-41]],[[1147,452],[-51,11],[-34,-54]],[[1062,409],[-37,25],[-3,81],[-21,12]],[[1125,805],[76,-71],[59,-12]],[[1260,722],[-50,-108],[-66,-35],[17,-39]],[[1146,946],[38,-29],[38,18]],[[1222,935],[24,-91],[54,-25]],[[1300,819],[58,-29]],[[1358,790],[-44,-62],[-26,-8]],[[1288,720],[-28,2]],[[1195,1038],[20,37],[79,64],[40,0]],[[1334,1139],[59,-11]],[[1393,1128],[-33,-41],[-2,-55],[-52,-37]],[[1306,995],[-47,-16],[-37,-44]],[[1306,995],[23,-55],[8,-65],[-37,-56]],[[1393,1128],[67,20]],[[1460,1148],[73,-41],[41,16],[43,-82]],[[1617,1041],[14,-51],[-18,-51],[31,-72]],[[1644,867],[-17,-53],[-57,-82],[-45,1],[-36,-84]],[[1489,649],[-66,20]],[[1423,669],[22,67],[-87,54]],[[1460,1148],[54,25],[49,-1],[81,21],[38,72],[46,-41],[77,-1],[50,-28],[61,-15]],[[1916,1180],[-54,-65],[-6,-89]],[[1856,1026],[-38,-14]],[[1818,1012],[-37,17],[-29,43],[6,104],[-95,-119],[-46,-16]],[[1818,1012],[-68,-138],[-61,-35],[-45,28]],[[1892,722],[-48,43],[38,37],[-1,61],[-20,48],[16,39]],[[1877,950],[66,-12],[5,-27]],[[1948,911],[6,-61],[-27,-72],[-1,-45]],[[1926,733],[-34,-11]],[[1856,1026],[21,-76]],[[1892,722],[-73,-74],[-41,-78],[-40,-106]],[[1738,464],[-54,-5]],[[1684,459],[-76,19]],[[1608,478],[-42,56],[15,38],[-6,45],[-53,-25],[-33,57]],[[1738,464],[-6,-69],[88,-160],[-20,-95],[-36,-42]],[[1764,98],[-55,36],[-7,42],[-34,3]],[[1668,179],[35,36],[15,87],[-53,34],[-2,49],[39,42],[-18,32]],[[1668,179],[-48,-17],[-29,22],[-47,80]],[[1544,264],[44,30],[33,52],[-50,69],[21,42]],[[1592,457],[16,21]],[[1764,98],[-36,-34],[-75,0],[-57,33],[-156,-4]],[[1440,93],[-16,56],[31,67]],[[1455,216],[89,48]],[[1423,669],[-33,-60],[-10,-83]],[[1380,526],[-32,-43],[-34,95],[17,34],[-43,46],[0,62]],[[1057,51],[-86,13],[27,42],[34,6],[-9,75]],[[1023,187],[111,36]],[[1134,223],[29,-56]],[[1163,167],[-59,-22],[1,-39],[-48,-55]],[[1163,167],[74,7],[44,-9],[38,16]],[[1319,181],[21,-36],[4,-96]],[[1344,49],[-85,-49],[-202,51]],[[1440,93],[-64,-40],[-32,-4]],[[1319,181],[5,35]],[[1324,216],[45,43]],[[1369,259],[27,-24],[59,-19]],[[1369,259],[6,67],[43,31],[-19,37]],[[1399,394],[13,29]],[[1412,423],[70,17],[40,43],[70,-26]],[[1412,423],[-20,26],[29,55],[-41,22]],[[1399,394],[-75,43],[-82,22],[-50,39]],[[1324,216],[-66,44],[-2,38]],[[1256,298],[16,30],[-43,49],[-50,7],[-26,26]],[[1153,410],[-6,42]],[[1134,223],[29,71]],[[1163,294],[35,21],[58,-17]],[[1023,187],[-10,42],[24,56],[67,39]],[[1104,324],[51,-21]],[[1155,303],[8,-9]],[[1104,324],[-4,15]],[[1100,339],[39,19]],[[1139,358],[16,-55]],[[1153,410],[-14,-52]],[[1100,339],[-38,70]],[[1916,1180],[38,-5]],[[1954,1175],[58,-68]],[[2012,1107],[29,-85],[-10,-50],[-47,-52]],[[1984,920],[-36,-9]],[[1984,920],[22,-49]],[[2006,871],[-11,-46],[48,-102],[-23,-38],[-46,4],[-48,44]],[[2012,1107],[51,1],[50,-27],[27,14]],[[2140,1095],[44,-8],[14,-40],[-10,-40],[34,-79],[-9,-77]],[[2213,851],[-150,1],[-57,19]],[[2140,1095],[39,67],[68,16],[28,-28],[30,37],[63,0],[7,32]],[[2375,1219],[66,-9]],[[2441,1210],[-27,-76],[-68,-37],[41,-36],[12,-55],[56,-16],[-14,-53],[17,-63]],[[2458,874],[-43,-8],[-30,-35],[-73,17],[-99,3]],[[2441,1210],[45,23],[60,-59]],[[2546,1174],[56,-62],[36,-60],[88,-28],[48,14]],[[2774,1038],[1,-32],[-33,-87],[-28,-29],[-62,-117],[-44,21],[11,69],[-130,4],[-31,7]],[[2546,1174],[26,54],[29,27]],[[2601,1255],[20,-8],[109,0],[38,-49],[49,-11]],[[2817,1187],[-28,-118],[-15,-31]],[[2601,1255],[4,55]],[[2605,1310],[67,18],[26,90],[64,-22],[1,75],[42,7],[-8,100],[65,87]],[[2862,1665],[69,-32],[68,-3]],[[2999,1630],[-29,-66],[13,-83],[-26,-29],[-6,-48],[-78,-71],[-30,-95],[-26,-51]],[[2375,1219],[-6,23],[29,71],[-20,26]],[[2378,1339],[20,11],[10,68],[-29,84],[11,16],[88,31],[10,21]],[[2488,1570],[51,-6],[49,-48],[-55,-121],[57,-49],[15,-36]],[[2488,1570],[-16,75]],[[2472,1645],[15,26],[64,-25],[78,10],[16,48],[-11,44],[-47,59]],[[2587,1807],[47,24],[54,1],[31,-32],[23,-81],[54,9],[57,-18]],[[2853,1710],[9,-45]],[[2853,1710],[20,9],[4,65],[-69,88],[16,101]],[[2824,1973],[92,11],[1,-37],[53,-31],[21,-38],[32,0]],[[3023,1878],[27,-64],[-51,-184]],[[2587,1807],[-57,70],[-32,23],[-20,58]],[[2478,1958],[57,35],[62,-33],[55,41],[107,4]],[[2759,2005],[66,-2],[-1,-30]],[[2759,2005],[-4,143],[33,15],[20,46],[37,27]],[[2845,2236],[62,43]],[[2907,2279],[78,2],[45,68],[48,-16]],[[3078,2333],[31,-87],[-11,-96],[-60,-93],[-43,-84],[5,-53],[23,-42]],[[2478,1958],[-35,55],[23,69],[4,60],[-21,38],[15,37],[61,-11],[16,52],[-27,66]],[[2514,2324],[27,39]],[[2541,2363],[65,-17],[15,-43],[110,48],[48,-66],[57,-22],[9,-27]],[[2541,2363],[-107,91],[-9,27]],[[2425,2481],[10,43],[35,2],[18,43]],[[2488,2569],[39,60],[75,2],[43,-43],[62,-6],[62,64]],[[2769,2646],[30,-37],[1,-49],[29,-40],[-4,-60],[-30,-26],[19,-42],[44,-29],[49,-84]],[[2769,2646],[-24,82],[26,37],[-41,36],[15,43]],[[2745,2844],[55,15],[78,64],[41,-24],[39,8]],[[2958,2907],[37,-33],[51,8],[28,-96],[76,-17]],[[3150,2769],[-15,-33],[33,-50],[3,-48],[-23,-16],[-79,44],[-57,-26],[62,-69],[51,-79],[0,-41],[-47,-118]],[[4274,2604],[27,11],[13,49],[30,9],[59,-14],[38,-73],[-38,-97],[-23,-20],[-95,-17],[-3,-162],[-23,-51],[1,-40],[28,-27],[48,-10],[0,-60],[-53,-4],[-68,-72],[15,-76],[-82,-26],[-71,-59],[-35,-93],[-20,-30],[20,-41],[-61,-65],[-77,-13],[45,112],[38,19],[-33,35],[-57,196],[0,24],[40,69],[1,51],[-22,24],[-19,94],[5,40],[121,137],[55,113],[45,42],[35,6],[26,48],[65,45],[25,-74]],[[4481,2603],[-22,-6],[-31,64],[16,54],[38,27],[83,-8],[21,-32],[-101,-46],[-4,-53]],[[4548,3097],[-37,9],[-29,55],[62,-6],[4,-58]],[[3130,1385],[-58,19],[8,67],[-41,13]],[[3039,1484],[55,123],[49,42],[82,197],[1,57],[19,36],[17,98],[47,56],[39,6],[11,-59],[-42,-44],[11,-64],[-85,-201],[-23,-40],[0,-121],[-65,-88],[-25,-97]],[[3130,1385],[0,-53],[-42,-73],[-7,-44],[-63,-220],[-29,-71],[-35,-23],[-14,84],[20,95],[-14,95],[-15,48],[33,96],[75,165]],[[735,2089],[-52,-42],[-49,20],[-23,-17],[-57,26]],[[554,2076],[3,95],[-33,-2],[-5,-71],[-40,3],[-22,60],[5,44],[-8,103]],[[454,2308],[62,3]],[[516,2311],[47,-11],[112,43]],[[675,2343],[34,-24],[-5,-107],[46,-29],[-15,-94]],[[735,2089],[41,-72],[82,74],[51,-12],[32,-55]],[[941,2024],[-78,-83],[17,-31],[-23,-42],[-18,-81],[-23,-55],[-27,20],[-103,-25]],[[686,1727],[-84,182],[-31,41],[-17,126]],[[1254,1569],[-18,18],[-59,-16],[1,51],[-33,2],[-33,-44],[-33,30],[-4,41],[-38,36]],[[1037,1687],[-49,35],[49,72],[41,-14],[21,50],[30,4]],[[1129,1834],[35,-61],[45,57],[64,26],[56,-13],[80,-38],[8,-65],[36,-19]],[[1453,1721],[0,-60],[-110,-50],[-71,-15],[-18,-27]],[[941,2024],[16,3]],[[957,2027],[90,-31],[-16,-68],[62,-7],[43,-23]],[[1136,1898],[-7,-64]],[[1037,1687],[-22,-22],[-17,-62],[-56,-16],[-89,-80]],[[853,1507],[-44,65],[-89,59],[-34,96]],[[1014,1170],[21,40],[-6,70]],[[1029,1280],[38,2],[23,43],[76,37],[18,43],[70,13]],[[1254,1418],[52,-72]],[[1306,1346],[-3,-26],[36,-76],[-20,-36],[15,-69]],[[1254,1569],[0,-151]],[[1029,1280],[-17,59],[-38,24],[-43,-18],[-69,91],[-9,71]],[[1306,1346],[84,58],[71,-22],[34,24],[24,-71]],[[1519,1335],[19,-73],[-11,-37],[-67,-77]],[[1453,1721],[45,52]],[[1498,1773],[45,-28],[128,48],[48,-54],[32,-82],[46,-41]],[[1797,1616],[-1,-121]],[[1796,1495],[-59,-88],[-36,-5],[-38,46],[-42,-41],[-9,-49],[-51,-22],[-42,-1]],[[1796,1495],[56,-49],[3,-43],[25,-21],[-14,-70],[48,-4],[39,-39]],[[1953,1269],[13,-61],[-12,-33]],[[1797,1616],[54,84],[-33,72],[14,38],[-10,49],[25,38]],[[1847,1897],[51,10]],[[1898,1907],[14,-42],[66,-31],[9,-101],[19,-27],[-42,-116],[-22,-30],[42,-21],[14,-35],[-2,-65],[13,-62]],[[2009,1377],[-26,-31],[16,-42],[-46,-35]],[[2009,1377],[67,-14],[38,44],[43,14],[42,-49],[38,3],[24,63]],[[2261,1438],[48,6],[43,-46],[26,-59]],[[2261,1438],[-45,52],[21,61],[50,17]],[[2287,1568],[45,10],[75,69],[30,-24],[35,22]],[[2287,1568],[-16,106],[45,41],[-18,65],[-30,9],[-20,54],[12,32],[-32,63]],[[2228,1938],[39,3],[51,33],[77,3],[83,-19]],[[1898,1907],[78,48],[91,20]],[[2067,1975],[59,-54],[7,-32],[41,-4],[54,53]],[[2067,1975],[25,138],[-9,50]],[[2083,2163],[18,88],[6,108]],[[2107,2359],[57,-47],[76,-37],[65,14],[71,-33],[64,13],[25,48],[49,7]],[[1498,1773],[-25,79],[13,33],[-47,22],[11,82],[18,12]],[[1468,2001],[57,-13],[55,54],[46,-21],[23,36]],[[1649,2057],[99,24],[30,-20],[41,70],[20,6]],[[1839,2137],[20,-76],[22,-33],[-34,-131]],[[1468,2001],[-19,93],[-43,2],[-3,33],[44,87],[45,14],[83,-8]],[[1575,2222],[-5,-58],[52,-31],[27,-76]],[[1136,1898],[53,95],[55,53]],[[1244,2046],[86,74],[89,156],[43,44]],[[1462,2320],[56,15],[21,33]],[[1539,2368],[39,-66],[-3,-80]],[[1605,2796],[-15,-100],[-28,-35],[-2,-52]],[[1560,2609],[-66,9]],[[1494,2618],[20,67],[-33,30]],[[1481,2715],[-14,26],[53,87]],[[1520,2828],[73,-11],[12,-21]],[[1605,2796],[65,12],[40,63],[-4,47]],[[1706,2918],[97,8]],[[1803,2926],[-29,-91],[-40,-176],[-91,-37],[-83,-13]],[[2187,2706],[-42,15],[-138,2],[-30,57]],[[1977,2780],[-16,100]],[[1961,2880],[159,-12],[23,52]],[[2143,2920],[30,1],[45,-110]],[[2218,2811],[13,-40],[-40,-13],[-4,-52]],[[2187,2706],[58,-191]],[[2245,2515],[-74,11]],[[2171,2526],[-44,62],[-87,-21],[-50,-39]],[[1990,2528],[-31,110],[-47,-7],[-17,24],[11,56],[43,15],[28,54]],[[1839,2137],[9,81],[42,32]],[[1890,2250],[85,-56],[25,32],[38,-6],[45,-57]],[[1539,2368],[105,20],[48,-15],[60,7],[9,-61],[48,-4]],[[1809,2315],[81,-65]],[[2107,2359],[-10,35],[54,120],[20,12]],[[2245,2515],[8,-25],[126,-22],[46,13]],[[1809,2315],[18,76],[46,51],[8,50],[109,36]],[[1961,2880],[-99,40],[-14,41]],[[1848,2961],[70,198]],[[1918,3159],[83,-10],[10,-26],[77,17]],[[2088,3140],[23,-18],[7,-60]],[[2118,3062],[0,-112],[25,-30]],[[1918,3159],[66,134]],[[1984,3293],[33,-16],[132,28],[43,-36],[-6,-60]],[[2186,3209],[-37,-69],[-61,0]],[[2118,3062],[58,35],[101,-47],[29,-28],[32,-111]],[[2338,2911],[61,-60]],[[2399,2851],[-7,-106]],[[2392,2745],[-27,-11],[-57,53],[-90,24]],[[2392,2745],[31,-16],[-10,-51],[68,-68],[7,-41]],[[2399,2851],[57,8],[40,119],[62,-33],[81,40]],[[2639,2985],[79,-60],[29,-42],[-2,-39]],[[2958,2907],[21,113],[-71,45],[-20,39]],[[2888,3104],[-7,65],[21,17],[127,-42],[47,-38],[39,-54],[55,-20]],[[3170,3032],[41,-104],[-43,-49],[13,-69],[-31,-41]],[[2338,2911],[53,45],[6,44],[-26,70],[15,43],[-28,113]],[[2358,3226],[33,27],[-6,46],[18,148],[48,-10]],[[2451,3437],[76,-5]],[[2527,3432],[1,-15],[84,-95],[75,-20],[58,-91]],[[2745,3211],[20,-44]],[[2765,3167],[-126,-59],[0,-123]],[[2765,3167],[45,-23],[29,-36],[49,-4]],[[2186,3209],[62,18],[16,27],[48,6],[46,-34]],[[1984,3293],[67,138]],[[2051,3431],[128,56],[37,35],[47,94],[77,48],[29,-5]],[[2369,3659],[53,-25]],[[2422,3634],[-2,-24],[46,-89],[-15,-84]],[[2422,3634],[19,39],[52,3],[13,87]],[[2506,3763],[43,34]],[[2549,3797],[64,-19],[32,53],[39,-47],[45,-24]],[[2729,3760],[54,-35],[55,-78]],[[2838,3647],[-49,-30],[-52,-130],[-37,-71],[-54,10],[-48,25],[-71,-19]],[[2838,3647],[54,-27]],[[2892,3620],[46,-66],[10,-46],[104,-2],[71,-43],[24,-44]],[[3147,3419],[-57,6],[-120,35],[-84,-1],[-24,-16],[8,-49],[84,-11],[35,25],[54,3],[73,-20],[73,-45],[47,-71],[-74,-59],[-45,-4]],[[3117,3212],[-100,52],[-76,13],[-27,33],[-89,15],[-33,-28],[-47,-86]],[[3117,3212],[-5,-40],[47,-45],[15,-38],[-4,-57]],[[3197,4051],[-43,2],[-154,-46]],[[3000,4007],[-46,7],[-25,-31],[-68,-17],[-28,49],[-71,40],[-93,-18]],[[2669,4037],[-2,67],[70,92]],[[2737,4196],[87,-22],[68,33],[-6,59]],[[2886,4266],[6,1]],[[2892,4267],[62,10],[185,15]],[[3139,4292],[57,-78],[-9,-48],[17,-45],[-7,-70]],[[558,2435],[-7,44],[23,44],[52,14]],[[626,2537],[3,-51]],[[629,2486],[-31,-42],[-39,-9]],[[559,2435],[-1,0]],[[516,2311],[-19,87],[17,36],[44,1]],[[559,2435],[17,-53],[38,10],[59,-30]],[[673,2362],[2,-19]],[[673,2362],[40,20],[65,-20],[53,11]],[[831,2373],[49,17]],[[880,2390],[-2,-55],[43,-18],[45,31],[42,-28],[41,-4]],[[1049,2316],[-49,-91],[18,-40],[-16,-93],[-45,-65]],[[1049,2316],[88,72],[16,41],[37,-19]],[[1190,2410],[-1,-36],[-37,-76],[73,-9],[-24,-74],[-4,-74],[25,-27],[-15,-54],[37,-14]],[[1190,2410],[53,28]],[[1243,2438],[15,-46],[81,-8],[29,40],[67,-8],[43,28]],[[1478,2444],[-25,-84],[9,-40]],[[629,2486],[132,4]],[[761,2490],[31,-14],[39,-78],[0,-25]],[[1494,2618],[-9,-49],[17,-21],[-29,-48],[5,-56]],[[1243,2438],[-38,45],[9,50],[-55,50],[-13,73]],[[1146,2656],[46,16],[34,45],[59,31]],[[1285,2748],[58,-9],[57,26],[28,-75],[53,25]],[[880,2390],[68,70],[-26,24],[4,62],[21,83]],[[947,2629],[36,5],[53,67]],[[1036,2701],[48,-37],[62,-8]],[[761,2490],[32,36]],[[793,2526],[56,32],[38,61]],[[887,2619],[60,10]],[[1520,2828],[-25,28],[-20,65],[34,49],[-9,48],[78,14]],[[1578,3032],[51,28]],[[1629,3060],[56,-27],[21,-115]],[[1629,3060],[10,27],[77,64]],[[1716,3151],[57,-2],[24,42]],[[1797,3191],[54,5],[67,-37]],[[1848,2961],[-45,-35]],[[397,2535],[-54,19],[-6,60],[61,109]],[[398,2723],[110,3],[34,63]],[[542,2789],[35,-12]],[[577,2777],[9,-48],[-22,-20],[-34,-79],[-18,-13]],[[512,2617],[-38,-17],[-77,-65]],[[626,2537],[21,21],[-42,60]],[[605,2618],[76,35],[29,84]],[[710,2737],[35,-45],[25,-124],[23,-42]],[[577,2777],[62,10],[96,89]],[[735,2876],[30,-8]],[[765,2868],[-7,-99],[-48,-32]],[[605,2618],[-74,-44],[-19,43]],[[765,2868],[21,58],[40,38]],[[826,2964],[71,-6],[22,-84]],[[919,2874],[-75,-66],[-16,-47],[41,-26],[20,-42],[-2,-74]],[[398,2723],[17,102],[31,94]],[[446,2919],[56,-2]],[[502,2917],[42,-37],[-2,-91]],[[919,2874],[103,11]],[[1022,2885],[-24,-27],[15,-44],[43,-6],[15,-42],[-35,-65]],[[1285,2748],[-32,60],[-4,55],[-55,-5],[-2,35]],[[1192,2893],[19,64],[38,20],[49,82]],[[1298,3059],[61,4],[42,69],[74,25],[29,25]],[[1504,3182],[-1,-42],[-52,-19],[24,-36],[59,14],[44,-67]],[[1022,2885],[16,1]],[[1038,2886],[154,7]],[[1797,3191],[-3,23],[45,51],[-18,81]],[[1821,3346],[-4,58],[-34,12],[6,100],[59,31],[13,53]],[[1861,3600],[32,-16],[7,-58],[36,-11],[70,24]],[[2006,3539],[10,-57],[35,-51]],[[1821,3346],[-97,-42]],[[1724,3304],[-31,1],[-38,75],[-54,2],[-1,0]],[[1600,3382],[-17,14],[96,182],[33,13]],[[1712,3591],[55,34],[82,14]],[[1849,3639],[12,-39]],[[1716,3151],[-41,40],[49,113]],[[1504,3182],[-21,62],[-52,21]],[[1431,3265],[-2,27],[40,45]],[[1469,3337],[46,22],[16,-37],[45,5],[22,46],[2,9]],[[1298,3059],[-77,35],[-31,43]],[[1190,3137],[-9,37],[28,22],[51,-1],[17,29]],[[1277,3224],[154,41]],[[1038,2886],[-31,91],[-41,28],[11,47]],[[977,3052],[-16,49],[30,66]],[[991,3167],[45,-3],[42,-60],[29,28],[60,-16],[23,21]],[[826,2964],[0,32]],[[826,2996],[39,5],[71,45],[41,6]],[[502,2917],[88,169]],[[590,3086],[45,-67],[-21,-28],[4,-77],[44,-24],[73,-14]],[[446,2919],[2,62],[-30,72],[-28,27],[-68,-21],[-61,-65],[-30,21],[69,121],[-3,33]],[[297,3169],[39,35],[122,8]],[[458,3212],[52,15],[52,-8]],[[562,3219],[39,-38],[-12,-55],[1,-40]],[[590,3086],[75,25],[43,-14],[36,-58],[49,46]],[[793,3085],[50,-26],[-17,-63]],[[212,3669],[-40,-39],[-101,-19]],[[71,3611],[-67,118],[-4,25],[50,101],[91,36],[66,-130],[5,-92]],[[212,3669],[104,24]],[[316,3693],[39,-55],[2,-40]],[[357,3598],[2,-45],[-21,-80],[-2,-51],[-64,19],[-25,-30],[-20,-97],[-27,-42]],[[200,3272],[-88,-33]],[[112,3239],[-18,23],[-13,155],[-35,56],[25,138]],[[200,3272],[22,-16]],[[222,3256],[-55,-125],[-20,-25]],[[147,3106],[-54,3],[-17,38],[36,92]],[[222,3256],[50,4],[4,-59]],[[276,3201],[-21,-28],[5,-42],[-43,-85],[-41,3],[-29,57]],[[297,3169],[-21,32]],[[357,3598],[38,-5],[33,-64]],[[428,3529],[37,-47],[2,-49],[-29,-46],[-2,-78],[16,-26],[6,-71]],[[431,4030],[-14,-34],[93,-77],[8,-67],[50,-26],[31,-54],[-29,-47],[8,-88],[-64,-55]],[[514,3582],[-50,-9],[-36,-44]],[[316,3693],[28,118],[40,68],[6,107],[26,50]],[[776,3931],[-31,-85],[-1,-74],[30,-49],[-21,-79]],[[753,3644],[-85,-1],[-23,-27],[15,-58],[-28,-16]],[[632,3542],[-37,36],[-42,-16],[-39,20]],[[632,3542],[16,-60],[-26,-58]],[[622,3424],[-31,-58],[-6,-78],[-23,-69]],[[1394,3809],[152,-66],[32,-41],[109,-8],[23,-12],[2,-91]],[[1469,3337],[-59,36],[14,38],[-6,53],[-29,46],[-99,7]],[[331,2823],[39,-31],[-11,-53],[-70,-56],[-36,20],[-19,87],[56,6],[41,27]],[[351,3040],[54,-53],[2,-85],[-46,-44],[-92,-8],[-47,-36],[-33,30],[-4,59],[95,80],[44,17],[27,40]],[[1047,3584],[-44,-60]],[[1003,3524],[-181,67],[-69,53]],[[2032,4300],[-7,55],[-43,27],[80,98],[-21,41],[49,6],[56,31]],[[2146,4558],[46,-127],[84,-43],[-8,-42]],[[2268,4346],[-1,-58],[-26,-31],[-50,-1],[-55,-60],[-88,-2]],[[2048,4194],[-29,30],[13,76]],[[2045,4841],[32,-112],[36,-44],[25,-90]],[[2138,4595],[8,-37]],[[2032,4300],[-28,0],[-122,63]],[[2318,4810],[-12,-12],[-38,-122],[-38,-60],[-67,-4],[-25,-17]],[[2425,4703],[3,-68],[34,-10],[25,-56],[-4,-37]],[[2483,4532],[-7,-65],[44,-11],[15,-30],[-3,-65],[63,-2]],[[2595,4359],[-33,-48],[23,-81],[-61,-7],[-9,-27]],[[2515,4196],[-47,43],[-107,24],[-22,66],[-71,17]],[[2048,4194],[13,-51]],[[2061,4143],[-10,-66],[-27,-27],[-59,16]],[[1965,4066],[-40,36],[-113,18]],[[1965,4066],[-22,-31],[11,-118]],[[1954,3917],[-53,-23],[-54,-78],[-47,-25]],[[1800,3791],[-6,26]],[[1849,3639],[2,43],[-58,80],[7,29]],[[1954,3917],[90,24],[-19,-93]],[[2025,3848],[14,-50]],[[2039,3798],[25,-48],[-14,-31],[-57,-36],[-9,-40],[22,-104]],[[2061,4143],[46,-13],[35,-43],[5,-74],[54,0],[13,-27]],[[2214,3986],[-4,-35],[-51,-12],[-23,-34]],[[2136,3905],[-54,-15],[-57,-42]],[[2214,3986],[67,-1],[80,14],[21,-18]],[[2382,3981],[-35,-30],[-16,-57],[-87,2],[-52,-24],[-56,33]],[[2506,3763],[-72,52],[13,41],[-14,47],[-51,78]],[[2515,4196],[27,-46],[6,-76],[29,-12],[20,-57]],[[2597,4005],[5,-11]],[[2602,3994],[22,-49],[-100,-99],[25,-49]],[[2369,3659],[-14,87],[-134,92],[-115,-47],[-67,7]],[[2846,4923],[-2,-88],[-53,-51]],[[2791,4784],[-10,38],[-48,2],[-87,60],[-72,-16]],[[2791,4784],[-4,-39]],[[2787,4745],[-77,-56]],[[2710,4689],[-52,40],[-43,-9],[-48,67]],[[3156,4618],[-78,-21],[-82,85],[-25,0],[-70,-65]],[[2901,4617],[-36,26],[-12,42],[-66,60]],[[2710,4689],[32,-99],[-5,-78]],[[2737,4512],[-63,-17],[-38,-26],[-41,51],[-38,-9],[-74,21]],[[2901,4617],[-2,-70],[-16,-35]],[[2883,4512],[-20,-21],[-70,2]],[[2793,4493],[-56,19]],[[3273,4364],[-18,-42],[-39,-31],[-77,1]],[[2892,4267],[-15,47],[39,59],[-7,101],[-26,38]],[[2886,4266],[-22,12]],[[2864,4278],[-3,70],[-80,106],[12,39]],[[2864,4278],[-56,-1],[-45,19],[-101,-9]],[[2662,4287],[-18,1],[-49,71]],[[2669,4037],[-72,-32]],[[2662,4287],[20,-38],[55,-53]],[[3623,3749],[-2,-55],[-62,-112],[-22,-15]],[[3537,3567],[-15,48],[-45,60],[15,57]],[[3492,3732],[17,56]],[[3366,3496],[-36,-57]],[[3330,3439],[-27,60],[63,-3]],[[2892,3620],[115,-42],[30,0],[41,46],[-34,58]],[[3044,3682],[107,59],[67,13],[11,48],[66,41]],[[3295,3843],[56,-45],[141,-66]],[[3537,3567],[-61,-36],[-57,-7],[-53,-28]],[[3330,3439],[-108,-39],[-75,19]],[[3295,3843],[-63,67],[0,83],[22,26]],[[3254,4019],[120,-1],[57,-24]],[[3197,4051],[57,-32]],[[3044,3682],[-64,41],[36,21],[-13,39],[44,42],[-23,70],[-32,36],[8,76]],[[2602,3994],[101,-4],[39,-19],[32,-70],[45,-49],[-90,-92]],[[3500,4264],[-19,-141],[-47,-66]],[[1003,3524],[-29,-99],[-44,-104]],[[930,3321],[-75,-28],[-96,70],[-25,0],[-112,61]],[[930,3321],[-13,-65],[-36,-31],[-8,-35]],[[873,3190],[-43,-42],[-59,-21],[22,-42]],[[873,3190],[59,-8],[64,27],[-5,-42]],[[1291,3513],[-92,-153],[-3,-52],[58,-44],[23,-40]],[[3797,3914],[33,-25],[-13,-46],[24,-19]],[[3841,3824],[5,-42],[-35,-36],[-4,-59],[-27,-64],[-37,8],[-34,73],[-16,124],[23,55]],[[3716,3883],[48,-6],[33,37]],[[3965,3695],[-33,23],[83,39],[11,-25],[-61,-37]],[[3958,3810],[-36,-51],[-23,50],[59,1]],[[3797,3914],[32,35]],[[3829,3949],[57,-6],[11,36],[42,23]],[[3939,4002],[30,8],[57,-55],[24,5]],[[4050,3960],[29,-32],[-77,-23],[-161,-81]],[[3939,4002],[-5,21],[-1,2]],[[3933,4025],[12,14]],[[3945,4039],[2,1],[43,10]],[[3990,4050],[65,-40],[-5,-50]],[[3945,4039],[0,0],[-50,72]],[[3895,4111],[57,14],[38,-75]],[[4031,4125],[-48,-30],[-19,42],[76,16]],[[3933,4025],[-4,4],[-43,0],[-64,31],[-51,7]],[[3771,4067],[2,19],[95,32],[27,-7]],[[3821,4154],[49,21]],[[3870,4175],[2,-1]],[[3872,4174],[35,-34],[-120,-13],[-66,61]],[[3721,4188],[45,9],[8,32]],[[3774,4229],[49,-36]],[[3823,4193],[-25,-23],[23,-16]],[[3829,3949],[-32,72],[-24,16]],[[3773,4037],[-2,30]],[[3623,4049],[34,31],[34,-30]],[[3691,4050],[28,-68],[-29,-13]],[[3691,4050],[57,6],[25,-19]],[[3716,3883],[-47,-30],[0,78]],[[3636,4513],[-37,-48]],[[3599,4465],[-23,-21],[15,-73],[-23,-49]],[[3568,4322],[-52,83],[-19,7]],[[3599,4465],[133,-79]],[[3732,4386],[11,-49],[-16,-26]],[[3727,4311],[-5,-36]],[[3722,4275],[-28,-30],[-63,53],[-53,1],[-10,23]],[[3960,4520],[-50,-56],[-49,-7],[-7,-73],[-21,-7]],[[3833,4377],[-58,-8],[-43,17]],[[4096,4383],[-133,-78],[-42,-6]],[[3921,4299],[-67,21]],[[3854,4320],[-21,57]],[[3952,4224],[17,5]],[[3969,4229],[37,-38],[-47,-6],[-7,39]],[[3823,4193],[-2,-39]],[[3823,4193],[11,5],[3,0]],[[3837,4198],[2,0],[31,-23]],[[3854,4320],[-17,-50]],[[3837,4270],[-39,35],[-54,-26]],[[3744,4279],[-17,32]],[[3774,4229],[-30,50]],[[3837,4270],[13,-28]],[[3850,4242],[-13,-44]],[[3921,4299],[-2,-48]],[[3919,4251],[-27,-33]],[[3892,4218],[-42,24]],[[3721,4188],[-14,21],[15,66]],[[3605,4227],[37,-107],[-71,94],[34,13]],[[3615,4253],[57,-32],[37,-55],[-7,-64],[-59,55],[-28,96]],[[3892,4218],[-20,-44]],[[3919,4185],[28,-13],[10,-28],[-40,0],[2,41]],[[4216,4394],[-83,-56],[-74,-78],[-43,4],[-47,-35]],[[3952,4224],[-33,27]],[[454,2308],[-34,107],[-56,21],[-12,29],[45,70]],[[335,2488],[-9,-55],[-37,5],[19,43],[27,7]]],"transform":{"scale":[0.0017981099456944507,0.0009668540002838684],"translate":[11.095804409625828,55.339391439747885]},"objects":{"SWE":{"type":"GeometryCollection","geometries":[{"arcs":[[0,1,2]],"type":"Polygon","properties":{"name":"Kiruna","shapeGroup":"SWE","gid":"SWE-2-0"},"id":"SWE-2-0"},{"arcs":[[-1,3,4,5,6]],"type":"Polygon","properties":{"name":"Pajala","shapeGroup":"SWE","gid":"SWE-2-1"},"id":"SWE-2-1"},{"arcs":[[7,8,9,10]],"type":"Polygon","properties":{"name":"Arjeplog","shapeGroup":"SWE","gid":"SWE-2-2"},"id":"SWE-2-2"},{"arcs":[[-5,11,12,13,14]],"type":"Polygon","properties":{"name":"Övertorneå","shapeGroup":"SWE","gid":"SWE-2-3"},"id":"SWE-2-3"},{"arcs":[[-13,15,16]],"type":"Polygon","properties":{"name":"Haparanda","shapeGroup":"SWE","gid":"SWE-2-4"},"id":"SWE-2-4"},{"arcs":[[-14,-17,17,18,19]],"type":"Polygon","properties":{"name":"Kalix","shapeGroup":"SWE","gid":"SWE-2-5"},"id":"SWE-2-5"},{"arcs":[[-6,-15,-20,20,21,22]],"type":"Polygon","properties":{"name":"Överkalix","shapeGroup":"SWE","gid":"SWE-2-6"},"id":"SWE-2-6"},{"arcs":[[23,24,25,26,27]],"type":"Polygon","properties":{"name":"Älvsbyn","shapeGroup":"SWE","gid":"SWE-2-7"},"id":"SWE-2-7"},{"arcs":[[-24,28,29,30,31]],"type":"Polygon","properties":{"name":"Piteå","shapeGroup":"SWE","gid":"SWE-2-8"},"id":"SWE-2-8"},{"arcs":[[-19,32,-29,-28,33,-21]],"type":"Polygon","properties":{"name":"Luleå","shapeGroup":"SWE","gid":"SWE-2-9"},"id":"SWE-2-9"},{"arcs":[[-22,-34,-27,34,35]],"type":"Polygon","properties":{"name":"Boden","shapeGroup":"SWE","gid":"SWE-2-10"},"id":"SWE-2-10"},{"arcs":[[-2,-7,-23,-36,36,37]],"type":"Polygon","properties":{"name":"Gällivare","shapeGroup":"SWE","gid":"SWE-2-11"},"id":"SWE-2-11"},{"arcs":[[-11,38,-37,-35,-26,39]],"type":"Polygon","properties":{"name":"Jokkmokk","shapeGroup":"SWE","gid":"SWE-2-12"},"id":"SWE-2-12"},{"arcs":[[-8,-40,-25,-32,40,41,42,43]],"type":"Polygon","properties":{"name":"Arvidsjaur","shapeGroup":"SWE","gid":"SWE-2-13"},"id":"SWE-2-13"},{"arcs":[[-9,-44,44,45,46,47]],"type":"Polygon","properties":{"name":"Sorsele","shapeGroup":"SWE","gid":"SWE-2-14"},"id":"SWE-2-14"},{"arcs":[[-47,48,49,50]],"type":"Polygon","properties":{"name":"Storuman","shapeGroup":"SWE","gid":"SWE-2-15"},"id":"SWE-2-15"},{"arcs":[[51,52,53,54]],"type":"Polygon","properties":{"name":"Dorotea","shapeGroup":"SWE","gid":"SWE-2-16"},"id":"SWE-2-16"},{"arcs":[[-55,55,56,57,58,59]],"type":"Polygon","properties":{"name":"Åsele","shapeGroup":"SWE","gid":"SWE-2-17"},"id":"SWE-2-17"},{"arcs":[[-50,60,-56,-54,61,62]],"type":"Polygon","properties":{"name":"Vilhelmina","shapeGroup":"SWE","gid":"SWE-2-18"},"id":"SWE-2-18"},{"arcs":[[-46,63,64,65,66,-57,-61,-49]],"type":"Polygon","properties":{"name":"Lycksele","shapeGroup":"SWE","gid":"SWE-2-19"},"id":"SWE-2-19"},{"arcs":[[-31,67,68,69,70,71,-41]],"type":"Polygon","properties":{"name":"Skellefteå","shapeGroup":"SWE","gid":"SWE-2-20"},"id":"SWE-2-20"},{"arcs":[[-43,72,-64,-45]],"type":"Polygon","properties":{"name":"Malå","shapeGroup":"SWE","gid":"SWE-2-21"},"id":"SWE-2-21"},{"arcs":[[-42,-72,73,-65,-73]],"type":"Polygon","properties":{"name":"Norsjö","shapeGroup":"SWE","gid":"SWE-2-22"},"id":"SWE-2-22"},{"arcs":[[-69,74,75]],"type":"Polygon","properties":{"name":"Robertsfors","shapeGroup":"SWE","gid":"SWE-2-23"},"id":"SWE-2-23"},{"arcs":[[-58,-67,76,77,78,79]],"type":"Polygon","properties":{"name":"Bjurholm","shapeGroup":"SWE","gid":"SWE-2-24"},"id":"SWE-2-24"},{"arcs":[[-78,80,81,82]],"type":"Polygon","properties":{"name":"Vännäs","shapeGroup":"SWE","gid":"SWE-2-25"},"id":"SWE-2-25"},{"arcs":[[-79,-83,83,84,85]],"type":"Polygon","properties":{"name":"Nordmaling","shapeGroup":"SWE","gid":"SWE-2-26"},"id":"SWE-2-26"},{"arcs":[[[86]],[[-70,-76,87,-84,-82,88]]],"type":"MultiPolygon","properties":{"name":"Umeå","shapeGroup":"SWE","gid":"SWE-2-27"},"id":"SWE-2-27"},{"arcs":[[-66,-74,-71,-89,-81,-77]],"type":"Polygon","properties":{"name":"Vindeln","shapeGroup":"SWE","gid":"SWE-2-28"},"id":"SWE-2-28"},{"arcs":[[[89]],[[-53,90,91,92,93,94,-62]]],"type":"MultiPolygon","properties":{"name":"Strömsund","shapeGroup":"SWE","gid":"SWE-2-29"},"id":"SWE-2-29"},{"arcs":[[95,96,97,98]],"type":"Polygon","properties":{"name":"Åre","shapeGroup":"SWE","gid":"SWE-2-30"},"id":"SWE-2-30"},{"arcs":[[99,100,101,102,103,104,105]],"type":"Polygon","properties":{"name":"Härjedalen","shapeGroup":"SWE","gid":"SWE-2-31"},"id":"SWE-2-31"},{"arcs":[[-97,106,107,108,-106,109]],"type":"Polygon","properties":{"name":"Berg","shapeGroup":"SWE","gid":"SWE-2-32"},"id":"SWE-2-32"},{"arcs":[[-93,110,111,-107,-96,112]],"type":"Polygon","properties":{"name":"Östersund","shapeGroup":"SWE","gid":"SWE-2-33"},"id":"SWE-2-33"},{"arcs":[[-92,113,114,115,-111]],"type":"Polygon","properties":{"name":"Ragunda","shapeGroup":"SWE","gid":"SWE-2-34"},"id":"SWE-2-34"},{"arcs":[[-108,-112,-116,116,117]],"type":"Polygon","properties":{"name":"Bräcke","shapeGroup":"SWE","gid":"SWE-2-35"},"id":"SWE-2-35"},{"arcs":[[-94,-113,-99,118],[-90]],"type":"Polygon","properties":{"name":"Krokom","shapeGroup":"SWE","gid":"SWE-2-36"},"id":"SWE-2-36"},{"arcs":[[-59,-80,-86,119,120,121]],"type":"Polygon","properties":{"name":"Örnsköldsvik","shapeGroup":"SWE","gid":"SWE-2-37"},"id":"SWE-2-37"},{"arcs":[[-121,122,123,124]],"type":"Polygon","properties":{"name":"Kramfors","shapeGroup":"SWE","gid":"SWE-2-38"},"id":"SWE-2-38"},{"arcs":[[-52,-60,-122,-125,125,126,-114,-91]],"type":"Polygon","properties":{"name":"Sollefteå","shapeGroup":"SWE","gid":"SWE-2-39"},"id":"SWE-2-39"},{"arcs":[[-124,127,128,-126]],"type":"Polygon","properties":{"name":"Härnösand","shapeGroup":"SWE","gid":"SWE-2-40"},"id":"SWE-2-40"},{"arcs":[[-129,129,130]],"type":"Polygon","properties":{"name":"Timrå","shapeGroup":"SWE","gid":"SWE-2-41"},"id":"SWE-2-41"},{"arcs":[[-100,-109,-118,131,132,133]],"type":"Polygon","properties":{"name":"Ånge","shapeGroup":"SWE","gid":"SWE-2-42"},"id":"SWE-2-42"},{"arcs":[[[134]],[[-115,-127,-131,135,136,-132,-117]]],"type":"MultiPolygon","properties":{"name":"Sundsvall","shapeGroup":"SWE","gid":"SWE-2-43"},"id":"SWE-2-43"},{"arcs":[[-133,-137,137,138]],"type":"Polygon","properties":{"name":"Nordanstig","shapeGroup":"SWE","gid":"SWE-2-44"},"id":"SWE-2-44"},{"arcs":[[-139,139,140,141,142]],"type":"Polygon","properties":{"name":"Hudiksvall","shapeGroup":"SWE","gid":"SWE-2-45"},"id":"SWE-2-45"},{"arcs":[[143,144,145,146]],"type":"Polygon","properties":{"name":"Ovanåker","shapeGroup":"SWE","gid":"SWE-2-46"},"id":"SWE-2-46"},{"arcs":[[-101,-134,-143,147,-146,148,149]],"type":"Polygon","properties":{"name":"Ljusdal","shapeGroup":"SWE","gid":"SWE-2-47"},"id":"SWE-2-47"},{"arcs":[[-142,150,151,152,-147,-148]],"type":"Polygon","properties":{"name":"Bollnäs","shapeGroup":"SWE","gid":"SWE-2-48"},"id":"SWE-2-48"},{"arcs":[[-141,153,154,155,-151]],"type":"Polygon","properties":{"name":"Söderhamn","shapeGroup":"SWE","gid":"SWE-2-49"},"id":"SWE-2-49"},{"arcs":[[-152,-156,156,157,158]],"type":"Polygon","properties":{"name":"Ockelbo","shapeGroup":"SWE","gid":"SWE-2-50"},"id":"SWE-2-50"},{"arcs":[[-155,159,160,161,162,163,-157]],"type":"Polygon","properties":{"name":"Gävle","shapeGroup":"SWE","gid":"SWE-2-51"},"id":"SWE-2-51"},{"arcs":[[164,165,166,167]],"type":"Polygon","properties":{"name":"Hofors","shapeGroup":"SWE","gid":"SWE-2-52"},"id":"SWE-2-52"},{"arcs":[[-158,-164,168,169,-168,170]],"type":"Polygon","properties":{"name":"Sandviken","shapeGroup":"SWE","gid":"SWE-2-53"},"id":"SWE-2-53"},{"arcs":[[171,172,173,174,175,176,177]],"type":"Polygon","properties":{"name":"Malung-Sälen","shapeGroup":"SWE","gid":"SWE-2-54"},"id":"SWE-2-54"},{"arcs":[[-104,178,-176,179]],"type":"Polygon","properties":{"name":"Älvdalen","shapeGroup":"SWE","gid":"SWE-2-55"},"id":"SWE-2-55"},{"arcs":[[-102,-150,180,181]],"type":"Polygon","properties":{"name":"Orsa","shapeGroup":"SWE","gid":"SWE-2-56"},"id":"SWE-2-56"},{"arcs":[[-103,-182,182,183,184,-177,-179]],"type":"Polygon","properties":{"name":"Mora","shapeGroup":"SWE","gid":"SWE-2-57"},"id":"SWE-2-57"},{"arcs":[[-184,185,186,187,188,189]],"type":"Polygon","properties":{"name":"Leksand","shapeGroup":"SWE","gid":"SWE-2-58"},"id":"SWE-2-58"},{"arcs":[[-178,-185,-190,190,191,192]],"type":"Polygon","properties":{"name":"Vansbro","shapeGroup":"SWE","gid":"SWE-2-59"},"id":"SWE-2-59"},{"arcs":[[-189,193,194,-191]],"type":"Polygon","properties":{"name":"Gagnef","shapeGroup":"SWE","gid":"SWE-2-60"},"id":"SWE-2-60"},{"arcs":[[-192,-195,195,196,197,198,199]],"type":"Polygon","properties":{"name":"Ludvika","shapeGroup":"SWE","gid":"SWE-2-61"},"id":"SWE-2-61"},{"arcs":[[-197,200,201,202,203,204,205,206,207]],"type":"Polygon","properties":{"name":"Smedjebacken","shapeGroup":"SWE","gid":"SWE-2-62"},"id":"SWE-2-62"},{"arcs":[[-188,208,209,-201,-196,-194]],"type":"Polygon","properties":{"name":"Borlänge","shapeGroup":"SWE","gid":"SWE-2-63"},"id":"SWE-2-63"},{"arcs":[[-144,-153,-159,-171,-167,210,211,-209,-187,212]],"type":"Polygon","properties":{"name":"Falun","shapeGroup":"SWE","gid":"SWE-2-64"},"id":"SWE-2-64"},{"arcs":[[-202,-210,-212,213]],"type":"Polygon","properties":{"name":"Säter","shapeGroup":"SWE","gid":"SWE-2-65"},"id":"SWE-2-65"},{"arcs":[[-166,214,215,-203,-214,-211]],"type":"Polygon","properties":{"name":"Hedemora","shapeGroup":"SWE","gid":"SWE-2-66"},"id":"SWE-2-66"},{"arcs":[[-165,-170,216,217,218,-215]],"type":"Polygon","properties":{"name":"Avesta","shapeGroup":"SWE","gid":"SWE-2-67"},"id":"SWE-2-67"},{"arcs":[[-174,219,220,221,222]],"type":"Polygon","properties":{"name":"Torsby","shapeGroup":"SWE","gid":"SWE-2-68"},"id":"SWE-2-68"},{"arcs":[[223,224,225,226,227,228]],"type":"Polygon","properties":{"name":"Årjäng","shapeGroup":"SWE","gid":"SWE-2-69"},"id":"SWE-2-69"},{"arcs":[[-227,229,230]],"type":"Polygon","properties":{"name":"Eda","shapeGroup":"SWE","gid":"SWE-2-70"},"id":"SWE-2-70"},{"arcs":[[-222,231,232,233,234,-228,-231,235]],"type":"Polygon","properties":{"name":"Arvika","shapeGroup":"SWE","gid":"SWE-2-71"},"id":"SWE-2-71"},{"arcs":[[-229,-235,236,237,238,239,240,241,242,243]],"type":"Polygon","properties":{"name":"Säffle","shapeGroup":"SWE","gid":"SWE-2-72"},"id":"SWE-2-72"},{"arcs":[[-234,244,245,-237]],"type":"Polygon","properties":{"name":"Grums","shapeGroup":"SWE","gid":"SWE-2-73"},"id":"SWE-2-73"},{"arcs":[[-221,246,247,248,249,-232]],"type":"Polygon","properties":{"name":"Sunne","shapeGroup":"SWE","gid":"SWE-2-74"},"id":"SWE-2-74"},{"arcs":[[-233,-250,250,251,-245]],"type":"Polygon","properties":{"name":"Kil","shapeGroup":"SWE","gid":"SWE-2-75"},"id":"SWE-2-75"},{"arcs":[[-249,252,253,254,-251]],"type":"Polygon","properties":{"name":"Forshaga","shapeGroup":"SWE","gid":"SWE-2-76"},"id":"SWE-2-76"},{"arcs":[[-248,255,-253]],"type":"Polygon","properties":{"name":"Munkfors","shapeGroup":"SWE","gid":"SWE-2-77"},"id":"SWE-2-77"},{"arcs":[[-239,256,257,258]],"type":"Polygon","properties":{"name":"Hammarö","shapeGroup":"SWE","gid":"SWE-2-78"},"id":"SWE-2-78"},{"arcs":[[-238,-246,-252,-255,259,260,261,262,-257]],"type":"Polygon","properties":{"name":"Karlstad","shapeGroup":"SWE","gid":"SWE-2-79"},"id":"SWE-2-79"},{"arcs":[[-173,263,-260,-254,-256,-247,-220]],"type":"Polygon","properties":{"name":"Hagfors","shapeGroup":"SWE","gid":"SWE-2-80"},"id":"SWE-2-80"},{"arcs":[[-172,-193,-200,264,265,-261,-264]],"type":"Polygon","properties":{"name":"Filipstad","shapeGroup":"SWE","gid":"SWE-2-81"},"id":"SWE-2-81"},{"arcs":[[-262,-266,266,267,268]],"type":"Polygon","properties":{"name":"Storfors","shapeGroup":"SWE","gid":"SWE-2-82"},"id":"SWE-2-82"},{"arcs":[[-258,-263,-269,269,270,271,272]],"type":"Polygon","properties":{"name":"Kristinehamn","shapeGroup":"SWE","gid":"SWE-2-83"},"id":"SWE-2-83"},{"arcs":[[-161,273,274]],"type":"Polygon","properties":{"name":"Älvkarleby","shapeGroup":"SWE","gid":"SWE-2-84"},"id":"SWE-2-84"},{"arcs":[[-163,275,276,277,278,-217,-169]],"type":"Polygon","properties":{"name":"Heby","shapeGroup":"SWE","gid":"SWE-2-85"},"id":"SWE-2-85"},{"arcs":[[-162,-275,279,280,281,-276]],"type":"Polygon","properties":{"name":"Tierp","shapeGroup":"SWE","gid":"SWE-2-86"},"id":"SWE-2-86"},{"arcs":[[[-281,282,283,284]],[[285]]],"type":"MultiPolygon","properties":{"name":"Östhammar","shapeGroup":"SWE","gid":"SWE-2-87"},"id":"SWE-2-87"},{"arcs":[[286,287,288]],"type":"Polygon","properties":{"name":"Knivsta","shapeGroup":"SWE","gid":"SWE-2-88"},"id":"SWE-2-88"},{"arcs":[[-277,-282,-285,289,-289,290,291,292]],"type":"Polygon","properties":{"name":"Uppsala","shapeGroup":"SWE","gid":"SWE-2-89"},"id":"SWE-2-89"},{"arcs":[[-278,-293,293,294,295,296,297]],"type":"Polygon","properties":{"name":"Enköping","shapeGroup":"SWE","gid":"SWE-2-90"},"id":"SWE-2-90"},{"arcs":[[[298]],[[-284,299,300,301,302,-287,-290]]],"type":"MultiPolygon","properties":{"name":"Norrtälje","shapeGroup":"SWE","gid":"SWE-2-91"},"id":"SWE-2-91"},{"arcs":[[303,304,305,306]],"type":"Polygon","properties":{"name":"Nykvarn","shapeGroup":"SWE","gid":"SWE-2-92"},"id":"SWE-2-92"},{"arcs":[[-306,307,308,309,310,311,312]],"type":"Polygon","properties":{"name":"Södertälje","shapeGroup":"SWE","gid":"SWE-2-93"},"id":"SWE-2-93"},{"arcs":[[[313,314]],[[315]]],"type":"MultiPolygon","properties":{"name":"Värmdö","shapeGroup":"SWE","gid":"SWE-2-94"},"id":"SWE-2-94"},{"arcs":[[316,317]],"type":"Polygon","properties":{"name":"Höganäs","shapeGroup":"SWE","gid":"SWE-2-95"},"id":"SWE-2-95"},{"arcs":[[-317,318,319,320,321,322,323,324]],"type":"Polygon","properties":{"name":"Helsingborg","shapeGroup":"SWE","gid":"SWE-2-96"},"id":"SWE-2-96"},{"arcs":[[325,326,327]],"type":"Polygon","properties":{"name":"Båstad","shapeGroup":"SWE","gid":"SWE-2-97"},"id":"SWE-2-97"},{"arcs":[[-320,328,-326,329,330,331,332]],"type":"Polygon","properties":{"name":"Ängelholm","shapeGroup":"SWE","gid":"SWE-2-98"},"id":"SWE-2-98"},{"arcs":[[-321,-333,333,334,335]],"type":"Polygon","properties":{"name":"Åstorp","shapeGroup":"SWE","gid":"SWE-2-99"},"id":"SWE-2-99"},{"arcs":[[-322,-336,336]],"type":"Polygon","properties":{"name":"Bjuv","shapeGroup":"SWE","gid":"SWE-2-100"},"id":"SWE-2-100"},{"arcs":[[-324,337,338,339]],"type":"Polygon","properties":{"name":"Landskrona","shapeGroup":"SWE","gid":"SWE-2-101"},"id":"SWE-2-101"},{"arcs":[[-339,340,341,342,343,344]],"type":"Polygon","properties":{"name":"Kävlinge","shapeGroup":"SWE","gid":"SWE-2-102"},"id":"SWE-2-102"},{"arcs":[[-323,-337,-335,345,346,-341,-338]],"type":"Polygon","properties":{"name":"Svalöv","shapeGroup":"SWE","gid":"SWE-2-103"},"id":"SWE-2-103"},{"arcs":[[-332,347,348,349,350,351,-346,-334]],"type":"Polygon","properties":{"name":"Klippan","shapeGroup":"SWE","gid":"SWE-2-104"},"id":"SWE-2-104"},{"arcs":[[-331,352,353,354,355,-348]],"type":"Polygon","properties":{"name":"Örkelljunga","shapeGroup":"SWE","gid":"SWE-2-105"},"id":"SWE-2-105"},{"arcs":[[-349,-356,356]],"type":"Polygon","properties":{"name":"Perstorp","shapeGroup":"SWE","gid":"SWE-2-106"},"id":"SWE-2-106"},{"arcs":[[-350,-357,-355,357,358,359,360,361,362]],"type":"Polygon","properties":{"name":"Hässleholm","shapeGroup":"SWE","gid":"SWE-2-107"},"id":"SWE-2-107"},{"arcs":[[-359,363,364,365,366]],"type":"Polygon","properties":{"name":"Osby","shapeGroup":"SWE","gid":"SWE-2-108"},"id":"SWE-2-108"},{"arcs":[[-360,-367,367]],"type":"Polygon","properties":{"name":"Östra Göinge","shapeGroup":"SWE","gid":"SWE-2-109"},"id":"SWE-2-109"},{"arcs":[[368,369,370,371]],"type":"Polygon","properties":{"name":"Bromölla","shapeGroup":"SWE","gid":"SWE-2-110"},"id":"SWE-2-110"},{"arcs":[[-361,-368,-366,372,-369,373,374,375,376]],"type":"Polygon","properties":{"name":"Kristianstad","shapeGroup":"SWE","gid":"SWE-2-111"},"id":"SWE-2-111"},{"arcs":[[-375,377,378,379]],"type":"Polygon","properties":{"name":"Simrishamn","shapeGroup":"SWE","gid":"SWE-2-112"},"id":"SWE-2-112"},{"arcs":[[-376,-380,380,381,382]],"type":"Polygon","properties":{"name":"Tomelilla","shapeGroup":"SWE","gid":"SWE-2-113"},"id":"SWE-2-113"},{"arcs":[[-379,383,384,385,-381]],"type":"Polygon","properties":{"name":"Ystad","shapeGroup":"SWE","gid":"SWE-2-114"},"id":"SWE-2-114"},{"arcs":[[-351,-363,386,387]],"type":"Polygon","properties":{"name":"Höör","shapeGroup":"SWE","gid":"SWE-2-115"},"id":"SWE-2-115"},{"arcs":[[388,389,390,391]],"type":"Polygon","properties":{"name":"Vellinge","shapeGroup":"SWE","gid":"SWE-2-116"},"id":"SWE-2-116"},{"arcs":[[-392,392,393,394]],"type":"Polygon","properties":{"name":"Trelleborg","shapeGroup":"SWE","gid":"SWE-2-117"},"id":"SWE-2-117"},{"arcs":[[-385,395,-394,396,397,398]],"type":"Polygon","properties":{"name":"Skurup","shapeGroup":"SWE","gid":"SWE-2-118"},"id":"SWE-2-118"},{"arcs":[[-382,-386,-399,399,400,401]],"type":"Polygon","properties":{"name":"Sjöbo","shapeGroup":"SWE","gid":"SWE-2-119"},"id":"SWE-2-119"},{"arcs":[[-362,-377,-383,-402,402,-387]],"type":"Polygon","properties":{"name":"Hörby","shapeGroup":"SWE","gid":"SWE-2-120"},"id":"SWE-2-120"},{"arcs":[[-342,-347,-352,-388,-403,-401,403]],"type":"Polygon","properties":{"name":"Eslöv","shapeGroup":"SWE","gid":"SWE-2-121"},"id":"SWE-2-121"},{"arcs":[[-343,-404,-400,-398,404,405,406]],"type":"Polygon","properties":{"name":"Lund","shapeGroup":"SWE","gid":"SWE-2-122"},"id":"SWE-2-122"},{"arcs":[[-391,407,408,-405,-397,-393]],"type":"Polygon","properties":{"name":"Svedala","shapeGroup":"SWE","gid":"SWE-2-123"},"id":"SWE-2-123"},{"arcs":[[-390,409,410,411,-408]],"type":"Polygon","properties":{"name":"Malmö","shapeGroup":"SWE","gid":"SWE-2-124"},"id":"SWE-2-124"},{"arcs":[[-411,412,413,414]],"type":"Polygon","properties":{"name":"Burlöv","shapeGroup":"SWE","gid":"SWE-2-125"},"id":"SWE-2-125"},{"arcs":[[-344,-407,415,-414,416]],"type":"Polygon","properties":{"name":"Lomma","shapeGroup":"SWE","gid":"SWE-2-126"},"id":"SWE-2-126"},{"arcs":[[-406,-409,-412,-415,-416]],"type":"Polygon","properties":{"name":"Staffanstorp","shapeGroup":"SWE","gid":"SWE-2-127"},"id":"SWE-2-127"},{"arcs":[[-365,417,418,419,420,-370,-373]],"type":"Polygon","properties":{"name":"Olofström","shapeGroup":"SWE","gid":"SWE-2-128"},"id":"SWE-2-128"},{"arcs":[[-371,-421,421,422]],"type":"Polygon","properties":{"name":"Sölvesborg","shapeGroup":"SWE","gid":"SWE-2-129"},"id":"SWE-2-129"},{"arcs":[[-420,423,424,425,-422]],"type":"Polygon","properties":{"name":"Karlshamn","shapeGroup":"SWE","gid":"SWE-2-130"},"id":"SWE-2-130"},{"arcs":[[-425,426,427,428,429]],"type":"Polygon","properties":{"name":"Ronneby","shapeGroup":"SWE","gid":"SWE-2-131"},"id":"SWE-2-131"},{"arcs":[[-429,430,431,432]],"type":"Polygon","properties":{"name":"Karlskrona","shapeGroup":"SWE","gid":"SWE-2-132"},"id":"SWE-2-132"},{"arcs":[[-432,433,434,435]],"type":"Polygon","properties":{"name":"Torsås","shapeGroup":"SWE","gid":"SWE-2-133"},"id":"SWE-2-133"},{"arcs":[[-435,436,437,438,439]],"type":"Polygon","properties":{"name":"Kalmar","shapeGroup":"SWE","gid":"SWE-2-134"},"id":"SWE-2-134"},{"arcs":[[-428,440,441,442,-437,-434,-431]],"type":"Polygon","properties":{"name":"Emmaboda","shapeGroup":"SWE","gid":"SWE-2-135"},"id":"SWE-2-135"},{"arcs":[[-438,-443,443,444,445,446]],"type":"Polygon","properties":{"name":"Nybro","shapeGroup":"SWE","gid":"SWE-2-136"},"id":"SWE-2-136"},{"arcs":[[-439,-447,447,448,449]],"type":"Polygon","properties":{"name":"Mönsterås","shapeGroup":"SWE","gid":"SWE-2-137"},"id":"SWE-2-137"},{"arcs":[[-446,450,451,452,-448]],"type":"Polygon","properties":{"name":"Högsby","shapeGroup":"SWE","gid":"SWE-2-138"},"id":"SWE-2-138"},{"arcs":[[-449,-453,453,454,455,456]],"type":"Polygon","properties":{"name":"Oskarshamn","shapeGroup":"SWE","gid":"SWE-2-139"},"id":"SWE-2-139"},{"arcs":[[-452,457,458,459,-454]],"type":"Polygon","properties":{"name":"Hultsfred","shapeGroup":"SWE","gid":"SWE-2-140"},"id":"SWE-2-140"},{"arcs":[[-455,-460,460,461,462,463]],"type":"Polygon","properties":{"name":"Vimmerby","shapeGroup":"SWE","gid":"SWE-2-141"},"id":"SWE-2-141"},{"arcs":[[-456,-464,464,465,466,467]],"type":"Polygon","properties":{"name":"Västervik","shapeGroup":"SWE","gid":"SWE-2-142"},"id":"SWE-2-142"},{"arcs":[[[468]],[[469]],[[470]]],"type":"MultiPolygon","properties":{"name":"Gotland","shapeGroup":"SWE","gid":"SWE-2-143"},"id":"SWE-2-143"},{"arcs":[[471,472]],"type":"Polygon","properties":{"name":"Borgholm","shapeGroup":"SWE","gid":"SWE-2-144"},"id":"SWE-2-144"},{"arcs":[[-472,473]],"type":"Polygon","properties":{"name":"Mörbylånga","shapeGroup":"SWE","gid":"SWE-2-145"},"id":"SWE-2-145"},{"arcs":[[474,475,476,477,478]],"type":"Polygon","properties":{"name":"Kungsbacka","shapeGroup":"SWE","gid":"SWE-2-146"},"id":"SWE-2-146"},{"arcs":[[-475,479,480,481]],"type":"Polygon","properties":{"name":"Varberg","shapeGroup":"SWE","gid":"SWE-2-147"},"id":"SWE-2-147"},{"arcs":[[482,483,484,485]],"type":"Polygon","properties":{"name":"Hylte","shapeGroup":"SWE","gid":"SWE-2-148"},"id":"SWE-2-148"},{"arcs":[[-481,486,487,488,-484,489,490]],"type":"Polygon","properties":{"name":"Falkenberg","shapeGroup":"SWE","gid":"SWE-2-149"},"id":"SWE-2-149"},{"arcs":[[-328,491,492,493,494,-353,-330]],"type":"Polygon","properties":{"name":"Laholm","shapeGroup":"SWE","gid":"SWE-2-150"},"id":"SWE-2-150"},{"arcs":[[-483,495,-493,496,-490]],"type":"Polygon","properties":{"name":"Halmstad","shapeGroup":"SWE","gid":"SWE-2-151"},"id":"SWE-2-151"},{"arcs":[[-354,-495,497,498,-358]],"type":"Polygon","properties":{"name":"Markaryd","shapeGroup":"SWE","gid":"SWE-2-152"},"id":"SWE-2-152"},{"arcs":[[-486,499,500,501,502,-498,-494,-496]],"type":"Polygon","properties":{"name":"Ljungby","shapeGroup":"SWE","gid":"SWE-2-153"},"id":"SWE-2-153"},{"arcs":[[-364,-499,-503,503,504,-418]],"type":"Polygon","properties":{"name":"Älmhult","shapeGroup":"SWE","gid":"SWE-2-154"},"id":"SWE-2-154"},{"arcs":[[-502,505,506,507,508,-504]],"type":"Polygon","properties":{"name":"Alvesta","shapeGroup":"SWE","gid":"SWE-2-155"},"id":"SWE-2-155"},{"arcs":[[-419,-505,-509,509,510,-441,-427,-424]],"type":"Polygon","properties":{"name":"Tingsryd","shapeGroup":"SWE","gid":"SWE-2-156"},"id":"SWE-2-156"},{"arcs":[[-442,-511,511,512,-444]],"type":"Polygon","properties":{"name":"Lessebo","shapeGroup":"SWE","gid":"SWE-2-157"},"id":"SWE-2-157"},{"arcs":[[-445,-513,513,514,-451]],"type":"Polygon","properties":{"name":"Uppvidinge","shapeGroup":"SWE","gid":"SWE-2-158"},"id":"SWE-2-158"},{"arcs":[[-508,515,516,-514,-512,-510]],"type":"Polygon","properties":{"name":"Växjö","shapeGroup":"SWE","gid":"SWE-2-159"},"id":"SWE-2-159"},{"arcs":[[-515,-517,517,518,519,-458]],"type":"Polygon","properties":{"name":"Vetlanda","shapeGroup":"SWE","gid":"SWE-2-160"},"id":"SWE-2-160"},{"arcs":[[-501,520,521,522,523,-506]],"type":"Polygon","properties":{"name":"Värnamo","shapeGroup":"SWE","gid":"SWE-2-161"},"id":"SWE-2-161"},{"arcs":[[-522,524,525]],"type":"Polygon","properties":{"name":"Gnosjö","shapeGroup":"SWE","gid":"SWE-2-162"},"id":"SWE-2-162"},{"arcs":[[-485,-489,526,527,528,529,-525,-521,-500]],"type":"Polygon","properties":{"name":"Gislaved","shapeGroup":"SWE","gid":"SWE-2-163"},"id":"SWE-2-163"},{"arcs":[[530,531,532,533,534]],"type":"Polygon","properties":{"name":"Mullsjö","shapeGroup":"SWE","gid":"SWE-2-164"},"id":"SWE-2-164"},{"arcs":[[-531,535,536,537]],"type":"Polygon","properties":{"name":"Habo","shapeGroup":"SWE","gid":"SWE-2-165"},"id":"SWE-2-165"},{"arcs":[[538,539,540,541,542]],"type":"Polygon","properties":{"name":"Tranås","shapeGroup":"SWE","gid":"SWE-2-166"},"id":"SWE-2-166"},{"arcs":[[-539,543,544,545,546]],"type":"Polygon","properties":{"name":"Aneby","shapeGroup":"SWE","gid":"SWE-2-167"},"id":"SWE-2-167"},{"arcs":[[-507,-524,547,548,-518,-516]],"type":"Polygon","properties":{"name":"Sävsjö","shapeGroup":"SWE","gid":"SWE-2-168"},"id":"SWE-2-168"},{"arcs":[[-523,-526,-530,549,550,-548]],"type":"Polygon","properties":{"name":"Vaggeryd","shapeGroup":"SWE","gid":"SWE-2-169"},"id":"SWE-2-169"},{"arcs":[[-459,-520,551,-545,552,-461]],"type":"Polygon","properties":{"name":"Eksjö","shapeGroup":"SWE","gid":"SWE-2-170"},"id":"SWE-2-170"},{"arcs":[[-519,-549,-551,553,-546,-552]],"type":"Polygon","properties":{"name":"Nässjö","shapeGroup":"SWE","gid":"SWE-2-171"},"id":"SWE-2-171"},{"arcs":[[-541,554,555,556,557,558]],"type":"Polygon","properties":{"name":"Ödeshög","shapeGroup":"SWE","gid":"SWE-2-172"},"id":"SWE-2-172"},{"arcs":[[-557,559,560,561]],"type":"Polygon","properties":{"name":"Vadstena","shapeGroup":"SWE","gid":"SWE-2-173"},"id":"SWE-2-173"},{"arcs":[[-542,-559,562,563,564,565]],"type":"Polygon","properties":{"name":"Boxholm","shapeGroup":"SWE","gid":"SWE-2-174"},"id":"SWE-2-174"},{"arcs":[[-462,-553,-544,-543,-566,566]],"type":"Polygon","properties":{"name":"Ydre","shapeGroup":"SWE","gid":"SWE-2-175"},"id":"SWE-2-175"},{"arcs":[[-463,-567,-565,567,568,-465]],"type":"Polygon","properties":{"name":"Kinda","shapeGroup":"SWE","gid":"SWE-2-176"},"id":"SWE-2-176"},{"arcs":[[-467,569,570,571]],"type":"Polygon","properties":{"name":"Valdemarsvik","shapeGroup":"SWE","gid":"SWE-2-177"},"id":"SWE-2-177"},{"arcs":[[-564,572,573,574,575,576,577,-568]],"type":"Polygon","properties":{"name":"Linköping","shapeGroup":"SWE","gid":"SWE-2-178"},"id":"SWE-2-178"},{"arcs":[[-466,-569,-578,578,-570]],"type":"Polygon","properties":{"name":"Åtvidaberg","shapeGroup":"SWE","gid":"SWE-2-179"},"id":"SWE-2-179"},{"arcs":[[-558,-562,579,-573,-563]],"type":"Polygon","properties":{"name":"Mjölby","shapeGroup":"SWE","gid":"SWE-2-180"},"id":"SWE-2-180"},{"arcs":[[-561,580,581,582,583,-574,-580]],"type":"Polygon","properties":{"name":"Motala","shapeGroup":"SWE","gid":"SWE-2-181"},"id":"SWE-2-181"},{"arcs":[[-575,-584,584,585,586,587,588]],"type":"Polygon","properties":{"name":"Finspång","shapeGroup":"SWE","gid":"SWE-2-182"},"id":"SWE-2-182"},{"arcs":[[-576,-589,589,590,591,592]],"type":"Polygon","properties":{"name":"Norrköping","shapeGroup":"SWE","gid":"SWE-2-183"},"id":"SWE-2-183"},{"arcs":[[-571,-579,-577,-593,593]],"type":"Polygon","properties":{"name":"Söderköping","shapeGroup":"SWE","gid":"SWE-2-184"},"id":"SWE-2-184"},{"arcs":[[-145,-213,-186,-183,-181,-149]],"type":"Polygon","properties":{"name":"Rättvik","shapeGroup":"SWE","gid":"SWE-2-185"},"id":"SWE-2-185"},{"arcs":[[594,595,596,597,598,599,600]],"type":"Polygon","properties":{"name":"Eskilstuna","shapeGroup":"SWE","gid":"SWE-2-186"},"id":"SWE-2-186"},{"arcs":[[601,602,603,604]],"type":"Polygon","properties":{"name":"Partille","shapeGroup":"SWE","gid":"SWE-2-187"},"id":"SWE-2-187"},{"arcs":[[-478,605,-605,606,607]],"type":"Polygon","properties":{"name":"Mölndal","shapeGroup":"SWE","gid":"SWE-2-188"},"id":"SWE-2-188"},{"arcs":[[-479,-608,608,609,610,611,-487,-480]],"type":"Polygon","properties":{"name":"Mark","shapeGroup":"SWE","gid":"SWE-2-189"},"id":"SWE-2-189"},{"arcs":[[-488,-612,612,613,-527]],"type":"Polygon","properties":{"name":"Svenljunga","shapeGroup":"SWE","gid":"SWE-2-190"},"id":"SWE-2-190"},{"arcs":[[-528,-614,614,615,616]],"type":"Polygon","properties":{"name":"Tranemo","shapeGroup":"SWE","gid":"SWE-2-191"},"id":"SWE-2-191"},{"arcs":[[-604,617,618,-609,-607]],"type":"Polygon","properties":{"name":"Härryda","shapeGroup":"SWE","gid":"SWE-2-192"},"id":"SWE-2-192"},{"arcs":[[-533,619,-616,620,621,622]],"type":"Polygon","properties":{"name":"Ulricehamn","shapeGroup":"SWE","gid":"SWE-2-193"},"id":"SWE-2-193"},{"arcs":[[-611,623,624,625,-621,-615,-613]],"type":"Polygon","properties":{"name":"Borås","shapeGroup":"SWE","gid":"SWE-2-194"},"id":"SWE-2-194"},{"arcs":[[-610,-619,626,627,628,-624]],"type":"Polygon","properties":{"name":"Bollebygd","shapeGroup":"SWE","gid":"SWE-2-195"},"id":"SWE-2-195"},{"arcs":[[-535,629,630,631,-536]],"type":"Polygon","properties":{"name":"Tidaholm","shapeGroup":"SWE","gid":"SWE-2-196"},"id":"SWE-2-196"},{"arcs":[[-537,-632,632,633,634,-556,635]],"type":"Polygon","properties":{"name":"Hjo","shapeGroup":"SWE","gid":"SWE-2-197"},"id":"SWE-2-197"},{"arcs":[[636,637,638,639,640]],"type":"Polygon","properties":{"name":"Kungälv","shapeGroup":"SWE","gid":"SWE-2-198"},"id":"SWE-2-198"},{"arcs":[[-603,641,642,643,-627,-618]],"type":"Polygon","properties":{"name":"Lerum","shapeGroup":"SWE","gid":"SWE-2-199"},"id":"SWE-2-199"},{"arcs":[[-640,644,645,646,-643,647]],"type":"Polygon","properties":{"name":"Ale","shapeGroup":"SWE","gid":"SWE-2-200"},"id":"SWE-2-200"},{"arcs":[[-628,-644,-647,648,649,650]],"type":"Polygon","properties":{"name":"Alingsås","shapeGroup":"SWE","gid":"SWE-2-201"},"id":"SWE-2-201"},{"arcs":[[-638,651,652,653]],"type":"Polygon","properties":{"name":"Stenungsund","shapeGroup":"SWE","gid":"SWE-2-202"},"id":"SWE-2-202"},{"arcs":[[-625,-629,-651,654,655]],"type":"Polygon","properties":{"name":"Vårgårda","shapeGroup":"SWE","gid":"SWE-2-203"},"id":"SWE-2-203"},{"arcs":[[-534,-623,656,657,658,659,-630]],"type":"Polygon","properties":{"name":"Falköping","shapeGroup":"SWE","gid":"SWE-2-204"},"id":"SWE-2-204"},{"arcs":[[-622,-626,-656,660,661,-657]],"type":"Polygon","properties":{"name":"Herrljunga","shapeGroup":"SWE","gid":"SWE-2-205"},"id":"SWE-2-205"},{"arcs":[[-635,662,663,664,665,-581,-560]],"type":"Polygon","properties":{"name":"Karlsborg","shapeGroup":"SWE","gid":"SWE-2-206"},"id":"SWE-2-206"},{"arcs":[[-664,666,667,668,669,670]],"type":"Polygon","properties":{"name":"Töreboda","shapeGroup":"SWE","gid":"SWE-2-207"},"id":"SWE-2-207"},{"arcs":[[-634,671,-667,-663]],"type":"Polygon","properties":{"name":"Tibro","shapeGroup":"SWE","gid":"SWE-2-208"},"id":"SWE-2-208"},{"arcs":[[-631,-660,672,673,674,-668,-672,-633]],"type":"Polygon","properties":{"name":"Skövde","shapeGroup":"SWE","gid":"SWE-2-209"},"id":"SWE-2-209"},{"arcs":[[-659,675,676,677,-673]],"type":"Polygon","properties":{"name":"Skara","shapeGroup":"SWE","gid":"SWE-2-210"},"id":"SWE-2-210"},{"arcs":[[-658,-662,678,679,680,-676]],"type":"Polygon","properties":{"name":"Vara","shapeGroup":"SWE","gid":"SWE-2-211"},"id":"SWE-2-211"},{"arcs":[[-650,681,682,-679,-661,-655]],"type":"Polygon","properties":{"name":"Essunga","shapeGroup":"SWE","gid":"SWE-2-212"},"id":"SWE-2-212"},{"arcs":[[-639,-654,683,684,-645]],"type":"Polygon","properties":{"name":"Lilla Edet","shapeGroup":"SWE","gid":"SWE-2-213"},"id":"SWE-2-213"},{"arcs":[[-653,685,686,687,688,-684]],"type":"Polygon","properties":{"name":"Uddevalla","shapeGroup":"SWE","gid":"SWE-2-214"},"id":"SWE-2-214"},{"arcs":[[-646,-685,689,690,-682,-649]],"type":"Polygon","properties":{"name":"Trollhättan","shapeGroup":"SWE","gid":"SWE-2-215"},"id":"SWE-2-215"},{"arcs":[[691,692]],"type":"Polygon","properties":{"name":"Strömstad","shapeGroup":"SWE","gid":"SWE-2-216"},"id":"SWE-2-216"},{"arcs":[[-692,693,694,695,696,697]],"type":"Polygon","properties":{"name":"Tanum","shapeGroup":"SWE","gid":"SWE-2-217"},"id":"SWE-2-217"},{"arcs":[[-697,698,699,700]],"type":"Polygon","properties":{"name":"Sotenäs","shapeGroup":"SWE","gid":"SWE-2-218"},"id":"SWE-2-218"},{"arcs":[[-700,701,702]],"type":"Polygon","properties":{"name":"Lysekil","shapeGroup":"SWE","gid":"SWE-2-219"},"id":"SWE-2-219"},{"arcs":[[-687,703,-702,-699,-696,704,705]],"type":"Polygon","properties":{"name":"Munkedal","shapeGroup":"SWE","gid":"SWE-2-220"},"id":"SWE-2-220"},{"arcs":[[-225,706,707,-705,-695,708]],"type":"Polygon","properties":{"name":"Dals-Ed","shapeGroup":"SWE","gid":"SWE-2-221"},"id":"SWE-2-221"},{"arcs":[[-224,-244,709,710,711,-707]],"type":"Polygon","properties":{"name":"Bengtsfors","shapeGroup":"SWE","gid":"SWE-2-222"},"id":"SWE-2-222"},{"arcs":[[-688,-706,-708,-712,712,713]],"type":"Polygon","properties":{"name":"Färgelanda","shapeGroup":"SWE","gid":"SWE-2-223"},"id":"SWE-2-223"},{"arcs":[[-240,-259,-273,714,-669,-675,715]],"type":"Polygon","properties":{"name":"Mariestad","shapeGroup":"SWE","gid":"SWE-2-224"},"id":"SWE-2-224"},{"arcs":[[716]],"type":"Polygon","properties":{"name":"Tjörn","shapeGroup":"SWE","gid":"SWE-2-225"},"id":"SWE-2-225"},{"arcs":[[717]],"type":"Polygon","properties":{"name":"Orust","shapeGroup":"SWE","gid":"SWE-2-226"},"id":"SWE-2-226"},{"arcs":[[-243,718,719,-710]],"type":"Polygon","properties":{"name":"Åmål","shapeGroup":"SWE","gid":"SWE-2-227"},"id":"SWE-2-227"},{"arcs":[[720,721,722,723]],"type":"Polygon","properties":{"name":"Nora","shapeGroup":"SWE","gid":"SWE-2-228"},"id":"SWE-2-228"},{"arcs":[[-199,724,725,-721,726,-267,-265]],"type":"Polygon","properties":{"name":"Hällefors","shapeGroup":"SWE","gid":"SWE-2-229"},"id":"SWE-2-229"},{"arcs":[[-198,-208,727,-725]],"type":"Polygon","properties":{"name":"Ljusnarsberg","shapeGroup":"SWE","gid":"SWE-2-230"},"id":"SWE-2-230"},{"arcs":[[-207,728,729,730,731,-722,-726,-728]],"type":"Polygon","properties":{"name":"Lindesberg","shapeGroup":"SWE","gid":"SWE-2-231"},"id":"SWE-2-231"},{"arcs":[[-268,-727,-724,732,733,734,-270]],"type":"Polygon","properties":{"name":"Karlskoga","shapeGroup":"SWE","gid":"SWE-2-232"},"id":"SWE-2-232"},{"arcs":[[-271,-735,735,736,737]],"type":"Polygon","properties":{"name":"Degerfors","shapeGroup":"SWE","gid":"SWE-2-233"},"id":"SWE-2-233"},{"arcs":[[-665,-671,738,-737,739,740,741]],"type":"Polygon","properties":{"name":"Laxå","shapeGroup":"SWE","gid":"SWE-2-234"},"id":"SWE-2-234"},{"arcs":[[-734,742,743,744,-740,-736]],"type":"Polygon","properties":{"name":"Lekeberg","shapeGroup":"SWE","gid":"SWE-2-235"},"id":"SWE-2-235"},{"arcs":[[-744,745,746]],"type":"Polygon","properties":{"name":"Kumla","shapeGroup":"SWE","gid":"SWE-2-236"},"id":"SWE-2-236"},{"arcs":[[-586,747,-746,-743,-733,-723,-732,748,749,750]],"type":"Polygon","properties":{"name":"Örebro","shapeGroup":"SWE","gid":"SWE-2-237"},"id":"SWE-2-237"},{"arcs":[[-583,751,-741,-745,-747,-748,-585]],"type":"Polygon","properties":{"name":"Hallsberg","shapeGroup":"SWE","gid":"SWE-2-238"},"id":"SWE-2-238"},{"arcs":[[-582,-666,-742,-752]],"type":"Polygon","properties":{"name":"Askersund","shapeGroup":"SWE","gid":"SWE-2-239"},"id":"SWE-2-239"},{"arcs":[[-204,-216,-219,752,753]],"type":"Polygon","properties":{"name":"Norberg","shapeGroup":"SWE","gid":"SWE-2-240"},"id":"SWE-2-240"},{"arcs":[[-205,-754,754,755,756]],"type":"Polygon","properties":{"name":"Fagersta","shapeGroup":"SWE","gid":"SWE-2-241"},"id":"SWE-2-241"},{"arcs":[[-218,-279,-298,757,758,-755,-753]],"type":"Polygon","properties":{"name":"Sala","shapeGroup":"SWE","gid":"SWE-2-242"},"id":"SWE-2-242"},{"arcs":[[-206,-757,759,760,-729]],"type":"Polygon","properties":{"name":"Skinnskatteberg","shapeGroup":"SWE","gid":"SWE-2-243"},"id":"SWE-2-243"},{"arcs":[[-756,-759,761,762,763,-760]],"type":"Polygon","properties":{"name":"Surahammar","shapeGroup":"SWE","gid":"SWE-2-244"},"id":"SWE-2-244"},{"arcs":[[-297,764,-600,765,-762,-758]],"type":"Polygon","properties":{"name":"Västerås","shapeGroup":"SWE","gid":"SWE-2-245"},"id":"SWE-2-245"},{"arcs":[[-599,766,767,-763,-766]],"type":"Polygon","properties":{"name":"Hallstahammar","shapeGroup":"SWE","gid":"SWE-2-246"},"id":"SWE-2-246"},{"arcs":[[-730,-761,-764,-768,768,769]],"type":"Polygon","properties":{"name":"Köping","shapeGroup":"SWE","gid":"SWE-2-247"},"id":"SWE-2-247"},{"arcs":[[-597,770,-749,-731,-770,771]],"type":"Polygon","properties":{"name":"Arboga","shapeGroup":"SWE","gid":"SWE-2-248"},"id":"SWE-2-248"},{"arcs":[[-598,-772,-769,-767]],"type":"Polygon","properties":{"name":"Kungsör","shapeGroup":"SWE","gid":"SWE-2-249"},"id":"SWE-2-249"},{"arcs":[[-312,772,773,774]],"type":"Polygon","properties":{"name":"Trosa","shapeGroup":"SWE","gid":"SWE-2-250"},"id":"SWE-2-250"},{"arcs":[[775,776]],"type":"Polygon","properties":{"name":"Oxelösund","shapeGroup":"SWE","gid":"SWE-2-251"},"id":"SWE-2-251"},{"arcs":[[-591,777,778,779,-774,780,-777,781]],"type":"Polygon","properties":{"name":"Nyköping","shapeGroup":"SWE","gid":"SWE-2-252"},"id":"SWE-2-252"},{"arcs":[[-307,-313,-775,-780,782,783]],"type":"Polygon","properties":{"name":"Gnesta","shapeGroup":"SWE","gid":"SWE-2-253"},"id":"SWE-2-253"},{"arcs":[[-595,784,-783,-779,785]],"type":"Polygon","properties":{"name":"Flen","shapeGroup":"SWE","gid":"SWE-2-254"},"id":"SWE-2-254"},{"arcs":[[-587,-751,786]],"type":"Polygon","properties":{"name":"Vingåker","shapeGroup":"SWE","gid":"SWE-2-255"},"id":"SWE-2-255"},{"arcs":[[-588,-787,-750,-771,-596,-786,-778,-590]],"type":"Polygon","properties":{"name":"Katrineholm","shapeGroup":"SWE","gid":"SWE-2-256"},"id":"SWE-2-256"},{"arcs":[[-296,787,-304,-784,-785,-601,-765]],"type":"Polygon","properties":{"name":"Strängnäs","shapeGroup":"SWE","gid":"SWE-2-257"},"id":"SWE-2-257"},{"arcs":[[-711,-720,788,789,-713]],"type":"Polygon","properties":{"name":"Mellerud","shapeGroup":"SWE","gid":"SWE-2-258"},"id":"SWE-2-258"},{"arcs":[[-689,-714,-790,790,791,-690]],"type":"Polygon","properties":{"name":"Vänersborg","shapeGroup":"SWE","gid":"SWE-2-259"},"id":"SWE-2-259"},{"arcs":[[-680,-683,-691,-792,792]],"type":"Polygon","properties":{"name":"Grästorp","shapeGroup":"SWE","gid":"SWE-2-260"},"id":"SWE-2-260"},{"arcs":[[-242,793,-677,-681,-793,-791,-789,-719]],"type":"Polygon","properties":{"name":"Lidköping","shapeGroup":"SWE","gid":"SWE-2-261"},"id":"SWE-2-261"},{"arcs":[[-241,-716,-674,-678,-794]],"type":"Polygon","properties":{"name":"Götene","shapeGroup":"SWE","gid":"SWE-2-262"},"id":"SWE-2-262"},{"arcs":[[-272,-738,-739,-670,-715]],"type":"Polygon","properties":{"name":"Gullspång","shapeGroup":"SWE","gid":"SWE-2-263"},"id":"SWE-2-263"},{"arcs":[[-529,-617,-620,-532,-538,-636,-555,-540,-547,-554,-550]],"type":"Polygon","properties":{"name":"Jönköping","shapeGroup":"SWE","gid":"SWE-2-264"},"id":"SWE-2-264"},{"arcs":[[794,795,796]],"type":"Polygon","properties":{"name":"Nynäshamn","shapeGroup":"SWE","gid":"SWE-2-265"},"id":"SWE-2-265"},{"arcs":[[[797]],[[798]],[[-795,799,800,801,802]]],"type":"MultiPolygon","properties":{"name":"Haninge","shapeGroup":"SWE","gid":"SWE-2-266"},"id":"SWE-2-266"},{"arcs":[[-802,803,804,805,806]],"type":"Polygon","properties":{"name":"Tyresö","shapeGroup":"SWE","gid":"SWE-2-267"},"id":"SWE-2-267"},{"arcs":[[[-806,807,808]],[[-314,809]]],"type":"MultiPolygon","properties":{"name":"Nacka","shapeGroup":"SWE","gid":"SWE-2-268"},"id":"SWE-2-268"},{"arcs":[[[-805,810,811,-808]],[[812,813,814,815,816,817]]],"type":"MultiPolygon","properties":{"name":"Stockholm","shapeGroup":"SWE","gid":"SWE-2-269"},"id":"SWE-2-269"},{"arcs":[[-801,818,819,-811,-804]],"type":"Polygon","properties":{"name":"Huddinge","shapeGroup":"SWE","gid":"SWE-2-270"},"id":"SWE-2-270"},{"arcs":[[-309,820,821]],"type":"Polygon","properties":{"name":"Salem","shapeGroup":"SWE","gid":"SWE-2-271"},"id":"SWE-2-271"},{"arcs":[[-310,-822,822,-819,-800,-797,823]],"type":"Polygon","properties":{"name":"Botkyrka","shapeGroup":"SWE","gid":"SWE-2-272"},"id":"SWE-2-272"},{"arcs":[[-292,824,825,826,-294]],"type":"Polygon","properties":{"name":"Håbo","shapeGroup":"SWE","gid":"SWE-2-273"},"id":"SWE-2-273"},{"arcs":[[-826,827,828,829,830]],"type":"Polygon","properties":{"name":"Upplands-Bro","shapeGroup":"SWE","gid":"SWE-2-274"},"id":"SWE-2-274"},{"arcs":[[-288,-303,831,832,-828,-825,-291]],"type":"Polygon","properties":{"name":"Sigtuna","shapeGroup":"SWE","gid":"SWE-2-275"},"id":"SWE-2-275"},{"arcs":[[-302,833,834,835,-832]],"type":"Polygon","properties":{"name":"Vallentuna","shapeGroup":"SWE","gid":"SWE-2-276"},"id":"SWE-2-276"},{"arcs":[[836,837]],"type":"Polygon","properties":{"name":"Vaxholm","shapeGroup":"SWE","gid":"SWE-2-277"},"id":"SWE-2-277"},{"arcs":[[-818,838]],"type":"Polygon","properties":{"name":"Sundbyberg","shapeGroup":"SWE","gid":"SWE-2-278"},"id":"SWE-2-278"},{"arcs":[[-813,-839,839,840]],"type":"Polygon","properties":{"name":"Solna","shapeGroup":"SWE","gid":"SWE-2-279"},"id":"SWE-2-279"},{"arcs":[[-829,-833,-836,841,842,843]],"type":"Polygon","properties":{"name":"Upplands Väsby","shapeGroup":"SWE","gid":"SWE-2-280"},"id":"SWE-2-280"},{"arcs":[[-817,844,-843,845,846,-840]],"type":"Polygon","properties":{"name":"Sollentuna","shapeGroup":"SWE","gid":"SWE-2-281"},"id":"SWE-2-281"},{"arcs":[[-835,847,848,849,-846,-842]],"type":"Polygon","properties":{"name":"Täby","shapeGroup":"SWE","gid":"SWE-2-282"},"id":"SWE-2-282"},{"arcs":[[-816,850,-830,-844,-845]],"type":"Polygon","properties":{"name":"Järfälla","shapeGroup":"SWE","gid":"SWE-2-283"},"id":"SWE-2-283"},{"arcs":[[[851]],[[852]]],"type":"MultiPolygon","properties":{"name":"Ekerö","shapeGroup":"SWE","gid":"SWE-2-284"},"id":"SWE-2-284"},{"arcs":[[-814,-841,-847,-850,853]],"type":"Polygon","properties":{"name":"Danderyd","shapeGroup":"SWE","gid":"SWE-2-285"},"id":"SWE-2-285"},{"arcs":[[854]],"type":"Polygon","properties":{"name":"Lidingö","shapeGroup":"SWE","gid":"SWE-2-286"},"id":"SWE-2-286"},{"arcs":[[-301,855,-837,856,-848,-834]],"type":"Polygon","properties":{"name":"Österåker","shapeGroup":"SWE","gid":"SWE-2-287"},"id":"SWE-2-287"},{"arcs":[[-477,857,-641,-648,-642,-602,-606]],"type":"Polygon","properties":{"name":"Gothenburg","shapeGroup":"SWE","gid":"SWE-2-288"},"id":"SWE-2-288"},{"arcs":[[858]],"type":"Polygon","properties":{"name":"Öckerö","shapeGroup":"SWE","gid":"SWE-2-289"},"id":"SWE-2-289"}]}}}