{"type":"Topology","arcs":[[[748,2896],[150,129],[100,133],[115,30]],[[1113,3188],[26,-54],[12,-92],[32,-27],[3,-42],[79,26]],[[1265,2999],[-16,-83],[20,-95]],[[1269,2821],[-58,-11]],[[1211,2810],[-64,47],[-176,-41],[-95,103],[-94,-48],[-34,25]],[[1322,822],[54,67],[-5,24],[64,53],[-12,49],[26,63]],[[1449,1078],[67,26],[61,-1],[37,28],[131,21],[36,26],[36,-10],[6,-47],[56,27],[89,-17]],[[1968,1131],[-40,-59],[32,-17],[38,-58],[-35,-50],[-113,-28],[-57,-83],[37,-27]],[[1830,809],[4,-22],[-98,-113],[5,-53],[-27,-66]],[[1714,555],[-143,58],[-28,67],[-33,2]],[[1510,682],[-48,22],[-40,-8]],[[1422,696],[-53,50],[-3,38],[-44,38]],[[2062,2650],[189,88],[59,-96],[154,-17],[-4,-40],[39,-266],[-13,-66]],[[2486,2253],[-21,48],[-68,-18],[-34,10]],[[2363,2293],[-30,82],[-90,1],[-11,69],[-34,39],[-55,23],[-81,143]],[[1265,2999],[39,41],[32,71]],[[1336,3111],[170,-112]],[[1506,2999],[2,-139],[-13,-27],[17,-53],[-43,-18],[-97,27]],[[1372,2789],[-103,32]],[[673,1504],[32,131],[34,3],[-45,98]],[[694,1736],[38,-1],[27,-59],[53,37],[59,-14]],[[871,1699],[46,-46],[45,8]],[[962,1661],[-32,-40],[20,-32]],[[950,1589],[-12,-82]],[[938,1507],[-59,16],[-35,-53],[-71,-21],[-59,13]],[[714,1462],[-41,42]],[[725,2161],[25,44]],[[750,2205],[61,-17],[27,-77],[42,-14],[28,-46],[27,-6],[2,-60]],[[937,1985],[1,-67],[-40,-52],[-13,-75]],[[885,1791],[-75,76],[-13,31],[-97,6]],[[700,1904],[29,38],[11,109],[-28,40],[40,57],[-27,13]],[[1545,140],[120,159],[-1,69]],[[1664,368],[56,2],[38,54],[51,5],[60,43],[0,44]],[[1869,516],[30,-56],[52,-4]],[[1951,456],[5,-95],[-16,-69],[-1,-91],[14,-105],[-31,-64],[16,-31]],[[1938,1],[-382,2]],[[1556,3],[-11,137]],[[1247,1685],[20,103],[60,-3],[18,38],[57,54]],[[1402,1877],[47,-14],[77,76],[12,34],[48,-30],[61,14],[20,-18]],[[1667,1939],[-60,-41],[-16,-59],[-51,-29]],[[1540,1810],[14,-65],[-12,-35],[10,-112],[-65,-17]],[[1487,1581],[-48,-14],[-67,8],[-28,42],[-83,43]],[[1261,1660],[-14,25]],[[834,179],[29,27],[-12,47],[58,16],[-28,84]],[[881,353],[85,10],[40,96]],[[1006,459],[41,-37],[102,-14]],[[1149,408],[21,-28],[-23,-77]],[[1147,303],[-10,-70],[36,-50],[-39,-58],[-5,-48]],[[1129,77],[-295,102]],[[1113,3188],[76,19],[147,-96]],[[2202,1614],[34,40],[62,17],[72,-8],[85,39],[44,7]],[[2499,1709],[56,-124],[-1,-628],[-29,5],[-26,56],[-24,10],[-91,-24],[-45,20]],[[2339,1024],[-21,54],[12,112]],[[2330,1190],[8,92],[-14,96],[-71,167],[-51,69]],[[1951,456],[46,-34],[39,-1],[-2,-73],[92,-5],[-12,-36],[137,-3]],[[2251,304],[5,-304],[-318,1]],[[1449,1078],[6,25],[-129,-24],[-14,16]],[[1312,1095],[10,93],[41,59],[6,52]],[[1369,1299],[163,72],[-14,136]],[[1518,1507],[78,2],[13,38]],[[1609,1547],[62,-100],[69,42],[38,-58],[64,31],[61,-111],[9,-49],[108,-152],[-29,-16]],[[1991,1134],[-23,-3]],[[1556,3],[-220,2],[-207,72]],[[1147,303],[53,2],[29,-22],[20,-50],[98,-11],[28,-46],[104,-13],[66,-23]],[[1006,459],[-10,68],[99,-26],[1,50]],[[1096,551],[70,20],[78,98],[27,21],[47,-14]],[[1318,676],[32,-27],[-8,-44],[25,-43],[-21,-105]],[[1346,457],[-78,8],[-74,-6],[-45,-51]],[[1211,2810],[-20,-80],[-100,58],[-39,-37],[82,-62],[-60,-64],[5,-30],[-90,15],[-7,-53],[71,-47],[1,-33]],[[1054,2477],[-37,17],[-51,-27]],[[966,2467],[-16,29],[-79,-1],[-33,43],[-45,-25],[-44,-2],[-59,24],[-59,3],[-72,32]],[[559,2570],[53,108],[26,123],[110,95]],[[938,1507],[18,-46],[77,-14],[60,-69],[19,-68],[43,-26]],[[1155,1284],[-27,-33],[-40,-1],[-40,-34],[-72,1],[-21,23]],[[955,1240],[-81,73],[-38,6],[-28,34],[-44,-4],[-62,31],[-28,-27],[-42,14],[-121,-12],[-6,44]],[[505,1399],[151,63],[58,0]],[[623,931],[105,62],[32,-18],[60,44],[130,-96],[5,56],[55,45],[60,18]],[[1070,1042],[46,-23],[-18,-40],[-15,-113]],[[1083,866],[-54,-24],[-70,-93],[-35,12],[-46,-38]],[[878,723],[-53,-14],[-96,-71],[-17,13]],[[712,651],[-37,32],[112,152],[-61,39],[-21,-10],[-82,67]],[[1991,1134],[146,-4],[-3,53],[50,38],[14,35],[39,-1],[25,34],[27,-88],[41,-11]],[[2339,1024],[-10,-26],[-38,-209],[-6,-86]],[[2285,703],[-31,45],[-78,39],[-8,32],[-55,13],[-104,-38],[-6,-23],[-109,-13],[-64,51]],[[725,2161],[-27,-69],[-54,-14]],[[644,2078],[-20,50],[-134,112],[-4,47],[-54,34]],[[432,2321],[100,187],[27,62]],[[966,2467],[19,-26],[-85,-80],[-12,-51],[-102,-2],[-20,-88],[-16,-15]],[[950,1589],[38,-24],[27,24],[58,9]],[[1073,1598],[19,-43],[40,3]],[[1132,1558],[72,-36],[3,-39],[44,-68],[-15,-27],[19,-66],[54,-32],[60,9]],[[1312,1095],[-55,32]],[[1257,1127],[-30,80],[-72,77]],[[1372,2789],[12,-39],[46,-31],[-11,-55],[20,-75]],[[1439,2589],[-40,-35],[-22,-64],[8,-53],[-77,-31]],[[1308,2406],[-39,-2],[-34,53],[-52,-29],[-48,47],[-42,-20],[-39,22]],[[1422,696],[-66,6],[-38,-26]],[[1096,551],[-50,33],[-46,-1],[-80,70],[16,22],[-58,48]],[[1083,866],[70,-2],[35,-20],[134,-22]],[[1609,1547],[31,17],[106,-9],[71,14],[31,31],[32,-38],[84,9],[108,39],[39,87],[-12,93],[29,7]],[[2128,1797],[2,-68],[34,-68],[38,-47]],[[1402,1877],[-84,64],[-44,55],[-64,32],[-6,39]],[[1204,2067],[77,65],[85,4],[77,97]],[[1443,2233],[-12,41],[58,28],[158,6],[39,8]],[[1686,2316],[19,-75]],[[1705,2241],[17,-91],[-22,-46],[-2,-109],[-31,-56]],[[2363,2293],[-59,-72],[-27,-62],[-82,-81]],[[2195,2078],[-90,222],[-39,38],[-54,-34],[29,-28],[-25,-70],[-2,-73],[-117,5],[-37,147],[29,66],[-75,-8],[-11,-31],[-48,-7],[-50,-64]],[[1686,2316],[19,16],[-18,74],[-16,124]],[[1671,2530],[-4,207],[105,16],[53,-22],[27,40]],[[1852,2771],[195,-127],[15,6]],[[1506,2999],[346,-228]],[[1671,2530],[-63,2],[-17,38],[-52,42],[-100,-23]],[[673,1504],[-33,69],[-55,-19],[-39,91],[-77,-34],[-35,-61]],[[434,1550],[-130,-22],[-77,17],[23,28],[-40,47],[-87,68],[-47,61],[-28,6]],[[48,1755],[28,63],[51,55],[77,137]],[[204,2010],[10,-22],[63,-25],[75,-52],[128,-58],[51,-93],[56,-12],[37,11]],[[624,1759],[26,-31],[44,8]],[[881,353],[-59,38],[-80,-36],[-6,60],[-36,45],[36,22],[-29,62],[-45,-4],[37,67],[-13,14]],[[686,621],[26,30]],[[700,1904],[-68,-22]],[[632,1882],[-72,15],[-37,76],[56,36],[-26,52],[7,36],[84,-19]],[[834,179],[-150,53],[-170,212],[-45,33]],[[469,477],[24,27],[95,-31],[18,44],[80,104]],[[1308,2406],[6,-71],[24,-60],[105,-42]],[[1204,2067],[-54,4],[-63,-16]],[[1087,2055],[-21,-29],[-90,-15],[-39,-26]],[[1261,1660],[-52,0],[-72,-46],[-5,-56]],[[1073,1598],[-39,58],[1,26]],[[1035,1682],[92,-12],[35,27],[85,-12]],[[434,1550],[33,-17],[-15,-78],[-52,-25],[-8,-41]],[[392,1389],[-30,-97],[-51,41],[-60,-14],[-32,-54],[-88,2],[-25,-49],[-59,0],[-47,30]],[[0,1248],[2,253],[25,206],[21,48]],[[1257,1127],[-20,3],[-92,-44],[-15,-46],[-60,2]],[[623,931],[-43,-18],[-48,6],[-39,34],[2,108]],[[495,1061],[37,-11],[52,27],[56,-9],[7,69],[-22,29],[83,76],[44,-16],[36,15],[83,-15],[84,14]],[[2486,2253],[-46,-223],[6,-201],[53,-120]],[[2128,1797],[32,26],[69,186],[-34,69]],[[871,1699],[25,19],[-11,73]],[[1087,2055],[30,-14],[-25,-85],[2,-101],[-26,-102],[-33,-71]],[[1035,1682],[-73,-21]],[[2285,703],[-12,-79],[-13,-170],[-10,-51],[1,-99]],[[1869,516],[-18,47],[-121,-18],[-16,10]],[[624,1759],[8,123]],[[505,1399],[-75,5],[-38,-15]],[[1346,457],[37,6],[97,-29]],[[1480,434],[24,-64],[31,-31],[129,29]],[[2195,2078],[-139,-79],[-9,-49],[-41,-42],[-61,-13],[-99,-1],[-18,48],[-44,-21],[-14,-59],[-61,-38],[-61,-23],[-108,9]],[[1518,1507],[-2,47],[-29,27]],[[204,2010],[120,108],[108,203]],[[1480,434],[85,14],[-4,92],[-27,22],[-29,74],[5,46]],[[495,1061],[-5,25],[-197,-37],[-45,19],[-59,-4]],[[189,1064],[-6,-33],[-75,-31],[-66,-51],[-20,41],[-22,258]],[[469,477],[-101,86],[-50,90],[29,55],[0,113],[-58,40],[-78,73],[-22,130]]],"transform":{"scale":[0.0005260204696673191,0.0004985220143436232],"translate":[30.79101,-27.3175201]},"objects":{"SWZ":{"type":"GeometryCollection","geometries":[{"arcs":[[0,1,2,3,4]],"type":"Polygon","properties":{"name":"Inkhundla Ntfonjeni","shapeGroup":"SWZ","gid":"SWZ-2-0"},"id":"SWZ-2-0"},{"arcs":[[5,6,7,8,9,10,11]],"type":"Polygon","properties":{"name":"Inkhundla Sithobela","shapeGroup":"SWZ","gid":"SWZ-2-1"},"id":"SWZ-2-1"},{"arcs":[[12,13,14]],"type":"Polygon","properties":{"name":"Inkhundla Lomahasha","shapeGroup":"SWZ","gid":"SWZ-2-2"},"id":"SWZ-2-2"},{"arcs":[[-3,15,16,17,18]],"type":"Polygon","properties":{"name":"Inkhundla Mayiwane","shapeGroup":"SWZ","gid":"SWZ-2-3"},"id":"SWZ-2-3"},{"arcs":[[19,20,21,22,23,24,25]],"type":"Polygon","properties":{"name":"Inkhundla Lobamba Lomdzala","shapeGroup":"SWZ","gid":"SWZ-2-4"},"id":"SWZ-2-4"},{"arcs":[[26,27,28,29,30]],"type":"Polygon","properties":{"name":"Inkhundla Hhukwini","shapeGroup":"SWZ","gid":"SWZ-2-5"},"id":"SWZ-2-5"},{"arcs":[[31,32,33,34,35,36]],"type":"Polygon","properties":{"name":"Inkhundla Matsanjeni","shapeGroup":"SWZ","gid":"SWZ-2-6"},"id":"SWZ-2-6"},{"arcs":[[37,38,39,40,41,42]],"type":"Polygon","properties":{"name":"Inkhundla Mafutseni","shapeGroup":"SWZ","gid":"SWZ-2-7"},"id":"SWZ-2-7"},{"arcs":[[43,44,45,46,47,48]],"type":"Polygon","properties":{"name":"Inkhundla Zombodze","shapeGroup":"SWZ","gid":"SWZ-2-8"},"id":"SWZ-2-8"},{"arcs":[[-2,49,-16]],"type":"Polygon","properties":{"name":"Inkhundla Timpisini","shapeGroup":"SWZ","gid":"SWZ-2-9"},"id":"SWZ-2-9"},{"arcs":[[50,51,52,53]],"type":"Polygon","properties":{"name":"Inkhundla Tikhuba","shapeGroup":"SWZ","gid":"SWZ-2-10"},"id":"SWZ-2-10"},{"arcs":[[-35,54,55]],"type":"Polygon","properties":{"name":"Inkhundla Somntongo","shapeGroup":"SWZ","gid":"SWZ-2-11"},"id":"SWZ-2-11"},{"arcs":[[-7,56,57,58,59,60,61]],"type":"Polygon","properties":{"name":"Inkhundla Siphofaneni","shapeGroup":"SWZ","gid":"SWZ-2-12"},"id":"SWZ-2-12"},{"arcs":[[-37,62,-48,63]],"type":"Polygon","properties":{"name":"Inkhundla Shiselweni","shapeGroup":"SWZ","gid":"SWZ-2-13"},"id":"SWZ-2-13"},{"arcs":[[-46,64,65,66,67]],"type":"Polygon","properties":{"name":"Inkhundla Sandleni","shapeGroup":"SWZ","gid":"SWZ-2-14"},"id":"SWZ-2-14"},{"arcs":[[-5,68,69,70,71]],"type":"Polygon","properties":{"name":"Inkhundla Piggs Peak","shapeGroup":"SWZ","gid":"SWZ-2-15"},"id":"SWZ-2-15"},{"arcs":[[-25,72,73,74,75]],"type":"Polygon","properties":{"name":"Inkhundla Ntondozi","shapeGroup":"SWZ","gid":"SWZ-2-16"},"id":"SWZ-2-16"},{"arcs":[[76,77,78,79,80]],"type":"Polygon","properties":{"name":"Inkhundla Nkwene","shapeGroup":"SWZ","gid":"SWZ-2-17"},"id":"SWZ-2-17"},{"arcs":[[-8,-62,81,-53,82,83]],"type":"Polygon","properties":{"name":"Inkhundla Nkilongo","shapeGroup":"SWZ","gid":"SWZ-2-18"},"id":"SWZ-2-18"},{"arcs":[[-27,84,85,86,-71,87]],"type":"Polygon","properties":{"name":"Inkhundla Nkhaba","shapeGroup":"SWZ","gid":"SWZ-2-19"},"id":"SWZ-2-19"},{"arcs":[[-24,88,89,90,-58,91,92,-73]],"type":"Polygon","properties":{"name":"Inkhundla Nhlambeni","shapeGroup":"SWZ","gid":"SWZ-2-20"},"id":"SWZ-2-20"},{"arcs":[[-4,-19,93,94,95,-69]],"type":"Polygon","properties":{"name":"Inkhundla Ndzingeni","shapeGroup":"SWZ","gid":"SWZ-2-21"},"id":"SWZ-2-21"},{"arcs":[[-12,96,-66,97,-79,98]],"type":"Polygon","properties":{"name":"Inkhundla Mtsambama","shapeGroup":"SWZ","gid":"SWZ-2-22"},"id":"SWZ-2-22"},{"arcs":[[-54,-82,-61,99,100]],"type":"Polygon","properties":{"name":"Inkhundla Mpolonjeni","shapeGroup":"SWZ","gid":"SWZ-2-23"},"id":"SWZ-2-23"},{"arcs":[[-39,101,102,103,104,105]],"type":"Polygon","properties":{"name":"Inkhundla Mkhiweni","shapeGroup":"SWZ","gid":"SWZ-2-24"},"id":"SWZ-2-24"},{"arcs":[[-15,106,107,-105,108,109,110]],"type":"Polygon","properties":{"name":"Inkhundla Mhlume","shapeGroup":"SWZ","gid":"SWZ-2-25"},"id":"SWZ-2-25"},{"arcs":[[-18,111,-110,112,-94]],"type":"Polygon","properties":{"name":"Inkhundla Mhlangatane","shapeGroup":"SWZ","gid":"SWZ-2-26"},"id":"SWZ-2-26"},{"arcs":[[-20,113,114,115,116,117]],"type":"Polygon","properties":{"name":"Inkhundla Mhlambanyatsi","shapeGroup":"SWZ","gid":"SWZ-2-27"},"id":"SWZ-2-27"},{"arcs":[[-45,118,119,-80,-98,-65]],"type":"Polygon","properties":{"name":"Inkhundla Mbangweni","shapeGroup":"SWZ","gid":"SWZ-2-28"},"id":"SWZ-2-28"},{"arcs":[[-31,120,121,-85]],"type":"Polygon","properties":{"name":"Inkhundla Mbabane","shapeGroup":"SWZ","gid":"SWZ-2-29"},"id":"SWZ-2-29"},{"arcs":[[-44,122,123,-119]],"type":"Polygon","properties":{"name":"Inkhundla Maseyisini","shapeGroup":"SWZ","gid":"SWZ-2-30"},"id":"SWZ-2-30"},{"arcs":[[-28,-88,-70,-96,124,-103,125,126]],"type":"Polygon","properties":{"name":"Inkhundla Maphalaleni","shapeGroup":"SWZ","gid":"SWZ-2-31"},"id":"SWZ-2-31"},{"arcs":[[-43,127,-90,128,129]],"type":"Polygon","properties":{"name":"Inkhundla Manzini","shapeGroup":"SWZ","gid":"SWZ-2-32"},"id":"SWZ-2-32"},{"arcs":[[-115,130,131,132]],"type":"Polygon","properties":{"name":"Inkhundla Mangcongco","shapeGroup":"SWZ","gid":"SWZ-2-33"},"id":"SWZ-2-33"},{"arcs":[[-74,-93,133,-77,134,135]],"type":"Polygon","properties":{"name":"Inkhundla Mahlangatja","shapeGroup":"SWZ","gid":"SWZ-2-34"},"id":"SWZ-2-34"},{"arcs":[[-14,136,-51,-101,137,-107]],"type":"Polygon","properties":{"name":"Inkhundla Lugongolweni","shapeGroup":"SWZ","gid":"SWZ-2-35"},"id":"SWZ-2-35"},{"arcs":[[-22,138,-29,-127,139,140]],"type":"Polygon","properties":{"name":"Inkhundla Ludzeludze","shapeGroup":"SWZ","gid":"SWZ-2-36"},"id":"SWZ-2-36"},{"arcs":[[-9,-84,141,-55,-34,142]],"type":"Polygon","properties":{"name":"Inkhundla Lubuli","shapeGroup":"SWZ","gid":"SWZ-2-37"},"id":"SWZ-2-37"},{"arcs":[[-21,-118,143,-121,-30,-139]],"type":"Polygon","properties":{"name":"Inkhundla Lobamba","shapeGroup":"SWZ","gid":"SWZ-2-38"},"id":"SWZ-2-38"},{"arcs":[[-26,-76,144,-131,-114]],"type":"Polygon","properties":{"name":"Inkhundla Lamgabhi","shapeGroup":"SWZ","gid":"SWZ-2-39"},"id":"SWZ-2-39"},{"arcs":[[-32,-64,-47,-68,145,146]],"type":"Polygon","properties":{"name":"Inkhundla Hosea","shapeGroup":"SWZ","gid":"SWZ-2-40"},"id":"SWZ-2-40"},{"arcs":[[-40,-106,-108,147]],"type":"Polygon","properties":{"name":"Inkhundla Hlane","shapeGroup":"SWZ","gid":"SWZ-2-41"},"id":"SWZ-2-41"},{"arcs":[[-41,-148,-138,-100,-60,148]],"type":"Polygon","properties":{"name":"Inkhundla Dvokodvweni","shapeGroup":"SWZ","gid":"SWZ-2-42"},"id":"SWZ-2-42"},{"arcs":[[-95,-113,-109,-104,-125]],"type":"Polygon","properties":{"name":"Inkhundla Madlangempisi","shapeGroup":"SWZ","gid":"SWZ-2-43"},"id":"SWZ-2-43"},{"arcs":[[-6,-99,-78,-134,-92,-57]],"type":"Polygon","properties":{"name":"Inkhundla Kubuta","shapeGroup":"SWZ","gid":"SWZ-2-44"},"id":"SWZ-2-44"},{"arcs":[[-42,-149,-59,-91,-128]],"type":"Polygon","properties":{"name":"Inkhundla Mthongwaneni","shapeGroup":"SWZ","gid":"SWZ-2-45"},"id":"SWZ-2-45"},{"arcs":[[-86,-122,-144,-117,149]],"type":"Polygon","properties":{"name":"Inkhundla Motjane","shapeGroup":"SWZ","gid":"SWZ-2-46"},"id":"SWZ-2-46"},{"arcs":[[-23,-141,-129,-89]],"type":"Polygon","properties":{"name":"Inkhundla Kwaluseni","shapeGroup":"SWZ","gid":"SWZ-2-47"},"id":"SWZ-2-47"},{"arcs":[[-10,-143,-33,-147,150]],"type":"Polygon","properties":{"name":"Inkhundla Sigwe","shapeGroup":"SWZ","gid":"SWZ-2-48"},"id":"SWZ-2-48"},{"arcs":[[-38,-130,-140,-126,-102]],"type":"Polygon","properties":{"name":"Inkhundla Ekukhanyeni","shapeGroup":"SWZ","gid":"SWZ-2-49"},"id":"SWZ-2-49"},{"arcs":[[-75,-136,151,152,-132,-145]],"type":"Polygon","properties":{"name":"Inkhundla Ngwempisi","shapeGroup":"SWZ","gid":"SWZ-2-50"},"id":"SWZ-2-50"},{"arcs":[[-11,-151,-146,-67,-97]],"type":"Polygon","properties":{"name":"Inkhundla Ngudzeni","shapeGroup":"SWZ","gid":"SWZ-2-51"},"id":"SWZ-2-51"},{"arcs":[[-81,-120,-124,153,-152,-135]],"type":"Polygon","properties":{"name":"Inkhundla Gege","shapeGroup":"SWZ","gid":"SWZ-2-52"},"id":"SWZ-2-52"}]}}}