{"type":"Topology","arcs":[[[695,1723],[71,5]],[[766,1728],[14,-17]],[[780,1711],[-45,-118]],[[735,1593],[-29,-5],[-38,25],[-42,-10],[-10,78]],[[616,1681],[79,42]],[[1803,5626],[-14,-48],[15,-83],[25,-45],[-8,-32],[66,3],[22,-31]],[[1909,5390],[-90,-3],[-28,-14],[-43,-53],[-43,-102],[12,-37],[41,-45],[-16,-137],[6,-32],[52,-32],[3,-68],[25,-18],[-15,-35],[37,-37],[3,-79],[56,-76],[12,-52],[0,-73]],[[1921,4497],[-19,7],[-74,-67],[-23,48],[-78,-11],[-11,29],[-44,-12]],[[1672,4491],[-34,10],[-10,41],[-48,12],[7,25]],[[1587,4579],[29,37],[-11,44],[-37,17],[21,39],[-13,82],[14,83],[-35,-5],[-57,29],[-2,-27],[-76,36],[-26,91],[-35,-3],[-26,29],[-10,51],[15,100],[-45,6],[-6,25],[-66,3],[-31,24],[8,42],[-32,35]],[[1166,5317],[43,35],[22,59],[50,13],[10,42],[-81,91]],[[1210,5557],[40,33],[50,10],[35,-52],[38,0]],[[1373,5548],[23,-34],[53,-16],[4,77],[54,20],[100,5],[51,41],[25,2],[29,-43],[77,46],[14,-20]],[[1803,5626],[56,121],[59,37],[7,46],[-27,105],[-37,28],[27,62]],[[1888,6025],[61,-15],[43,15],[34,38],[118,69]],[[2144,6132],[2,-109],[29,-36],[0,-62],[26,-18],[-12,-46],[37,-2]],[[2226,5859],[37,-62],[-25,-29],[8,-38],[-13,-35],[37,-64],[-36,-42],[24,-43],[-35,-9],[-7,-40],[25,-35],[74,6],[27,-28],[-73,-35],[-66,-122],[-4,-57]],[[2199,5226],[-31,-7],[-96,18],[-84,-20],[-23,64],[-43,50],[-13,59]],[[1210,5557],[-16,35],[-32,-21],[-49,-3]],[[1113,5568],[-43,47],[-5,47],[-32,9],[-26,70],[-16,78],[40,51],[14,58],[-17,71],[4,28],[49,85],[-15,49],[57,90],[-10,34],[74,-16],[69,-36],[104,-29],[44,5],[47,-27],[71,-68],[-24,-48],[1,-30]],[[1499,6036],[-55,-121],[-5,-35],[30,-23],[-22,-43],[37,-76],[-22,-52],[-37,16],[-34,-5],[-8,-43],[6,-58],[-16,-48]],[[1499,6036],[59,-46],[38,53],[74,-11],[74,15],[144,-22]],[[2226,5859],[27,131],[46,13],[20,39],[67,-32],[36,0],[18,40],[25,-6],[0,-49],[16,-20],[47,10],[87,70]],[[2615,6055],[74,-10],[57,-56],[61,-116],[-38,-40],[23,-87],[-33,-14],[-32,-37],[-22,-52],[-1,-75],[21,-67]],[[2725,5501],[-67,-29],[-26,-103],[-23,-7],[-13,-48],[28,-50],[-17,-41],[22,-29],[-6,-43],[57,-41],[7,-47],[42,-21],[-68,-90],[-8,-56],[46,-1],[-28,-61],[26,-8],[-13,-76],[31,-19],[12,-56],[-6,-36],[15,-64],[101,-53],[-3,-55],[-58,-117],[76,-68]],[[2852,4282],[-96,-20],[-53,5],[-134,45],[-115,24]],[[2454,4336],[-58,180],[-35,81],[-81,134],[-51,108],[-19,146],[4,98],[-15,143]],[[2615,6055],[-18,10],[-19,83],[-32,68],[-3,56]],[[2543,6272],[49,44],[137,69],[68,8],[151,-25],[164,-79],[85,-96]],[[3197,6193],[-8,-51],[30,-24],[8,-44],[-54,-24],[-39,15],[12,-89],[41,-4],[-6,46],[42,-8],[38,19],[-31,-106],[9,-45],[-32,-62],[25,-30],[-25,-43],[11,-36],[-25,-42],[7,-107],[-16,-43],[-50,-27]],[[3134,5488],[-14,34],[-33,-9],[7,-84]],[[3094,5429],[-69,28],[-67,-25],[24,-36],[-2,-57],[-53,5],[-5,50],[-55,35],[22,60],[-56,16],[-96,10],[-12,-14]],[[2454,4336],[-139,12],[-23,52],[-57,0],[1,-24],[-141,-3],[-106,17]],[[1989,4390],[-15,63],[-53,44]],[[2144,6132],[93,33],[60,-2],[124,52],[52,34],[70,23]],[[780,1711],[65,-6],[34,-52],[17,-76],[-18,-45],[-26,3],[-7,-44],[24,-46],[1,-38],[59,-62]],[[929,1345],[-47,-22],[-60,-70],[5,-33],[-31,-14],[-91,71],[-22,35],[-37,13],[-10,-72],[-54,-5]],[[582,1248],[-20,82],[17,44],[-58,44],[55,63],[49,11]],[[625,1492],[73,9],[37,92]],[[616,1681],[-14,-5]],[[602,1676],[8,34],[-23,31]],[[587,1741],[29,60],[54,20]],[[670,1821],[25,-98]],[[766,1728],[21,38],[80,31],[-12,54],[93,31]],[[948,1882],[17,-35],[52,-46],[59,3],[12,40],[48,31],[34,-13],[33,18],[62,7],[109,52],[189,117],[211,190]],[[1774,2246],[107,35],[27,-6],[65,40],[72,9],[62,-25]],[[2107,2299],[-7,-45],[17,-27],[88,-22],[597,-92],[700,-106],[203,-317]],[[3705,1690],[-351,-218],[-1041,-736],[-361,-253]],[[1952,483],[-8,17]],[[1944,500],[-178,321],[-9,28],[-3,95],[-61,14]],[[1693,958],[-95,18],[-97,43],[-130,4],[-51,19],[-161,177],[-148,-14]],[[1011,1205],[-23,107],[-38,51],[-21,-18]],[[948,1882],[1,51],[-50,73],[15,91]],[[914,2097],[19,61],[116,24],[26,-1],[41,38]],[[1116,2219],[17,-95],[173,113],[35,35],[53,73],[65,25]],[[1459,2370],[23,0],[-10,-112],[192,-2],[110,-10]],[[670,1821],[-25,41],[22,29],[-11,56],[24,22],[-4,44],[26,39],[-1,74]],[[701,2126],[14,-15],[80,-22],[25,31]],[[820,2120],[94,-23]],[[820,2120],[-32,46],[-43,6],[-38,34],[26,63],[47,64],[33,22],[18,43],[26,19],[58,-22],[20,13]],[[935,2408],[21,-17],[145,-53],[37,-20],[-22,-99]],[[935,2408],[16,69],[85,122],[31,22],[-26,30]],[[1041,2651],[66,15],[33,-13],[105,24],[33,-50],[40,-28],[40,1],[45,-75],[66,-59],[-58,-56],[48,-40]],[[587,1741],[-32,-26],[-90,23]],[[465,1738],[-3,38],[-51,29],[-30,33],[-46,15],[39,41],[3,42],[23,20],[23,64],[34,19],[25,54],[97,43],[13,-28],[42,-7],[32,36],[35,-11]],[[582,1248],[-22,-31],[-68,2],[-11,-44],[-47,-11],[-38,7]],[[396,1171],[6,56],[-38,12],[8,58],[-49,24],[-36,-17],[-22,37],[19,22],[-71,85]],[[213,1448],[3,37],[26,33],[63,39],[49,51],[-12,59],[44,30],[50,5],[29,36]],[[602,1676],[-21,-56],[49,-61],[-15,-20],[10,-47]],[[1041,2651],[-14,7],[-13,68],[18,49],[-30,5],[-17,46]],[[985,2826],[36,72],[5,63],[50,19],[57,60],[2,34],[38,8],[64,53],[-11,50],[-75,38],[-19,-48],[-28,31],[-31,-4],[-15,39],[-31,22],[-84,-32],[-57,-10]],[[886,3221],[-10,-6]],[[876,3215],[-8,65],[30,40],[-17,35],[-40,29],[-18,-22],[-25,110],[-58,71]],[[740,3543],[-46,7],[13,63]],[[707,3613],[14,5],[59,-84],[49,0],[71,34],[-7,53]],[[893,3621],[67,47],[37,-82],[33,41]],[[1030,3627],[58,-103],[37,-10],[16,-37],[44,14],[84,8],[32,71],[-6,22],[60,12],[31,-11],[46,35]],[[1432,3628],[-1,-58],[25,-23]],[[1456,3547],[-21,-39],[9,-43],[29,-53],[-44,-26],[9,-123],[19,-5],[89,21],[35,27],[79,-11],[-21,-46],[54,-12],[13,31],[46,-4],[92,39],[34,-11],[37,10],[27,-42],[-49,-29],[90,-36],[158,-89],[41,18],[20,-23]],[[2202,3101],[4,-47],[46,-23],[-31,-31],[-49,2],[-8,-85],[39,-270],[53,-346],[-149,-2]],[[985,2826],[-18,33],[24,33],[-1,36],[-47,39],[-47,20],[-43,65],[-31,-15],[-58,0],[-5,32],[87,51],[-10,65],[51,-22],[-1,58]],[[876,3215],[-18,-18],[-71,47],[-17,42],[-32,6],[-26,-75],[-54,-4],[-51,15],[-18,-13],[-58,13]],[[531,3228],[12,75]],[[543,3303],[20,12],[-3,48],[79,76],[52,25],[17,42],[32,37]],[[1030,3627],[46,-32],[91,62],[46,-12],[35,8],[56,38],[62,10]],[[1366,3701],[52,-70],[14,-3]],[[2202,3101],[85,105],[40,58],[59,121],[-12,113],[-19,104],[76,114]],[[2431,3716],[39,-21],[61,-61],[47,-66],[35,36],[46,106],[28,30],[178,78],[21,25],[-28,61],[17,43],[63,49],[29,53],[25,92],[-7,142]],[[2985,4283],[140,4],[312,-39],[277,-66],[35,4]],[[3749,4186],[31,-14],[9,-39],[42,-15]],[[3831,4118],[55,-37],[126,-123],[167,-296],[133,-222]],[[4312,3440],[107,-180]],[[4419,3260],[238,-399],[202,-340],[48,-85]],[[4907,2436],[-420,-261],[-782,-485]],[[1456,3547],[22,-2],[70,57],[52,16],[29,-13],[20,33],[48,2],[13,-30],[51,3],[73,87],[72,-1],[76,-12],[55,-43],[102,47],[50,83],[25,85],[100,18],[103,-91],[14,-70]],[[1989,4390],[-34,-42],[-71,54],[-39,-42],[21,-48],[-33,-131],[-62,-28],[-35,4],[-119,-18],[11,-44],[-30,-8],[-11,-40],[-117,51],[-37,71],[-83,-30],[-10,-28],[7,-85],[26,-48],[-5,-87],[-40,-21],[4,-42],[35,-87],[-1,-40]],[[893,3621],[-26,7],[4,66],[34,23],[-18,42],[19,47],[58,9],[10,26],[-45,59],[14,77]],[[943,3977],[74,13],[56,-32],[-5,47],[28,40],[-24,94],[36,34],[8,45],[-22,42]],[[1094,4260],[26,35],[74,-3],[122,13],[36,-47],[56,3],[43,45],[96,-3],[26,25],[0,55],[40,-13],[59,121]],[[823,4737],[18,-44],[-16,-61]],[[825,4632],[10,-57],[-12,-92],[54,-8],[12,-79],[53,-33],[20,-30],[-10,-29]],[[952,4304],[-48,1],[1,-90],[-14,-110],[-42,-1],[0,-30]],[[849,4074],[-91,-27],[-52,-51],[-30,19]],[[676,4015],[-11,56],[-19,14]],[[646,4085],[12,75],[-11,72]],[[647,4232],[7,22],[-30,61],[19,79],[-1,64]],[[642,4458],[2,166],[-8,23],[36,41],[8,45],[-31,44]],[[649,4777],[123,-12],[0,-33],[51,5]],[[2852,4282],[133,1]],[[707,3613],[-17,15]],[[690,3628],[1,32],[-32,41],[-54,12],[-53,-17]],[[552,3696],[23,43],[43,26],[44,7],[7,63]],[[669,3835],[17,13],[9,61],[-19,106]],[[849,4074],[32,-30],[48,9],[14,-76]],[[952,4304],[115,-14],[27,-30]],[[571,4872],[-6,-41]],[[565,4831],[-80,-76],[-22,-64],[-39,-36],[10,-51],[-99,-62],[-24,-41],[17,-61],[-9,-27]],[[319,4413],[9,-42]],[[328,4371],[-45,4]],[[283,4375],[-59,46],[-59,22],[9,45],[-37,30],[49,107],[-17,29],[69,82],[15,47],[-16,69],[-23,44],[74,51],[19,63],[33,-1],[61,29],[30,-21],[-8,-48],[107,-34],[41,-63]],[[646,4085],[-49,-39],[-65,-6],[-109,13],[-72,56]],[[351,4109],[-15,57],[-9,155],[-44,54]],[[328,4371],[10,-46],[75,-3],[21,-23],[41,4],[37,-45],[52,-26],[30,12],[53,-12]],[[642,4458],[-55,2],[-42,-15],[-113,17],[-60,-18],[-29,-33],[-24,2]],[[565,4831],[84,-54]],[[1587,4579],[-31,4],[-41,106],[-71,-12],[10,53],[-16,29],[-60,-43],[-11,47],[-113,12],[-3,-17],[-94,-5]],[[1157,4753],[12,41],[-19,31],[-11,75],[-88,28],[-45,41],[-56,25],[-22,-46],[-38,-28],[-28,33]],[[862,4953],[12,46]],[[874,4999],[23,67],[52,-8],[24,35],[3,109],[34,23],[40,4],[50,43],[32,60],[34,-15]],[[825,4632],[50,6],[56,-22],[16,23],[65,-9],[53,68],[40,-5],[13,45],[39,15]],[[874,4999],[7,104],[-42,83],[-15,5]],[[824,5191],[3,48],[-17,49],[11,33],[-16,37],[28,42],[34,16],[49,-8],[11,38],[53,8],[70,-29],[69,16],[33,36],[-37,66],[-2,25]],[[571,4872],[29,22],[7,68],[-9,24],[34,69],[53,14],[57,59],[54,-13],[28,76]],[[862,4953],[-9,-105],[-31,-70],[1,-41]],[[6086,5792],[-92,-174],[-3,-129],[-26,-239],[-10,-52],[130,-305],[14,-285],[-112,-189]],[[5987,4419],[-83,62],[-194,18],[-58,-3],[-116,53],[-115,41],[-62,49],[-163,166],[-39,24],[-113,132],[-32,76],[-110,64],[-28,57],[-35,5],[-107,79],[-34,82],[-63,51],[0,27]],[[4635,5402],[85,126],[45,216],[10,72],[-3,62],[-20,60],[32,32],[35,-6],[36,36],[34,4],[24,63],[-28,47],[125,48],[-2,36],[45,10],[59,-37],[93,16],[83,3],[68,12],[60,-2]],[[5416,6200],[57,42],[85,-10],[46,-27],[76,-16],[37,29],[59,74],[26,-33],[46,22],[37,-10],[49,18],[17,-36],[-20,-53],[-34,-39],[2,-44],[45,-62],[7,-89],[15,-40],[48,-17],[9,-42],[63,-75]],[[5416,6200],[-26,113],[6,51],[36,18],[15,30],[-9,109],[6,66],[-19,75]],[[5425,6662],[28,19],[80,-17],[67,26],[204,-45],[58,-4],[51,-39],[56,21],[242,1],[61,8],[102,37]],[[6374,6669],[13,-99],[20,-43],[1,-87],[24,-34],[-15,-34],[2,-103],[-13,-66],[15,-47],[87,-29],[16,-93],[41,-79]],[[6565,5955],[-136,-43],[-312,-62],[-31,-58]],[[6374,6669],[109,7],[229,59],[87,41],[51,33],[17,31],[76,66],[26,2],[93,-31],[53,-47],[-21,-74],[20,-49],[-3,-58],[33,-42],[-143,-153],[-76,-93],[-42,-42],[-47,-64],[-108,-127],[-55,-73],[-108,-100]],[[4635,5402],[-66,62],[-53,129]],[[4516,5593],[-41,28],[-59,15],[-43,115],[-141,153],[-64,78],[-64,117]],[[4104,6099],[98,24],[72,9],[61,25],[126,16],[51,30],[77,30],[94,52],[37,34],[99,25],[60,35],[93,67],[75,41],[68,47],[89,16],[59,38],[77,34],[35,27],[50,13]],[[3831,4118],[239,383],[197,309],[42,1],[6,69],[-2,145]],[[4313,5025],[2,82],[41,38],[55,75],[24,54],[27,31],[-14,27],[36,82],[33,42],[-1,137]],[[5987,4419],[-6,-11],[-8,-141],[-34,-138],[-18,-113],[-6,-133]],[[5915,3883],[-91,-49]],[[5824,3834],[-138,235],[-29,29],[-47,-104],[-79,-95],[-205,28],[-90,8],[-52,-60],[-58,-48],[-49,7],[-2,71],[-31,53],[-48,-12],[-15,-54],[-195,-149],[-104,-70],[-370,-233]],[[4419,3260],[286,209],[216,-318],[319,246],[91,-82],[45,-2],[32,67],[-62,35],[-16,92],[42,2],[27,26],[137,90],[115,117],[173,92]],[[5915,3883],[10,-238],[5,-223],[-100,-157],[-112,-295],[-22,-45],[-789,-489]],[[531,3228],[-88,-14],[-56,22],[-42,135],[-2,48],[-36,93],[-26,94],[3,81],[21,51],[-1,33]],[[304,3771],[33,52],[24,6]],[[361,3829],[15,-44],[-16,-22],[68,-43],[48,-41]],[[476,3679],[-2,-42],[-50,-12],[-3,-53],[25,-6]],[[446,3566],[-17,-22],[-6,-56],[16,-36],[2,-51],[47,2],[10,-71],[45,-29]],[[669,3835],[-56,0],[-21,-36],[-28,-11],[-54,38],[-21,-29],[-42,17],[-45,50],[-41,-35]],[[304,3771],[-11,43],[6,68],[35,64],[2,29],[32,36],[-17,98]],[[446,3566],[116,-14],[67,41],[21,39],[40,-4]],[[476,3679],[56,-10],[20,27]],[[3134,5488],[82,-30],[105,-17],[4,32],[60,20],[34,38],[53,-24],[17,89],[39,31],[37,-54],[67,20],[61,-18],[133,13],[47,-47],[83,-45],[57,-15],[51,-57],[62,-8],[60,-22],[11,-39],[46,-9],[66,2],[6,-65],[20,-55],[29,-9],[-31,-69],[-59,-31],[-6,-41],[16,-48],[29,-5]],[[3749,4186],[-72,173],[-22,22],[-2,47],[-37,98],[6,68],[-41,15],[-65,65],[-1,38],[-91,62],[-6,115],[28,9],[12,119],[-59,12],[-1,-36],[-59,13],[-50,-65],[-79,-26],[-60,43],[-74,-29],[-65,-46],[-59,14],[11,58],[118,-8],[37,62],[3,89],[15,36],[-8,55],[-41,34],[5,31],[62,1],[1,32],[-33,25],[-4,68],[-24,49]],[[3197,6193],[92,-87],[122,-15],[183,10],[69,-9],[150,-45],[124,34],[167,18]],[[314,787],[35,-48],[-20,-45],[43,-33],[57,-7],[71,53],[31,-24],[57,-4],[42,-40],[31,11],[12,-79],[41,-38],[74,10]],[[788,543],[109,-67],[-12,-40],[-56,-19],[14,-67],[83,1],[17,-44]],[[943,307],[7,-38],[31,-64],[-23,-37],[-23,-105]],[[935,63],[-39,22],[-56,6],[-78,85],[-143,119],[-116,-15],[-21,81],[-38,43],[-2,71],[-41,5],[-20,49],[-40,38],[-62,16],[-55,-6],[-26,39],[-58,-38]],[[140,578],[35,57],[29,15],[42,52],[2,28],[47,49]],[[295,779],[19,8]],[[1011,1205],[-72,-22],[-12,-86],[27,-66],[18,-6],[20,-51],[-21,-16],[-72,-11],[-53,-23]],[[846,924],[-27,16],[-45,-12],[-27,31],[-50,-51],[-82,0],[-88,-41],[-43,129],[-75,-19],[-24,-36]],[[385,941],[-34,71],[45,113],[0,46]],[[314,787],[29,21],[11,44],[50,12],[-19,77]],[[846,924],[-42,-54],[6,-36],[-11,-65]],[[799,769],[23,-169],[-19,-5],[-15,-52]],[[1944,500],[-426,-67],[-137,-20],[-49,0],[-14,39],[-59,-40],[-73,35],[-3,-30],[21,-66],[-91,4],[-71,-12],[5,74],[-42,-15],[4,-47],[-66,-48]],[[799,769],[54,15],[45,-9],[58,-36],[12,45],[23,-4],[-3,-70],[28,-28],[57,-2],[77,-40],[59,53],[83,63],[401,202]],[[1952,483],[-630,-447],[-34,-36],[-150,32],[-203,31]],[[295,779],[-24,14],[0,91],[-33,-18],[-53,-6],[-27,-49],[-95,-1],[-9,63],[-36,24]],[[18,897],[1,88],[16,53],[7,85],[18,41],[-8,50],[18,81],[-59,-7],[-4,40],[41,4],[92,71],[73,45]],[[140,578],[-40,-14],[-47,-58],[-16,47],[14,88],[-19,46],[0,75],[-32,43],[18,92]]],"transform":{"scale":[0.0009477605746080604,0.0007190963885350339],"translate":[35.61393928500007,32.31644249000004]},"objects":{"SYR":{"type":"GeometryCollection","geometries":[{"arcs":[[0,1,2,3,4]],"type":"Polygon","properties":{"name":"Damascus","shapeGroup":"SYR","gid":"SYR-2-0"},"id":"SYR-2-0"},{"arcs":[[5,6,7,8,9,10,11,12]],"type":"Polygon","properties":{"name":"Jebel Saman","shapeGroup":"SYR","gid":"SYR-2-1"},"id":"SYR-2-1"},{"arcs":[[-6,13,14,15,16,17]],"type":"Polygon","properties":{"name":"Al Bab","shapeGroup":"SYR","gid":"SYR-2-2"},"id":"SYR-2-2"},{"arcs":[[-12,18,19,20]],"type":"Polygon","properties":{"name":"Afrin","shapeGroup":"SYR","gid":"SYR-2-3"},"id":"SYR-2-3"},{"arcs":[[-13,-21,21,-14]],"type":"Polygon","properties":{"name":"A'zaz","shapeGroup":"SYR","gid":"SYR-2-4"},"id":"SYR-2-4"},{"arcs":[[-17,22,23,24,25,26]],"type":"Polygon","properties":{"name":"Menbij","shapeGroup":"SYR","gid":"SYR-2-5"},"id":"SYR-2-5"},{"arcs":[[-24,27,28,29,30,31]],"type":"Polygon","properties":{"name":"Ain Al Arab","shapeGroup":"SYR","gid":"SYR-2-6"},"id":"SYR-2-6"},{"arcs":[[-7,-18,-27,32,33]],"type":"Polygon","properties":{"name":"As-Safira","shapeGroup":"SYR","gid":"SYR-2-7"},"id":"SYR-2-7"},{"arcs":[[-16,34,-28,-23]],"type":"Polygon","properties":{"name":"Jarablus","shapeGroup":"SYR","gid":"SYR-2-8"},"id":"SYR-2-8"},{"arcs":[[[-3,35,36,37,38]],[[-5,39,40,41,42]]],"type":"MultiPolygon","properties":{"name":"Rural Damascus","shapeGroup":"SYR","gid":"SYR-2-9"},"id":"SYR-2-9"},{"arcs":[[-2,43,44,45,46,47,48,49,50,51,-36]],"type":"Polygon","properties":{"name":"Duma","shapeGroup":"SYR","gid":"SYR-2-10"},"id":"SYR-2-10"},{"arcs":[[-45,52,53,54,55]],"type":"Polygon","properties":{"name":"Al Qutayfah","shapeGroup":"SYR","gid":"SYR-2-11"},"id":"SYR-2-11"},{"arcs":[[-1,-43,56,57,58,-53,-44]],"type":"Polygon","properties":{"name":"At Tall","shapeGroup":"SYR","gid":"SYR-2-12"},"id":"SYR-2-12"},{"arcs":[[-54,-59,59,60]],"type":"Polygon","properties":{"name":"Yabroud","shapeGroup":"SYR","gid":"SYR-2-13"},"id":"SYR-2-13"},{"arcs":[[-55,-61,61,62]],"type":"Polygon","properties":{"name":"An Nabk","shapeGroup":"SYR","gid":"SYR-2-14"},"id":"SYR-2-14"},{"arcs":[[-42,63,64,-57]],"type":"Polygon","properties":{"name":"Az-Zabdani","shapeGroup":"SYR","gid":"SYR-2-15"},"id":"SYR-2-15"},{"arcs":[[-38,65,66,67,-64,-41,68]],"type":"Polygon","properties":{"name":"Qatana","shapeGroup":"SYR","gid":"SYR-2-16"},"id":"SYR-2-16"},{"arcs":[[-4,-39,-69,-40]],"type":"Polygon","properties":{"name":"Darayya","shapeGroup":"SYR","gid":"SYR-2-17"},"id":"SYR-2-17"},{"arcs":[[-46,-56,-63,69,70,71,72,73,74,75,76,77,78,79]],"type":"Polygon","properties":{"name":"Homs","shapeGroup":"SYR","gid":"SYR-2-18"},"id":"SYR-2-18"},{"arcs":[[-71,80]],"type":"Polygon","properties":{"name":"Al-Qusayr","shapeGroup":"SYR","gid":"SYR-2-19"},"id":"SYR-2-19"},{"arcs":[[-73,81,82,83]],"type":"Polygon","properties":{"name":"Tall Kalakh","shapeGroup":"SYR","gid":"SYR-2-20"},"id":"SYR-2-20"},{"arcs":[[-77,84,85]],"type":"Polygon","properties":{"name":"Ar-Rastan","shapeGroup":"SYR","gid":"SYR-2-21"},"id":"SYR-2-21"},{"arcs":[[-47,-80,86,87,88,89,90,91,92,93]],"type":"Polygon","properties":{"name":"Tadmor","shapeGroup":"SYR","gid":"SYR-2-22"},"id":"SYR-2-22"},{"arcs":[[-79,94,-87]],"type":"Polygon","properties":{"name":"Al Makhrim","shapeGroup":"SYR","gid":"SYR-2-23"},"id":"SYR-2-23"},{"arcs":[[-8,-34,95,-85,-76,96,97,98]],"type":"Polygon","properties":{"name":"Hama","shapeGroup":"SYR","gid":"SYR-2-24"},"id":"SYR-2-24"},{"arcs":[[99,100,101,102,103,104,105,106,107]],"type":"Polygon","properties":{"name":"As-Suqaylabiyah","shapeGroup":"SYR","gid":"SYR-2-25"},"id":"SYR-2-25"},{"arcs":[[-26,108,-88,-95,-78,-86,-96,-33]],"type":"Polygon","properties":{"name":"As-Salamiyeh","shapeGroup":"SYR","gid":"SYR-2-26"},"id":"SYR-2-26"},{"arcs":[[-75,109,110,111,112,-103,113,-97]],"type":"Polygon","properties":{"name":"Masyaf","shapeGroup":"SYR","gid":"SYR-2-27"},"id":"SYR-2-27"},{"arcs":[[-98,-114,-102,114]],"type":"Polygon","properties":{"name":"Muhradah","shapeGroup":"SYR","gid":"SYR-2-28"},"id":"SYR-2-28"},{"arcs":[[115,116,117,118,119]],"type":"Polygon","properties":{"name":"Lattakia","shapeGroup":"SYR","gid":"SYR-2-29"},"id":"SYR-2-29"},{"arcs":[[-105,120,121,-119,122]],"type":"Polygon","properties":{"name":"Jablah","shapeGroup":"SYR","gid":"SYR-2-30"},"id":"SYR-2-30"},{"arcs":[[-107,123,-117,124]],"type":"Polygon","properties":{"name":"Al-Haffa","shapeGroup":"SYR","gid":"SYR-2-31"},"id":"SYR-2-31"},{"arcs":[[-106,-123,-118,-124]],"type":"Polygon","properties":{"name":"Al-Qardaha","shapeGroup":"SYR","gid":"SYR-2-32"},"id":"SYR-2-32"},{"arcs":[[-10,125,126,127,128]],"type":"Polygon","properties":{"name":"Idleb","shapeGroup":"SYR","gid":"SYR-2-33"},"id":"SYR-2-33"},{"arcs":[[-9,-99,-115,-101,129,-126]],"type":"Polygon","properties":{"name":"Al Ma'ra","shapeGroup":"SYR","gid":"SYR-2-34"},"id":"SYR-2-34"},{"arcs":[[-11,-129,130,131,-19]],"type":"Polygon","properties":{"name":"Harim","shapeGroup":"SYR","gid":"SYR-2-35"},"id":"SYR-2-35"},{"arcs":[[-108,-125,-116,132,-131,-128,133]],"type":"Polygon","properties":{"name":"Jisr-Ash-Shugur","shapeGroup":"SYR","gid":"SYR-2-36"},"id":"SYR-2-36"},{"arcs":[[-100,-134,-127,-130]],"type":"Polygon","properties":{"name":"Ariha","shapeGroup":"SYR","gid":"SYR-2-37"},"id":"SYR-2-37"},{"arcs":[[134,135,136,137]],"type":"Polygon","properties":{"name":"Al-Hasakeh","shapeGroup":"SYR","gid":"SYR-2-38"},"id":"SYR-2-38"},{"arcs":[[-138,138,139,140,141]],"type":"Polygon","properties":{"name":"Quamishli","shapeGroup":"SYR","gid":"SYR-2-39"},"id":"SYR-2-39"},{"arcs":[[-141,142]],"type":"Polygon","properties":{"name":"Al-Malikeyyeh","shapeGroup":"SYR","gid":"SYR-2-40"},"id":"SYR-2-40"},{"arcs":[[-137,143,144,145,-139]],"type":"Polygon","properties":{"name":"Ras Al Ain","shapeGroup":"SYR","gid":"SYR-2-41"},"id":"SYR-2-41"},{"arcs":[[-91,146,147,-144,-136,148,149,150]],"type":"Polygon","properties":{"name":"Deir-ez-Zor","shapeGroup":"SYR","gid":"SYR-2-42"},"id":"SYR-2-42"},{"arcs":[[-93,151,-150,152]],"type":"Polygon","properties":{"name":"Abu Kamal","shapeGroup":"SYR","gid":"SYR-2-43"},"id":"SYR-2-43"},{"arcs":[[-92,-151,-152]],"type":"Polygon","properties":{"name":"Al Mayadin","shapeGroup":"SYR","gid":"SYR-2-44"},"id":"SYR-2-44"},{"arcs":[[-83,153,154,155,156,157]],"type":"Polygon","properties":{"name":"Tartous","shapeGroup":"SYR","gid":"SYR-2-45"},"id":"SYR-2-45"},{"arcs":[[-104,-113,158,-155,159,-121]],"type":"Polygon","properties":{"name":"Banyas","shapeGroup":"SYR","gid":"SYR-2-46"},"id":"SYR-2-46"},{"arcs":[[-74,-84,-158,160,-110]],"type":"Polygon","properties":{"name":"Safita","shapeGroup":"SYR","gid":"SYR-2-47"},"id":"SYR-2-47"},{"arcs":[[-111,-161,-157,161]],"type":"Polygon","properties":{"name":"Dreikish","shapeGroup":"SYR","gid":"SYR-2-48"},"id":"SYR-2-48"},{"arcs":[[-112,-162,-156,-159]],"type":"Polygon","properties":{"name":"Sheikh Badr","shapeGroup":"SYR","gid":"SYR-2-49"},"id":"SYR-2-49"},{"arcs":[[-31,162,-147,-90,163]],"type":"Polygon","properties":{"name":"Ar-Raqqa","shapeGroup":"SYR","gid":"SYR-2-50"},"id":"SYR-2-50"},{"arcs":[[-30,164,-145,-148,-163]],"type":"Polygon","properties":{"name":"Tell Abiad","shapeGroup":"SYR","gid":"SYR-2-51"},"id":"SYR-2-51"},{"arcs":[[-25,-32,-164,-89,-109]],"type":"Polygon","properties":{"name":"Ath-Thawrah","shapeGroup":"SYR","gid":"SYR-2-52"},"id":"SYR-2-52"},{"arcs":[[165,166,167,168,169,170]],"type":"Polygon","properties":{"name":"Dar'a","shapeGroup":"SYR","gid":"SYR-2-53"},"id":"SYR-2-53"},{"arcs":[[-37,-52,171,172,173,-66]],"type":"Polygon","properties":{"name":"As-Sanamayn","shapeGroup":"SYR","gid":"SYR-2-54"},"id":"SYR-2-54"},{"arcs":[[-166,174,-173,175,176]],"type":"Polygon","properties":{"name":"Izra'","shapeGroup":"SYR","gid":"SYR-2-55"},"id":"SYR-2-55"},{"arcs":[[-50,177,-167,-177,178]],"type":"Polygon","properties":{"name":"As-Sweida","shapeGroup":"SYR","gid":"SYR-2-56"},"id":"SYR-2-56"},{"arcs":[[-49,179,-168,-178]],"type":"Polygon","properties":{"name":"Salkhad","shapeGroup":"SYR","gid":"SYR-2-57"},"id":"SYR-2-57"},{"arcs":[[-51,-179,-176,-172]],"type":"Polygon","properties":{"name":"Shahba","shapeGroup":"SYR","gid":"SYR-2-58"},"id":"SYR-2-58"},{"arcs":[[-67,-174,-175,-171,180,181]],"type":"Polygon","properties":{"name":"Quneitra","shapeGroup":"SYR","gid":"SYR-2-59"},"id":"SYR-2-59"},{"arcs":[[-170,182,-181]],"type":"Polygon","properties":{"name":"Al Fiq","shapeGroup":"SYR","gid":"SYR-2-60"},"id":"SYR-2-60"}]}}}