{"type":"Topology","arcs":[[[2862,3679],[-99,-249],[-51,-95],[-42,-93],[-49,-70],[-170,-180],[-7,-66],[-29,-173],[-6,-54],[-22,-57],[-55,-55],[6,-52],[53,-27],[63,1],[40,-93],[14,-14],[-7,-82]],[[2501,2320],[-50,-2],[-230,1],[-64,-32]],[[2157,2287],[-104,-58],[-35,-16]],[[2018,2213],[-35,97],[12,87],[23,39],[12,49],[2,116],[-15,65],[-115,2],[-64,-11],[-72,18],[-96,-31]],[[1670,2644],[16,104]],[[1686,2748],[140,43],[182,773]],[[2008,3564],[108,-68],[82,-17],[104,-1],[76,18],[72,45],[45,39],[54,77],[19,48],[12,80],[-2,38],[29,6],[24,-15],[44,-77],[32,-30],[59,-5],[96,-23]],[[2862,3679],[57,-12]],[[2919,3667],[6,-536],[3,-197]],[[2928,2934],[-3,-56],[94,-56],[12,-33],[-12,-62],[44,-86],[-4,-159]],[[3059,2482],[-12,-26],[-127,-29]],[[2920,2427],[-119,42],[-78,-40],[-173,-100],[-49,-9]],[[2018,2213],[-60,-2],[-95,-79],[-45,-30],[14,-33]],[[1832,2069],[-84,26],[-10,38],[-34,34],[-8,62],[-17,6],[-47,48],[-25,77],[-56,37],[13,31],[60,48],[13,23]],[[1637,2499],[36,49],[-3,96]],[[2008,3564],[-33,40],[-30,55],[-304,137]],[[1641,3796],[-60,28]],[[1581,3824],[362,329],[470,426],[83,15],[28,24],[15,47],[273,5]],[[2812,4670],[316,5],[14,-37],[-37,-419]],[[3105,4219],[-27,-124],[153,-402],[-88,-76]],[[3143,3617],[-22,11],[-79,-16],[-30,6],[-69,42],[-24,7]],[[1715,1781],[-14,-107],[25,-131],[-4,-116],[-11,-43]],[[1711,1384],[-32,11],[-6,24],[-40,30],[-2,51],[-11,62],[-58,55],[-125,-21],[-112,-26],[-49,-20],[-112,-16],[-26,-36],[4,-35]],[[1142,1463],[-23,11],[-39,0],[-72,21],[-43,32],[-47,19],[-5,15],[-42,38],[-18,67]],[[853,1666],[11,31],[-24,51],[6,39],[21,51],[-24,57],[20,-2],[20,39],[-29,54],[13,80],[34,46]],[[901,2112],[79,51],[131,-1]],[[1111,2162],[34,-6],[110,14],[85,-25],[77,-30],[26,-42],[-7,-61],[36,-41],[16,-78],[15,-22],[71,-4],[54,-45],[87,-41]],[[853,1666],[-74,-2],[-88,-51]],[[691,1613],[-3,82],[19,38],[-5,20],[37,66],[-19,13],[-15,56],[23,37],[-33,44],[20,41]],[[715,2010],[38,26],[-17,47],[-41,26]],[[695,2109],[75,19],[40,18],[32,28],[59,-62]],[[1711,1384],[54,-23],[42,-31]],[[1807,1330],[-24,-124],[42,-33],[22,-53],[1,-40],[39,-34],[-58,-60]],[[1829,986],[-58,49],[-36,19],[-55,6],[-31,13],[-10,22],[-56,11],[-43,0],[-21,20],[-104,36],[-16,33],[-1,39],[-17,13],[-45,-28],[-128,4]],[[1208,1223],[-30,46],[-3,67],[12,107],[-11,22]],[[1176,1465],[-34,-2]],[[2501,2320],[-6,-58],[13,-99],[27,-77],[1,-39],[-15,-23],[-80,-76],[-29,-70]],[[2412,1878],[-13,-95],[13,-65]],[[2412,1718],[-72,22],[-67,12]],[[2273,1752],[-20,91],[-23,48],[-22,70],[78,40],[18,41],[-8,25],[-26,24],[-50,6],[8,40],[-21,63],[-50,87]],[[2273,1752],[-34,20],[-151,65],[-58,14],[-90,3],[-72,18]],[[1868,1872],[-20,52],[-40,51],[-1,17],[25,77]],[[1715,1781],[18,31],[75,57],[60,3]],[[2412,1718],[44,-25],[115,-53],[64,-22],[33,-25],[96,-20]],[[2764,1573],[14,-126],[-11,-57]],[[2767,1390],[-52,-48],[-39,7],[-30,-11],[-38,-56],[5,-20],[-31,-33],[-55,-30],[-36,-68],[-20,-6],[-94,0],[-13,-48],[-26,-1],[-46,19]],[[2292,1095],[4,46],[-65,72],[-51,26],[-41,7],[-36,27],[-46,19],[-17,-7],[-46,21],[-44,44],[-143,-20]],[[2920,2427],[88,-76],[-31,-16],[-26,-50],[17,-37],[-32,-16],[-36,-48],[-27,-62],[-22,-73],[7,-18]],[[2858,2031],[-69,6],[-76,13],[-51,18],[-68,-62],[13,-56],[-38,-57],[-18,-39],[-57,-17],[-14,39],[-68,2]],[[1081,2532],[25,-23],[14,-34],[49,-6]],[[1169,2469],[-1,-32],[31,-49],[-14,-57],[23,-44]],[[1208,2287],[-82,-6],[-103,-23],[-63,-1],[-21,7],[-81,-3],[-66,13],[-34,23],[-81,75],[-46,1],[-28,19],[0,60]],[[603,2452],[43,3]],[[646,2455],[83,4],[80,-50],[44,-17],[38,24],[-10,43],[12,58],[12,4],[16,49]],[[921,2570],[91,-42],[48,-4],[21,8]],[[1111,2162],[31,21],[50,68],[16,36]],[[1169,2469],[32,-3],[81,12],[47,-7],[35,15]],[[1364,2486],[96,9],[37,21],[24,-12],[55,21],[61,-26]],[[695,2109],[-60,-13]],[[635,2096],[1,85],[-27,34],[1,48],[-9,28],[-26,2],[-29,41],[-54,10],[-15,17],[7,47],[-17,37]],[[467,2445],[136,7]],[[1163,3137],[-49,-97]],[[1114,3040],[-89,-65],[-74,-64],[-5,-68]],[[946,2843],[-38,-31],[-10,-26],[-27,-2]],[[871,2784],[-237,-26],[-42,6]],[[592,2764],[-23,-21],[-40,70]],[[529,2813],[-55,78]],[[474,2891],[87,72],[99,145],[14,59],[62,-15],[30,4],[49,-23],[31,-30],[43,-21],[39,-7],[25,24],[46,10],[29,-11],[43,32],[92,7]],[[1641,3796],[-376,-455],[-102,-204]],[[474,2891],[-48,64],[-57,12],[-17,30],[-27,1],[-23,36],[-28,4],[-6,30],[-24,29],[-25,-1],[-18,24],[-84,-3],[-37,13]],[[80,3130],[16,11],[-8,37],[30,28],[29,10],[-9,63],[35,79],[45,50],[121,170],[64,84],[100,99],[154,163],[222,230]],[[879,4154],[286,-145],[265,-120],[151,-65]],[[921,2570],[-41,81],[23,78],[-25,23],[-7,32]],[[946,2843],[-2,-57],[71,-4],[55,4]],[[1070,2786],[-4,-59],[26,-73],[-3,-107],[-8,-15]],[[467,2445],[-31,43],[-167,2],[-59,80]],[[210,2570],[127,37],[59,57],[57,-1],[15,28],[70,5],[21,-16],[49,43]],[[608,2723],[27,-18],[19,-32],[-6,-17],[12,-55],[21,-25],[-36,-64],[1,-57]],[[608,2723],[-16,41]],[[1165,682],[29,-51],[48,9],[51,-15],[-15,-45],[10,-27]],[[1288,553],[-16,-17]],[[1272,536],[-30,2],[-69,-23],[-57,-43],[-56,-33],[-27,-45],[-69,-10]],[[964,384],[-8,34],[9,26],[41,9],[-24,25],[19,28],[1,47],[22,39]],[[1024,592],[64,21],[-9,41],[51,29],[35,-1]],[[964,384],[-41,-17],[-49,46],[-27,1],[-60,37]],[[787,451],[-6,17]],[[781,468],[4,32],[21,56],[29,26],[4,79],[9,42],[24,13]],[[872,716],[59,-17]],[[931,699],[93,-107]],[[931,699],[35,17],[74,-10],[49,10],[14,23]],[[1103,739],[38,6],[23,-13]],[[1164,732],[1,-50]],[[1164,732],[27,-8],[25,33],[32,11],[35,29]],[[1283,797],[28,-56]],[[1311,741],[9,-16]],[[1320,725],[25,-39],[28,-15],[12,-27],[-45,-68],[-52,-23]],[[1311,741],[51,15],[24,-2],[78,-34],[95,-9],[66,12]],[[1625,723],[8,-69]],[[1633,654],[-4,-71],[-43,-57]],[[1586,526],[-87,-25]],[[1499,501],[-43,72],[6,16],[-23,61],[-60,57],[-59,18]],[[1586,526],[38,-38],[73,-110]],[[1697,378],[-37,-62],[-46,-11]],[[1614,305],[-22,16],[-31,49],[-9,61],[-69,-1]],[[1483,430],[13,26],[3,45]],[[1614,305],[40,-75]],[[1654,230],[-101,-2],[-80,-16],[-19,7],[-51,46]],[[1403,265],[12,13],[22,91],[46,61]],[[1403,265],[-4,60],[-77,127]],[[1322,452],[-42,52],[-8,32]],[[1654,230],[37,-71]],[[1691,159],[-54,-59],[-113,-23],[2,-24],[-30,-14],[-52,53],[-26,9],[0,30],[-33,14],[-4,29],[-31,4],[-12,-24],[-33,-7],[7,-24],[-25,-23]],[[1287,100],[-18,106],[-18,63],[14,42],[-14,51],[-6,61],[50,26],[27,3]],[[1287,100],[-61,-27],[-80,-13],[-36,-41],[-74,-19],[-36,34],[-81,-3],[22,73],[-2,44],[-36,9],[-25,43],[-28,65],[3,21],[-49,97],[-17,68]],[[1625,723],[39,39],[-65,42],[69,53],[-1,39],[13,10],[-21,37],[48,8],[74,21],[31,-20]],[[1812,952],[30,-24],[20,-41],[43,-6],[28,-62],[102,-46],[64,-7],[-44,-69],[-46,-27]],[[2009,670],[-51,-21],[-51,-40],[-40,-18],[-46,-54],[-35,-20]],[[1786,517],[-12,38],[20,19],[-95,71],[-66,9]],[[1697,378],[10,11],[32,81],[47,47]],[[2009,670],[10,-50],[17,-22],[-4,-59],[13,-42],[20,-16]],[[2065,481],[20,-68],[1,-75],[20,-83]],[[2106,255],[-81,-4],[-49,-22],[-112,10],[-10,-16],[-47,-14],[-12,-20],[-29,1],[-60,-19],[-15,-12]],[[1208,1223],[19,-13],[11,-66],[-56,-97],[-47,-48],[-27,-16]],[[1108,983],[-25,-5],[-15,21],[-39,10]],[[1029,1009],[1,47],[-13,9]],[[1017,1065],[-48,55]],[[969,1120],[7,14],[-84,49],[-15,30],[-43,46],[-20,7],[-31,72],[-42,30],[4,48],[-17,36]],[[728,1452],[30,44],[54,2],[30,-49],[17,-5],[23,25],[17,-9],[49,-1],[35,-15],[17,-60],[71,-30],[34,4],[17,34],[44,48],[10,25]],[[1029,1009],[-29,-22],[-20,-40],[-8,-36],[-34,-27],[-47,-54],[-28,-49]],[[863,781],[-67,27],[-58,38],[-22,36],[-8,54]],[[708,936],[25,16],[11,38],[30,19],[59,18],[80,10],[62,2],[42,26]],[[728,1452],[-21,34],[11,27],[-5,36],[-15,21],[-7,43]],[[708,936],[-20,16],[3,29],[-37,16],[-40,-11],[-49,-2]],[[565,984],[-7,67]],[[558,1051],[-4,58]],[[554,1109],[49,-12],[37,24],[37,10],[44,-17],[14,14],[36,-13],[10,14],[89,-28],[99,19]],[[565,984],[1,-32],[-21,-48],[-19,-8],[-10,-29],[-28,-18],[-23,17],[-60,14],[-54,-24]],[[351,856],[-35,44],[-24,13],[-51,61],[2,26],[57,73]],[[300,1073],[34,-8],[42,-42],[45,2],[44,-28],[35,7],[58,47]],[[300,1073],[20,49],[17,7],[110,6],[107,-26]],[[2065,481],[87,24],[55,68],[10,42],[29,20],[16,-10],[22,-46],[29,-25],[33,-1],[29,-17],[56,2],[28,10],[31,-18]],[[2490,530],[-16,-38],[-24,-20],[-61,-90],[-21,-20],[-58,-21],[-19,-29],[-13,-44],[-172,-13]],[[2767,1390],[-29,-132],[25,-10],[-20,-49],[3,-26],[-18,-13],[36,-69]],[[2764,1091],[102,-284],[29,-75]],[[2895,732],[-27,-17],[-69,-1],[-45,-16],[-120,2],[-41,-8],[-41,11],[-37,-12],[-50,-5]],[[2465,686],[-24,27],[-53,29],[-6,53],[3,45],[-29,-10],[-6,-20],[-51,-29],[-54,-2],[-30,46],[-38,21],[-34,75],[14,65],[22,65],[41,0],[26,29],[46,15]],[[2928,2934],[33,33],[46,62],[52,39],[57,-5],[53,17],[72,-21],[35,-20],[71,-74],[46,-11],[64,-39]],[[3457,2915],[39,-32],[7,-55],[33,-39],[29,-7],[16,-35],[55,-67],[20,-76],[-30,-56]],[[3626,2548],[-61,-24],[-39,-4],[-114,-23],[-83,-22],[-90,-12]],[[3239,2463],[-99,-2],[-81,21]],[[3626,2548],[-3,-102],[25,-52]],[[3648,2394],[-64,-23],[-52,-38],[-28,-33]],[[3504,2300],[-60,10],[-61,-16],[-69,26],[4,47],[-11,24],[-67,15],[-1,57]],[[3457,2915],[82,38]],[[3539,2953],[104,-15],[186,-55],[46,-25]],[[3875,2858],[-54,-58],[24,-19],[-4,-24],[23,-39],[26,-20],[-4,-36],[33,-50],[-49,-47],[-20,-34],[-57,-14],[-36,-40],[-38,-96],[-12,-11]],[[3707,2370],[-59,24]],[[2764,1573],[30,0],[53,20],[59,32],[19,1],[47,29],[-19,60],[4,30],[-31,60],[-34,37],[4,56],[54,81],[16,51]],[[2966,2030],[69,-1],[149,-70],[186,-94]],[[3370,1865],[19,-10],[-2,-42],[136,24]],[[3523,1837],[-14,-59],[-98,-122],[-65,-133],[-18,-72],[-25,-55],[-17,-55],[-35,-74],[-16,-64],[-6,-57],[-54,-25],[-89,10],[-107,5],[-43,-16],[-40,3],[-52,-7],[-80,-25]],[[2858,2031],[7,-35],[40,10],[3,20],[58,4]],[[3523,1837],[245,46],[30,-21],[64,-10],[133,-279],[3,-2]],[[3998,1571],[-122,-39],[-19,-15],[-31,9],[-66,-19],[-25,7],[-38,-31],[-2,-57],[-24,-7],[-7,-64],[22,-46],[-13,-37],[-28,-37],[-51,-12],[-41,-25],[-7,-31],[-26,-36],[-24,-17],[-34,14],[-58,-65],[-8,-25],[-38,-28],[-23,-49],[-45,-40],[-5,-17],[-43,-26],[-47,-15],[-11,-34],[-49,9],[-32,-73],[-46,-20],[-51,8],[-80,-2],[-31,-19]],[[1829,986],[-17,-34]],[[1283,797],[-37,54],[-26,67]],[[1220,918],[-23,23],[-58,21],[-31,21]],[[3143,3617],[82,-26],[45,15],[120,55],[-1,44],[40,22],[74,1],[31,-6],[26,14],[90,-4]],[[3650,3732],[-43,-75],[-11,-81],[-15,-37],[-39,-70],[-53,-46],[-59,-6],[-73,-60],[-10,-55],[34,-1],[71,-17],[67,-39],[34,-31]],[[3553,3214],[11,-20],[7,-52],[-29,-99],[-3,-90]],[[3553,3214],[12,27],[125,80],[66,10],[43,-3],[26,-31]],[[3825,3297],[70,-91],[77,-46]],[[3972,3160],[-7,-33],[21,-16],[-4,-31],[11,-36],[-14,-18],[18,-22],[33,-2],[12,-23],[-15,-33],[-42,-25],[-52,-19],[-12,-20],[-30,-5],[-16,-19]],[[3825,3297],[15,42],[1,38],[-34,76],[5,61],[-47,61],[-6,27],[23,46],[-8,85],[-12,23]],[[3762,3756],[34,18]],[[3796,3774],[137,-43],[19,-32],[39,-8],[108,-46],[61,-46],[38,-43]],[[4198,3556],[31,-34],[7,-44],[-11,-52],[-20,-12],[2,-28],[-24,-7],[-60,-54],[5,-27],[-44,-27],[22,-67],[-59,-21],[-45,-7],[-30,-16]],[[715,2010],[-35,53],[-33,1],[-12,32]],[[1364,2486],[-11,23],[43,81],[-83,122],[-68,63],[-80,5],[-12,-16],[-83,22]],[[1114,3040],[25,-46],[70,-81],[22,-64],[117,-3],[65,-11],[156,-14],[81,-46],[36,-27]],[[4679,3982],[-415,-206],[-238,28],[-91,226]],[[3935,4030],[-26,49]],[[3909,4079],[36,36],[-4,1573]],[[3941,5688],[738,-361],[0,-1327],[0,-18]],[[3796,3774],[16,136],[42,15],[81,105]],[[4679,3982],[0,-329],[-81,18],[-101,5],[-66,-23],[-41,-7],[-101,11],[-40,-41],[-47,-32],[-4,-28]],[[3707,2370],[59,-81],[91,22],[19,37],[51,-30],[66,-24],[-38,-90],[21,-15],[13,-58],[21,-45],[-8,-58],[29,12],[41,-2],[-36,-155],[3,-32],[44,-52],[36,-11],[21,-37],[68,9],[-3,-47],[20,-7],[4,-36],[-26,-54],[-24,-74],[-51,8],[-12,11],[-95,14],[-23,-4]],[[3370,1865],[25,43],[10,43],[36,37],[25,66],[-28,81],[9,44],[23,12],[32,68],[2,41]],[[3338,5983],[-218,-435],[-438,1],[-2,-596],[-140,-2]],[[2540,4951],[-130,8],[-55,70],[-1003,-2]],[[1352,5027],[168,288],[211,373],[32,108],[-84,48],[-199,176],[-32,158],[-5,5],[106,124],[-24,52],[0,150],[1,360]],[[1526,6869],[917,-449],[95,-46],[800,-391]],[[1352,5027],[-450,-827]],[[902,4200],[14,287],[11,242],[13,259],[37,277],[34,260],[108,177],[-58,50],[-53,74],[-69,64],[-20,47],[35,36],[-149,207],[-41,26],[-2,221],[-35,183],[-52,262],[446,195],[405,-198]],[[2812,4670],[-272,281]],[[3338,5983],[603,-295]],[[3909,4079],[-629,141],[-175,-1]],[[3762,3756],[-75,-20],[-37,-4]],[[2465,686],[-20,-23],[-48,-29],[24,-34],[43,-17],[36,-27],[-10,-26]],[[872,716],[-9,65]],[[1220,918],[-64,-64],[-42,-23],[-22,-45],[11,-47]],[[879,4154],[22,23],[1,23]],[[781,468],[-12,49],[-45,27],[-32,-1],[-60,60],[-65,6],[-87,85],[-22,9],[-7,26],[-50,47],[2,40],[-30,35],[-22,5]],[[529,2813],[-70,-15],[-23,9],[-88,-47],[-52,-15],[-30,30],[-51,7],[-76,-45],[-25,-31]],[[114,2706],[-44,59],[-70,300],[6,42],[74,23]],[[210,2570],[-96,136]]],"transform":{"scale":[0.002248420602692883,0.002263814065091261],"translate":[13.47964,7.44107000200006]},"objects":{"TCD":{"type":"GeometryCollection","geometries":[{"arcs":[[0,1,2,3,4,5,6]],"type":"Polygon","properties":{"name":"Batha Ouest","shapeGroup":"TCD","gid":"TCD-2-0"},"id":"TCD-2-0"},{"arcs":[[-1,7,8,9,10,11]],"type":"Polygon","properties":{"name":"Batha Est","shapeGroup":"TCD","gid":"TCD-2-1"},"id":"TCD-2-1"},{"arcs":[[-4,12,13,14]],"type":"Polygon","properties":{"name":"Fitri","shapeGroup":"TCD","gid":"TCD-2-2"},"id":"TCD-2-2"},{"arcs":[[-7,15,16,17,18,19,20,-8]],"type":"Polygon","properties":{"name":"Borkou","shapeGroup":"TCD","gid":"TCD-2-3"},"id":"TCD-2-3"},{"arcs":[[21,22,23,24,25,26]],"type":"Polygon","properties":{"name":"Baguirmi","shapeGroup":"TCD","gid":"TCD-2-4"},"id":"TCD-2-4"},{"arcs":[[-25,27,28,29,30]],"type":"Polygon","properties":{"name":"Chari","shapeGroup":"TCD","gid":"TCD-2-5"},"id":"TCD-2-5"},{"arcs":[[-23,31,32,33,34,35]],"type":"Polygon","properties":{"name":"Loug-Chari","shapeGroup":"TCD","gid":"TCD-2-6"},"id":"TCD-2-6"},{"arcs":[[-2,36,37,38,39]],"type":"Polygon","properties":{"name":"Guéra","shapeGroup":"TCD","gid":"TCD-2-7"},"id":"TCD-2-7"},{"arcs":[[-3,-40,40,41,-13]],"type":"Polygon","properties":{"name":"Abtouyour","shapeGroup":"TCD","gid":"TCD-2-8"},"id":"TCD-2-8"},{"arcs":[[-22,42,-41,-39,43,44,45,46,-32]],"type":"Polygon","properties":{"name":"Barh-Signaka","shapeGroup":"TCD","gid":"TCD-2-9"},"id":"TCD-2-9"},{"arcs":[[-12,47,48,-37]],"type":"Polygon","properties":{"name":"Mangalmé","shapeGroup":"TCD","gid":"TCD-2-10"},"id":"TCD-2-10"},{"arcs":[[49,50,51,52,53,54]],"type":"Polygon","properties":{"name":"Dagana","shapeGroup":"TCD","gid":"TCD-2-11"},"id":"TCD-2-11"},{"arcs":[[-14,-42,-43,-27,55,-51,56,57]],"type":"Polygon","properties":{"name":"Dababa","shapeGroup":"TCD","gid":"TCD-2-12"},"id":"TCD-2-12"},{"arcs":[[-26,-31,58,59,60,-52,-56]],"type":"Polygon","properties":{"name":"Haraze-Al-Biar","shapeGroup":"TCD","gid":"TCD-2-13"},"id":"TCD-2-13"},{"arcs":[[61,62,63,64,65,66,67]],"type":"Polygon","properties":{"name":"Kanem","shapeGroup":"TCD","gid":"TCD-2-14"},"id":"TCD-2-14"},{"arcs":[[-17,68,-68,69,70,71]],"type":"Polygon","properties":{"name":"Nord Kanem","shapeGroup":"TCD","gid":"TCD-2-15"},"id":"TCD-2-15"},{"arcs":[[-55,72,-64,73,74]],"type":"Polygon","properties":{"name":"Wadi Bissam","shapeGroup":"TCD","gid":"TCD-2-16"},"id":"TCD-2-16"},{"arcs":[[-53,-61,75,76,77]],"type":"Polygon","properties":{"name":"Mamdi","shapeGroup":"TCD","gid":"TCD-2-17"},"id":"TCD-2-17"},{"arcs":[[-54,-78,78,-65,-73]],"type":"Polygon","properties":{"name":"Wayi","shapeGroup":"TCD","gid":"TCD-2-18"},"id":"TCD-2-18"},{"arcs":[[79,80,81,82,83]],"type":"Polygon","properties":{"name":"Lac Wey","shapeGroup":"TCD","gid":"TCD-2-19"},"id":"TCD-2-19"},{"arcs":[[-83,84,85,86,87,88]],"type":"Polygon","properties":{"name":"Dodjé","shapeGroup":"TCD","gid":"TCD-2-20"},"id":"TCD-2-20"},{"arcs":[[-84,-89,89,90,91]],"type":"Polygon","properties":{"name":"Guéni","shapeGroup":"TCD","gid":"TCD-2-21"},"id":"TCD-2-21"},{"arcs":[[-80,-92,92,93,94,95]],"type":"Polygon","properties":{"name":"Ngourkosso","shapeGroup":"TCD","gid":"TCD-2-22"},"id":"TCD-2-22"},{"arcs":[[-95,96,97,98,99,100]],"type":"Polygon","properties":{"name":"La Pendé","shapeGroup":"TCD","gid":"TCD-2-23"},"id":"TCD-2-23"},{"arcs":[[-100,101,102,103,104]],"type":"Polygon","properties":{"name":"Kouh Est","shapeGroup":"TCD","gid":"TCD-2-24"},"id":"TCD-2-24"},{"arcs":[[-104,105,106,107]],"type":"Polygon","properties":{"name":"Kouh Ouest","shapeGroup":"TCD","gid":"TCD-2-25"},"id":"TCD-2-25"},{"arcs":[[-81,-96,-101,-105,-108,108,109]],"type":"Polygon","properties":{"name":"La Nya","shapeGroup":"TCD","gid":"TCD-2-26"},"id":"TCD-2-26"},{"arcs":[[-107,110,111,112,-109]],"type":"Polygon","properties":{"name":"La Nya Pendé","shapeGroup":"TCD","gid":"TCD-2-27"},"id":"TCD-2-27"},{"arcs":[[-82,-110,-113,113,-85]],"type":"Polygon","properties":{"name":"Monts de Lam","shapeGroup":"TCD","gid":"TCD-2-28"},"id":"TCD-2-28"},{"arcs":[[-98,114,115,116,117]],"type":"Polygon","properties":{"name":"Mandoul Oriental","shapeGroup":"TCD","gid":"TCD-2-29"},"id":"TCD-2-29"},{"arcs":[[-103,118,-117,119,120,121,-111,-106]],"type":"Polygon","properties":{"name":"Barh-Sara","shapeGroup":"TCD","gid":"TCD-2-30"},"id":"TCD-2-30"},{"arcs":[[-99,-118,-119,-102]],"type":"Polygon","properties":{"name":"Mandoul Occidental","shapeGroup":"TCD","gid":"TCD-2-31"},"id":"TCD-2-31"},{"arcs":[[-35,122,123,124,125,126,127]],"type":"Polygon","properties":{"name":"Mayo-Boneye","shapeGroup":"TCD","gid":"TCD-2-32"},"id":"TCD-2-32"},{"arcs":[[-125,128,129,130]],"type":"Polygon","properties":{"name":"Kabbia","shapeGroup":"TCD","gid":"TCD-2-33"},"id":"TCD-2-33"},{"arcs":[[-24,-36,-128,131,-28]],"type":"Polygon","properties":{"name":"Mayo-Lemié","shapeGroup":"TCD","gid":"TCD-2-34"},"id":"TCD-2-34"},{"arcs":[[-126,-131,132,133,134,135]],"type":"Polygon","properties":{"name":"Mont Illi","shapeGroup":"TCD","gid":"TCD-2-35"},"id":"TCD-2-35"},{"arcs":[[-134,136,137,138]],"type":"Polygon","properties":{"name":"Lac Léré","shapeGroup":"TCD","gid":"TCD-2-36"},"id":"TCD-2-36"},{"arcs":[[-135,-139,139]],"type":"Polygon","properties":{"name":"Mayo-Binder","shapeGroup":"TCD","gid":"TCD-2-37"},"id":"TCD-2-37"},{"arcs":[[-121,140,141]],"type":"Polygon","properties":{"name":"Grande Sido","shapeGroup":"TCD","gid":"TCD-2-38"},"id":"TCD-2-38"},{"arcs":[[-46,142,143,144,145]],"type":"Polygon","properties":{"name":"Lac Iro","shapeGroup":"TCD","gid":"TCD-2-39"},"id":"TCD-2-39"},{"arcs":[[-10,146,147,148,149]],"type":"Polygon","properties":{"name":"Ouara","shapeGroup":"TCD","gid":"TCD-2-40"},"id":"TCD-2-40"},{"arcs":[[-149,150,151,152]],"type":"Polygon","properties":{"name":"Abdi","shapeGroup":"TCD","gid":"TCD-2-41"},"id":"TCD-2-41"},{"arcs":[[-148,153,154,155,156,-151]],"type":"Polygon","properties":{"name":"Assoungha","shapeGroup":"TCD","gid":"TCD-2-42"},"id":"TCD-2-42"},{"arcs":[[-45,157,158,159,160,-143]],"type":"Polygon","properties":{"name":"Bahr-Azoum","shapeGroup":"TCD","gid":"TCD-2-43"},"id":"TCD-2-43"},{"arcs":[[-38,-49,161,-158,-44]],"type":"Polygon","properties":{"name":"Aboudéia","shapeGroup":"TCD","gid":"TCD-2-44"},"id":"TCD-2-44"},{"arcs":[[-144,-161,162,163]],"type":"Polygon","properties":{"name":"Haraze-Mangueigne","shapeGroup":"TCD","gid":"TCD-2-45"},"id":"TCD-2-45"},{"arcs":[[-34,164,-115,-97,-94,165,166,-123]],"type":"Polygon","properties":{"name":"Tandjilé Est","shapeGroup":"TCD","gid":"TCD-2-46"},"id":"TCD-2-46"},{"arcs":[[-9,-21,167,168,169,-154,-147]],"type":"Polygon","properties":{"name":"Biltine","shapeGroup":"TCD","gid":"TCD-2-47"},"id":"TCD-2-47"},{"arcs":[[-155,-170,170,171,172]],"type":"Polygon","properties":{"name":"Dar-Tama","shapeGroup":"TCD","gid":"TCD-2-48"},"id":"TCD-2-48"},{"arcs":[[-172,173,174,175,176]],"type":"Polygon","properties":{"name":"Kobé","shapeGroup":"TCD","gid":"TCD-2-49"},"id":"TCD-2-49"},{"arcs":[[-30,177,-59]],"type":"Polygon","properties":{"name":"N'Djaména","shapeGroup":"TCD","gid":"TCD-2-50"},"id":"TCD-2-50"},{"arcs":[[-5,-15,-58,178,-74,-63,179]],"type":"Polygon","properties":{"name":"Barh-El-Gazel Sud","shapeGroup":"TCD","gid":"TCD-2-51"},"id":"TCD-2-51"},{"arcs":[[-50,-75,-179,-57]],"type":"Polygon","properties":{"name":"Barh-El-Gazel Ouest","shapeGroup":"TCD","gid":"TCD-2-52"},"id":"TCD-2-52"},{"arcs":[[180,181,182,183]],"type":"Polygon","properties":{"name":"Am-Djarass","shapeGroup":"TCD","gid":"TCD-2-53"},"id":"TCD-2-53"},{"arcs":[[-176,184,-181,185]],"type":"Polygon","properties":{"name":"Wadi Hawar","shapeGroup":"TCD","gid":"TCD-2-54"},"id":"TCD-2-54"},{"arcs":[[-152,-157,186,-163,-160,187]],"type":"Polygon","properties":{"name":"Kimiti","shapeGroup":"TCD","gid":"TCD-2-55"},"id":"TCD-2-55"},{"arcs":[[-11,-150,-153,-188,-159,-162,-48]],"type":"Polygon","properties":{"name":"Djourf Al Ahmar","shapeGroup":"TCD","gid":"TCD-2-56"},"id":"TCD-2-56"},{"arcs":[[188,189,190,191]],"type":"Polygon","properties":{"name":"Tibesti Est","shapeGroup":"TCD","gid":"TCD-2-57"},"id":"TCD-2-57"},{"arcs":[[-191,192,193]],"type":"Polygon","properties":{"name":"Tibesti Ouest","shapeGroup":"TCD","gid":"TCD-2-58"},"id":"TCD-2-58"},{"arcs":[[-19,194,-189,195,-183,196]],"type":"Polygon","properties":{"name":"Fada","shapeGroup":"TCD","gid":"TCD-2-59"},"id":"TCD-2-59"},{"arcs":[[-20,-197,-182,-185,-175,197,-168]],"type":"Polygon","properties":{"name":"Mourtcha","shapeGroup":"TCD","gid":"TCD-2-60"},"id":"TCD-2-60"},{"arcs":[[-33,-47,-146,198,-141,-120,-116,-165]],"type":"Polygon","properties":{"name":"Bahr-Köh","shapeGroup":"TCD","gid":"TCD-2-61"},"id":"TCD-2-61"},{"arcs":[[-88,199,-129,-124,-167,200,-90]],"type":"Polygon","properties":{"name":"Tandjile Ouest","shapeGroup":"TCD","gid":"TCD-2-62"},"id":"TCD-2-62"},{"arcs":[[-91,-201,-166,-93]],"type":"Polygon","properties":{"name":"Tandjilé Centre","shapeGroup":"TCD","gid":"TCD-2-63"},"id":"TCD-2-63"},{"arcs":[[-18,-72,201,-193,-190,-195]],"type":"Polygon","properties":{"name":"Borkou Yala","shapeGroup":"TCD","gid":"TCD-2-64"},"id":"TCD-2-64"},{"arcs":[[-6,-180,-62,-69,-16]],"type":"Polygon","properties":{"name":"Barh-El-Gazel Nord","shapeGroup":"TCD","gid":"TCD-2-65"},"id":"TCD-2-65"},{"arcs":[[-169,-198,-174,-171]],"type":"Polygon","properties":{"name":"Mégri","shapeGroup":"TCD","gid":"TCD-2-66"},"id":"TCD-2-66"},{"arcs":[[-87,202,-137,-133,-130,-200]],"type":"Polygon","properties":{"name":"Mayo-Dallah","shapeGroup":"TCD","gid":"TCD-2-67"},"id":"TCD-2-67"},{"arcs":[[-67,203,204,-70]],"type":"Polygon","properties":{"name":"Fouli","shapeGroup":"TCD","gid":"TCD-2-68"},"id":"TCD-2-68"},{"arcs":[[-66,-79,-77,205,-204]],"type":"Polygon","properties":{"name":"Kaya","shapeGroup":"TCD","gid":"TCD-2-69"},"id":"TCD-2-69"}]}}}