{"type":"Topology","arcs":[[[2438,2820],[-543,9]],[[1895,2829],[-7,49],[21,95],[-15,29],[34,95],[-4,43],[16,63],[-16,12]],[[1924,3215],[33,67],[43,30],[31,54],[-17,82],[54,78],[37,78],[-11,67],[54,99],[-20,88],[53,50],[21,54]],[[2202,3962],[16,-30],[88,-80],[46,-26],[81,-124],[16,-90],[-10,-55],[10,-58],[5,-144],[-3,-344],[26,-51],[-27,-35],[-12,-105]],[[1924,3215],[-46,12],[-54,64],[-78,-10],[-74,14],[-107,80],[-27,93],[-31,29],[-62,23],[-38,99]],[[1407,3619],[123,26],[56,55],[-22,47],[-2,85],[45,49]],[[1607,3881],[72,17],[67,-2],[76,-17],[87,9],[147,41],[32,-1],[88,58]],[[2176,3986],[26,-24]],[[1607,3881],[21,33],[-15,61],[-89,59],[-2,60],[37,87]],[[1559,4181],[38,-51],[139,-10],[49,33],[72,-11],[59,23],[67,-15],[111,23],[40,-27]],[[2134,4146],[3,-89],[39,-71]],[[2081,4222],[-128,61],[38,86],[11,55],[-12,36],[-76,49],[-11,53],[-31,17]],[[1872,4579],[52,95],[33,29],[119,54]],[[2076,4757],[8,-157],[2,-222],[-34,-81],[29,-75]],[[1872,4579],[-71,-91],[-38,-3],[-32,-33],[-69,-10],[-86,-29],[-110,8]],[[1466,4421],[-4,11]],[[1462,4432],[-48,24],[-26,52],[-1,119],[-14,52]],[[1373,4679],[57,23],[25,-20],[60,-9],[70,22],[74,-18],[35,29],[3,32],[60,45],[16,47],[44,66],[3,103]],[[1820,4999],[251,-134],[5,-108]],[[1373,4679],[0,33],[-59,-3],[-54,20],[-38,-59],[-69,1],[-14,38]],[[1139,4709],[-17,83],[29,61],[-1,54],[23,62],[54,77],[15,47],[56,-13],[13,-23],[63,35],[58,-19],[43,27],[75,-5],[29,46]],[[1579,5141],[124,-78],[117,-64]],[[1559,4181],[30,83],[3,93],[-106,33],[-20,31]],[[2081,4222],[38,14],[15,-90]],[[1938,110],[-95,-14],[-20,-26]],[[1823,70],[-96,0]],[[1727,70],[13,114]],[[1740,184],[36,33],[100,-27],[62,-80]],[[2642,358],[-30,-21],[-138,-36],[-66,11]],[[2408,312],[33,12],[-4,39],[-38,34],[-43,107],[-34,45]],[[2322,549],[54,23],[87,-9],[32,27]],[[2495,590],[52,-59],[-7,-45],[76,-46],[26,-82]],[[2408,312],[9,-72],[-26,-40],[-3,-51],[-71,-7],[-51,-19],[-47,7],[-79,44]],[[2140,174],[-25,69],[-29,145]],[[2086,388],[37,25],[48,72],[48,43],[103,21]],[[2086,388],[-36,69],[-46,51],[-21,79],[16,96],[-84,40],[-2,40]],[[1913,763],[93,81],[93,59],[49,13],[91,-18],[53,19],[48,61],[51,24]],[[2391,1002],[24,-9],[-8,-133],[37,-49],[-36,-43],[-14,-53],[18,-22],[10,-76],[73,-27]],[[1561,1386],[-44,77],[-43,15],[-181,-3]],[[1293,1475],[-15,15],[-6,78],[24,47]],[[1296,1615],[69,43],[65,58],[138,89],[9,29],[-106,30],[-22,31],[-2,81]],[[1447,1976],[9,93],[33,89],[28,35],[133,49]],[[1650,2242],[52,-68],[22,-63],[55,-23],[17,-75]],[[1796,2013],[-5,-82],[13,-36],[-55,-86],[0,-98],[29,-51],[-27,-62],[-13,-87],[-17,-20],[-160,-105]],[[1296,1615],[-102,-27],[-40,5],[-59,-22]],[[1095,1571],[-4,39],[-35,17],[-62,-24],[-49,39],[-25,114],[25,116],[69,24],[9,95],[51,4]],[[1074,1995],[25,-7],[8,-66],[21,-26],[58,-2],[90,50],[39,-41],[29,65],[103,8]],[[1895,2829],[2,-86],[43,-132],[5,-53],[-26,-189],[-60,-40],[-50,-10]],[[1809,2319],[-129,-21],[-53,17]],[[1627,2315],[-97,23],[-115,-27],[-62,13],[-36,-34],[-110,-9],[-72,-45],[-81,-3]],[[1054,2233],[-32,119],[7,41],[-21,81],[10,61],[23,33],[-29,41],[41,21],[29,56],[64,30],[65,9],[0,70],[-29,51]],[[1182,2846],[30,-26],[68,48],[237,-42],[72,23],[173,-36],[40,41],[93,-25]],[[1182,2846],[-35,38],[-49,15],[-6,78],[-46,28]],[[1046,3005],[26,29],[79,19],[46,28],[84,81],[-41,65],[-64,37],[-7,157],[58,33],[-38,39],[-10,97],[-19,36]],[[1160,3626],[44,45],[65,9],[17,-35],[121,-26]],[[1160,3626],[-31,-33],[-39,-3],[-17,-45],[-60,-33],[6,-49],[-51,-9],[-33,-32],[-41,-2]],[[894,3420],[32,44],[-18,70],[-26,22],[-52,102],[15,70],[26,27],[-14,39],[48,23],[30,55],[-38,57],[47,64],[34,128]],[[978,4121],[127,57],[42,41],[-19,73],[109,37],[90,8],[24,47],[37,-5],[74,53]],[[978,4121],[-61,42],[-41,59],[-103,16],[-74,-1],[-31,-60],[-72,-27],[-50,10],[-14,61],[48,-9],[52,27],[-38,30],[-53,-2],[-5,59],[161,0],[35,21],[-19,80],[-34,81],[-34,12],[16,87],[35,64],[-9,64],[15,40],[34,11],[-41,74],[4,40],[66,-10]],[[765,4890],[27,-78],[56,-19],[78,-7],[-1,-44],[56,-38],[85,15],[73,-10]],[[1727,70],[-70,79],[-42,28],[-26,99],[-154,0],[-51,63],[-95,32],[-9,29],[-46,14],[-29,56],[-12,62]],[[1193,532],[73,5],[68,38],[86,87],[22,55]],[[1442,717],[36,-45],[9,-38],[117,-142],[70,-75],[5,-76],[-46,-30],[-11,-47],[80,-82],[38,2]],[[1442,717],[4,77],[-13,98]],[[1433,892],[316,-20],[82,-57],[26,-35],[56,-17]],[[2140,174],[-10,-47]],[[2130,127],[-75,-8],[-59,-21],[-58,12]],[[1193,532],[36,26],[-146,96],[7,31],[-6,107]],[[1084,792],[7,56],[-13,35],[118,104],[22,30],[20,87]],[[1238,1104],[25,-2],[68,-95],[39,-20],[60,24]],[[1430,1011],[3,-119]],[[1293,1475],[-36,-15],[-13,-68],[-34,-61],[-96,-42]],[[1114,1289],[-90,-38]],[[1024,1251],[2,28],[48,91],[19,104],[18,35],[-16,62]],[[2438,2820],[16,-59],[4,-413],[-3,-72]],[[2455,2276],[-87,11],[-81,-30],[-18,-33],[-13,-94],[-54,2],[-140,57],[-46,68],[-139,0],[-61,24],[-7,38]],[[1430,1011],[8,60],[33,79],[26,26],[74,38]],[[1571,1214],[83,21],[103,77],[66,24],[114,5],[62,19],[157,93],[67,7]],[[2223,1460],[-18,-28],[36,-79],[-50,-9],[-4,-55],[33,-28],[156,-73],[-44,-24],[18,-56]],[[2350,1108],[2,-32],[39,-74]],[[1561,1386],[10,-172]],[[1238,1104],[-14,39],[-77,15],[-41,57],[8,74]],[[2223,1460],[108,17],[70,67],[57,68]],[[2458,1612],[3,-330],[5,-178],[-116,4]],[[1796,2013],[49,28],[13,-80],[112,-17],[20,-37],[-17,-40],[31,-49],[52,-25],[-12,-33],[60,-18],[0,-34],[76,-77],[19,86],[109,24],[14,36],[71,-17],[26,-38],[49,-7]],[[2468,1715],[-10,-103]],[[1312,5771],[-70,3],[-209,-31],[-85,-31],[-95,34],[-127,-15],[-91,0]],[[635,5731],[-17,135],[117,155],[33,78],[-2,52]],[[766,6151],[130,-24],[5,-44],[-16,-53],[223,83],[352,-1],[-30,-95],[15,-43],[-22,-31],[-16,-71],[-95,-101]],[[765,4890],[13,46],[-31,29],[-46,6],[3,61],[-15,33],[14,125],[37,68],[-80,-6],[-40,103],[-50,20],[-80,7]],[[490,5382],[-3,18],[42,140],[81,47],[41,55],[3,56],[-19,33]],[[1312,5771],[-11,-49],[13,-52],[0,-82],[-31,-82],[-12,-160],[308,-205]],[[490,5382],[-48,15],[-41,125],[-113,44],[-29,50],[-138,38],[-43,96],[25,16],[-3,47]],[[100,5813],[49,12],[61,-5],[37,-41],[29,36],[13,53],[82,-14],[175,-99],[37,-29],[52,5]],[[100,5813],[73,78],[-5,75],[26,46],[1,54],[53,22],[-8,51]],[[240,6139],[72,19],[72,-35],[74,-14],[55,-38],[26,31],[-28,71],[7,24]],[[518,6197],[248,-46]],[[240,6139],[-6,80],[-34,29],[-151,-19],[-49,28],[7,33],[66,-14],[445,-79]],[[1046,3005],[-60,14],[-13,31],[-82,30],[-38,27],[-125,181],[-1,63],[60,-11],[91,24],[16,56]],[[1074,1995],[-18,53],[7,145],[-9,40]],[[1627,2315],[23,-73]],[[2455,2276],[-5,-130],[8,-30],[-6,-178],[26,-59],[3,-100],[32,-49],[-45,-15]],[[1084,792],[-81,23],[-14,59],[-29,29],[-20,54],[33,13],[6,47],[-55,20],[-2,38],[36,25],[62,16],[4,71],[24,54],[-24,10]],[[2642,358],[27,-60],[14,-88],[-41,2],[-82,-31],[-89,-11],[-24,-18],[-195,-37],[-122,-29]],[[2130,86],[0,41]],[[2130,86],[-139,-40],[-135,-46],[1,70],[-34,0]]],"transform":{"scale":[0.00072554975773388,0.0007991344596184307],"translate":[-0.14732,6.112424249000071]},"objects":{"TGO":{"type":"GeometryCollection","geometries":[{"arcs":[[0,1,2,3]],"type":"Polygon","properties":{"name":"Tchamba","shapeGroup":"TGO","gid":"TGO-2-0"},"id":"TGO-2-0"},{"arcs":[[-3,4,5,6,7]],"type":"Polygon","properties":{"name":"Tchaoudjo","shapeGroup":"TGO","gid":"TGO-2-1"},"id":"TGO-2-1"},{"arcs":[[-7,8,9,10]],"type":"Polygon","properties":{"name":"Assoli","shapeGroup":"TGO","gid":"TGO-2-2"},"id":"TGO-2-2"},{"arcs":[[11,12,13]],"type":"Polygon","properties":{"name":"Binah","shapeGroup":"TGO","gid":"TGO-2-3"},"id":"TGO-2-3"},{"arcs":[[-13,14,15,16,17,18]],"type":"Polygon","properties":{"name":"Doufelgou","shapeGroup":"TGO","gid":"TGO-2-4"},"id":"TGO-2-4"},{"arcs":[[-18,19,20,21]],"type":"Polygon","properties":{"name":"Keran","shapeGroup":"TGO","gid":"TGO-2-5"},"id":"TGO-2-5"},{"arcs":[[-10,22,-15,-12,23]],"type":"Polygon","properties":{"name":"Kozah","shapeGroup":"TGO","gid":"TGO-2-6"},"id":"TGO-2-6"},{"arcs":[[24,25,26,27]],"type":"Polygon","properties":{"name":"Golfe","shapeGroup":"TGO","gid":"TGO-2-7"},"id":"TGO-2-7"},{"arcs":[[28,29,30,31]],"type":"Polygon","properties":{"name":"Bas-Mono","shapeGroup":"TGO","gid":"TGO-2-8"},"id":"TGO-2-8"},{"arcs":[[-30,32,33,34]],"type":"Polygon","properties":{"name":"Vo","shapeGroup":"TGO","gid":"TGO-2-9"},"id":"TGO-2-9"},{"arcs":[[-31,-35,35,36,37]],"type":"Polygon","properties":{"name":"Yoto","shapeGroup":"TGO","gid":"TGO-2-10"},"id":"TGO-2-10"},{"arcs":[[38,39,40,41,42,43]],"type":"Polygon","properties":{"name":"Amou","shapeGroup":"TGO","gid":"TGO-2-11"},"id":"TGO-2-11"},{"arcs":[[-41,44,45,46]],"type":"Polygon","properties":{"name":"Wawa","shapeGroup":"TGO","gid":"TGO-2-12"},"id":"TGO-2-12"},{"arcs":[[47,48,49,50,51]],"type":"Polygon","properties":{"name":"Blitta","shapeGroup":"TGO","gid":"TGO-2-13"},"id":"TGO-2-13"},{"arcs":[[-2,-52,52,53,54,-5]],"type":"Polygon","properties":{"name":"Sotouboua","shapeGroup":"TGO","gid":"TGO-2-14"},"id":"TGO-2-14"},{"arcs":[[-6,-55,55,56,57,-16,-23,-9]],"type":"Polygon","properties":{"name":"Bassar","shapeGroup":"TGO","gid":"TGO-2-15"},"id":"TGO-2-15"},{"arcs":[[-17,-58,58,59,-20]],"type":"Polygon","properties":{"name":"Dankpen","shapeGroup":"TGO","gid":"TGO-2-16"},"id":"TGO-2-16"},{"arcs":[[-27,60,61,62]],"type":"Polygon","properties":{"name":"Ave","shapeGroup":"TGO","gid":"TGO-2-17"},"id":"TGO-2-17"},{"arcs":[[-28,-63,63,64,-36,-34,65,66]],"type":"Polygon","properties":{"name":"Zio","shapeGroup":"TGO","gid":"TGO-2-18"},"id":"TGO-2-18"},{"arcs":[[-62,67,68,69,70,-64]],"type":"Polygon","properties":{"name":"Agou","shapeGroup":"TGO","gid":"TGO-2-19"},"id":"TGO-2-19"},{"arcs":[[-40,71,72,73,-45]],"type":"Polygon","properties":{"name":"Danyi","shapeGroup":"TGO","gid":"TGO-2-20"},"id":"TGO-2-20"},{"arcs":[[-1,74,75,-48]],"type":"Polygon","properties":{"name":"Est-Mono","shapeGroup":"TGO","gid":"TGO-2-21"},"id":"TGO-2-21"},{"arcs":[[-37,-65,-71,76,77,78,79]],"type":"Polygon","properties":{"name":"Haho","shapeGroup":"TGO","gid":"TGO-2-22"},"id":"TGO-2-22"},{"arcs":[[-39,80,-77,-70,81,-72]],"type":"Polygon","properties":{"name":"Kpélé","shapeGroup":"TGO","gid":"TGO-2-23"},"id":"TGO-2-23"},{"arcs":[[-79,82,83]],"type":"Polygon","properties":{"name":"Moyen-Mono","shapeGroup":"TGO","gid":"TGO-2-24"},"id":"TGO-2-24"},{"arcs":[[-44,84,85,-83,-78,-81]],"type":"Polygon","properties":{"name":"Ogou","shapeGroup":"TGO","gid":"TGO-2-25"},"id":"TGO-2-25"},{"arcs":[[86,87,88]],"type":"Polygon","properties":{"name":"Kpendjal","shapeGroup":"TGO","gid":"TGO-2-26"},"id":"TGO-2-26"},{"arcs":[[-21,-60,89,90,-87,91]],"type":"Polygon","properties":{"name":"Oti","shapeGroup":"TGO","gid":"TGO-2-27"},"id":"TGO-2-27"},{"arcs":[[-91,92,93]],"type":"Polygon","properties":{"name":"Tandjouare","shapeGroup":"TGO","gid":"TGO-2-28"},"id":"TGO-2-28"},{"arcs":[[-88,-94,94,95,96]],"type":"Polygon","properties":{"name":"Tone","shapeGroup":"TGO","gid":"TGO-2-29"},"id":"TGO-2-29"},{"arcs":[[-96,97]],"type":"Polygon","properties":{"name":"Cinkassé","shapeGroup":"TGO","gid":"TGO-2-30"},"id":"TGO-2-30"},{"arcs":[[-54,98,-56]],"type":"Polygon","properties":{"name":"Plaine de Mô","shapeGroup":"TGO","gid":"TGO-2-31"},"id":"TGO-2-31"},{"arcs":[[-42,-47,99,-50,100]],"type":"Polygon","properties":{"name":"Akébou","shapeGroup":"TGO","gid":"TGO-2-32"},"id":"TGO-2-32"},{"arcs":[[-43,-101,-49,-76,101,-85]],"type":"Polygon","properties":{"name":"Anié","shapeGroup":"TGO","gid":"TGO-2-33"},"id":"TGO-2-33"},{"arcs":[[-69,102,-73,-82]],"type":"Polygon","properties":{"name":"Kloto","shapeGroup":"TGO","gid":"TGO-2-34"},"id":"TGO-2-34"},{"arcs":[[-29,103,104,-66,-33]],"type":"Polygon","properties":{"name":"Lacs","shapeGroup":"TGO","gid":"TGO-2-35"},"id":"TGO-2-35"},{"arcs":[[-25,-67,-105,105]],"type":"Polygon","properties":{"name":"Lome Commune","shapeGroup":"TGO","gid":"TGO-2-36"},"id":"TGO-2-36"}]}}}