{"type":"Topology","arcs":[[[3482,5560],[-27,5],[-56,-94],[-34,41],[-78,49],[-106,-37],[-98,56],[-19,53],[15,52],[66,44],[-12,57],[-29,46],[-48,40],[-66,7],[3,89],[16,54]],[[3009,6022],[38,29],[38,-4],[71,28],[53,48],[15,52],[41,18],[45,-18],[75,42],[23,36],[98,35],[-1,67],[20,46],[-16,43],[25,36],[85,22],[51,-46],[6,-32],[52,-28],[58,-103],[45,-58],[52,-40],[7,-52],[104,-98],[-33,-69],[-42,-10],[-82,-78],[-18,-1],[-64,-93],[-85,-19],[-22,-62],[-185,-73],[19,-80]],[[3934,4759],[-59,-80],[-41,2],[-1,-44],[-36,-15],[-33,84],[-67,22],[-14,40],[113,-2],[111,-21],[27,14]],[[3521,5073],[-36,111],[48,88],[101,55],[89,89]],[[3723,5416],[18,-42],[-3,-62],[69,-96],[94,19],[53,-3],[121,49],[106,-15],[-85,-36],[-28,-32],[-64,11],[-6,-65],[-38,-20],[-110,-19],[-14,-66],[5,-101],[-35,-6],[-20,-41],[-50,-1],[5,96],[-48,36],[-126,16],[-46,35]],[[3521,5073],[-107,72],[-58,-8],[-76,28],[-178,130],[-60,-25]],[[3042,5270],[77,67],[336,149],[48,51]],[[3503,5537],[132,-63],[88,5],[0,-63]],[[1722,4165],[-63,30],[-67,-16],[-182,134],[-10,27]],[[1400,4340],[40,56],[44,16],[14,67],[-29,52],[33,69],[-1,132],[56,-25],[46,34],[33,-40],[89,62],[73,-7]],[[1798,4756],[-5,-38],[96,-59]],[[1889,4659],[4,-26],[-37,-45],[35,-99],[-15,-29],[-68,-58],[-29,-128],[-57,-109]],[[3900,4212],[-127,-54],[-19,-37],[-88,-20],[-29,-39],[-134,-36],[-104,15],[-27,-41],[-151,-79],[-22,51],[-62,-15],[-28,-24],[-43,25],[-126,-19],[-40,-56],[-44,-26],[-82,44],[-81,-47],[29,-47]],[[2722,3807],[-126,40],[-133,-20],[-74,-2],[-68,23],[-91,48],[-146,19],[-6,43],[113,118]],[[2191,4076],[26,89],[81,52],[31,34]],[[2329,4251],[30,-8],[36,39],[46,-32],[76,12],[69,25],[14,36],[50,24],[56,-19],[24,30],[45,-8],[103,-51],[46,-47],[31,60],[97,-3],[21,-46],[50,51],[96,26],[52,-51],[45,36],[42,-27],[36,-48],[40,3],[76,100],[57,-34],[46,12],[70,59],[41,-38],[103,-21],[73,-119]],[[1164,4272],[-60,-50],[-55,-73],[-28,-154],[63,-170],[-44,-99],[16,-29],[-46,-117],[-96,-4],[-108,11],[-37,-23],[-5,-62]],[[764,3502],[-83,2],[-60,-38],[-117,22],[-21,-21],[-53,-2],[-37,94],[4,121],[-38,-1],[-67,66],[-94,-8],[-117,64],[-81,16],[31,72],[-17,35],[122,5],[45,98],[-32,67],[5,59],[-72,105],[43,5],[20,55],[73,9],[126,50],[91,69],[61,-30],[37,26],[79,-50],[89,-37],[43,9],[68,-42],[52,-2],[62,-23],[46,10],[45,-22],[44,16],[103,-29]],[[2259,5279],[13,37],[-62,45],[2,43],[67,-33],[29,46]],[[2308,5417],[-35,-123],[-14,-15]],[[2426,4840],[-3,95],[-43,21],[-43,-31]],[[2337,4925],[-40,14],[-31,55],[-8,61],[-35,-1],[-13,77],[-42,20]],[[2168,5151],[10,104],[111,-22]],[[2289,5233],[88,18]],[[2377,5251],[78,37]],[[2455,5288],[-23,-68],[11,-115],[25,-143],[-42,-122]],[[2168,5151],[-52,46],[-149,6],[-16,-24]],[[1951,5179],[-95,-11],[-149,-42],[-52,-28],[-83,-5],[-70,-27],[-119,62],[3,38],[284,89],[21,-46],[53,16],[22,40],[200,27],[149,-27],[37,7],[124,-33]],[[2276,5239],[13,-6]],[[1889,4659],[64,24],[85,-27],[41,2],[-21,70],[7,57],[-10,85],[-53,46],[17,44],[7,100],[45,44],[74,14],[23,33]],[[2337,4925],[-70,-91],[32,-63],[-24,-47],[-39,-26],[-6,-34],[28,-76],[45,-57],[-9,-49],[22,-123],[23,-8],[-25,-74],[15,-26]],[[2191,4076],[-104,11],[-148,32],[-168,17],[-49,29]],[[2308,5417],[5,52],[-40,31],[2,32],[-42,104],[5,42],[-69,79],[59,52],[93,5],[-2,157],[-14,21],[37,101],[27,28],[89,9],[45,-32],[53,-11],[41,-87],[79,-50],[20,-55],[59,-8],[44,25],[40,84],[131,27]],[[2970,6023],[-23,-15],[-28,-69],[11,-41],[-17,-43],[-83,14],[-178,11],[-110,-59],[27,-68],[-110,-54],[-20,-28],[28,-41],[-73,-16],[21,-55],[-31,-37],[8,-96],[-40,-58],[-53,-34],[16,-62],[62,-21]],[[2276,5239],[-17,40]],[[2722,3807],[-3,-72],[-21,-45]],[[2698,3690],[-22,-54],[-114,-64],[-2,74],[-18,57],[-40,38],[-124,-10],[-26,-19],[-15,-86],[-32,-16],[-111,4],[-47,-17],[-147,-87]],[[2000,3510],[-167,44],[-134,0],[-50,23],[-110,-43],[-95,-5],[-19,-64],[-37,-26]],[[1388,3439],[-29,-47]],[[1359,3392],[-96,-21],[-67,-26],[-41,17],[-119,-37]],[[1036,3325],[-37,-3]],[[999,3322],[-1,51],[-71,36],[-23,76],[-24,14],[-76,-20],[-40,23]],[[1164,4272],[59,2],[139,-20],[41,12],[-3,74]],[[3482,5560],[21,-23]],[[3042,5270],[-77,-39],[-116,-44],[-144,-74],[-34,20],[-75,-25],[-52,18],[1,-41],[-23,-14]],[[2522,5071],[-4,25],[22,16],[-7,33],[33,-6],[65,111],[-26,65],[-60,4],[-41,-26],[-49,-5]],[[2970,6023],[39,-1]],[[1798,4756],[22,18],[24,69],[-97,180],[141,27],[66,78],[-3,51]],[[2522,5071],[-13,-69],[28,-58],[5,-63],[-84,-54],[-32,13]],[[4863,885],[52,35],[-37,76],[-60,155],[120,20],[92,-18],[65,-46],[29,-46],[128,78],[70,-131],[42,-99],[99,83],[88,60],[98,114],[114,37],[232,-40],[40,-20],[63,-6],[55,-54],[15,-33]],[[6168,1050],[8,-90],[-5,-137],[-50,-13],[6,-66],[-22,-21],[-264,-47],[-52,-44],[-13,-38],[-99,19],[-27,-35],[-46,-5],[-135,-96],[-110,-94],[-155,55],[-34,-48],[-41,8],[-34,32],[-21,142],[-68,114],[-3,35],[-140,164]],[[4480,3585],[-46,39],[-86,-91],[-112,-32],[-120,-54],[-38,-64],[-58,-15],[-102,31],[-69,-10]],[[3849,3389],[-58,157],[40,2],[99,63],[153,75],[83,-22]],[[4166,3664],[79,-4],[137,26],[98,40],[8,-43],[-8,-98]],[[708,480],[-40,31],[-24,63],[-99,31],[-28,35],[14,55],[-3,76],[39,86]],[[567,857],[50,103],[31,0],[47,55],[52,163],[47,-22],[37,-238],[41,-79],[-94,-104],[-35,-90],[-2,-75],[-33,-90]],[[6484,923],[-119,5],[-32,128]],[[6333,1056],[22,60],[-7,111],[58,110],[-56,82],[-79,-6],[-20,69],[22,116],[-25,104],[-3,159],[-31,16]],[[6214,1877],[-50,184],[-4,219],[27,149],[43,67],[-34,196],[-17,35],[-132,65],[-223,-39],[-87,27]],[[5737,2780],[-68,76],[30,26],[-23,56],[-43,11],[-28,77],[18,86],[-38,26],[-128,37]],[[5457,3175],[-35,41],[-30,77],[23,107]],[[5415,3400],[101,105],[11,76],[87,52],[32,97]],[[5646,3730],[39,8],[5,47],[39,114],[49,60],[139,26],[35,45],[65,-3],[20,-39],[40,27],[14,37],[97,1],[98,-50],[111,-23],[70,36],[22,-36],[55,24],[33,-12],[82,32],[63,-35],[46,1],[132,42],[57,42],[29,62],[32,-11],[51,32],[60,12],[61,-27],[38,7],[-9,-73],[-76,-29],[38,-55],[3,-70],[-27,-44],[36,-51],[50,5],[82,-124],[43,-77],[-12,-54],[25,-12],[22,-63],[70,26],[37,-64],[11,-70],[-34,-52],[-77,37],[-67,-96],[35,-51],[44,-97],[-28,-69],[30,-22],[12,-55],[29,-24],[-2,-78],[66,-50],[44,4],[28,-57],[76,-27],[58,29],[41,99],[51,14],[2,32],[76,-2],[81,-56],[31,-6],[257,-189],[166,-38],[51,-31],[-34,-66],[46,-146],[-9,-81],[113,-41],[4,-66],[21,-38],[3,-67],[39,-24],[17,-65],[55,-2],[2,-185],[-6,-65],[45,-71],[40,0],[27,-57],[-49,-27],[-38,-51],[-1,-36],[-42,-47],[49,-87],[-9,-53],[37,-44],[28,-5],[50,-51],[35,30],[106,-165],[-69,-57],[40,-72],[-99,-25],[-74,-31],[-40,6],[-63,-51],[-66,117],[-33,32],[-112,43],[-8,22],[-78,-33],[-76,-7],[-13,40],[-82,19],[-94,-30],[-31,49],[-62,-36],[-95,20],[-12,-88],[-50,-30],[-141,-35],[-53,-29],[-60,11],[-130,-62],[-11,-35],[-90,2],[-47,17],[-108,4],[46,91],[71,7],[44,46],[7,140],[-65,10],[-91,-20],[-67,16],[-58,41],[-92,3],[-93,-44],[-9,26],[-73,1],[-105,-87],[-69,1],[-20,-50],[-29,-12],[-15,-57],[-37,-20],[-124,-29]],[[567,857],[30,96],[-37,171],[40,138],[129,228],[32,16],[56,94],[51,123],[24,34],[39,122],[101,-3],[44,-50]],[[1076,1826],[-14,-56],[-67,-82],[7,-40],[-39,-61],[-9,-102],[-29,-91],[17,-30],[-16,-95],[22,-25],[-7,-59],[15,-140],[-20,-36],[-1,-93],[34,-99],[-4,-42],[-42,-109],[-39,-46],[-10,-101],[-66,-115],[-27,-18]],[[781,386],[-36,68],[-37,26]],[[1388,3439],[62,-44],[62,-66],[8,-57],[40,-66],[-16,-95],[-27,-52],[4,-113],[-15,-21],[24,-71]],[[1530,2854],[38,-121],[-16,-76],[-77,-52],[-11,-41],[-38,-24],[-26,-50],[-37,-4],[-15,53]],[[1348,2539],[-18,108],[31,52],[16,100],[-32,103],[19,230],[-17,55],[25,87],[20,28],[-33,90]],[[2624,2710],[-52,-48],[-103,-76],[-22,-30]],[[2447,2556],[-83,-91],[-54,-6],[-23,28],[24,41],[-14,38],[-104,4],[-35,51],[-29,4],[-95,-28]],[[2034,2597],[74,94],[-27,58],[60,8],[52,65],[24,63],[32,21],[90,-27],[106,56],[83,85],[34,68]],[[2562,3088],[5,-103],[30,-54],[27,-221]],[[2562,3088],[19,47],[45,-7],[12,33],[50,0],[39,52],[11,50],[69,26]],[[2807,3289],[81,-75],[99,-114],[57,-41]],[[3044,3059],[-54,-20],[-86,-87],[-42,-78],[-39,-19],[-33,29],[-50,3],[-116,-177]],[[3406,2061],[-55,20],[-64,-82],[-47,-14],[-170,3],[-79,32]],[[2991,2020],[-46,37],[51,93]],[[2996,2150],[25,23],[36,75],[5,59],[22,47],[51,31],[66,75],[52,7],[72,-44],[38,3],[74,102],[30,21]],[[3467,2549],[24,-71],[-26,-109],[6,-160],[-17,-61],[-48,-87]],[[2000,3510],[-44,-68],[2,-40],[56,-61],[7,-99],[-113,-182],[-5,-146],[-43,-40]],[[1860,2874],[-55,26],[-40,-71],[-38,42],[-23,54],[-38,2],[-83,-64],[-53,-9]],[[2097,1855],[-53,-63],[-17,-97],[-36,-47],[-36,-11],[-88,4],[-38,37],[-43,3]],[[1786,1681],[-30,75]],[[1756,1756],[90,117],[55,30],[85,23]],[[1986,1926],[46,-8],[51,31],[51,-6],[-37,-88]],[[1756,1756],[-97,25],[-9,25],[-61,16],[-5,28]],[[1584,1850],[49,34],[-22,79],[-3,63],[60,104],[-20,90],[69,93],[45,4]],[[1762,2317],[-33,-52],[11,-37],[-31,-40],[80,-47],[-16,-113],[82,-3],[18,29],[119,-32]],[[1992,2022],[-6,-96]],[[6214,1877],[-65,-33],[-103,7],[-47,24],[-69,-35],[-77,-88],[-46,-17],[-41,23],[-108,-46],[-38,-1],[-75,-43],[-72,-8],[-44,-36],[-104,15],[-31,-57],[-169,-41],[-95,-7],[-32,15],[-92,123]],[[4906,1672],[-1,77],[15,41],[-8,73],[-77,44],[-137,-66],[-88,-35],[-18,50],[-61,4],[17,126],[53,91],[-4,47],[24,29]],[[4621,2153],[85,-37],[57,-83],[99,-34],[73,3],[41,66],[105,22],[18,133],[77,51],[32,46],[38,-2],[30,40],[40,1],[61,-29],[46,-46],[58,4],[47,-22],[70,125],[85,51],[58,7],[21,79],[-31,121],[6,131]],[[2097,1855],[19,-61],[-11,-255]],[[2105,1539],[-51,-1],[-8,-189]],[[2046,1349],[-148,-26],[-81,-39],[-14,42],[-42,-10],[-5,43],[-160,89]],[[1596,1448],[-2,83],[25,70],[38,54],[24,-12],[-5,-68],[-45,-31],[4,-59],[72,25],[3,56],[48,1],[0,86],[28,28]],[[1036,3325],[87,-63],[-14,-73],[31,-45],[-38,-21],[4,-41],[-21,-79],[12,-59],[-27,-54],[74,-24],[-10,-74],[-34,-93],[51,-27],[-18,-129],[38,-9],[28,-89],[-11,-32],[40,-41],[-25,-62]],[[1203,2310],[-83,47],[-23,102],[-57,-3],[-30,49],[-57,29],[-24,54],[-51,-32],[-35,5],[63,112],[-18,71],[-35,27],[-11,56],[21,31],[2,90],[-28,88],[30,25],[52,6],[-42,89],[4,32],[88,25],[35,38],[-26,54],[21,17]],[[1584,1850],[-29,-91],[-49,-44],[-23,-51],[12,-83],[-10,-47]],[[1485,1534],[-164,-3],[12,165],[-30,147]],[[1303,1843],[51,130],[44,33],[8,89],[-36,34],[69,127],[7,79],[-18,73],[25,38],[41,21],[101,-17],[49,46],[45,-2],[18,-30],[41,6]],[[1748,2470],[-9,-30],[30,-51],[-7,-72]],[[1857,973],[-25,-45],[-40,-16],[-23,47],[-39,17],[-26,-31],[22,-64],[-31,-27],[-35,44],[-114,1],[-60,-111]],[[1486,788],[-24,11],[-129,-41],[-29,1],[18,118],[77,22],[10,60],[69,96],[12,49],[32,45]],[[1522,1149],[56,-6],[112,9],[86,-9],[78,-33],[-4,-32]],[[1850,1078],[7,-105]],[[2991,2020],[-12,-45],[-46,-68],[-35,-114]],[[2898,1793],[-48,-22],[-40,-68]],[[2810,1703],[-54,19],[-29,36],[41,151],[31,38],[22,84],[40,59],[2,43],[40,10],[19,38]],[[2922,2181],[74,-31]],[[1348,2539],[-95,-206],[-16,-60]],[[1237,2273],[-34,37]],[[2807,3289],[17,64],[57,38],[23,43],[48,-2]],[[2952,3432],[51,-38],[83,-33],[165,-10],[64,-18],[20,-45],[42,-1],[55,-29],[152,58],[49,8],[75,-22]],[[3708,3302],[-93,-47],[-89,-6],[-72,-46],[-148,-252],[-44,-34]],[[3262,2917],[-47,26],[-99,111],[-72,5]],[[2711,2225],[-30,-11],[-49,-75],[8,-109],[-20,-43],[12,-52],[-63,12],[-85,-15],[-47,-64],[-108,33]],[[2329,1901],[-16,93],[57,103],[80,76],[-23,43],[-67,4],[-55,53],[18,56],[38,-33],[13,59],[-84,35]],[[2290,2390],[77,33],[77,17]],[[2444,2440],[66,-5],[114,-38]],[[2624,2397],[36,-69],[-11,-48],[20,-37],[42,-18]],[[2898,1793],[29,-54],[82,-17],[39,12],[22,-60],[-40,-44],[27,-34],[17,-63],[28,4],[20,58],[32,1],[77,-77],[32,-57],[69,-49],[0,-21]],[[3332,1392],[-8,-53],[-36,-16],[-43,-53],[-38,-1],[-65,37],[-41,-2],[-26,28],[-55,11],[-11,51],[-48,10],[-66,-17],[-16,-44],[-30,-7],[-54,34],[-48,-26],[-35,13],[-63,-20],[-88,9]],[[2561,1346],[-47,42],[-45,73],[-46,39],[40,71]],[[2463,1571],[93,5],[32,25],[33,-34],[80,-14],[54,37],[55,113]],[[3406,2061],[-11,-72],[18,-32]],[[3413,1957],[-25,-55],[-78,-31],[-35,2],[16,-119],[109,-51],[0,-55],[21,-16],[-13,-126],[-30,-66],[2,-44],[-48,-4]],[[2046,1349],[-14,-79],[-36,-60],[-6,-43],[19,-56]],[[2009,1111],[-70,-45],[-89,12]],[[1522,1149],[-26,48],[37,23],[-26,71],[8,59],[-40,-11],[-50,25],[18,58],[50,38],[-1,67]],[[1492,1527],[38,-12],[50,13],[-5,-63],[21,-17]],[[1492,1527],[-7,7]],[[2463,1571],[-63,63]],[[2400,1634],[8,74],[-41,57],[-22,112],[-16,24]],[[2711,2225],[65,-17],[111,-3],[35,-24]],[[4621,2153],[11,43],[33,20],[-14,58],[10,85],[-39,22],[-47,61],[-47,-5],[-85,53],[-41,67]],[[4402,2557],[85,92],[71,51]],[[4558,2700],[81,37],[37,-1],[51,-49],[40,63],[71,14],[4,53],[78,101],[141,32],[29,-14],[37,46],[37,13],[44,42],[106,16],[40,19],[69,81],[34,22]],[[4166,3664],[11,63],[114,39],[26,24],[-38,88],[7,31],[69,49],[-51,32],[-2,89]],[[4302,4079],[22,29],[10,99],[44,17],[75,1],[76,56],[56,-38],[62,79],[62,-8],[97,63],[60,-39],[8,-62],[-17,-60],[22,-75],[90,-22],[77,24],[62,1],[29,-20],[20,-60],[-9,-41],[-45,-37],[-5,-40],[57,-74],[51,14],[84,-5],[45,76],[90,53],[26,-22],[31,-99],[23,-28],[55,10],[31,-15],[33,-56],[22,-70]],[[5415,3400],[-60,-52],[-87,-17],[-87,14],[-40,-19],[-95,-15],[-42,17],[-31,59],[1,37],[-54,33],[-26,41],[-70,-30],[-58,-8],[-50,45],[-73,9],[-5,77],[-49,24],[-109,-30]],[[2009,1111],[74,53],[43,61],[52,30],[-19,-132],[12,-59],[39,-73],[56,-68],[66,-29],[14,-93],[65,-26]],[[2411,775],[-53,-37],[-65,-75],[-73,-33],[-59,32],[-16,28],[-76,42],[-33,66],[-73,64],[-25,64],[-44,42],[-37,5]],[[2447,2556],[13,-27],[-16,-89]],[[2290,2390],[-97,-2],[-79,-24],[-80,12]],[[2034,2376],[-34,39],[18,95],[-5,87]],[[2013,2597],[21,0]],[[1748,2470],[31,13],[38,64],[101,43]],[[1918,2590],[95,7]],[[2034,2376],[22,-89],[-16,-140],[-35,-42],[-13,-83]],[[1076,1826],[17,20]],[[1093,1846],[41,-11],[68,11]],[[1202,1846],[20,-159],[-3,-68],[19,-84],[-27,-131],[-4,-103],[70,-101],[-68,-49],[-1,-20],[50,-68],[62,7],[26,-43],[-3,-56],[-43,-63],[-50,-47],[-73,5],[-24,-44],[21,-47],[-40,-85],[15,-38]],[[1149,652],[-38,-2],[-19,-31],[7,-84],[-36,-38],[-46,19],[-45,-5],[-71,-72],[-70,-56],[-50,3]],[[2624,2397],[83,-38],[24,16],[100,117],[50,26],[56,62],[90,116],[93,36],[69,42],[81,101]],[[3270,2875],[-3,-86],[75,80],[143,10],[74,-61],[25,-74]],[[3584,2744],[-18,-41],[-78,-69],[-21,-85]],[[3262,2917],[8,-42]],[[1486,788],[-55,-20],[-38,-33],[-91,-25],[-62,-5],[8,-60],[-27,-10],[-72,17]],[[1202,1846],[42,9],[59,-12]],[[2400,1634],[-61,12],[-129,-57],[-62,-49],[-43,-1]],[[2561,1346],[-47,8],[-36,-98],[-104,-125],[-22,-76],[12,-61],[50,-70],[1,-69],[51,5],[-55,-85]],[[4863,885],[-49,68]],[[4814,953],[-22,36],[20,175],[26,39],[-37,87],[11,102],[25,36],[4,66],[25,91],[-22,37],[62,50]],[[6333,1056],[-99,9],[-66,-15]],[[3900,4212],[55,-60],[8,-93],[24,-15],[83,6],[60,-15],[54,70],[39,-41],[79,15]],[[3849,3389],[-52,-14],[-44,-61],[-45,-12]],[[2952,3432],[15,45],[-28,52],[-44,44],[-197,117]],[[3584,2744],[69,64],[20,51],[54,47],[35,50],[-4,37],[-47,42],[131,107],[80,31],[56,-67],[103,9],[95,54],[69,-7],[3,-57],[42,-89],[-21,-104],[44,-43],[123,13],[28,-27],[27,-90],[67,-65]],[[4402,2557],[-57,50],[-61,-19],[-18,75],[-47,43],[-31,-51],[-47,-38],[-32,52],[-45,-35],[-97,21],[-17,-42],[-94,-31],[22,-36],[-49,-51],[-47,-3],[-10,-99],[-65,-54],[-33,-74],[-28,-109],[-66,-30],[-21,-36],[-61,-32],[3,-24],[-44,-59],[-44,-18]],[[1918,2590],[24,88],[-96,30],[37,39],[-23,127]],[[6484,923],[-45,-49],[-71,-44],[-42,5],[-48,-56],[-42,-113],[-43,-57],[-46,-93],[-46,16],[-109,-46],[-63,-5],[-53,18],[-32,-19],[-85,-19],[-93,-55],[-60,-56],[-82,-57],[-11,-31],[-50,-10],[-128,-125],[-64,-34],[-68,-79],[-193,-14],[-49,29],[-81,109],[-1,30],[-57,169],[-52,80],[-7,108],[-35,51],[13,54],[3,113],[12,65],[34,46],[24,99]],[[1093,1846],[1,79],[32,95],[80,83],[31,170]]],"transform":{"scale":[0.0008673040576496681,0.0006722199784681616],"translate":[67.3308737,36.67111530000001]},"objects":{"TJK":{"type":"GeometryCollection","geometries":[{"arcs":[[0,1]],"type":"Polygon","properties":{"name":"Asht District","shapeGroup":"TJK","gid":"TJK-2-0"},"id":"TJK-2-0"},{"arcs":[[[2]],[[3,4]]],"type":"MultiPolygon","properties":{"name":"Isfara District","shapeGroup":"TJK","gid":"TJK-2-1"},"id":"TJK-2-1"},{"arcs":[[-4,5,6,7]],"type":"Polygon","properties":{"name":"Konibodom District","shapeGroup":"TJK","gid":"TJK-2-2"},"id":"TJK-2-2"},{"arcs":[[8,9,10,11]],"type":"Polygon","properties":{"name":"Shahriston District","shapeGroup":"TJK","gid":"TJK-2-3"},"id":"TJK-2-3"},{"arcs":[[12,13,14,15]],"type":"Polygon","properties":{"name":"Kuhistoni Mastchoh District","shapeGroup":"TJK","gid":"TJK-2-4"},"id":"TJK-2-4"},{"arcs":[[16,17]],"type":"Polygon","properties":{"name":"Panjakent District","shapeGroup":"TJK","gid":"TJK-2-5"},"id":"TJK-2-5"},{"arcs":[[[18,19]],[[20,21,22,23,24,25]]],"type":"MultiPolygon","properties":{"name":"Spitamen District","shapeGroup":"TJK","gid":"TJK-2-6"},"id":"TJK-2-6"},{"arcs":[[-23,26,27,28]],"type":"Polygon","properties":{"name":"Zafarobod District","shapeGroup":"TJK","gid":"TJK-2-7"},"id":"TJK-2-7"},{"arcs":[[-12,29,-22,30,-15,31]],"type":"Polygon","properties":{"name":"Ghonchi District","shapeGroup":"TJK","gid":"TJK-2-8"},"id":"TJK-2-8"},{"arcs":[[-20,32,33,-24,-29,34]],"type":"Polygon","properties":{"name":"Mastchoh District","shapeGroup":"TJK","gid":"TJK-2-9"},"id":"TJK-2-9"},{"arcs":[[-9,-32,-14,35,36,37,38,39,40,41,-17,42]],"type":"Polygon","properties":{"name":"Ayni District","shapeGroup":"TJK","gid":"TJK-2-10"},"id":"TJK-2-10"},{"arcs":[[-1,43,-7,44,45,-25,-34,46]],"type":"Polygon","properties":{"name":"Ghafurov District","shapeGroup":"TJK","gid":"TJK-2-11"},"id":"TJK-2-11"},{"arcs":[[-11,47,-27,-30]],"type":"Polygon","properties":{"name":"Istaravshan District","shapeGroup":"TJK","gid":"TJK-2-12"},"id":"TJK-2-12"},{"arcs":[[-26,-46,48]],"type":"Polygon","properties":{"name":"Jabbor Rasulov District","shapeGroup":"TJK","gid":"TJK-2-13"},"id":"TJK-2-13"},{"arcs":[[49,50]],"type":"Polygon","properties":{"name":"Roshtqal'a District","shapeGroup":"TJK","gid":"TJK-2-14"},"id":"TJK-2-14"},{"arcs":[[51,52,53]],"type":"Polygon","properties":{"name":"Tojikobod District","shapeGroup":"TJK","gid":"TJK-2-15"},"id":"TJK-2-15"},{"arcs":[[54,55]],"type":"Polygon","properties":{"name":"Nosiri Khusrav District","shapeGroup":"TJK","gid":"TJK-2-16"},"id":"TJK-2-16"},{"arcs":[[56,57,58,59,60,61,62]],"type":"Polygon","properties":{"name":"Murghob District","shapeGroup":"TJK","gid":"TJK-2-17"},"id":"TJK-2-17"},{"arcs":[[-56,63,64,65]],"type":"Polygon","properties":{"name":"Shahrtuz District","shapeGroup":"TJK","gid":"TJK-2-18"},"id":"TJK-2-18"},{"arcs":[[-39,66,67,68]],"type":"Polygon","properties":{"name":"Hisor District","shapeGroup":"TJK","gid":"TJK-2-19"},"id":"TJK-2-19"},{"arcs":[[69,70,71,72]],"type":"Polygon","properties":{"name":"Faizobod District","shapeGroup":"TJK","gid":"TJK-2-20"},"id":"TJK-2-20"},{"arcs":[[-73,73,74,75]],"type":"Polygon","properties":{"name":"Roghun District","shapeGroup":"TJK","gid":"TJK-2-21"},"id":"TJK-2-21"},{"arcs":[[76,77,78,79]],"type":"Polygon","properties":{"name":"Muminobod District","shapeGroup":"TJK","gid":"TJK-2-22"},"id":"TJK-2-22"},{"arcs":[[-38,80,81,-67]],"type":"Polygon","properties":{"name":"Varzob District","shapeGroup":"TJK","gid":"TJK-2-23"},"id":"TJK-2-23"},{"arcs":[[82,83,84,85]],"type":"Polygon","properties":{"name":"Sarband District","shapeGroup":"TJK","gid":"TJK-2-24"},"id":"TJK-2-24"},{"arcs":[[-85,86,87,88,89]],"type":"Polygon","properties":{"name":"Dzhami District","shapeGroup":"TJK","gid":"TJK-2-25"},"id":"TJK-2-25"},{"arcs":[[-59,90,91,92]],"type":"Polygon","properties":{"name":"Rushon District","shapeGroup":"TJK","gid":"TJK-2-26"},"id":"TJK-2-26"},{"arcs":[[-83,93,94,95,96]],"type":"Polygon","properties":{"name":"Vakhsh District","shapeGroup":"TJK","gid":"TJK-2-27"},"id":"TJK-2-27"},{"arcs":[[-41,97,98]],"type":"Polygon","properties":{"name":"Tursunzoda District","shapeGroup":"TJK","gid":"TJK-2-28"},"id":"TJK-2-28"},{"arcs":[[-88,99,100,101,102]],"type":"Polygon","properties":{"name":"Khuroson District","shapeGroup":"TJK","gid":"TJK-2-29"},"id":"TJK-2-29"},{"arcs":[[103,104,105,106]],"type":"Polygon","properties":{"name":"Qumsangir District","shapeGroup":"TJK","gid":"TJK-2-30"},"id":"TJK-2-30"},{"arcs":[[-78,107,108,109,110]],"type":"Polygon","properties":{"name":"Kulob District","shapeGroup":"TJK","gid":"TJK-2-31"},"id":"TJK-2-31"},{"arcs":[[-40,-69,111,112,-98]],"type":"Polygon","properties":{"name":"Sharinav District","shapeGroup":"TJK","gid":"TJK-2-32"},"id":"TJK-2-32"},{"arcs":[[-75,113,114,115,116]],"type":"Polygon","properties":{"name":"Nurobod District","shapeGroup":"TJK","gid":"TJK-2-33"},"id":"TJK-2-33"},{"arcs":[[117,118,119,120,121]],"type":"Polygon","properties":{"name":"Temurmalik District","shapeGroup":"TJK","gid":"TJK-2-34"},"id":"TJK-2-34"},{"arcs":[[-109,122,123,124,125]],"type":"Polygon","properties":{"name":"Hamadoni District","shapeGroup":"TJK","gid":"TJK-2-35"},"id":"TJK-2-35"},{"arcs":[[-77,126,127,-123,-108]],"type":"Polygon","properties":{"name":"Shuro-obod District","shapeGroup":"TJK","gid":"TJK-2-36"},"id":"TJK-2-36"},{"arcs":[[-96,128,129,-106,130,131]],"type":"Polygon","properties":{"name":"Rumi District","shapeGroup":"TJK","gid":"TJK-2-37"},"id":"TJK-2-37"},{"arcs":[[-84,-97,-132,132,-100,-87]],"type":"Polygon","properties":{"name":"Bokhtar District","shapeGroup":"TJK","gid":"TJK-2-38"},"id":"TJK-2-38"},{"arcs":[[-110,-126,133,134,-118,135]],"type":"Polygon","properties":{"name":"Vose' District","shapeGroup":"TJK","gid":"TJK-2-39"},"id":"TJK-2-39"},{"arcs":[[-60,-93,136,137,138]],"type":"Polygon","properties":{"name":"Vanj District","shapeGroup":"TJK","gid":"TJK-2-40"},"id":"TJK-2-40"},{"arcs":[[-54,139,140,-62,141]],"type":"Polygon","properties":{"name":"Jirgatol District","shapeGroup":"TJK","gid":"TJK-2-41"},"id":"TJK-2-41"},{"arcs":[[-107,-130,142,143]],"type":"Polygon","properties":{"name":"Panj District","shapeGroup":"TJK","gid":"TJK-2-42"},"id":"TJK-2-42"},{"arcs":[[-71,144,-120,145,146,147]],"type":"Polygon","properties":{"name":"Norak District","shapeGroup":"TJK","gid":"TJK-2-43"},"id":"TJK-2-43"},{"arcs":[[-89,-103,148,149,-147,150]],"type":"Polygon","properties":{"name":"Yovon District","shapeGroup":"TJK","gid":"TJK-2-44"},"id":"TJK-2-44"},{"arcs":[[-65,151,152,153,154]],"type":"Polygon","properties":{"name":"Qabodiyon District","shapeGroup":"TJK","gid":"TJK-2-45"},"id":"TJK-2-45"},{"arcs":[[-79,-111,-136,-122,155,156,157]],"type":"Polygon","properties":{"name":"Khovaling District","shapeGroup":"TJK","gid":"TJK-2-46"},"id":"TJK-2-46"},{"arcs":[[-70,-76,-117,158,-156,-121,-145]],"type":"Polygon","properties":{"name":"Baljuvon District","shapeGroup":"TJK","gid":"TJK-2-47"},"id":"TJK-2-47"},{"arcs":[[-101,-133,-131,-105,159,-154,160]],"type":"Polygon","properties":{"name":"Jilikul District","shapeGroup":"TJK","gid":"TJK-2-48"},"id":"TJK-2-48"},{"arcs":[[-86,-90,-151,-146,-119,-135,161,-94]],"type":"Polygon","properties":{"name":"Danghara District","shapeGroup":"TJK","gid":"TJK-2-49"},"id":"TJK-2-49"},{"arcs":[[-95,-162,-134,-125,162,-143,-129]],"type":"Polygon","properties":{"name":"Farkhor District","shapeGroup":"TJK","gid":"TJK-2-50"},"id":"TJK-2-50"},{"arcs":[[-50,163,164,-91,-58,165]],"type":"Polygon","properties":{"name":"Shughnon District","shapeGroup":"TJK","gid":"TJK-2-51"},"id":"TJK-2-51"},{"arcs":[[-13,166,-140,-53,167,-115,168,-36]],"type":"Polygon","properties":{"name":"Rasht District","shapeGroup":"TJK","gid":"TJK-2-52"},"id":"TJK-2-52"},{"arcs":[[-80,-158,169,-138,170,-127]],"type":"Polygon","properties":{"name":"Darvoz District","shapeGroup":"TJK","gid":"TJK-2-53"},"id":"TJK-2-53"},{"arcs":[[-37,-169,-114,-74,-72,-148,-150,171,-81]],"type":"Polygon","properties":{"name":"Vahdat District","shapeGroup":"TJK","gid":"TJK-2-54"},"id":"TJK-2-54"},{"arcs":[[-51,-166,-57,172,-164]],"type":"Polygon","properties":{"name":"Ishkoshim District","shapeGroup":"TJK","gid":"TJK-2-55"},"id":"TJK-2-55"},{"arcs":[[-52,-142,-61,-139,-170,-157,-159,-116,-168]],"type":"Polygon","properties":{"name":"Tavildara District","shapeGroup":"TJK","gid":"TJK-2-56"},"id":"TJK-2-56"},{"arcs":[[-68,-82,-172,-149,-102,-161,-153,173,-112]],"type":"Polygon","properties":{"name":"Rudaki District","shapeGroup":"TJK","gid":"TJK-2-57"},"id":"TJK-2-57"}]}}}