{"type":"Topology","arcs":[[[4039,6178],[177,-1],[2,23],[21,20],[25,13],[5,9],[2,10],[34,7],[-1,-114],[231,-1],[2,22],[3,25],[49,18],[2,2],[5,0],[33,4],[66,6],[5,6],[84,1],[12,9],[20,-1],[21,8],[5,0],[31,9],[4,124],[7,1],[9,4],[50,13],[14,11],[-32,63],[8,29],[11,17],[39,5],[-11,47],[-11,18],[-17,38],[4,47],[6,27],[0,2]],[[4954,6699],[96,10],[68,-13],[64,-70],[2,-52],[91,-79]],[[5275,6495],[2,-7],[14,-15],[-3,-44],[-7,-17],[-6,-10],[-11,-14],[-49,-58],[0,-1]],[[5215,6329],[-4,0],[-45,-10],[0,-10],[-2,-21],[-27,-10],[-85,-2],[-3,-5],[-28,-51],[-26,-21],[-29,-21]],[[4966,6178],[-24,-5],[-50,3],[-108,18],[-171,-105],[-197,-95],[-83,-62],[-214,172],[-80,74]],[[4039,6178],[-3,2],[-46,57],[-62,-13],[-70,-13],[-16,-5],[-75,-3],[-3,-4]],[[3764,6199],[-132,-2],[-38,17],[23,65],[96,74],[90,25],[161,-13],[126,51],[61,99],[0,105],[100,58],[183,-39],[68,-38],[23,-112],[63,8],[-141,219],[-117,57],[62,60],[67,12],[119,-36],[51,2],[67,127],[189,-193],[69,-46]],[[5275,6495],[141,2],[163,24],[88,-22],[89,-84],[3,-156],[42,-49],[83,-179],[-89,19],[0,-79],[48,-64]],[[5843,5907],[-51,-8],[-62,-2],[-45,5],[-18,3],[-24,5],[-5,0],[-8,-11],[-7,0],[-38,15],[-28,2],[-24,-8],[-24,2],[-21,5]],[[5488,5915],[64,88],[18,-3],[6,8],[21,62],[-3,15],[-39,44],[5,19],[-9,16],[-16,5],[-54,2],[-132,81]],[[5349,6252],[-44,61],[-10,1],[-23,-6],[-5,-7],[-35,-25],[-5,11],[-1,11],[0,4],[-5,5],[-4,5],[-2,17]],[[3800,4430],[15,29],[9,199],[0,93],[99,3],[67,2],[-3,-54],[0,-25],[87,2],[180,-7],[113,9]],[[4367,4681],[94,-11],[117,13],[-1,97],[-5,334],[445,0],[91,135],[1,343],[338,311]],[[5447,5903],[5,-99],[12,-4],[17,4],[20,5],[21,6],[6,-50],[47,-41],[26,17],[14,3],[11,-3],[-3,-56],[-36,-124],[-66,-171],[-75,-133],[-9,-73],[-45,-148],[-45,-52],[-135,-148],[-13,-7],[-41,-46],[-82,-132],[-103,0],[-5,0],[-3,-51],[-4,-91],[-2,-54],[-7,-5],[-8,-8]],[[4944,4442],[-5,2],[-206,34],[-28,11],[-64,-6],[-109,40],[-34,-12],[-8,-4],[-4,-17],[-10,-31],[-135,22],[-84,-27],[-9,-4],[-59,-24],[-6,1],[-65,-8]],[[4118,4419],[-17,-4],[-222,10],[-79,5]],[[5843,5907],[42,-50],[-66,-75],[0,-89],[69,-54],[87,-19],[120,-100],[96,-5],[96,35],[171,-17]],[[6458,5533],[-30,-176],[0,-41],[2,-20],[8,-63],[-9,0],[-546,-13],[-4,-623],[163,5],[27,-89],[4,-85],[-2,-121],[8,-13]],[[6079,4294],[3,-94],[3,-168],[2,-42],[10,-60],[1,-80],[0,-3]],[[6098,3847],[-79,-3],[-86,-4],[-3,56],[-9,24],[-26,46],[-114,-12],[-24,-6],[-18,1],[-27,7],[-9,35],[-2,11],[-10,304],[-380,3],[0,-7]],[[5311,4302],[-185,4],[-67,1],[-100,41],[-6,43],[-9,51]],[[5447,5903],[41,12]],[[5311,4302],[0,-61],[-3,-385],[-15,-15],[0,-16],[2,-54],[1,-53],[3,-3],[9,-146],[70,-22],[19,-14],[4,-11],[-2,-65],[-72,-63],[1,-2]],[[5328,3392],[-25,-4],[-173,-39],[0,-84],[22,-254],[6,-161],[-69,-8],[-20,-168],[-4,-181],[-3,-20],[-7,-92],[3,-40],[-33,-128]],[[5025,2213],[-112,47],[-112,2],[-173,-22],[-127,0],[-129,40],[-5,62],[-39,48],[-103,28]],[[4225,2418],[21,28],[6,9],[29,53],[52,4],[17,47],[-62,-6],[-38,-5],[10,57],[9,11],[35,4],[24,3],[52,51],[21,35],[66,86],[82,45],[20,23],[-6,223],[-53,-12],[-132,-3],[-5,17],[-16,161],[24,85],[-31,157],[1,34],[27,196],[1,14],[-24,50],[-2,78],[20,118],[-2,0],[-241,11]],[[4130,3992],[-1,42],[-2,235],[-3,53],[-7,47],[0,39],[1,11]],[[4225,2418],[-234,80],[-127,0],[-85,20],[-56,58],[30,92]],[[3753,2668],[23,9],[4,-6],[29,-53],[41,28],[5,2],[49,-56],[33,1],[22,96],[36,10],[41,62],[33,2],[27,1],[-8,155],[-2,11],[5,113],[1,100],[12,56],[-2,149],[-3,293],[-10,206],[9,34],[14,48],[18,63]],[[6458,5533],[36,-12],[111,17],[23,-46],[74,-33],[70,20],[28,100],[120,-8],[194,-100],[107,-142],[18,-67],[-18,-50],[93,-193],[37,-114],[41,-72],[47,0],[88,-59],[37,-160],[0,-91]],[[7564,4523],[-68,-1],[-61,26],[-14,11],[-64,56],[-94,-17],[-232,-18],[-180,-4],[-37,-73],[-28,-63],[-51,-34],[-49,-63],[-18,1],[-178,1],[-151,-20],[-30,-3],[-10,0],[-125,12],[-52,-13],[-43,-27]],[[5328,3392],[1,-62],[2,-44],[4,-125],[2,-61],[66,0],[3,-75],[-71,-10],[1,-99],[40,-14],[20,-7],[4,-115],[9,-22],[93,-182],[16,-31],[-38,-28],[-20,-16],[11,-24],[172,-352],[128,-131],[201,-203],[25,-27],[49,-35],[36,-61],[103,-100],[148,102],[12,-20],[-22,-32],[24,-34],[45,-89],[38,-36],[10,-2],[47,-6]],[[6487,1451],[-48,-90]],[[6439,1361],[-446,-17],[-148,204],[-42,97],[-59,54],[-98,31],[-50,37],[-252,82],[-86,112],[-3,158],[-45,31],[-44,-25],[-71,17],[-70,71]],[[5997,3209],[1,-3]],[[5998,3206],[40,-150],[66,-108],[5,-7],[24,-43],[22,-76]],[[6155,2822],[-145,5],[-103,-5],[-65,-5],[-48,-9],[-18,-5],[-51,-2],[-5,-15],[4,-59],[-3,-33],[1,-54],[246,-133],[29,-12],[4,-168],[93,-126],[23,-4],[7,-3],[0,-4],[8,-52],[20,-24],[1,-9],[-39,4],[-4,8],[-26,16],[-13,1],[-7,-39],[-13,9],[-21,36],[-58,-2],[-60,-10],[-8,6],[-95,183],[-152,246],[-140,234],[-8,52],[-19,76],[0,14],[13,174],[15,128],[32,223],[16,38],[23,39],[17,-3],[40,-6],[21,14],[204,3],[95,-194],[16,-85],[15,-61]],[[6098,3847],[6,0],[41,14],[82,22],[100,5],[68,-4]],[[6395,3884],[10,-127],[-2,-3]],[[6403,3754],[-62,-2],[-170,-9],[0,-120],[2,-249],[-92,-9],[-6,-151],[-77,-8]],[[6155,2822],[72,-66],[43,-74],[74,-49],[152,-126],[16,-46],[-2,-8],[-14,-41],[-53,-19],[-9,-65],[6,-18],[41,-87],[4,-8],[-141,-36],[40,-100]],[[6384,2079],[4,-10],[57,-95],[46,-71]],[[6491,1903],[23,-35],[0,-1]],[[6514,1867],[103,-161]],[[6617,1706],[22,-34],[10,-16]],[[6649,1656],[-65,-74],[-19,-22],[-31,-83],[-47,-26]],[[244,4491],[22,7],[67,2],[10,1],[2,0],[38,7],[24,-27],[14,-25],[13,-24],[3,-23],[0,-2]],[[437,4407],[-70,-1],[28,-92],[83,-51],[36,-72],[-17,-56],[-94,113],[-178,175],[-16,64]],[[209,4487],[35,4]],[[793,4055],[98,-4],[34,-7]],[[925,4044],[-35,-53],[-23,-24],[-71,-63],[-29,-99]],[[767,3805],[-149,54],[-45,-149],[-78,218],[89,123],[68,125],[40,-41],[-63,-111],[164,31]],[[1171,3464],[33,25],[84,4],[83,17],[36,4],[62,9],[50,9],[45,9],[12,-3]],[[1576,3538],[0,-27],[3,-38],[12,-63],[36,-32],[101,-78],[47,-21],[87,-57],[41,6],[126,4],[123,-19],[101,-17],[91,-19],[171,-81],[5,0]],[[2520,3096],[-6,-60],[31,-150],[55,-132],[-18,-16],[-48,-42]],[[2534,2696],[-222,-27],[-85,-64],[-107,-44],[-49,0],[-57,-53],[-34,-61],[-151,-82],[-37,-87],[9,-89],[-14,-48],[-66,-51],[-118,-25],[-126,-88],[-104,-13],[-235,27],[-2,120],[-65,160],[-34,325],[26,123],[8,125],[-13,78],[-4,192],[29,64],[17,101],[41,140],[30,45]],[[209,4488],[0,0],[4,70],[-34,125],[33,197],[79,171],[-23,35],[93,208],[-75,103],[5,108],[-59,152],[-100,120],[-67,-6],[29,166],[-94,64],[57,39],[219,191],[129,94],[348,135],[270,35],[172,36],[143,-2],[71,-34],[265,-166],[82,-40],[150,-143],[8,-119],[88,-88],[73,-121],[17,-55],[69,-67],[65,-35],[36,-93],[209,-12],[70,8],[75,56],[138,-21],[347,-20],[56,-189]],[[3157,5390],[7,-42],[80,-17],[55,-158],[19,-67],[63,-125],[81,-92],[37,-61],[38,-134],[0,-23],[-1,-53],[-2,-2],[-17,-4]],[[3517,4612],[-119,6],[-22,1],[-2,-1],[-123,-5],[-12,-14],[-57,0]],[[3182,4599],[-3,2],[-18,18],[-25,23],[-79,80],[-21,24],[-115,128],[-71,-22],[-158,-52],[10,-90],[37,-81],[-2,-69],[-80,-24],[-8,-1],[-110,-22],[-101,27],[-37,51],[2,96],[-127,1],[-13,-30],[-5,-15],[-31,-90],[-5,-16],[-7,-65],[-22,-20],[-12,14],[-14,12],[-69,35],[-54,0],[-8,-6],[-22,-36],[-23,-128],[-39,-57],[-5,-13],[-65,-113],[-5,-8],[-22,-42]],[[1855,4110],[-50,16],[-16,6],[-18,5],[-45,-13],[-10,-6],[-110,26],[-7,2],[-51,12],[-74,19],[-32,12],[-22,-14],[0,0],[-18,-13],[-32,-20],[-12,-17],[-70,-32],[-18,-10],[-16,-9],[-26,-5],[-19,-14],[-130,0],[-36,-1],[-22,-24],[-75,16],[-21,-2]],[[793,4055],[-30,1],[-11,94],[-42,87],[46,94],[-27,48],[-113,-3],[-61,42],[-46,-20],[-72,9]],[[209,4487],[0,1]],[[4966,6178],[-20,-39],[-97,-60],[-153,-318],[-64,-186],[-200,-32],[-253,-170],[-208,-104],[-131,-237],[-6,-24],[-72,-125],[-72,-124],[-21,-103],[-16,-84],[-119,-39],[-11,-4]],[[3523,4529],[-4,6],[-2,77]],[[3157,5390],[-51,192],[153,-9],[43,14],[128,-37],[66,-2],[51,76],[-63,62],[-36,256],[15,187],[89,18],[15,41],[197,11]],[[3753,2668],[-71,50],[2,47],[-64,64],[-49,-21]],[[3571,2808],[-213,55],[-5,36],[-177,-1],[-63,20],[-1,65],[0,32],[54,35],[67,151],[7,29],[3,30],[144,323],[0,19],[108,226],[20,82],[109,49],[1,31],[-14,140],[-2,5],[-29,64],[-8,82],[0,8],[-6,68],[28,56]],[[3594,4413],[40,-53],[52,4],[38,5],[38,58],[38,3]],[[5349,6252],[27,-92],[-13,-25],[-4,-9],[1,-23],[9,-15],[-64,-37],[-13,-6],[-109,-11],[-4,-8],[-31,-1],[-7,-1],[-45,-51],[-11,-2],[-14,-10],[-32,-26],[-52,-45],[-2,-6],[-40,-13],[-7,-6],[-3,-27],[-10,-64],[-1,-2],[0,-30],[-23,-46],[-25,-49],[-11,-26],[-5,-100],[-6,-26],[-26,-47],[-61,-25],[-107,-48],[-120,-62],[-100,-55],[-57,-32],[1,-57],[-16,-298],[-8,-157],[7,-11],[0,-22]],[[3594,4413],[-71,116]],[[7564,4523],[25,-102]],[[7589,4421],[-6,-59],[25,-133],[26,-71],[36,-27],[15,-22],[77,-41],[85,-18],[0,-5],[-6,-64],[30,12],[33,-19],[19,-88],[-36,-78],[52,-30],[24,-14]],[[7963,3764],[-630,-21],[-572,-20]],[[6761,3723],[-20,29],[-113,115]],[[6628,3867],[0,2],[-2,0]],[[6626,3869],[-2,0]],[[6624,3869],[-102,4],[-29,12],[-66,7],[-32,-8]],[[6403,3754],[11,-787],[136,-3],[15,0]],[[6565,2964],[-5,-172],[-3,-59],[0,0]],[[6557,2733],[14,-14],[229,-170],[15,-10]],[[6815,2539],[52,-34],[35,-23],[3,-1]],[[6905,2481],[71,-46],[-7,-50],[-1,-11],[25,-57],[-2,-17],[38,-50],[47,-17],[33,-17]],[[7109,2216],[5,-4],[1,-6],[-67,-12],[-64,-14],[-34,-16]],[[6950,2164],[-62,37],[-84,-10],[-31,15],[-45,17],[-73,-8],[-52,-32],[-34,-20],[-119,-92],[-66,8]],[[6950,2164],[8,-13],[71,-79],[6,-7],[19,-35]],[[7054,2030],[-3,-23],[-3,-9],[-69,-33],[-89,0],[-70,-87],[-12,-17]],[[6808,1861],[-18,5],[-65,12],[-15,-7],[-22,-11],[-26,-12],[-82,61],[-28,7],[-1,1],[-5,8],[-22,-2],[-4,-7],[-29,-13]],[[6808,1861],[-11,-61],[-16,-36],[8,-19]],[[6789,1745],[-2,-1],[-75,-6],[-32,14],[-35,17],[-2,47],[-95,68],[-34,-17]],[[6789,1745],[1,-5],[1,-73],[-10,0],[-18,-3],[-5,-6],[-102,47],[-9,4],[-30,-3]],[[6649,1656],[235,-282],[3,-411]],[[6887,963],[6,-71],[5,-14],[-7,-84],[24,-45],[70,-49],[1,-1],[14,-2],[10,-1]],[[7010,696],[-7,-77],[-32,0],[-18,-41],[-153,-24],[77,-75],[67,-20],[26,-7],[19,-41],[-35,-49],[-6,-101]],[[6948,261],[-131,95],[-35,62],[-98,-11],[-17,79],[21,75],[-39,133],[-10,85],[14,47],[3,126],[-21,27],[-25,172],[18,112],[-21,97],[-39,11],[-129,-10]],[[7054,2030],[84,23],[27,57],[0,13]],[[7165,2123],[8,1],[64,6],[2,21],[8,16],[10,38],[3,1]],[[7260,2206],[1,0],[10,-16],[15,-18],[0,-3],[54,4],[1,0]],[[7341,2173],[-10,-29],[5,-7],[2,-4],[12,-12],[5,-10],[4,-11],[-6,-14]],[[7353,2086],[-21,-33],[-41,-17],[-15,-28],[-60,-151],[-6,-125],[-24,-84],[-28,-161],[-1,-88],[-13,-67],[1,-110],[2,-114],[-11,-11],[8,-117],[-22,-2],[-73,-7],[-103,-13],[-23,1],[-30,3],[-6,1]],[[8157,1017],[-119,-4],[12,121],[33,0]],[[8083,1134],[99,-6],[3,-58],[-28,-53]],[[7010,696],[87,11],[280,-5],[4,6],[15,64],[7,17],[11,100],[-4,9],[-10,120],[-4,18],[-3,71],[-6,48],[-7,60],[-4,14],[4,47],[48,26],[85,11],[41,2],[177,19],[49,6],[174,47],[193,24],[20,3],[25,15]],[[8192,1429],[18,-8],[5,-110]],[[8215,1311],[2,-52]],[[8217,1259],[-133,-13],[0,-105],[-1,-7]],[[8157,1017],[200,23],[116,-115],[19,4]],[[8492,929],[6,-29],[17,-16],[56,-58],[44,-58]],[[8615,768],[-37,-27],[-108,-7],[-18,-37],[-179,-61],[-91,17],[-74,-4],[-10,-34],[94,-109],[0,-24],[-98,-47],[4,-82],[-18,-99],[-98,-17],[-91,-93],[-169,-79],[-108,62],[-123,-127],[-35,24],[0,75],[-102,69],[-63,79],[-105,10],[-84,-34],[-154,38]],[[7353,2086],[27,-1],[3,-4],[5,-4]],[[7388,2077],[156,-155],[63,0],[3,-120],[148,-40],[115,-57],[165,-74],[60,-40],[-17,-43],[-1,-58],[-14,-34],[126,-27]],[[7589,4421],[105,-119],[60,-20],[148,-116],[39,-5],[93,-86],[49,-20],[186,-121],[154,-92],[66,-71],[54,-86],[116,-61],[230,-168],[66,-5],[65,35],[86,-90]],[[9106,3396],[-44,-45],[-74,-73],[-70,-37],[-103,-44]],[[8815,3197],[-34,43],[-42,42],[-42,97],[-7,47],[0,0],[-16,33],[-1,0],[-120,48]],[[8553,3507],[-10,18],[-10,18],[-72,48],[-2,1],[-3,-4]],[[8456,3588],[-75,26]],[[8381,3614],[-45,43]],[[8336,3657],[1,1],[-47,22],[-82,43],[-13,17],[-54,-2],[-29,25],[-18,13],[-60,0],[-66,-15]],[[7968,3761],[0,0],[-5,3]],[[8336,3657],[-32,-15],[-52,-13],[-54,-17],[-22,-7],[-10,0],[-5,2],[-54,39],[-114,41],[-10,23],[-10,32],[-5,19]],[[8456,3588],[-2,-1],[-27,-30],[-3,-14],[0,-9],[-3,-19],[-3,-2],[-42,-37],[-6,-7],[-14,11],[-4,15],[1,4],[8,15],[-3,85],[19,14],[4,1]],[[8553,3507],[-52,-13],[-55,-30],[17,-104],[-64,-212],[-122,-234],[-14,7],[-34,12],[-61,14],[-91,-3],[-86,-166],[-2,-3],[-36,-75]],[[7953,2700],[-1,0],[-61,10],[-218,189],[-142,115],[-58,42],[-336,334],[-25,39],[-69,53],[-55,43],[-48,35],[-40,31]],[[6900,3591],[-14,14],[-52,53],[-49,49],[-24,16]],[[6994,3034],[5,-35],[6,-4],[-13,-67]],[[6992,2928],[-111,14],[-2,6],[-5,11],[-10,70],[23,1],[73,16],[24,1]],[[6984,3047],[10,-13]],[[7037,2736],[14,-41],[-4,-64]],[[7047,2631],[-138,0],[0,47],[4,84],[120,0]],[[7033,2762],[4,-26]],[[2520,3096],[185,2],[12,-32],[29,-55],[41,19],[10,54],[13,180],[-41,29],[-63,43],[16,46],[34,7],[-33,90],[-29,20],[-4,39],[33,5],[145,232],[122,263],[-46,9],[0,0],[-60,5],[-39,-38],[-57,-6],[3,94],[35,105],[-56,103],[-8,53],[70,2],[170,-5],[134,62],[55,19],[-9,158]],[[3571,2808],[-70,-65],[-126,26],[-104,61],[-33,-10],[-197,-5],[-88,-82],[27,-37],[-82,-51],[-82,26],[-28,-16],[-115,0],[-139,41]],[[6900,3591],[12,-54],[11,-21],[9,-14],[-5,-210],[22,-79],[12,-45],[23,-93],[0,-28]],[[6992,2928],[10,-34],[28,-101],[3,-30],[0,-1]],[[7047,2631],[0,-6],[28,-28],[90,-4],[-2,-51],[6,-9],[3,-7],[7,-19],[6,-22],[2,-9],[-13,-20],[-9,-14],[16,-33],[16,-22],[-49,-68],[11,-9],[103,-55],[2,-23],[0,-16],[-3,-9],[-1,-1]],[[7165,2123],[-28,107],[-30,30],[-7,6]],[[7100,2266],[0,2],[-32,69],[9,23],[-26,42],[32,14],[5,17],[-46,65],[-87,13],[-50,-30]],[[6815,2539],[-1,13],[-5,106],[-3,49],[-79,-5],[-67,45],[-54,36],[-49,-50]],[[6565,2964],[64,8],[73,7],[-2,24],[-26,60],[-124,7],[-26,8],[-5,12],[-6,141],[87,-20],[7,1],[68,14],[-14,409],[-22,121],[-9,91],[-6,22]],[[6626,3869],[2,-2]],[[7100,2266],[2,-10],[7,-40]],[[7341,2173],[0,6],[37,55],[47,3],[-1,9],[-1,26],[-15,5],[-21,4],[-28,71],[54,8],[79,-122],[-83,-94],[37,-56]],[[7446,2088],[-58,-11]],[[7953,2700],[53,-9],[202,-90],[174,-133],[218,-221]],[[8600,2247],[-194,65],[-115,51],[-84,20],[-127,-18],[-52,-23],[-92,37],[-319,0],[-7,-70],[-42,-37],[-91,-116],[-31,-68]],[[8600,2247],[-170,-240],[1,-267],[2,-203],[109,-1],[14,-6],[270,4],[-4,-94]],[[8822,1440],[-103,-3]],[[8719,1437],[-1,0],[-34,0],[-149,-14],[-32,-68],[-49,-30],[-141,-7],[-42,-10],[-56,3]],[[8719,1437],[1,-27],[13,-100],[0,-178]],[[8733,1132],[-80,0],[-140,39],[-64,30],[-202,-4],[-30,62]],[[8733,1132],[1,-155]],[[8734,977],[-242,-48]],[[8815,3197],[0,-8]],[[8815,3189],[-4,-2],[-92,7],[6,-72],[24,-55],[0,-146],[13,-129],[14,-235],[-5,-348],[-95,-174],[-42,-78],[39,-262]],[[8673,1695],[11,-163],[143,2]],[[8827,1534],[-5,-94]],[[8815,3189],[59,-73],[4,-46],[100,-17],[54,-62],[-5,-32],[49,-75],[64,-57]],[[9140,2827],[-54,-218],[-60,-239],[-16,-64],[-161,-287],[5,-208],[20,-90],[-201,-26]],[[9106,3396],[161,-133],[236,-103],[91,-54],[211,-171],[187,-99]],[[9992,2836],[-34,-83],[-40,-32],[-10,-8],[0,0],[-17,-18],[0,0],[-25,-33],[-31,-33],[-58,-2],[-49,-19],[-33,-28],[-3,-5]],[[9692,2575],[-23,17],[0,0],[-14,10]],[[9655,2602],[-40,72],[-66,24],[-69,32],[-78,37],[-114,30],[-35,-2],[-113,32]],[[9655,2602],[-10,-2],[-93,-24],[-49,-27],[-64,-38],[-45,-27],[-12,-8],[-33,-20],[-127,-198],[-21,-17],[0,0],[-9,-14],[-38,-50],[-26,-40],[-23,-137],[-96,-69],[6,-49],[29,-201],[22,-110],[3,-27]],[[9069,1544],[-242,-10]],[[9992,2836],[139,-27],[76,27],[113,-47]],[[10320,2789],[-2,-37],[-49,-15],[-27,-20],[-2,-70],[-81,-6],[-150,21],[-48,-1],[0,0],[-17,-27],[-95,-48],[-1,-7],[-8,-37],[30,-83],[-56,-69]],[[9814,2390],[-18,40],[2,93],[-29,6],[-80,-19],[-7,3],[-17,7],[11,31],[16,24]],[[9826,2385],[-1,-2],[-3,2]],[[9822,2385],[4,0]],[[10320,2789],[5,-3],[143,-76],[45,-56],[81,-42],[63,18],[63,-10],[56,-39],[-11,-93],[-87,-99],[17,-100],[-3,-83],[-26,-65],[12,-118],[-42,-57],[-127,0],[-168,80],[-220,90]],[[10121,2136],[16,80],[-59,61],[-132,83],[-43,25],[-50,-2],[-27,2]],[[9822,2385],[-8,5]],[[10121,2136],[-69,5],[-42,-103],[4,-70],[-85,-99],[-76,13],[-216,4],[-114,-21],[-153,-77],[-16,-62],[18,-69],[-20,-103]],[[9352,1554],[-59,4],[-41,0],[-95,-13]],[[9157,1545],[-88,-1]],[[9157,1545],[2,-67],[-88,-147],[-2,-14],[-26,-54],[-35,-16]],[[9008,1247],[-20,23],[-98,111],[-26,28],[-42,31]],[[9008,1247],[-3,-2]],[[9005,1245],[-13,-4],[-27,-10],[0,0],[-80,-46],[-23,-14],[-7,-5],[-67,-19],[-27,-6],[-28,-12],[1,-152]],[[9352,1554],[-70,-131],[-46,-124],[18,-42],[-18,-115],[-54,-48]],[[9182,1094],[-66,3],[-28,1],[-48,-12],[-21,51],[-2,24],[0,0],[-11,32],[-1,52]],[[9182,1094],[-32,-81],[-250,-96],[-151,-118],[-134,-31]],[[1855,4110],[-54,-83],[-12,-19],[-16,-30],[-93,-16],[-21,-1],[-17,-5],[-11,-9],[-8,-10],[-8,-14],[-7,-21],[7,-39],[8,-12],[28,-14],[30,-5],[18,6],[44,-12],[27,-99],[-1,-108],[-99,-53],[-94,-28]],[[1171,3464],[-65,-15],[-35,66],[-82,-18],[-73,96],[-17,49],[-51,30],[-12,58],[-69,75]]],"transform":{"scale":[0.001318173957041668,0.0011012002845017014],"translate":[52.439720287084995,35.1535107451508]},"objects":{"TKM":{"type":"GeometryCollection","geometries":[{"arcs":[[0,1,2,3,4]],"type":"Polygon","properties":{"name":"Koneurgenc","shapeGroup":"TKM","gid":"TKM-2-0"},"id":"TKM-2-0"},{"arcs":[[-1,5,6]],"type":"Polygon","properties":{"name":"Saparmyrat Turkmenbasy","shapeGroup":"TKM","gid":"TKM-2-1"},"id":"TKM-2-1"},{"arcs":[[-3,7,8,9,10]],"type":"Polygon","properties":{"name":"Boldumsaz","shapeGroup":"TKM","gid":"TKM-2-2"},"id":"TKM-2-2"},{"arcs":[[11,12,13,14,15]],"type":"Polygon","properties":{"name":"S.A. Nyyazow","shapeGroup":"TKM","gid":"TKM-2-3"},"id":"TKM-2-3"},{"arcs":[[-9,16,17,18,19,20,-14,21]],"type":"Polygon","properties":{"name":"Gorogly","shapeGroup":"TKM","gid":"TKM-2-4"},"id":"TKM-2-4"},{"arcs":[[-15,-21,22,23,24,25,26]],"type":"Polygon","properties":{"name":"Ak Bugday","shapeGroup":"TKM","gid":"TKM-2-5"},"id":"TKM-2-5"},{"arcs":[[-26,27,28]],"type":"Polygon","properties":{"name":"Gokdepe","shapeGroup":"TKM","gid":"TKM-2-6"},"id":"TKM-2-6"},{"arcs":[[-18,29,30]],"type":"Polygon","properties":{"name":"Darganata","shapeGroup":"TKM","gid":"TKM-2-7"},"id":"TKM-2-7"},{"arcs":[[-24,31,32,33]],"type":"Polygon","properties":{"name":"Kaka","shapeGroup":"TKM","gid":"TKM-2-8"},"id":"TKM-2-8"},{"arcs":[[34,35,36]],"type":"Polygon","properties":{"name":"Babadayhan","shapeGroup":"TKM","gid":"TKM-2-9"},"id":"TKM-2-9"},{"arcs":[[-20,37,38,39,-35,-37,40,41,42,43,44,45,-32,-23]],"type":"Polygon","properties":{"name":"Tejen","shapeGroup":"TKM","gid":"TKM-2-10"},"id":"TKM-2-10"},{"arcs":[[46,47,48]],"type":"Polygon","properties":{"name":"Avaza","shapeGroup":"TKM","gid":"TKM-2-11"},"id":"TKM-2-11"},{"arcs":[[49,50,51]],"type":"Polygon","properties":{"name":"Hazar","shapeGroup":"TKM","gid":"TKM-2-12"},"id":"TKM-2-12"},{"arcs":[[52,53,54,55]],"type":"Polygon","properties":{"name":"Etrek","shapeGroup":"TKM","gid":"TKM-2-13"},"id":"TKM-2-13"},{"arcs":[[56,57,58,59,60,-50,61,-47,-49,62]],"type":"Polygon","properties":{"name":"Turkmenbasy","shapeGroup":"TKM","gid":"TKM-2-14"},"id":"TKM-2-14"},{"arcs":[[-5,63,64,-58,65,-6]],"type":"Polygon","properties":{"name":"Gubadag","shapeGroup":"TKM","gid":"TKM-2-15"},"id":"TKM-2-15"},{"arcs":[[-16,-27,-29,66,67,68]],"type":"Polygon","properties":{"name":"Baherden","shapeGroup":"TKM","gid":"TKM-2-16"},"id":"TKM-2-16"},{"arcs":[[-4,-11,69,-12,-69,70,-64]],"type":"Polygon","properties":{"name":"Akdepe","shapeGroup":"TKM","gid":"TKM-2-17"},"id":"TKM-2-17"},{"arcs":[[-19,-31,71,72,73,74,75,76,77,-38]],"type":"Polygon","properties":{"name":null,"shapeGroup":"TKM","gid":"TKM-2-18"},"id":"TKM-2-18"},{"arcs":[[-36,-40,78,79,80,81,82,83,84,-41]],"type":"Polygon","properties":{"name":"Sakarcage","shapeGroup":"TKM","gid":"TKM-2-19"},"id":"TKM-2-19"},{"arcs":[[-42,-85,85,86,87]],"type":"Polygon","properties":{"name":"Oguzhan","shapeGroup":"TKM","gid":"TKM-2-20"},"id":"TKM-2-20"},{"arcs":[[-43,-88,88,89]],"type":"Polygon","properties":{"name":"Tedzhen Sovkhoz","shapeGroup":"TKM","gid":"TKM-2-21"},"id":"TKM-2-21"},{"arcs":[[-44,-90,90]],"type":"Polygon","properties":{"name":null,"shapeGroup":"TKM","gid":"TKM-2-22"},"id":"TKM-2-22"},{"arcs":[[-33,-46,91,92,93,94]],"type":"Polygon","properties":{"name":"Serakhs","shapeGroup":"TKM","gid":"TKM-2-23"},"id":"TKM-2-23"},{"arcs":[[-45,-91,-89,-87,95,96,97,98,99,-92]],"type":"Polygon","properties":{"name":"Murgap","shapeGroup":"TKM","gid":"TKM-2-24"},"id":"TKM-2-24"},{"arcs":[[100,101]],"type":"Polygon","properties":{"name":null,"shapeGroup":"TKM","gid":"TKM-2-25"},"id":"TKM-2-25"},{"arcs":[[-94,102,103,104,105,-101,106,107,108]],"type":"Polygon","properties":{"name":"Serhetabat","shapeGroup":"TKM","gid":"TKM-2-26"},"id":"TKM-2-26"},{"arcs":[[-93,-100,109,110,-103]],"type":"Polygon","properties":{"name":"Turkmengala","shapeGroup":"TKM","gid":"TKM-2-27"},"id":"TKM-2-27"},{"arcs":[[-73,111,112,113,114,115,116,117,118]],"type":"Polygon","properties":{"name":"Ferap","shapeGroup":"TKM","gid":"TKM-2-28"},"id":"TKM-2-28"},{"arcs":[[-118,119]],"type":"Polygon","properties":{"name":"Danew","shapeGroup":"TKM","gid":"TKM-2-29"},"id":"TKM-2-29"},{"arcs":[[120,-116]],"type":"Polygon","properties":{"name":"Dowletli","shapeGroup":"TKM","gid":"TKM-2-30"},"id":"TKM-2-30"},{"arcs":[[-74,-119,-120,-117,-121,-115,121,122,123]],"type":"Polygon","properties":{"name":"Carjew","shapeGroup":"TKM","gid":"TKM-2-31"},"id":"TKM-2-31"},{"arcs":[[124,125,126]],"type":"Polygon","properties":{"name":null,"shapeGroup":"TKM","gid":"TKM-2-32"},"id":"TKM-2-32"},{"arcs":[[127,128,129]],"type":"Polygon","properties":{"name":null,"shapeGroup":"TKM","gid":"TKM-2-33"},"id":"TKM-2-33"},{"arcs":[[-55,130,-59,-65,-71,-68,131]],"type":"Polygon","properties":{"name":"Magtymguly","shapeGroup":"TKM","gid":"TKM-2-34"},"id":"TKM-2-34"},{"arcs":[[-75,-124,132,-126,133,-129,134,-97,135,136,-82,137,-80,138,-77,139]],"type":"Polygon","properties":{"name":"Wekilbazar","shapeGroup":"TKM","gid":"TKM-2-35"},"id":"TKM-2-35"},{"arcs":[[-83,-137,140]],"type":"Polygon","properties":{"name":"Mary","shapeGroup":"TKM","gid":"TKM-2-36"},"id":"TKM-2-36"},{"arcs":[[-84,-141,-136,-96,-86]],"type":"Polygon","properties":{"name":"Mary","shapeGroup":"TKM","gid":"TKM-2-37"},"id":"TKM-2-37"},{"arcs":[[[-39,-78,-139,-79]],[[-76,-140]]],"type":"MultiPolygon","properties":{"name":null,"shapeGroup":"TKM","gid":"TKM-2-38"},"id":"TKM-2-38"},{"arcs":[[-81,-138]],"type":"Polygon","properties":{"name":"Garagum","shapeGroup":"TKM","gid":"TKM-2-39"},"id":"TKM-2-39"},{"arcs":[[-99,141,142,-110]],"type":"Polygon","properties":{"name":"Bayramaly","shapeGroup":"TKM","gid":"TKM-2-40"},"id":"TKM-2-40"},{"arcs":[[-98,-135,-128,-130,-134,-125,-127,-133,-123,143,144,-142]],"type":"Polygon","properties":{"name":"Bayramaly","shapeGroup":"TKM","gid":"TKM-2-41"},"id":"TKM-2-41"},{"arcs":[[-104,-111,-143,-145,145,146,147]],"type":"Polygon","properties":{"name":"Yoloten","shapeGroup":"TKM","gid":"TKM-2-42"},"id":"TKM-2-42"},{"arcs":[[-105,-148,148,149]],"type":"Polygon","properties":{"name":null,"shapeGroup":"TKM","gid":"TKM-2-43"},"id":"TKM-2-43"},{"arcs":[[-102,-106,-150,150,151,-107]],"type":"Polygon","properties":{"name":null,"shapeGroup":"TKM","gid":"TKM-2-44"},"id":"TKM-2-44"},{"arcs":[[-114,152,153,154,155,-146,-144,-122]],"type":"Polygon","properties":{"name":"Sayat","shapeGroup":"TKM","gid":"TKM-2-45"},"id":"TKM-2-45"},{"arcs":[[-154,156,157]],"type":"Polygon","properties":{"name":"Hojambaz","shapeGroup":"TKM","gid":"TKM-2-46"},"id":"TKM-2-46"},{"arcs":[[-113,158,159,160,161,-157,-153]],"type":"Polygon","properties":{"name":"Kerki","shapeGroup":"TKM","gid":"TKM-2-47"},"id":"TKM-2-47"},{"arcs":[[-158,-162,162,163,-155]],"type":"Polygon","properties":{"name":"Halac","shapeGroup":"TKM","gid":"TKM-2-48"},"id":"TKM-2-48"},{"arcs":[[[-160,164,165,166]],[[167,168]]],"type":"MultiPolygon","properties":{"name":"Sayat","shapeGroup":"TKM","gid":"TKM-2-49"},"id":"TKM-2-49"},{"arcs":[[-166,169,170,-169,171]],"type":"Polygon","properties":{"name":"Koytendag","shapeGroup":"TKM","gid":"TKM-2-50"},"id":"TKM-2-50"},{"arcs":[[-161,-167,-172,-168,-171,172,173,174,-163]],"type":"Polygon","properties":{"name":"Dostluk","shapeGroup":"TKM","gid":"TKM-2-51"},"id":"TKM-2-51"},{"arcs":[[-164,-175,175,176,-156]],"type":"Polygon","properties":{"name":null,"shapeGroup":"TKM","gid":"TKM-2-52"},"id":"TKM-2-52"},{"arcs":[[-147,-177,177,178,-151,-149]],"type":"Polygon","properties":{"name":null,"shapeGroup":"TKM","gid":"TKM-2-53"},"id":"TKM-2-53"},{"arcs":[[-174,179,180,-178,-176]],"type":"Polygon","properties":{"name":null,"shapeGroup":"TKM","gid":"TKM-2-54"},"id":"TKM-2-54"},{"arcs":[[-108,-152,-179,-181,181]],"type":"Polygon","properties":{"name":null,"shapeGroup":"TKM","gid":"TKM-2-55"},"id":"TKM-2-55"},{"arcs":[[-51,-61,182,-53,183]],"type":"Polygon","properties":{"name":"Balkanabat","shapeGroup":"TKM","gid":"TKM-2-56"},"id":"TKM-2-56"},{"arcs":[[-54,-183,-60,-131]],"type":"Polygon","properties":{"name":"Bereket","shapeGroup":"TKM","gid":"TKM-2-57"},"id":"TKM-2-57"},{"arcs":[[-10,-22,-13,-70]],"type":"Polygon","properties":{"name":"Gurbansoltan Eye","shapeGroup":"TKM","gid":"TKM-2-58"},"id":"TKM-2-58"}]}}}