{"type":"Topology","arcs":[[[9451,8389],[-18,-21],[-63,-3],[-28,0],[-16,10],[-85,-34],[-78,22],[-80,-7]],[[9083,8356],[-39,-2],[-35,9],[-159,75],[-131,85],[-7,51],[-35,27],[-117,53],[-176,3],[-169,19],[-3,87],[-23,17],[-55,-32],[-87,31],[-140,82]],[[7907,8861],[-34,101],[-33,39],[-84,46],[-36,32],[-19,117],[14,30],[-62,54],[-176,288]],[[7477,9568],[20,9],[283,293],[233,226],[369,351],[44,-53],[49,-25],[41,-68],[-17,-66],[74,-106],[-8,-31],[-53,-18],[-1,-26],[85,-72],[58,-29],[-28,-116],[-51,-21],[-8,-46],[75,20],[77,-4],[11,17],[77,4],[22,-93],[-88,2],[-49,-59],[67,-9],[4,-20],[103,0],[40,-67],[76,-59],[37,21],[86,15],[61,-72],[117,-48],[-23,-108],[6,-59],[-11,-108],[-52,-51],[-61,-16],[48,-60],[6,-31],[-34,-36],[0,-80],[51,-49],[38,-113],[14,-182],[49,-31],[27,-44],[30,14],[68,-27],[12,-48]],[[7907,8861],[-46,-15],[1,-68],[-109,-88],[-43,1],[-85,39],[-95,0]],[[7530,8730],[-102,3],[-46,31],[-73,25],[-5,5],[-55,10],[-21,-45],[36,-33],[-13,-24],[-115,-3],[-75,13],[-18,-59],[4,-11],[24,-38],[-9,-36],[-115,-10],[-151,14],[-48,-23],[-26,-74],[0,-64],[2,-9],[-4,-33]],[[6720,8369],[-20,1],[-13,2],[-9,4],[-13,3],[-84,25],[-24,37],[-89,92],[-62,82],[-6,11],[-87,67],[-26,-81],[-105,-59],[-12,-4],[-67,3],[-39,18],[-23,69]],[[6041,8639],[38,87],[-72,86],[-40,33],[-24,67],[26,20],[120,-3],[29,13],[109,5],[58,54],[10,-2],[51,-52],[38,45],[-14,35],[-10,12],[90,48],[60,10],[19,48],[53,35],[99,30],[7,2],[40,5],[68,-29],[112,-32],[122,124],[5,103],[-15,36],[42,80],[18,66],[-7,10]],[[7073,9575],[18,24],[151,-15],[235,-16]],[[6041,8639],[-33,-65],[-47,-28],[-12,-5],[-200,-28],[-104,6],[-56,-20],[-28,8]],[[5561,8507],[-27,62],[-176,110],[-5,6],[-32,41],[-8,9]],[[5313,8735],[-6,7],[-46,40],[-53,7],[-42,39],[-48,101],[1,33],[-73,36],[-40,86],[-7,2],[-11,8]],[[4988,9094],[7,36],[6,63],[23,32],[-41,74],[160,99],[144,97],[106,64],[124,5],[450,29],[188,41],[119,32],[225,133],[68,6],[71,-53],[164,-102],[36,-34],[62,-10],[165,-8],[8,-23]],[[6720,8369],[17,-55],[3,-79],[-15,-55],[-37,11],[-56,-22],[-50,3],[3,-64],[-27,-81],[-63,-100],[-49,-8],[-35,27],[-74,-68],[-20,-1],[-19,31],[-2,14],[-45,11],[-18,-22],[-61,17],[-5,-4],[-48,-62],[36,-51],[77,12],[133,-77],[115,-3],[7,0],[97,-99],[138,-122]],[[6722,7522],[-84,-49],[-62,-9],[-64,-75],[-41,-2]],[[6471,7387],[-70,8],[9,71],[-110,11],[-29,29],[-62,26],[-32,29],[-48,-35],[-1,-41],[-71,-14]],[[6057,7471],[-57,1],[-137,32],[-14,14]],[[5849,7518],[41,75],[7,10],[1,81],[83,58],[-68,63],[-13,45],[-58,79]],[[5842,7929],[-16,28],[-67,105],[-4,6],[-3,3],[-10,10],[-31,41],[-54,101],[-31,24],[-132,184],[10,32],[59,19],[-2,25]],[[7530,8730],[13,-253]],[[7543,8477],[10,-235],[24,-109],[-21,-46],[34,-43],[-20,-39],[51,-53],[3,-131],[-23,-48],[-66,-57],[-41,-115],[19,-79],[-15,-32]],[[7498,7490],[-73,-23],[-39,10],[-80,58],[-68,-34],[-68,21],[-29,-15],[-15,-9],[-52,-14],[-72,12],[-88,0],[-21,3],[-29,10],[-56,-20],[-14,33],[-72,0]],[[9083,8356],[-25,-84],[-54,-75],[-56,-53],[-69,-89]],[[8879,8055],[-21,-76],[-19,-156],[-33,-80],[-35,-17],[-93,41],[-103,0],[-157,-72],[-67,-78],[-54,-48],[-18,-40]],[[8279,7529],[-88,53],[-7,4],[-69,21],[-96,49],[-16,37],[-4,74],[1,6],[25,50],[42,28],[41,-25],[45,9],[-91,108],[-63,38],[-17,70],[-75,92],[-34,23],[-22,32],[-5,54],[-27,30],[-85,60],[27,28],[10,22],[34,69],[-170,-11],[-92,27]],[[8279,7529],[66,-84],[19,-60],[40,-38],[1,-14],[-112,-32],[-175,0],[-134,16],[-73,-25],[-115,-59],[-69,2]],[[7727,7235],[-13,24],[-98,71],[-6,4],[-14,18],[-30,40],[-4,9],[-64,89]],[[9451,8389],[22,-28],[17,-111],[23,-53],[24,-142],[77,-33],[26,-75],[112,-6],[43,-13],[25,-55],[36,-9],[31,-146],[-17,-81],[28,-25],[17,-54],[60,-60],[41,-70],[84,6],[32,-129],[35,0],[36,-106],[-53,-10],[-75,-61],[-8,-43],[51,-148],[24,-51]],[[10142,6886],[-24,-32],[-75,-15],[-9,-18],[-58,-58],[-38,-74],[-3,-5],[-20,-59],[-25,-22]],[[9890,6603],[-31,28],[-5,50],[-29,43],[-12,72],[-4,10],[-97,84],[-68,34],[-8,7],[-28,57],[-34,141],[-51,38],[-10,5]],[[9513,7172],[-3,3],[-10,6],[-6,6],[-52,46],[-83,93],[-57,77],[-76,48],[-168,218],[-4,126],[-47,135],[-128,125]],[[9513,7172],[-5,-38],[-160,-508],[-38,-79],[-103,-153],[-237,-179],[-145,-71],[-20,0]],[[8805,6144],[-7,134],[5,103],[-10,113],[-14,31],[5,71],[-575,345]],[[8209,6941],[-297,176],[-34,32],[-43,-13],[-58,-69],[-50,-29],[-21,18]],[[7706,7056],[31,71],[-10,108]],[[9890,6603],[0,-58]],[[9890,6545],[-38,-17],[-199,-141],[-26,-11],[-33,-52],[-39,16],[-72,-54],[-73,11],[-18,-27],[58,-82],[-7,-6],[-115,-48],[-78,-107],[-20,-7],[-25,-15],[-57,-11],[-79,-32],[-37,-80],[-13,-19],[-31,-32],[-5,-12],[-25,-53],[-10,-6],[-63,-33],[-52,-12]],[[8833,5715],[-21,0],[-7,-1]],[[8805,5714],[0,430]],[[9890,6545],[44,-10],[63,-114],[3,-52],[-27,-33],[-53,-105],[4,-82],[4,-6],[49,-41],[2,-13],[20,-77],[-64,-93],[24,-57],[-45,-51],[0,-42],[-32,-43],[-82,-57],[-39,-8],[-29,-43],[-91,-41],[-56,-8]],[[9585,5569],[-31,22],[-128,17],[-61,25],[-61,-9],[-56,-44],[-82,-26]],[[9166,5554],[-81,12],[-7,-2],[-156,-12],[-37,34],[-50,-18]],[[8835,5568],[0,6]],[[8835,5574],[-2,141]],[[10142,6886],[25,-70],[66,-116],[48,-170],[-53,-56],[34,-105],[2,-46],[82,-102],[-47,-159],[-25,-315],[-87,-162],[-112,-70],[-44,-46],[2,-102],[-38,-11],[-91,-56],[-7,-23],[27,-61],[-19,-28]],[[9905,5188],[-40,64],[-68,66]],[[9797,5318],[-34,30],[6,37],[-39,48],[-19,60],[-50,0],[-64,36],[-12,40]],[[8805,5714],[-394,6],[-87,-22],[-92,11],[-52,30]],[[8180,5739],[-11,7],[-25,20],[-92,8],[-18,14]],[[8034,5788],[-10,58]],[[8024,5846],[36,19],[62,62],[16,68],[2,6],[2,47],[-32,36],[2,53],[67,47],[16,53],[-31,35],[29,59],[-2,18],[-23,66]],[[8168,6415],[29,48],[-25,29],[8,61],[26,25],[9,48],[-35,58],[-3,43],[-26,35],[1,67],[39,85],[6,8],[12,19]],[[8168,6415],[-107,24],[-33,-38],[16,-30],[-48,-68],[-33,-24],[-61,17],[2,6],[13,10],[2,7],[-2,3],[-60,92],[15,72],[2,5],[13,52],[-36,31],[-4,-2],[-81,58],[-9,36],[21,33],[-47,92],[-15,3],[-47,-36],[23,-62],[-20,-55],[-26,-4],[-76,46],[-31,58],[-93,48],[-31,33]],[[7415,6822],[-1,20],[104,63],[6,60],[-30,73]],[[7494,7038],[31,18],[54,-42],[66,-5],[61,47]],[[8024,5846],[-48,67],[-4,47],[-41,68],[-120,89],[-3,2],[-75,52],[1,70],[-119,29],[-81,65],[-44,79],[-40,23],[-59,-14],[-8,-4],[-33,-43],[-15,-90],[7,-77],[-18,-20]],[[7324,6189],[-51,42],[1,93],[-45,26],[-7,9],[-36,76]],[[7186,6435],[0,32],[-31,58],[40,48],[4,2],[82,60],[3,-3],[26,-39],[32,-5],[12,4],[19,16],[7,3],[-22,46],[34,60],[-2,34],[-45,47],[70,24]],[[7494,7038],[-79,15],[-121,7],[-76,-58],[-41,19],[-68,-1],[-34,-19],[-18,3],[-59,44],[-45,-1],[-24,46],[-33,6],[-38,57],[-40,8],[-53,35],[-34,59],[16,38],[-18,13],[-53,-29],[-103,35],[-54,2]],[[6519,7317],[-48,70]],[[7186,6435],[-39,22],[-29,3],[-83,7]],[[7035,6467],[-5,6],[-6,12],[-1,3],[-13,12],[-18,31],[-12,9],[-63,4],[-85,58],[-37,-15],[-53,8]],[[6742,6595],[-7,30],[-52,68],[35,36],[77,5],[-25,47],[-2,62],[-41,12],[-4,-6],[-40,38],[-16,60],[1,86],[-40,34],[-9,-14],[-25,-46],[-131,-46],[-12,52],[-32,58],[2,36],[49,45],[44,65],[-11,71],[16,29]],[[6742,6595],[-10,-50],[-68,-7],[-19,-36],[-13,-8],[-59,-60],[-112,44],[-4,5],[-63,42],[-113,6]],[[6281,6531],[-36,25]],[[6245,6556],[54,25],[5,53],[33,28],[-32,65],[-79,23],[-92,50],[-27,48],[29,49],[-3,58],[46,-23],[38,4],[8,39],[63,71],[-3,146],[-51,28],[-30,115],[-62,12]],[[6142,7347],[-85,124]],[[6245,6556],[-59,-15],[-68,37],[-108,111],[-3,0],[-92,-39],[-70,3],[-28,-24],[-53,19]],[[5764,6648],[25,63],[-44,21],[-63,67]],[[5682,6799],[47,47],[64,24],[29,41],[-19,46],[-6,5],[-36,30],[-49,87],[81,13],[58,39],[71,73],[-18,44],[35,10],[71,-26],[53,1],[59,27],[20,87]],[[5764,6648],[-37,-27],[-1,-49],[-62,-79],[-6,-4],[-47,-62],[31,-45],[65,-25],[7,-2],[75,-23],[-4,-24],[-12,-67],[-136,-142],[-22,-67],[80,-107],[12,-17],[58,-29],[63,-92]],[[5828,5787],[-38,-100],[-66,-32],[-259,142],[-78,18],[-24,-30],[-76,-47],[-86,-12]],[[5201,5726],[-113,38],[-114,26],[-32,1],[-41,0],[-68,-24],[-22,-13],[-50,-21]],[[4761,5733],[-1,14],[5,6],[23,34],[0,85],[26,64],[123,65],[55,1],[79,33],[5,5],[14,2],[28,32],[5,7],[22,27],[78,8],[12,16],[2,101],[31,42],[-7,46],[-38,36],[6,50],[24,48],[8,89]],[[5261,6544],[97,1],[144,29],[45,29],[80,92],[34,90],[21,14]],[[6281,6531],[-34,-48],[12,-81],[-46,-77],[43,-59],[95,23],[47,-49],[-30,-137],[-28,-71]],[[6340,6032],[-7,-12],[-39,-3],[-7,2],[-70,17],[-37,26],[-58,-14],[-159,-145],[-135,-116]],[[5261,6544],[-35,20],[-24,153],[-66,84],[-11,8],[-48,62]],[[5077,6871],[-9,57],[-34,80],[-6,105],[-11,10],[15,22],[-3,85],[42,41],[98,-16],[103,8]],[[5272,7263],[57,0],[74,-45],[24,51],[-7,50],[27,49],[8,30],[41,89],[59,50],[57,12],[92,-30],[145,-1]],[[5272,7263],[-15,20],[-115,52],[-12,10],[-52,70],[10,71],[46,23],[28,45],[-40,18],[-42,104],[47,61],[1,41]],[[5128,7778],[100,-7],[59,43],[98,-5],[48,28],[54,1],[62,18],[52,-25],[111,-1],[47,18],[83,81]],[[5128,7778],[-80,23]],[[5048,7801],[-34,99],[-37,168],[-19,30],[-13,74],[41,33],[21,59],[6,73],[62,132],[-9,61],[55,4],[38,86],[45,58],[51,29],[35,-1],[23,29]],[[7035,6467],[-3,-86],[-17,-88],[-84,-85]],[[6931,6208],[-29,-6],[-131,-98],[-52,-15],[5,-52],[-23,-74],[-50,-109],[-52,-22],[-44,0],[-73,32]],[[6482,5864],[-30,32],[-19,66],[-45,58],[-48,12]],[[7324,6189],[22,-36],[0,-64],[-28,-47],[-3,-61],[-47,-64],[-2,-83],[-19,-26]],[[7247,5808],[-36,-22],[-139,-51],[-44,-32],[-118,-39]],[[6910,5664],[44,118],[50,43],[45,60],[5,65],[29,58],[-118,96],[-34,104]],[[6910,5664],[-211,-107],[-94,-56],[-49,-56],[-25,-58]],[[6531,5387],[-83,23],[-20,27]],[[6428,5437],[1,158],[-22,17],[-4,143],[54,20],[1,61],[24,28]],[[7247,5808],[-20,-14]],[[7227,5794],[23,-66],[35,-43],[-50,-50],[31,-80],[-15,-69],[50,-25],[60,-89],[-3,-53],[-38,-64],[-10,-90]],[[7310,5165],[-50,4]],[[7260,5169],[-35,44],[-142,10],[-109,-69],[-76,5],[-116,56],[-68,83],[-183,89]],[[6428,5437],[-277,-5],[-16,-3]],[[6135,5429],[-132,-45],[-109,-29]],[[5894,5355],[-35,-16],[-74,10],[-72,65],[-32,59],[-45,45],[-41,-32],[-47,43],[-94,62],[-84,32],[-76,9],[-70,46],[-23,48]],[[7227,5794],[199,-105],[117,-25],[73,-102],[122,30],[89,-15]],[[7827,5577],[-11,-91],[-47,-118],[-2,-46],[-67,-45],[-63,-11],[-87,-107]],[[7550,5159],[-50,-47],[-81,34],[-75,-13],[-34,32]],[[8034,5788],[-29,-32],[-92,10],[-70,-111],[-16,-78]],[[8180,5739],[-7,-123],[-44,-76],[-4,-49],[-89,-144],[-52,-71],[35,-51],[-9,-33],[-81,16],[-47,-30]],[[7882,5178],[-28,5],[-101,-54],[-81,8],[-88,-8],[-34,30]],[[8835,5574],[-220,0],[-60,-94],[-81,-44],[-62,-76],[3,-189],[-48,-64],[-130,-82]],[[8237,5025],[-99,3],[-76,66]],[[8062,5094],[-25,21],[-103,0],[-52,63]],[[8835,5568],[-6,-178],[67,-68],[18,-36],[-10,-51],[-38,-48],[-8,-71],[-22,-33],[-2,-52]],[[8834,5031],[-55,-71],[-58,-110]],[[8721,4850],[-110,19]],[[8611,4869],[-253,86],[-81,11],[-40,59]],[[9166,5554],[75,-90],[7,-46]],[[9248,5418],[-56,-64],[-43,-12],[-83,-48],[-62,-62],[-36,-83],[38,-40],[102,-46],[109,-35],[107,-65],[66,-51]],[[9390,4912],[17,-47]],[[9407,4865],[-2,-15]],[[9405,4850],[-33,-41]],[[9372,4809],[-112,51],[-86,6],[-53,26],[-121,89],[-52,74],[-83,-52],[-31,28]],[[9248,5418],[80,-26],[7,-119],[-68,-68],[110,-118],[29,-95],[-16,-80]],[[9797,5318],[-18,-97],[-99,-92],[-56,-4],[-75,-39],[-99,-113],[-20,-82],[-23,-26]],[[9905,5188],[70,-99],[-1,-60],[-54,-70],[-89,-34],[-94,-1],[-149,-86],[-100,-43],[-1,-59],[-39,-4]],[[9448,4732],[-43,118]],[[9372,4809],[-9,-52],[-62,-40],[-98,21],[-102,-2],[-70,-22]],[[9031,4714],[-86,32],[-69,1],[-68,26],[-28,71],[-59,6]],[[9448,4732],[-30,15],[-105,-202],[-12,-80]],[[9301,4465],[-48,94],[-66,-13],[-74,-48],[-58,-8],[-60,51],[-82,-52],[-24,-3]],[[8889,4486],[-20,21],[84,119],[5,34],[73,54]],[[9301,4465],[-11,-50],[-74,-172],[-43,-31],[8,-25],[-58,-48],[-69,-22],[-60,-36],[-52,1]],[[8942,4082],[-103,61],[-36,36],[-91,59]],[[8712,4238],[39,30],[63,169],[75,49]],[[8712,4238],[-36,24],[-5,45],[-106,58]],[[8565,4365],[12,38],[-2,119],[34,67],[-73,31]],[[8536,4620],[56,31],[33,69]],[[8625,4720],[12,73],[-27,40],[1,36]],[[8625,4720],[-32,30],[-51,7],[-66,58],[-78,-3],[-32,59],[-43,7],[-23,-36]],[[8300,4842],[-85,-18],[-46,-28],[-73,56]],[[8096,4852],[1,38],[37,55],[-101,1],[-22,-48],[-46,-25],[-62,47],[-17,41],[90,21],[42,27],[44,85]],[[8536,4620],[-108,-87],[-125,-86],[-97,-30],[-105,28]],[[8101,4445],[20,63],[95,68],[48,69],[27,-11],[43,49],[-5,52],[-29,107]],[[8096,4852],[-49,-41],[-12,-65],[-68,-25],[-32,34],[-52,-12],[-78,29],[-95,-64]],[[7710,4708],[-13,7]],[[7697,4715],[-85,114],[-77,65],[-43,12],[-82,115],[-89,49]],[[7321,5070],[-34,10],[-27,89]],[[8101,4445],[-177,-16]],[[7924,4429],[-94,67],[-12,120],[-81,54],[-27,38]],[[8565,4365],[-79,-10],[-24,-28]],[[8462,4327],[-24,8],[-47,-29],[-34,0],[-97,-70],[-13,-45],[-40,-47],[-34,-98],[-40,-70]],[[8133,3976],[-45,7]],[[8088,3983],[-98,143],[-14,77],[-13,180],[-39,46]],[[8942,4082],[41,-1],[8,-54],[-14,-38],[-55,-64],[-14,-54],[-124,-40],[-105,-64]],[[8679,3767],[-114,8]],[[8565,3775],[-15,19],[23,81],[39,32],[-20,39],[44,10],[47,54],[70,11],[-51,74],[-69,8],[-55,69],[-1,30],[-67,34],[29,23],[-34,54],[-43,14]],[[8565,3775],[-91,-15],[-27,12],[-52,-27],[-77,3]],[[8318,3748],[-115,64],[-35,61],[0,47],[-35,56]],[[8088,3983],[-58,-26],[-60,5],[-51,73],[-25,-34],[-64,-8],[-142,52]],[[7688,4045],[36,37],[-74,67],[-92,22]],[[7558,4171],[-37,44],[-11,111]],[[7510,4326],[13,52],[35,49],[-4,62],[71,88],[14,40],[58,98]],[[7510,4326],[-66,-36],[-81,21],[-71,1],[-56,52]],[[7236,4364],[16,87],[33,83],[-36,16],[-19,44],[-83,106]],[[7147,4700],[45,36],[4,57],[62,108],[2,23],[60,73],[1,73]],[[5048,7801],[-89,-5],[-43,28],[-67,-25],[-46,58],[-50,13],[-49,-20],[-61,-72],[-135,-24],[-32,71],[-59,-14],[-98,28],[-55,-14],[-63,-50],[-11,-46],[-81,-77],[-66,-104],[-108,-73],[-130,1],[-60,-17],[-156,-73]],[[3589,7386],[-8,46],[-71,64],[-30,43],[50,59],[31,123],[-40,63],[-108,7],[-19,28]],[[3394,7819],[-30,45],[-3,65],[84,160],[25,58]],[[3470,8147],[110,-92],[62,-2],[49,-51],[74,6],[79,108],[86,-13],[179,50],[111,22],[172,4],[20,53],[-17,20],[47,39],[23,54],[-15,20],[77,119],[9,70],[76,96],[21,57],[-19,27],[47,120],[-33,53],[2,55],[28,36],[4,107],[34,95],[-6,103]],[[4690,9303],[67,-51],[37,-86],[198,-54],[-4,-18]],[[5077,6871],[-79,-8],[-58,-45],[-60,-2],[-129,50],[-62,46],[-58,-7],[-55,55],[-138,94],[-172,9],[-76,-33],[-41,-33],[-17,-43]],[[4132,6954],[-154,-85],[-106,-3],[-84,34],[-57,6],[-92,-57],[-86,-38],[-45,25],[-91,3],[-39,-14]],[[3378,6825],[-49,-51]],[[3329,6774],[1,62],[18,54],[94,81],[138,77],[2,65],[48,90],[47,42],[11,38],[-76,42],[-23,61]],[[3470,8147],[7,18],[118,137],[0,58],[29,35],[2,41],[42,69]],[[3668,8505],[50,62],[42,77],[-4,27],[33,81],[47,84],[100,112],[-2,80],[24,42]],[[3958,9070],[76,59],[53,2],[72,42],[78,67],[27,0],[68,-67],[98,2]],[[4430,9175],[119,110],[75,2],[66,16]],[[3958,9070],[-39,43],[-33,2],[6,120],[-109,6],[-44,21],[-14,62]],[[3725,9324],[-35,53],[38,20]],[[3728,9397],[14,-4],[115,77],[161,13],[44,25],[37,65],[129,80],[10,68],[75,-57],[82,-85],[64,-86],[36,-68],[25,-143],[17,-7],[-107,-100]],[[3668,8505],[-35,27],[-144,186]],[[3489,8718],[4,121],[30,96],[0,111],[164,214],[38,64]],[[3489,8718],[-53,-64]],[[3436,8654],[-83,8],[-25,20],[-23,61],[-97,32],[-44,4],[-89,81],[-72,29],[-74,-20],[-33,-75],[-59,-13]],[[2837,8781],[-62,41]],[[2775,8822],[69,169],[3,42],[36,48],[-7,227],[7,234]],[[2883,9542],[138,100],[144,40],[56,5],[-1,-45],[508,-245]],[[2775,8822],[-80,52],[-37,-32],[-46,2],[-61,68]],[[2551,8912],[30,61],[-1,170],[-18,17],[-99,-10],[40,106],[65,94],[63,74],[3,39],[36,22],[86,12],[46,47],[61,39],[20,-41]],[[2837,8781],[-27,-38],[-60,-42],[-21,-91],[-59,-25],[-32,-29],[-68,-93]],[[2570,8463],[-248,11]],[[2322,8474],[66,202],[78,104],[85,132]],[[3436,8654],[18,-67],[38,-52],[-4,-43],[-77,-32],[-34,-1],[-38,-47],[-160,-7],[-113,-13],[-69,-101],[-21,-15]],[[2976,8276],[-56,30]],[[2920,8306],[-20,18],[-135,4],[-67,30],[0,32],[-75,23],[-53,50]],[[2920,8306],[-110,-104],[-76,45],[-93,-63],[-202,-8]],[[2439,8176],[-51,60],[-67,28],[-31,29],[-19,52],[47,95],[4,34]],[[2976,8276],[5,-29],[-96,-206],[1,-112],[-115,-1],[-35,-64],[-1,-77],[-47,-52],[-17,-59]],[[2671,7676],[-41,23],[-22,-29],[-37,8],[-35,-30],[-102,-7],[-78,-33],[-31,5]],[[2325,7613],[33,52],[1,35],[53,111],[11,41],[51,41],[0,209],[-35,74]],[[3394,7819],[-74,-22],[-8,-39],[-59,-52],[-8,-70]],[[3245,7636],[-95,-72],[-58,-110],[-53,-8],[-45,-35],[-101,-9],[-83,13],[-88,56]],[[2722,7471],[-49,49],[-2,156]],[[2722,7471],[-2,-53],[69,-95],[65,-20],[-43,-32],[-39,-117],[-42,-27]],[[2730,7127],[-83,15],[-35,-26],[-38,-88],[-79,-2],[-47,70],[-20,60],[-38,33],[-143,43],[-18,24],[32,105],[4,97],[-19,23],[79,132]],[[3245,7636],[20,-14],[5,-135],[-16,-38],[10,-80],[23,-62],[-33,-35],[-5,-145],[14,-18],[2,-111],[-34,-56],[-61,-131],[-22,-29]],[[3148,6782],[-54,35],[-2,114],[-84,8],[-63,-51],[-57,64],[-65,108],[-93,67]],[[3329,6774],[-55,-75],[-126,83]],[[8679,3767],[-69,-130],[-28,-81],[-2,-86],[19,-98],[-48,-80],[-86,-58],[-28,-83],[-108,-25],[-63,-3]],[[8266,3123],[-21,53],[-84,108],[-6,57],[77,85],[4,75],[-46,87],[74,123],[54,37]],[[7688,4045],[83,-106],[-20,-146],[-78,-100],[-15,-43],[-5,-83]],[[7653,3567],[-19,-42],[-55,5],[-55,84],[1,84],[-18,17]],[[7507,3715],[16,20],[1,71],[32,117],[19,36],[-6,82],[-37,46],[5,57],[21,27]],[[7507,3715],[-50,-1],[-22,-44],[-60,46],[-75,15]],[[7300,3731],[-39,148],[31,34],[-3,93],[-63,80],[3,29],[-38,58],[4,39],[-21,67],[51,54],[11,31]],[[7300,3731],[-29,2],[-32,64],[-60,46]],[[7179,3843],[-87,49],[-127,20]],[[6965,3912],[-47,32]],[[6918,3944],[-17,68],[29,69],[32,34]],[[6962,4115],[62,72],[20,74],[-21,33],[34,67],[5,149]],[[7062,4510],[37,65],[-2,75],[50,50]],[[7062,4510],[-122,29],[-108,108],[-37,7],[-4,61],[-31,75],[-15,66],[-32,2],[-58,47],[-43,4],[-43,60],[-93,-1],[-17,-13],[-95,1]],[[6364,4956],[-73,150],[-35,43],[-40,-41],[-34,43],[-20,66],[3,78],[-16,31],[-14,103]],[[6962,4115],[-47,98],[-3,43],[-30,31],[-80,-71],[-86,109],[-34,-44],[-41,28],[-64,16],[-80,-15]],[[6497,4310],[-29,31]],[[6468,4341],[-103,117],[-13,36],[-2,183],[49,99],[-2,130],[-33,50]],[[6918,3944],[-83,16],[-68,-2],[-5,-31],[-91,14],[-38,-39],[-41,12]],[[6592,3914],[-7,17],[-3,148],[-50,108],[-18,63],[-15,31],[-2,29]],[[6468,4341],[-1,-92],[-30,-66],[-71,-61],[-47,-6],[-93,24],[-69,42]],[[6157,4182],[-56,91],[-7,31]],[[6094,4304],[-9,114],[-16,29],[-6,249]],[[6063,4696],[22,23],[15,61],[0,185],[-18,23],[7,76],[-81,168],[-100,28],[-14,95]],[[6592,3914],[-26,-23],[34,-126],[54,-68]],[[6654,3697],[-38,-57],[-38,-5],[-81,55],[-35,40]],[[6462,3730],[-114,164],[-91,50],[2,39],[-30,60],[-75,90],[3,49]],[[6063,4696],[-190,-1],[-51,60],[-22,57],[-32,-2],[-58,-56],[-38,-58],[-11,-89]],[[5661,4607],[-16,-43],[14,-94],[-17,-13],[-87,31],[-52,42],[5,29],[-36,47],[-67,55],[-61,101],[-66,39]],[[5278,4801],[-21,63],[4,70],[-22,35],[-106,66],[-32,6],[-181,146],[-78,81],[-57,27],[-97,65],[-159,71]],[[4529,5431],[1,19],[65,82],[50,0],[52,85],[34,19],[29,66]],[[4760,5702],[1,31]],[[4760,5702],[-74,-9],[-26,20],[-35,-20],[-46,4],[-26,48],[-105,19],[-3,143],[-16,15],[-15,129],[-6,107],[21,26],[-21,103],[-25,18],[-188,41],[-32,20],[12,54],[-48,93]],[[4127,6513],[10,26],[-5,415]],[[4529,5431],[-127,-85],[-53,-25],[-44,-85],[-54,-16]],[[4251,5220],[-47,-4],[-79,-60],[-143,31]],[[3982,5187],[2,24],[49,59],[7,71],[45,119],[30,29],[-81,48],[44,65],[49,-1],[0,51],[-48,-2],[-54,63],[-139,68]],[[3886,5781],[79,46],[47,48],[18,55],[-21,22],[-57,7],[-23,22],[49,73],[-14,41],[1,142],[32,78],[4,122],[83,63],[43,13]],[[3982,5187],[-60,0],[-84,32]],[[3838,5219],[-17,77],[15,79],[-63,30],[-66,82],[-117,36],[-3,119],[-51,44],[-39,14],[-30,-19],[-80,9],[5,91],[19,70]],[[3411,5851],[61,-40],[29,0],[50,41],[18,-13],[96,4],[43,60],[57,5],[-1,27],[56,19],[32,-140],[34,-33]],[[3411,5851],[-19,18],[-39,113],[-38,38]],[[3315,6020],[-13,72],[58,-22],[41,36],[25,48],[33,125],[-25,54],[0,61],[19,136],[-32,47],[-2,52],[16,45],[-37,55],[-20,96]],[[7894,2470],[-21,-18],[-4,-55],[-100,80],[96,63],[29,-70]],[[8031,2939],[49,-19],[38,-68],[-53,-20],[-110,22],[-1,66],[77,19]],[[8266,3123],[-10,-35],[-81,-88],[-84,59],[-13,-82],[-48,-16],[17,81],[-54,20],[-57,-37],[-83,15],[-16,29],[63,92],[-54,19],[-19,34],[52,21],[3,24],[-85,20]],[[7797,3279],[27,169],[-32,30],[-34,-8],[-105,97]],[[5278,4801],[-4,-141],[-23,-79],[10,-88],[64,-100],[49,-108],[69,-130],[40,-52],[-3,-47],[46,-21],[-1,-52],[-39,-66],[-135,-6],[-68,-46],[-65,-112],[11,-30]],[[5229,3723],[-5,-19],[-77,5],[-62,24],[-30,36],[-34,3]],[[5021,3772],[-7,47],[-66,54],[-26,44]],[[4922,3917],[-4,29],[28,53],[0,73],[32,54],[-2,60],[-17,52],[-60,63],[-76,59],[-39,1],[-140,40],[-39,97],[-11,92],[-121,93],[-33,36],[-22,133],[11,29],[-14,62],[-33,55],[-57,60],[-74,162]],[[5661,4607],[28,-21],[17,-131],[-17,-94],[84,-109],[-47,-50],[2,-80],[42,-14],[-17,-47],[-31,-9],[-43,-85],[-4,-160],[33,-47]],[[5708,3760],[-71,-54],[-52,25],[-149,-1]],[[5436,3730],[-53,-4],[-95,19],[-59,-22]],[[6094,4304],[-69,-117],[9,-149],[-14,-112],[-66,-117],[-52,-47]],[[5902,3762],[-32,-34]],[[5870,3728],[-51,-5],[-71,13],[-40,24]],[[4922,3917],[-74,-19],[-78,15],[-2,-30],[-52,-17],[-2,-46],[-61,-2],[-50,36],[-43,54],[-2,41],[-63,51],[-58,-19]],[[4437,3981],[-15,29],[52,58],[-20,40],[34,34],[-67,46],[-43,-10],[-88,70],[-36,-34],[-7,-54],[-50,-1],[-50,27],[-36,-13],[-101,6],[-22,15]],[[3988,4194],[-37,27],[-53,-1],[-81,52],[-72,18],[-200,21]],[[3545,4311],[-36,92],[104,105],[47,3],[37,56],[-5,37],[-84,74],[-80,56],[-52,111],[-119,34],[-105,82]],[[3252,4961],[44,33],[114,34],[64,46]],[[3474,5074],[65,2],[115,121],[2,19],[182,3]],[[3474,5074],[-1,95],[-44,82],[-53,31],[-98,-4],[-15,22],[-50,-6],[-72,-58],[-76,30],[-65,-16],[-62,83],[-33,-2],[-78,-48],[-75,0],[-88,59],[-3,84],[11,48],[-51,34],[-8,30]],[[2613,5538],[73,5],[57,55],[81,55],[59,-18],[62,2],[80,45],[98,80],[83,82],[52,32],[0,33],[35,34],[22,77]],[[3252,4961],[-103,-2],[-16,17],[-68,-62],[-131,1],[-54,-63]],[[2880,4852],[-83,14],[-31,-31],[-67,-14],[-72,-2],[-82,-29],[-92,55],[-20,1],[-68,-57],[-72,13],[-37,-35],[-23,-53],[-36,-6],[-73,65],[-58,7]],[[2066,4780],[73,88],[36,66],[-17,43],[64,89],[77,90],[34,2],[51,51],[0,39],[74,76],[107,93],[19,106],[29,15]],[[3545,4311],[-32,-42],[3,-39],[-54,-37],[-16,-80],[5,-68],[-67,-48],[-110,58]],[[3274,4055],[-103,55],[-52,56],[-53,86],[-15,51],[-128,146],[-23,40],[18,47],[-1,57]],[[2917,4593],[15,110],[-32,64],[-1,56],[-19,29]],[[2917,4593],[-98,1],[-52,-69],[-2,-41],[-76,-23],[-33,-28],[-54,17],[5,-43],[-154,-115],[-1,-28],[-67,-8]],[[2385,4256],[-95,7],[-88,36],[-37,29],[-89,9],[-108,32],[-95,39],[-27,25]],[[1846,4433],[-44,35],[6,108],[26,71]],[[1834,4647],[30,12],[56,-37],[61,60],[57,92],[28,6]],[[3274,4055],[-55,-56],[-37,-69],[-67,-58]],[[3115,3872],[-68,6],[-95,36],[-63,-23],[-56,-5],[-146,45],[-31,29],[-95,57]],[[2561,4017],[-71,109],[-52,52],[-53,78]],[[3988,4194],[-32,-74],[-92,-39],[-4,-48],[37,-35],[-67,-39],[9,-45],[-23,-73],[-38,-2],[1,-60],[80,-104],[21,-145],[-41,-69],[-64,-83]],[[3775,3378],[-66,-40],[-115,-54],[-83,-25],[-58,2],[-99,-17],[-60,-48],[-22,-114]],[[3272,3082],[-55,-50]],[[3217,3032],[-96,-10],[-112,109],[-61,17],[-75,-42],[-140,-1]],[[2733,3105],[9,46],[112,80],[86,112],[-1,33],[-31,48],[-2,56],[47,72],[18,80],[21,13],[123,1],[39,14],[32,82],[1,44],[-72,86]],[[4437,3981],[1,-21],[69,-65],[-87,-61],[-13,-43],[28,-35],[48,-16],[-24,-50],[17,-49],[63,-134],[-32,-79],[34,-91]],[[4541,3337],[-88,-29],[-129,-1],[-50,-76]],[[4274,3231],[-26,-4],[-105,-64],[-75,-26],[-75,58],[-62,15],[-34,53],[-98,52],[-24,63]],[[5021,3772],[-38,-53],[-14,-76],[-33,-81],[59,-32],[51,-63],[51,-24]],[[5097,3443],[3,-38]],[[5100,3405],[-54,26],[-89,-15],[-53,-23],[-79,-11],[-23,-63],[-30,-25],[-63,29],[-65,-17],[-39,30],[-64,1]],[[5100,3405],[3,-109]],[[5103,3296],[-60,-48],[-36,26],[-38,-60],[-52,-32]],[[4917,3182],[-33,42],[-64,33],[-53,-5],[-11,-39],[-66,-4],[-36,-42],[-67,-26],[-91,-7],[-29,-19],[-70,13],[-69,50],[-21,49],[-33,4]],[[2561,4017],[-8,-102],[-47,-45],[-41,0],[-71,-59],[64,-65],[-1,-112],[-32,-32]],[[2425,3602],[-51,0],[-53,-27],[-53,-5],[-55,27],[-93,-15],[-3,-23],[-121,-151],[-78,-4],[-30,-23],[-26,-53],[-63,121],[-1,54],[22,72],[-68,45],[-4,88],[-30,51],[-53,9]],[[1665,3768],[-47,55],[-48,5],[-5,74],[34,52],[35,25],[-1,152],[33,0],[48,52],[33,76],[-2,62],[101,112]],[[2733,3105],[-11,-6]],[[2722,3099],[-26,-15],[-90,0],[-94,33],[-41,-13],[-114,0],[-75,16]],[[2282,3120],[44,120],[38,38],[0,31],[46,41],[17,43],[0,74],[16,53],[-18,82]],[[2282,3120],[-46,-30],[-102,-2],[-49,31],[-74,-19],[-27,-48],[-49,-46]],[[1935,3006],[-87,-32],[-109,-71],[-75,9]],[[1664,2912],[-75,5],[-61,43],[-24,80],[-31,46]],[[1473,3086],[63,95],[18,72],[-37,49],[21,28],[13,107],[-44,49],[11,38],[-1,104],[82,63],[66,77]],[[1664,2912],[-9,-63],[-54,-56],[-79,-63],[70,-76],[32,-103],[1,-49],[43,-23],[20,-40],[-55,-32],[-88,8],[-166,78],[-80,2]],[[1299,2495],[-42,1],[-48,54]],[[1209,2550],[-9,14]],[[1200,2564],[28,40],[48,149],[34,73],[28,95],[1,145],[15,20]],[[1354,3086],[97,-13],[22,13]],[[1354,3086],[19,80],[-13,19],[25,108],[-29,54]],[[1356,3347],[4,76],[20,31],[-54,31],[-22,53],[45,82],[-41,79],[61,67],[-64,62],[-4,31],[-55,48],[-106,-1],[-48,36]],[[1092,3942],[-4,22],[82,153],[34,33],[-16,55],[66,69]],[[1254,4274],[98,6],[53,50],[46,74],[66,32],[30,48],[82,2],[54,80],[1,31],[87,16]],[[1771,4613],[63,34]],[[1356,3347],[-57,2],[-68,31],[-25,49],[-52,28],[-208,2],[-57,35],[-84,24]],[[805,3518],[23,53],[62,33],[32,61],[43,30],[9,64],[31,65],[70,60],[17,58]],[[805,3518],[-21,-33],[-64,-9],[-43,58]],[[677,3534],[96,138],[-2,140],[-33,74],[22,76],[9,95],[-7,75],[-15,23],[6,80],[53,42],[86,33],[35,-4],[78,47],[100,3]],[[1105,4356],[76,-19],[73,-63]],[[1105,4356],[43,77],[23,72],[62,43],[15,95],[-12,52],[25,38],[4,69],[90,78],[78,-37],[22,15],[14,56],[102,2],[115,12],[57,52],[40,-17],[-59,-42],[40,-41],[-19,-79],[31,-51],[-11,-77],[39,-42],[-33,-18]],[[1935,3006],[31,-45],[46,-38],[-18,-48],[121,-90],[4,-69],[-22,-19],[3,-129]],[[2100,2568],[-13,-44],[1,-116],[-82,-50],[-14,-57]],[[1992,2301],[-46,-4],[-175,-46]],[[1771,2251],[-26,12],[-68,-31],[-21,-38],[-59,0],[-5,41],[-61,47],[-51,78],[-65,19],[-58,-13],[-58,129]],[[1200,2564],[-100,26],[-92,-33],[-171,-88],[-106,-68],[-106,-3],[-104,-45],[-249,2]],[[272,2355],[-1,17]],[[271,2372],[54,29],[66,14],[139,54],[54,117],[18,77],[59,106],[118,2],[50,145],[-18,161],[-34,46],[-58,44],[-68,93],[-6,90],[-30,32],[-45,1]],[[570,3383],[9,33],[66,96],[32,22]],[[271,2372],[33,184],[25,80],[-31,39],[-9,177],[51,94],[73,83],[62,-1],[46,133],[24,128],[25,94]],[[2722,3099],[-2,-78],[73,-94],[-9,-57],[9,-111],[-13,-39],[-44,-52]],[[2736,2668],[-158,-34],[-8,-88],[-92,-18],[-28,13],[-85,-13],[-88,-128],[-72,0],[-50,75],[-16,58],[-39,35]],[[2736,2668],[21,-18],[85,-5],[10,-17]],[[2852,2628],[22,-38],[4,-107],[-32,-91],[-14,-93],[18,-54],[-18,-59],[81,-152],[16,-64],[57,-105],[8,-37]],[[2994,1828],[1,-55],[-56,-106],[-78,-171]],[[2861,1496],[-93,-60],[-113,1],[-66,-21],[-36,22],[-41,-2]],[[2512,1436],[-50,-2],[-66,108],[-119,60]],[[2277,1602],[25,44],[-9,66],[64,73],[-99,88],[-133,94],[-38,38],[18,70],[-40,44],[-83,8],[-18,27],[28,147]],[[3217,3032],[39,-98],[16,-95],[36,-89],[-73,-49],[-29,-110]],[[3206,2591],[-29,-48],[-69,29],[-33,45],[-88,20],[-16,31],[-52,2],[-67,-42]],[[3272,3082],[162,-6],[68,-84],[139,-54],[153,-113],[41,-21]],[[3835,2804],[-35,-39],[-47,-23],[-54,-59],[16,-66],[8,-196],[-3,-62],[56,-87],[46,-87],[-3,-68]],[[3819,2117],[-70,-13],[-27,34],[-167,-2],[-47,13],[-50,-16],[-46,-37],[-91,-2],[-63,81],[2,72]],[[3260,2247],[0,40],[27,49],[2,193],[-12,25],[-71,37]],[[6965,3912],[-8,-73],[-36,-60],[37,-36],[-20,-27],[11,-56],[-95,-95]],[[6854,3565],[-35,-27]],[[6819,3538],[-104,87],[-61,72]],[[7179,3843],[-9,-69],[27,-67],[-74,-38],[-10,-59],[-163,-70],[-96,25]],[[7774,2651],[-65,-3],[34,53],[51,4],[-20,-54]],[[7587,2986],[31,-6],[4,-70],[-91,32],[56,44]],[[7797,3279],[-14,-26],[-62,6],[-30,-21],[-6,-80],[8,-66],[-49,-15],[-56,-69],[-83,-6],[-29,30],[-70,-5],[-41,57],[-50,21],[1,59],[-48,60],[60,12],[54,31],[-27,48],[48,34],[-19,28],[-54,-47],[-21,-63],[-82,-1]],[[7227,3266],[-24,8]],[[7203,3274],[-121,49],[-64,55]],[[7018,3378],[-10,20],[-79,16],[-110,124]],[[1209,2550],[-11,-75],[2,-76],[59,-123],[-43,-62],[-35,-6]],[[1181,2208],[-62,49],[-99,30],[-36,-54],[-203,-171],[-71,-79],[-21,-64]],[[689,1919],[-77,1],[-41,94],[-255,84]],[[316,2098],[-99,17],[55,240]],[[1771,2251],[-32,-32],[2,-59],[30,-90],[-12,-54],[-67,-83]],[[1692,1933],[-120,-1],[-43,-26],[-99,0]],[[1430,1906],[-49,38],[-87,2],[-54,27],[53,41],[0,29],[-49,52],[-63,40],[0,73]],[[1692,1933],[19,-31],[-1,-80],[-49,-134],[18,-36],[-33,-38],[-3,-36]],[[1643,1578],[-45,-65],[-19,1],[-139,-145],[-106,-44]],[[1334,1325],[-76,14],[-22,-19]],[[1236,1320],[-74,81],[-44,9]],[[1118,1410],[-81,59],[-43,5],[-22,43],[19,22],[86,8]],[[1077,1547],[70,-12],[56,46],[73,17],[76,-14],[30,23],[31,118],[0,126],[17,55]],[[1077,1547],[7,55],[-27,41],[-35,-14],[-53,45],[-51,22],[-6,88],[31,43],[-70,45],[-118,96],[-53,-63]],[[702,1905],[-13,14]],[[1118,1410],[-49,-62],[-38,-18],[-97,-6]],[[934,1324],[-64,46]],[[870,1370],[-65,37],[-12,45],[-60,80],[-46,5],[-62,68],[12,59],[42,4],[25,87],[-16,25],[27,66],[-13,59]],[[2277,1602],[-61,3],[-79,-30],[-57,18],[-50,-27]],[[2030,1566],[-72,15],[-86,36],[-42,-20],[-98,15],[-89,-34]],[[2030,1566],[8,-73],[-14,-50],[20,-75],[-99,-136],[-14,-4]],[[1931,1228],[-59,-27],[-65,-4],[-55,-17],[-106,54],[-47,6],[-68,-37],[-19,12],[-77,-7],[-89,17],[-61,28],[46,37],[3,35]],[[870,1370],[-19,-54],[-80,-40],[-49,-65],[-50,-25],[-49,-67],[-78,-2]],[[545,1117],[-60,46],[-28,141],[-48,90],[-3,88],[-31,50],[21,47],[-79,6],[-39,38],[-19,45],[1,94],[15,21],[-1,110],[-46,30],[-45,-21]],[[183,1902],[-12,64],[46,149],[99,-17]],[[934,1324],[19,-34],[-36,-176],[-41,-29],[94,-81],[3,-98],[-35,-34],[-37,-70]],[[901,802],[-40,25],[-144,6],[-31,-60]],[[686,773],[-59,39]],[[627,812],[-79,118],[-49,91],[46,96]],[[627,812],[-47,-54],[-100,68],[-68,15],[-52,-26],[17,-50],[-30,-26]],[[347,739],[-109,42],[-107,19],[-73,39]],[[58,839],[-23,28],[19,63],[-24,94],[31,31],[36,1],[17,81],[22,48],[-21,94],[1,89],[19,85],[30,52],[-6,95],[31,47],[3,197],[-10,58]],[[347,739],[9,-33],[-45,-29],[33,-61],[78,-75],[-28,-38],[4,-39],[46,-66],[43,-95]],[[487,303],[-11,-36],[-46,-50],[-51,-4],[-79,34],[-89,-89],[-159,-4],[3,72],[19,33],[-22,96],[-10,120],[-42,63],[9,23],[4,136],[21,53],[-13,102],[37,-13]],[[686,773],[9,-44],[51,-74],[38,1],[-10,-68],[63,-21],[19,-39],[-60,-1],[-25,-27],[-28,-84]],[[743,416],[-48,-40],[-44,-60],[-6,-94],[16,-36],[-1,-94],[-28,-19]],[[632,73],[-37,85],[-47,74],[-61,71]],[[901,802],[4,-38],[49,-59]],[[954,705],[29,-82],[53,-36],[111,2],[10,-61],[57,-3],[73,61],[104,-1]],[[1391,585],[-2,-35],[-74,-102],[-112,-75],[-32,-1]],[[1171,372],[-93,49],[-76,68],[-88,15],[-79,-6],[-11,-95],[-81,13]],[[1171,372],[-21,-25],[-25,-107],[-48,-42],[-5,-31],[-107,-14],[-51,-75],[-68,14],[-50,-54],[-69,-27],[-65,-11],[-31,36],[1,37]],[[954,705],[108,42],[192,-2],[76,69]],[[1330,814],[65,-34],[82,-4],[28,-15]],[[1505,761],[-33,-76],[-13,-65],[-68,-35]],[[1236,1320],[16,-80],[-18,-21],[15,-142],[-15,-31],[2,-85],[19,-34],[45,-4],[1,-51],[29,-58]],[[1931,1228],[-19,-37],[24,-40],[5,-70],[-31,-1],[-50,-52],[-30,-50],[-65,-60],[0,-58],[-53,-83]],[[1712,777],[-37,4],[-43,-27],[-118,-7],[-9,14]],[[2512,1436],[-8,-84],[-16,-45],[-80,-81],[-72,16],[-45,-31],[3,-65],[-21,-18],[-31,-95],[3,-112],[24,-33]],[[2269,888],[-64,-45],[-70,-32],[-60,-56],[-31,-10],[-163,0],[-66,-19],[-95,31],[-8,20]],[[2861,1496],[55,-14],[87,-69],[79,-112],[-14,-62],[43,-61],[-39,-46],[-2,-31],[107,-84],[7,-87],[39,-58]],[[3223,872],[-178,-5],[-685,-7],[-91,28]],[[3260,2247],[-53,-39],[-13,-35],[-36,0],[-44,-60],[-100,-103],[15,-61],[35,-3],[28,-41]],[[3092,1905],[-28,-59],[-70,-18]],[[3092,1905],[97,-67],[47,-6],[79,-34],[58,-51],[31,-47],[81,-71]],[[3485,1629],[94,-57],[44,-90],[43,-4],[41,-45],[-24,-59]],[[3683,1374],[-87,-9],[15,-26],[-35,-96],[-38,-23],[-93,-158],[-31,-79],[-125,-1],[-26,-44],[81,-35]],[[3344,903],[19,-38],[-140,7]],[[3683,1374],[54,-7],[40,-73],[21,-1],[71,-78],[119,-12],[65,7]],[[4053,1210],[22,-66],[53,-6],[51,-56],[-4,-72],[28,-29],[-11,-49],[29,-28],[-10,-37],[-847,-2],[-20,38]],[[3485,1629],[10,51],[121,67],[108,35],[64,36],[54,92],[107,-10],[29,-33],[-7,-72],[65,-48],[-26,-110],[-25,-38],[86,-118],[17,-59],[37,-28]],[[4125,1394],[1,-16],[-69,-122],[-4,-46]],[[3819,2117],[36,36],[205,-4],[14,66]],[[4074,2215],[96,-11],[69,63],[66,-41],[70,-10],[9,52],[58,13],[70,78]],[[4512,2359],[26,15],[55,-39],[6,-81],[47,-24],[17,-67],[-69,-61],[-19,-54],[-39,-57],[-76,-78],[-151,-124],[-40,-81],[-64,-87],[-1,-83],[41,-23],[-120,-121]],[[3835,2804],[111,-12]],[[3946,2792],[33,-29],[58,-87],[29,-89],[-30,-193],[48,-117],[-10,-62]],[[3946,2792],[76,65],[78,-29],[92,-16],[68,-43]],[[4260,2769],[38,-25],[54,-65]],[[4352,2679],[90,-147],[71,-82]],[[4513,2450],[-13,-78],[12,-13]],[[4917,3182],[-12,-33],[-56,-18],[-31,-54],[-33,-4],[-81,-106],[-53,1],[-113,-64],[-61,14],[-44,-23],[-63,-5],[-86,-74],[-24,-47]],[[5103,3296],[76,-47],[-31,-83],[-74,4],[-34,-16],[-18,-83],[-31,-89],[-3,-79],[-43,-12],[-28,67],[-34,22],[-43,-18],[-58,4],[-94,-77],[-67,-31],[-93,-19],[-52,-61],[-52,-2],[-72,-97]],[[5097,3443],[151,-28],[71,-32],[78,-62],[19,-39],[-3,-75],[-55,-118],[-61,-18],[-63,-120],[-107,-41],[-11,-55],[-90,-71],[-13,-72],[12,-50],[57,-68]],[[5082,2594],[1,-176],[-471,-2],[-99,34]],[[5436,3730],[9,-45],[-28,-60],[148,-97],[30,-62],[-15,-49],[66,-67]],[[5646,3350],[-48,-38],[1,-50],[31,-36],[66,-3],[57,-47],[18,-59]],[[5771,3117],[-21,-50],[-51,-8],[45,-97],[-28,-29],[-1,-53],[-45,8],[10,-118],[-56,27],[-42,-12],[-31,49],[-55,-70],[-41,-32],[-91,68],[-3,-83],[13,-171],[-2,-127],[-288,1],[-2,174]],[[5870,3728],[1,-57],[-16,-38],[33,-40],[-24,-45],[-13,-67],[6,-51],[33,-30],[16,-72],[-14,-56]],[[5892,3272],[-49,34],[-45,79],[-58,66],[-42,2],[-48,-68],[-4,-35]],[[5892,3272],[2,-41],[-44,-39],[-39,-92]],[[5811,3100],[-40,17]],[[6462,3730],[-63,-86],[-12,-99],[33,-90],[-58,-9],[-77,-61],[-46,1]],[[6239,3386],[-50,68],[19,66],[-46,25],[-90,73],[-55,7],[-56,31],[-59,106]],[[6239,3386],[3,-96],[47,-38],[32,-57],[-19,-58],[-14,-89]],[[6288,3048],[-49,-42],[-19,-39],[-61,-19],[-49,4],[-3,-69],[-53,21],[-68,-11],[-63,-39],[-63,-3],[-23,16],[7,47],[140,72],[25,24],[-22,42],[-99,-71],[-84,1],[64,73],[-5,26],[-52,19]],[[7018,3378],[-126,-80],[-76,-31],[-20,-25],[3,-83],[-35,-54],[-76,-65],[-99,-105],[-128,-80],[-69,-30],[-72,-7],[-24,20],[7,50],[-36,12],[8,61],[33,72],[-20,15]],[[5206,1736],[-61,30],[63,58],[30,-32],[-32,-56]],[[5383,1959],[-91,-53],[-23,43],[42,26],[72,-16]],[[5596,1958],[35,-10],[-46,-94],[-33,-3],[-10,-53],[-55,-9],[-29,22],[73,50],[-14,20],[35,65],[44,12]],[[5462,2066],[76,12],[-16,-59],[-80,-28],[-23,8],[43,67]],[[5780,2120],[-3,-27],[-62,-21],[-34,15],[22,41],[40,-17],[37,9]],[[5275,2294],[50,-38],[12,-55],[-30,-3],[-106,82],[-28,68],[44,13],[58,-67]],[[5120,2339],[-15,51],[66,-19],[-51,-32]],[[5216,1991],[16,-33],[-39,-30],[-41,57],[20,57],[46,-19],[-2,-32]],[[4752,2301],[41,-19],[83,11],[30,-27],[43,26],[47,-15],[-73,-85],[7,-55],[157,8],[40,-24],[54,20],[25,-33],[-65,-72],[-2,-27],[23,-55],[13,-127],[-93,-33],[-79,28],[0,-27],[-53,-32],[-10,-48],[-32,-16],[-39,56],[50,83],[27,82],[39,18],[41,54],[44,-12],[-17,80],[-34,26],[-97,-8],[-57,8],[-53,24],[7,46],[-27,45],[-44,-1],[-38,42],[31,17],[11,42]],[[6063,2594],[26,-34],[36,24],[37,-19],[-2,-45],[-85,-55],[-67,-7],[-56,26],[-71,10],[22,46],[66,-8],[11,70],[28,13],[55,-21]],[[6144,2766],[12,-41],[-47,-79],[-43,-29],[-39,63],[3,24],[90,79],[24,-17]],[[6408,2736],[-47,-51],[-47,7],[3,31],[91,13]],[[7091,2782],[-34,-12],[-47,-50],[-25,-4],[-25,62],[21,45],[62,5],[48,-46]],[[6732,2902],[-49,-55],[-19,54],[68,1]],[[6794,3013],[72,-1],[-53,-100],[-19,101]],[[7227,3266],[34,-95],[-56,-84],[-77,-3],[-5,-23],[25,-93],[-29,-13],[2,-116],[-39,44],[-40,20],[-42,103],[-64,-14],[-46,79],[111,-22],[-31,63],[-80,49],[8,46],[84,54],[87,10],[-2,-64],[77,-22],[59,89]]],"transform":{"scale":[0.0005275836031934301,0.0005456749649905608],"translate":[29.56838226242064,-1.472267156645842]},"objects":{"UGA":{"type":"GeometryCollection","geometries":[{"arcs":[[0,1,2,3]],"type":"Polygon","properties":{"name":"Dodoth","shapeGroup":"UGA","gid":"UGA-2-0"},"id":"UGA-2-0"},{"arcs":[[-3,4,5,6,7,8]],"type":"Polygon","properties":{"name":"Chua","shapeGroup":"UGA","gid":"UGA-2-1"},"id":"UGA-2-1"},{"arcs":[[-8,9,10,11,12]],"type":"Polygon","properties":{"name":"Lamwo","shapeGroup":"UGA","gid":"UGA-2-2"},"id":"UGA-2-2"},{"arcs":[[-7,13,14,15,16,17,18,-10]],"type":"Polygon","properties":{"name":"Aruu","shapeGroup":"UGA","gid":"UGA-2-3"},"id":"UGA-2-3"},{"arcs":[[-6,19,20,21,-14]],"type":"Polygon","properties":{"name":"Agago","shapeGroup":"UGA","gid":"UGA-2-4"},"id":"UGA-2-4"},{"arcs":[[-2,22,23,24,-20,-5]],"type":"Polygon","properties":{"name":"Jie","shapeGroup":"UGA","gid":"UGA-2-5"},"id":"UGA-2-5"},{"arcs":[[-21,-25,25,26]],"type":"Polygon","properties":{"name":"Labwor","shapeGroup":"UGA","gid":"UGA-2-6"},"id":"UGA-2-6"},{"arcs":[[-1,27,28,29,30,-23]],"type":"Polygon","properties":{"name":"Matheniko","shapeGroup":"UGA","gid":"UGA-2-7"},"id":"UGA-2-7"},{"arcs":[[-24,-31,31,32,33,34,-26]],"type":"Polygon","properties":{"name":"Bokora","shapeGroup":"UGA","gid":"UGA-2-8"},"id":"UGA-2-8"},{"arcs":[[-30,35,36,37,38,-32]],"type":"Polygon","properties":{"name":"Pian","shapeGroup":"UGA","gid":"UGA-2-9"},"id":"UGA-2-9"},{"arcs":[[-37,39,40,41,42,43]],"type":"Polygon","properties":{"name":"Chekwii","shapeGroup":"UGA","gid":"UGA-2-10"},"id":"UGA-2-10"},{"arcs":[[-29,44,45,46,-40,-36]],"type":"Polygon","properties":{"name":"Pokot","shapeGroup":"UGA","gid":"UGA-2-11"},"id":"UGA-2-11"},{"arcs":[[-33,-39,47,48,49,50,51]],"type":"Polygon","properties":{"name":"Usuk","shapeGroup":"UGA","gid":"UGA-2-12"},"id":"UGA-2-12"},{"arcs":[[-34,-52,52,53,54]],"type":"Polygon","properties":{"name":"Soroti","shapeGroup":"UGA","gid":"UGA-2-13"},"id":"UGA-2-13"},{"arcs":[[-51,55,56,57,-53]],"type":"Polygon","properties":{"name":"Amuria","shapeGroup":"UGA","gid":"UGA-2-14"},"id":"UGA-2-14"},{"arcs":[[-15,-22,-27,-35,-55,58,59]],"type":"Polygon","properties":{"name":"Otuke","shapeGroup":"UGA","gid":"UGA-2-15"},"id":"UGA-2-15"},{"arcs":[[-54,-58,60,61,62,-59]],"type":"Polygon","properties":{"name":"Moroto","shapeGroup":"UGA","gid":"UGA-2-16"},"id":"UGA-2-16"},{"arcs":[[-16,-60,-63,63,64,65,66]],"type":"Polygon","properties":{"name":"Erute","shapeGroup":"UGA","gid":"UGA-2-17"},"id":"UGA-2-17"},{"arcs":[[-66,67,68,69]],"type":"Polygon","properties":{"name":"Kole","shapeGroup":"UGA","gid":"UGA-2-18"},"id":"UGA-2-18"},{"arcs":[[-69,70,71,72,73,74]],"type":"Polygon","properties":{"name":"Maruzi","shapeGroup":"UGA","gid":"UGA-2-19"},"id":"UGA-2-19"},{"arcs":[[-65,75,76,-71,-68]],"type":"Polygon","properties":{"name":"Kwania","shapeGroup":"UGA","gid":"UGA-2-20"},"id":"UGA-2-20"},{"arcs":[[-17,-67,-70,-75,77,78,79]],"type":"Polygon","properties":{"name":"Oyam","shapeGroup":"UGA","gid":"UGA-2-21"},"id":"UGA-2-21"},{"arcs":[[-18,-80,80,81]],"type":"Polygon","properties":{"name":"Omoro","shapeGroup":"UGA","gid":"UGA-2-22"},"id":"UGA-2-22"},{"arcs":[[-11,-19,-82,82,83]],"type":"Polygon","properties":{"name":"Aswa","shapeGroup":"UGA","gid":"UGA-2-23"},"id":"UGA-2-23"},{"arcs":[[-62,84,85,86,-76,-64]],"type":"Polygon","properties":{"name":"Dokolo","shapeGroup":"UGA","gid":"UGA-2-24"},"id":"UGA-2-24"},{"arcs":[[-57,87,88,89,-85,-61]],"type":"Polygon","properties":{"name":"Kalaki","shapeGroup":"UGA","gid":"UGA-2-25"},"id":"UGA-2-25"},{"arcs":[[-86,-90,90,91,92]],"type":"Polygon","properties":{"name":"Kaberamaido","shapeGroup":"UGA","gid":"UGA-2-26"},"id":"UGA-2-26"},{"arcs":[[-89,93,94,95,96,-91]],"type":"Polygon","properties":{"name":"Kasilo","shapeGroup":"UGA","gid":"UGA-2-27"},"id":"UGA-2-27"},{"arcs":[[-72,-77,-87,-93,97,98,99]],"type":"Polygon","properties":{"name":"Kioga","shapeGroup":"UGA","gid":"UGA-2-28"},"id":"UGA-2-28"},{"arcs":[[-95,100,101,102]],"type":"Polygon","properties":{"name":"Serere","shapeGroup":"UGA","gid":"UGA-2-29"},"id":"UGA-2-29"},{"arcs":[[-50,103,-101,-94,-88,-56]],"type":"Polygon","properties":{"name":"Soroti","shapeGroup":"UGA","gid":"UGA-2-30"},"id":"UGA-2-30"},{"arcs":[[-49,104,105,-102,-104]],"type":"Polygon","properties":{"name":"Ngora","shapeGroup":"UGA","gid":"UGA-2-31"},"id":"UGA-2-31"},{"arcs":[[-38,-44,106,107,108,-105,-48]],"type":"Polygon","properties":{"name":"Kumi","shapeGroup":"UGA","gid":"UGA-2-32"},"id":"UGA-2-32"},{"arcs":[[-43,109,110,111,112,-107]],"type":"Polygon","properties":{"name":"Bukedea","shapeGroup":"UGA","gid":"UGA-2-33"},"id":"UGA-2-33"},{"arcs":[[-42,113,114,115,116,117,118,-110]],"type":"Polygon","properties":{"name":"Bulambuli","shapeGroup":"UGA","gid":"UGA-2-34"},"id":"UGA-2-34"},{"arcs":[[-115,119]],"type":"Polygon","properties":{"name":"Tingey","shapeGroup":"UGA","gid":"UGA-2-35"},"id":"UGA-2-35"},{"arcs":[[-41,-47,120,-116,-120,-114]],"type":"Polygon","properties":{"name":"Kween","shapeGroup":"UGA","gid":"UGA-2-36"},"id":"UGA-2-36"},{"arcs":[[-46,121,122,-117,-121]],"type":"Polygon","properties":{"name":"Kongasis","shapeGroup":"UGA","gid":"UGA-2-37"},"id":"UGA-2-37"},{"arcs":[[-111,-119,123,124]],"type":"Polygon","properties":{"name":"Budadiri","shapeGroup":"UGA","gid":"UGA-2-38"},"id":"UGA-2-38"},{"arcs":[[-118,-123,125,126,127,-124]],"type":"Polygon","properties":{"name":"Manjiya","shapeGroup":"UGA","gid":"UGA-2-39"},"id":"UGA-2-39"},{"arcs":[[-127,128,129,130]],"type":"Polygon","properties":{"name":"Bubulo","shapeGroup":"UGA","gid":"UGA-2-40"},"id":"UGA-2-40"},{"arcs":[[-112,-125,-128,-131,131,132,133,134]],"type":"Polygon","properties":{"name":"Bungokho","shapeGroup":"UGA","gid":"UGA-2-41"},"id":"UGA-2-41"},{"arcs":[[-108,-113,-135,135,136,137]],"type":"Polygon","properties":{"name":"Butebo","shapeGroup":"UGA","gid":"UGA-2-42"},"id":"UGA-2-42"},{"arcs":[[-134,138,139,-136]],"type":"Polygon","properties":{"name":"Budaka","shapeGroup":"UGA","gid":"UGA-2-43"},"id":"UGA-2-43"},{"arcs":[[-96,-103,-106,-109,-138,140,141,142,143]],"type":"Polygon","properties":{"name":"Pallisa","shapeGroup":"UGA","gid":"UGA-2-44"},"id":"UGA-2-44"},{"arcs":[[-137,-140,144,145,-141]],"type":"Polygon","properties":{"name":"Kibuku","shapeGroup":"UGA","gid":"UGA-2-45"},"id":"UGA-2-45"},{"arcs":[[-133,146,147,148,149,-145,-139]],"type":"Polygon","properties":{"name":"Bunyole","shapeGroup":"UGA","gid":"UGA-2-46"},"id":"UGA-2-46"},{"arcs":[[-130,150,151,152,-147,-132]],"type":"Polygon","properties":{"name":"Tororo","shapeGroup":"UGA","gid":"UGA-2-47"},"id":"UGA-2-47"},{"arcs":[[-148,-153,153,154]],"type":"Polygon","properties":{"name":"West Budama","shapeGroup":"UGA","gid":"UGA-2-48"},"id":"UGA-2-48"},{"arcs":[[-142,-146,-150,155,156,157,158]],"type":"Polygon","properties":{"name":"Busiki","shapeGroup":"UGA","gid":"UGA-2-49"},"id":"UGA-2-49"},{"arcs":[[-143,-159,159,160,161]],"type":"Polygon","properties":{"name":"Bulamogi","shapeGroup":"UGA","gid":"UGA-2-50"},"id":"UGA-2-50"},{"arcs":[[-12,-84,162,163,164,165,166]],"type":"Polygon","properties":{"name":"Kilak","shapeGroup":"UGA","gid":"UGA-2-51"},"id":"UGA-2-51"},{"arcs":[[-79,167,168,169,170,-163,-83,-81]],"type":"Polygon","properties":{"name":"Nwoya","shapeGroup":"UGA","gid":"UGA-2-52"},"id":"UGA-2-52"},{"arcs":[[-166,171,172,173,174]],"type":"Polygon","properties":{"name":"East Moyo","shapeGroup":"UGA","gid":"UGA-2-53"},"id":"UGA-2-53"},{"arcs":[[-174,175,176,177]],"type":"Polygon","properties":{"name":"West Moyo","shapeGroup":"UGA","gid":"UGA-2-54"},"id":"UGA-2-54"},{"arcs":[[-173,178,179,-176]],"type":"Polygon","properties":{"name":"Obongi","shapeGroup":"UGA","gid":"UGA-2-55"},"id":"UGA-2-55"},{"arcs":[[-177,-180,180,181,182,183,184]],"type":"Polygon","properties":{"name":"Aringa","shapeGroup":"UGA","gid":"UGA-2-56"},"id":"UGA-2-56"},{"arcs":[[-184,185,186]],"type":"Polygon","properties":{"name":"Koboko","shapeGroup":"UGA","gid":"UGA-2-57"},"id":"UGA-2-57"},{"arcs":[[-183,187,188,189,-186]],"type":"Polygon","properties":{"name":"Maracha","shapeGroup":"UGA","gid":"UGA-2-58"},"id":"UGA-2-58"},{"arcs":[[-182,190,191,192,-188]],"type":"Polygon","properties":{"name":"Terego","shapeGroup":"UGA","gid":"UGA-2-59"},"id":"UGA-2-59"},{"arcs":[[-189,-193,193,194]],"type":"Polygon","properties":{"name":"Ayivu","shapeGroup":"UGA","gid":"UGA-2-60"},"id":"UGA-2-60"},{"arcs":[[-192,195,196,197,-194]],"type":"Polygon","properties":{"name":"Vurra","shapeGroup":"UGA","gid":"UGA-2-61"},"id":"UGA-2-61"},{"arcs":[[-165,198,199,200,-196,-191,-181,-179,-172]],"type":"Polygon","properties":{"name":"Madi-Okollo","shapeGroup":"UGA","gid":"UGA-2-62"},"id":"UGA-2-62"},{"arcs":[[-197,-201,201,202]],"type":"Polygon","properties":{"name":"Okoro","shapeGroup":"UGA","gid":"UGA-2-63"},"id":"UGA-2-63"},{"arcs":[[-200,203,204,-202]],"type":"Polygon","properties":{"name":"Padyere","shapeGroup":"UGA","gid":"UGA-2-64"},"id":"UGA-2-64"},{"arcs":[[-164,-171,205,-204,-199]],"type":"Polygon","properties":{"name":"Jonam","shapeGroup":"UGA","gid":"UGA-2-65"},"id":"UGA-2-65"},{"arcs":[[-152,206,207,-154]],"type":"Polygon","properties":{"name":"Samia-Bugwe","shapeGroup":"UGA","gid":"UGA-2-66"},"id":"UGA-2-66"},{"arcs":[[-157,208,209,210]],"type":"Polygon","properties":{"name":"Bugweri","shapeGroup":"UGA","gid":"UGA-2-67"},"id":"UGA-2-67"},{"arcs":[[-158,-211,211,212,-160]],"type":"Polygon","properties":{"name":"Kigulu","shapeGroup":"UGA","gid":"UGA-2-68"},"id":"UGA-2-68"},{"arcs":[[-161,-213,213,214,215,216,217,218]],"type":"Polygon","properties":{"name":"Luuka","shapeGroup":"UGA","gid":"UGA-2-69"},"id":"UGA-2-69"},{"arcs":[[-92,-97,-144,-162,-219,219,220,-98]],"type":"Polygon","properties":{"name":"Budiope","shapeGroup":"UGA","gid":"UGA-2-70"},"id":"UGA-2-70"},{"arcs":[[-218,221,222,223,-220]],"type":"Polygon","properties":{"name":"Bugabula","shapeGroup":"UGA","gid":"UGA-2-71"},"id":"UGA-2-71"},{"arcs":[[-217,224,225,-222]],"type":"Polygon","properties":{"name":"Buzaaya","shapeGroup":"UGA","gid":"UGA-2-72"},"id":"UGA-2-72"},{"arcs":[[-99,-221,-224,226,227,228,229]],"type":"Polygon","properties":{"name":"Bbaale","shapeGroup":"UGA","gid":"UGA-2-73"},"id":"UGA-2-73"},{"arcs":[[-223,-226,230,231,232,-227]],"type":"Polygon","properties":{"name":"Ntenjeru","shapeGroup":"UGA","gid":"UGA-2-74"},"id":"UGA-2-74"},{"arcs":[[-73,-100,-230,233,234,235,236,237]],"type":"Polygon","properties":{"name":"Buruli","shapeGroup":"UGA","gid":"UGA-2-75"},"id":"UGA-2-75"},{"arcs":[[-74,-238,238,239,-168,-78]],"type":"Polygon","properties":{"name":"Kibanda","shapeGroup":"UGA","gid":"UGA-2-76"},"id":"UGA-2-76"},{"arcs":[[-237,240,241,242,243,-239]],"type":"Polygon","properties":{"name":"Buruuli","shapeGroup":"UGA","gid":"UGA-2-77"},"id":"UGA-2-77"},{"arcs":[[-243,244,245,246]],"type":"Polygon","properties":{"name":"Bujenje","shapeGroup":"UGA","gid":"UGA-2-78"},"id":"UGA-2-78"},{"arcs":[[-169,-240,-244,-247,247,248]],"type":"Polygon","properties":{"name":"Buliisa","shapeGroup":"UGA","gid":"UGA-2-79"},"id":"UGA-2-79"},{"arcs":[[[249]],[[250]],[[-149,-155,-208,251,252,-209,-156]]],"type":"MultiPolygon","properties":{"name":"Bukooli","shapeGroup":"UGA","gid":"UGA-2-80"},"id":"UGA-2-80"},{"arcs":[[-236,253,254,255,256,-241]],"type":"Polygon","properties":{"name":"Nakaseke","shapeGroup":"UGA","gid":"UGA-2-81"},"id":"UGA-2-81"},{"arcs":[[-235,257,258,259,-254]],"type":"Polygon","properties":{"name":"Katikamu","shapeGroup":"UGA","gid":"UGA-2-82"},"id":"UGA-2-82"},{"arcs":[[-229,260,261,262,-258,-234]],"type":"Polygon","properties":{"name":"Bamunanika","shapeGroup":"UGA","gid":"UGA-2-83"},"id":"UGA-2-83"},{"arcs":[[-242,-257,263,264,265,266,267,268,-245]],"type":"Polygon","properties":{"name":"Kiboga","shapeGroup":"UGA","gid":"UGA-2-84"},"id":"UGA-2-84"},{"arcs":[[-246,-269,269,270,-248]],"type":"Polygon","properties":{"name":"Bugahya","shapeGroup":"UGA","gid":"UGA-2-85"},"id":"UGA-2-85"},{"arcs":[[-268,271,272,273,-270]],"type":"Polygon","properties":{"name":"Buhaguzi","shapeGroup":"UGA","gid":"UGA-2-86"},"id":"UGA-2-86"},{"arcs":[[-267,274,275,276,-272]],"type":"Polygon","properties":{"name":"Bugangaizi","shapeGroup":"UGA","gid":"UGA-2-87"},"id":"UGA-2-87"},{"arcs":[[-273,-277,277,278,279,280]],"type":"Polygon","properties":{"name":"Buyaga","shapeGroup":"UGA","gid":"UGA-2-88"},"id":"UGA-2-88"},{"arcs":[[-276,281,282,283,-278]],"type":"Polygon","properties":{"name":"Buyanja","shapeGroup":"UGA","gid":"UGA-2-89"},"id":"UGA-2-89"},{"arcs":[[-266,284,285,286,287,288,-282,-275]],"type":"Polygon","properties":{"name":"Buwekula","shapeGroup":"UGA","gid":"UGA-2-90"},"id":"UGA-2-90"},{"arcs":[[-265,289,290,291,-285]],"type":"Polygon","properties":{"name":"Kassanda","shapeGroup":"UGA","gid":"UGA-2-91"},"id":"UGA-2-91"},{"arcs":[[-256,292,293,294,-290,-264]],"type":"Polygon","properties":{"name":"Mityana","shapeGroup":"UGA","gid":"UGA-2-92"},"id":"UGA-2-92"},{"arcs":[[-291,-295,295,296,297]],"type":"Polygon","properties":{"name":"Busujju","shapeGroup":"UGA","gid":"UGA-2-93"},"id":"UGA-2-93"},{"arcs":[[-279,-284,298,299,300]],"type":"Polygon","properties":{"name":"Mwenge","shapeGroup":"UGA","gid":"UGA-2-94"},"id":"UGA-2-94"},{"arcs":[[-283,-289,301,302,303,-299]],"type":"Polygon","properties":{"name":"Kyaka","shapeGroup":"UGA","gid":"UGA-2-95"},"id":"UGA-2-95"},{"arcs":[[-300,-304,304,305,306,307]],"type":"Polygon","properties":{"name":"Kibale","shapeGroup":"UGA","gid":"UGA-2-96"},"id":"UGA-2-96"},{"arcs":[[-307,308,309,310,311,312]],"type":"Polygon","properties":{"name":"Kitagwenda","shapeGroup":"UGA","gid":"UGA-2-97"},"id":"UGA-2-97"},{"arcs":[[-280,-301,-308,-313,313,314,315,316,317]],"type":"Polygon","properties":{"name":"Burahya","shapeGroup":"UGA","gid":"UGA-2-98"},"id":"UGA-2-98"},{"arcs":[[-315,318,319]],"type":"Polygon","properties":{"name":"Bunyangabu","shapeGroup":"UGA","gid":"UGA-2-99"},"id":"UGA-2-99"},{"arcs":[[-316,-320,320,321,322]],"type":"Polygon","properties":{"name":"Bughendra","shapeGroup":"UGA","gid":"UGA-2-100"},"id":"UGA-2-100"},{"arcs":[[-317,-323,323]],"type":"Polygon","properties":{"name":"Ntoroko","shapeGroup":"UGA","gid":"UGA-2-101"},"id":"UGA-2-101"},{"arcs":[[-306,324,325,326,327,-309]],"type":"Polygon","properties":{"name":"Ibanda","shapeGroup":"UGA","gid":"UGA-2-102"},"id":"UGA-2-102"},{"arcs":[[-312,328,329,330,331,-321,-319,-314]],"type":"Polygon","properties":{"name":"Busongora","shapeGroup":"UGA","gid":"UGA-2-103"},"id":"UGA-2-103"},{"arcs":[[-331,332]],"type":"Polygon","properties":{"name":"Bukonjo","shapeGroup":"UGA","gid":"UGA-2-104"},"id":"UGA-2-104"},{"arcs":[[-303,333,334,-325,-305]],"type":"Polygon","properties":{"name":"Kazo","shapeGroup":"UGA","gid":"UGA-2-105"},"id":"UGA-2-105"},{"arcs":[[-326,-335,335,336,337,338,339,340]],"type":"Polygon","properties":{"name":"Nyabushozi","shapeGroup":"UGA","gid":"UGA-2-106"},"id":"UGA-2-106"},{"arcs":[[-288,341,342,-336,-334,-302]],"type":"Polygon","properties":{"name":"Lwemiyaga","shapeGroup":"UGA","gid":"UGA-2-107"},"id":"UGA-2-107"},{"arcs":[[-287,343,344,345,346,-342]],"type":"Polygon","properties":{"name":"Mawogola","shapeGroup":"UGA","gid":"UGA-2-108"},"id":"UGA-2-108"},{"arcs":[[-216,347,348,349,-231,-225]],"type":"Polygon","properties":{"name":"Kagoma","shapeGroup":"UGA","gid":"UGA-2-109"},"id":"UGA-2-109"},{"arcs":[[-215,350,-348]],"type":"Polygon","properties":{"name":"Butembe","shapeGroup":"UGA","gid":"UGA-2-110"},"id":"UGA-2-110"},{"arcs":[[[351]],[[352]],[[-210,-253,353,354,355,356,-349,-351,-214,-212]]],"type":"MultiPolygon","properties":{"name":"Bunya","shapeGroup":"UGA","gid":"UGA-2-111"},"id":"UGA-2-111"},{"arcs":[[-311,357,358,359,360,-329]],"type":"Polygon","properties":{"name":"Bunyaruguru","shapeGroup":"UGA","gid":"UGA-2-112"},"id":"UGA-2-112"},{"arcs":[[-310,-328,361,362,363,-358]],"type":"Polygon","properties":{"name":"Buhweju","shapeGroup":"UGA","gid":"UGA-2-113"},"id":"UGA-2-113"},{"arcs":[[-363,364,365,366,367,368,369]],"type":"Polygon","properties":{"name":"Sheema","shapeGroup":"UGA","gid":"UGA-2-114"},"id":"UGA-2-114"},{"arcs":[[-359,-364,-370,370,371]],"type":"Polygon","properties":{"name":"Igara","shapeGroup":"UGA","gid":"UGA-2-115"},"id":"UGA-2-115"},{"arcs":[[-369,372,373,374,-371]],"type":"Polygon","properties":{"name":"Ruhinda","shapeGroup":"UGA","gid":"UGA-2-116"},"id":"UGA-2-116"},{"arcs":[[-327,-341,375,376,-365,-362]],"type":"Polygon","properties":{"name":"Kashari","shapeGroup":"UGA","gid":"UGA-2-117"},"id":"UGA-2-117"},{"arcs":[[-366,-377,377,378]],"type":"Polygon","properties":{"name":"Rwampara","shapeGroup":"UGA","gid":"UGA-2-118"},"id":"UGA-2-118"},{"arcs":[[-360,-372,-375,379,380,381]],"type":"Polygon","properties":{"name":"Bujumbura","shapeGroup":"UGA","gid":"UGA-2-119"},"id":"UGA-2-119"},{"arcs":[[-374,382,383,384,385,-380]],"type":"Polygon","properties":{"name":"Rubabo","shapeGroup":"UGA","gid":"UGA-2-120"},"id":"UGA-2-120"},{"arcs":[[-381,-386,386,387,388]],"type":"Polygon","properties":{"name":"Kinkiizi","shapeGroup":"UGA","gid":"UGA-2-121"},"id":"UGA-2-121"},{"arcs":[[-388,389,390]],"type":"Polygon","properties":{"name":"Bufumbira","shapeGroup":"UGA","gid":"UGA-2-122"},"id":"UGA-2-122"},{"arcs":[[-385,391,392,393,-390,-387]],"type":"Polygon","properties":{"name":"Rubanda","shapeGroup":"UGA","gid":"UGA-2-123"},"id":"UGA-2-123"},{"arcs":[[-384,394,395,396,397,-392]],"type":"Polygon","properties":{"name":"Rukiga","shapeGroup":"UGA","gid":"UGA-2-124"},"id":"UGA-2-124"},{"arcs":[[-393,-398,398]],"type":"Polygon","properties":{"name":"Ndorwa","shapeGroup":"UGA","gid":"UGA-2-125"},"id":"UGA-2-125"},{"arcs":[[-396,399,400,401]],"type":"Polygon","properties":{"name":"Rushenyi","shapeGroup":"UGA","gid":"UGA-2-126"},"id":"UGA-2-126"},{"arcs":[[-368,402,-400,-395,-383,-373]],"type":"Polygon","properties":{"name":"Kajara","shapeGroup":"UGA","gid":"UGA-2-127"},"id":"UGA-2-127"},{"arcs":[[-367,-379,403,404,-401,-403]],"type":"Polygon","properties":{"name":"Ruhaama","shapeGroup":"UGA","gid":"UGA-2-128"},"id":"UGA-2-128"},{"arcs":[[-340,405,406,-404,-378,-376]],"type":"Polygon","properties":{"name":"Isingiro","shapeGroup":"UGA","gid":"UGA-2-129"},"id":"UGA-2-129"},{"arcs":[[-339,407,408,-406]],"type":"Polygon","properties":{"name":"Bukanga","shapeGroup":"UGA","gid":"UGA-2-130"},"id":"UGA-2-130"},{"arcs":[[-337,-343,-347,409,410]],"type":"Polygon","properties":{"name":"Kabula","shapeGroup":"UGA","gid":"UGA-2-131"},"id":"UGA-2-131"},{"arcs":[[-338,-411,411,412,413,414,-408]],"type":"Polygon","properties":{"name":"Kooki","shapeGroup":"UGA","gid":"UGA-2-132"},"id":"UGA-2-132"},{"arcs":[[-414,415,416]],"type":"Polygon","properties":{"name":"Kakuuto","shapeGroup":"UGA","gid":"UGA-2-133"},"id":"UGA-2-133"},{"arcs":[[-413,417,418,-416]],"type":"Polygon","properties":{"name":"Kyotera","shapeGroup":"UGA","gid":"UGA-2-134"},"id":"UGA-2-134"},{"arcs":[[-346,419,420,421,-418,-412,-410]],"type":"Polygon","properties":{"name":"Bukuto","shapeGroup":"UGA","gid":"UGA-2-135"},"id":"UGA-2-135"},{"arcs":[[-345,422,423,-420]],"type":"Polygon","properties":{"name":"Bukomansimbi","shapeGroup":"UGA","gid":"UGA-2-136"},"id":"UGA-2-136"},{"arcs":[[-421,-424,424,425,426,427]],"type":"Polygon","properties":{"name":"Kalungu","shapeGroup":"UGA","gid":"UGA-2-137"},"id":"UGA-2-137"},{"arcs":[[-286,-292,-298,428,-425,-423,-344]],"type":"Polygon","properties":{"name":"Gomba","shapeGroup":"UGA","gid":"UGA-2-138"},"id":"UGA-2-138"},{"arcs":[[-297,429,-426,-429]],"type":"Polygon","properties":{"name":"Butambala","shapeGroup":"UGA","gid":"UGA-2-139"},"id":"UGA-2-139"},{"arcs":[[-294,430,431,-427,-430,-296]],"type":"Polygon","properties":{"name":"Mawokota","shapeGroup":"UGA","gid":"UGA-2-140"},"id":"UGA-2-140"},{"arcs":[[-255,-260,432,433,434,-431,-293]],"type":"Polygon","properties":{"name":"Busiro","shapeGroup":"UGA","gid":"UGA-2-141"},"id":"UGA-2-141"},{"arcs":[[-259,-263,435,436,-433]],"type":"Polygon","properties":{"name":"Kyadondo","shapeGroup":"UGA","gid":"UGA-2-142"},"id":"UGA-2-142"},{"arcs":[[-434,-437,437,438]],"type":"Polygon","properties":{"name":"Kampala","shapeGroup":"UGA","gid":"UGA-2-143"},"id":"UGA-2-143"},{"arcs":[[-228,-233,439,440,-261]],"type":"Polygon","properties":{"name":"Nakifuma","shapeGroup":"UGA","gid":"UGA-2-144"},"id":"UGA-2-144"},{"arcs":[[-262,-441,441,442,-438,-436]],"type":"Polygon","properties":{"name":"Mukono","shapeGroup":"UGA","gid":"UGA-2-145"},"id":"UGA-2-145"},{"arcs":[[-232,-350,-357,443,-442,-440]],"type":"Polygon","properties":{"name":"Buikwe","shapeGroup":"UGA","gid":"UGA-2-146"},"id":"UGA-2-146"},{"arcs":[[[444]],[[445]],[[446]],[[447]],[[448]],[[449]],[[450]]],"type":"MultiPolygon","properties":{"name":"Kyamuswa","shapeGroup":"UGA","gid":"UGA-2-147"},"id":"UGA-2-147"},{"arcs":[[[451]],[[452]]],"type":"MultiPolygon","properties":{"name":"Bujjumba","shapeGroup":"UGA","gid":"UGA-2-148"},"id":"UGA-2-148"},{"arcs":[[[453]],[[454]]],"type":"MultiPolygon","properties":{"name":"Mukono","shapeGroup":"UGA","gid":"UGA-2-149"},"id":"UGA-2-149"},{"arcs":[[[455]],[[456]],[[457]],[[458]],[[-355,459]]],"type":"MultiPolygon","properties":{"name":"Buvuma","shapeGroup":"UGA","gid":"UGA-2-150"},"id":"UGA-2-150"}]}}}