{"type":"Topology","arcs":[[[8924,519],[16,-71],[45,-11],[35,-29],[-5,-48],[50,-28],[-10,-47],[43,-59],[48,-26],[43,-59]],[[9189,141],[-42,-13],[-78,24],[-58,29],[-84,2],[-21,21],[-53,9],[-24,-14],[-78,23],[-198,-43],[-56,11],[-50,-38],[-59,20],[-46,1],[-36,-20],[-109,25],[-37,-22],[-101,-31],[-115,2],[-44,-16],[-23,17],[-65,85],[-74,-1],[-107,-15],[-26,33],[-72,51]],[[7533,281],[-5,154],[-99,17],[-91,-56]],[[7338,396],[-69,-7],[-45,32],[-71,11],[-60,44],[-89,-6],[-65,8],[-31,23],[-45,-18],[-27,-33],[-48,25],[-66,-54],[-32,-9],[-79,22],[-63,-12],[-70,-34],[-27,1],[-42,51],[-80,75],[-17,51],[-40,45],[-69,-24],[-71,-2],[-102,34],[-68,62],[-19,33]],[[5943,714],[235,167],[-15,40],[35,27],[39,93],[-3,27],[117,224],[96,156],[109,24],[141,54],[-38,103],[481,-76],[145,235],[-8,52],[-57,31],[81,69]],[[7301,1940],[47,-66],[18,-68],[80,-38],[31,-28],[35,-87],[82,-62],[82,-50],[35,-34],[38,-4],[34,-38],[45,-13],[-15,-60],[47,5],[101,-15],[43,8],[81,-49],[56,-11],[11,-36],[43,-15],[39,6],[-5,-84],[168,-64],[19,-29],[53,-31],[46,-82],[51,-43],[36,-60],[49,-55],[-4,-52],[25,-16],[32,-58],[46,2],[38,-32],[47,-108],[69,12],[0,-53],[20,-13]],[[7533,281],[-49,6],[-3,32],[-72,12],[-71,65]],[[11108,4077],[-3,-265],[-18,-50],[-12,-123],[-37,-142],[-18,-186]],[[11020,3311],[-141,31],[-75,46],[-67,5],[-136,-11],[-34,13],[-203,-141],[-57,-129],[-84,-29]],[[10223,3096],[-86,55],[-30,88],[-6,54],[-21,52],[31,88],[31,47],[-68,35],[-68,76],[-42,9],[16,68],[-43,41],[2,100],[-34,15],[-59,57],[-9,49],[-74,19],[-66,91],[-26,-24],[-29,57]],[[9642,4073],[9,53],[32,82]],[[9683,4208],[31,27],[50,12],[93,48],[22,-27],[106,40],[52,3],[53,48],[193,-25],[115,29],[134,15]],[[10532,4378],[10,-36],[75,-38],[77,-8],[31,-58],[147,3],[31,-47],[90,-51],[28,-29],[69,-12],[18,-25]],[[9642,9399],[-52,-238],[15,-43],[-53,-67],[30,-27],[33,5],[76,-56],[-39,-53],[46,-21],[-27,-68],[82,1],[-1,-45],[34,-2],[-2,-106],[-37,-8],[-15,-87],[-45,-5],[-36,-91],[25,-4],[10,53],[60,-14],[-28,-35],[32,-73],[1,-50],[-23,-93],[79,15]],[[9807,8287],[-4,-29],[-51,-69],[-23,-7],[-132,-111],[-61,34],[-42,-59],[-45,0],[5,105],[38,159],[-124,22],[-141,49]],[[9227,8381],[17,48],[-1,62],[-50,100],[24,0],[14,154],[-31,93],[20,41],[6,81],[51,42],[16,46],[58,57],[-16,48],[-12,102],[62,69],[17,50],[43,53]],[[9445,9427],[147,-22],[-31,-35],[12,-43],[42,75],[27,-3]],[[9509,8595],[46,11],[-2,57],[-43,-14],[-1,-54]],[[4711,8454],[-10,-40],[12,-36],[-37,-39],[-1,-58],[-35,-68],[22,-54],[-33,-66],[-1,-71],[-23,-62],[-61,-72],[-42,17],[-73,-105],[34,-82]],[[4463,7718],[-23,-58],[-13,-108],[-87,-106],[-7,-31],[34,-72],[31,14],[28,-32],[3,-111],[-32,-21],[3,-51],[79,-10],[-18,-35],[-98,2],[-47,-53]],[[4316,7046],[-69,-13],[-4,-16],[-116,-81],[-29,-58],[-6,-82],[-162,-24],[-274,-45],[-90,102],[-289,-75],[16,-44],[191,-3],[-119,-99],[-172,-6],[-50,12],[-40,-9]],[[3103,6605],[21,26],[6,54],[60,30],[32,0],[-7,83],[-49,15],[11,57],[-108,-17],[-18,30],[-51,19],[-13,39],[-41,-5],[6,91],[-9,23],[-98,2],[-23,31],[-36,-6],[-85,22],[-11,33],[21,47],[-160,-4],[-25,34],[15,24],[13,73],[26,15],[-9,109],[62,24],[3,34]],[[2636,7488],[70,21],[25,-9],[56,26],[33,-13],[65,100],[111,111],[-15,50],[275,366],[354,290],[117,141],[14,132],[20,47],[85,128],[82,114],[121,199],[145,67],[148,80]],[[4342,9338],[25,-33],[4,-89],[-19,-53],[31,-47],[39,-25],[-29,-45],[9,-58],[63,-67],[81,-41],[-21,-33],[20,-126],[31,-12],[12,-98],[41,-36],[19,-35],[38,-8],[25,-78]],[[5003,5495],[132,-24],[200,-93],[290,-115],[263,169]],[[5888,5432],[47,-79],[-22,-27],[2,-44],[22,-43],[37,-35],[54,-71]],[[6028,5133],[88,-37],[23,-46],[107,-98]],[[6246,4952],[-25,-82],[-69,53],[-101,13],[-37,-49],[17,-25],[51,-1],[107,-50],[-124,-62],[-73,-90],[-43,-4],[96,-88],[1,-111],[-50,-92],[-39,-39],[-144,53],[57,-204],[-12,-24]],[[5858,4150],[-49,92],[-128,-14],[-77,-28],[-10,-68],[-42,-8],[-17,-46],[-35,46],[-81,-45],[-49,73],[-25,-13],[-45,62],[-14,49],[-79,107],[-27,2],[-37,49],[39,136],[-80,75],[-11,40],[67,108],[-210,138],[-177,85],[-339,169],[-8,-184],[-198,100]],[[4226,5075],[428,368],[73,-22],[38,-29],[1,71],[13,72],[224,-40]],[[10532,4378],[-8,38],[-64,52],[-42,95],[-35,16],[-84,79],[3,59],[-86,61],[-48,0],[-21,70],[-36,30],[-31,4],[-13,102],[-83,-3],[-18,28],[-59,-17],[-38,67],[-33,9],[-9,36],[-94,15],[-21,32],[-58,-21],[-72,64],[-230,155],[-46,19]],[[9306,5368],[182,22],[-11,106],[50,13],[-17,37],[-6,65],[46,14],[99,-59],[45,36],[45,-58],[4,-24],[54,-12],[39,-24],[100,152],[12,43],[-5,53],[32,-4],[32,-35],[85,-5],[45,32]],[[10137,5720],[85,-17],[59,-74],[44,-36],[109,-37],[48,10],[66,-3]],[[10548,5563],[40,-63],[39,-31]],[[10627,5469],[-29,-68],[32,-93],[39,-55],[31,-17],[49,-150],[22,-11],[56,-68],[20,-57],[42,-73],[34,-23],[19,-119],[24,-27],[22,-73],[46,-79],[50,-34],[90,-21],[11,-41]],[[11185,4460],[10,-21],[-7,-116],[-44,-130],[-24,-16]],[[11120,4177],[-12,-100]],[[5266,3694],[-82,9],[-22,-61],[-66,39]],[[5096,3681],[26,58],[-34,51],[-93,22],[-26,42],[-10,193],[58,-38],[36,-51],[69,20],[28,48],[36,-23],[31,27],[52,112],[57,-72],[43,-20],[-43,-88],[21,-35],[-2,-37],[33,-5],[-40,-65],[38,-49],[33,-15],[-19,-51],[-90,-18],[-34,7]],[[4530,3932],[23,-42],[66,-19],[49,-110],[44,-65],[100,-78],[26,-138]],[[4838,3480],[-36,-86]],[[4802,3394],[-49,-36],[-49,16],[-42,-26],[-49,-12],[-59,48],[-125,-124],[-109,-17],[-36,-36],[-76,48]],[[4208,3255],[-100,-9],[4,58],[-55,61],[-63,-49],[-26,-33],[-69,10],[-11,-79]],[[3888,3214],[-44,40],[-76,-15],[-39,35],[-70,-26],[-165,45],[-59,-25],[-89,7],[-23,16],[-114,-51],[-5,29],[20,94],[-4,113],[13,53],[-23,84],[-7,76],[-30,32],[-48,158],[-35,50],[-32,16],[-72,-3],[-53,26],[-41,51],[-64,42],[-117,-4],[-186,89],[-144,39],[-52,-3],[-37,81]],[[2292,4263],[47,11],[25,36],[50,11],[125,59],[99,16],[80,5],[32,-16],[83,15],[92,5],[44,16],[63,-13],[28,-22],[58,6],[53,-16],[63,50],[51,-13],[73,3],[60,-39],[39,-40],[108,-15],[74,-70],[18,-97],[53,-74],[54,-29],[27,-46],[101,-75],[84,-97],[39,-12],[12,-33],[87,-26],[45,4],[74,211],[75,-107],[64,34],[92,8],[66,19]],[[9679,10546],[58,-153],[-51,-74],[109,-264],[-4,-37],[-59,7],[-137,3],[-33,24],[-101,-43],[19,-21],[78,-43],[-56,-53],[17,-25],[-59,-59],[57,-34],[-42,-55],[-27,4],[-57,-31],[19,-44],[27,-13],[23,-46],[39,-5],[20,-36],[-62,-62]],[[9457,9486],[-21,6],[-311,-91],[-151,-22],[-92,29],[-74,38]],[[8808,9446],[104,56],[33,33],[10,87],[25,52],[-53,63],[-120,4],[-54,59],[-52,-14],[72,86],[-35,12],[10,45],[-50,106],[22,33],[-33,44]],[[8687,10112],[3,31],[91,140],[97,10],[63,42],[0,33],[35,37],[-9,27],[15,54],[55,50],[39,2],[69,55],[48,-11],[0,36],[39,5],[-11,76],[-30,68],[-42,19]],[[9149,10786],[29,35],[58,19],[58,-7],[6,-23],[101,-12],[41,12],[38,-13],[70,-69],[43,-70],[40,-28],[7,-38],[51,-14],[-12,-32]],[[8492,7705],[-34,-24],[-34,-61],[54,-55],[63,61],[27,-2],[49,50]],[[8617,7674],[31,-23],[-47,-45],[21,-32],[79,-33],[46,38]],[[8747,7579],[-35,-44],[12,-58],[-69,-69],[19,-37],[9,-82],[-45,-21],[-15,-80],[20,-32],[-24,-45],[-80,-64],[2,-85],[44,-68],[57,-36],[42,-69],[-31,-39],[-9,-157]],[[8644,6593],[-43,-80],[-52,4],[-131,36],[-76,-9],[-34,-24],[-62,42],[-70,10],[-30,25],[46,104],[-68,8],[-54,48],[-27,-22],[-40,10],[-103,5],[-53,18],[-33,36],[-66,-16],[-2,76],[-150,-9],[48,69],[-71,112],[-24,-26],[-45,53],[-14,-13]],[[7490,7050],[-48,63],[-45,19],[-53,74],[11,63],[-34,93],[14,74],[-19,12],[-15,70],[-19,19],[14,105]],[[7296,7642],[76,35],[124,-4],[41,-11],[71,25],[43,-27],[28,24],[85,6],[80,-25],[24,10],[54,-15],[63,6],[74,48],[28,31],[163,-37],[35,-23],[37,-2],[-14,46],[33,4],[26,-31],[24,36],[81,-14],[20,-19]],[[7673,7311],[-25,-2],[-50,-45],[20,-53],[45,-52],[27,20],[17,46],[-34,86]],[[9306,5368],[-166,-17],[-105,-21],[-41,53],[16,116],[-96,12],[-28,-53],[-43,-20],[23,-51],[-21,-37],[-36,-27]],[[8809,5323],[-62,27],[-35,-9],[-115,119],[-18,79],[41,0],[-117,187],[59,75],[-32,41],[-59,114],[-124,-94],[-32,25],[42,33],[-38,49]],[[8319,5969],[1,96],[65,18],[5,82],[14,23],[-21,79],[80,-56],[52,105],[38,46]],[[8553,6362],[57,-72],[48,16],[-3,35],[-38,23],[99,57],[30,-11],[24,33],[67,18],[-14,42],[57,5],[56,54],[44,-30],[71,8],[-16,140],[-12,29],[48,12],[31,-34],[117,0]],[[9219,6687],[-4,-58],[55,-12],[87,-64]],[[9357,6553],[-28,-46],[5,-60],[35,-25],[58,-3],[48,-53],[55,3],[58,-36],[17,-55],[52,-23],[6,-32],[80,-19],[17,-53],[56,-3],[30,-48],[92,36],[43,-16],[25,-76],[103,-250],[5,-45],[23,-29]],[[11185,4460],[29,3],[3,80],[68,80],[81,239],[3,36],[30,22],[83,1],[75,-11],[49,21],[36,32],[24,51],[48,13],[45,45],[-7,45],[52,19]],[[11804,5136],[-12,-63],[-3,-80],[27,-31],[81,0],[-7,-62],[28,-54],[-13,-95],[10,-28],[-16,-61],[-24,-23],[35,-29],[48,1],[81,19],[61,38],[16,-65],[-46,-38],[44,-50],[48,-13],[74,-45],[-23,-58],[1,-57],[-36,-190],[8,-131],[-49,12],[-126,-40],[29,-74],[-43,-25],[-61,9]],[[11936,3903],[-28,38],[-6,42],[-173,-54],[10,49],[-20,39],[-93,-15],[-119,-52],[71,129],[-96,84],[-12,40],[-60,16],[-31,-13],[-43,9],[-69,-56],[-68,-22],[-44,34],[-35,6]],[[7813,8605],[-31,-64],[13,-32],[-23,-37],[2,-47]],[[7774,8425],[-95,4],[-34,63],[-91,-53],[-24,23],[-46,118],[-30,35],[66,37],[37,-125],[87,6],[37,19],[68,64],[64,-11]],[[11936,3903],[-2,-99],[8,-42],[-40,-11],[-1,-44],[41,-21],[-16,-44],[14,-30],[-108,-110],[4,-40],[-71,-84],[-146,-234],[-157,2],[-108,-99],[-12,-51],[19,-289],[34,-157],[-57,-139],[-157,-193],[-38,-60],[68,-50],[-20,-33],[48,-90],[81,-115],[-49,3]],[[11271,1873],[-52,35],[-30,43],[-85,28],[-40,40],[-37,64],[-29,134],[-47,12],[-10,30],[-61,26],[-7,81],[-40,18],[-20,46],[8,49],[-34,38],[75,145],[21,61],[29,22],[-10,37],[25,117],[48,51],[2,89],[22,28],[28,70],[-10,69],[10,47],[-7,58]],[[11535,3698],[73,-21],[-33,101],[-62,15],[22,-95]],[[8924,519],[191,86],[281,526],[25,67],[-49,68],[38,37],[-25,34],[22,68],[-15,65],[38,96],[315,292],[54,46],[13,41],[119,55],[17,50],[-52,61],[-40,-10],[-40,33],[-52,-4],[-244,-40],[-40,69],[-50,6],[-14,-22],[-74,-2],[-86,15],[-47,44],[-34,73],[-66,28],[-36,61]],[[9073,2362],[23,161],[7,2]],[[9103,2525],[40,-21],[77,71],[64,23],[39,-71],[70,32],[41,118],[-41,35],[-8,33],[17,67]],[[9402,2812],[60,104],[62,44],[86,32],[37,-6],[81,-52],[89,43],[155,49],[30,36],[85,0],[58,-68],[86,34],[-8,68]],[[11271,1873],[-49,-12],[-470,-523],[-556,-619],[-19,-17],[-380,-420],[-197,-212],[-105,-70],[-36,28],[-19,53],[-40,19],[-50,-7],[-48,53],[-60,10],[-53,-15]],[[10056,2359],[-45,-26],[47,-39],[42,58],[-44,7]],[[8809,5323],[-269,-220],[93,-19],[-7,-59],[-62,14],[10,-155],[-52,-113],[35,-82],[-6,-84],[-15,-53],[14,-44]],[[8550,4508],[-26,-20],[-17,-144],[14,-33],[-82,-9],[-175,51],[-98,-6]],[[8166,4347],[28,41],[11,84],[-49,81],[-15,60],[-8,182],[-16,75],[26,19],[-13,47],[27,111],[-15,15],[-56,-60],[-110,-80],[-31,-8],[-43,53],[-69,-55],[-139,50]],[[7694,4962],[46,114],[-90,28],[1,57],[-88,14],[2,39],[-59,-1],[-3,46],[124,49],[32,32],[49,-39],[7,41],[-166,82],[103,116]],[[7652,5540],[78,86],[122,-66],[20,107],[63,16],[42,-15],[15,170],[52,-3],[2,92],[-14,84]],[[8032,6011],[17,5],[86,-48],[11,-25],[90,-32],[41,3],[42,55]],[[9011,7447],[88,33]],[[9099,7480],[27,-34],[84,-34],[-102,-50],[-43,49],[-54,36]],[[9073,2362],[-56,42],[-34,-8],[-54,50],[-119,28],[-92,44],[0,20],[-52,42],[-65,-39],[-72,6],[19,142],[-40,-10],[-46,39],[-33,91],[-58,-39],[-48,10],[-60,36],[-14,39],[12,73]],[[8261,2928],[-65,11],[-3,36],[-29,14],[-14,36]],[[8150,3025],[-7,83],[25,32],[-78,116],[4,17],[-65,65],[-42,27],[-42,60],[-7,38],[-87,21],[-23,51],[57,134],[-3,23],[-125,96],[-62,-58],[13,86],[-13,48],[46,55],[6,45],[-74,57],[1,16]],[[7674,4037],[117,12],[33,15],[298,30],[0,7]],[[8122,4101],[14,-80],[-29,-39],[57,-74],[-21,-19],[0,-45],[24,-45],[85,-84],[38,11],[72,-48],[36,1],[15,-31],[56,-63],[-1,-28],[50,-48],[-11,-69],[34,-49],[-2,-52],[29,-122],[-11,-69],[39,-45],[25,-79],[26,18],[64,-10],[10,-90],[72,-43],[24,-36],[29,5],[32,-35],[96,-69],[61,-102],[25,-79],[43,-58]],[[9310,7597],[-39,-30],[-47,-2]],[[9224,7565],[11,45],[-28,24]],[[9207,7634],[8,38],[114,-35]],[[9329,7637],[-19,-40]],[[4711,8454],[46,12],[75,-12],[37,29],[128,19],[56,-1],[85,-67],[18,-1],[87,118],[26,47],[47,22],[2,60],[50,92],[59,2],[53,55],[11,28],[59,-1],[57,25],[44,-12],[62,6],[39,23],[14,35]],[[5766,8933],[20,-73],[38,-73],[39,-36],[48,1],[15,-20],[62,-22],[10,-37],[51,2],[17,-24],[109,-35],[66,14],[66,-58],[15,-84],[61,-53],[20,-30]],[[6403,8405],[42,-47],[71,-37],[-23,-40]],[[6493,8281],[-88,-107],[-30,-15],[10,-39],[37,-28],[-14,-81],[17,-43],[-64,-45],[-10,-42],[27,-57],[-38,-35],[-13,-76],[-56,-98],[-15,-48],[-28,-36]],[[6228,7531],[-37,-21],[-29,13],[-37,-14],[-58,-2],[-60,-18],[-64,-38],[-28,19],[14,43],[-45,1],[2,75],[-28,0],[-17,-54],[-39,-18],[-32,-46],[-37,-14],[-38,41],[-130,64],[-15,35],[-31,14],[-37,63],[-20,68],[-34,10],[-24,42],[19,28],[-34,28],[-8,70],[23,52],[-11,31],[-52,12],[-99,-17],[-66,-46],[-36,-36],[-34,28],[-27,51],[-40,41],[-41,-23],[-43,2],[-70,-36],[2,-46],[-91,-38],[-49,0],[-19,-23],[-12,-66],[-90,-31],[-21,-26],[-66,-9],[-46,8],[-30,-30]],[[6228,7531],[-4,-71],[-20,-41],[35,-121],[27,-20],[10,-47],[34,-81],[71,-58],[46,-12],[18,-69],[53,4],[31,-22]],[[6529,6993],[-15,-37],[-37,-30],[2,-75],[45,-85],[7,-106],[-51,-80],[-36,-102],[-38,-34],[-109,-6],[-47,-12],[-66,1],[-98,-14]],[[6086,6413],[-61,58],[-128,-3],[-105,9],[-311,9],[-97,32],[-126,-20],[-51,8],[-182,-8],[-252,-7]],[[4773,6491],[-114,4],[-59,21],[-42,-10],[-56,31],[-67,-21],[-116,9],[3,309],[-6,212]],[[5748,7101],[6,-47],[40,-10],[54,22],[-20,24],[-80,11]],[[9807,8287],[49,53],[69,16],[41,30]],[[9966,8386],[-10,-93],[-32,-39],[-21,-67],[-36,-45],[-21,-135],[-18,-35],[4,-44],[-13,-83],[26,-35],[22,-101],[-2,-43],[18,-98]],[[9883,7568],[3,-33],[-43,-31],[-36,-81],[-43,-16],[-28,-34],[24,-37],[-56,-58],[-32,-8],[-46,-91]],[[9626,7179],[-63,24],[-17,22],[-55,11],[-116,58],[-19,86],[-76,58],[-88,22]],[[9192,7460],[32,105]],[[9310,7597],[51,-22],[25,12],[29,57],[-4,47],[-55,6]],[[9356,7697],[-13,98],[-17,30],[-6,99],[-25,33],[-93,8],[-10,40],[-42,4],[-23,-36]],[[9127,7973],[-34,77],[10,42],[8,122],[80,2],[-10,61],[12,49],[34,55]],[[8808,9446],[-15,-85],[-35,-60],[-46,-28],[-75,-168],[0,-48],[-34,-30]],[[8603,9027],[-73,17],[-36,-21],[-10,46],[-41,15],[-60,-7],[-33,-35],[-48,-1],[-15,92],[19,43],[-33,22],[-11,38],[5,141],[-22,20],[-33,66]],[[8212,9463],[-7,19],[58,79],[-4,49],[-33,66],[-41,6],[-113,46],[-7,37],[-35,48],[21,50],[4,59],[23,21],[7,80],[17,64],[31,64],[-28,59],[-1,33]],[[8104,10243],[21,-21],[93,1],[22,-17],[136,-29],[46,1],[37,-39],[107,11],[121,-38]],[[9683,4208],[-46,-26],[-64,23],[-80,-58],[-14,16],[-127,-42],[-36,-99],[-67,51],[-82,23],[-59,-5],[-46,40],[-71,-13],[-2,32],[65,40],[-3,18],[-89,-16],[-28,141],[3,54],[29,72],[37,25],[-23,98],[-33,24],[-30,-14],[-134,-35],[-51,-3],[-34,-46],[-5,-73],[-40,38],[17,-92],[-39,-9],[-36,53],[41,60],[10,67],[-96,-44]],[[5943,714],[-27,96],[8,85],[43,84],[39,39],[-31,29],[-78,20],[-29,34],[-48,-8],[-155,33],[-50,34],[-53,6],[-30,21]],[[5532,1187],[-1,66],[-66,58],[-13,63],[67,246],[-31,219],[-103,98],[22,52],[-117,21],[57,65],[-36,84],[87,95],[-22,47],[39,31],[31,-57],[67,31],[-32,61],[31,36],[-99,77],[11,159],[-79,270],[121,23],[24,56],[57,40]],[[5547,3028],[48,-61],[16,0],[153,-67],[52,172],[31,-24],[112,11],[134,28],[39,52]],[[6132,3139],[38,-6],[-2,-57],[28,-129],[36,-86],[40,-142],[36,-69],[22,-14],[19,-80],[43,-13],[49,-57],[-16,-47],[17,-98],[129,-43],[92,48]],[[6663,2346],[57,-15],[90,-6],[152,32],[64,-2]],[[7026,2355],[34,-109],[124,-130],[28,-65],[39,-12],[50,-99]],[[5877,2539],[-11,-50],[20,-27],[46,20],[7,39],[-62,18]],[[6028,5133],[61,90],[168,161],[196,122],[82,32],[171,-59],[41,1],[116,-30],[161,72],[36,-19],[5,-47],[65,38],[145,40],[56,44],[20,-42],[124,-32],[-3,100],[86,-12],[94,-52]],[[7694,4962],[-21,-14],[-60,3],[-40,30],[-58,9],[-40,-95],[-37,13],[-63,-33],[-25,-36],[-128,-4],[-43,-102],[6,-44],[-24,-60],[-5,-81],[31,-2],[32,-58],[-25,-134],[-1,-87],[17,-14],[-96,-47],[17,-36]],[[7131,4170],[-70,-17],[-65,-30],[-25,1],[-24,113],[-96,-45],[-31,-4],[-57,81],[-70,38],[-71,27],[-91,-66],[-17,74],[32,145],[-31,63],[-3,34],[-61,34],[-9,63],[-55,39],[-62,90],[-4,55],[-75,87]],[[7151,5133],[-27,-23],[-11,-51],[-32,-40],[-51,-11],[28,-42],[17,-114],[39,55],[123,3],[20,54],[-3,35],[37,36],[-41,19],[-99,79]],[[9207,7634],[-151,-32],[-107,-34],[-54,17]],[[8895,7585],[-75,70],[34,17],[-25,92],[11,51],[28,28],[63,12],[22,72]],[[8953,7927],[51,-39],[80,-5],[55,17],[-12,73]],[[9356,7697],[-40,-19],[13,-41]],[[9011,7447],[-165,84]],[[8846,7531],[-12,22],[61,32]],[[9192,7460],[-93,20]],[[5766,8933],[-36,84],[-74,52],[31,25],[72,4],[19,32],[60,52],[61,-6],[76,46],[65,-15],[39,14],[-71,216],[-5,88],[216,516],[-92,157],[-484,-22]],[[5643,10176],[-9,89],[-27,34],[20,51],[30,40],[-30,70],[1,81],[41,64],[1,35],[-25,94],[37,43],[66,132],[24,10],[156,6],[57,94],[42,26],[104,83],[57,38],[31,37],[49,9],[138,63],[47,31],[62,0],[33,31],[116,6],[44,20],[47,54],[37,-2],[30,-28],[57,-1],[54,28],[54,9],[110,35],[21,16],[144,-8],[20,-14],[76,-8],[39,-27],[132,17],[35,15],[59,-6],[37,14],[62,-7],[20,-41],[47,-32],[54,62],[51,-27]],[[7894,11412],[1,-96],[42,-25],[28,-59],[-281,-282],[-156,-116],[21,-60],[43,-17],[14,-41],[-36,-73],[53,-95],[46,-33],[-72,-85],[-8,-54],[6,-56],[-13,-41],[-35,-26],[-22,-90]],[[7525,10163],[-27,-28],[-15,-54],[-27,-34],[-2,-43],[-35,-45],[14,-35],[-18,-79],[0,-73],[-18,-52],[93,-191],[8,-83],[-34,-73],[-14,-1],[-40,-144],[22,-16],[-27,-67],[-6,-53],[-20,-22],[-2,-92],[-17,-29],[-70,5],[-28,60],[-70,-55],[30,-46],[-87,-83],[-52,7],[-81,-36],[-62,-13],[25,-105],[-11,-32],[-67,-17],[-51,-43],[-36,-4],[-31,-53],[-47,-1],[-49,-53],[-64,-13],[-34,13],[-69,-9],[-37,-56],[-66,-10]],[[6965,9469],[-32,-50],[68,-19],[0,35],[-36,34]],[[3103,6605],[-64,-21],[-71,-88],[1,-45],[-51,4],[-46,-17],[-60,-114],[165,-114],[19,-46],[44,-28],[96,-9],[146,-38],[47,-92],[-130,-161],[289,-240]],[[3488,5596],[-36,-46],[23,-121],[-7,-29],[-58,2],[-31,-23],[-117,0],[-37,-14],[-89,-77],[-27,-62],[-33,-9],[-110,14],[-72,-17],[-43,4],[-81,-17],[-125,-13],[-65,-93],[-29,-66],[-32,-115],[-62,-173],[-79,-247],[-22,-29],[-40,-146],[-32,-52]],[[2284,4267],[-54,0],[-74,19],[-34,54],[-35,86],[-72,46],[-115,27],[-58,44],[-36,92],[-65,-6],[-34,41],[44,62],[-71,64],[-98,-16],[-53,38],[-72,32],[-23,70],[-19,107],[-24,18],[-26,107],[-52,111],[-9,45],[-42,56],[-4,48],[-104,131],[-19,52],[7,64],[45,52],[-15,90],[-57,115],[-40,19],[-79,64],[-76,41],[-29,77],[-25,120],[20,57],[-21,39],[-12,63],[-37,34],[-62,21],[-59,55],[-63,112],[-58,27],[-46,73],[-84,89],[-33,108],[-61,96],[-8,56],[-96,176],[-32,5],[-18,43],[-67,26],[-59,119],[-21,91],[-49,73],[3,59],[39,96],[-2,44],[74,-56],[59,-24],[32,11],[49,-31],[56,-2],[33,18],[91,-38],[59,46],[59,-9],[83,14],[63,40],[32,-44],[70,-22],[28,5],[36,-26],[5,-28],[42,-23]],[[911,7630],[-17,-58],[7,-74],[52,47]],[[953,7545],[29,-56],[71,-25],[102,-15],[29,34],[154,0],[-8,72],[60,31],[41,0],[103,61],[46,-60],[71,-6],[25,-26],[63,13],[89,-12],[64,-29],[60,-48],[42,-14],[75,6],[22,-52],[41,-30],[15,-32],[66,-2],[64,-34],[11,28],[74,65],[73,-8],[47,20],[9,35],[48,-2],[97,29]],[[2000,7025],[-68,-110],[-47,1],[-38,-46],[-103,-89],[63,-150],[142,63],[49,1],[42,70],[14,70],[-8,37],[1,106],[-20,53],[50,60],[-16,14],[-61,-80]],[[9357,6553],[54,87],[79,-4],[78,58],[74,-81],[117,75],[-35,40],[7,31],[147,-40],[4,-56],[36,-18],[66,-8],[21,-54],[-41,-11],[105,-97],[91,-3],[26,-39]],[[10186,6433],[19,-59],[78,-98],[32,-69],[29,-29],[48,7],[41,-84],[-4,-60],[23,-120],[48,-27],[-6,-28],[43,-54],[1,-128],[-8,-80],[18,-41]],[[7131,4170],[19,-93],[103,-9],[-3,-94]],[[7250,3974],[-51,-75],[-77,-185],[1,-39],[-56,-162]],[[7067,3513],[-40,-95],[0,-108],[-28,-30],[-19,-72],[-150,-100],[24,-33],[-56,-15],[19,-78],[17,-30],[84,23],[22,-27],[-14,-71],[-25,-72],[-41,-229],[-60,-58],[-70,-46],[-130,-105],[63,-21]],[[6132,3139],[-50,54],[-5,82],[17,34],[-20,76],[86,9],[86,47],[-59,97],[9,56],[-20,35],[11,70],[25,56],[-81,0],[-109,72],[1,68],[-51,12],[-25,165],[-32,-5],[-8,53],[-49,30]],[[7191,6794],[-87,46],[49,15],[113,76],[60,66],[51,-45],[44,35],[-50,54],[28,26],[48,-56]],[[7447,7011],[35,-45],[8,-37],[-31,-62],[-28,-91],[-41,18],[-25,-39],[-67,-13],[-94,61],[-13,-9]],[[4342,9338],[190,88],[161,143],[40,66],[50,1],[53,60],[58,18],[70,-2],[44,-22],[34,28],[42,57],[21,-6],[216,98],[159,33],[30,36]],[[5510,9936],[71,-26],[7,31],[-51,14]],[[5537,9955],[59,43],[2,64],[35,66],[10,48]],[[5510,9936],[27,19]],[[5888,5432],[-5,63],[10,68],[17,22],[-24,67],[-36,69],[-64,24],[-47,213],[-63,269],[87,25],[317,127],[6,34]],[[6529,6993],[25,-26],[89,-35],[74,-54],[16,-26],[54,-27]],[[6787,6825],[-21,-63],[5,-31],[-34,-50],[13,-101],[-14,-25],[18,-89],[63,3],[61,-56],[46,15],[40,-16],[62,4],[9,-53],[41,15],[59,-29],[9,-40],[57,6],[26,-32],[32,1],[69,-23],[83,39],[65,-55],[34,25],[47,-26],[79,-18],[41,8],[55,-19],[38,-36],[24,-49],[60,-6],[23,-41],[33,23],[37,-13],[14,-36],[71,-46]],[[7202,6000],[-38,-46],[-59,-42],[-80,20],[5,-37],[61,-16],[16,-49],[60,-15],[43,51],[34,13],[-12,106],[-30,15]],[[7060,5841],[-37,10],[0,-51],[20,-38],[-66,-15],[0,-87],[73,10],[7,-35],[64,29],[61,-5],[18,60],[-79,48],[-17,30],[-61,2],[17,42]],[[4773,6491],[24,-155],[2,-44],[27,-49],[-1,-100],[-36,-39],[15,-44],[9,-316],[-1,-62],[105,-22],[84,-32],[2,-133]],[[4226,5075],[-193,-145],[-68,-11]],[[3965,4919],[-27,7],[-54,44],[-6,111],[-23,39],[-60,6],[4,72],[55,110],[47,49],[-41,65],[-15,71],[12,49],[-32,44],[-150,17],[-187,-7]],[[7774,8425],[-18,-45],[28,-68],[20,-132],[-23,-61],[-317,-59],[-34,-34],[-51,-94],[-12,-91],[-32,-47],[-78,-54],[-23,-40],[-43,-6]],[[7191,7694],[-65,-12],[-14,45],[-36,25],[-37,-17],[-11,57],[-52,51],[-42,-6],[-37,66],[-42,12],[-18,-38],[-43,55],[-37,9],[-66,109],[-48,34],[9,58],[-19,32],[-43,14],[-79,52],[-18,41]],[[7525,10163],[25,-20],[40,44],[83,6],[31,23],[46,6],[23,25],[-2,102],[43,19],[31,-19],[64,-1],[10,-59],[25,-37],[65,-12],[24,10],[71,-7]],[[8212,9463],[-40,-41],[-2,-29],[-58,-9],[-12,-49],[-64,-46],[-23,-47],[19,-31],[-43,-26],[-3,-50],[-18,-19],[8,-51],[-12,-99],[-52,-48],[-4,-38],[-34,-16],[3,-44],[-30,-56],[15,-84],[-41,-43],[-8,-32]],[[10186,6433],[32,51],[-33,58],[-45,39],[43,24],[20,87],[129,34],[-19,58],[35,49],[15,57],[-15,138],[11,29]],[[10359,7057],[6,75],[15,22],[-11,52],[207,-4],[-9,65],[-23,48],[53,41],[61,74],[134,130],[16,151],[103,51]],[[10911,7762],[48,41],[47,70],[68,39],[99,82],[47,5],[82,41],[13,34],[46,30],[69,-17],[19,33],[32,-11]],[[11481,8109],[-2,-47],[-60,-23],[16,-84],[-18,-71],[25,-25],[-11,-54],[26,-67],[47,-90],[2,-66],[17,-53],[-32,-27],[-17,-88],[-43,-89],[-96,-62],[-40,-72],[-37,-10],[-81,-69],[-8,-19],[36,-51],[28,-89],[52,-45],[-46,-29],[-23,-81],[48,19],[8,-44]],[[11272,6773],[-36,-138],[102,-70],[-21,-65],[-55,-66],[44,-69],[27,-86],[-7,-30],[12,-87]],[[11338,6162],[-38,-3],[-25,39],[-46,-45],[-36,58],[-40,-10],[-38,21],[-32,-38],[-70,-19],[-47,-46],[-67,24],[-18,-50],[27,-43],[11,-63],[-28,-61],[-47,-7],[22,-56],[-17,-70],[-41,-26],[-15,-54],[-34,-28],[-2,-31],[-44,-43],[-11,-38],[9,-47],[-33,-4],[-51,-53]],[[10771,6573],[8,-52],[50,-22],[-44,89],[-14,-15]],[[4802,3394],[-15,-71],[-46,-23],[-4,-46],[-130,-104],[105,-72],[-61,-100],[31,-140],[62,-126],[61,-38],[-106,-98],[-11,-29],[-41,-33],[-9,-54],[-22,-33],[26,-77],[-5,-33],[32,-35],[13,-89],[-30,-33],[12,-55],[-27,-44],[13,-26],[-18,-93],[20,-35],[-25,-41],[98,-92],[2,-28],[70,-118],[22,-9],[29,-53],[73,-75],[-27,-53],[33,-83]],[[4927,1355],[-41,24],[-119,19],[-138,-18],[-154,41],[-29,-7],[-96,16],[-35,70],[-40,24],[7,63],[-24,4],[9,60],[-32,89],[-41,46],[1,52],[-26,49],[-55,57],[-99,157],[-73,33],[-54,65],[-36,29],[-22,84],[28,19],[-10,60],[18,75],[-31,41],[15,68],[-8,47],[26,27],[23,114],[16,34],[-7,103],[-40,58],[-2,107],[39,78],[-9,71]],[[3888,3214],[89,-27],[-12,-43],[72,-65],[76,113],[59,17],[36,46]],[[9219,6687],[38,6],[68,-15],[35,34],[-21,45],[-109,-13],[-60,55],[-7,43],[-50,38],[-84,10],[-18,15],[106,100],[42,137],[-8,36],[103,15],[20,-42],[33,-14],[114,49],[25,-25],[65,-35],[17,-30],[54,-11],[-3,-31],[57,-5],[15,38],[-25,92]],[[9883,7568],[44,32],[62,13],[101,-58],[10,-101],[85,1],[-3,-37],[53,-102],[-20,-45],[6,-35],[-116,-67],[111,-67],[132,-30],[11,-15]],[[9783,7131],[47,-28],[-3,-42],[32,-8],[21,42],[68,-38],[3,42],[-51,33],[25,32],[-93,15],[-49,-48]],[[9642,4073],[-14,-28],[-112,-60],[-20,-18],[20,-75],[1,-41],[-104,29],[0,-101],[-146,-99],[-78,-86],[-25,-68],[37,-93],[16,-6],[83,23],[58,-193],[35,-16],[39,-149],[0,-27],[-49,-31],[-89,-38],[-18,-69],[35,-17],[62,9],[16,-109],[13,2]],[[8122,4101],[18,78],[37,52],[-29,66],[18,50]],[[8756,4032],[-38,-12],[-37,-50],[28,-79],[37,-5],[10,-47],[46,58],[-13,24],[46,86],[-79,25]],[[5266,3694],[100,-119]],[[5366,3575],[69,-56],[7,-48],[83,24],[23,-66],[-30,-99],[25,-26],[-15,-49],[-58,-29],[-2,41],[-119,14],[33,-39],[2,-32],[57,-89],[32,-68],[74,-25]],[[5532,1187],[-39,28],[-131,43],[-21,33],[-84,19],[-27,25],[-66,-22],[-57,-47],[-69,26],[-27,28],[-84,35]],[[4838,3480],[19,-12],[35,79],[37,43],[63,-6],[80,95],[24,2]],[[8953,7927],[-11,90],[-39,-2],[-28,-43],[-107,62],[-11,-20],[-74,38],[-47,60],[40,79],[-89,8],[-59,-12],[-124,13],[12,164],[20,81],[-22,74],[62,141],[38,103],[57,104],[32,160]],[[9457,9486],[-50,-53],[38,-6]],[[8771,9076],[14,15],[-16,7],[2,-22]],[[8261,2928],[-52,-38],[-51,-212],[-1,-87],[-16,-68],[3,-67],[-138,-130],[-88,6],[-30,28],[-44,-17],[-94,-14],[-43,6],[-54,44],[-35,2],[-55,29],[-8,40],[-31,12],[-90,69],[-70,11],[-101,-79],[-91,-91],[-61,-32],[-85,15]],[[7067,3513],[18,2],[53,-54],[67,-25],[53,-51],[108,-46],[25,4],[53,-37],[-4,107],[222,-194],[-7,-38],[84,0],[38,-18],[70,-9],[25,-24],[41,0],[20,-22],[89,11],[74,-23],[22,14],[32,-85]],[[7894,11412],[57,3],[51,-16],[64,26],[42,31],[-1,-643],[361,0],[5,2],[390,0],[67,-18],[36,-68],[56,-11],[34,60],[46,16],[47,-8]],[[8644,6593],[2,-109],[-98,-107],[5,-15]],[[6787,6825],[78,-3],[54,-23],[33,-30],[40,-1],[81,-24],[45,-37],[62,0],[11,87]],[[7447,7011],[43,39]],[[9679,10546],[99,7],[118,-47],[96,10],[30,-26],[31,7],[110,-35],[52,-37],[20,-32],[60,-46],[16,-34],[116,-78],[15,-106],[193,-56],[32,1]],[[10667,10074],[-24,-36],[-89,-15],[-19,-50],[-40,-15],[-55,-107],[54,-45],[0,-25],[40,-25],[-13,-69],[21,-13],[51,31],[24,-16],[15,-158],[24,-70]],[[10656,9461],[-18,-40],[-51,-27]],[[10587,9394],[-103,25],[-74,0],[-22,13],[-60,-17],[-29,7],[-67,-58],[-32,16],[-9,-44],[-74,-16],[-59,-39],[-77,-21],[-42,24],[31,88],[-71,-57],[-26,-40],[-82,106],[-149,18]],[[12130,8716],[-49,-23],[-60,-7],[-27,-22],[-59,-5],[-44,-64],[-26,1],[-50,-30],[-54,-63],[-20,-58]],[[11741,8445],[-130,86],[-177,60],[17,63],[-44,-1],[-30,-20],[-37,11],[-11,55],[-77,87],[-82,-13],[12,34],[-35,59],[-49,50],[-92,-44],[-98,-16],[-28,75],[-34,142]],[[10846,9073],[25,15],[54,66],[57,49],[95,43],[21,49],[76,54],[16,35],[93,39],[60,54],[49,31],[43,80]],[[11435,9588],[69,-23],[98,31],[37,-31],[82,29],[38,37]],[[11759,9631],[94,-5],[24,15],[102,-29],[42,34],[86,-18],[-26,-131],[-81,-192],[-122,-42],[163,-243],[82,-200],[7,-104]],[[9966,8386],[5,42],[43,51],[49,30]],[[10063,8509],[-10,-25],[55,-51],[50,-82],[90,-56],[53,30],[49,65]],[[10350,8390],[143,-307],[87,-32],[-2,-105],[195,-38],[-32,-53],[43,-34],[0,-44],[56,36],[71,-51]],[[11338,6162],[-18,-147],[-64,-34],[-53,-149],[73,4],[87,24],[85,-19]],[[11448,5841],[12,-27],[-69,-7],[17,-135],[49,10],[47,28],[50,1],[37,-34],[61,6],[-2,46],[28,49]],[[11678,5778],[18,-57],[92,-3],[102,28],[16,-88],[53,-69],[-26,-60],[-14,-142],[-17,-34],[12,-60],[-31,-55],[-87,-81],[8,-21]],[[11448,5841],[108,15],[53,15],[59,0]],[[11668,5871],[19,-79],[-9,-14]],[[11272,6773],[58,22],[15,-84],[99,-2],[42,32],[31,-45],[-39,-44],[20,-38],[140,-128],[39,-12],[72,137],[80,-26],[23,92],[-8,69],[156,72],[-47,103],[36,14],[32,-54],[28,9],[11,42],[35,47],[8,77],[19,61],[31,0]],[[12153,7117],[20,-68],[-10,-16],[1,-84],[80,-86],[-17,-49],[-39,-26],[-20,-50],[18,-14],[-3,-59],[-68,-46],[-20,30],[-75,-51],[-23,10],[-52,-34],[38,-43],[-16,-49],[32,-25],[0,-41],[80,-122],[-39,-142],[-47,-40],[-42,-10],[-55,36],[-47,-4],[-90,-56],[-22,3],[-63,-52],[35,-51],[2,-56],[24,-34],[-67,-17]],[[10350,8390],[31,-1],[62,25],[83,-15],[43,31],[34,-7],[62,24],[-15,74],[56,48],[-69,97],[2,68],[-19,32],[12,43],[61,129],[26,123],[64,-3],[63,15]],[[11741,8445],[-20,-38],[2,-48],[-148,-69],[9,-46],[-9,-45],[-43,-14],[-45,-46],[-6,-30]],[[8492,7705],[99,-11],[26,-20]],[[12130,8716],[7,-98],[85,-65],[-37,-33],[-38,-59],[5,-52],[-70,-118],[29,-94],[59,-25],[31,-28],[11,-79],[-39,-49],[-26,-132],[26,-71],[-13,-37],[-62,12],[-21,-25],[12,-51],[-25,-62],[6,-52],[31,-48],[-60,-76],[29,-25],[-13,-88],[36,-64],[4,-69],[15,-41],[42,-35],[-1,-35]],[[10667,10074],[154,4],[181,10],[206,-60],[257,-104],[225,-115],[-17,-132],[86,-46]],[[11435,9588],[-76,44],[-64,8],[-110,-37],[-30,5],[-49,-45],[-105,-8],[-26,-33],[-33,-11],[-53,11],[-118,-37],[-55,-35],[-60,11]],[[7191,7694],[54,-49],[51,-3]],[[8747,7579],[80,-24],[19,-24]],[[10587,9394],[-11,-22],[14,-60],[-16,-33],[-75,-16],[-14,-60],[-51,-27],[5,-48],[-29,-33],[24,-30],[-87,-74],[-34,-91],[25,-25],[-135,-74],[-53,-12],[-8,-23],[29,-34],[15,-87],[-92,-91],[-31,-45]],[[7674,4037],[-9,23],[7,87],[-150,40],[-97,-65],[-13,-46],[-61,-12],[-57,-108],[-44,18]],[[7334,4612],[39,-17],[0,-49],[37,-28],[-1,-74],[61,-5],[33,99],[27,30],[-29,25],[-4,156],[-50,-19],[-52,-53],[-29,-62],[-32,-3]],[[2292,4263],[-8,4]],[[3965,4919],[-21,-68],[36,-28],[-11,-62],[24,-26],[-20,-33],[-26,-88],[26,-24],[12,-44],[51,-45],[16,-37],[42,-30],[3,-29],[70,-7],[10,-68],[24,-58],[44,-22],[25,-85],[38,-28],[64,-26],[83,-104],[65,-45],[10,-30]],[[5858,4150],[-34,-27],[-104,-113],[-124,-8],[69,-53],[-123,-112],[-45,-122],[-61,-63],[14,-21],[-84,-56]],[[911,7630],[49,-26],[-7,-59]],[[7457,3587],[-23,-25],[55,-31],[59,-63],[53,-25],[6,86],[-25,33],[-73,50],[-52,-25]]],"transform":{"scale":[0.00063946267125445,0.0005937781190176337],"translate":[25.237597177423254,-22.421049259278448]},"objects":{"ZWE":{"type":"GeometryCollection","geometries":[{"arcs":[[0,1,2,3,4,5]],"type":"Polygon","properties":{"name":"Beitbridge","shapeGroup":"ZWE","gid":"ZWE-2-0"},"id":"ZWE-2-0"},{"arcs":[[-3,6]],"type":"Polygon","properties":{"name":"Beitbridge Urban","shapeGroup":"ZWE","gid":"ZWE-2-1"},"id":"ZWE-2-1"},{"arcs":[[7,8,9,10,11,12]],"type":"Polygon","properties":{"name":"Bikita","shapeGroup":"ZWE","gid":"ZWE-2-2"},"id":"ZWE-2-2"},{"arcs":[[13,14,15,16],[17]],"type":"Polygon","properties":{"name":"Bindura","shapeGroup":"ZWE","gid":"ZWE-2-3"},"id":"ZWE-2-3"},{"arcs":[[-18]],"type":"Polygon","properties":{"name":"Bindura Urban","shapeGroup":"ZWE","gid":"ZWE-2-4"},"id":"ZWE-2-4"},{"arcs":[[18,19,20,21,22,23]],"type":"Polygon","properties":{"name":"Binga","shapeGroup":"ZWE","gid":"ZWE-2-5"},"id":"ZWE-2-5"},{"arcs":[[24,25,26,27,28,29]],"type":"Polygon","properties":{"name":"Bubi","shapeGroup":"ZWE","gid":"ZWE-2-6"},"id":"ZWE-2-6"},{"arcs":[[-13,30,31,32,33,34,35,36]],"type":"Polygon","properties":{"name":"Buhera","shapeGroup":"ZWE","gid":"ZWE-2-7"},"id":"ZWE-2-7"},{"arcs":[[37,38]],"type":"Polygon","properties":{"name":"Bulawayo","shapeGroup":"ZWE","gid":"ZWE-2-8"},"id":"ZWE-2-8"},{"arcs":[[39,40,41,42,43,44]],"type":"Polygon","properties":{"name":"Bulilima","shapeGroup":"ZWE","gid":"ZWE-2-9"},"id":"ZWE-2-9"},{"arcs":[[45,46,47,48,49]],"type":"Polygon","properties":{"name":"Centenary/ Muzarabani","shapeGroup":"ZWE","gid":"ZWE-2-10"},"id":"ZWE-2-10"},{"arcs":[[50,51,52,53,54,55],[56]],"type":"Polygon","properties":{"name":"Chegutu","shapeGroup":"ZWE","gid":"ZWE-2-11"},"id":"ZWE-2-11"},{"arcs":[[-57]],"type":"Polygon","properties":{"name":"Chegutu Urban","shapeGroup":"ZWE","gid":"ZWE-2-12"},"id":"ZWE-2-12"},{"arcs":[[-32,57,58,59,60,61,62]],"type":"Polygon","properties":{"name":"Chikomba","shapeGroup":"ZWE","gid":"ZWE-2-13"},"id":"ZWE-2-13"},{"arcs":[[-36,63,64,65]],"type":"Polygon","properties":{"name":"Chimanimani","shapeGroup":"ZWE","gid":"ZWE-2-14"},"id":"ZWE-2-14"},{"arcs":[[66,67]],"type":"Polygon","properties":{"name":"Chinhoyi","shapeGroup":"ZWE","gid":"ZWE-2-15"},"id":"ZWE-2-15"},{"arcs":[[-8,-37,-66,68,69],[70]],"type":"Polygon","properties":{"name":"Chipinge","shapeGroup":"ZWE","gid":"ZWE-2-16"},"id":"ZWE-2-16"},{"arcs":[[-71]],"type":"Polygon","properties":{"name":"Chipinge Urban","shapeGroup":"ZWE","gid":"ZWE-2-17"},"id":"ZWE-2-17"},{"arcs":[[-1,71,72,73,74,-9,-70,75],[76]],"type":"Polygon","properties":{"name":"Chiredzi","shapeGroup":"ZWE","gid":"ZWE-2-18"},"id":"ZWE-2-18"},{"arcs":[[-77]],"type":"Polygon","properties":{"name":"Chiredzi Urban","shapeGroup":"ZWE","gid":"ZWE-2-19"},"id":"ZWE-2-19"},{"arcs":[[-59,77,78,79,80,81,82]],"type":"Polygon","properties":{"name":"Chirumhanzu","shapeGroup":"ZWE","gid":"ZWE-2-20"},"id":"ZWE-2-20"},{"arcs":[[83,84]],"type":"Polygon","properties":{"name":"Chitungwiza","shapeGroup":"ZWE","gid":"ZWE-2-21"},"id":"ZWE-2-21"},{"arcs":[[-73,85,86,87,88,89]],"type":"Polygon","properties":{"name":"Chivi","shapeGroup":"ZWE","gid":"ZWE-2-22"},"id":"ZWE-2-22"},{"arcs":[[90,91,92,93]],"type":"Polygon","properties":{"name":"Epworth","shapeGroup":"ZWE","gid":"ZWE-2-23"},"id":"ZWE-2-23"},{"arcs":[[-19,94,95,96,97,98]],"type":"Polygon","properties":{"name":"Gokwe North","shapeGroup":"ZWE","gid":"ZWE-2-24"},"id":"ZWE-2-24"},{"arcs":[[-20,-99,99,100,101,102],[103]],"type":"Polygon","properties":{"name":"Gokwe South","shapeGroup":"ZWE","gid":"ZWE-2-25"},"id":"ZWE-2-25"},{"arcs":[[-104]],"type":"Polygon","properties":{"name":"Gokwe South Urban","shapeGroup":"ZWE","gid":"ZWE-2-26"},"id":"ZWE-2-26"},{"arcs":[[-15,104,105,106,107,108,-91,109,110,111]],"type":"Polygon","properties":{"name":"Goromonzi","shapeGroup":"ZWE","gid":"ZWE-2-27"},"id":"ZWE-2-27"},{"arcs":[[-48,112,113,114,115]],"type":"Polygon","properties":{"name":"Guruve","shapeGroup":"ZWE","gid":"ZWE-2-28"},"id":"ZWE-2-28"},{"arcs":[[-12,116,-78,-58,-31]],"type":"Polygon","properties":{"name":"Gutu","shapeGroup":"ZWE","gid":"ZWE-2-29"},"id":"ZWE-2-29"},{"arcs":[[-5,117,118,119,120,121,122],[123]],"type":"Polygon","properties":{"name":"Gwanda","shapeGroup":"ZWE","gid":"ZWE-2-30"},"id":"ZWE-2-30"},{"arcs":[[-124]],"type":"Polygon","properties":{"name":"Gwanda Urban","shapeGroup":"ZWE","gid":"ZWE-2-31"},"id":"ZWE-2-31"},{"arcs":[[-27,124,-81,125,126],[127]],"type":"Polygon","properties":{"name":"Gweru","shapeGroup":"ZWE","gid":"ZWE-2-32"},"id":"ZWE-2-32"},{"arcs":[[-128]],"type":"Polygon","properties":{"name":"Gweru Urban","shapeGroup":"ZWE","gid":"ZWE-2-33"},"id":"ZWE-2-33"},{"arcs":[[-93,128,129,130,-111,131]],"type":"Polygon","properties":{"name":"Harare","shapeGroup":"ZWE","gid":"ZWE-2-34"},"id":"ZWE-2-34"},{"arcs":[[-84,132,133,-129,-92,-109,134]],"type":"Polygon","properties":{"name":"Harare Rural","shapeGroup":"ZWE","gid":"ZWE-2-35"},"id":"ZWE-2-35"},{"arcs":[[-96,135,136,137,138],[139]],"type":"Polygon","properties":{"name":"Hurungwe","shapeGroup":"ZWE","gid":"ZWE-2-36"},"id":"ZWE-2-36"},{"arcs":[[-22,140,141,142,143,144],[145]],"type":"Polygon","properties":{"name":"Hwange","shapeGroup":"ZWE","gid":"ZWE-2-37"},"id":"ZWE-2-37"},{"arcs":[[-146]],"type":"Polygon","properties":{"name":"Hwange Urban","shapeGroup":"ZWE","gid":"ZWE-2-38"},"id":"ZWE-2-38"},{"arcs":[[-33,-63,146,147]],"type":"Polygon","properties":{"name":"Hwedza","shapeGroup":"ZWE","gid":"ZWE-2-39"},"id":"ZWE-2-39"},{"arcs":[[-28,-127,148,149,150,-121,151]],"type":"Polygon","properties":{"name":"Insiza","shapeGroup":"ZWE","gid":"ZWE-2-40"},"id":"ZWE-2-40"},{"arcs":[[152,153]],"type":"Polygon","properties":{"name":"Kadoma Urban","shapeGroup":"ZWE","gid":"ZWE-2-41"},"id":"ZWE-2-41"},{"arcs":[[-24,154,155,156,-136,-95]],"type":"Polygon","properties":{"name":"Kariba","shapeGroup":"ZWE","gid":"ZWE-2-42"},"id":"ZWE-2-42"},{"arcs":[[-156,157]],"type":"Polygon","properties":{"name":"Kariba Urban","shapeGroup":"ZWE","gid":"ZWE-2-43"},"id":"ZWE-2-43"},{"arcs":[[-140]],"type":"Polygon","properties":{"name":"Karoi","shapeGroup":"ZWE","gid":"ZWE-2-44"},"id":"ZWE-2-44"},{"arcs":[[-26,158,-101,159,160,-82,-125],[161],[162]],"type":"Polygon","properties":{"name":"Kwekwe","shapeGroup":"ZWE","gid":"ZWE-2-45"},"id":"ZWE-2-45"},{"arcs":[[-162]],"type":"Polygon","properties":{"name":"Kwekwe Urban","shapeGroup":"ZWE","gid":"ZWE-2-46"},"id":"ZWE-2-46"},{"arcs":[[-21,-103,163,-30,164,165,-141]],"type":"Polygon","properties":{"name":"Lupane","shapeGroup":"ZWE","gid":"ZWE-2-47"},"id":"ZWE-2-47"},{"arcs":[[-68,166,167,-97,-139,168,-115,169]],"type":"Polygon","properties":{"name":"Makonde","shapeGroup":"ZWE","gid":"ZWE-2-48"},"id":"ZWE-2-48"},{"arcs":[[-34,-148,170,171,172,173,174,175],[176]],"type":"Polygon","properties":{"name":"Makoni","shapeGroup":"ZWE","gid":"ZWE-2-49"},"id":"ZWE-2-49"},{"arcs":[[-42,177,178,179]],"type":"Polygon","properties":{"name":"Mangwe","shapeGroup":"ZWE","gid":"ZWE-2-50"},"id":"ZWE-2-50"},{"arcs":[[-62,180,-107,181,-171,-147],[182]],"type":"Polygon","properties":{"name":"Marondera","shapeGroup":"ZWE","gid":"ZWE-2-51"},"id":"ZWE-2-51"},{"arcs":[[-183]],"type":"Polygon","properties":{"name":"Marondera Urban","shapeGroup":"ZWE","gid":"ZWE-2-52"},"id":"ZWE-2-52"},{"arcs":[[-11,183,-74,-90,184,-79,-117],[185]],"type":"Polygon","properties":{"name":"Masvingo","shapeGroup":"ZWE","gid":"ZWE-2-53"},"id":"ZWE-2-53"},{"arcs":[[-186]],"type":"Polygon","properties":{"name":"Masvingo Urban","shapeGroup":"ZWE","gid":"ZWE-2-54"},"id":"ZWE-2-54"},{"arcs":[[-38,186,187,-119,188,-178,-41,189]],"type":"Polygon","properties":{"name":"Matobo","shapeGroup":"ZWE","gid":"ZWE-2-55"},"id":"ZWE-2-55"},{"arcs":[[-16,-112,-131,190,-113,-47,191],[192]],"type":"Polygon","properties":{"name":"Mazowe","shapeGroup":"ZWE","gid":"ZWE-2-56"},"id":"ZWE-2-56"},{"arcs":[[-87,193,-122,-151,194]],"type":"Polygon","properties":{"name":"Mberengwa","shapeGroup":"ZWE","gid":"ZWE-2-57"},"id":"ZWE-2-57"},{"arcs":[[-49,-116,-169,-138,195]],"type":"Polygon","properties":{"name":"Mbire","shapeGroup":"ZWE","gid":"ZWE-2-58"},"id":"ZWE-2-58"},{"arcs":[[-54,196,-60,-83,-161,197,-154,198]],"type":"Polygon","properties":{"name":"Mhondoro-Ngezi","shapeGroup":"ZWE","gid":"ZWE-2-59"},"id":"ZWE-2-59"},{"arcs":[[-17,-192,-46,199,200,201,202]],"type":"Polygon","properties":{"name":"Mount Darwin","shapeGroup":"ZWE","gid":"ZWE-2-60"},"id":"ZWE-2-60"},{"arcs":[[203,204,205,206,207]],"type":"Polygon","properties":{"name":"Mudzi","shapeGroup":"ZWE","gid":"ZWE-2-61"},"id":"ZWE-2-61"},{"arcs":[[-106,208,209,210,-172,-182]],"type":"Polygon","properties":{"name":"Murehwa","shapeGroup":"ZWE","gid":"ZWE-2-62"},"id":"ZWE-2-62"},{"arcs":[[-35,-176,211,212,213,-64]],"type":"Polygon","properties":{"name":"Mutare","shapeGroup":"ZWE","gid":"ZWE-2-63"},"id":"ZWE-2-63"},{"arcs":[[-213,214,215]],"type":"Polygon","properties":{"name":"Mutare Urban","shapeGroup":"ZWE","gid":"ZWE-2-64"},"id":"ZWE-2-64"},{"arcs":[[-175,216,217,-215,-212]],"type":"Polygon","properties":{"name":"Mutasa","shapeGroup":"ZWE","gid":"ZWE-2-65"},"id":"ZWE-2-65"},{"arcs":[[-173,-211,218,-205,219]],"type":"Polygon","properties":{"name":"Mutoko","shapeGroup":"ZWE","gid":"ZWE-2-66"},"id":"ZWE-2-66"},{"arcs":[[-193]],"type":"Polygon","properties":{"name":"Mvurwi","shapeGroup":"ZWE","gid":"ZWE-2-67"},"id":"ZWE-2-67"},{"arcs":[[-6,-123,-194,-86,-72]],"type":"Polygon","properties":{"name":"Mwenezi","shapeGroup":"ZWE","gid":"ZWE-2-68"},"id":"ZWE-2-68"},{"arcs":[[-25,-164,-102,-159]],"type":"Polygon","properties":{"name":"Nkayi","shapeGroup":"ZWE","gid":"ZWE-2-69"},"id":"ZWE-2-69"},{"arcs":[[-51,220]],"type":"Polygon","properties":{"name":"Norton","shapeGroup":"ZWE","gid":"ZWE-2-70"},"id":"ZWE-2-70"},{"arcs":[[-174,-220,-204,221,-217]],"type":"Polygon","properties":{"name":"Nyanga","shapeGroup":"ZWE","gid":"ZWE-2-71"},"id":"ZWE-2-71"},{"arcs":[[-43,-180]],"type":"Polygon","properties":{"name":"Plumtree","shapeGroup":"ZWE","gid":"ZWE-2-72"},"id":"ZWE-2-72"},{"arcs":[[-163]],"type":"Polygon","properties":{"name":"Redcliff","shapeGroup":"ZWE","gid":"ZWE-2-73"},"id":"ZWE-2-73"},{"arcs":[[-177]],"type":"Polygon","properties":{"name":"Rusape","shapeGroup":"ZWE","gid":"ZWE-2-74"},"id":"ZWE-2-74"},{"arcs":[[-201,222,-207,223]],"type":"Polygon","properties":{"name":"Rushinga","shapeGroup":"ZWE","gid":"ZWE-2-75"},"id":"ZWE-2-75"},{"arcs":[[-94,-132,-110]],"type":"Polygon","properties":{"name":"Ruwa","shapeGroup":"ZWE","gid":"ZWE-2-76"},"id":"ZWE-2-76"},{"arcs":[[-55,-199,-153,-198,-160,-100,-98,-168,224]],"type":"Polygon","properties":{"name":"Sanyati","shapeGroup":"ZWE","gid":"ZWE-2-77"},"id":"ZWE-2-77"},{"arcs":[[-53,225,-133,-85,-135,-108,-181,-61,-197]],"type":"Polygon","properties":{"name":"Seke","shapeGroup":"ZWE","gid":"ZWE-2-78"},"id":"ZWE-2-78"},{"arcs":[[-14,-203,226,-209,-105]],"type":"Polygon","properties":{"name":"Shamva","shapeGroup":"ZWE","gid":"ZWE-2-79"},"id":"ZWE-2-79"},{"arcs":[[-80,-185,-89,227,-149,-126],[228]],"type":"Polygon","properties":{"name":"Shurugwi","shapeGroup":"ZWE","gid":"ZWE-2-80"},"id":"ZWE-2-80"},{"arcs":[[-229]],"type":"Polygon","properties":{"name":"Shurugwi Town","shapeGroup":"ZWE","gid":"ZWE-2-81"},"id":"ZWE-2-81"},{"arcs":[[-45,229,-142,-166,230]],"type":"Polygon","properties":{"name":"Tsholotsho","shapeGroup":"ZWE","gid":"ZWE-2-82"},"id":"ZWE-2-82"},{"arcs":[[-29,231,-187,-39,-190,-40,-231,-165]],"type":"Polygon","properties":{"name":"Umguza","shapeGroup":"ZWE","gid":"ZWE-2-83"},"id":"ZWE-2-83"},{"arcs":[[-120,-188,-232,-152]],"type":"Polygon","properties":{"name":"Umzingwane","shapeGroup":"ZWE","gid":"ZWE-2-84"},"id":"ZWE-2-84"},{"arcs":[[-202,-224,-206,-219,-210,-227]],"type":"Polygon","properties":{"name":"Uzumba Maramba Pfungwe","shapeGroup":"ZWE","gid":"ZWE-2-85"},"id":"ZWE-2-85"},{"arcs":[[-144,232]],"type":"Polygon","properties":{"name":"Victoria Falls","shapeGroup":"ZWE","gid":"ZWE-2-86"},"id":"ZWE-2-86"},{"arcs":[[-10,-75,-184]],"type":"Polygon","properties":{"name":"Zaka","shapeGroup":"ZWE","gid":"ZWE-2-87"},"id":"ZWE-2-87"},{"arcs":[[-52,-221,-56,-225,-167,-67,-170,-114,-191,-130,-134,-226]],"type":"Polygon","properties":{"name":"Zvimba","shapeGroup":"ZWE","gid":"ZWE-2-88"},"id":"ZWE-2-88"},{"arcs":[[-88,-195,-150,-228],[233]],"type":"Polygon","properties":{"name":"Zvishavane","shapeGroup":"ZWE","gid":"ZWE-2-89"},"id":"ZWE-2-89"},{"arcs":[[-234]],"type":"Polygon","properties":{"name":"Zvishavane Urban","shapeGroup":"ZWE","gid":"ZWE-2-90"},"id":"ZWE-2-90"}]}}}